{
    "type": "FeatureCollection",
    "name": "JPT_KOD_JE_1018",
    "crs": {
        "type": "name",
        "properties": {
            "name": "urn:ogc:def:crs:EPSG::4326"
        }
    },
    "features": [
        {
            "type": "Feature",
            "properties": {
                "ref:csioz": 1009636,
                "addr:street": "Tadeusza Kościuszki",
                "addr:housenumber": "6",
                "addr:city": "Bolesławiec",
                "addr:postcode": "98-430",
                "amenity": "pharmacy"
            },
            "geometry": {
                "type": "Point",
                "coordinates": [
                    18.19022283984377,
                    51.1974450235028
                ]
            }
        },
        {
            "type": "Feature",
            "properties": {
                "ref:csioz": 1011580,
                "addr:street": "Wieluńska",
                "addr:housenumber": "2B",
                "addr:city": "Łubnice",
                "addr:postcode": "98-432",
                "amenity": "pharmacy"
            },
            "geometry": {
                "type": "Point",
                "coordinates": [
                    18.288438189361447,
                    51.17179017326045
                ]
            }
        },
        {
            "type": "Feature",
            "properties": {
                "ref:csioz": 1011740,
                "addr:street": "Warszawska",
                "addr:housenumber": "96",
                "addr:city": "Wieruszów",
                "addr:postcode": "98-400",
                "amenity": "pharmacy"
            },
            "geometry": {
                "type": "Point",
                "coordinates": [
                    18.16374670830669,
                    51.29454933658465
                ]
            }
        },
        {
            "type": "Feature",
            "properties": {
                "ref:csioz": 1013673,
                "name": "Apteka Dbam O Zdrowie",
                "addr:street": "Jana Pawła Stalskiego",
                "addr:housenumber": "6",
                "addr:city": "Lututów",
                "addr:postcode": "98-360",
                "amenity": "pharmacy"
            },
            "geometry": {
                "type": "Point",
                "coordinates": [
                    18.431838732500204,
                    51.37139870850823
                ]
            }
        },
        {
            "type": "Feature",
            "properties": {
                "ref:csioz": 1017613,
                "name": "\"Apteka \"\"Familia\"\" J.B. Sobkowscy S.C.\"",
                "addr:street": "Szkolna",
                "addr:housenumber": "6",
                "addr:city": "Czastary",
                "addr:postcode": "98-410",
                "amenity": "pharmacy"
            },
            "geometry": {
                "type": "Point",
                "coordinates": [
                    18.32347230891674,
                    51.25843119058103
                ]
            }
        },
        {
            "type": "Feature",
            "properties": {
                "ref:csioz": 1021297,
                "name": "Dr. Max",
                "addr:street": "Mikołaja Kopernika",
                "addr:housenumber": "4",
                "addr:city": "Wieruszów",
                "addr:postcode": "98-400",
                "amenity": "pharmacy"
            },
            "geometry": {
                "type": "Point",
                "coordinates": [
                    18.133128466863287,
                    51.30636499102051
                ]
            }
        },
        {
            "type": "Feature",
            "properties": {
                "ref:csioz": 1025663,
                "addr:housenumber": "185B",
                "addr:city": "Osiek",
                "addr:postcode": "98-405",
                "amenity": "pharmacy"
            },
            "geometry": {
                "type": "Point",
                "coordinates": [
                    18.204361707387818,
                    51.375306283251376
                ]
            }
        },
        {
            "type": "Feature",
            "properties": {
                "ref:csioz": 1121097,
                "name": "W Rynku",
                "addr:street": "Rynek",
                "addr:housenumber": "20",
                "addr:city": "Wieruszów",
                "addr:postcode": "98-400",
                "amenity": "pharmacy"
            },
            "geometry": {
                "type": "Point",
                "coordinates": [
                    18.150301631849285,
                    51.29534890924013
                ]
            }
        },
        {
            "type": "Feature",
            "properties": {
                "ref:csioz": 1171899,
                "name": "Dr.Max",
                "addr:street": "Fabryczna",
                "addr:housenumber": "4A",
                "addr:flats": "3",
                "addr:city": "Wieruszów",
                "addr:postcode": "98-400",
                "amenity": "pharmacy"
            },
            "geometry": {
                "type": "Point",
                "coordinates": [
                    18.161482409923032,
                    51.29623456724475
                ]
            }
        },
        {
            "type": "Feature",
            "properties": {
                "ref:csioz": 1012407,
                "name": "Św.Rocha",
                "addr:street": "Warszawska",
                "addr:housenumber": "55",
                "addr:city": "Wieruszów",
                "addr:postcode": "98-400",
                "amenity": "pharmacy"
            },
            "geometry": {
                "type": "Point",
                "coordinates": [
                    18.15803155359416,
                    51.29467449565661
                ]
            }
        },
        {
            "type": "Feature",
            "properties": {
                "ref:csioz": 1016876,
                "name": "Św.Mikołaja",
                "addr:street": "Ogrodowa",
                "addr:housenumber": "18",
                "addr:city": "Sokolniki",
                "addr:postcode": "98-420",
                "amenity": "pharmacy"
            },
            "geometry": {
                "type": "Point",
                "coordinates": [
                    18.32335147931889,
                    51.306522125546614
                ]
            }
        },
        {
            "type": "Feature",
            "properties": {
                "ref:csioz": 1121100,
                "addr:street": "Warszawska",
                "addr:housenumber": "41",
                "addr:city": "Wieruszów",
                "addr:postcode": "98-400",
                "amenity": "pharmacy"
            },
            "geometry": {
                "type": "Point",
                "coordinates": [
                    18.16975071171725,
                    51.294419690100355
                ]
            }
        },
        {
            "type": "Feature",
            "properties": {
                "ref:csioz": 1197045,
                "name": "Powiatowe Centrum Medyczne Spółka Z Ograniczoną Odpowiedzialnością Nzoz Szpital Powiatowy",
                "addr:street": "Warszawska",
                "addr:housenumber": "104",
                "addr:city": "Wieruszów",
                "addr:postcode": "98-400",
                "amenity": "pharmacy"
            },
            "geometry": {
                "type": "Point",
                "coordinates": [
                    18.164586022714442,
                    51.29462208718544
                ]
            }
        },
        {
            "type": "Feature",
            "properties": {
                "ref:csioz": 1200723,
                "name": "Drofarm",
                "addr:street": "Warszawska",
                "addr:housenumber": "99",
                "addr:city": "Wieruszów",
                "addr:postcode": "98-400",
                "amenity": "pharmacy"
            },
            "geometry": {
                "type": "Point",
                "coordinates": [
                    18.16376163140092,
                    51.29479550996531
                ]
            }
        },
        {
            "type": "Feature",
            "properties": {
                "ref:csioz": 1211624,
                "name": "\"Apteki Burchacińscy; Wejdź Po Zdrowie\"",
                "addr:street": "Rynek",
                "addr:housenumber": "15",
                "addr:city": "Lututów",
                "addr:postcode": "98-360",
                "amenity": "pharmacy"
            },
            "geometry": {
                "type": "Point",
                "coordinates": [
                    18.4335380472584,
                    51.37139266404057
                ]
            }
        },
        {
            "type": "Feature",
            "properties": {
                "ref:csioz": 1228228,
                "name": "Fitfarm",
                "addr:street": "Wieruszowska",
                "addr:housenumber": "10C",
                "addr:city": "Galewice",
                "addr:postcode": "98-405",
                "amenity": "pharmacy"
            },
            "geometry": {
                "type": "Point",
                "coordinates": [
                    18.25288993044842,
                    51.341898081824176
                ]
            }
        }
    ]
}