{
    "type": "FeatureCollection",
    "name": "JPT_KOD_JE_0214",
    "crs": {
        "type": "name",
        "properties": {
            "name": "urn:ogc:def:crs:EPSG::4326"
        }
    },
    "features": [
        {
            "type": "Feature",
            "properties": {
                "ref:csioz": 1126742,
                "name": "Pod Orłem",
                "addr:street": "Rynek",
                "addr:housenumber": "11",
                "addr:city": "Oleśnica",
                "addr:postcode": "56-400",
                "amenity": "pharmacy"
            },
            "geometry": {
                "type": "Point",
                "coordinates": [
                    17.38018781515914,
                    51.20941218321633
                ]
            }
        },
        {
            "type": "Feature",
            "properties": {
                "ref:csioz": 1127454,
                "name": "Familijna",
                "addr:street": "Jana Kilińskiego",
                "addr:housenumber": "11",
                "addr:city": "Oleśnica",
                "addr:postcode": "56-400",
                "amenity": "pharmacy"
            },
            "geometry": {
                "type": "Point",
                "coordinates": [
                    17.381444407944034,
                    51.20683424535379
                ]
            }
        },
        {
            "type": "Feature",
            "properties": {
                "ref:csioz": 1128425,
                "name": "Centrum",
                "addr:street": "Ludwika Waryńskiego",
                "addr:housenumber": "4",
                "addr:city": "Twardogóra",
                "addr:postcode": "56-416",
                "amenity": "pharmacy"
            },
            "geometry": {
                "type": "Point",
                "coordinates": [
                    17.471837630368306,
                    51.36709240299092
                ]
            }
        },
        {
            "type": "Feature",
            "properties": {
                "ref:csioz": 1128612,
                "name": "Oleśnicka",
                "addr:street": "Ks. Franciszka Sudoła",
                "addr:housenumber": "1",
                "addr:city": "Oleśnica",
                "addr:postcode": "56-400",
                "amenity": "pharmacy"
            },
            "geometry": {
                "type": "Point",
                "coordinates": [
                    17.39132584288455,
                    51.20420154761609
                ]
            }
        },
        {
            "type": "Feature",
            "properties": {
                "ref:csioz": 1129439,
                "name": "\"'Melissa'\"",
                "addr:street": "Armii Krajowej",
                "addr:housenumber": "43",
                "addr:city": "Oleśnica",
                "addr:postcode": "56-400",
                "amenity": "pharmacy"
            },
            "geometry": {
                "type": "Point",
                "coordinates": [
                    17.39404388256377,
                    51.208257063023545
                ]
            }
        },
        {
            "type": "Feature",
            "properties": {
                "ref:csioz": 1130617,
                "name": "Pod Zegarem",
                "addr:street": "Przyjaciół Żołnierza",
                "addr:housenumber": "3",
                "addr:city": "Bierutów",
                "addr:postcode": "56-420",
                "amenity": "pharmacy"
            },
            "geometry": {
                "type": "Point",
                "coordinates": [
                    17.543324773561537,
                    51.12436582284548
                ]
            }
        },
        {
            "type": "Feature",
            "properties": {
                "ref:csioz": 1136913,
                "name": "Nova",
                "addr:street": "Jana Kilińskiego",
                "addr:housenumber": "6",
                "addr:flats": "/4",
                "addr:city": "Oleśnica",
                "addr:postcode": "56-400",
                "amenity": "pharmacy"
            },
            "geometry": {
                "type": "Point",
                "coordinates": [
                    17.381804286243575,
                    51.20757890416874
                ]
            }
        },
        {
            "type": "Feature",
            "properties": {
                "ref:csioz": 1160946,
                "name": "Szpital W Oleśnicy - Powiatowy Zespół Szpitali W Oleśnicy",
                "addr:street": "Armii Krajowej",
                "addr:housenumber": "1",
                "addr:city": "Oleśnica",
                "addr:postcode": "56-400",
                "amenity": "pharmacy"
            },
            "geometry": {
                "type": "Point",
                "coordinates": [
                    17.390771580705223,
                    51.20877169118248
                ]
            }
        },
        {
            "type": "Feature",
            "properties": {
                "ref:csioz": 1126907,
                "name": "Pod Ratuszem",
                "addr:street": "Ratuszowa",
                "addr:housenumber": "17",
                "addr:city": "Twardogóra",
                "addr:postcode": "56-416",
                "amenity": "pharmacy"
            },
            "geometry": {
                "type": "Point",
                "coordinates": [
                    17.46646073517634,
                    51.36660223458771
                ]
            }
        },
        {
            "type": "Feature",
            "properties": {
                "ref:csioz": 1127209,
                "name": "Eskulap",
                "addr:street": "Marii Curie Skłodowskiej",
                "addr:housenumber": "5",
                "addr:city": "Oleśnica",
                "addr:postcode": "56-400",
                "amenity": "pharmacy"
            },
            "geometry": {
                "type": "Point",
                "coordinates": [
                    17.386510999998706,
                    51.21038400001426
                ]
            }
        },
        {
            "type": "Feature",
            "properties": {
                "ref:csioz": 1128131,
                "name": "Apteka Dbam O Zdrowie",
                "addr:street": "Rzemieślnicza",
                "addr:housenumber": "10",
                "addr:city": "Oleśnica",
                "addr:postcode": "56-400",
                "amenity": "pharmacy"
            },
            "geometry": {
                "type": "Point",
                "coordinates": [
                    17.37807199452963,
                    51.21189850124346
                ]
            }
        },
        {
            "type": "Feature",
            "properties": {
                "ref:csioz": 1129800,
                "name": "Zwycięska",
                "addr:street": "Rzemieślnicza",
                "addr:housenumber": "4",
                "addr:city": "Bierutów",
                "addr:postcode": "56-420",
                "amenity": "pharmacy"
            },
            "geometry": {
                "type": "Point",
                "coordinates": [
                    17.545950154526913,
                    51.12520680666742
                ]
            }
        },
        {
            "type": "Feature",
            "properties": {
                "ref:csioz": 1129187,
                "name": "\"Apteka \"\"Convallaria\"\"\"",
                "addr:street": "11 Listopada",
                "addr:housenumber": "22",
                "addr:city": "Dobroszyce",
                "addr:postcode": "56-410",
                "amenity": "pharmacy"
            },
            "geometry": {
                "type": "Point",
                "coordinates": [
                    17.340602200105078,
                    51.265000831105404
                ]
            }
        },
        {
            "type": "Feature",
            "properties": {
                "ref:csioz": 1130551,
                "name": "Mastermed",
                "addr:street": "Kopernika",
                "addr:housenumber": "12",
                "addr:city": "Oleśnica",
                "addr:postcode": "56-400",
                "amenity": "pharmacy"
            },
            "geometry": {
                "type": "Point",
                "coordinates": [
                    17.403366058885005,
                    51.212381644271055
                ]
            }
        },
        {
            "type": "Feature",
            "properties": {
                "ref:csioz": 1129942,
                "name": "\"Apteka \"\"Przyjazna\"\"\"",
                "addr:street": "1 Maja",
                "addr:housenumber": "9",
                "addr:city": "Twardogóra",
                "addr:postcode": "56-416",
                "amenity": "pharmacy"
            },
            "geometry": {
                "type": "Point",
                "coordinates": [
                    17.47013189025042,
                    51.36333671811724
                ]
            }
        },
        {
            "type": "Feature",
            "properties": {
                "ref:csioz": 1136004,
                "name": "Apteka Lege Artis",
                "addr:street": "Gdańska",
                "addr:housenumber": "16",
                "addr:city": "Twardogóra",
                "addr:postcode": "56-416",
                "amenity": "pharmacy"
            },
            "geometry": {
                "type": "Point",
                "coordinates": [
                    17.470696999998925,
                    51.36489400001448
                ]
            }
        },
        {
            "type": "Feature",
            "properties": {
                "ref:csioz": 1137333,
                "name": "Apteka Słoneczna",
                "addr:street": "Ludwikowska",
                "addr:housenumber": "10",
                "addr:city": "Oleśnica",
                "addr:postcode": "56-400",
                "amenity": "pharmacy"
            },
            "geometry": {
                "type": "Point",
                "coordinates": [
                    17.37605197300786,
                    51.19945999262984
                ]
            }
        },
        {
            "type": "Feature",
            "properties": {
                "ref:csioz": 1186330,
                "name": "Apteka Pod Temidą",
                "addr:street": "3 Maja",
                "addr:housenumber": "47",
                "addr:city": "Oleśnica",
                "addr:postcode": "56-400",
                "amenity": "pharmacy"
            },
            "geometry": {
                "type": "Point",
                "coordinates": [
                    17.378990803179487,
                    51.20544875401313
                ]
            }
        },
        {
            "type": "Feature",
            "properties": {
                "ref:csioz": 1190564,
                "name": "Apteka Majowa",
                "addr:street": "1 Maja",
                "addr:housenumber": "9 AB",
                "addr:city": "Bierutów",
                "addr:postcode": "56-420",
                "amenity": "pharmacy"
            },
            "geometry": {
                "type": "Point",
                "coordinates": [
                    17.54354499999908,
                    51.12528200001413
                ]
            }
        },
        {
            "type": "Feature",
            "properties": {
                "ref:csioz": 1204142,
                "name": "Nova",
                "addr:street": "Ignacego Paderewskiego",
                "addr:housenumber": "\"4o, 4n\"",
                "addr:city": "Oleśnica",
                "addr:postcode": "56-400",
                "amenity": "pharmacy"
            },
            "geometry": {
                "type": "Point",
                "coordinates": [
                    17.389165816284475,
                    51.204770644211344
                ]
            }
        },
        {
            "type": "Feature",
            "properties": {
                "ref:csioz": 1207212,
                "name": "Doz Apteka Dbam O Zdrowie",
                "addr:street": "Wojska Polskiego",
                "addr:housenumber": "1D",
                "addr:city": "Oleśnica",
                "addr:postcode": "56-400",
                "amenity": "pharmacy"
            },
            "geometry": {
                "type": "Point",
                "coordinates": [
                    17.37702317451296,
                    51.214377269630766
                ]
            }
        },
        {
            "type": "Feature",
            "properties": {
                "ref:csioz": 1208717,
                "name": "Apteka Lekosfera Dga24",
                "addr:street": "Wspólna",
                "addr:housenumber": "1",
                "addr:city": "Oleśnica",
                "addr:postcode": "56-400",
                "amenity": "pharmacy"
            },
            "geometry": {
                "type": "Point",
                "coordinates": [
                    17.403609597053787,
                    51.21706485949884
                ]
            }
        },
        {
            "type": "Feature",
            "properties": {
                "ref:csioz": 1213116,
                "name": "Apteka Gemini",
                "addr:street": "ul. Marii Skłodowskiej-Curie",
                "addr:housenumber": "2-4",
                "addr:flats": "lokal 4 i 5",
                "addr:city": "Oleśnica",
                "addr:postcode": "56-400",
                "amenity": "pharmacy"
            },
            "geometry": {
                "type": "Point",
                "coordinates": [
                    17.38715670191964,
                    51.21235753547229
                ]
            }
        },
        {
            "type": "Feature",
            "properties": {
                "ref:csioz": 1217493,
                "name": "Dr. Max",
                "addr:street": "ul. Ignacego Daszyńskiego",
                "addr:housenumber": "2A",
                "addr:city": "Oleśnica",
                "addr:postcode": "56-400",
                "amenity": "pharmacy"
            },
            "geometry": {
                "type": "Point",
                "coordinates": [
                    17.388172305404964,
                    51.20708190626359
                ]
            }
        },
        {
            "type": "Feature",
            "properties": {
                "ref:csioz": 1130162,
                "name": "\"\"\"Apteki Burchacińscy; Wejdź Po Zdrowie !\"\"\"",
                "addr:street": "Jana Sinapiusa",
                "addr:housenumber": "2",
                "addr:city": "Oleśnica",
                "addr:postcode": "56-400",
                "amenity": "pharmacy"
            },
            "geometry": {
                "type": "Point",
                "coordinates": [
                    17.38385761892891,
                    51.20953259269237
                ]
            }
        },
        {
            "type": "Feature",
            "properties": {
                "ref:csioz": 1129372,
                "name": "Berberis",
                "addr:street": "Oleśnicka",
                "addr:housenumber": "8",
                "addr:city": "Dobroszyce",
                "addr:postcode": "56-410",
                "amenity": "pharmacy"
            },
            "geometry": {
                "type": "Point",
                "coordinates": [
                    17.34163678037667,
                    51.265039242536545
                ]
            }
        },
        {
            "type": "Feature",
            "properties": {
                "ref:csioz": 1128583,
                "name": "Apteka Rodzinna",
                "addr:street": "Ignacego Daszyńskiego",
                "addr:housenumber": "4",
                "addr:city": "Syców",
                "addr:postcode": "56-500",
                "amenity": "pharmacy"
            },
            "geometry": {
                "type": "Point",
                "coordinates": [
                    17.716039999999353,
                    51.30650900001441
                ]
            }
        },
        {
            "type": "Feature",
            "properties": {
                "ref:csioz": 1129140,
                "name": "Passiflora",
                "addr:street": "Sycowska",
                "addr:housenumber": "14",
                "addr:city": "Międzybórz",
                "addr:postcode": "56-513",
                "amenity": "pharmacy"
            },
            "geometry": {
                "type": "Point",
                "coordinates": [
                    17.668681165408426,
                    51.394966863846825
                ]
            }
        },
        {
            "type": "Feature",
            "properties": {
                "ref:csioz": 1130490,
                "name": "Tanie Leki",
                "addr:street": "Ignacego Daszyńskiego",
                "addr:housenumber": "1",
                "addr:city": "Syców",
                "addr:postcode": "56-500",
                "amenity": "pharmacy"
            },
            "geometry": {
                "type": "Point",
                "coordinates": [
                    17.716027941746447,
                    51.30650802370149
                ]
            }
        },
        {
            "type": "Feature",
            "properties": {
                "ref:csioz": 1159273,
                "name": "Eliksir",
                "addr:street": "Wojska Polskiego",
                "addr:housenumber": "9",
                "addr:city": "Syców",
                "addr:postcode": "56-500",
                "amenity": "pharmacy"
            },
            "geometry": {
                "type": "Point",
                "coordinates": [
                    17.72024003648238,
                    51.308499644182945
                ]
            }
        },
        {
            "type": "Feature",
            "properties": {
                "ref:csioz": 1159285,
                "name": "Pod Wagą",
                "addr:street": "Rynek",
                "addr:housenumber": "20",
                "addr:city": "Międzybórz",
                "addr:postcode": "56-513",
                "amenity": "pharmacy"
            },
            "geometry": {
                "type": "Point",
                "coordinates": [
                    17.66559523937185,
                    51.397346745065924
                ]
            }
        },
        {
            "type": "Feature",
            "properties": {
                "ref:csioz": 1159299,
                "name": "Apteka Prywatna",
                "addr:street": "Słoneczna",
                "addr:housenumber": "7B",
                "addr:city": "Dziadowa Kłoda",
                "addr:postcode": "56-504",
                "amenity": "pharmacy"
            },
            "geometry": {
                "type": "Point",
                "coordinates": [
                    17.710609488822612,
                    51.232621633271876
                ]
            }
        },
        {
            "type": "Feature",
            "properties": {
                "ref:csioz": 1189538,
                "name": "Nowa",
                "addr:street": "Kaliska",
                "addr:housenumber": "5",
                "addr:city": "Syców",
                "addr:postcode": "56-500",
                "amenity": "pharmacy"
            },
            "geometry": {
                "type": "Point",
                "coordinates": [
                    17.72488857976124,
                    51.31241916918045
                ]
            }
        },
        {
            "type": "Feature",
            "properties": {
                "ref:csioz": 1210420,
                "name": "Na Zdrowie",
                "addr:street": "ul. Wrocławska",
                "addr:housenumber": "2",
                "addr:city": "Syców",
                "addr:postcode": "56-500",
                "amenity": "pharmacy"
            },
            "geometry": {
                "type": "Point",
                "coordinates": [
                    17.716292546223308,
                    51.305896331966245
                ]
            }
        },
        {
            "type": "Feature",
            "properties": {
                "ref:csioz": 1159261,
                "name": "\"Apteka \"\"Św. Krzysztofa\"\"\"",
                "addr:street": "Wolności",
                "addr:housenumber": "4",
                "addr:city": "Syców",
                "addr:postcode": "56-500",
                "amenity": "pharmacy"
            },
            "geometry": {
                "type": "Point",
                "coordinates": [
                    17.720020998445513,
                    51.307650005543024
                ]
            }
        },
        {
            "type": "Feature",
            "properties": {
                "ref:csioz": 1128620,
                "name": "Homeopatyczna Pod Wagą",
                "addr:street": "Adama Mickiewicza",
                "addr:housenumber": "21",
                "addr:city": "Syców",
                "addr:postcode": "56-500",
                "amenity": "pharmacy"
            },
            "geometry": {
                "type": "Point",
                "coordinates": [
                    17.72482522239021,
                    51.3113920223344
                ]
            }
        }
    ]
}