{
    "type": "FeatureCollection",
    "name": "JPT_KOD_JE_2214",
    "crs": {
        "type": "name",
        "properties": {
            "name": "urn:ogc:def:crs:EPSG::4326"
        }
    },
    "features": [
        {
            "type": "Feature",
            "properties": {
                "ref:csioz": 1026470,
                "name": "Czyżykowska S. J.",
                "addr:street": "Czyżykowska",
                "addr:housenumber": "68",
                "addr:city": "Tczew",
                "addr:postcode": "83-110",
                "amenity": "pharmacy"
            },
            "geometry": {
                "type": "Point",
                "coordinates": [
                    18.80033585103973,
                    54.07710706166608
                ]
            }
        },
        {
            "type": "Feature",
            "properties": {
                "ref:csioz": 1028743,
                "name": "Doz Apteka Dbam O Zdrowie",
                "addr:street": "Jodłowa",
                "addr:housenumber": "13A",
                "addr:city": "Tczew",
                "addr:postcode": "83-110",
                "amenity": "pharmacy"
            },
            "geometry": {
                "type": "Point",
                "coordinates": [
                    18.769509034957178,
                    54.09777598448199
                ]
            }
        },
        {
            "type": "Feature",
            "properties": {
                "ref:csioz": 1030881,
                "name": "Doz Apteka Dbam O Zdrowie",
                "addr:street": "Jedności Narodu",
                "addr:housenumber": "16",
                "addr:flats": "2",
                "addr:city": "Tczew",
                "addr:postcode": "83-110",
                "amenity": "pharmacy"
            },
            "geometry": {
                "type": "Point",
                "coordinates": [
                    18.781145899307802,
                    54.09699835981762
                ]
            }
        },
        {
            "type": "Feature",
            "properties": {
                "ref:csioz": 1031763,
                "name": "Doz Apteka Dbam O Zdrowie",
                "addr:street": "Franciszka Żwirki",
                "addr:housenumber": "49",
                "addr:city": "Tczew",
                "addr:postcode": "83-110",
                "amenity": "pharmacy"
            },
            "geometry": {
                "type": "Point",
                "coordinates": [
                    18.767143305673592,
                    54.096111514617824
                ]
            }
        },
        {
            "type": "Feature",
            "properties": {
                "ref:csioz": 1031519,
                "name": "Doz Apteka Dbam O Zdrowie",
                "addr:street": "Armii Krajowej",
                "addr:housenumber": "19E",
                "addr:city": "Tczew",
                "addr:postcode": "83-110",
                "amenity": "pharmacy"
            },
            "geometry": {
                "type": "Point",
                "coordinates": [
                    18.767012723071467,
                    54.100421344555535
                ]
            }
        },
        {
            "type": "Feature",
            "properties": {
                "ref:csioz": 1031524,
                "name": "Gemini",
                "addr:street": "Armii Krajowej",
                "addr:housenumber": "74",
                "addr:city": "Tczew",
                "addr:postcode": "83-110",
                "amenity": "pharmacy"
            },
            "geometry": {
                "type": "Point",
                "coordinates": [
                    18.764115044394227,
                    54.09881141357697
                ]
            }
        },
        {
            "type": "Feature",
            "properties": {
                "ref:csioz": 1032182,
                "name": "Wracam Do Zdrowia",
                "addr:street": "Mickiewicza",
                "addr:housenumber": "21A",
                "addr:city": "Pelplin",
                "addr:postcode": "83-130",
                "amenity": "pharmacy"
            },
            "geometry": {
                "type": "Point",
                "coordinates": [
                    18.70056068190064,
                    53.9264961869449
                ]
            }
        },
        {
            "type": "Feature",
            "properties": {
                "ref:csioz": 1033146,
                "name": "Bajkowa",
                "addr:street": "Jasia i Małgosi",
                "addr:housenumber": "8",
                "addr:flats": "3",
                "addr:city": "Tczew",
                "addr:postcode": "83-110",
                "amenity": "pharmacy"
            },
            "geometry": {
                "type": "Point",
                "coordinates": [
                    18.772069499666713,
                    54.0868512817466
                ]
            }
        },
        {
            "type": "Feature",
            "properties": {
                "ref:csioz": 1033561,
                "name": "Twoja Apteka",
                "addr:street": "Wojska Polskiego",
                "addr:housenumber": "5",
                "addr:city": "Tczew",
                "addr:postcode": "83-110",
                "amenity": "pharmacy"
            },
            "geometry": {
                "type": "Point",
                "coordinates": [
                    18.790158927976673,
                    54.08638664957589
                ]
            }
        },
        {
            "type": "Feature",
            "properties": {
                "ref:csioz": 1033933,
                "addr:street": "Parkowa",
                "addr:housenumber": "12",
                "addr:city": "Turze",
                "addr:postcode": "83-113",
                "amenity": "pharmacy"
            },
            "geometry": {
                "type": "Point",
                "coordinates": [
                    18.62483994113018,
                    54.09460811249959
                ]
            }
        },
        {
            "type": "Feature",
            "properties": {
                "ref:csioz": 1033940,
                "addr:street": "Pamięci Narodowej",
                "addr:housenumber": "10",
                "addr:city": "Miłobądz",
                "addr:postcode": "83-111",
                "amenity": "pharmacy"
            },
            "geometry": {
                "type": "Point",
                "coordinates": [
                    18.721712773324565,
                    54.13517843235083
                ]
            }
        },
        {
            "type": "Feature",
            "properties": {
                "ref:csioz": 1116965,
                "name": "Doz Apteka Dbam O Zdrowie",
                "addr:street": "Jana Sobieskiego",
                "addr:housenumber": "38 A",
                "addr:city": "Tczew",
                "addr:postcode": "83-110",
                "amenity": "pharmacy"
            },
            "geometry": {
                "type": "Point",
                "coordinates": [
                    18.787651672939592,
                    54.092027864620846
                ]
            }
        },
        {
            "type": "Feature",
            "properties": {
                "ref:csioz": 1139588,
                "name": "\"Apteka Szpitalna W \"\"Szpitale Tczewskie Świadczenia Szpitalne\"\"\"",
                "addr:street": "30-go Stycznia",
                "addr:housenumber": "57",
                "addr:flats": "58",
                "addr:city": "Tczew",
                "addr:postcode": "83-110",
                "amenity": "pharmacy"
            },
            "geometry": {
                "type": "Point",
                "coordinates": [
                    18.78996806124277,
                    54.08261835813906
                ]
            }
        },
        {
            "type": "Feature",
            "properties": {
                "ref:csioz": 1196451,
                "name": "Medical",
                "addr:street": "Dworcowa",
                "addr:housenumber": "7",
                "addr:city": "Pelplin",
                "addr:postcode": "83-130",
                "amenity": "pharmacy"
            },
            "geometry": {
                "type": "Point",
                "coordinates": [
                    18.706488127028223,
                    53.9267819615847
                ]
            }
        },
        {
            "type": "Feature",
            "properties": {
                "ref:csioz": 1199023,
                "name": "Apteka Dyżurna",
                "addr:street": "Marszałka Piłsudskiego",
                "addr:housenumber": "14",
                "addr:city": "Gniew",
                "addr:postcode": "83-140",
                "amenity": "pharmacy"
            },
            "geometry": {
                "type": "Point",
                "coordinates": [
                    18.822830786610155,
                    53.83536630317853
                ]
            }
        },
        {
            "type": "Feature",
            "properties": {
                "ref:csioz": 1225344,
                "name": "Apteka Ekozdrowie",
                "addr:street": "Pomorska",
                "addr:housenumber": "1",
                "addr:flats": "lok. 0.2 A",
                "addr:city": "Tczew",
                "addr:postcode": "83-102",
                "amenity": "pharmacy"
            },
            "geometry": {
                "type": "Point",
                "coordinates": [
                    18.787881792790504,
                    54.09627378360213
                ]
            }
        },
        {
            "type": "Feature",
            "properties": {
                "ref:csioz": 1026684,
                "addr:street": "Marszałka Piłsudskiego",
                "addr:housenumber": "17",
                "addr:city": "Gniew",
                "addr:postcode": "83-140",
                "amenity": "pharmacy"
            },
            "geometry": {
                "type": "Point",
                "coordinates": [
                    18.822861437487738,
                    53.83513806377941
                ]
            }
        },
        {
            "type": "Feature",
            "properties": {
                "ref:csioz": 1027369,
                "name": "Dr. Max",
                "addr:street": "Wybickiego",
                "addr:housenumber": "16",
                "addr:city": "Pelplin",
                "addr:postcode": "83-130",
                "amenity": "pharmacy"
            },
            "geometry": {
                "type": "Point",
                "coordinates": [
                    18.70472646575085,
                    53.92819485544742
                ]
            }
        },
        {
            "type": "Feature",
            "properties": {
                "ref:csioz": 1027560,
                "name": "Apteka Dbam O Zdrowie",
                "addr:street": "Plac Gen.Józefa Hallera",
                "addr:housenumber": "24",
                "addr:city": "Tczew",
                "addr:postcode": "83-110",
                "amenity": "pharmacy"
            },
            "geometry": {
                "type": "Point",
                "coordinates": [
                    18.799464634643098,
                    54.087099909515985
                ]
            }
        },
        {
            "type": "Feature",
            "properties": {
                "ref:csioz": 1029747,
                "name": "Salus",
                "addr:street": "Stefana Kardynała Wyszyńskiego",
                "addr:housenumber": "23",
                "addr:city": "Tczew",
                "addr:postcode": "83-110",
                "amenity": "pharmacy"
            },
            "geometry": {
                "type": "Point",
                "coordinates": [
                    18.798353488637083,
                    54.088603881446616
                ]
            }
        },
        {
            "type": "Feature",
            "properties": {
                "ref:csioz": 1030642,
                "name": "Doz Apteka Dbam O Zdrowie",
                "addr:street": "Czyżykowska",
                "addr:housenumber": "37",
                "addr:city": "Tczew",
                "addr:postcode": "83-110",
                "amenity": "pharmacy"
            },
            "geometry": {
                "type": "Point",
                "coordinates": [
                    18.799889402805174,
                    54.07715426188114
                ]
            }
        },
        {
            "type": "Feature",
            "properties": {
                "ref:csioz": 1030777,
                "name": "Apteka Dbam O Zdrowie",
                "addr:street": "Solidarności",
                "addr:housenumber": "11",
                "addr:flats": "25",
                "addr:city": "Tczew",
                "addr:postcode": "83-100",
                "amenity": "pharmacy"
            },
            "geometry": {
                "type": "Point",
                "coordinates": [
                    18.774756273610418,
                    54.103050975221926
                ]
            }
        },
        {
            "type": "Feature",
            "properties": {
                "ref:csioz": 1030951,
                "addr:street": "Braci Grimm",
                "addr:housenumber": "4",
                "addr:city": "Tczew",
                "addr:postcode": "83-110",
                "amenity": "pharmacy"
            },
            "geometry": {
                "type": "Point",
                "coordinates": [
                    18.775576689415466,
                    54.09034843085464
                ]
            }
        },
        {
            "type": "Feature",
            "properties": {
                "ref:csioz": 1031148,
                "name": "Kociewska",
                "addr:street": "Kopernika",
                "addr:housenumber": "8A",
                "addr:city": "Gniew",
                "addr:postcode": "83-140",
                "amenity": "pharmacy"
            },
            "geometry": {
                "type": "Point",
                "coordinates": [
                    18.823302538950557,
                    53.83683178866932
                ]
            }
        },
        {
            "type": "Feature",
            "properties": {
                "ref:csioz": 1031543,
                "name": "Doz Apteka Dbam O Zdrowie",
                "addr:street": "Wojska Polskiego",
                "addr:housenumber": "16A",
                "addr:city": "Tczew",
                "addr:postcode": "83-110",
                "amenity": "pharmacy"
            },
            "geometry": {
                "type": "Point",
                "coordinates": [
                    18.78549373273188,
                    54.089045662108326
                ]
            }
        },
        {
            "type": "Feature",
            "properties": {
                "ref:csioz": 1031888,
                "name": "Apteka Dbam O Zdrowie",
                "addr:street": "Mikołaja Kopernika",
                "addr:housenumber": "1",
                "addr:city": "Tczew",
                "addr:postcode": "83-110",
                "amenity": "pharmacy"
            },
            "geometry": {
                "type": "Point",
                "coordinates": [
                    18.791513421848887,
                    54.08696641017621
                ]
            }
        },
        {
            "type": "Feature",
            "properties": {
                "ref:csioz": 1032084,
                "addr:street": "Osiedle Witosa",
                "addr:housenumber": "10",
                "addr:city": "Gniew",
                "addr:postcode": "83-140",
                "amenity": "pharmacy"
            },
            "geometry": {
                "type": "Point",
                "coordinates": [
                    18.828623830065013,
                    53.838105359887635
                ]
            }
        },
        {
            "type": "Feature",
            "properties": {
                "ref:csioz": 1033965,
                "name": "Punkt Apteczny Czyżykowska",
                "addr:street": "Józefa Wybickiego",
                "addr:housenumber": "17",
                "addr:city": "Subkowy",
                "addr:postcode": "83-120",
                "amenity": "pharmacy"
            },
            "geometry": {
                "type": "Point",
                "coordinates": [
                    18.769431047190366,
                    53.99962276948761
                ]
            }
        },
        {
            "type": "Feature",
            "properties": {
                "ref:csioz": 1175945,
                "name": "Doz Apteka Dbam O Zdrowie",
                "addr:street": "Gdańska",
                "addr:housenumber": "8C",
                "addr:city": "Tczew",
                "addr:postcode": "83-110",
                "amenity": "pharmacy"
            },
            "geometry": {
                "type": "Point",
                "coordinates": [
                    18.78736325732554,
                    54.095293825632915
                ]
            }
        },
        {
            "type": "Feature",
            "properties": {
                "ref:csioz": 1180211,
                "name": "Aspirynka",
                "addr:street": "Kociewska",
                "addr:housenumber": "5",
                "addr:city": "Morzeszczyn",
                "addr:postcode": "83-132",
                "amenity": "pharmacy"
            },
            "geometry": {
                "type": "Point",
                "coordinates": [
                    18.69330228963247,
                    53.840373152832846
                ]
            }
        },
        {
            "type": "Feature",
            "properties": {
                "ref:csioz": 1194820,
                "name": "Apteka Dyżurna",
                "addr:street": "Jarosława Dąbrowskiego",
                "addr:housenumber": "10",
                "addr:city": "Tczew",
                "addr:postcode": "83-110",
                "amenity": "pharmacy"
            },
            "geometry": {
                "type": "Point",
                "coordinates": [
                    18.794041629459333,
                    54.08691892126061
                ]
            }
        },
        {
            "type": "Feature",
            "properties": {
                "ref:csioz": 1203308,
                "name": "Medical",
                "addr:street": "Kościuszki",
                "addr:housenumber": "17",
                "addr:city": "Tczew",
                "addr:postcode": "83-110",
                "amenity": "pharmacy"
            },
            "geometry": {
                "type": "Point",
                "coordinates": [
                    18.795956312789297,
                    54.08844818511209
                ]
            }
        },
        {
            "type": "Feature",
            "properties": {
                "ref:csioz": 1208120,
                "name": "Medical",
                "addr:street": "Pomorska",
                "addr:housenumber": "18",
                "addr:city": "Tczew",
                "addr:postcode": "83-110",
                "amenity": "pharmacy"
            },
            "geometry": {
                "type": "Point",
                "coordinates": [
                    18.789151052967366,
                    54.0968973666375
                ]
            }
        },
        {
            "type": "Feature",
            "properties": {
                "ref:csioz": 1211950,
                "name": "Apteka Dyżurna",
                "addr:street": "Franciszka Żwirki",
                "addr:housenumber": "38",
                "addr:city": "Tczew",
                "addr:postcode": "83-110",
                "amenity": "pharmacy"
            },
            "geometry": {
                "type": "Point",
                "coordinates": [
                    18.765211251815686,
                    54.09757601699588
                ]
            }
        },
        {
            "type": "Feature",
            "properties": {
                "ref:csioz": 1212353,
                "name": "Wracam Do Zdrowia",
                "addr:street": "Armii Krajowej",
                "addr:housenumber": "35",
                "addr:city": "Tczew",
                "addr:postcode": "83-110",
                "amenity": "pharmacy"
            },
            "geometry": {
                "type": "Point",
                "coordinates": [
                    18.764946093846145,
                    54.098682442859506
                ]
            }
        },
        {
            "type": "Feature",
            "properties": {
                "ref:csioz": 1215213,
                "name": "Apteka Gemini",
                "addr:street": "Zwycięstwa",
                "addr:housenumber": "16",
                "addr:city": "Tczew",
                "addr:postcode": "83-110",
                "amenity": "pharmacy"
            },
            "geometry": {
                "type": "Point",
                "coordinates": [
                    18.78600435142112,
                    54.093441299209026
                ]
            }
        },
        {
            "type": "Feature",
            "properties": {
                "ref:csioz": 1218812,
                "name": "Medical",
                "addr:street": "Wojska Polskiego",
                "addr:housenumber": "5A",
                "addr:city": "Tczew",
                "addr:postcode": "83-110",
                "amenity": "pharmacy"
            },
            "geometry": {
                "type": "Point",
                "coordinates": [
                    18.790394918479038,
                    54.08667503752527
                ]
            }
        }
    ]
}