{
    "type": "FeatureCollection",
    "name": "JPT_KOD_JE_0262",
    "features": [
        {
            "type": "Feature",
            "properties": {
                "ref:csioz": 1132768,
                "name": "Niebo",
                "addr:street": "Kościuszki",
                "addr:housenumber": "17",
                "addr:flats": "1",
                "addr:city": "Legnica",
                "addr:postcode": "59-220",
                "amenity": "pharmacy"
            },
            "geometry": {
                "type": "Point",
                "coordinates": [
                    16.155130001250082,
                    51.20226057142073
                ]
            }
        },
        {
            "type": "Feature",
            "properties": {
                "ref:csioz": 1159363,
                "name": "Brak",
                "addr:street": "Radosna",
                "addr:housenumber": "48",
                "addr:city": "Legnica",
                "addr:postcode": "59-220",
                "amenity": "pharmacy"
            },
            "geometry": {
                "type": "Point",
                "coordinates": [
                    16.188112064098704,
                    51.20238046980167
                ]
            }
        },
        {
            "type": "Feature",
            "properties": {
                "ref:csioz": 1132222,
                "name": "Arnica",
                "addr:street": "Jaworzyńska",
                "addr:housenumber": "5",
                "addr:city": "Legnica",
                "addr:postcode": "59-220",
                "amenity": "pharmacy"
            },
            "geometry": {
                "type": "Point",
                "coordinates": [
                    16.15989335461285,
                    51.20409665481122
                ]
            }
        },
        {
            "type": "Feature",
            "properties": {
                "ref:csioz": 1132375,
                "name": "Apteka Lekosfera Dga-2",
                "addr:street": "Jarosława Iwaszkiewicza",
                "addr:housenumber": "1",
                "addr:city": "Legnica",
                "addr:postcode": "59-220",
                "amenity": "pharmacy"
            },
            "geometry": {
                "type": "Point",
                "coordinates": [
                    16.213811008873403,
                    51.20770412004033
                ]
            }
        },
        {
            "type": "Feature",
            "properties": {
                "ref:csioz": 1132391,
                "name": "Familypharm",
                "addr:street": "Skarbowa",
                "addr:housenumber": "8",
                "addr:city": "Legnica",
                "addr:postcode": "59-220",
                "amenity": "pharmacy"
            },
            "geometry": {
                "type": "Point",
                "coordinates": [
                    16.166007802530775,
                    51.21229775022014
                ]
            }
        },
        {
            "type": "Feature",
            "properties": {
                "ref:csioz": 1132449,
                "name": "Medyczne Abc",
                "addr:street": "Schumana",
                "addr:housenumber": "11",
                "addr:city": "Legnica",
                "addr:postcode": "59-220",
                "amenity": "pharmacy"
            },
            "geometry": {
                "type": "Point",
                "coordinates": [
                    16.169745291133857,
                    51.186898064716715
                ]
            }
        },
        {
            "type": "Feature",
            "properties": {
                "ref:csioz": 1132583,
                "name": "Dr Zdrowie",
                "addr:street": "Piłsudskiego",
                "addr:housenumber": "84",
                "addr:city": "Legnica",
                "addr:postcode": "59-220",
                "amenity": "pharmacy"
            },
            "geometry": {
                "type": "Point",
                "coordinates": [
                    16.214441782457857,
                    51.20134916372507
                ]
            }
        },
        {
            "type": "Feature",
            "properties": {
                "ref:csioz": 1132571,
                "name": "Dr. Max",
                "addr:street": "Najświętszej Marii Panny",
                "addr:housenumber": "12",
                "addr:city": "Legnica",
                "addr:postcode": "59-220",
                "amenity": "pharmacy"
            },
            "geometry": {
                "type": "Point",
                "coordinates": [
                    16.163287547500754,
                    51.20822544692073
                ]
            }
        },
        {
            "type": "Feature",
            "properties": {
                "ref:csioz": 1132792,
                "name": "Doz Apteka. Dbam O Zdrowie. Aloes",
                "addr:street": "Pomorska",
                "addr:housenumber": "72",
                "addr:city": "Legnica",
                "addr:postcode": "59-220",
                "amenity": "pharmacy"
            },
            "geometry": {
                "type": "Point",
                "coordinates": [
                    16.211613016124943,
                    51.200933584079635
                ]
            }
        },
        {
            "type": "Feature",
            "properties": {
                "ref:csioz": 1132886,
                "name": "Piastowska",
                "addr:street": "Dziennikarska",
                "addr:housenumber": "16",
                "addr:city": "Legnica",
                "addr:postcode": "59-220",
                "amenity": "pharmacy"
            },
            "geometry": {
                "type": "Point",
                "coordinates": [
                    16.155213181283177,
                    51.20674816245901
                ]
            }
        },
        {
            "type": "Feature",
            "properties": {
                "ref:csioz": 1132981,
                "name": "Gwarna",
                "addr:street": "Złotoryjska",
                "addr:housenumber": "30",
                "addr:city": "Legnica",
                "addr:postcode": "59-220",
                "amenity": "pharmacy"
            },
            "geometry": {
                "type": "Point",
                "coordinates": [
                    16.158655574809906,
                    51.20604272240003
                ]
            }
        },
        {
            "type": "Feature",
            "properties": {
                "ref:csioz": 1132997,
                "name": "Medyczne Abc",
                "addr:street": "Chojnowska",
                "addr:housenumber": "41",
                "addr:city": "Legnica",
                "addr:postcode": "59-220",
                "amenity": "pharmacy"
            },
            "geometry": {
                "type": "Point",
                "coordinates": [
                    16.153420999985055,
                    51.207194000014354
                ]
            }
        },
        {
            "type": "Feature",
            "properties": {
                "ref:csioz": 1133039,
                "name": "\"Apteka Cef@Rm 36,6\"",
                "addr:street": "Izerska",
                "addr:housenumber": "35",
                "addr:city": "Legnica",
                "addr:postcode": "59-220",
                "amenity": "pharmacy"
            },
            "geometry": {
                "type": "Point",
                "coordinates": [
                    16.202969999986255,
                    51.198567000014336
                ]
            }
        },
        {
            "type": "Feature",
            "properties": {
                "ref:csioz": 1133358,
                "name": "Jaśmin",
                "addr:street": "Mickiewicza",
                "addr:housenumber": "6",
                "addr:city": "Legnica",
                "addr:postcode": "59-220",
                "amenity": "pharmacy"
            },
            "geometry": {
                "type": "Point",
                "coordinates": [
                    16.16392251848242,
                    51.20429603916768
                ]
            }
        },
        {
            "type": "Feature",
            "properties": {
                "ref:csioz": 1133257,
                "name": "\"Apteka \"\"Staromiejska\"\"\"",
                "addr:street": "Matejki",
                "addr:housenumber": "1",
                "addr:city": "Legnica",
                "addr:postcode": "59-220",
                "amenity": "pharmacy"
            },
            "geometry": {
                "type": "Point",
                "coordinates": [
                    16.15309716312336,
                    51.204300920820316
                ]
            }
        },
        {
            "type": "Feature",
            "properties": {
                "ref:csioz": 1135912,
                "name": "Dr. Max",
                "addr:street": "Iwaszkiewicza",
                "addr:housenumber": "5",
                "addr:city": "Legnica",
                "addr:postcode": "59-220",
                "amenity": "pharmacy"
            },
            "geometry": {
                "type": "Point",
                "coordinates": [
                    16.21698145619973,
                    51.207890417226885
                ]
            }
        },
        {
            "type": "Feature",
            "properties": {
                "ref:csioz": 1137082,
                "name": "Hebeapteka",
                "addr:street": "Górnicza",
                "addr:housenumber": "1",
                "addr:city": "Legnica",
                "addr:postcode": "59-220",
                "amenity": "pharmacy"
            },
            "geometry": {
                "type": "Point",
                "coordinates": [
                    16.189832149819786,
                    51.205054595208736
                ]
            }
        },
        {
            "type": "Feature",
            "properties": {
                "ref:csioz": 1159634,
                "name": "Eliksir",
                "addr:street": "Wielkiej Niedźwiedzicy",
                "addr:housenumber": "13",
                "addr:city": "Legnica",
                "addr:postcode": "59-220",
                "amenity": "pharmacy"
            },
            "geometry": {
                "type": "Point",
                "coordinates": [
                    16.194492487305137,
                    51.20763910064229
                ]
            }
        },
        {
            "type": "Feature",
            "properties": {
                "ref:csioz": 1161339,
                "name": "Szpital Wojewódzki Szpital Specjalistyczny Legnica",
                "addr:street": "Iwaszkiewicza",
                "addr:housenumber": "5",
                "addr:city": "Legnica",
                "addr:postcode": "59-220",
                "amenity": "pharmacy"
            },
            "geometry": {
                "type": "Point",
                "coordinates": [
                    16.21698145619973,
                    51.207890417226885
                ]
            }
        },
        {
            "type": "Feature",
            "properties": {
                "ref:csioz": 1171952,
                "name": "Nasza Apteka",
                "addr:street": "ZŁotoryjska",
                "addr:housenumber": "57",
                "addr:city": "Legnica",
                "addr:postcode": "59-220",
                "amenity": "pharmacy"
            },
            "geometry": {
                "type": "Point",
                "coordinates": [
                    16.147965455647785,
                    51.170247460267426
                ]
            }
        },
        {
            "type": "Feature",
            "properties": {
                "ref:csioz": 1176296,
                "name": "Apteka Dr. Optima",
                "addr:street": "Wrocławska",
                "addr:housenumber": "10",
                "addr:flats": "18a",
                "addr:city": "Legnica",
                "addr:postcode": "59-220",
                "amenity": "pharmacy"
            },
            "geometry": {
                "type": "Point",
                "coordinates": [
                    16.169071999985448,
                    51.20959700001436
                ]
            }
        },
        {
            "type": "Feature",
            "properties": {
                "ref:csioz": 1197865,
                "name": "Ziko Apteka",
                "addr:street": "Najświętszej Marii Panny",
                "addr:housenumber": "5F",
                "addr:city": "Legnica",
                "addr:postcode": "59-220",
                "amenity": "pharmacy"
            },
            "geometry": {
                "type": "Point",
                "coordinates": [
                    16.16377595689265,
                    51.208763386834775
                ]
            }
        },
        {
            "type": "Feature",
            "properties": {
                "ref:csioz": 1198665,
                "name": "Apteka Silesia 7",
                "addr:street": "Najświętszej Marii Panny",
                "addr:housenumber": "8-10 B",
                "addr:city": "Legnica",
                "addr:postcode": "59-220",
                "amenity": "pharmacy"
            },
            "geometry": {
                "type": "Point",
                "coordinates": [
                    16.164458999985328,
                    51.209453000014356
                ]
            }
        },
        {
            "type": "Feature",
            "properties": {
                "ref:csioz": 1200606,
                "name": "Dział Farmacji Szpitalnej W Zakładzie Opiekuńczo-Leczniczym Caritas Diecezji Legnickiej",
                "addr:street": "Poselska",
                "addr:housenumber": "14-16",
                "addr:city": "Legnica",
                "addr:postcode": "59-220",
                "amenity": "pharmacy"
            },
            "geometry": {
                "type": "Point",
                "coordinates": [
                    16.14922509690712,
                    51.20006775427996
                ]
            }
        },
        {
            "type": "Feature",
            "properties": {
                "ref:csioz": 1133178,
                "name": "\"Apteka \"\"Staromiejska\"\"\"",
                "addr:street": "Andersa",
                "addr:housenumber": "26",
                "addr:city": "Legnica",
                "addr:postcode": "59-220",
                "amenity": "pharmacy"
            },
            "geometry": {
                "type": "Point",
                "coordinates": [
                    16.159914975024282,
                    51.20208041631859
                ]
            }
        },
        {
            "type": "Feature",
            "properties": {
                "ref:csioz": 1132505,
                "name": "Vita-Plus",
                "addr:street": "Złotoryjska",
                "addr:housenumber": "81A",
                "addr:city": "Legnica",
                "addr:postcode": "59-220",
                "amenity": "pharmacy"
            },
            "geometry": {
                "type": "Point",
                "coordinates": [
                    16.150550999984965,
                    51.201976000014355
                ]
            }
        },
        {
            "type": "Feature",
            "properties": {
                "ref:csioz": 1132233,
                "name": "Jemioła",
                "addr:street": "Fabryczna",
                "addr:housenumber": "3",
                "addr:city": "Legnica",
                "addr:postcode": "59-220",
                "amenity": "pharmacy"
            },
            "geometry": {
                "type": "Point",
                "coordinates": [
                    16.176908046257235,
                    51.20560519832846
                ]
            }
        },
        {
            "type": "Feature",
            "properties": {
                "ref:csioz": 1132316,
                "name": "Pod Różą",
                "addr:street": "Juliana Przybosia",
                "addr:housenumber": "5",
                "addr:city": "Legnica",
                "addr:postcode": "59-220",
                "amenity": "pharmacy"
            },
            "geometry": {
                "type": "Point",
                "coordinates": [
                    16.21297739191985,
                    51.20535296846122
                ]
            }
        },
        {
            "type": "Feature",
            "properties": {
                "ref:csioz": 1132759,
                "name": "Lawenda",
                "addr:street": "Drukarska",
                "addr:housenumber": "29",
                "addr:city": "Legnica",
                "addr:postcode": "59-220",
                "amenity": "pharmacy"
            },
            "geometry": {
                "type": "Point",
                "coordinates": [
                    16.178602883033864,
                    51.20747508853919
                ]
            }
        },
        {
            "type": "Feature",
            "properties": {
                "ref:csioz": 1132943,
                "name": "Farmed",
                "addr:street": "Złotoryjska",
                "addr:housenumber": "16/18",
                "addr:city": "Legnica",
                "addr:postcode": "59-220",
                "amenity": "pharmacy"
            },
            "geometry": {
                "type": "Point",
                "coordinates": [
                    16.15933645586286,
                    51.20624756208395
                ]
            }
        },
        {
            "type": "Feature",
            "properties": {
                "ref:csioz": 1132956,
                "name": "Działkowa",
                "addr:street": "Działkowa",
                "addr:housenumber": "29-31",
                "addr:city": "Legnica",
                "addr:postcode": "59-220",
                "amenity": "pharmacy"
            },
            "geometry": {
                "type": "Point",
                "coordinates": [
                    16.146410899588318,
                    51.20869298703279
                ]
            }
        },
        {
            "type": "Feature",
            "properties": {
                "ref:csioz": 1133349,
                "name": "Apteka Drive",
                "addr:street": "Wrocławska",
                "addr:housenumber": "155",
                "addr:city": "Legnica",
                "addr:postcode": "59-220",
                "amenity": "pharmacy"
            },
            "geometry": {
                "type": "Point",
                "coordinates": [
                    16.18697380812995,
                    51.20952003641458
                ]
            }
        },
        {
            "type": "Feature",
            "properties": {
                "ref:csioz": 1133382,
                "name": "Medyczne Abc",
                "addr:street": "Batalionu Zośka",
                "addr:housenumber": "15",
                "addr:city": "Legnica",
                "addr:postcode": "59-220",
                "amenity": "pharmacy"
            },
            "geometry": {
                "type": "Point",
                "coordinates": [
                    16.21894599998662,
                    51.199402000014324
                ]
            }
        },
        {
            "type": "Feature",
            "properties": {
                "ref:csioz": 1159317,
                "name": "Sano",
                "addr:street": "Galaktyczna",
                "addr:housenumber": "12/13",
                "addr:city": "Legnica",
                "addr:postcode": "59-220",
                "amenity": "pharmacy"
            },
            "geometry": {
                "type": "Point",
                "coordinates": [
                    16.18627199998587,
                    51.207794000014346
                ]
            }
        },
        {
            "type": "Feature",
            "properties": {
                "ref:csioz": 1159349,
                "name": "Melisa",
                "addr:street": "Złotoryjska",
                "addr:housenumber": "1",
                "addr:city": "Legnica",
                "addr:postcode": "59-220",
                "amenity": "pharmacy"
            },
            "geometry": {
                "type": "Point",
                "coordinates": [
                    16.16009232985299,
                    51.20673072359935
                ]
            }
        },
        {
            "type": "Feature",
            "properties": {
                "ref:csioz": 1159565,
                "name": "Rondo",
                "addr:street": "Jerzego Szaniawskiego",
                "addr:housenumber": "5d",
                "addr:city": "Legnica",
                "addr:postcode": "59-220",
                "amenity": "pharmacy"
            },
            "geometry": {
                "type": "Point",
                "coordinates": [
                    16.2132399999865,
                    51.203338000014334
                ]
            }
        },
        {
            "type": "Feature",
            "properties": {
                "ref:csioz": 1159579,
                "name": "Eskulap",
                "addr:street": "Artyleryjska",
                "addr:housenumber": "40",
                "addr:city": "Legnica",
                "addr:postcode": "59-220",
                "amenity": "pharmacy"
            },
            "geometry": {
                "type": "Point",
                "coordinates": [
                    16.141735699684936,
                    51.20230102341009
                ]
            }
        },
        {
            "type": "Feature",
            "properties": {
                "ref:csioz": 1159691,
                "name": "Krótka",
                "addr:street": "Krótka",
                "addr:housenumber": "1",
                "addr:city": "Legnica",
                "addr:postcode": "59-220",
                "amenity": "pharmacy"
            },
            "geometry": {
                "type": "Point",
                "coordinates": [
                    16.146119365042715,
                    51.20669789102142
                ]
            }
        },
        {
            "type": "Feature",
            "properties": {
                "ref:csioz": 1159715,
                "name": "Avena",
                "addr:street": "Pomorska",
                "addr:housenumber": "17",
                "addr:city": "Legnica",
                "addr:postcode": "59-220",
                "amenity": "pharmacy"
            },
            "geometry": {
                "type": "Point",
                "coordinates": [
                    16.207740616333027,
                    51.200994122606865
                ]
            }
        },
        {
            "type": "Feature",
            "properties": {
                "ref:csioz": 1159728,
                "name": "Pod Dobrą Gwiazdą",
                "addr:street": "Gwiezdna",
                "addr:housenumber": "25",
                "addr:city": "Legnica",
                "addr:postcode": "59-220",
                "amenity": "pharmacy"
            },
            "geometry": {
                "type": "Point",
                "coordinates": [
                    16.182600663060423,
                    51.20788570465654
                ]
            }
        },
        {
            "type": "Feature",
            "properties": {
                "ref:csioz": 1159731,
                "name": "Doz  Apteka Dbam O Zdrowie",
                "addr:street": "Piechoty",
                "addr:housenumber": "19a",
                "addr:city": "Legnica",
                "addr:postcode": "59-220",
                "amenity": "pharmacy"
            },
            "geometry": {
                "type": "Point",
                "coordinates": [
                    16.146820046255957,
                    51.20121344276446
                ]
            }
        },
        {
            "type": "Feature",
            "properties": {
                "ref:csioz": 1159744,
                "name": "Familypharm",
                "addr:street": "Chojnowska",
                "addr:housenumber": "13",
                "addr:city": "Legnica",
                "addr:postcode": "59-220",
                "amenity": "pharmacy"
            },
            "geometry": {
                "type": "Point",
                "coordinates": [
                    16.15792714658049,
                    51.20743783768175
                ]
            }
        },
        {
            "type": "Feature",
            "properties": {
                "ref:csioz": 1211578,
                "name": "Doz Apteka Dbam O Zdrowie Piastów",
                "addr:street": "ul. Najświętszej Marii Panny",
                "addr:housenumber": "9",
                "addr:flats": "lokal 0.10",
                "addr:city": "Legnica",
                "addr:postcode": "59-220",
                "amenity": "pharmacy"
            },
            "geometry": {
                "type": "Point",
                "coordinates": [
                    16.16456154719635,
                    51.20947359638376
                ]
            }
        },
        {
            "type": "Feature",
            "properties": {
                "ref:csioz": 1212585,
                "name": "Pharmaland Miedziowa",
                "addr:street": "Stefana Okrzei",
                "addr:housenumber": "14A",
                "addr:city": "Legnica",
                "addr:postcode": "59-220",
                "amenity": "pharmacy"
            },
            "geometry": {
                "type": "Point",
                "coordinates": [
                    16.15364767993186,
                    51.20285165699918
                ]
            }
        },
        {
            "type": "Feature",
            "properties": {
                "ref:csioz": 1212906,
                "name": "Apteka Nova",
                "addr:street": "Marsa",
                "addr:housenumber": "30",
                "addr:city": "Legnica",
                "addr:postcode": "59-220",
                "amenity": "pharmacy"
            },
            "geometry": {
                "type": "Point",
                "coordinates": [
                    16.19062107692574,
                    51.207096669411605
                ]
            }
        },
        {
            "type": "Feature",
            "properties": {
                "ref:csioz": 1222753,
                "name": "Astra",
                "addr:street": "Heweliusza",
                "addr:housenumber": "7DE",
                "addr:city": "Legnica",
                "addr:postcode": "59-220",
                "amenity": "pharmacy"
            },
            "geometry": {
                "type": "Point",
                "coordinates": [
                    16.188855999985915,
                    51.20365000001434
                ]
            }
        },
        {
            "type": "Feature",
            "properties": {
                "ref:csioz": 1159766,
                "name": "Herba",
                "addr:street": "Rzeczypospolitej",
                "addr:housenumber": "125a",
                "addr:city": "Legnica",
                "addr:postcode": "59-220",
                "amenity": "pharmacy"
            },
            "geometry": {
                "type": "Point",
                "coordinates": [
                    16.176778013738687,
                    51.19419249014327
                ]
            }
        },
        {
            "type": "Feature",
            "properties": {
                "ref:csioz": 1159843,
                "name": "Dr. Max",
                "addr:street": "Jerzego Libana",
                "addr:housenumber": "8",
                "addr:city": "Legnica",
                "addr:postcode": "59-220",
                "amenity": "pharmacy"
            },
            "geometry": {
                "type": "Point",
                "coordinates": [
                    16.1686529441703,
                    51.21092489016872
                ]
            }
        }
    ]
}