{
    "type": "FeatureCollection",
    "name": "JPT_KOD_JE_2465",
    "crs": {
        "type": "name",
        "properties": {
            "name": "urn:ogc:def:crs:EPSG::4326"
        }
    },
    "features": [
        {
            "type": "Feature",
            "properties": {
                "ref:csioz": 1197718,
                "name": "Ziko Apteka",
                "addr:street": "Legionów Polskich",
                "addr:housenumber": "38C",
                "addr:city": "Dąbrowa Górnicza",
                "addr:postcode": "41-300",
                "amenity": "pharmacy"
            },
            "geometry": {
                "type": "Point",
                "coordinates": [
                    19.174218429994543,
                    50.3205384842583
                ]
            }
        },
        {
            "type": "Feature",
            "properties": {
                "ref:csioz": 1187483,
                "name": "Apteka Zdrowit",
                "addr:street": "Ludowa",
                "addr:housenumber": "19A",
                "addr:city": "Dąbrowa Górnicza",
                "addr:postcode": "41-300",
                "amenity": "pharmacy"
            },
            "geometry": {
                "type": "Point",
                "coordinates": [
                    19.168172349528582,
                    50.317436757646284
                ]
            }
        },
        {
            "type": "Feature",
            "properties": {
                "ref:csioz": 1229583,
                "name": "Kwiatowa",
                "addr:street": "Topolowa",
                "addr:housenumber": "26",
                "addr:flats": "4-5",
                "addr:city": "Dąbrowa Górnicza",
                "addr:postcode": "41-303",
                "amenity": "pharmacy"
            },
            "geometry": {
                "type": "Point",
                "coordinates": [
                    19.212024442223658,
                    50.345867632972684
                ]
            }
        },
        {
            "type": "Feature",
            "properties": {
                "ref:csioz": 1057058,
                "addr:street": "Szpitalna",
                "addr:housenumber": "13",
                "addr:city": "Dąbrowa Górnicza",
                "addr:postcode": "41-300",
                "amenity": "pharmacy"
            },
            "geometry": {
                "type": "Point",
                "coordinates": [
                    19.17671910929001,
                    50.320141733137184
                ]
            }
        },
        {
            "type": "Feature",
            "properties": {
                "ref:csioz": 1061348,
                "name": "Niezapominajka Dla Całej Rodziny",
                "addr:street": "Jana III Sobieskiego",
                "addr:housenumber": "3",
                "addr:city": "Dąbrowa Górnicza",
                "addr:postcode": "41-300",
                "amenity": "pharmacy"
            },
            "geometry": {
                "type": "Point",
                "coordinates": [
                    19.185304352110293,
                    50.325407665729806
                ]
            }
        },
        {
            "type": "Feature",
            "properties": {
                "ref:csioz": 1061357,
                "name": "4 Pory Roku",
                "addr:street": "Karola Adamieckiego",
                "addr:housenumber": "11A",
                "addr:city": "Dąbrowa Górnicza",
                "addr:postcode": "41-300",
                "amenity": "pharmacy"
            },
            "geometry": {
                "type": "Point",
                "coordinates": [
                    19.197122199504015,
                    50.32161929789736
                ]
            }
        },
        {
            "type": "Feature",
            "properties": {
                "ref:csioz": 1061361,
                "name": "Brak Nazwy",
                "addr:street": "Kasprzaka",
                "addr:housenumber": "14",
                "addr:city": "Dąbrowa Górnicza",
                "addr:postcode": "41-303",
                "amenity": "pharmacy"
            },
            "geometry": {
                "type": "Point",
                "coordinates": [
                    19.227118749397327,
                    50.332948474175716
                ]
            }
        },
        {
            "type": "Feature",
            "properties": {
                "ref:csioz": 1061385,
                "name": "Apteka Rodzinna",
                "addr:street": "Kasprzaka",
                "addr:housenumber": "44A",
                "addr:city": "Dąbrowa Górnicza",
                "addr:postcode": "41-303",
                "amenity": "pharmacy"
            },
            "geometry": {
                "type": "Point",
                "coordinates": [
                    19.235913670533435,
                    50.32945804391677
                ]
            }
        },
        {
            "type": "Feature",
            "properties": {
                "ref:csioz": 1061429,
                "name": "Brak Nazwy",
                "addr:street": "Aleja Tadeusza Kościuszki",
                "addr:housenumber": "5",
                "addr:city": "Dąbrowa Górnicza",
                "addr:postcode": "41-300",
                "amenity": "pharmacy"
            },
            "geometry": {
                "type": "Point",
                "coordinates": [
                    19.186516827959817,
                    50.32751951854425
                ]
            }
        },
        {
            "type": "Feature",
            "properties": {
                "ref:csioz": 1061432,
                "name": "Nowa",
                "addr:street": "Kozubka",
                "addr:housenumber": "3",
                "addr:city": "Dąbrowa Górnicza",
                "addr:postcode": "41-300",
                "amenity": "pharmacy"
            },
            "geometry": {
                "type": "Point",
                "coordinates": [
                    19.279664684925457,
                    50.31217037465448
                ]
            }
        },
        {
            "type": "Feature",
            "properties": {
                "ref:csioz": 1061441,
                "name": "Apteka Blisko Ciebie",
                "addr:street": "Ignacego Krasickiego",
                "addr:housenumber": "1",
                "addr:city": "Dąbrowa Górnicza",
                "addr:postcode": "41-303",
                "amenity": "pharmacy"
            },
            "geometry": {
                "type": "Point",
                "coordinates": [
                    19.22151933342124,
                    50.338838156638346
                ]
            }
        },
        {
            "type": "Feature",
            "properties": {
                "ref:csioz": 1061493,
                "name": "Isofarm",
                "addr:street": "Ludowa",
                "addr:housenumber": "7",
                "addr:city": "Dąbrowa Górnicza",
                "addr:postcode": "41-300",
                "amenity": "pharmacy"
            },
            "geometry": {
                "type": "Point",
                "coordinates": [
                    19.16762571814555,
                    50.315421304304664
                ]
            }
        },
        {
            "type": "Feature",
            "properties": {
                "ref:csioz": 1061542,
                "name": "Dr.Max",
                "addr:street": "Gustawa Morcinka",
                "addr:housenumber": "2",
                "addr:city": "Dąbrowa Górnicza",
                "addr:postcode": "41-303",
                "amenity": "pharmacy"
            },
            "geometry": {
                "type": "Point",
                "coordinates": [
                    19.215897270105206,
                    50.331834143314374
                ]
            }
        },
        {
            "type": "Feature",
            "properties": {
                "ref:csioz": 1061588,
                "name": "Apteka Słoneczna",
                "addr:street": "Aleja Józefa Piłsudskiego",
                "addr:housenumber": "92",
                "addr:city": "Dąbrowa Górnicza",
                "addr:postcode": "41-303",
                "amenity": "pharmacy"
            },
            "geometry": {
                "type": "Point",
                "coordinates": [
                    19.262440215124148,
                    50.34602713806203
                ]
            }
        },
        {
            "type": "Feature",
            "properties": {
                "ref:csioz": 1061569,
                "name": "Apteka Rodzinna",
                "addr:street": "Aleja Józefa Piłsudskiego",
                "addr:housenumber": "34F",
                "addr:flats": "632A",
                "addr:city": "Dąbrowa Górnicza",
                "addr:postcode": "41-300",
                "amenity": "pharmacy"
            },
            "geometry": {
                "type": "Point",
                "coordinates": [
                    19.22156876506566,
                    50.329407437506234
                ]
            }
        },
        {
            "type": "Feature",
            "properties": {
                "ref:csioz": 1061633,
                "name": "Brak Nazwy",
                "addr:street": "Kardynała Stefana Wyszyńskiego",
                "addr:housenumber": "1",
                "addr:city": "Dąbrowa Górnicza",
                "addr:postcode": "41-300",
                "amenity": "pharmacy"
            },
            "geometry": {
                "type": "Point",
                "coordinates": [
                    19.190008197925007,
                    50.325761119484305
                ]
            }
        },
        {
            "type": "Feature",
            "properties": {
                "ref:csioz": 1061640,
                "name": "Apteka Blisko Ciebie Centrum",
                "addr:street": "Jana III Sobieskiego",
                "addr:housenumber": "23",
                "addr:city": "Dąbrowa Górnicza",
                "addr:postcode": "41-300",
                "amenity": "pharmacy"
            },
            "geometry": {
                "type": "Point",
                "coordinates": [
                    19.181225721918324,
                    50.32544725408863
                ]
            }
        },
        {
            "type": "Feature",
            "properties": {
                "ref:csioz": 1061654,
                "name": "Euro-Apteka",
                "addr:street": "Jana III Sobieskiego",
                "addr:housenumber": "6",
                "addr:city": "Dąbrowa Górnicza",
                "addr:postcode": "41-300",
                "amenity": "pharmacy"
            },
            "geometry": {
                "type": "Point",
                "coordinates": [
                    19.182103340336223,
                    50.32679296679365
                ]
            }
        },
        {
            "type": "Feature",
            "properties": {
                "ref:csioz": 1061665,
                "name": "Hibiscus",
                "addr:street": "Strzemieszycka",
                "addr:housenumber": "366",
                "addr:city": "Dąbrowa Górnicza",
                "addr:postcode": "42-530",
                "amenity": "pharmacy"
            },
            "geometry": {
                "type": "Point",
                "coordinates": [
                    19.293275378083806,
                    50.31229814353564
                ]
            }
        },
        {
            "type": "Feature",
            "properties": {
                "ref:csioz": 1061679,
                "name": "Apteka Słoneczna",
                "addr:street": "Szpitalna",
                "addr:housenumber": "14",
                "addr:city": "Dąbrowa Górnicza",
                "addr:postcode": "41-300",
                "amenity": "pharmacy"
            },
            "geometry": {
                "type": "Point",
                "coordinates": [
                    19.175897103545157,
                    50.31996044175542
                ]
            }
        },
        {
            "type": "Feature",
            "properties": {
                "ref:csioz": 1061698,
                "name": "Apteka Tysiąclecia Centrum Tanich Leków",
                "addr:street": "Tysiąclecia",
                "addr:housenumber": "5",
                "addr:city": "Dąbrowa Górnicza",
                "addr:postcode": "41-303",
                "amenity": "pharmacy"
            },
            "geometry": {
                "type": "Point",
                "coordinates": [
                    19.221645736088742,
                    50.333613344372246
                ]
            }
        },
        {
            "type": "Feature",
            "properties": {
                "ref:csioz": 1061709,
                "name": "Arnika",
                "addr:street": "Warszawska",
                "addr:housenumber": "81",
                "addr:city": "Dąbrowa Górnicza",
                "addr:postcode": "42-530",
                "amenity": "pharmacy"
            },
            "geometry": {
                "type": "Point",
                "coordinates": [
                    19.27420485691627,
                    50.31090329820381
                ]
            }
        },
        {
            "type": "Feature",
            "properties": {
                "ref:csioz": 1061746,
                "name": "Apteka Gemini",
                "addr:street": "Wybickiego",
                "addr:housenumber": "8",
                "addr:city": "Dąbrowa Górnicza",
                "addr:postcode": "41-303",
                "amenity": "pharmacy"
            },
            "geometry": {
                "type": "Point",
                "coordinates": [
                    19.223876197543827,
                    50.33769531035075
                ]
            }
        },
        {
            "type": "Feature",
            "properties": {
                "ref:csioz": 1073934,
                "name": "Zagłębiowskie Centrum Onkologii Szpital Specjalistyczny Im. Sz. Starkiewicza W Dąbrowie Górniczej",
                "addr:street": "Szpitalna",
                "addr:housenumber": "13",
                "addr:city": "Dąbrowa Górnicza",
                "addr:postcode": "41-300",
                "amenity": "pharmacy"
            },
            "geometry": {
                "type": "Point",
                "coordinates": [
                    19.17671910929001,
                    50.320141733137184
                ]
            }
        },
        {
            "type": "Feature",
            "properties": {
                "ref:csioz": 1112372,
                "name": "Za Rogiem",
                "addr:street": "Kasprzaka",
                "addr:housenumber": "26",
                "addr:city": "Dąbrowa Górnicza",
                "addr:postcode": "41-303",
                "amenity": "pharmacy"
            },
            "geometry": {
                "type": "Point",
                "coordinates": [
                    19.230338362470686,
                    50.33062018036532
                ]
            }
        },
        {
            "type": "Feature",
            "properties": {
                "ref:csioz": 1112608,
                "name": "Apteka Gemini",
                "addr:street": "Karola Adamieckiego",
                "addr:housenumber": "13",
                "addr:flats": "16",
                "addr:city": "Dąbrowa Górnicza",
                "addr:postcode": "41-300",
                "amenity": "pharmacy"
            },
            "geometry": {
                "type": "Point",
                "coordinates": [
                    19.19848794152893,
                    50.32103705205669
                ]
            }
        },
        {
            "type": "Feature",
            "properties": {
                "ref:csioz": 1118310,
                "name": "Doz Apteka Dbam O Zdrowie",
                "addr:street": "Tysiąclecia",
                "addr:housenumber": "4A",
                "addr:city": "Dąbrowa Górnicza",
                "addr:postcode": "41-303",
                "amenity": "pharmacy"
            },
            "geometry": {
                "type": "Point",
                "coordinates": [
                    19.21656496601663,
                    50.33744071787546
                ]
            }
        },
        {
            "type": "Feature",
            "properties": {
                "ref:csioz": 1119865,
                "name": "Apteka Majakowskiego Centrum Tanich Leków",
                "addr:street": "Włodzimierza Majakowskiego",
                "addr:housenumber": "30",
                "addr:city": "Dąbrowa Górnicza",
                "addr:postcode": "41-300",
                "amenity": "pharmacy"
            },
            "geometry": {
                "type": "Point",
                "coordinates": [
                    19.21256986393442,
                    50.32301350591964
                ]
            }
        },
        {
            "type": "Feature",
            "properties": {
                "ref:csioz": 1179414,
                "name": "Apteka Dbam O Zdrowie",
                "addr:street": "Henryka Sienkiewicza",
                "addr:housenumber": "18",
                "addr:city": "Dąbrowa Górnicza",
                "addr:postcode": "41-300",
                "amenity": "pharmacy"
            },
            "geometry": {
                "type": "Point",
                "coordinates": [
                    19.180108484036904,
                    50.322566221188445
                ]
            }
        },
        {
            "type": "Feature",
            "properties": {
                "ref:csioz": 1216149,
                "name": "Galen",
                "addr:street": "11 Listopada",
                "addr:housenumber": "32",
                "addr:city": "Dąbrowa Górnicza",
                "addr:postcode": "41-303",
                "amenity": "pharmacy"
            },
            "geometry": {
                "type": "Point",
                "coordinates": [
                    19.22476029989699,
                    50.32959200787655
                ]
            }
        },
        {
            "type": "Feature",
            "properties": {
                "ref:csioz": 1061399,
                "name": "Apteka Dbam O Zdrowie",
                "addr:street": "Katowicka",
                "addr:housenumber": "1",
                "addr:city": "Dąbrowa Górnicza",
                "addr:postcode": "41-300",
                "amenity": "pharmacy"
            },
            "geometry": {
                "type": "Point",
                "coordinates": [
                    19.2121775879547,
                    50.31787334848238
                ]
            }
        },
        {
            "type": "Feature",
            "properties": {
                "ref:csioz": 1061407,
                "name": "Apteka Blisko Ciebie",
                "addr:street": "Janusza Korczaka",
                "addr:housenumber": "1-3",
                "addr:city": "Dąbrowa Górnicza",
                "addr:postcode": "41-300",
                "amenity": "pharmacy"
            },
            "geometry": {
                "type": "Point",
                "coordinates": [
                    19.20526397426879,
                    50.32461034836291
                ]
            }
        },
        {
            "type": "Feature",
            "properties": {
                "ref:csioz": 1061410,
                "name": "Doz Apteka Dbam O Zdrowie",
                "addr:street": "Aleja Tadeusza Kościuszki",
                "addr:housenumber": "19",
                "addr:city": "Dąbrowa Górnicza",
                "addr:postcode": "41-300",
                "amenity": "pharmacy"
            },
            "geometry": {
                "type": "Point",
                "coordinates": [
                    19.18739705086981,
                    50.32381241980631
                ]
            }
        },
        {
            "type": "Feature",
            "properties": {
                "ref:csioz": 1112927,
                "name": "Leczenie Szpitalne",
                "addr:street": "Szpitalna",
                "addr:housenumber": "13",
                "addr:city": "Dąbrowa Górnicza",
                "addr:postcode": "41-300",
                "amenity": "pharmacy"
            },
            "geometry": {
                "type": "Point",
                "coordinates": [
                    19.17671910929001,
                    50.320141733137184
                ]
            }
        },
        {
            "type": "Feature",
            "properties": {
                "ref:csioz": 1173886,
                "name": "Ziko Apteka",
                "addr:street": "Królowej Jadwigi",
                "addr:housenumber": "25a",
                "addr:city": "Dąbrowa Górnicza",
                "addr:postcode": "41-300",
                "amenity": "pharmacy"
            },
            "geometry": {
                "type": "Point",
                "coordinates": [
                    19.201823685361497,
                    50.32480683924869
                ]
            }
        },
        {
            "type": "Feature",
            "properties": {
                "ref:csioz": 1195003,
                "name": "Apteka Główna Z Sercem",
                "addr:street": "Aleja Józefa Piłsudskiego",
                "addr:housenumber": "92",
                "addr:flats": "segment C-4",
                "addr:city": "Dąbrowa Górnicza",
                "addr:postcode": "41-308",
                "amenity": "pharmacy"
            },
            "geometry": {
                "type": "Point",
                "coordinates": [
                    19.262440215124148,
                    50.34602713806203
                ]
            }
        },
        {
            "type": "Feature",
            "properties": {
                "ref:csioz": 1204660,
                "name": "Ziko Apteka",
                "addr:street": "3 Maja",
                "addr:housenumber": "3",
                "addr:city": "Dąbrowa Górnicza",
                "addr:postcode": "41-300",
                "amenity": "pharmacy"
            },
            "geometry": {
                "type": "Point",
                "coordinates": [
                    19.18376172513254,
                    50.324958347048344
                ]
            }
        },
        {
            "type": "Feature",
            "properties": {
                "ref:csioz": 1219330,
                "name": "Apteka Mandragora",
                "addr:street": "Wybickiego",
                "addr:housenumber": "7a",
                "addr:city": "Dąbrowa Górnicza",
                "addr:postcode": "41-303",
                "amenity": "pharmacy"
            },
            "geometry": {
                "type": "Point",
                "coordinates": [
                    19.224830258796306,
                    50.339321256454795
                ]
            }
        },
        {
            "type": "Feature",
            "properties": {
                "ref:csioz": 1222492,
                "name": "Apteka Marpharm Ii",
                "addr:street": "11 Listopada",
                "addr:housenumber": "24",
                "addr:city": "Dąbrowa Górnicza",
                "addr:postcode": "41-300",
                "amenity": "pharmacy"
            },
            "geometry": {
                "type": "Point",
                "coordinates": [
                    19.222074595726603,
                    50.327977673996195
                ]
            }
        },
        {
            "type": "Feature",
            "properties": {
                "ref:csioz": 1061550,
                "name": "Brak Nazwy",
                "addr:street": "Osiedle Robotnicze",
                "addr:housenumber": "5",
                "addr:flats": "2",
                "addr:city": "Dąbrowa Górnicza",
                "addr:postcode": "42-520",
                "amenity": "pharmacy"
            },
            "geometry": {
                "type": "Point",
                "coordinates": [
                    19.26144680132397,
                    50.36771366669534
                ]
            }
        },
        {
            "type": "Feature",
            "properties": {
                "ref:csioz": 1061606,
                "name": "Dosa",
                "addr:street": "Adama Rapackiego",
                "addr:housenumber": "10 A",
                "addr:city": "Dąbrowa Górnicza",
                "addr:postcode": "42-520",
                "amenity": "pharmacy"
            },
            "geometry": {
                "type": "Point",
                "coordinates": [
                    19.263459002929086,
                    50.375579251989436
                ]
            }
        },
        {
            "type": "Feature",
            "properties": {
                "ref:csioz": 1178476,
                "name": "Apteka Farmacja 2",
                "addr:street": "Aleja Zwycięstwa",
                "addr:housenumber": "91",
                "addr:city": "Dąbrowa Górnicza",
                "addr:postcode": "42-520",
                "amenity": "pharmacy"
            },
            "geometry": {
                "type": "Point",
                "coordinates": [
                    19.24519868387284,
                    50.381770306246565
                ]
            }
        }
    ]
}