{
    "type": "FeatureCollection",
    "name": "JPT_KOD_JE_2819",
    "features": [
        {
            "type": "Feature",
            "properties": {
                "ref:csioz": 1041794,
                "name": "Apteka Prywatna",
                "addr:street": "1 Maja",
                "addr:housenumber": "1C",
                "addr:city": "Pozezdrze",
                "addr:postcode": "11-610",
                "amenity": "pharmacy"
            },
            "geometry": {
                "type": "Point",
                "coordinates": [
                    21.85728093380879,
                    54.13884772692056
                ]
            }
        },
        {
            "type": "Feature",
            "properties": {
                "ref:csioz": 1041865,
                "name": "Apteka Dyżurna",
                "addr:street": "Henryka Sienkiewicza",
                "addr:housenumber": "1",
                "addr:city": "Węgorzewo",
                "addr:postcode": "11-600",
                "amenity": "pharmacy"
            },
            "geometry": {
                "type": "Point",
                "coordinates": [
                    21.74291598036901,
                    54.2125434989408
                ]
            }
        },
        {
            "type": "Feature",
            "properties": {
                "ref:csioz": 1041879,
                "name": "Apteka Prywatna",
                "addr:street": "Teatralna",
                "addr:housenumber": "2",
                "addr:city": "Węgorzewo",
                "addr:postcode": "11-600",
                "amenity": "pharmacy"
            },
            "geometry": {
                "type": "Point",
                "coordinates": [
                    21.742294181960744,
                    54.21369318241225
                ]
            }
        },
        {
            "type": "Feature",
            "properties": {
                "ref:csioz": 1041887,
                "name": "Apteka Prywatna",
                "addr:street": "Zamkowa",
                "addr:housenumber": "27",
                "addr:city": "Węgorzewo",
                "addr:postcode": "11-600",
                "amenity": "pharmacy"
            },
            "geometry": {
                "type": "Point",
                "coordinates": [
                    21.737936000009032,
                    54.21496400001919
                ]
            }
        },
        {
            "type": "Feature",
            "properties": {
                "ref:csioz": 1041898,
                "name": "Lila",
                "addr:street": "KOPERNIKA",
                "addr:housenumber": "18",
                "addr:city": "WĘGORZEWO",
                "addr:postcode": "11-600",
                "amenity": "pharmacy"
            },
            "geometry": {
                "type": "Point",
                "coordinates": [
                    21.740440068655587,
                    54.20694571959102
                ]
            }
        },
        {
            "type": "Feature",
            "properties": {
                "ref:csioz": 1041904,
                "name": "Remedium S.C.",
                "addr:street": "3 Maja",
                "addr:housenumber": "17",
                "addr:city": "Węgorzewo",
                "addr:postcode": "11-600",
                "amenity": "pharmacy"
            },
            "geometry": {
                "type": "Point",
                "coordinates": [
                    21.736564869106275,
                    54.20689339949024
                ]
            }
        },
        {
            "type": "Feature",
            "properties": {
                "ref:csioz": 1041912,
                "addr:street": "Jasna",
                "addr:housenumber": "2",
                "addr:city": "Węgorzewo",
                "addr:postcode": "11-600",
                "amenity": "pharmacy"
            },
            "geometry": {
                "type": "Point",
                "coordinates": [
                    21.744288156758003,
                    54.2080495212622
                ]
            }
        },
        {
            "type": "Feature",
            "properties": {
                "ref:csioz": 1113062,
                "name": "Mazurskie Centrum Zdrowia Szpital Powiatowy W Węgorzewie Publiczny Zakład Opieki Zdrowotnej Świadczenia Szpitalne",
                "addr:street": "3 Maja",
                "addr:housenumber": "17",
                "addr:city": "Węgorzewo",
                "addr:postcode": "11-600",
                "amenity": "pharmacy"
            },
            "geometry": {
                "type": "Point",
                "coordinates": [
                    21.736564869106275,
                    54.20689339949024
                ]
            }
        },
        {
            "type": "Feature",
            "properties": {
                "ref:csioz": 1225424,
                "name": "Szpital Psychiatryczny W Węgorzewie",
                "addr:street": "Generała Józefa Bema",
                "addr:housenumber": "24",
                "addr:city": "Węgorzewo",
                "addr:postcode": "11-600",
                "amenity": "pharmacy"
            },
            "geometry": {
                "type": "Point",
                "coordinates": [
                    21.752825517189148,
                    54.20505849714955
                ]
            }
        }
    ]
}