{
    "type": "FeatureCollection",
    "name": "JPT_KOD_JE_1217",
    "crs": {
        "type": "name",
        "properties": {
            "name": "urn:ogc:def:crs:EPSG::4326"
        }
    },
    "features": [
        {
            "type": "Feature",
            "properties": {
                "ref:csioz": 1034934,
                "addr:street": "Droga do Olczy",
                "addr:housenumber": "1",
                "addr:city": "Zakopane",
                "addr:postcode": "34-500",
                "amenity": "pharmacy"
            },
            "geometry": {
                "type": "Point",
                "coordinates": [
                    19.980116654473733,
                    49.28569972180822
                ]
            }
        },
        {
            "type": "Feature",
            "properties": {
                "ref:csioz": 1035046,
                "addr:street": "Długa",
                "addr:housenumber": "147",
                "addr:city": "Bukowina Tatrzańska",
                "addr:postcode": "34-530",
                "amenity": "pharmacy"
            },
            "geometry": {
                "type": "Point",
                "coordinates": [
                    20.12454460891804,
                    49.35655588381264
                ]
            }
        },
        {
            "type": "Feature",
            "properties": {
                "ref:csioz": 1035051,
                "name": "U Kubusia",
                "addr:street": "Kościuszki",
                "addr:housenumber": "29",
                "addr:city": "Bukowina Tatrzańska",
                "addr:postcode": "34-530",
                "amenity": "pharmacy"
            },
            "geometry": {
                "type": "Point",
                "coordinates": [
                    20.10616695645098,
                    49.34202283327711
                ]
            }
        },
        {
            "type": "Feature",
            "properties": {
                "ref:csioz": 1036622,
                "addr:street": "Kamila Stocha",
                "addr:housenumber": "13",
                "addr:city": "Ząb",
                "addr:postcode": "34-521",
                "amenity": "pharmacy"
            },
            "geometry": {
                "type": "Point",
                "coordinates": [
                    19.94978025368563,
                    49.33830182561118
                ]
            }
        },
        {
            "type": "Feature",
            "properties": {
                "ref:csioz": 1036407,
                "name": "\"Punkt Apteczny \"\"W Remizie\"\"\"",
                "addr:street": "Sądelska",
                "addr:housenumber": "55",
                "addr:city": "Murzasichle",
                "addr:postcode": "34-531",
                "amenity": "pharmacy"
            },
            "geometry": {
                "type": "Point",
                "coordinates": [
                    20.04324616714217,
                    49.31207643349298
                ]
            }
        },
        {
            "type": "Feature",
            "properties": {
                "ref:csioz": 1074965,
                "addr:street": "Kasprusie",
                "addr:housenumber": "40A",
                "addr:city": "Zakopane",
                "addr:postcode": "34-500",
                "amenity": "pharmacy"
            },
            "geometry": {
                "type": "Point",
                "coordinates": [
                    19.948047425131346,
                    49.29143904473421
                ]
            }
        },
        {
            "type": "Feature",
            "properties": {
                "ref:csioz": 1075361,
                "addr:street": "Nowotarska",
                "addr:housenumber": "4",
                "addr:city": "Zakopane",
                "addr:postcode": "34-500",
                "amenity": "pharmacy"
            },
            "geometry": {
                "type": "Point",
                "coordinates": [
                    19.948754144112147,
                    49.29757933994149
                ]
            }
        },
        {
            "type": "Feature",
            "properties": {
                "ref:csioz": 1075357,
                "name": "Zakopiańska",
                "addr:street": "Krupówki",
                "addr:housenumber": "75",
                "addr:city": "Zakopane",
                "addr:postcode": "34-500",
                "amenity": "pharmacy"
            },
            "geometry": {
                "type": "Point",
                "coordinates": [
                    19.959896241339404,
                    49.29199397753587
                ]
            }
        },
        {
            "type": "Feature",
            "properties": {
                "ref:csioz": 1076893,
                "addr:street": "Tadeusza Kościuszki",
                "addr:housenumber": "15",
                "addr:city": "Zakopane",
                "addr:postcode": "34-500",
                "amenity": "pharmacy"
            },
            "geometry": {
                "type": "Point",
                "coordinates": [
                    19.957199045749498,
                    49.29810188795889
                ]
            }
        },
        {
            "type": "Feature",
            "properties": {
                "ref:csioz": 1077641,
                "addr:street": "Stanisława Witkiewicza",
                "addr:housenumber": "3",
                "addr:city": "Zakopane",
                "addr:postcode": "34-500",
                "amenity": "pharmacy"
            },
            "geometry": {
                "type": "Point",
                "coordinates": [
                    19.961314682074576,
                    49.291479693846426
                ]
            }
        },
        {
            "type": "Feature",
            "properties": {
                "ref:csioz": 1077749,
                "name": "Super-Pharm",
                "addr:street": "Krupówki",
                "addr:housenumber": "45",
                "addr:city": "Zakopane",
                "addr:postcode": "34-500",
                "amenity": "pharmacy"
            },
            "geometry": {
                "type": "Point",
                "coordinates": [
                    19.955561374341386,
                    49.29333743580099
                ]
            }
        },
        {
            "type": "Feature",
            "properties": {
                "ref:csioz": 1120366,
                "name": "Wojewódzki Szpital Rehabilitacyjny Im. Dr S. Jasińskiego",
                "addr:street": "Ciągłówka",
                "addr:housenumber": "9",
                "addr:city": "Zakopane",
                "addr:postcode": "34-500",
                "amenity": "pharmacy"
            },
            "geometry": {
                "type": "Point",
                "coordinates": [
                    19.960858918726284,
                    49.31240341243596
                ]
            }
        },
        {
            "type": "Feature",
            "properties": {
                "ref:csioz": 1179284,
                "name": "Apteka Słoneczna",
                "addr:street": "Nowotarska",
                "addr:housenumber": "79 A",
                "addr:city": "Zakopane",
                "addr:postcode": "34-500",
                "amenity": "pharmacy"
            },
            "geometry": {
                "type": "Point",
                "coordinates": [
                    19.958072008193685,
                    49.30519922977761
                ]
            }
        },
        {
            "type": "Feature",
            "properties": {
                "ref:csioz": 1180014,
                "name": "Szałwia",
                "addr:street": "Środkowa",
                "addr:housenumber": "178",
                "addr:city": "Białka Tatrzańska",
                "addr:postcode": "34-405",
                "amenity": "pharmacy"
            },
            "geometry": {
                "type": "Point",
                "coordinates": [
                    20.10566111086725,
                    49.387483941154436
                ]
            }
        },
        {
            "type": "Feature",
            "properties": {
                "ref:csioz": 1214334,
                "name": "Hebeapteka",
                "addr:street": "Tadeusza Kościuszki",
                "addr:housenumber": "7",
                "addr:city": "Zakopane",
                "addr:postcode": "34-500",
                "amenity": "pharmacy"
            },
            "geometry": {
                "type": "Point",
                "coordinates": [
                    19.95351979948399,
                    49.29585116374726
                ]
            }
        },
        {
            "type": "Feature",
            "properties": {
                "ref:csioz": 1034619,
                "addr:street": "Chramcówki",
                "addr:housenumber": "34",
                "addr:city": "Zakopane",
                "addr:postcode": "34-500",
                "amenity": "pharmacy"
            },
            "geometry": {
                "type": "Point",
                "coordinates": [
                    19.961092326080465,
                    49.300857354576664
                ]
            }
        },
        {
            "type": "Feature",
            "properties": {
                "ref:csioz": 1034662,
                "addr:street": "Nędzy-Kubińca",
                "addr:housenumber": "140",
                "addr:city": "Kościelisko",
                "addr:postcode": "34-511",
                "amenity": "pharmacy"
            },
            "geometry": {
                "type": "Point",
                "coordinates": [
                    19.892362038133587,
                    49.29134301020112
                ]
            }
        },
        {
            "type": "Feature",
            "properties": {
                "ref:csioz": 1036056,
                "name": "Dr. Max",
                "addr:street": "Krupówki",
                "addr:housenumber": "11",
                "addr:city": "Zakopane",
                "addr:postcode": "34-500",
                "amenity": "pharmacy"
            },
            "geometry": {
                "type": "Point",
                "coordinates": [
                    19.950831340916082,
                    49.29552227718233
                ]
            }
        },
        {
            "type": "Feature",
            "properties": {
                "ref:csioz": 1036062,
                "name": "Dr. Max",
                "addr:street": "Kamieniec",
                "addr:housenumber": "5",
                "addr:city": "Zakopane",
                "addr:postcode": "34-500",
                "amenity": "pharmacy"
            },
            "geometry": {
                "type": "Point",
                "coordinates": [
                    19.95556389570796,
                    49.30230640098869
                ]
            }
        },
        {
            "type": "Feature",
            "properties": {
                "ref:csioz": 1038461,
                "name": "Apteka Dbam O Zdrowie",
                "addr:street": "Józefa Piłsudskiego",
                "addr:housenumber": "1",
                "addr:city": "Poronin",
                "addr:postcode": "34-520",
                "amenity": "pharmacy"
            },
            "geometry": {
                "type": "Point",
                "coordinates": [
                    20.00397301608627,
                    49.33784828933441
                ]
            }
        },
        {
            "type": "Feature",
            "properties": {
                "ref:csioz": 1056406,
                "addr:street": "Władysława Orkana",
                "addr:housenumber": "1",
                "addr:city": "Zakopane",
                "addr:postcode": "34-500",
                "amenity": "pharmacy"
            },
            "geometry": {
                "type": "Point",
                "coordinates": [
                    19.95258058834094,
                    49.29233977837799
                ]
            }
        },
        {
            "type": "Feature",
            "properties": {
                "ref:csioz": 1113493,
                "name": "Apteka Tatrzańska",
                "addr:street": "Pardałówka",
                "addr:housenumber": "30",
                "addr:city": "Zakopane",
                "addr:postcode": "34-500",
                "amenity": "pharmacy"
            },
            "geometry": {
                "type": "Point",
                "coordinates": [
                    19.982788060847497,
                    49.292903263249514
                ]
            }
        },
        {
            "type": "Feature",
            "properties": {
                "ref:csioz": 1113534,
                "name": "Apteka Rodzinna",
                "addr:street": "Jana Pawła II",
                "addr:housenumber": "184 B",
                "addr:city": "Biały Dunajec",
                "addr:postcode": "34-425",
                "amenity": "pharmacy"
            },
            "geometry": {
                "type": "Point",
                "coordinates": [
                    20.012527162180806,
                    49.37920516332886
                ]
            }
        },
        {
            "type": "Feature",
            "properties": {
                "ref:csioz": 1171523,
                "name": "Apteka Przy Świętej Rodzinie",
                "addr:street": "Krupówki",
                "addr:housenumber": "4",
                "addr:city": "Zakopane",
                "addr:postcode": "34-500",
                "amenity": "pharmacy"
            },
            "geometry": {
                "type": "Point",
                "coordinates": [
                    19.94925402991219,
                    49.29622240057073
                ]
            }
        },
        {
            "type": "Feature",
            "properties": {
                "ref:csioz": 1171663,
                "name": "Apteka Prywatna S.C",
                "addr:street": "Jana Pawła II",
                "addr:housenumber": "188",
                "addr:city": "Biały Dunajec",
                "addr:postcode": "34-425",
                "amenity": "pharmacy"
            },
            "geometry": {
                "type": "Point",
                "coordinates": [
                    20.01161700749184,
                    49.37925236979781
                ]
            }
        },
        {
            "type": "Feature",
            "properties": {
                "ref:csioz": 1193653,
                "name": "Kliniczny Szpital Ortopedyczny I Rehabilitacyjny W Zakopanem",
                "addr:street": "Oswalda Balzera",
                "addr:housenumber": "15",
                "addr:city": "Zakopane",
                "addr:postcode": "34-501",
                "amenity": "pharmacy"
            },
            "geometry": {
                "type": "Point",
                "coordinates": [
                    19.983904224131802,
                    49.28638899673522
                ]
            }
        },
        {
            "type": "Feature",
            "properties": {
                "ref:csioz": 1193929,
                "name": "Szpital",
                "addr:street": "Kamieniec",
                "addr:housenumber": "10",
                "addr:city": "Zakopane",
                "addr:postcode": "34-500",
                "amenity": "pharmacy"
            },
            "geometry": {
                "type": "Point",
                "coordinates": [
                    19.955501627680437,
                    49.304394377349496
                ]
            }
        },
        {
            "type": "Feature",
            "properties": {
                "ref:csioz": 1195172,
                "addr:housenumber": "188",
                "addr:city": "Witów",
                "addr:postcode": "34-512",
                "amenity": "pharmacy"
            },
            "geometry": {
                "type": "Point",
                "coordinates": [
                    19.82506245431189,
                    49.324116781849526
                ]
            }
        },
        {
            "type": "Feature",
            "properties": {
                "ref:csioz": 1227442,
                "name": "Apteka Prima",
                "addr:street": "Józefa Piłsudskiego",
                "addr:housenumber": "97",
                "addr:city": "Poronin",
                "addr:postcode": "34-520",
                "amenity": "pharmacy"
            },
            "geometry": {
                "type": "Point",
                "coordinates": [
                    20.004525373577987,
                    49.34355289756246
                ]
            }
        },
        {
            "type": "Feature",
            "properties": {
                "ref:csioz": 1229886,
                "addr:housenumber": "173",
                "addr:city": "Dzianisz",
                "addr:postcode": "34-514",
                "amenity": "pharmacy"
            },
            "geometry": {
                "type": "Point",
                "coordinates": [
                    19.858478472268732,
                    49.33439103812133
                ]
            }
        },
        {
            "type": "Feature",
            "properties": {
                "ref:csioz": 1077237,
                "name": "Apteka Na Ustupie",
                "addr:street": "Ustup",
                "addr:housenumber": "7A",
                "addr:city": "Zakopane",
                "addr:postcode": "34-500",
                "amenity": "pharmacy"
            },
            "geometry": {
                "type": "Point",
                "coordinates": [
                    19.98632717184204,
                    49.32270509921842
                ]
            }
        },
        {
            "type": "Feature",
            "properties": {
                "ref:csioz": 1193941,
                "name": "\"Szpital Specjalistyczny Chorób Płuc \"\"Odrodzenie\"\" Im.Klary Jelskiej - Szpital\"",
                "addr:street": "Gładkie",
                "addr:housenumber": "1",
                "addr:city": "Zakopane",
                "addr:postcode": "34-500",
                "amenity": "pharmacy"
            },
            "geometry": {
                "type": "Point",
                "coordinates": [
                    19.943367199660607,
                    49.2971172352854
                ]
            }
        },
        {
            "type": "Feature",
            "properties": {
                "ref:csioz": 1056393,
                "name": "Gimnazjalna",
                "addr:street": "Gimnazjalna",
                "addr:housenumber": "1",
                "addr:city": "Zakopane",
                "addr:postcode": "34-500",
                "amenity": "pharmacy"
            },
            "geometry": {
                "type": "Point",
                "coordinates": [
                    19.959986271376543,
                    49.30082814598836
                ]
            }
        }
    ]
}