{
    "type": "FeatureCollection",
    "name": "JPT_KOD_JE_3005",
    "crs": {
        "type": "name",
        "properties": {
            "name": "urn:ogc:def:crs:EPSG::4326"
        }
    },
    "features": [
        {
            "type": "Feature",
            "properties": {
                "ref:csioz": 1044137,
                "name": "Centrum",
                "addr:street": "Kościelna",
                "addr:housenumber": "14",
                "addr:city": "Jabłonna",
                "addr:postcode": "64-308",
                "amenity": "pharmacy"
            },
            "geometry": {
                "type": "Point",
                "coordinates": [
                    16.20472350614007,
                    52.20538235671901
                ]
            }
        },
        {
            "type": "Feature",
            "properties": {
                "ref:csioz": 1045404,
                "name": "Rodzinna",
                "addr:street": "Mossego",
                "addr:housenumber": "23",
                "addr:city": "Grodzisk Wielkopolski",
                "addr:postcode": "62-065",
                "amenity": "pharmacy"
            },
            "geometry": {
                "type": "Point",
                "coordinates": [
                    16.36980886481938,
                    52.2277765194592
                ]
            }
        },
        {
            "type": "Feature",
            "properties": {
                "ref:csioz": 1045955,
                "name": "Pascal",
                "addr:street": "Powstańców Chocieszyńskich",
                "addr:housenumber": "15",
                "addr:city": "Grodzisk Wielkopolski",
                "addr:postcode": "62-065",
                "amenity": "pharmacy"
            },
            "geometry": {
                "type": "Point",
                "coordinates": [
                    16.37025774359177,
                    52.227298090708985
                ]
            }
        },
        {
            "type": "Feature",
            "properties": {
                "ref:csioz": 1046587,
                "name": "Na Szerokiej",
                "addr:street": "Szeroka",
                "addr:housenumber": "27",
                "addr:city": "Grodzisk Wielkopolski",
                "addr:postcode": "62-065",
                "amenity": "pharmacy"
            },
            "geometry": {
                "type": "Point",
                "coordinates": [
                    16.36660793766869,
                    52.22628927288854
                ]
            }
        },
        {
            "type": "Feature",
            "properties": {
                "ref:csioz": 1047799,
                "name": "Nowa Apteka Im.Królowej Jadwigi",
                "addr:street": "Bukowska",
                "addr:housenumber": "10",
                "addr:city": "Grodzisk Wielkopolski",
                "addr:postcode": "62-065",
                "amenity": "pharmacy"
            },
            "geometry": {
                "type": "Point",
                "coordinates": [
                    16.362268295285592,
                    52.22562268431522
                ]
            }
        },
        {
            "type": "Feature",
            "properties": {
                "ref:csioz": 1047800,
                "addr:street": "Handlowa",
                "addr:housenumber": "16",
                "addr:city": "Kamieniec",
                "addr:postcode": "64-061",
                "amenity": "pharmacy"
            },
            "geometry": {
                "type": "Point",
                "coordinates": [
                    16.454136337100458,
                    52.16235485140193
                ]
            }
        },
        {
            "type": "Feature",
            "properties": {
                "ref:csioz": 1049926,
                "name": "Arnika",
                "addr:street": "Żydowska",
                "addr:housenumber": "11",
                "addr:city": "Grodzisk Wielkopolski",
                "addr:postcode": "62-065",
                "amenity": "pharmacy"
            },
            "geometry": {
                "type": "Point",
                "coordinates": [
                    16.3663978054818,
                    52.224789987039905
                ]
            }
        },
        {
            "type": "Feature",
            "properties": {
                "ref:csioz": 1050779,
                "name": "Apteka Na Mossego",
                "addr:street": "Mossego",
                "addr:housenumber": "11",
                "addr:city": "Grodzisk Wielkopolski",
                "addr:postcode": "62-065",
                "amenity": "pharmacy"
            },
            "geometry": {
                "type": "Point",
                "coordinates": [
                    16.367848601647076,
                    52.22812108244142
                ]
            }
        },
        {
            "type": "Feature",
            "properties": {
                "ref:csioz": 1056036,
                "addr:street": "Mossego",
                "addr:housenumber": "3",
                "addr:city": "Grodzisk Wielkopolski",
                "addr:postcode": "62-065",
                "amenity": "pharmacy"
            },
            "geometry": {
                "type": "Point",
                "coordinates": [
                    16.368496870088748,
                    52.22809337928066
                ]
            }
        },
        {
            "type": "Feature",
            "properties": {
                "ref:csioz": 1176460,
                "name": "Moderna 3",
                "addr:street": "Pocztowa",
                "addr:housenumber": "2",
                "addr:city": "Rakoniewice",
                "addr:postcode": "62-067",
                "amenity": "pharmacy"
            },
            "geometry": {
                "type": "Point",
                "coordinates": [
                    16.273039236918645,
                    52.138211980824885
                ]
            }
        },
        {
            "type": "Feature",
            "properties": {
                "ref:csioz": 1044871,
                "name": "Osiedlowa",
                "addr:street": "Wojska Polskiego",
                "addr:housenumber": "49",
                "addr:city": "Grodzisk Wielkopolski",
                "addr:postcode": "62-065",
                "amenity": "pharmacy"
            },
            "geometry": {
                "type": "Point",
                "coordinates": [
                    16.355770593999285,
                    52.231916038058586
                ]
            }
        },
        {
            "type": "Feature",
            "properties": {
                "ref:csioz": 1045306,
                "name": "Centrum Leków",
                "addr:street": "Osiedle Wojska Polskiego",
                "addr:housenumber": "111",
                "addr:city": "Grodzisk Wielkopolski",
                "addr:postcode": "62-065",
                "amenity": "pharmacy"
            },
            "geometry": {
                "type": "Point",
                "coordinates": [
                    16.354109659195792,
                    52.233426771314626
                ]
            }
        },
        {
            "type": "Feature",
            "properties": {
                "ref:csioz": 1046107,
                "name": "Kosma I Damian",
                "addr:street": "Główna",
                "addr:housenumber": "28",
                "addr:city": "Kamieniec",
                "addr:postcode": "64-061",
                "amenity": "pharmacy"
            },
            "geometry": {
                "type": "Point",
                "coordinates": [
                    16.459413862632413,
                    52.16360912344492
                ]
            }
        },
        {
            "type": "Feature",
            "properties": {
                "ref:csioz": 1046273,
                "name": "Centrum",
                "addr:street": "Ogrodowa",
                "addr:housenumber": "11A",
                "addr:city": "Rakoniewice",
                "addr:postcode": "62-067",
                "amenity": "pharmacy"
            },
            "geometry": {
                "type": "Point",
                "coordinates": [
                    16.268107091464792,
                    52.138979785490356
                ]
            }
        },
        {
            "type": "Feature",
            "properties": {
                "ref:csioz": 1050055,
                "name": "Apteka Na Poznańskiej",
                "addr:street": "Poznańska",
                "addr:housenumber": "18",
                "addr:city": "Grodzisk Wielkopolski",
                "addr:postcode": "62-065",
                "amenity": "pharmacy"
            },
            "geometry": {
                "type": "Point",
                "coordinates": [
                    16.369341876238078,
                    52.223417724508664
                ]
            }
        },
        {
            "type": "Feature",
            "properties": {
                "ref:csioz": 1050431,
                "name": "Rodzinna",
                "addr:street": "Powstańców Wielkopolskich",
                "addr:housenumber": "23",
                "addr:city": "Rakoniewice",
                "addr:postcode": "62-067",
                "amenity": "pharmacy"
            },
            "geometry": {
                "type": "Point",
                "coordinates": [
                    16.272855106277042,
                    52.13854073154726
                ]
            }
        },
        {
            "type": "Feature",
            "properties": {
                "ref:csioz": 1051497,
                "name": "Alma",
                "addr:street": "Wolsztyńska",
                "addr:housenumber": "29",
                "addr:city": "Rostarzewo",
                "addr:postcode": "62-068",
                "amenity": "pharmacy"
            },
            "geometry": {
                "type": "Point",
                "coordinates": [
                    16.1964936889432,
                    52.132172557851995
                ]
            }
        },
        {
            "type": "Feature",
            "properties": {
                "ref:csioz": 1051684,
                "name": "Moderna",
                "addr:street": "Grodziska",
                "addr:housenumber": "13A",
                "addr:flats": "4",
                "addr:city": "Rakoniewice",
                "addr:postcode": "62-067",
                "amenity": "pharmacy"
            },
            "geometry": {
                "type": "Point",
                "coordinates": [
                    16.275170876846133,
                    52.14101905348931
                ]
            }
        },
        {
            "type": "Feature",
            "properties": {
                "ref:csioz": 1055475,
                "name": "Zdrowie",
                "addr:street": "Rynek",
                "addr:housenumber": "3",
                "addr:city": "Wielichowo",
                "addr:postcode": "64-050",
                "amenity": "pharmacy"
            },
            "geometry": {
                "type": "Point",
                "coordinates": [
                    16.35186805236225,
                    52.11548979704506
                ]
            }
        },
        {
            "type": "Feature",
            "properties": {
                "ref:csioz": 1208292,
                "name": "Lekabel",
                "addr:street": "Nowotomyska",
                "addr:housenumber": "46B",
                "addr:city": "Grodzisk Wielkopolski",
                "addr:postcode": "62-065",
                "amenity": "pharmacy"
            },
            "geometry": {
                "type": "Point",
                "coordinates": [
                    16.353231159784734,
                    52.230400236644954
                ]
            }
        },
        {
            "type": "Feature",
            "properties": {
                "ref:csioz": 1223030,
                "name": "Apteka Od Serca",
                "addr:street": "Rakoniewicka",
                "addr:housenumber": "12",
                "addr:city": "Wielichowo",
                "addr:postcode": "64-050",
                "amenity": "pharmacy"
            },
            "geometry": {
                "type": "Point",
                "coordinates": [
                    16.347778115171344,
                    52.11891412214325
                ]
            }
        },
        {
            "type": "Feature",
            "properties": {
                "ref:csioz": 1229855,
                "addr:street": "Ogrodowa",
                "addr:housenumber": "11A",
                "addr:city": "Rakoniewice",
                "addr:postcode": "62-067",
                "amenity": "pharmacy"
            },
            "geometry": {
                "type": "Point",
                "coordinates": [
                    16.268107091464792,
                    52.138979785490356
                ]
            }
        },
        {
            "type": "Feature",
            "properties": {
                "ref:csioz": 1045001,
                "name": "Vita",
                "addr:street": "Sportowa",
                "addr:housenumber": "1",
                "addr:city": "Granowo",
                "addr:postcode": "62-066",
                "amenity": "pharmacy"
            },
            "geometry": {
                "type": "Point",
                "coordinates": [
                    16.52664208566838,
                    52.22229569902294
                ]
            }
        },
        {
            "type": "Feature",
            "properties": {
                "ref:csioz": 1189523,
                "name": "Arka",
                "addr:street": "Kolejowa",
                "addr:housenumber": "10",
                "addr:city": "Granowo",
                "addr:postcode": "62-066",
                "amenity": "pharmacy"
            },
            "geometry": {
                "type": "Point",
                "coordinates": [
                    16.52779643092701,
                    52.224828571419124
                ]
            }
        }
    ]
}