{
    "type": "FeatureCollection",
    "name": "JPT_KOD_JE_0414",
    "features": [
        {
            "type": "Feature",
            "properties": {
                "ref:csioz": 1102181,
                "name": "Jana Pawła Ii",
                "addr:street": "Mickiewicza",
                "addr:housenumber": "8",
                "addr:city": "Serock",
                "addr:postcode": "86-120",
                "amenity": "pharmacy"
            },
            "geometry": {
                "type": "Point",
                "coordinates": [
                    18.08152599821229,
                    53.355740610152466
                ]
            }
        },
        {
            "type": "Feature",
            "properties": {
                "ref:csioz": 1099180,
                "name": "Rodzinny",
                "addr:street": "Szarych Szeregów",
                "addr:housenumber": "8",
                "addr:city": "Grupa",
                "addr:postcode": "86-132",
                "amenity": "pharmacy"
            },
            "geometry": {
                "type": "Point",
                "coordinates": [
                    18.64116868705671,
                    53.50490259784549
                ]
            }
        },
        {
            "type": "Feature",
            "properties": {
                "ref:csioz": 1099497,
                "name": "Pod Lwem",
                "addr:street": "Duży Rynek",
                "addr:housenumber": "1",
                "addr:city": "Świecie",
                "addr:postcode": "86-100",
                "amenity": "pharmacy"
            },
            "geometry": {
                "type": "Point",
                "coordinates": [
                    18.45144173790971,
                    53.40901301630291
                ]
            }
        },
        {
            "type": "Feature",
            "properties": {
                "ref:csioz": 1099684,
                "name": "Mariańska",
                "addr:street": "Paderewskiego",
                "addr:housenumber": "4a",
                "addr:city": "Świecie",
                "addr:postcode": "86-100",
                "amenity": "pharmacy"
            },
            "geometry": {
                "type": "Point",
                "coordinates": [
                    18.423579058609175,
                    53.40792399603776
                ]
            }
        },
        {
            "type": "Feature",
            "properties": {
                "ref:csioz": 1100272,
                "name": "Sonia",
                "addr:street": "Akacjowa",
                "addr:housenumber": "1",
                "addr:city": "Dolna Grupa",
                "addr:postcode": "86-134",
                "amenity": "pharmacy"
            },
            "geometry": {
                "type": "Point",
                "coordinates": [
                    18.678604832135182,
                    53.497829479813255
                ]
            }
        },
        {
            "type": "Feature",
            "properties": {
                "ref:csioz": 1100756,
                "name": "Jana Pawła Ii",
                "addr:street": "Zamknięta",
                "addr:housenumber": "5",
                "addr:city": "Pruszcz",
                "addr:postcode": "86-120",
                "amenity": "pharmacy"
            },
            "geometry": {
                "type": "Point",
                "coordinates": [
                    18.197011849770963,
                    53.33209825446304
                ]
            }
        },
        {
            "type": "Feature",
            "properties": {
                "ref:csioz": 1101691,
                "name": "Wracam Do Zdrowia",
                "addr:street": "Wojska Polskiego",
                "addr:housenumber": "81",
                "addr:city": "Świecie",
                "addr:postcode": "86-101",
                "amenity": "pharmacy"
            },
            "geometry": {
                "type": "Point",
                "coordinates": [
                    18.433577824673286,
                    53.40715629378975
                ]
            }
        },
        {
            "type": "Feature",
            "properties": {
                "ref:csioz": 1101702,
                "name": "Wracam Do Zdrowia",
                "addr:street": "Dworcowa",
                "addr:housenumber": "1B",
                "addr:city": "Pruszcz",
                "addr:postcode": "86-120",
                "amenity": "pharmacy"
            },
            "geometry": {
                "type": "Point",
                "coordinates": [
                    18.194886996362946,
                    53.332732407732315
                ]
            }
        },
        {
            "type": "Feature",
            "properties": {
                "ref:csioz": 1102078,
                "name": "Apteka Tania",
                "addr:street": "Wojska Polskiego",
                "addr:housenumber": "115",
                "addr:city": "Świecie",
                "addr:postcode": "86-100",
                "amenity": "pharmacy"
            },
            "geometry": {
                "type": "Point",
                "coordinates": [
                    18.440158804862953,
                    53.408120747402805
                ]
            }
        },
        {
            "type": "Feature",
            "properties": {
                "ref:csioz": 1102170,
                "addr:street": "Parkowa",
                "addr:housenumber": "1A",
                "addr:city": "Laskowice Pomorskie",
                "addr:postcode": "86-131",
                "amenity": "pharmacy"
            },
            "geometry": {
                "type": "Point",
                "coordinates": [
                    18.45396299999977,
                    53.49268100001789
                ]
            }
        },
        {
            "type": "Feature",
            "properties": {
                "ref:csioz": 1102300,
                "name": "Poziomka",
                "addr:street": "Tucholska",
                "addr:housenumber": "23",
                "addr:city": "Świekatowo",
                "addr:postcode": "86-182",
                "amenity": "pharmacy"
            },
            "geometry": {
                "type": "Point",
                "coordinates": [
                    18.09279958162799,
                    53.42108880061464
                ]
            }
        },
        {
            "type": "Feature",
            "properties": {
                "ref:csioz": 1110451,
                "name": "Centrum Zdrowia",
                "addr:street": "Wojska Polskiego",
                "addr:housenumber": "80",
                "addr:city": "Świecie",
                "addr:postcode": "86-100",
                "amenity": "pharmacy"
            },
            "geometry": {
                "type": "Point",
                "coordinates": [
                    18.435643991133016,
                    53.40705403923149
                ]
            }
        },
        {
            "type": "Feature",
            "properties": {
                "ref:csioz": 1110562,
                "name": "Apteka Słoneczna",
                "addr:street": "Wojska Polskiego",
                "addr:housenumber": "126",
                "addr:city": "Świecie",
                "addr:postcode": "86-100",
                "amenity": "pharmacy"
            },
            "geometry": {
                "type": "Point",
                "coordinates": [
                    18.466809940953514,
                    53.41395509095258
                ]
            }
        },
        {
            "type": "Feature",
            "properties": {
                "ref:csioz": 1110472,
                "name": "\"Punkt Apteczny \"\"Poziomka\"\"\"",
                "addr:street": "Wyzwolenia",
                "addr:housenumber": "7D",
                "addr:city": "Lniano",
                "addr:postcode": "86-141",
                "amenity": "pharmacy"
            },
            "geometry": {
                "type": "Point",
                "coordinates": [
                    18.214092220230107,
                    53.528722642984356
                ]
            }
        },
        {
            "type": "Feature",
            "properties": {
                "ref:csioz": 1170149,
                "name": "\"Niepubliczny Zakład Opieki Zdrowotnej \"\"Florencja Ii\"\" Spółka Z Ograniczoną Odpowiedzialnością\"",
                "addr:street": "św. Wincentego",
                "addr:housenumber": "1",
                "addr:city": "Świecie",
                "addr:postcode": "86-100",
                "amenity": "pharmacy"
            },
            "geometry": {
                "type": "Point",
                "coordinates": [
                    18.449496358188128,
                    53.40596804059295
                ]
            }
        },
        {
            "type": "Feature",
            "properties": {
                "ref:csioz": 1171029,
                "name": "Wojewódzki Szpital Dla Nerwowo I Psychicznie Chorych Im. Dr J. Bednarza",
                "addr:street": "Sądowa",
                "addr:housenumber": "18",
                "addr:city": "Świecie",
                "addr:postcode": "86-100",
                "amenity": "pharmacy"
            },
            "geometry": {
                "type": "Point",
                "coordinates": [
                    18.460635259632394,
                    53.411721423803066
                ]
            }
        },
        {
            "type": "Feature",
            "properties": {
                "ref:csioz": 1171007,
                "name": "\"Niepubliczny Zakład Opieki Zdrowotnej \"\"Nowy Szpital Sp. Z O.O.\"\" \"",
                "addr:street": "Wojska Polskiego",
                "addr:housenumber": "126",
                "addr:city": "Świecie",
                "addr:postcode": "86-100",
                "amenity": "pharmacy"
            },
            "geometry": {
                "type": "Point",
                "coordinates": [
                    18.466809940953514,
                    53.41395509095258
                ]
            }
        },
        {
            "type": "Feature",
            "properties": {
                "ref:csioz": 1200805,
                "name": "Farmacja24",
                "addr:street": "Jana III Sobieskiego",
                "addr:housenumber": "2",
                "addr:city": "Świecie",
                "addr:postcode": "86-100",
                "amenity": "pharmacy"
            },
            "geometry": {
                "type": "Point",
                "coordinates": [
                    18.424571608640782,
                    53.41150088009975
                ]
            }
        },
        {
            "type": "Feature",
            "properties": {
                "ref:csioz": 1099027,
                "name": "Apteka Dbam O Zdrowie",
                "addr:street": "Dr Florian Ceynowy",
                "addr:housenumber": "16",
                "addr:city": "Bukowiec",
                "addr:postcode": "85-122",
                "amenity": "pharmacy"
            },
            "geometry": {
                "type": "Point",
                "coordinates": [
                    18.244027999999673,
                    53.43135800001779
                ]
            }
        },
        {
            "type": "Feature",
            "properties": {
                "ref:csioz": 1099167,
                "name": "Arnika",
                "addr:street": "Dworcowa",
                "addr:housenumber": "20",
                "addr:city": "Drzycim",
                "addr:postcode": "86-140",
                "amenity": "pharmacy"
            },
            "geometry": {
                "type": "Point",
                "coordinates": [
                    18.3130517554408,
                    53.51019367497622
                ]
            }
        },
        {
            "type": "Feature",
            "properties": {
                "ref:csioz": 1100498,
                "name": "Pod Orłem",
                "addr:street": "Księcia Grzymisława",
                "addr:housenumber": "4",
                "addr:city": "Świecie",
                "addr:postcode": "86-100",
                "amenity": "pharmacy"
            },
            "geometry": {
                "type": "Point",
                "coordinates": [
                    18.45113804403434,
                    53.40731975613585
                ]
            }
        },
        {
            "type": "Feature",
            "properties": {
                "ref:csioz": 1100913,
                "name": "Apteka Gemini",
                "addr:street": "Wojska Polskiego",
                "addr:housenumber": "88",
                "addr:flats": "9",
                "addr:city": "Świecie",
                "addr:postcode": "86-100",
                "amenity": "pharmacy"
            },
            "geometry": {
                "type": "Point",
                "coordinates": [
                    18.438161940271286,
                    53.4074979785394
                ]
            }
        },
        {
            "type": "Feature",
            "properties": {
                "ref:csioz": 1101285,
                "name": "Pomorska",
                "addr:street": "Wiatrakowa",
                "addr:housenumber": "2",
                "addr:city": "Jeżewo",
                "addr:postcode": "86-131",
                "amenity": "pharmacy"
            },
            "geometry": {
                "type": "Point",
                "coordinates": [
                    18.493060976653798,
                    53.515532657042556
                ]
            }
        },
        {
            "type": "Feature",
            "properties": {
                "ref:csioz": 1204517,
                "name": "Żyj-Zdrowo.Com",
                "addr:street": "Wojska Polskiego",
                "addr:housenumber": "8",
                "addr:city": "Gruczno",
                "addr:postcode": "86-111",
                "amenity": "pharmacy"
            },
            "geometry": {
                "type": "Point",
                "coordinates": [
                    18.312035655032137,
                    53.349305111905416
                ]
            }
        },
        {
            "type": "Feature",
            "properties": {
                "ref:csioz": 1181174,
                "name": "Źródło Zdrowia",
                "addr:street": "Wyzwolenia",
                "addr:housenumber": "18",
                "addr:city": "Lniano",
                "addr:postcode": "86-141",
                "amenity": "pharmacy"
            },
            "geometry": {
                "type": "Point",
                "coordinates": [
                    18.210727034642396,
                    53.52658345258337
                ]
            }
        },
        {
            "type": "Feature",
            "properties": {
                "ref:csioz": 1101728,
                "name": "Wracam Do Zdrowia",
                "addr:street": "Tczewska",
                "addr:housenumber": "8",
                "addr:city": "Nowe",
                "addr:postcode": "86-170",
                "amenity": "pharmacy"
            },
            "geometry": {
                "type": "Point",
                "coordinates": [
                    18.727556516494577,
                    53.648148826542304
                ]
            }
        },
        {
            "type": "Feature",
            "properties": {
                "ref:csioz": 1099741,
                "name": "Apteka Mgr Grażyny Bargańskiej Leśna",
                "addr:street": "Bąkowska",
                "addr:housenumber": "1a",
                "addr:city": "Warlubie",
                "addr:postcode": "86-160",
                "amenity": "pharmacy"
            },
            "geometry": {
                "type": "Point",
                "coordinates": [
                    18.626239999999836,
                    53.58747900001805
                ]
            }
        },
        {
            "type": "Feature",
            "properties": {
                "ref:csioz": 1099896,
                "name": "Pod Łabędziem",
                "addr:street": "Sienkiewicza",
                "addr:housenumber": "5",
                "addr:city": "Osie",
                "addr:postcode": "86-150",
                "amenity": "pharmacy"
            },
            "geometry": {
                "type": "Point",
                "coordinates": [
                    18.349064512970603,
                    53.598596167586656
                ]
            }
        },
        {
            "type": "Feature",
            "properties": {
                "ref:csioz": 1100393,
                "name": "Alba",
                "addr:street": "18 Lutego",
                "addr:housenumber": "2",
                "addr:city": "Warlubie",
                "addr:postcode": "86-160",
                "amenity": "pharmacy"
            },
            "geometry": {
                "type": "Point",
                "coordinates": [
                    18.631661162004217,
                    53.586647614880704
                ]
            }
        },
        {
            "type": "Feature",
            "properties": {
                "ref:csioz": 1181528,
                "name": "\"Apteka \"\"Jana Pawła Ii\"\"\"",
                "addr:street": "Dworcowa",
                "addr:housenumber": "9A",
                "addr:city": "Osie",
                "addr:postcode": "86-150",
                "amenity": "pharmacy"
            },
            "geometry": {
                "type": "Point",
                "coordinates": [
                    18.34747980216346,
                    53.5964928233276
                ]
            }
        }
    ]
}