{
    "type": "FeatureCollection",
    "name": "JPT_KOD_JE_3209",
    "crs": {
        "type": "name",
        "properties": {
            "name": "urn:ogc:def:crs:EPSG::4326"
        }
    },
    "features": [
        {
            "type": "Feature",
            "properties": {
                "ref:csioz": 1125164,
                "name": "Apteka Centralna",
                "addr:street": "Seligera",
                "addr:housenumber": "7",
                "addr:city": "Bobolice",
                "addr:postcode": "76-020",
                "amenity": "pharmacy"
            },
            "geometry": {
                "type": "Point",
                "coordinates": [
                    16.5851469898048,
                    53.95337044975127
                ]
            }
        },
        {
            "type": "Feature",
            "properties": {
                "ref:csioz": 1125951,
                "name": "Słoneczna",
                "addr:street": "Słowackiego",
                "addr:housenumber": "1",
                "addr:city": "Sianów",
                "addr:postcode": "76-004",
                "amenity": "pharmacy"
            },
            "geometry": {
                "type": "Point",
                "coordinates": [
                    16.298171879721213,
                    54.22555970788109
                ]
            }
        },
        {
            "type": "Feature",
            "properties": {
                "ref:csioz": 1125967,
                "name": "Rodzinna",
                "addr:street": "Armii Polskiej",
                "addr:housenumber": "3",
                "addr:city": "Sianów",
                "addr:postcode": "76-004",
                "amenity": "pharmacy"
            },
            "geometry": {
                "type": "Point",
                "coordinates": [
                    16.294569150318363,
                    54.228325519236876
                ]
            }
        },
        {
            "type": "Feature",
            "properties": {
                "ref:csioz": 1125980,
                "addr:street": "Zwycięstwa",
                "addr:housenumber": "8",
                "addr:city": "Bobolice",
                "addr:postcode": "78-430",
                "amenity": "pharmacy"
            },
            "geometry": {
                "type": "Point",
                "coordinates": [
                    16.58684675790605,
                    53.95265956639818
                ]
            }
        },
        {
            "type": "Feature",
            "properties": {
                "ref:csioz": 1147897,
                "name": "Magnum I",
                "addr:street": "Chrobrego",
                "addr:housenumber": "9",
                "addr:city": "Mielno",
                "addr:postcode": "76-032",
                "amenity": "pharmacy"
            },
            "geometry": {
                "type": "Point",
                "coordinates": [
                    16.057953698606102,
                    54.25954152947971
                ]
            }
        },
        {
            "type": "Feature",
            "properties": {
                "ref:csioz": 1198709,
                "name": "Apteka Słoneczna",
                "addr:street": "Zwycięstwa",
                "addr:housenumber": "8",
                "addr:flats": "1",
                "addr:city": "Bobolice",
                "addr:postcode": "76-020",
                "amenity": "pharmacy"
            },
            "geometry": {
                "type": "Point",
                "coordinates": [
                    16.58684675790605,
                    53.95265956639818
                ]
            }
        },
        {
            "type": "Feature",
            "properties": {
                "ref:csioz": 1147675,
                "name": "Na Fali",
                "addr:street": "6 Marca",
                "addr:housenumber": "45c",
                "addr:city": "Mielno",
                "addr:postcode": "76-032",
                "amenity": "pharmacy"
            },
            "geometry": {
                "type": "Point",
                "coordinates": [
                    16.085352693983253,
                    54.267338951708794
                ]
            }
        },
        {
            "type": "Feature",
            "properties": {
                "ref:csioz": 1138133,
                "name": "Ku Zdrowiu",
                "addr:street": "Koszalińska",
                "addr:housenumber": "1a",
                "addr:city": "Polanów",
                "addr:postcode": "76-010",
                "amenity": "pharmacy"
            },
            "geometry": {
                "type": "Point",
                "coordinates": [
                    16.681484958020576,
                    54.117698585648576
                ]
            }
        },
        {
            "type": "Feature",
            "properties": {
                "ref:csioz": 1139839,
                "name": "Aspirynka",
                "addr:housenumber": "18",
                "addr:city": "Będzino",
                "addr:postcode": "76-037",
                "amenity": "pharmacy"
            },
            "geometry": {
                "type": "Point",
                "coordinates": [
                    15.991466024563103,
                    54.210191437981415
                ]
            }
        },
        {
            "type": "Feature",
            "properties": {
                "ref:csioz": 1140441,
                "name": "Dr. Max",
                "addr:street": "Zamkowa",
                "addr:housenumber": "5",
                "addr:city": "Polanów",
                "addr:postcode": "76-010",
                "amenity": "pharmacy"
            },
            "geometry": {
                "type": "Point",
                "coordinates": [
                    16.686104651188955,
                    54.1194381752731
                ]
            }
        },
        {
            "type": "Feature",
            "properties": {
                "ref:csioz": 1147506,
                "name": "Kapitańska",
                "addr:street": "Rzemieślnicza",
                "addr:housenumber": "4a",
                "addr:city": "Mścice",
                "addr:postcode": "76-031",
                "amenity": "pharmacy"
            },
            "geometry": {
                "type": "Point",
                "coordinates": [
                    16.106867418152614,
                    54.216647456001425
                ]
            }
        },
        {
            "type": "Feature",
            "properties": {
                "ref:csioz": 1147554,
                "name": "Victoria",
                "addr:street": "Nadmorska",
                "addr:housenumber": "62a",
                "addr:city": "Sarbinowo",
                "addr:postcode": "76-034",
                "amenity": "pharmacy"
            },
            "geometry": {
                "type": "Point",
                "coordinates": [
                    15.9580474079782,
                    54.24930151575995
                ]
            }
        },
        {
            "type": "Feature",
            "properties": {
                "ref:csioz": 1178587,
                "name": "Aptecom",
                "addr:street": "Łużycka",
                "addr:housenumber": "1",
                "addr:city": "Sianów",
                "addr:postcode": "76-004",
                "amenity": "pharmacy"
            },
            "geometry": {
                "type": "Point",
                "coordinates": [
                    16.29614848430081,
                    54.229714217033404
                ]
            }
        },
        {
            "type": "Feature",
            "properties": {
                "ref:csioz": 1188205,
                "addr:housenumber": "41",
                "addr:city": "Biesiekierz",
                "addr:postcode": "76-039",
                "amenity": "pharmacy"
            },
            "geometry": {
                "type": "Point",
                "coordinates": [
                    16.0389089803188,
                    54.133467776949615
                ]
            }
        },
        {
            "type": "Feature",
            "properties": {
                "ref:csioz": 1188180,
                "name": "Apteka Sianowska",
                "addr:street": "Łużycka",
                "addr:housenumber": "4",
                "addr:city": "Sianów",
                "addr:postcode": "76-004",
                "amenity": "pharmacy"
            },
            "geometry": {
                "type": "Point",
                "coordinates": [
                    16.296508864024183,
                    54.22933491368173
                ]
            }
        },
        {
            "type": "Feature",
            "properties": {
                "ref:csioz": 1205198,
                "name": "Apteka Słoneczna",
                "addr:street": "Bolesława Chrobrego",
                "addr:housenumber": "8",
                "addr:flats": "1",
                "addr:city": "Mielno",
                "addr:postcode": "76-032",
                "amenity": "pharmacy"
            },
            "geometry": {
                "type": "Point",
                "coordinates": [
                    16.054546999987625,
                    54.25848400001932
                ]
            }
        }
    ]
}