{
    "type": "FeatureCollection",
    "name": "JPT_KOD_JE_2806",
    "crs": {
        "type": "name",
        "properties": {
            "name": "urn:ogc:def:crs:EPSG::4326"
        }
    },
    "features": [
        {
            "type": "Feature",
            "properties": {
                "ref:csioz": 1014880,
                "addr:street": "Warszawska",
                "addr:housenumber": "41",
                "addr:city": "Giżycko",
                "addr:postcode": "11-500",
                "amenity": "pharmacy"
            },
            "geometry": {
                "type": "Point",
                "coordinates": [
                    21.782169172201872,
                    54.03681495182407
                ]
            }
        },
        {
            "type": "Feature",
            "properties": {
                "ref:csioz": 1034460,
                "name": "Św. Brunona",
                "addr:street": "Giżycka",
                "addr:housenumber": "39",
                "addr:city": "Miłki",
                "addr:postcode": "11-513",
                "amenity": "pharmacy"
            },
            "geometry": {
                "type": "Point",
                "coordinates": [
                    21.873881512293323,
                    53.942762282979906
                ]
            }
        },
        {
            "type": "Feature",
            "properties": {
                "ref:csioz": 1034510,
                "addr:street": "Olsztyńska",
                "addr:housenumber": "48",
                "addr:city": "Wilkasy",
                "addr:postcode": "11-500",
                "amenity": "pharmacy"
            },
            "geometry": {
                "type": "Point",
                "coordinates": [
                    21.73359465164117,
                    54.01199125188004
                ]
            }
        },
        {
            "type": "Feature",
            "properties": {
                "ref:csioz": 1041434,
                "name": "Apteka Błękitna",
                "addr:street": "Jagiełły",
                "addr:housenumber": "14",
                "addr:city": "Giżycko",
                "addr:postcode": "11-500",
                "amenity": "pharmacy"
            },
            "geometry": {
                "type": "Point",
                "coordinates": [
                    21.782782123283262,
                    54.04139958874524
                ]
            }
        },
        {
            "type": "Feature",
            "properties": {
                "ref:csioz": 1147413,
                "name": "Apteka Dbam O Zdrowie",
                "addr:street": "Kazimierza Wielkiego",
                "addr:housenumber": "2",
                "addr:city": "Giżycko",
                "addr:postcode": "11-500",
                "amenity": "pharmacy"
            },
            "geometry": {
                "type": "Point",
                "coordinates": [
                    21.79050252747359,
                    54.042924041727744
                ]
            }
        },
        {
            "type": "Feature",
            "properties": {
                "ref:csioz": 1175364,
                "name": "Vill-Med Szpital Jednego Dnia",
                "addr:street": "Wilanowska",
                "addr:housenumber": "24",
                "addr:city": "Giżycko",
                "addr:postcode": "11-500",
                "amenity": "pharmacy"
            },
            "geometry": {
                "type": "Point",
                "coordinates": [
                    21.762622626967406,
                    54.04401429685563
                ]
            }
        },
        {
            "type": "Feature",
            "properties": {
                "ref:csioz": 1196834,
                "name": "\"Apteka \"\"Vita\"\" \"",
                "addr:street": "Dworcowa",
                "addr:housenumber": "1B",
                "addr:city": "Wydminy",
                "addr:postcode": "11-510",
                "amenity": "pharmacy"
            },
            "geometry": {
                "type": "Point",
                "coordinates": [
                    22.035816509323123,
                    53.97907826690218
                ]
            }
        },
        {
            "type": "Feature",
            "properties": {
                "ref:csioz": 1041442,
                "name": "Apteka Dyżurna",
                "addr:street": "Warszawska",
                "addr:housenumber": "2",
                "addr:city": "Giżycko",
                "addr:postcode": "11-500",
                "amenity": "pharmacy"
            },
            "geometry": {
                "type": "Point",
                "coordinates": [
                    21.771867478167252,
                    54.03581365468798
                ]
            }
        },
        {
            "type": "Feature",
            "properties": {
                "ref:csioz": 1041450,
                "name": "Nowa",
                "addr:street": "Wodociągowa",
                "addr:housenumber": "15A",
                "addr:city": "Giżycko",
                "addr:postcode": "11-500",
                "amenity": "pharmacy"
            },
            "geometry": {
                "type": "Point",
                "coordinates": [
                    21.781990757271927,
                    54.041744677685124
                ]
            }
        },
        {
            "type": "Feature",
            "properties": {
                "ref:csioz": 1041475,
                "name": "Parkowa",
                "addr:street": "Warszawska",
                "addr:housenumber": "29",
                "addr:city": "Giżycko",
                "addr:postcode": "11-500",
                "amenity": "pharmacy"
            },
            "geometry": {
                "type": "Point",
                "coordinates": [
                    21.776877720901723,
                    54.036042571797225
                ]
            }
        },
        {
            "type": "Feature",
            "properties": {
                "ref:csioz": 1041488,
                "name": "\"Apteka Cef@Rm 36,6\"",
                "addr:street": "Aleja Wojska Polskiego",
                "addr:housenumber": "8",
                "addr:city": "Giżycko",
                "addr:postcode": "11-500",
                "amenity": "pharmacy"
            },
            "geometry": {
                "type": "Point",
                "coordinates": [
                    21.755259284812375,
                    54.037584294635664
                ]
            }
        },
        {
            "type": "Feature",
            "properties": {
                "ref:csioz": 1041491,
                "name": "Apteka Salveo",
                "addr:street": "Okrzei",
                "addr:housenumber": "4",
                "addr:city": "Giżycko",
                "addr:postcode": "11-500",
                "amenity": "pharmacy"
            },
            "geometry": {
                "type": "Point",
                "coordinates": [
                    21.76595528640733,
                    54.03879333191286
                ]
            }
        },
        {
            "type": "Feature",
            "properties": {
                "ref:csioz": 1041515,
                "name": "Doz Apteka Dbam O Zdrowie",
                "addr:street": "Olsztyńska",
                "addr:housenumber": "3A",
                "addr:city": "Giżycko",
                "addr:postcode": "11-500",
                "amenity": "pharmacy"
            },
            "geometry": {
                "type": "Point",
                "coordinates": [
                    21.766009701650315,
                    54.03609681655686
                ]
            }
        },
        {
            "type": "Feature",
            "properties": {
                "ref:csioz": 1041528,
                "name": "\"Apteka Cef@Rm 36,6\"",
                "addr:street": "Tadeusza Kościuszki",
                "addr:housenumber": "18",
                "addr:city": "Giżycko",
                "addr:postcode": "11-500",
                "amenity": "pharmacy"
            },
            "geometry": {
                "type": "Point",
                "coordinates": [
                    21.77835445989934,
                    54.039115442031076
                ]
            }
        },
        {
            "type": "Feature",
            "properties": {
                "ref:csioz": 1041531,
                "name": "\"Apteka Cef@Rm 36,6\"",
                "addr:street": "Warszawska",
                "addr:housenumber": "7",
                "addr:city": "Giżycko",
                "addr:postcode": "11-500",
                "amenity": "pharmacy"
            },
            "geometry": {
                "type": "Point",
                "coordinates": [
                    21.772575631981873,
                    54.036095228009636
                ]
            }
        },
        {
            "type": "Feature",
            "properties": {
                "ref:csioz": 1041544,
                "addr:street": "Wodociągowa",
                "addr:housenumber": "17",
                "addr:city": "Giżycko",
                "addr:postcode": "11-500",
                "amenity": "pharmacy"
            },
            "geometry": {
                "type": "Point",
                "coordinates": [
                    21.782805300292658,
                    54.04297556386932
                ]
            }
        },
        {
            "type": "Feature",
            "properties": {
                "ref:csioz": 1041840,
                "name": "Viola",
                "addr:street": "Konrada Wallenroda",
                "addr:housenumber": "2",
                "addr:city": "Ryn",
                "addr:postcode": "11-520",
                "amenity": "pharmacy"
            },
            "geometry": {
                "type": "Point",
                "coordinates": [
                    21.54979828086423,
                    53.9383410018083
                ]
            }
        },
        {
            "type": "Feature",
            "properties": {
                "ref:csioz": 1113024,
                "name": "Apteka Przyjazna",
                "addr:street": "Tadeusza Kościuszki",
                "addr:housenumber": "25A i 25B",
                "addr:city": "Giżycko",
                "addr:postcode": "11-500",
                "amenity": "pharmacy"
            },
            "geometry": {
                "type": "Point",
                "coordinates": [
                    21.778159950522014,
                    54.03955595566546
                ]
            }
        },
        {
            "type": "Feature",
            "properties": {
                "ref:csioz": 1204639,
                "name": "Apteka Społeczna Na Warszawskiej Grupa Nowa Farmacja",
                "addr:street": "Warszawska",
                "addr:housenumber": "6",
                "addr:city": "Giżycko",
                "addr:postcode": "11-500",
                "amenity": "pharmacy"
            },
            "geometry": {
                "type": "Point",
                "coordinates": [
                    21.772760991641686,
                    54.035718674695985
                ]
            }
        },
        {
            "type": "Feature",
            "properties": {
                "ref:csioz": 1213639,
                "name": "Apteka Pod Modrzewiem",
                "addr:street": "Dworcowa",
                "addr:housenumber": "2",
                "addr:city": "Kruklanki",
                "addr:postcode": "11-612",
                "amenity": "pharmacy"
            },
            "geometry": {
                "type": "Point",
                "coordinates": [
                    21.920653362061593,
                    54.088531783965536
                ]
            }
        },
        {
            "type": "Feature",
            "properties": {
                "ref:csioz": 1214240,
                "name": "Apteka Gemini",
                "addr:street": "Plac Grunwaldzki",
                "addr:housenumber": "11",
                "addr:city": "Giżycko",
                "addr:postcode": "11-500",
                "amenity": "pharmacy"
            },
            "geometry": {
                "type": "Point",
                "coordinates": [
                    21.76859988257455,
                    54.035857670922454
                ]
            }
        },
        {
            "type": "Feature",
            "properties": {
                "ref:csioz": 1221465,
                "name": "Apteki Polskie",
                "addr:street": "Wolności",
                "addr:housenumber": "3",
                "addr:city": "Ryn",
                "addr:postcode": "11-520",
                "amenity": "pharmacy"
            },
            "geometry": {
                "type": "Point",
                "coordinates": [
                    21.544689388684475,
                    53.93820678398516
                ]
            }
        },
        {
            "type": "Feature",
            "properties": {
                "ref:csioz": 1217871,
                "name": "Apteka Centrum",
                "addr:street": "Jagiełły",
                "addr:housenumber": "1A",
                "addr:city": "Giżycko",
                "addr:postcode": "11-500",
                "amenity": "pharmacy"
            },
            "geometry": {
                "type": "Point",
                "coordinates": [
                    21.789512447096396,
                    54.04135792102349
                ]
            }
        }
    ]
}