{
    "type": "FeatureCollection",
    "name": "JPT_KOD_JE_2472",
    "crs": {
        "type": "name",
        "properties": {
            "name": "urn:ogc:def:crs:EPSG::4326"
        }
    },
    "features": [
        {
            "type": "Feature",
            "properties": {
                "ref:csioz": 1067652,
                "name": "Zdrowie I",
                "addr:street": "Karola Goduli",
                "addr:housenumber": "13",
                "addr:city": "Ruda Śląska",
                "addr:postcode": "41-703",
                "amenity": "pharmacy"
            },
            "geometry": {
                "type": "Point",
                "coordinates": [
                    18.886282175085015,
                    50.31292140588503
                ]
            }
        },
        {
            "type": "Feature",
            "properties": {
                "ref:csioz": 1067992,
                "name": "Powstańców Śląskich",
                "addr:street": "Antoniego Zielińskiego",
                "addr:housenumber": "10",
                "addr:city": "Ruda Śląska",
                "addr:postcode": "41-704",
                "amenity": "pharmacy"
            },
            "geometry": {
                "type": "Point",
                "coordinates": [
                    18.88739116891973,
                    50.32173917350331
                ]
            }
        },
        {
            "type": "Feature",
            "properties": {
                "ref:csioz": 1177260,
                "name": "Apteka Zdrowit",
                "addr:street": "Joanny",
                "addr:housenumber": "20",
                "addr:city": "Ruda Śląska",
                "addr:postcode": "41-712",
                "amenity": "pharmacy"
            },
            "geometry": {
                "type": "Point",
                "coordinates": [
                    18.8773814196584,
                    50.315372000807834
                ]
            }
        },
        {
            "type": "Feature",
            "properties": {
                "ref:csioz": 1205483,
                "name": "Hygieia",
                "addr:street": "Karola Goduli",
                "addr:housenumber": "34",
                "addr:city": "Ruda Śląska",
                "addr:postcode": "41-712",
                "amenity": "pharmacy"
            },
            "geometry": {
                "type": "Point",
                "coordinates": [
                    18.887975516021,
                    50.31591298788935
                ]
            }
        },
        {
            "type": "Feature",
            "properties": {
                "ref:csioz": 1183875,
                "name": "Apteka Słoneczna",
                "addr:street": "Karola Goduli",
                "addr:housenumber": "13",
                "addr:flats": "1",
                "addr:city": "Ruda Śląska",
                "addr:postcode": "41-712",
                "amenity": "pharmacy"
            },
            "geometry": {
                "type": "Point",
                "coordinates": [
                    18.886282175085015,
                    50.31292140588503
                ]
            }
        },
        {
            "type": "Feature",
            "properties": {
                "ref:csioz": 1067596,
                "name": "Aptekarstwo-Apteka Wirecka",
                "addr:street": "Jarosława Dąbrowskiego",
                "addr:housenumber": "23",
                "addr:city": "Ruda Śląska",
                "addr:postcode": "41-710",
                "amenity": "pharmacy"
            },
            "geometry": {
                "type": "Point",
                "coordinates": [
                    18.866815419656724,
                    50.273009553972365
                ]
            }
        },
        {
            "type": "Feature",
            "properties": {
                "ref:csioz": 1067719,
                "name": "Św. Barbary",
                "addr:street": "ks. Józefa Niedzieli",
                "addr:housenumber": "51 B",
                "addr:city": "Ruda Śląska",
                "addr:postcode": "41-711",
                "amenity": "pharmacy"
            },
            "geometry": {
                "type": "Point",
                "coordinates": [
                    18.83030768401382,
                    50.27447608895003
                ]
            }
        },
        {
            "type": "Feature",
            "properties": {
                "ref:csioz": 1067724,
                "name": "Apteka Śląska Ii",
                "addr:street": "ks. Józefa Niedzieli",
                "addr:housenumber": "4",
                "addr:city": "Ruda Śląska",
                "addr:postcode": "41-711",
                "amenity": "pharmacy"
            },
            "geometry": {
                "type": "Point",
                "coordinates": [
                    18.834314093466546,
                    50.26789858674995
                ]
            }
        },
        {
            "type": "Feature",
            "properties": {
                "ref:csioz": 1067735,
                "name": "Ficinus",
                "addr:street": "Pawła Kubiny",
                "addr:housenumber": "8",
                "addr:city": "Ruda Śląska",
                "addr:postcode": "41-710",
                "amenity": "pharmacy"
            },
            "geometry": {
                "type": "Point",
                "coordinates": [
                    18.861535851485286,
                    50.27329331152706
                ]
            }
        },
        {
            "type": "Feature",
            "properties": {
                "ref:csioz": 1067743,
                "name": "Melissa",
                "addr:street": "Kornela Makuszyńskiego",
                "addr:housenumber": "5 A",
                "addr:city": "Ruda Śląska",
                "addr:postcode": "41-706",
                "amenity": "pharmacy"
            },
            "geometry": {
                "type": "Point",
                "coordinates": [
                    18.844232652798688,
                    50.24362986488616
                ]
            }
        },
        {
            "type": "Feature",
            "properties": {
                "ref:csioz": 1067781,
                "name": "Na Norwida",
                "addr:street": "Cypriana Norwida",
                "addr:housenumber": "26",
                "addr:city": "Ruda Śląska",
                "addr:postcode": "41-700",
                "amenity": "pharmacy"
            },
            "geometry": {
                "type": "Point",
                "coordinates": [
                    18.857742917123787,
                    50.30842311357
                ]
            }
        },
        {
            "type": "Feature",
            "properties": {
                "ref:csioz": 1067797,
                "name": "Apteka Zdrowie",
                "addr:street": "Obrońców Westerplatte",
                "addr:housenumber": "7",
                "addr:city": "Ruda Śląska",
                "addr:postcode": "41-710",
                "amenity": "pharmacy"
            },
            "geometry": {
                "type": "Point",
                "coordinates": [
                    18.875392673330204,
                    50.27289040402858
                ]
            }
        },
        {
            "type": "Feature",
            "properties": {
                "ref:csioz": 1067815,
                "name": "Viola",
                "addr:street": "Olszynowa",
                "addr:housenumber": "9",
                "addr:city": "Ruda Śląska",
                "addr:postcode": "41-706",
                "amenity": "pharmacy"
            },
            "geometry": {
                "type": "Point",
                "coordinates": [
                    18.833920610502798,
                    50.23857280644346
                ]
            }
        },
        {
            "type": "Feature",
            "properties": {
                "ref:csioz": 1067828,
                "name": "Apteka Rodzinna",
                "addr:street": "Oświęcimska",
                "addr:housenumber": "126",
                "addr:city": "Ruda Śląska",
                "addr:postcode": "41-707",
                "amenity": "pharmacy"
            },
            "geometry": {
                "type": "Point",
                "coordinates": [
                    18.904418778745946,
                    50.253322619323384
                ]
            }
        },
        {
            "type": "Feature",
            "properties": {
                "ref:csioz": 1067844,
                "name": "Rodzinna",
                "addr:street": "Plac Niepodległości",
                "addr:housenumber": "5",
                "addr:city": "Ruda Śląska",
                "addr:postcode": "41-703",
                "amenity": "pharmacy"
            },
            "geometry": {
                "type": "Point",
                "coordinates": [
                    18.885421376753474,
                    50.31395984846227
                ]
            }
        },
        {
            "type": "Feature",
            "properties": {
                "ref:csioz": 1067853,
                "name": "Apteka Mega",
                "addr:street": "Pokoju",
                "addr:housenumber": "14",
                "addr:city": "Ruda Śląska",
                "addr:postcode": "41-709",
                "amenity": "pharmacy"
            },
            "geometry": {
                "type": "Point",
                "coordinates": [
                    18.88218018909145,
                    50.28460487743512
                ]
            }
        },
        {
            "type": "Feature",
            "properties": {
                "ref:csioz": 1067866,
                "name": "Na Rogu",
                "addr:street": "Radoszowska",
                "addr:housenumber": "110",
                "addr:city": "Ruda Śląska",
                "addr:postcode": "41-707",
                "amenity": "pharmacy"
            },
            "geometry": {
                "type": "Point",
                "coordinates": [
                    18.910855372840057,
                    50.254472775840114
                ]
            }
        },
        {
            "type": "Feature",
            "properties": {
                "ref:csioz": 1067890,
                "name": "Śląska",
                "addr:street": "Solidarności",
                "addr:housenumber": "9",
                "addr:city": "Ruda Śląska",
                "addr:postcode": "41-706",
                "amenity": "pharmacy"
            },
            "geometry": {
                "type": "Point",
                "coordinates": [
                    18.832697903839723,
                    50.24068849635819
                ]
            }
        },
        {
            "type": "Feature",
            "properties": {
                "ref:csioz": 1067913,
                "name": "Apteka Słoneczna",
                "addr:street": "Sztolniowa",
                "addr:housenumber": "6",
                "addr:city": "Ruda Śląska",
                "addr:postcode": "41-705",
                "amenity": "pharmacy"
            },
            "geometry": {
                "type": "Point",
                "coordinates": [
                    18.898868547619116,
                    50.26705370666082
                ]
            }
        },
        {
            "type": "Feature",
            "properties": {
                "ref:csioz": 1067945,
                "name": "Wawelska",
                "addr:street": "Wolności",
                "addr:housenumber": "2",
                "addr:city": "Ruda Śląska",
                "addr:postcode": "41-700",
                "amenity": "pharmacy"
            },
            "geometry": {
                "type": "Point",
                "coordinates": [
                    18.85246984462224,
                    50.31453768895046
                ]
            }
        },
        {
            "type": "Feature",
            "properties": {
                "ref:csioz": 1067959,
                "name": "Apteka Dbam O Zdrowie",
                "addr:street": "Wolności",
                "addr:housenumber": "20",
                "addr:city": "Ruda Śląska",
                "addr:postcode": "41-700",
                "amenity": "pharmacy"
            },
            "geometry": {
                "type": "Point",
                "coordinates": [
                    18.852365757648336,
                    50.31185091394605
                ]
            }
        },
        {
            "type": "Feature",
            "properties": {
                "ref:csioz": 1067968,
                "name": "Apteka Dbam O Zdrowie",
                "addr:street": "Wolności",
                "addr:housenumber": "99",
                "addr:city": "Ruda Śląska",
                "addr:postcode": "41-700",
                "amenity": "pharmacy"
            },
            "geometry": {
                "type": "Point",
                "coordinates": [
                    18.853698821239114,
                    50.302438889945954
                ]
            }
        },
        {
            "type": "Feature",
            "properties": {
                "ref:csioz": 1179423,
                "name": "\"Apteka Zdrowit\"\"\"",
                "addr:street": "Franciszka Wilka",
                "addr:housenumber": "4b",
                "addr:city": "Ruda Śląska",
                "addr:postcode": "41-705",
                "amenity": "pharmacy"
            },
            "geometry": {
                "type": "Point",
                "coordinates": [
                    18.894015108876523,
                    50.266219524982034
                ]
            }
        },
        {
            "type": "Feature",
            "properties": {
                "ref:csioz": 1187471,
                "name": "Apteka Zdrowit",
                "addr:street": "Zabrzańska",
                "addr:housenumber": "52",
                "addr:flats": "2",
                "addr:city": "Ruda Śląska",
                "addr:postcode": "41-700",
                "amenity": "pharmacy"
            },
            "geometry": {
                "type": "Point",
                "coordinates": [
                    18.852789917175393,
                    50.30010062439588
                ]
            }
        },
        {
            "type": "Feature",
            "properties": {
                "ref:csioz": 1201571,
                "name": "Doz Apteka Dbam O Zdrowie",
                "addr:street": "Szpaków",
                "addr:housenumber": "33",
                "addr:city": "Ruda Śląska",
                "addr:postcode": "41-705",
                "amenity": "pharmacy"
            },
            "geometry": {
                "type": "Point",
                "coordinates": [
                    18.88654660130329,
                    50.268443342679795
                ]
            }
        },
        {
            "type": "Feature",
            "properties": {
                "ref:csioz": 1226104,
                "name": "Apteka Szpitalna",
                "addr:street": "Wincentego Lipa",
                "addr:housenumber": "2",
                "addr:city": "Ruda Śląska",
                "addr:postcode": "41-703",
                "amenity": "pharmacy"
            },
            "geometry": {
                "type": "Point",
                "coordinates": [
                    18.88818491516982,
                    50.31520748550726
                ]
            }
        },
        {
            "type": "Feature",
            "properties": {
                "ref:csioz": 1057152,
                "name": "\"Nzoz Ośrodek Pielęgniarstwa Pomoc W Zdrowiu I W Chorobie Sp. Z O.O. Stacjonarne, Całodobowe, Domowe Świadczenia Zdrowotne\"",
                "addr:street": "1 Maja",
                "addr:housenumber": "288",
                "addr:city": "Ruda Śląska",
                "addr:postcode": "41-710",
                "amenity": "pharmacy"
            },
            "geometry": {
                "type": "Point",
                "coordinates": [
                    18.863820369639107,
                    50.27316384974078
                ]
            }
        },
        {
            "type": "Feature",
            "properties": {
                "ref:csioz": 1067618,
                "name": "Salix",
                "addr:street": "Grodzka",
                "addr:housenumber": "4 C",
                "addr:flats": "6",
                "addr:city": "Ruda Śląska",
                "addr:postcode": "41-706",
                "amenity": "pharmacy"
            },
            "geometry": {
                "type": "Point",
                "coordinates": [
                    18.839752584884348,
                    50.24477179827621
                ]
            }
        },
        {
            "type": "Feature",
            "properties": {
                "ref:csioz": 1067626,
                "name": "Aptekarstwo-Apteka Medicamenta Et Varia",
                "addr:street": "Alojzego Jankowskiego",
                "addr:housenumber": "4",
                "addr:flats": "1",
                "addr:city": "Ruda Śląska",
                "addr:postcode": "41-710",
                "amenity": "pharmacy"
            },
            "geometry": {
                "type": "Point",
                "coordinates": [
                    18.860589858392153,
                    50.27040686633669
                ]
            }
        },
        {
            "type": "Feature",
            "properties": {
                "ref:csioz": 1067831,
                "name": "Apteka Zdrowit",
                "addr:street": "Plac Jana Pawła II",
                "addr:housenumber": "1",
                "addr:city": "Ruda Śląska",
                "addr:postcode": "41-709",
                "amenity": "pharmacy"
            },
            "geometry": {
                "type": "Point",
                "coordinates": [
                    18.87534893942595,
                    50.28532524098467
                ]
            }
        },
        {
            "type": "Feature",
            "properties": {
                "ref:csioz": 1118652,
                "name": "Rodzinna",
                "addr:street": "Piotra Niedurnego",
                "addr:housenumber": "50D",
                "addr:flats": "2",
                "addr:city": "Ruda Śląska",
                "addr:postcode": "41-709",
                "amenity": "pharmacy"
            },
            "geometry": {
                "type": "Point",
                "coordinates": [
                    18.875326595601045,
                    50.2885620212212
                ]
            }
        },
        {
            "type": "Feature",
            "properties": {
                "ref:csioz": 1119822,
                "name": "\"Apteka Cef@Rm 36,6\"",
                "addr:street": "1 Maja",
                "addr:housenumber": "385",
                "addr:city": "Ruda Śląska",
                "addr:postcode": "41-700",
                "amenity": "pharmacy"
            },
            "geometry": {
                "type": "Point",
                "coordinates": [
                    18.852745531600185,
                    50.29778438155722
                ]
            }
        },
        {
            "type": "Feature",
            "properties": {
                "ref:csioz": 1184464,
                "name": "Ziko Apteka",
                "addr:street": "Zabrzańska",
                "addr:housenumber": "51",
                "addr:city": "Ruda Śląska",
                "addr:postcode": "41-700",
                "amenity": "pharmacy"
            },
            "geometry": {
                "type": "Point",
                "coordinates": [
                    18.853030314404418,
                    50.299630952345666
                ]
            }
        },
        {
            "type": "Feature",
            "properties": {
                "ref:csioz": 1185907,
                "name": "Dr. Max",
                "addr:street": "Górnośląska",
                "addr:housenumber": "16",
                "addr:flats": "1",
                "addr:city": "Ruda Śląska",
                "addr:postcode": "41-717",
                "amenity": "pharmacy"
            },
            "geometry": {
                "type": "Point",
                "coordinates": [
                    18.88203044001296,
                    50.266700230381545
                ]
            }
        },
        {
            "type": "Feature",
            "properties": {
                "ref:csioz": 1191596,
                "name": "Apteka Magiczna",
                "addr:street": "Solidarności",
                "addr:housenumber": "20E",
                "addr:city": "Ruda Śląska",
                "addr:postcode": "41-706",
                "amenity": "pharmacy"
            },
            "geometry": {
                "type": "Point",
                "coordinates": [
                    18.83054593162877,
                    50.24227738500403
                ]
            }
        },
        {
            "type": "Feature",
            "properties": {
                "ref:csioz": 1194848,
                "name": "Dr. Max",
                "addr:street": "Katowicka",
                "addr:housenumber": "26",
                "addr:city": "Ruda Śląska",
                "addr:postcode": "41-710",
                "amenity": "pharmacy"
            },
            "geometry": {
                "type": "Point",
                "coordinates": [
                    18.871690740078375,
                    50.27013439153993
                ]
            }
        },
        {
            "type": "Feature",
            "properties": {
                "ref:csioz": 1202074,
                "name": "Apteka Słoneczna",
                "addr:street": "Piotra Niedurnego",
                "addr:housenumber": "48",
                "addr:city": "Ruda Śląska",
                "addr:postcode": "41-709",
                "amenity": "pharmacy"
            },
            "geometry": {
                "type": "Point",
                "coordinates": [
                    18.875586292415772,
                    50.28729307406346
                ]
            }
        },
        {
            "type": "Feature",
            "properties": {
                "ref:csioz": 1202082,
                "name": "Duos",
                "addr:street": "Edmunda Kokota",
                "addr:housenumber": "172",
                "addr:city": "Ruda Śląska",
                "addr:postcode": "41-711",
                "amenity": "pharmacy"
            },
            "geometry": {
                "type": "Point",
                "coordinates": [
                    18.831755677101842,
                    50.267341131921626
                ]
            }
        },
        {
            "type": "Feature",
            "properties": {
                "ref:csioz": 1203427,
                "name": "Apteka Nova Sieciowa",
                "addr:street": "Ludomira Różyckiego",
                "addr:housenumber": "30",
                "addr:city": "Ruda Śląska",
                "addr:postcode": "41-710",
                "amenity": "pharmacy"
            },
            "geometry": {
                "type": "Point",
                "coordinates": [
                    18.855430463809842,
                    50.27177029395944
                ]
            }
        },
        {
            "type": "Feature",
            "properties": {
                "ref:csioz": 1207554,
                "name": "Apteka Zdrowit+",
                "addr:street": "ul. Solidarności",
                "addr:housenumber": "11F",
                "addr:city": "Ruda Śląska",
                "addr:postcode": "41-706",
                "amenity": "pharmacy"
            },
            "geometry": {
                "type": "Point",
                "coordinates": [
                    18.830737726243346,
                    50.241695683931574
                ]
            }
        },
        {
            "type": "Feature",
            "properties": {
                "ref:csioz": 1212830,
                "name": "Apteka Na Zdrowie",
                "addr:street": "ul. Jana Gierałtowskiego",
                "addr:housenumber": "29",
                "addr:city": "Ruda Śląska",
                "addr:postcode": "41-700",
                "amenity": "pharmacy"
            },
            "geometry": {
                "type": "Point",
                "coordinates": [
                    18.851921472700223,
                    50.320050698355246
                ]
            }
        }
    ]
}