{
    "type": "FeatureCollection",
    "name": "JPT_KOD_JE_3022",
    "crs": {
        "type": "name",
        "properties": {
            "name": "urn:ogc:def:crs:EPSG::4326"
        }
    },
    "features": [
        {
            "type": "Feature",
            "properties": {
                "ref:csioz": 1043803,
                "addr:street": "PARKOWA",
                "addr:housenumber": "6",
                "addr:city": "PAKOSŁAW",
                "addr:postcode": "63-920",
                "amenity": "pharmacy"
            },
            "geometry": {
                "type": "Point",
                "coordinates": [
                    17.058255018184717,
                    51.61876965126521
                ]
            }
        },
        {
            "type": "Feature",
            "properties": {
                "ref:csioz": 1054120,
                "name": "Apteka Lawendowa",
                "addr:street": "WESTERPLATTE",
                "addr:housenumber": "1",
                "addr:city": "RAWICZ",
                "addr:postcode": "63-900",
                "amenity": "pharmacy"
            },
            "geometry": {
                "type": "Point",
                "coordinates": [
                    16.85972252977463,
                    51.61303122899298
                ]
            }
        },
        {
            "type": "Feature",
            "properties": {
                "ref:csioz": 1054136,
                "name": "Apteka Gemini",
                "addr:street": "marsz. Józefa Piłsudskiego",
                "addr:housenumber": "2",
                "addr:city": "Rawicz",
                "addr:postcode": "63-900",
                "amenity": "pharmacy"
            },
            "geometry": {
                "type": "Point",
                "coordinates": [
                    16.85303641102269,
                    51.609642500094765
                ]
            }
        },
        {
            "type": "Feature",
            "properties": {
                "ref:csioz": 1054326,
                "name": "Pod Jaworem",
                "addr:street": "RYNEK",
                "addr:housenumber": "30",
                "addr:city": "MIEJSKA GÓRKA",
                "addr:postcode": "63-910",
                "amenity": "pharmacy"
            },
            "geometry": {
                "type": "Point",
                "coordinates": [
                    16.955261544622136,
                    51.65505408838372
                ]
            }
        },
        {
            "type": "Feature",
            "properties": {
                "ref:csioz": 1054508,
                "name": "Apteka Górecka",
                "addr:street": "JANUSZA KORCZAKA",
                "addr:housenumber": "4",
                "addr:city": "MIEJSKA GÓRKA",
                "addr:postcode": "63-910",
                "amenity": "pharmacy"
            },
            "geometry": {
                "type": "Point",
                "coordinates": [
                    16.953731903650283,
                    51.655647049043644
                ]
            }
        },
        {
            "type": "Feature",
            "properties": {
                "ref:csioz": 1054966,
                "name": "Lawendowa Ii",
                "addr:street": "SIENKIEWICZA",
                "addr:housenumber": "28C",
                "addr:flats": "2",
                "addr:city": "RAWICZ",
                "addr:postcode": "63-900",
                "amenity": "pharmacy"
            },
            "geometry": {
                "type": "Point",
                "coordinates": [
                    16.855781999996097,
                    51.603304000014866
                ]
            }
        },
        {
            "type": "Feature",
            "properties": {
                "ref:csioz": 1054148,
                "name": "Grodzka",
                "addr:street": "Wojska Polskiego",
                "addr:housenumber": "7",
                "addr:city": "Rawicz",
                "addr:postcode": "63-900",
                "amenity": "pharmacy"
            },
            "geometry": {
                "type": "Point",
                "coordinates": [
                    16.856302959814983,
                    51.60953488284845
                ]
            }
        },
        {
            "type": "Feature",
            "properties": {
                "ref:csioz": 1054157,
                "name": "Apteka Lawendowa",
                "addr:street": "Rynek",
                "addr:housenumber": "36",
                "addr:city": "Rawicz",
                "addr:postcode": "63-900",
                "amenity": "pharmacy"
            },
            "geometry": {
                "type": "Point",
                "coordinates": [
                    16.85721221118227,
                    51.60946188385515
                ]
            }
        },
        {
            "type": "Feature",
            "properties": {
                "ref:csioz": 1054259,
                "name": "Pod Wagą",
                "addr:street": "DWORCOWA",
                "addr:housenumber": "20",
                "addr:city": "BOJANOWO",
                "addr:postcode": "63-940",
                "amenity": "pharmacy"
            },
            "geometry": {
                "type": "Point",
                "coordinates": [
                    16.74687345024449,
                    51.70486774525977
                ]
            }
        },
        {
            "type": "Feature",
            "properties": {
                "ref:csioz": 1054446,
                "name": "Apteka Pod Wierzbą",
                "addr:street": "PARKOWA",
                "addr:housenumber": "9",
                "addr:city": "PAKOSŁAW",
                "addr:postcode": "63-920",
                "amenity": "pharmacy"
            },
            "geometry": {
                "type": "Point",
                "coordinates": [
                    17.058945681671744,
                    51.6188677655875
                ]
            }
        },
        {
            "type": "Feature",
            "properties": {
                "ref:csioz": 1054495,
                "name": "W Rynku",
                "addr:street": "RYNEK SARNOWSKI",
                "addr:housenumber": "13",
                "addr:city": "RAWICZ",
                "addr:postcode": "63-900",
                "amenity": "pharmacy"
            },
            "geometry": {
                "type": "Point",
                "coordinates": [
                    16.908852403419928,
                    51.63214903714878
                ]
            }
        },
        {
            "type": "Feature",
            "properties": {
                "ref:csioz": 1054629,
                "name": "Apteka Dbam O Zdrowie",
                "addr:street": "11 LISTOPADA",
                "addr:housenumber": "2A",
                "addr:city": "RAWICZ",
                "addr:postcode": "63-900",
                "amenity": "pharmacy"
            },
            "geometry": {
                "type": "Point",
                "coordinates": [
                    16.842745593852978,
                    51.61020797134123
                ]
            }
        },
        {
            "type": "Feature",
            "properties": {
                "ref:csioz": 1054693,
                "name": "Osiedlowa",
                "addr:street": "Przyjmy Przyjemskiego",
                "addr:housenumber": "6A",
                "addr:city": "RAWICZ",
                "addr:postcode": "63-900",
                "amenity": "pharmacy"
            },
            "geometry": {
                "type": "Point",
                "coordinates": [
                    16.85804698122469,
                    51.61252898153923
                ]
            }
        },
        {
            "type": "Feature",
            "properties": {
                "ref:csioz": 1054842,
                "name": "Magnolia",
                "addr:street": "Plac Korczaka",
                "addr:housenumber": "1A",
                "addr:city": "Miejska Górka",
                "addr:postcode": "63-910",
                "amenity": "pharmacy"
            },
            "geometry": {
                "type": "Point",
                "coordinates": [
                    16.95437353083438,
                    51.65537888345431
                ]
            }
        },
        {
            "type": "Feature",
            "properties": {
                "ref:csioz": 1056085,
                "addr:street": "GEN. GROTA ROWECKIEGO",
                "addr:housenumber": "6",
                "addr:city": "RAWICZ",
                "addr:postcode": "63-900",
                "amenity": "pharmacy"
            },
            "geometry": {
                "type": "Point",
                "coordinates": [
                    16.842716666357372,
                    51.61445872788403
                ]
            }
        },
        {
            "type": "Feature",
            "properties": {
                "ref:csioz": 1056116,
                "addr:street": "17 STYCZNIA",
                "addr:housenumber": "28",
                "addr:city": "RAWICZ",
                "addr:postcode": "63-900",
                "amenity": "pharmacy"
            },
            "geometry": {
                "type": "Point",
                "coordinates": [
                    16.863247455123602,
                    51.60914586509889
                ]
            }
        },
        {
            "type": "Feature",
            "properties": {
                "ref:csioz": 1175877,
                "name": "Św. Franciszka",
                "addr:street": "Bohaterów Westerplatte",
                "addr:housenumber": "2",
                "addr:flats": "2",
                "addr:city": "Rawicz",
                "addr:postcode": "63-900",
                "amenity": "pharmacy"
            },
            "geometry": {
                "type": "Point",
                "coordinates": [
                    16.861947700923764,
                    51.61330195357607
                ]
            }
        },
        {
            "type": "Feature",
            "properties": {
                "ref:csioz": 1179543,
                "name": "Nova 3",
                "addr:street": "marsz. Józefa Piłsudskiego",
                "addr:housenumber": "8A",
                "addr:city": "Rawicz",
                "addr:postcode": "63-900",
                "amenity": "pharmacy"
            },
            "geometry": {
                "type": "Point",
                "coordinates": [
                    16.85178508661778,
                    51.60960905796458
                ]
            }
        },
        {
            "type": "Feature",
            "properties": {
                "ref:csioz": 1187800,
                "name": "Lawendowa",
                "addr:street": "marsz. Józefa Piłsudskiego",
                "addr:housenumber": "5",
                "addr:city": "Rawicz",
                "addr:postcode": "63-900",
                "amenity": "pharmacy"
            },
            "geometry": {
                "type": "Point",
                "coordinates": [
                    16.852394406084727,
                    51.60943397172016
                ]
            }
        },
        {
            "type": "Feature",
            "properties": {
                "ref:csioz": 1195637,
                "name": "Świat Zdrowia",
                "addr:street": "Rynek",
                "addr:housenumber": "33",
                "addr:city": "Bojanowo",
                "addr:postcode": "63-940",
                "amenity": "pharmacy"
            },
            "geometry": {
                "type": "Point",
                "coordinates": [
                    16.749375313101282,
                    51.70741407043646
                ]
            }
        },
        {
            "type": "Feature",
            "properties": {
                "ref:csioz": 1054414,
                "name": "Pod Orłem",
                "addr:street": "Rynek",
                "addr:housenumber": "8",
                "addr:city": "Jutrosin",
                "addr:postcode": "63-930",
                "amenity": "pharmacy"
            },
            "geometry": {
                "type": "Point",
                "coordinates": [
                    17.169745027577804,
                    51.65409776276993
                ]
            }
        },
        {
            "type": "Feature",
            "properties": {
                "ref:csioz": 1054641,
                "name": "Pod Orłem Ii",
                "addr:street": "Adama Mickiewicza",
                "addr:housenumber": "8A",
                "addr:city": "Jutrosin",
                "addr:postcode": "63-930",
                "amenity": "pharmacy"
            },
            "geometry": {
                "type": "Point",
                "coordinates": [
                    17.168156517410964,
                    51.64938205643376
                ]
            }
        },
        {
            "type": "Feature",
            "properties": {
                "ref:csioz": 1054655,
                "name": "Rodzinna",
                "addr:street": "WROCŁAWSKA",
                "addr:housenumber": "6",
                "addr:city": "JUTROSIN",
                "addr:postcode": "63-930",
                "amenity": "pharmacy"
            },
            "geometry": {
                "type": "Point",
                "coordinates": [
                    17.16890172801151,
                    51.652748837928605
                ]
            }
        }
    ]
}