{
    "type": "FeatureCollection",
    "name": "JPT_KOD_JE_3201",
    "features": [
        {
            "type": "Feature",
            "properties": {
                "ref:csioz": 1147980,
                "name": "\"Apteka Cef@Rm 36,6\"",
                "addr:street": "Wolności",
                "addr:housenumber": "50",
                "addr:city": "Tychowo",
                "addr:postcode": "73-220",
                "amenity": "pharmacy"
            },
            "geometry": {
                "type": "Point",
                "coordinates": [
                    16.261240767335252,
                    53.93056922645167
                ]
            }
        },
        {
            "type": "Feature",
            "properties": {
                "ref:csioz": 1152585,
                "name": "Specyfik",
                "addr:street": "Mickiewicza",
                "addr:housenumber": "4",
                "addr:city": "Białogard",
                "addr:postcode": "78-200",
                "amenity": "pharmacy"
            },
            "geometry": {
                "type": "Point",
                "coordinates": [
                    15.98412271576845,
                    54.010683648948316
                ]
            }
        },
        {
            "type": "Feature",
            "properties": {
                "ref:csioz": 1180864,
                "name": "Apteka Na Olimpijskiej",
                "addr:street": "Olimpijska",
                "addr:housenumber": "1A",
                "addr:city": "Białogard",
                "addr:postcode": "78-200",
                "amenity": "pharmacy"
            },
            "geometry": {
                "type": "Point",
                "coordinates": [
                    15.955691240042013,
                    54.014127795873364
                ]
            }
        },
        {
            "type": "Feature",
            "properties": {
                "ref:csioz": 1126387,
                "name": "Vita",
                "addr:street": "Koszalińska",
                "addr:housenumber": "25",
                "addr:city": "Karlino",
                "addr:postcode": "78-230",
                "amenity": "pharmacy"
            },
            "geometry": {
                "type": "Point",
                "coordinates": [
                    15.878281999983479,
                    54.03461300001902
                ]
            }
        },
        {
            "type": "Feature",
            "properties": {
                "ref:csioz": 1138140,
                "name": "Pigułka",
                "addr:street": "Chopina",
                "addr:housenumber": "16",
                "addr:city": "Białogard",
                "addr:postcode": "78-200",
                "amenity": "pharmacy"
            },
            "geometry": {
                "type": "Point",
                "coordinates": [
                    16.004027165006406,
                    54.00775036551934
                ]
            }
        },
        {
            "type": "Feature",
            "properties": {
                "ref:csioz": 1139805,
                "name": "Miejska",
                "addr:street": "Plac Wolności",
                "addr:housenumber": "6",
                "addr:flats": "7",
                "addr:city": "Białogard",
                "addr:postcode": "78-200",
                "amenity": "pharmacy"
            },
            "geometry": {
                "type": "Point",
                "coordinates": [
                    15.989782999985927,
                    54.00453100001891
                ]
            }
        },
        {
            "type": "Feature",
            "properties": {
                "ref:csioz": 1175501,
                "addr:housenumber": "5",
                "addr:city": "Stanomino",
                "addr:postcode": "78-217",
                "amenity": "pharmacy"
            },
            "geometry": {
                "type": "Point",
                "coordinates": [
                    15.900082194936989,
                    53.9564841897871
                ]
            }
        },
        {
            "type": "Feature",
            "properties": {
                "ref:csioz": 1192060,
                "name": "Apteka Św. Wawrzyńca",
                "addr:street": "Dworcowa",
                "addr:housenumber": "6",
                "addr:flats": "2",
                "addr:city": "Białogard",
                "addr:postcode": "78-200",
                "amenity": "pharmacy"
            },
            "geometry": {
                "type": "Point",
                "coordinates": [
                    15.98174138144655,
                    54.00975847577202
                ]
            }
        },
        {
            "type": "Feature",
            "properties": {
                "ref:csioz": 1195573,
                "name": "Apteka Na Wojska Polskiego",
                "addr:street": "Wojska Polskiego",
                "addr:housenumber": "5",
                "addr:city": "Białogard",
                "addr:postcode": "78-200",
                "amenity": "pharmacy"
            },
            "geometry": {
                "type": "Point",
                "coordinates": [
                    15.986678000306323,
                    54.00590227876344
                ]
            }
        },
        {
            "type": "Feature",
            "properties": {
                "ref:csioz": 1224156,
                "name": "Apteka Na Ludowej",
                "addr:street": "Ludowa",
                "addr:housenumber": "4",
                "addr:city": "Białogard",
                "addr:postcode": "78-200",
                "amenity": "pharmacy"
            },
            "geometry": {
                "type": "Point",
                "coordinates": [
                    15.983820192954092,
                    54.00847999339205
                ]
            }
        },
        {
            "type": "Feature",
            "properties": {
                "ref:csioz": 1196629,
                "name": "\"Apteka \"\"Pod Lwem\"\"\"",
                "addr:street": "Pomorska",
                "addr:housenumber": "14",
                "addr:city": "Białogard",
                "addr:postcode": "78-200",
                "amenity": "pharmacy"
            },
            "geometry": {
                "type": "Point",
                "coordinates": [
                    15.988215358812232,
                    54.00918284443822
                ]
            }
        },
        {
            "type": "Feature",
            "properties": {
                "ref:csioz": 1230585,
                "addr:street": "Chopina",
                "addr:housenumber": "29D",
                "addr:city": "Białogard",
                "addr:postcode": "78-200",
                "amenity": "pharmacy"
            },
            "geometry": {
                "type": "Point",
                "coordinates": [
                    16.00912192002747,
                    54.007558350151626
                ]
            }
        }
    ]
}