{
    "type": "FeatureCollection",
    "name": "JPT_KOD_JE_0608",
    "crs": {
        "type": "name",
        "properties": {
            "name": "urn:ogc:def:crs:EPSG::4326"
        }
    },
    "features": [
        {
            "type": "Feature",
            "properties": {
                "ref:csioz": 1158899,
                "addr:street": "1 Maja",
                "addr:housenumber": "17",
                "addr:city": "Kock",
                "addr:postcode": "21-150",
                "amenity": "pharmacy"
            },
            "geometry": {
                "type": "Point",
                "coordinates": [
                    22.44631020841088,
                    51.64058727385372
                ]
            }
        },
        {
            "type": "Feature",
            "properties": {
                "ref:csioz": 1158971,
                "name": "Apteka Bożena Wilczyńska - Czekaj",
                "addr:housenumber": "66",
                "addr:city": "Niedźwiada Kol.",
                "addr:postcode": "24-104",
                "amenity": "pharmacy"
            },
            "geometry": {
                "type": "Point",
                "coordinates": [
                    22.690989640754868,
                    51.53799633049814
                ]
            }
        },
        {
            "type": "Feature",
            "properties": {
                "ref:csioz": 1162059,
                "name": "Apteka Medicor Sp. Z O.O.",
                "addr:street": "Rynek",
                "addr:housenumber": "30",
                "addr:city": "Jeziorzany",
                "addr:postcode": "21-146",
                "amenity": "pharmacy"
            },
            "geometry": {
                "type": "Point",
                "coordinates": [
                    22.278526155989628,
                    51.600903401120455
                ]
            }
        },
        {
            "type": "Feature",
            "properties": {
                "ref:csioz": 1162553,
                "addr:street": "1-go Maja",
                "addr:housenumber": "8",
                "addr:city": "Kock",
                "addr:postcode": "21-150",
                "amenity": "pharmacy"
            },
            "geometry": {
                "type": "Point",
                "coordinates": [
                    22.44689900003633,
                    51.63909200001535
                ]
            }
        },
        {
            "type": "Feature",
            "properties": {
                "ref:csioz": 1163195,
                "addr:street": "Spacerowa",
                "addr:housenumber": "41",
                "addr:city": "Rudno",
                "addr:postcode": "21-140",
                "amenity": "pharmacy"
            },
            "geometry": {
                "type": "Point",
                "coordinates": [
                    22.36565168603027,
                    51.52915079099991
                ]
            }
        },
        {
            "type": "Feature",
            "properties": {
                "ref:csioz": 1199919,
                "name": "Apteka Mgr Farm. Anna Golba",
                "addr:street": "Partyzancka",
                "addr:housenumber": "10",
                "addr:city": "Michów",
                "addr:postcode": "21-140",
                "amenity": "pharmacy"
            },
            "geometry": {
                "type": "Point",
                "coordinates": [
                    22.315425386661605,
                    51.52326582956959
                ]
            }
        },
        {
            "type": "Feature",
            "properties": {
                "ref:csioz": 1203609,
                "name": "Vital Centrum",
                "addr:street": "Berka Joselewicza",
                "addr:housenumber": "6",
                "addr:city": "Kock",
                "addr:postcode": "21-150",
                "amenity": "pharmacy"
            },
            "geometry": {
                "type": "Point",
                "coordinates": [
                    22.445731082633138,
                    51.6387813037978
                ]
            }
        },
        {
            "type": "Feature",
            "properties": {
                "ref:csioz": 1213004,
                "addr:street": "Rynek",
                "addr:housenumber": "9A",
                "addr:city": "Firlej",
                "addr:postcode": "21-136",
                "amenity": "pharmacy"
            },
            "geometry": {
                "type": "Point",
                "coordinates": [
                    22.50877253301292,
                    51.55872425020301
                ]
            }
        },
        {
            "type": "Feature",
            "properties": {
                "ref:csioz": 1213355,
                "name": "\"'Apteka Mazurek Spółka Jawna'\"",
                "addr:street": "Kocka",
                "addr:housenumber": "8",
                "addr:city": "Firlej",
                "addr:postcode": "21-136",
                "amenity": "pharmacy"
            },
            "geometry": {
                "type": "Point",
                "coordinates": [
                    22.508442583707957,
                    51.56072605069737
                ]
            }
        },
        {
            "type": "Feature",
            "properties": {
                "ref:csioz": 1191307,
                "name": "-",
                "addr:housenumber": "66",
                "addr:city": "Wola Skromowska",
                "amenity": "pharmacy"
            },
            "geometry": {
                "type": "Point",
                "coordinates": [
                    22.457286496828736,
                    51.61874926483886
                ]
            }
        },
        {
            "type": "Feature",
            "properties": {
                "ref:csioz": 1111058,
                "addr:housenumber": "29",
                "addr:city": "Stary Uścimów",
                "addr:postcode": "21-109",
                "amenity": "pharmacy"
            },
            "geometry": {
                "type": "Point",
                "coordinates": [
                    22.939711000072382,
                    51.47059900001585
                ]
            }
        },
        {
            "type": "Feature",
            "properties": {
                "ref:csioz": 1153549,
                "addr:street": "Lubelska",
                "addr:housenumber": "15",
                "addr:city": "Ostrów Lubelski",
                "addr:postcode": "21-110",
                "amenity": "pharmacy"
            },
            "geometry": {
                "type": "Point",
                "coordinates": [
                    22.853030283137603,
                    51.49488319190317
                ]
            }
        },
        {
            "type": "Feature",
            "properties": {
                "ref:csioz": 1187662,
                "addr:street": "Czerwonego Krzyża",
                "addr:housenumber": "10",
                "addr:city": "Ostrów Lubelski",
                "addr:postcode": "21-110",
                "amenity": "pharmacy"
            },
            "geometry": {
                "type": "Point",
                "coordinates": [
                    22.853885689531033,
                    51.49440085276591
                ]
            }
        },
        {
            "type": "Feature",
            "properties": {
                "ref:csioz": 1215834,
                "name": "Apteka Zielona",
                "addr:street": "Partyzantów",
                "addr:housenumber": "10",
                "addr:city": "Ostrów Lubelski",
                "addr:postcode": "21-110",
                "amenity": "pharmacy"
            },
            "geometry": {
                "type": "Point",
                "coordinates": [
                    22.854209340657594,
                    51.49495902990466
                ]
            }
        },
        {
            "type": "Feature",
            "properties": {
                "ref:csioz": 1057208,
                "name": "\"Niepubliczny Zakład Opieki Zdrowotnej \"\"Vera\"\"\"",
                "addr:housenumber": "134",
                "addr:city": "Rokitno",
                "addr:postcode": "42-445",
                "amenity": "pharmacy"
            },
            "geometry": {
                "type": "Point",
                "coordinates": [
                    22.679928205228975,
                    51.391225255256494
                ]
            }
        },
        {
            "type": "Feature",
            "properties": {
                "ref:csioz": 1153660,
                "addr:housenumber": "74a",
                "addr:city": "Nowodwór",
                "addr:postcode": "08-503",
                "amenity": "pharmacy"
            },
            "geometry": {
                "type": "Point",
                "coordinates": [
                    22.54056505955542,
                    51.442203381521445
                ]
            }
        },
        {
            "type": "Feature",
            "properties": {
                "ref:csioz": 1157818,
                "addr:housenumber": "2T",
                "addr:city": "Lisów",
                "addr:postcode": "21-100",
                "amenity": "pharmacy"
            },
            "geometry": {
                "type": "Point",
                "coordinates": [
                    22.60050124578576,
                    51.48125581198337
                ]
            }
        },
        {
            "type": "Feature",
            "properties": {
                "ref:csioz": 1158291,
                "name": "Apteka Lubartowska",
                "addr:street": "Jana Pawła II",
                "addr:housenumber": "9",
                "addr:city": "Lubartów",
                "addr:postcode": "21-100",
                "amenity": "pharmacy"
            },
            "geometry": {
                "type": "Point",
                "coordinates": [
                    22.609288188502962,
                    51.46253105865526
                ]
            }
        },
        {
            "type": "Feature",
            "properties": {
                "ref:csioz": 1158674,
                "name": "Apteka Vita",
                "addr:street": "Lipowa",
                "addr:housenumber": "3A",
                "addr:city": "Lubartów",
                "addr:postcode": "21-100",
                "amenity": "pharmacy"
            },
            "geometry": {
                "type": "Point",
                "coordinates": [
                    22.60391271115907,
                    51.46470702213919
                ]
            }
        },
        {
            "type": "Feature",
            "properties": {
                "ref:csioz": 1158711,
                "name": "Apteka Przyjazna",
                "addr:street": "Lubelska",
                "addr:housenumber": "52",
                "addr:city": "Lubartów",
                "addr:postcode": "21-100",
                "amenity": "pharmacy"
            },
            "geometry": {
                "type": "Point",
                "coordinates": [
                    22.609850791168224,
                    51.45434477249518
                ]
            }
        },
        {
            "type": "Feature",
            "properties": {
                "ref:csioz": 1159039,
                "name": "Apteka Na Mickiewicza",
                "addr:street": "Adama Mickiewicza",
                "addr:housenumber": "3-5",
                "addr:city": "Lubartów",
                "addr:postcode": "21-100",
                "amenity": "pharmacy"
            },
            "geometry": {
                "type": "Point",
                "coordinates": [
                    22.610698877059686,
                    51.458801917926685
                ]
            }
        },
        {
            "type": "Feature",
            "properties": {
                "ref:csioz": 1159071,
                "addr:street": "Lubelska",
                "addr:housenumber": "20",
                "addr:city": "Lubartów",
                "addr:postcode": "21-100",
                "amenity": "pharmacy"
            },
            "geometry": {
                "type": "Point",
                "coordinates": [
                    22.609324285438205,
                    51.459855756323485
                ]
            }
        },
        {
            "type": "Feature",
            "properties": {
                "ref:csioz": 1161495,
                "addr:street": "Rynek",
                "addr:housenumber": "7",
                "addr:city": "Kamionka",
                "addr:postcode": "21-132",
                "amenity": "pharmacy"
            },
            "geometry": {
                "type": "Point",
                "coordinates": [
                    22.464763210135132,
                    51.47104492701254
                ]
            }
        },
        {
            "type": "Feature",
            "properties": {
                "ref:csioz": 1161774,
                "addr:street": "Farna",
                "addr:housenumber": "3",
                "addr:city": "Lubartów",
                "addr:postcode": "21-100",
                "amenity": "pharmacy"
            },
            "geometry": {
                "type": "Point",
                "coordinates": [
                    22.60852320191907,
                    51.463587546976186
                ]
            }
        },
        {
            "type": "Feature",
            "properties": {
                "ref:csioz": 1163858,
                "addr:street": "Słowackiego",
                "addr:housenumber": "27",
                "addr:city": "Lubartów",
                "addr:postcode": "21-100",
                "amenity": "pharmacy"
            },
            "geometry": {
                "type": "Point",
                "coordinates": [
                    22.60656309806675,
                    51.4687002636049
                ]
            }
        },
        {
            "type": "Feature",
            "properties": {
                "ref:csioz": 1202281,
                "name": "Apteka Prima",
                "addr:street": "Cicha",
                "addr:housenumber": "14",
                "addr:city": "Lubartów",
                "addr:postcode": "21-100",
                "amenity": "pharmacy"
            },
            "geometry": {
                "type": "Point",
                "coordinates": [
                    22.6172376348464,
                    51.456688879659225
                ]
            }
        },
        {
            "type": "Feature",
            "properties": {
                "ref:csioz": 1157503,
                "addr:street": "Rynek",
                "addr:housenumber": "I",
                "addr:flats": "15A",
                "addr:city": "Lubartów",
                "addr:postcode": "21-100",
                "amenity": "pharmacy"
            },
            "geometry": {
                "type": "Point",
                "coordinates": [
                    22.609429361035037,
                    51.45548796213168
                ]
            }
        },
        {
            "type": "Feature",
            "properties": {
                "ref:csioz": 1157871,
                "addr:housenumber": "41a",
                "addr:city": "\"Starościn Kolonia,\"",
                "addr:postcode": "21-132",
                "amenity": "pharmacy"
            },
            "geometry": {
                "type": "Point",
                "coordinates": [
                    22.419406628858567,
                    51.41881845146152
                ]
            }
        },
        {
            "type": "Feature",
            "properties": {
                "ref:csioz": 1162343,
                "name": "Apteka Na Rynku",
                "addr:street": "Rynek",
                "addr:housenumber": "3",
                "addr:city": "Kamionka",
                "addr:postcode": "21-132",
                "amenity": "pharmacy"
            },
            "geometry": {
                "type": "Point",
                "coordinates": [
                    22.46450556968823,
                    51.470727419415674
                ]
            }
        },
        {
            "type": "Feature",
            "properties": {
                "ref:csioz": 1162646,
                "name": "Apteka Vitaminka Przy Rondzie",
                "addr:street": "Łąkowa",
                "addr:housenumber": "2",
                "addr:city": "Lubartów",
                "addr:postcode": "21-100",
                "amenity": "pharmacy"
            },
            "geometry": {
                "type": "Point",
                "coordinates": [
                    22.615428113324185,
                    51.456345224576424
                ]
            }
        },
        {
            "type": "Feature",
            "properties": {
                "ref:csioz": 1165792,
                "addr:street": "Lipowa",
                "addr:housenumber": "2B",
                "addr:city": "Lubartów",
                "addr:postcode": "21-100",
                "amenity": "pharmacy"
            },
            "geometry": {
                "type": "Point",
                "coordinates": [
                    22.60537430201234,
                    51.46561598177974
                ]
            }
        },
        {
            "type": "Feature",
            "properties": {
                "ref:csioz": 1188896,
                "name": "Apteka Zielona Sp. Z O.O.",
                "addr:housenumber": "243",
                "addr:city": "Wola Sernicka",
                "addr:postcode": "21-107",
                "amenity": "pharmacy"
            },
            "geometry": {
                "type": "Point",
                "coordinates": [
                    22.672068953929806,
                    51.452991194869675
                ]
            }
        },
        {
            "type": "Feature",
            "properties": {
                "ref:csioz": 1189787,
                "name": "Apteka Szpitalna",
                "addr:street": "Cicha",
                "addr:housenumber": "14",
                "addr:city": "Lubartów",
                "addr:postcode": "21-100",
                "amenity": "pharmacy"
            },
            "geometry": {
                "type": "Point",
                "coordinates": [
                    22.6172376348464,
                    51.456688879659225
                ]
            }
        },
        {
            "type": "Feature",
            "properties": {
                "ref:csioz": 1199095,
                "name": "Apteka Vita W Galerii Topaz",
                "addr:street": "Lubelska",
                "addr:housenumber": "95B",
                "addr:flats": "L2",
                "addr:city": "Lubartów",
                "addr:postcode": "21-100",
                "amenity": "pharmacy"
            },
            "geometry": {
                "type": "Point",
                "coordinates": [
                    22.611971417107743,
                    51.45152004006856
                ]
            }
        },
        {
            "type": "Feature",
            "properties": {
                "ref:csioz": 1203469,
                "name": "Gemini",
                "addr:street": "Lubelska",
                "addr:housenumber": "5",
                "addr:city": "Lubartów",
                "addr:postcode": "21-100",
                "amenity": "pharmacy"
            },
            "geometry": {
                "type": "Point",
                "coordinates": [
                    22.609181000046725,
                    51.461780000015274
                ]
            }
        },
        {
            "type": "Feature",
            "properties": {
                "ref:csioz": 1206905,
                "name": "Apteka Vita",
                "addr:street": "Kolejowa",
                "addr:housenumber": "5",
                "addr:city": "Lubartów",
                "addr:postcode": "21-100",
                "amenity": "pharmacy"
            },
            "geometry": {
                "type": "Point",
                "coordinates": [
                    22.610599805027185,
                    51.44602539478898
                ]
            }
        },
        {
            "type": "Feature",
            "properties": {
                "ref:csioz": 1230760,
                "name": "Apteka Ncl",
                "addr:street": "Lubelska",
                "addr:housenumber": "135",
                "addr:city": "Lubartów",
                "addr:postcode": "21-100",
                "amenity": "pharmacy"
            },
            "geometry": {
                "type": "Point",
                "coordinates": [
                    22.61353801195358,
                    51.446094073706455
                ]
            }
        },
        {
            "type": "Feature",
            "properties": {
                "ref:csioz": 1217407,
                "name": "Ziko Apteka",
                "addr:street": "Lubelska",
                "addr:housenumber": "102",
                "addr:city": "Lubartów",
                "addr:postcode": "21-100",
                "amenity": "pharmacy"
            },
            "geometry": {
                "type": "Point",
                "coordinates": [
                    22.612211706721485,
                    51.44557716111509
                ]
            }
        },
        {
            "type": "Feature",
            "properties": {
                "ref:csioz": 1228399,
                "name": "Apteka Vita",
                "addr:street": "Lubelska",
                "addr:housenumber": "29",
                "addr:city": "Lubartów",
                "addr:postcode": "21-100",
                "amenity": "pharmacy"
            },
            "geometry": {
                "type": "Point",
                "coordinates": [
                    22.609642460935703,
                    51.45969315512175
                ]
            }
        },
        {
            "type": "Feature",
            "properties": {
                "ref:csioz": 1106810,
                "addr:street": "Partyzancka",
                "addr:housenumber": "4",
                "addr:city": "Abramów",
                "addr:postcode": "21-143",
                "amenity": "pharmacy"
            },
            "geometry": {
                "type": "Point",
                "coordinates": [
                    22.299089531499185,
                    51.462060926437815
                ]
            }
        },
        {
            "type": "Feature",
            "properties": {
                "ref:csioz": 1162021,
                "addr:street": "22-go Lipca",
                "addr:housenumber": "2",
                "addr:flats": "4",
                "addr:city": "Abramów",
                "addr:postcode": "21-143",
                "amenity": "pharmacy"
            },
            "geometry": {
                "type": "Point",
                "coordinates": [
                    22.299626000029942,
                    51.46267300001496
                ]
            }
        }
    ]
}