{
    "type": "FeatureCollection",
    "name": "JPT_KOD_JE_3009",
    "crs": {
        "type": "name",
        "properties": {
            "name": "urn:ogc:def:crs:EPSG::4326"
        }
    },
    "features": [
        {
            "type": "Feature",
            "properties": {
                "ref:csioz": 1049787,
                "addr:housenumber": "21",
                "addr:city": "CHEŁMNO NAD NEREM",
                "addr:postcode": "62-660",
                "amenity": "pharmacy"
            },
            "geometry": {
                "type": "Point",
                "coordinates": [
                    18.753874999999912,
                    52.112233000015635
                ]
            }
        },
        {
            "type": "Feature",
            "properties": {
                "ref:csioz": 1048218,
                "name": "Pharmavita",
                "addr:street": "ARMII KRAJOWEJ",
                "addr:housenumber": "2A",
                "addr:city": "KŁODAWA",
                "addr:postcode": "62-650",
                "amenity": "pharmacy"
            },
            "geometry": {
                "type": "Point",
                "coordinates": [
                    18.911783992442263,
                    52.24950042610995
                ]
            }
        },
        {
            "type": "Feature",
            "properties": {
                "ref:csioz": 1048377,
                "name": "Vademecum",
                "addr:street": "Turecka",
                "addr:housenumber": "6A",
                "addr:city": "Kościelec",
                "addr:postcode": "62-604",
                "amenity": "pharmacy"
            },
            "geometry": {
                "type": "Point",
                "coordinates": [
                    18.570476477815543,
                    52.17303478466823
                ]
            }
        },
        {
            "type": "Feature",
            "properties": {
                "ref:csioz": 1048389,
                "name": "Pod Łabędziem",
                "addr:street": "ZAMKOWA",
                "addr:housenumber": "4",
                "addr:city": "PRZEDECZ",
                "addr:postcode": "62-635",
                "amenity": "pharmacy"
            },
            "geometry": {
                "type": "Point",
                "coordinates": [
                    18.898705301366743,
                    52.33352620222923
                ]
            }
        },
        {
            "type": "Feature",
            "properties": {
                "ref:csioz": 1048825,
                "name": "Elfarm 5",
                "addr:street": "WOLNOŚCI",
                "addr:housenumber": "12",
                "addr:city": "KŁODAWA",
                "addr:postcode": "62-650",
                "amenity": "pharmacy"
            },
            "geometry": {
                "type": "Point",
                "coordinates": [
                    18.915646418144426,
                    52.25550950417527
                ]
            }
        },
        {
            "type": "Feature",
            "properties": {
                "ref:csioz": 1048830,
                "name": "Elfarm 5",
                "addr:street": "DĄBSKA",
                "addr:housenumber": "23",
                "addr:city": "KŁODAWA",
                "addr:postcode": "62-650",
                "amenity": "pharmacy"
            },
            "geometry": {
                "type": "Point",
                "coordinates": [
                    18.911834648687364,
                    52.249806635581024
                ]
            }
        },
        {
            "type": "Feature",
            "properties": {
                "ref:csioz": 1048922,
                "addr:housenumber": "41",
                "addr:city": "ADAMIN",
                "addr:postcode": "62-661",
                "amenity": "pharmacy"
            },
            "geometry": {
                "type": "Point",
                "coordinates": [
                    18.831892909986937,
                    52.16386637703381
                ]
            }
        },
        {
            "type": "Feature",
            "properties": {
                "ref:csioz": 1049119,
                "name": "Pod Zegarem",
                "addr:street": "ZEGAROWA",
                "addr:housenumber": "4",
                "addr:city": "KOŁO",
                "addr:postcode": "62-600",
                "amenity": "pharmacy"
            },
            "geometry": {
                "type": "Point",
                "coordinates": [
                    18.635058400451648,
                    52.20015983776776
                ]
            }
        },
        {
            "type": "Feature",
            "properties": {
                "ref:csioz": 1049170,
                "name": "Topfarm",
                "addr:street": "NIEZŁOMNYCH",
                "addr:housenumber": "5A",
                "addr:city": "KOŁO",
                "addr:postcode": "62-600",
                "amenity": "pharmacy"
            },
            "geometry": {
                "type": "Point",
                "coordinates": [
                    18.638050374968447,
                    52.20190720394931
                ]
            }
        },
        {
            "type": "Feature",
            "properties": {
                "ref:csioz": 1049428,
                "name": "Kwiaty Polskie",
                "addr:street": "WŁOCŁAWSKA",
                "addr:housenumber": "12",
                "addr:city": "KOŁO",
                "addr:postcode": "62-600",
                "amenity": "pharmacy"
            },
            "geometry": {
                "type": "Point",
                "coordinates": [
                    18.640211581347746,
                    52.20339302502714
                ]
            }
        },
        {
            "type": "Feature",
            "properties": {
                "ref:csioz": 1049625,
                "name": "Doz Apteka. Dbam O Zdrowie. Pod Złotym Tygielkiem",
                "addr:street": "KOLSKA",
                "addr:housenumber": "6",
                "addr:city": "GRZEGORZEW",
                "addr:postcode": "62-640",
                "amenity": "pharmacy"
            },
            "geometry": {
                "type": "Point",
                "coordinates": [
                    18.73146110837057,
                    52.20163826068794
                ]
            }
        },
        {
            "type": "Feature",
            "properties": {
                "ref:csioz": 1049674,
                "name": "Twoje Leki",
                "addr:housenumber": "45",
                "addr:city": "WRZĄCA WIELKA",
                "addr:postcode": "62-600",
                "amenity": "pharmacy"
            },
            "geometry": {
                "type": "Point",
                "coordinates": [
                    18.68175573708806,
                    52.26251136657739
                ]
            }
        },
        {
            "type": "Feature",
            "properties": {
                "ref:csioz": 1120481,
                "name": "Vitafarm",
                "addr:street": "WARSZAWSKA",
                "addr:housenumber": "16",
                "addr:city": "BABIAK",
                "addr:postcode": "62-620",
                "amenity": "pharmacy"
            },
            "geometry": {
                "type": "Point",
                "coordinates": [
                    18.666999999999884,
                    52.344320000016005
                ]
            }
        },
        {
            "type": "Feature",
            "properties": {
                "ref:csioz": 1183774,
                "name": "Słoneczko",
                "addr:street": "Stary Rynek",
                "addr:housenumber": "13",
                "addr:city": "Koło",
                "addr:postcode": "62-600",
                "amenity": "pharmacy"
            },
            "geometry": {
                "type": "Point",
                "coordinates": [
                    18.631817533678507,
                    52.19354452564301
                ]
            }
        },
        {
            "type": "Feature",
            "properties": {
                "ref:csioz": 1049798,
                "name": "Eskulap",
                "addr:street": "BRATERSTWA BRONI",
                "addr:housenumber": "23",
                "addr:city": "BRDÓW",
                "addr:postcode": "62-620",
                "amenity": "pharmacy"
            },
            "geometry": {
                "type": "Point",
                "coordinates": [
                    18.731590903620816,
                    52.35351984107558
                ]
            }
        },
        {
            "type": "Feature",
            "properties": {
                "ref:csioz": 1199552,
                "name": "Optima",
                "addr:street": "Wolności",
                "addr:housenumber": "4",
                "addr:city": "Przedecz",
                "addr:postcode": "62-635",
                "amenity": "pharmacy"
            },
            "geometry": {
                "type": "Point",
                "coordinates": [
                    18.898381343997432,
                    52.33446844581643
                ]
            }
        },
        {
            "type": "Feature",
            "properties": {
                "ref:csioz": 1213735,
                "name": "Stylowa 3",
                "addr:street": "PCK",
                "addr:housenumber": "2A",
                "addr:city": "Koło",
                "addr:postcode": "62-600",
                "amenity": "pharmacy"
            },
            "geometry": {
                "type": "Point",
                "coordinates": [
                    18.6301705587117,
                    52.20264499512884
                ]
            }
        },
        {
            "type": "Feature",
            "properties": {
                "ref:csioz": 1120195,
                "addr:housenumber": "88",
                "addr:city": "DĘBY SZLACHECKIE",
                "addr:postcode": "62-613",
                "amenity": "pharmacy"
            },
            "geometry": {
                "type": "Point",
                "coordinates": [
                    18.60500939723112,
                    52.29487927938032
                ]
            }
        },
        {
            "type": "Feature",
            "properties": {
                "ref:csioz": 1048138,
                "name": "Pod Jemiołą",
                "addr:street": "WOLNOŚCI",
                "addr:housenumber": "13",
                "addr:city": "BABIAK",
                "addr:postcode": "62-620",
                "amenity": "pharmacy"
            },
            "geometry": {
                "type": "Point",
                "coordinates": [
                    18.66598009491063,
                    52.34418363063297
                ]
            }
        },
        {
            "type": "Feature",
            "properties": {
                "ref:csioz": 1048151,
                "name": "Nova",
                "addr:street": "MICKIEWICZA",
                "addr:housenumber": "6",
                "addr:city": "DĄBIE",
                "addr:postcode": "62-660",
                "amenity": "pharmacy"
            },
            "geometry": {
                "type": "Point",
                "coordinates": [
                    18.821866961329164,
                    52.08720981554175
                ]
            }
        },
        {
            "type": "Feature",
            "properties": {
                "ref:csioz": 1048933,
                "name": "Millenium",
                "addr:street": "KAPICY",
                "addr:housenumber": "2",
                "addr:city": "KŁODAWA",
                "addr:postcode": "62-650",
                "amenity": "pharmacy"
            },
            "geometry": {
                "type": "Point",
                "coordinates": [
                    18.91533432330883,
                    52.247598474787424
                ]
            }
        },
        {
            "type": "Feature",
            "properties": {
                "ref:csioz": 1049275,
                "name": "Prima",
                "addr:street": "BLIZNA",
                "addr:housenumber": "26",
                "addr:city": "KOŁO",
                "addr:postcode": "62-600",
                "amenity": "pharmacy"
            },
            "geometry": {
                "type": "Point",
                "coordinates": [
                    18.63610456530735,
                    52.205569642595755
                ]
            }
        },
        {
            "type": "Feature",
            "properties": {
                "ref:csioz": 1049509,
                "name": "Prima",
                "addr:street": "NIEZŁOMNYCH",
                "addr:housenumber": "10",
                "addr:city": "KOŁO",
                "addr:postcode": "62-600",
                "amenity": "pharmacy"
            },
            "geometry": {
                "type": "Point",
                "coordinates": [
                    18.639780063890285,
                    52.202003763151815
                ]
            }
        },
        {
            "type": "Feature",
            "properties": {
                "ref:csioz": 1049538,
                "name": "Apteka Dbam O Zdrowie",
                "addr:street": "KOLEJOWA",
                "addr:housenumber": "3",
                "addr:city": "KOŁO",
                "addr:postcode": "62-600",
                "amenity": "pharmacy"
            },
            "geometry": {
                "type": "Point",
                "coordinates": [
                    18.6256421646941,
                    52.20428782331803
                ]
            }
        },
        {
            "type": "Feature",
            "properties": {
                "ref:csioz": 1049551,
                "name": "Stylowa",
                "addr:street": "NIEZŁOMNYCH",
                "addr:housenumber": "5C",
                "addr:city": "KOŁO",
                "addr:postcode": "62-600",
                "amenity": "pharmacy"
            },
            "geometry": {
                "type": "Point",
                "coordinates": [
                    18.63843559273232,
                    52.2019953329403
                ]
            }
        },
        {
            "type": "Feature",
            "properties": {
                "ref:csioz": 1049820,
                "addr:street": "PONIATOWSKIEGO",
                "addr:housenumber": "25",
                "addr:city": "KOŁO",
                "addr:postcode": "62-600",
                "amenity": "pharmacy"
            },
            "geometry": {
                "type": "Point",
                "coordinates": [
                    18.618792258312066,
                    52.18503283783661
                ]
            }
        },
        {
            "type": "Feature",
            "properties": {
                "ref:csioz": 1120172,
                "name": "Kolska",
                "addr:street": "3 Maja",
                "addr:housenumber": "38",
                "addr:city": "Koło",
                "addr:postcode": "62-600",
                "amenity": "pharmacy"
            },
            "geometry": {
                "type": "Point",
                "coordinates": [
                    18.643684954961795,
                    52.19677596725316
                ]
            }
        },
        {
            "type": "Feature",
            "properties": {
                "ref:csioz": 1183796,
                "name": "Rodzinna",
                "addr:street": "Plac Wolności",
                "addr:housenumber": "10",
                "addr:city": "Babiak",
                "addr:postcode": "62-600",
                "amenity": "pharmacy"
            },
            "geometry": {
                "type": "Point",
                "coordinates": [
                    18.669593964273957,
                    52.3470189371309
                ]
            }
        },
        {
            "type": "Feature",
            "properties": {
                "ref:csioz": 1187761,
                "name": "Eskulap",
                "addr:street": "PCK",
                "addr:housenumber": "6",
                "addr:city": "Koło",
                "addr:postcode": "62-600",
                "amenity": "pharmacy"
            },
            "geometry": {
                "type": "Point",
                "coordinates": [
                    18.631660340653728,
                    52.202721812979036
                ]
            }
        },
        {
            "type": "Feature",
            "properties": {
                "ref:csioz": 1193306,
                "name": "Stylowa 2",
                "addr:street": "Toruńska",
                "addr:housenumber": "14",
                "addr:city": "Koło",
                "addr:postcode": "62-600",
                "amenity": "pharmacy"
            },
            "geometry": {
                "type": "Point",
                "coordinates": [
                    18.635682370440147,
                    52.19982644518704
                ]
            }
        },
        {
            "type": "Feature",
            "properties": {
                "ref:csioz": 1204487,
                "name": "Dr Max",
                "addr:street": "PCK",
                "addr:housenumber": "4",
                "addr:city": "Koło",
                "addr:postcode": "62-600",
                "amenity": "pharmacy"
            },
            "geometry": {
                "type": "Point",
                "coordinates": [
                    18.63086616389135,
                    52.20322506952922
                ]
            }
        },
        {
            "type": "Feature",
            "properties": {
                "ref:csioz": 1223461,
                "name": "Twoje Leki",
                "addr:street": "Toruńska",
                "addr:housenumber": "5B",
                "addr:city": "Grzegorzew",
                "addr:postcode": "62-640",
                "amenity": "pharmacy"
            },
            "geometry": {
                "type": "Point",
                "coordinates": [
                    18.73449360455809,
                    52.20163333920402
                ]
            }
        }
    ]
}