{
    "type": "FeatureCollection",
    "name": "JPT_KOD_JE_0261",
    "features": [
        {
            "type": "Feature",
            "properties": {
                "ref:csioz": 1130873,
                "name": "\"\"\"Pod Koroną\"\"\"",
                "addr:street": "Wolności",
                "addr:housenumber": "246",
                "addr:city": "Jelenia Góra",
                "addr:postcode": "58-560",
                "amenity": "pharmacy"
            },
            "geometry": {
                "type": "Point",
                "coordinates": [
                    15.688139390052633,
                    50.8634511187148
                ]
            }
        },
        {
            "type": "Feature",
            "properties": {
                "ref:csioz": 1131443,
                "name": "Apteka Zabobrze-Przychodnia",
                "addr:street": "Michała Kleofasa Ogińskiego",
                "addr:housenumber": "1B",
                "addr:city": "Jelenia Góra",
                "addr:postcode": "58-506",
                "amenity": "pharmacy"
            },
            "geometry": {
                "type": "Point",
                "coordinates": [
                    15.748303601317179,
                    50.90871007677494
                ]
            }
        },
        {
            "type": "Feature",
            "properties": {
                "ref:csioz": 1131668,
                "name": "Apteka Zabobrze - Pastylka",
                "addr:street": "Komedy Trzcińskiego",
                "addr:housenumber": "12",
                "addr:city": "Jelenia Góra",
                "addr:postcode": "58-506",
                "amenity": "pharmacy"
            },
            "geometry": {
                "type": "Point",
                "coordinates": [
                    15.75642099997063,
                    50.91313100001408
                ]
            }
        },
        {
            "type": "Feature",
            "properties": {
                "ref:csioz": 1131825,
                "name": "Apteka Zdrowit",
                "addr:street": "Elsnera",
                "addr:housenumber": "1A",
                "addr:city": "Jelenia Góra",
                "addr:postcode": "58-500",
                "amenity": "pharmacy"
            },
            "geometry": {
                "type": "Point",
                "coordinates": [
                    15.759385547664499,
                    50.915245195133174
                ]
            }
        },
        {
            "type": "Feature",
            "properties": {
                "ref:csioz": 1131979,
                "name": "Centrum",
                "addr:street": "Letnia",
                "addr:housenumber": "2",
                "addr:city": "Jelenia Góra",
                "addr:postcode": "58-506",
                "amenity": "pharmacy"
            },
            "geometry": {
                "type": "Point",
                "coordinates": [
                    15.75399504789355,
                    50.90961838755218
                ]
            }
        },
        {
            "type": "Feature",
            "properties": {
                "ref:csioz": 1132009,
                "name": "Dr. Max",
                "addr:street": "Jana Pawła II",
                "addr:housenumber": "17",
                "addr:city": "Jelenia Góra",
                "addr:postcode": "58-506",
                "amenity": "pharmacy"
            },
            "geometry": {
                "type": "Point",
                "coordinates": [
                    15.737972924408153,
                    50.91034786682535
                ]
            }
        },
        {
            "type": "Feature",
            "properties": {
                "ref:csioz": 1132166,
                "name": "Apteka Zabobrze - Majowa",
                "addr:street": "1 Maja",
                "addr:housenumber": "6",
                "addr:flats": "1",
                "addr:city": "Jelenia Góra",
                "addr:postcode": "58-500",
                "amenity": "pharmacy"
            },
            "geometry": {
                "type": "Point",
                "coordinates": [
                    15.738300338757139,
                    50.90298732656989
                ]
            }
        },
        {
            "type": "Feature",
            "properties": {
                "ref:csioz": 1132177,
                "name": "Apteka Arnika",
                "addr:street": "Cieplicka",
                "addr:housenumber": "192B",
                "addr:city": "Jelenia Góra",
                "addr:postcode": "58-570",
                "amenity": "pharmacy"
            },
            "geometry": {
                "type": "Point",
                "coordinates": [
                    15.643268999964867,
                    50.84676000001408
                ]
            }
        },
        {
            "type": "Feature",
            "properties": {
                "ref:csioz": 1132189,
                "name": "Stokrotka",
                "addr:street": "Tadeusza Sygietyńskiego",
                "addr:housenumber": "3",
                "addr:city": "Jelenia Góra",
                "addr:postcode": "58-506",
                "amenity": "pharmacy"
            },
            "geometry": {
                "type": "Point",
                "coordinates": [
                    15.753999840024237,
                    50.91932257954002
                ]
            }
        },
        {
            "type": "Feature",
            "properties": {
                "ref:csioz": 1136103,
                "name": "Promednova",
                "addr:street": "Różyckiego",
                "addr:housenumber": "6",
                "addr:city": "Jelenia Góra",
                "addr:postcode": "58-506",
                "amenity": "pharmacy"
            },
            "geometry": {
                "type": "Point",
                "coordinates": [
                    15.748847305716346,
                    50.91140776383997
                ]
            }
        },
        {
            "type": "Feature",
            "properties": {
                "ref:csioz": 1136307,
                "name": "Cieplickie Centrum Leczenia Nerwic",
                "addr:street": "Cieplicka",
                "addr:housenumber": "69-71",
                "addr:city": "Jelenia Góra",
                "addr:postcode": "58-560",
                "amenity": "pharmacy"
            },
            "geometry": {
                "type": "Point",
                "coordinates": [
                    15.66584589461527,
                    50.8640719089344
                ]
            }
        },
        {
            "type": "Feature",
            "properties": {
                "ref:csioz": 1205845,
                "name": "Super Pharm Apteka",
                "addr:street": "Jana Pawła II",
                "addr:housenumber": "51",
                "addr:city": "Jelenia Góra",
                "addr:postcode": "58-506",
                "amenity": "pharmacy"
            },
            "geometry": {
                "type": "Point",
                "coordinates": [
                    15.774663363269344,
                    50.901425426655805
                ]
            }
        },
        {
            "type": "Feature",
            "properties": {
                "ref:csioz": 1216739,
                "name": "Witaminka",
                "addr:street": "ul. Gustawa Morcinka",
                "addr:housenumber": "33",
                "addr:city": "Jelenia Góra",
                "addr:postcode": "58-500",
                "amenity": "pharmacy"
            },
            "geometry": {
                "type": "Point",
                "coordinates": [
                    15.733486425884074,
                    50.888854701828464
                ]
            }
        },
        {
            "type": "Feature",
            "properties": {
                "ref:csioz": 1219437,
                "name": "Twoja",
                "addr:street": "Michała Kleofasa Ogińskiego",
                "addr:housenumber": "13",
                "addr:city": "Jelenia Góra",
                "addr:postcode": "58-506",
                "amenity": "pharmacy"
            },
            "geometry": {
                "type": "Point",
                "coordinates": [
                    15.7542004533499,
                    50.91000164889696
                ]
            }
        },
        {
            "type": "Feature",
            "properties": {
                "ref:csioz": 1130836,
                "name": "-",
                "addr:street": "Gustawa Morcinka",
                "addr:housenumber": "1",
                "addr:city": "Jelenia Góra",
                "addr:postcode": "58-500",
                "amenity": "pharmacy"
            },
            "geometry": {
                "type": "Point",
                "coordinates": [
                    15.727273323369241,
                    50.89415222317168
                ]
            }
        },
        {
            "type": "Feature",
            "properties": {
                "ref:csioz": 1130918,
                "name": "-",
                "addr:street": "Jana Kiepury",
                "addr:housenumber": "26",
                "addr:city": "Jelenia Góra",
                "addr:postcode": "58-506",
                "amenity": "pharmacy"
            },
            "geometry": {
                "type": "Point",
                "coordinates": [
                    15.75024246897697,
                    50.92151505102662
                ]
            }
        },
        {
            "type": "Feature",
            "properties": {
                "ref:csioz": 1131331,
                "name": "Doz Apteka. Dbam O Zdrowie Bankowa",
                "addr:street": "Solna",
                "addr:housenumber": "1",
                "addr:city": "Jelenia Góra",
                "addr:postcode": "58-500",
                "amenity": "pharmacy"
            },
            "geometry": {
                "type": "Point",
                "coordinates": [
                    15.736204218175477,
                    50.90258567976379
                ]
            }
        },
        {
            "type": "Feature",
            "properties": {
                "ref:csioz": 1131906,
                "name": "Na Orlim",
                "addr:street": "Wita Stwosza",
                "addr:housenumber": "17",
                "addr:city": "Jelenia Góra",
                "addr:postcode": "58-560",
                "amenity": "pharmacy"
            },
            "geometry": {
                "type": "Point",
                "coordinates": [
                    15.659205437927671,
                    50.86322732110652
                ]
            }
        },
        {
            "type": "Feature",
            "properties": {
                "ref:csioz": 1131922,
                "name": "Vita",
                "addr:street": "Wojska Polskiego",
                "addr:housenumber": "75",
                "addr:city": "Jelenia Góra",
                "addr:postcode": "58-500",
                "amenity": "pharmacy"
            },
            "geometry": {
                "type": "Point",
                "coordinates": [
                    15.7361722742644,
                    50.89788245459034
                ]
            }
        },
        {
            "type": "Feature",
            "properties": {
                "ref:csioz": 1132128,
                "name": "Apteki Arnika",
                "addr:street": "Piastowski",
                "addr:housenumber": "40",
                "addr:city": "Jelenia Góra",
                "addr:postcode": "58-560",
                "amenity": "pharmacy"
            },
            "geometry": {
                "type": "Point",
                "coordinates": [
                    15.679736930300178,
                    50.865191272660034
                ]
            }
        },
        {
            "type": "Feature",
            "properties": {
                "ref:csioz": 1132144,
                "name": "Apteka Kcm",
                "addr:street": "Bankowa",
                "addr:housenumber": "7",
                "addr:city": "Jelenia Góra",
                "addr:postcode": "58-500",
                "amenity": "pharmacy"
            },
            "geometry": {
                "type": "Point",
                "coordinates": [
                    15.737061999969711,
                    50.901933000014076
                ]
            }
        },
        {
            "type": "Feature",
            "properties": {
                "ref:csioz": 1131707,
                "name": "Dr. Max",
                "addr:street": "Jana Pawła II",
                "addr:housenumber": "24",
                "addr:city": "Jelenia Góra",
                "addr:postcode": "58-500",
                "amenity": "pharmacy"
            },
            "geometry": {
                "type": "Point",
                "coordinates": [
                    15.755426100345494,
                    50.91680545394795
                ]
            }
        },
        {
            "type": "Feature",
            "properties": {
                "ref:csioz": 1161199,
                "name": "Szpitale Wojewódzkiego Centrum Szpitalnego Kotliny Jeleniogórskiej",
                "addr:street": "Ogińskiego",
                "addr:housenumber": "6",
                "addr:city": "Jelenia Góra",
                "addr:postcode": "58-506",
                "amenity": "pharmacy"
            },
            "geometry": {
                "type": "Point",
                "coordinates": [
                    15.763545953911635,
                    50.91346782052132
                ]
            }
        },
        {
            "type": "Feature",
            "properties": {
                "ref:csioz": 1170747,
                "name": "Karkonoskie Centrum Medyczne - Szpital",
                "addr:street": "Bankowa",
                "addr:housenumber": "5-7",
                "addr:city": "Jelenia Góra",
                "addr:postcode": "58-500",
                "amenity": "pharmacy"
            },
            "geometry": {
                "type": "Point",
                "coordinates": [
                    15.737240999969716,
                    50.90201500001408
                ]
            }
        },
        {
            "type": "Feature",
            "properties": {
                "ref:csioz": 1189649,
                "name": "Przy Termach",
                "addr:street": "Gustawa Daniłowskiego",
                "addr:housenumber": "2a",
                "addr:city": "Jelenia Góra",
                "addr:postcode": "58-560",
                "amenity": "pharmacy"
            },
            "geometry": {
                "type": "Point",
                "coordinates": [
                    15.683923711119816,
                    50.858963846593994
                ]
            }
        },
        {
            "type": "Feature",
            "properties": {
                "ref:csioz": 1196730,
                "name": "Cosmedica",
                "addr:street": "Podwale",
                "addr:housenumber": "25",
                "addr:flats": "0069a",
                "addr:city": "Jelenia Góra",
                "addr:postcode": "58-500",
                "amenity": "pharmacy"
            },
            "geometry": {
                "type": "Point",
                "coordinates": [
                    15.733428414687967,
                    50.905300067404205
                ]
            }
        },
        {
            "type": "Feature",
            "properties": {
                "ref:csioz": 1200611,
                "name": "Dział Farmacji Szpitalnej W Zakładzie Opiekuńczo-Leczniczym O Profilu Rehabilitacyjnym Caritas Diecezji Legnickiej",
                "addr:street": "Stefana Żeromskiego",
                "addr:housenumber": "2",
                "addr:city": "Jelenia Góra",
                "addr:postcode": "58-500",
                "amenity": "pharmacy"
            },
            "geometry": {
                "type": "Point",
                "coordinates": [
                    15.724535068839863,
                    50.89162248488856
                ]
            }
        },
        {
            "type": "Feature",
            "properties": {
                "ref:csioz": 1215610,
                "name": "Apteka Społeczna Na 1 Maja Grupa Nowa Farmacja",
                "addr:street": "ul. 1 Maja",
                "addr:housenumber": "2",
                "addr:city": "Jelenia Góra",
                "addr:postcode": "58-500",
                "amenity": "pharmacy"
            },
            "geometry": {
                "type": "Point",
                "coordinates": [
                    15.738095099683829,
                    50.90292803299013
                ]
            }
        },
        {
            "type": "Feature",
            "properties": {
                "ref:csioz": 1221280,
                "name": "Apteka W Cieplicach",
                "addr:street": "Sprzymierzonych",
                "addr:housenumber": "4",
                "addr:city": "Jelenia Góra",
                "addr:postcode": "58-560",
                "amenity": "pharmacy"
            },
            "geometry": {
                "type": "Point",
                "coordinates": [
                    15.675655766854007,
                    50.86631030226574
                ]
            }
        },
        {
            "type": "Feature",
            "properties": {
                "ref:csioz": 1224227,
                "name": "\"Apteka \"\"Kowarska\"\"\"",
                "addr:street": "Jana Kochanowskiego",
                "addr:housenumber": "5a",
                "addr:flats": "lokal 3",
                "addr:city": "Jelenia Góra",
                "addr:postcode": "58-500",
                "amenity": "pharmacy"
            },
            "geometry": {
                "type": "Point",
                "coordinates": [
                    15.750769193806997,
                    50.90163133358624
                ]
            }
        },
        {
            "type": "Feature",
            "properties": {
                "ref:csioz": 1226902,
                "name": "Apteka Gemini",
                "addr:street": "Marii Konopnickiej",
                "addr:housenumber": "2",
                "addr:city": "Jelenia Góra",
                "addr:postcode": "58-500",
                "amenity": "pharmacy"
            },
            "geometry": {
                "type": "Point",
                "coordinates": [
                    15.735879447876913,
                    50.902834860035824
                ]
            }
        },
        {
            "type": "Feature",
            "properties": {
                "ref:csioz": 1130899,
                "name": "\"\"\"Apteka Cef@Rm 36,6 Sudecka\"\"\"",
                "addr:street": "Grażyny Bacewicz",
                "addr:housenumber": "22",
                "addr:city": "Jelenia Góra",
                "addr:postcode": "58-506",
                "amenity": "pharmacy"
            },
            "geometry": {
                "type": "Point",
                "coordinates": [
                    15.760168382864428,
                    50.91588072068007
                ]
            }
        },
        {
            "type": "Feature",
            "properties": {
                "ref:csioz": 1130926,
                "name": "\"\"\"Apteka Zabobrze Szpital\"\"\"",
                "addr:street": "Michała Kleofasa Ogińskiego",
                "addr:housenumber": "6",
                "addr:city": "Jelenia Góra",
                "addr:postcode": "58-506",
                "amenity": "pharmacy"
            },
            "geometry": {
                "type": "Point",
                "coordinates": [
                    15.763545953911635,
                    50.91346782052132
                ]
            }
        },
        {
            "type": "Feature",
            "properties": {
                "ref:csioz": 1130812,
                "name": "\"\"\"Apteka Zabobrze - Różyckiego\"\"\"",
                "addr:street": "Ludomira Różyckiego",
                "addr:housenumber": "4",
                "addr:city": "Jelenia Góra",
                "addr:postcode": "58-506",
                "amenity": "pharmacy"
            },
            "geometry": {
                "type": "Point",
                "coordinates": [
                    15.749103256030285,
                    50.9105337626283
                ]
            }
        },
        {
            "type": "Feature",
            "properties": {
                "ref:csioz": 1130848,
                "name": "\"\"\"Apteka Zabobrze - Pod Teatrem\"\"\"",
                "addr:street": "Sudecka",
                "addr:housenumber": "16",
                "addr:city": "Jelenia Góra",
                "addr:postcode": "58-500",
                "amenity": "pharmacy"
            },
            "geometry": {
                "type": "Point",
                "coordinates": [
                    15.73922258636557,
                    50.89999621515163
                ]
            }
        },
        {
            "type": "Feature",
            "properties": {
                "ref:csioz": 1130905,
                "name": "\"Apteka \"\"Pod Arkadami\"\"\"",
                "addr:street": "Ratuszowy",
                "addr:housenumber": "47",
                "addr:city": "Jelenia Góra",
                "addr:postcode": "58-500",
                "amenity": "pharmacy"
            },
            "geometry": {
                "type": "Point",
                "coordinates": [
                    15.735072214839834,
                    50.90245670550176
                ]
            }
        },
        {
            "type": "Feature",
            "properties": {
                "ref:csioz": 1130885,
                "name": "\"Apteka \"\"Pod Chojnikiem\"\"\"",
                "addr:street": "Sądowa",
                "addr:housenumber": "5",
                "addr:city": "Jelenia Góra",
                "addr:postcode": "58-570",
                "amenity": "pharmacy"
            },
            "geometry": {
                "type": "Point",
                "coordinates": [
                    15.644451750452196,
                    50.846844481186
                ]
            }
        },
        {
            "type": "Feature",
            "properties": {
                "ref:csioz": 1131536,
                "name": "Apteka Zabobrze Kiepury",
                "addr:street": "Jana Kiepury",
                "addr:housenumber": "77",
                "addr:city": "Jelenia Góra",
                "addr:postcode": "58-506",
                "amenity": "pharmacy"
            },
            "geometry": {
                "type": "Point",
                "coordinates": [
                    15.757730002975952,
                    50.922919465185764
                ]
            }
        },
        {
            "type": "Feature",
            "properties": {
                "ref:csioz": 1130820,
                "name": "\"\"\"Piastowska\"\"\"",
                "addr:street": "Piastowski",
                "addr:housenumber": "30",
                "addr:city": "Jelenia Góra",
                "addr:postcode": "58-560",
                "amenity": "pharmacy"
            },
            "geometry": {
                "type": "Point",
                "coordinates": [
                    15.681369428414012,
                    50.86535579940513
                ]
            }
        },
        {
            "type": "Feature",
            "properties": {
                "ref:csioz": 1130861,
                "name": "\"\"\"Staromiejska\"\"\"",
                "addr:street": "Długa",
                "addr:housenumber": "21",
                "addr:city": "Jelenia Góra",
                "addr:postcode": "58-500",
                "amenity": "pharmacy"
            },
            "geometry": {
                "type": "Point",
                "coordinates": [
                    15.733894757434472,
                    50.90250169081431
                ]
            }
        }
    ]
}