{
    "type": "FeatureCollection",
    "name": "JPT_KOD_JE_2818",
    "crs": {
        "type": "name",
        "properties": {
            "name": "urn:ogc:def:crs:EPSG::4326"
        }
    },
    "features": [
        {
            "type": "Feature",
            "properties": {
                "ref:csioz": 1014907,
                "name": "Goldmedica - Szpital",
                "addr:street": "Słoneczna",
                "addr:housenumber": "7",
                "addr:city": "Gołdap",
                "addr:postcode": "19-500",
                "amenity": "pharmacy"
            },
            "geometry": {
                "type": "Point",
                "coordinates": [
                    22.30637568614083,
                    54.309125977378145
                ]
            }
        },
        {
            "type": "Feature",
            "properties": {
                "ref:csioz": 1147421,
                "name": "Medica",
                "addr:street": "Paderewskiego",
                "addr:housenumber": "9",
                "addr:city": "Gołdap",
                "addr:postcode": "19-500",
                "amenity": "pharmacy"
            },
            "geometry": {
                "type": "Point",
                "coordinates": [
                    22.306825954038178,
                    54.308479246701836
                ]
            }
        },
        {
            "type": "Feature",
            "properties": {
                "ref:csioz": 1185448,
                "addr:housenumber": "27A",
                "addr:city": "Grabowo",
                "addr:postcode": "19-500",
                "amenity": "pharmacy"
            },
            "geometry": {
                "type": "Point",
                "coordinates": [
                    22.237721510566832,
                    54.22466709365594
                ]
            }
        },
        {
            "type": "Feature",
            "properties": {
                "ref:csioz": 1041397,
                "addr:street": "Konopnickiej",
                "addr:housenumber": "20",
                "addr:city": "Banie Mazurskie",
                "addr:postcode": "19-520",
                "amenity": "pharmacy"
            },
            "geometry": {
                "type": "Point",
                "coordinates": [
                    22.039896589985588,
                    54.24556401873226
                ]
            }
        },
        {
            "type": "Feature",
            "properties": {
                "ref:csioz": 1041553,
                "name": "Doz Apteka. Dbam O Zdrowie. Familijna",
                "addr:street": "Zwycięstwa",
                "addr:housenumber": "18",
                "addr:city": "Gołdap",
                "addr:postcode": "19-500",
                "amenity": "pharmacy"
            },
            "geometry": {
                "type": "Point",
                "coordinates": [
                    22.303695671335564,
                    54.30807520183317
                ]
            }
        },
        {
            "type": "Feature",
            "properties": {
                "ref:csioz": 1041566,
                "addr:street": "Słoneczna",
                "addr:housenumber": "9",
                "addr:city": "Gołdap",
                "addr:postcode": "19-500",
                "amenity": "pharmacy"
            },
            "geometry": {
                "type": "Point",
                "coordinates": [
                    22.306268539154807,
                    54.30883904187861
                ]
            }
        },
        {
            "type": "Feature",
            "properties": {
                "ref:csioz": 1041577,
                "name": "Apteka Dyżurna",
                "addr:street": "Zwycięstwa",
                "addr:housenumber": "17A",
                "addr:city": "Gołdap",
                "addr:postcode": "19-500",
                "amenity": "pharmacy"
            },
            "geometry": {
                "type": "Point",
                "coordinates": [
                    22.30326615303389,
                    54.308638618844654
                ]
            }
        },
        {
            "type": "Feature",
            "properties": {
                "ref:csioz": 1171696,
                "name": "Niepubliczny Zakład Opieki Zdrowotnej Szpital Uzdrowiskowy Wital",
                "addr:street": "Wczasowa",
                "addr:housenumber": "7",
                "addr:city": "Gołdap",
                "addr:postcode": "19-500",
                "amenity": "pharmacy"
            },
            "geometry": {
                "type": "Point",
                "coordinates": [
                    22.322500849351147,
                    54.33421034275711
                ]
            }
        },
        {
            "type": "Feature",
            "properties": {
                "ref:csioz": 1230743,
                "addr:street": "Dębowa",
                "addr:housenumber": "7A",
                "addr:city": "Dubeninki",
                "addr:postcode": "19-504",
                "amenity": "pharmacy"
            },
            "geometry": {
                "type": "Point",
                "coordinates": [
                    22.5632239192307,
                    54.287847316198004
                ]
            }
        },
        {
            "type": "Feature",
            "properties": {
                "ref:csioz": 1204596,
                "name": "\"Apteka \"\"Ania\"\"\"",
                "addr:street": "Wojska Polskiego",
                "addr:housenumber": "8",
                "addr:flats": "3",
                "addr:city": "Gołdap",
                "addr:postcode": "19-500",
                "amenity": "pharmacy"
            },
            "geometry": {
                "type": "Point",
                "coordinates": [
                    22.300696307338782,
                    54.303590828767945
                ]
            }
        }
    ]
}