{
    "type": "FeatureCollection",
    "name": "JPT_KOD_JE_1007",
    "crs": {
        "type": "name",
        "properties": {
            "name": "urn:ogc:def:crs:EPSG::4326"
        }
    },
    "features": [
        {
            "type": "Feature",
            "properties": {
                "ref:csioz": 1010264,
                "addr:street": "Partyzantów",
                "addr:housenumber": "45",
                "addr:city": "Opoczno",
                "addr:postcode": "26-300",
                "amenity": "pharmacy"
            },
            "geometry": {
                "type": "Point",
                "coordinates": [
                    20.27705910718247,
                    51.37934809729616
                ]
            }
        },
        {
            "type": "Feature",
            "properties": {
                "ref:csioz": 1011857,
                "name": "Verbena",
                "addr:street": "Mikołaja Kopernika",
                "addr:housenumber": "2C",
                "addr:city": "Opoczno",
                "addr:postcode": "26-300",
                "amenity": "pharmacy"
            },
            "geometry": {
                "type": "Point",
                "coordinates": [
                    20.275674748441062,
                    51.37633308669126
                ]
            }
        },
        {
            "type": "Feature",
            "properties": {
                "ref:csioz": 1012159,
                "name": "Apteka Dbam O Zdrowie",
                "addr:street": "Plac Kościuszki",
                "addr:housenumber": "9",
                "addr:city": "Opoczno",
                "addr:postcode": "26-300",
                "amenity": "pharmacy"
            },
            "geometry": {
                "type": "Point",
                "coordinates": [
                    20.288522498815972,
                    51.37645668141996
                ]
            }
        },
        {
            "type": "Feature",
            "properties": {
                "ref:csioz": 1013102,
                "name": "Flos",
                "addr:street": "Powstańców Wielkopolskich",
                "addr:housenumber": "1A",
                "addr:city": "Mniszków",
                "addr:postcode": "26-341",
                "amenity": "pharmacy"
            },
            "geometry": {
                "type": "Point",
                "coordinates": [
                    20.039015301537784,
                    51.373758068114846
                ]
            }
        },
        {
            "type": "Feature",
            "properties": {
                "ref:csioz": 1016140,
                "addr:street": "Polna",
                "addr:housenumber": "1",
                "addr:city": "Paradyż",
                "addr:postcode": "26-333",
                "amenity": "pharmacy"
            },
            "geometry": {
                "type": "Point",
                "coordinates": [
                    20.110784621577736,
                    51.30353822744654
                ]
            }
        },
        {
            "type": "Feature",
            "properties": {
                "ref:csioz": 1017389,
                "addr:street": "Partyzantów",
                "addr:housenumber": "1A",
                "addr:city": "Opoczno",
                "addr:postcode": "26-300",
                "amenity": "pharmacy"
            },
            "geometry": {
                "type": "Point",
                "coordinates": [
                    20.278128873509434,
                    51.37239949286132
                ]
            }
        },
        {
            "type": "Feature",
            "properties": {
                "ref:csioz": 1020112,
                "addr:street": "Marii Skłodowskiej-Curie",
                "addr:housenumber": "10A/10",
                "addr:city": "Opoczno",
                "addr:postcode": "26-300",
                "amenity": "pharmacy"
            },
            "geometry": {
                "type": "Point",
                "coordinates": [
                    20.28152264008543,
                    51.3808164762085
                ]
            }
        },
        {
            "type": "Feature",
            "properties": {
                "ref:csioz": 1023534,
                "name": "Pigułka",
                "addr:street": "Mikołaja Kopernika",
                "addr:housenumber": "1B",
                "addr:city": "Opoczno",
                "addr:postcode": "26-300",
                "amenity": "pharmacy"
            },
            "geometry": {
                "type": "Point",
                "coordinates": [
                    20.27520757049824,
                    51.376620528853
                ]
            }
        },
        {
            "type": "Feature",
            "properties": {
                "ref:csioz": 1023767,
                "name": "\"Apteka 36,6\"",
                "addr:street": "Partyzantów",
                "addr:housenumber": "37",
                "addr:city": "Opoczno",
                "addr:postcode": "26-300",
                "amenity": "pharmacy"
            },
            "geometry": {
                "type": "Point",
                "coordinates": [
                    20.27748722543888,
                    51.37802366820821
                ]
            }
        },
        {
            "type": "Feature",
            "properties": {
                "ref:csioz": 1227117,
                "name": "\"Apteka \"\"Codzienna\"\"\"",
                "addr:street": "Mikołaja Kopernika",
                "addr:housenumber": "6",
                "addr:city": "Opoczno",
                "addr:postcode": "26-300",
                "amenity": "pharmacy"
            },
            "geometry": {
                "type": "Point",
                "coordinates": [
                    20.275426601151015,
                    51.378155948113374
                ]
            }
        },
        {
            "type": "Feature",
            "properties": {
                "ref:csioz": 1011873,
                "addr:street": "Westerplatte",
                "addr:housenumber": "6A",
                "addr:city": "Opoczno",
                "addr:postcode": "26-300",
                "amenity": "pharmacy"
            },
            "geometry": {
                "type": "Point",
                "coordinates": [
                    20.27016537321158,
                    51.38005152106311
                ]
            }
        },
        {
            "type": "Feature",
            "properties": {
                "ref:csioz": 1014978,
                "addr:street": "Kilińskiego",
                "addr:housenumber": "19A",
                "addr:city": "Opoczno",
                "addr:postcode": "26-300",
                "amenity": "pharmacy"
            },
            "geometry": {
                "type": "Point",
                "coordinates": [
                    20.286878000000666,
                    51.3768100000145
                ]
            }
        },
        {
            "type": "Feature",
            "properties": {
                "ref:csioz": 1017075,
                "addr:street": "Plac Marszałka J. Piłsudskiego",
                "addr:housenumber": "21A",
                "addr:city": "Żarnów",
                "addr:postcode": "26-330",
                "amenity": "pharmacy"
            },
            "geometry": {
                "type": "Point",
                "coordinates": [
                    20.172184584253166,
                    51.24735945446651
                ]
            }
        },
        {
            "type": "Feature",
            "properties": {
                "ref:csioz": 1022736,
                "addr:street": "Jana Pawła II",
                "addr:housenumber": "20",
                "addr:city": "Sławno",
                "addr:postcode": "26-332",
                "amenity": "pharmacy"
            },
            "geometry": {
                "type": "Point",
                "coordinates": [
                    20.14070612123526,
                    51.391066693531236
                ]
            }
        },
        {
            "type": "Feature",
            "properties": {
                "ref:csioz": 1114400,
                "addr:street": "Wolności",
                "addr:housenumber": "4",
                "addr:city": "Żarnów",
                "addr:postcode": "26-330",
                "amenity": "pharmacy"
            },
            "geometry": {
                "type": "Point",
                "coordinates": [
                    20.171092168223336,
                    51.24865761746599
                ]
            }
        },
        {
            "type": "Feature",
            "properties": {
                "ref:csioz": 1118422,
                "name": "Apteka Lawendowa",
                "addr:street": "Konecka",
                "addr:housenumber": "1",
                "addr:city": "Paradyż",
                "addr:postcode": "26-333",
                "amenity": "pharmacy"
            },
            "geometry": {
                "type": "Point",
                "coordinates": [
                    20.114839293332693,
                    51.30582218667098
                ]
            }
        },
        {
            "type": "Feature",
            "properties": {
                "ref:csioz": 1164662,
                "name": "Flos",
                "addr:housenumber": "90",
                "addr:city": "Wójcin",
                "addr:postcode": "26-333",
                "amenity": "pharmacy"
            },
            "geometry": {
                "type": "Point",
                "coordinates": [
                    20.031324342000225,
                    51.33086016967662
                ]
            }
        },
        {
            "type": "Feature",
            "properties": {
                "ref:csioz": 1176813,
                "name": "Przyjazna",
                "addr:street": "Piotrkowska",
                "addr:housenumber": "66",
                "addr:city": "Opoczno",
                "addr:postcode": "26-300",
                "amenity": "pharmacy"
            },
            "geometry": {
                "type": "Point",
                "coordinates": [
                    20.27406203242366,
                    51.375817494932065
                ]
            }
        },
        {
            "type": "Feature",
            "properties": {
                "ref:csioz": 1185978,
                "name": "Apteka Stacja Zdrowie Mgr Farm. Robert Zalega",
                "addr:street": "Piotrkowska",
                "addr:housenumber": "70",
                "addr:city": "Opoczno",
                "addr:postcode": "26-300",
                "amenity": "pharmacy"
            },
            "geometry": {
                "type": "Point",
                "coordinates": [
                    20.273522188308675,
                    51.37575509127205
                ]
            }
        },
        {
            "type": "Feature",
            "properties": {
                "ref:csioz": 1189428,
                "name": "Apteka Melisa",
                "addr:street": "Piotrkowska",
                "addr:housenumber": "41A",
                "addr:city": "Opoczno",
                "addr:postcode": "26-300",
                "amenity": "pharmacy"
            },
            "geometry": {
                "type": "Point",
                "coordinates": [
                    20.27807700000065,
                    51.375373000014505
                ]
            }
        },
        {
            "type": "Feature",
            "properties": {
                "ref:csioz": 1197013,
                "name": "Sp Zoz Szpital Powiatowy W Opocznie",
                "addr:street": "Partyzantów",
                "addr:housenumber": "30",
                "addr:city": "Opoczno",
                "addr:postcode": "26-300",
                "amenity": "pharmacy"
            },
            "geometry": {
                "type": "Point",
                "coordinates": [
                    20.277937027256048,
                    51.378996081330314
                ]
            }
        },
        {
            "type": "Feature",
            "properties": {
                "ref:csioz": 1198767,
                "name": "Ośrodek Mikrochirurgii Okuluxklinik",
                "addr:street": "św. Marka",
                "addr:housenumber": "2",
                "addr:city": "Opoczno",
                "addr:postcode": "26-300",
                "amenity": "pharmacy"
            },
            "geometry": {
                "type": "Point",
                "coordinates": [
                    20.28745420703854,
                    51.380592415318326
                ]
            }
        },
        {
            "type": "Feature",
            "properties": {
                "ref:csioz": 1215383,
                "name": "Koniczynka Iii",
                "addr:street": "Wolności",
                "addr:housenumber": "29",
                "addr:city": "Białaczów",
                "addr:postcode": "26-307",
                "amenity": "pharmacy"
            },
            "geometry": {
                "type": "Point",
                "coordinates": [
                    20.29600085265656,
                    51.29864027301808
                ]
            }
        },
        {
            "type": "Feature",
            "properties": {
                "ref:csioz": 1164471,
                "name": "\"Apteka \"\"Osobista\"\"\"",
                "addr:street": "Piotrkowska",
                "addr:housenumber": "6",
                "addr:city": "Opoczno",
                "addr:postcode": "26-300",
                "amenity": "pharmacy"
            },
            "geometry": {
                "type": "Point",
                "coordinates": [
                    20.284976720855894,
                    51.37660590342921
                ]
            }
        },
        {
            "type": "Feature",
            "properties": {
                "ref:csioz": 1012714,
                "addr:street": "Plac Tadeusza Kościuszki",
                "addr:housenumber": "14",
                "addr:city": "Drzewica",
                "addr:postcode": "26-340",
                "amenity": "pharmacy"
            },
            "geometry": {
                "type": "Point",
                "coordinates": [
                    20.473457645002558,
                    51.449495166605665
                ]
            }
        },
        {
            "type": "Feature",
            "properties": {
                "ref:csioz": 1012930,
                "name": "Apteka Mgr Farm. Andrzej Szlonzak",
                "addr:street": "Wolności",
                "addr:housenumber": "16A",
                "addr:city": "Drzewica",
                "addr:postcode": "26-340",
                "amenity": "pharmacy"
            },
            "geometry": {
                "type": "Point",
                "coordinates": [
                    20.48002293912196,
                    51.45105189617068
                ]
            }
        },
        {
            "type": "Feature",
            "properties": {
                "ref:csioz": 1026247,
                "name": "\"Pigułka Ewelina Strzałkowska\"\"\"",
                "addr:housenumber": "77",
                "addr:city": "Petrykozy",
                "addr:postcode": "26-307",
                "amenity": "pharmacy"
            },
            "geometry": {
                "type": "Point",
                "coordinates": [
                    20.362647087441847,
                    51.30100418153045
                ]
            }
        },
        {
            "type": "Feature",
            "properties": {
                "ref:csioz": 1119609,
                "addr:street": "Akacjowa",
                "addr:housenumber": "3",
                "addr:city": "Poświętne",
                "addr:postcode": "26-315",
                "amenity": "pharmacy"
            },
            "geometry": {
                "type": "Point",
                "coordinates": [
                    20.36988380806542,
                    51.530956856928896
                ]
            }
        },
        {
            "type": "Feature",
            "properties": {
                "ref:csioz": 1176837,
                "name": "Farmacja I Uroda",
                "addr:street": "Stawowa",
                "addr:housenumber": "27",
                "addr:city": "Drzewica",
                "addr:postcode": "26-340",
                "amenity": "pharmacy"
            },
            "geometry": {
                "type": "Point",
                "coordinates": [
                    20.46730016684666,
                    51.44983870715376
                ]
            }
        },
        {
            "type": "Feature",
            "properties": {
                "ref:csioz": 1230573,
                "addr:housenumber": "1",
                "addr:city": "Jelnia",
                "addr:postcode": "26-340",
                "amenity": "pharmacy"
            },
            "geometry": {
                "type": "Point",
                "coordinates": [
                    20.460194009408536,
                    51.438643230439105
                ]
            }
        }
    ]
}