{
    "type": "FeatureCollection",
    "name": "JPT_KOD_JE_0404",
    "features": [
        {
            "type": "Feature",
            "properties": {
                "ref:csioz": 1102444,
                "name": "Apteka Alba",
                "addr:street": "Dworcowa",
                "addr:housenumber": "18",
                "addr:city": "Chełmno",
                "addr:postcode": "86-200",
                "amenity": "pharmacy"
            },
            "geometry": {
                "type": "Point",
                "coordinates": [
                    18.433305436500746,
                    53.350178329998826
                ]
            }
        },
        {
            "type": "Feature",
            "properties": {
                "ref:csioz": 1102820,
                "name": "Antidotum",
                "addr:street": "Chełmińska",
                "addr:housenumber": "7B",
                "addr:city": "Kijewo Królewskie",
                "addr:postcode": "86-253",
                "amenity": "pharmacy"
            },
            "geometry": {
                "type": "Point",
                "coordinates": [
                    18.443311997220558,
                    53.2747663231576
                ]
            }
        },
        {
            "type": "Feature",
            "properties": {
                "ref:csioz": 1103608,
                "name": "Asklepios",
                "addr:street": "Dworcowa",
                "addr:housenumber": "4A",
                "addr:city": "Chełmno",
                "addr:postcode": "86-200",
                "amenity": "pharmacy"
            },
            "geometry": {
                "type": "Point",
                "coordinates": [
                    18.430477277853917,
                    53.35061288114584
                ]
            }
        },
        {
            "type": "Feature",
            "properties": {
                "ref:csioz": 1105320,
                "name": "Doz Punkt Apteczny Dbam O Zdrowie",
                "addr:street": "Generała Józefa Hallera",
                "addr:housenumber": "24",
                "addr:city": "Lisewo",
                "addr:postcode": "86-230",
                "amenity": "pharmacy"
            },
            "geometry": {
                "type": "Point",
                "coordinates": [
                    18.687148918062018,
                    53.29496778689174
                ]
            }
        },
        {
            "type": "Feature",
            "properties": {
                "ref:csioz": 1119117,
                "name": "Chełmińska",
                "addr:street": "Młyńska",
                "addr:housenumber": "7",
                "addr:city": "Chełmno",
                "addr:postcode": "86-200",
                "amenity": "pharmacy"
            },
            "geometry": {
                "type": "Point",
                "coordinates": [
                    18.43508032265975,
                    53.351054807074604
                ]
            }
        },
        {
            "type": "Feature",
            "properties": {
                "ref:csioz": 1187154,
                "name": "Prima",
                "addr:street": "Łunawska",
                "addr:housenumber": "1",
                "addr:city": "Chełmno",
                "addr:postcode": "86-200",
                "amenity": "pharmacy"
            },
            "geometry": {
                "type": "Point",
                "coordinates": [
                    18.4443213334253,
                    53.348008655401536
                ]
            }
        },
        {
            "type": "Feature",
            "properties": {
                "ref:csioz": 1102431,
                "name": "Apteka Panaceum",
                "addr:street": "Grudziądzka",
                "addr:housenumber": "14",
                "addr:city": "Chełmno",
                "addr:postcode": "86-200",
                "amenity": "pharmacy"
            },
            "geometry": {
                "type": "Point",
                "coordinates": [
                    18.42622797645507,
                    53.34978892752831
                ]
            }
        },
        {
            "type": "Feature",
            "properties": {
                "ref:csioz": 1103712,
                "name": "Aurum",
                "addr:street": "Toruńska",
                "addr:housenumber": "26",
                "addr:city": "Chełmno",
                "addr:postcode": "86-200",
                "amenity": "pharmacy"
            },
            "geometry": {
                "type": "Point",
                "coordinates": [
                    18.419764257383026,
                    53.345645383897356
                ]
            }
        },
        {
            "type": "Feature",
            "properties": {
                "ref:csioz": 1105168,
                "addr:housenumber": "112",
                "addr:city": "Stolno",
                "addr:postcode": "86-212",
                "amenity": "pharmacy"
            },
            "geometry": {
                "type": "Point",
                "coordinates": [
                    18.506328256727283,
                    53.321793240816234
                ]
            }
        },
        {
            "type": "Feature",
            "properties": {
                "ref:csioz": 1105184,
                "addr:street": "Generała Józefa Hallera",
                "addr:housenumber": "20A",
                "addr:city": "Lisewo",
                "addr:postcode": "86-230",
                "amenity": "pharmacy"
            },
            "geometry": {
                "type": "Point",
                "coordinates": [
                    18.687003936136605,
                    53.29360190504357
                ]
            }
        },
        {
            "type": "Feature",
            "properties": {
                "ref:csioz": 1153440,
                "name": "Apteka Szpitalna Zespółu Opieki Zdrowotnej W Chełmnie",
                "addr:street": "dr. Rydygiera",
                "addr:housenumber": "1",
                "addr:city": "Chełmno",
                "addr:postcode": "86-200",
                "amenity": "pharmacy"
            },
            "geometry": {
                "type": "Point",
                "coordinates": [
                    18.420694236344488,
                    53.34419249234966
                ]
            }
        },
        {
            "type": "Feature",
            "properties": {
                "ref:csioz": 1182223,
                "name": "Gemini",
                "addr:street": "Marii Curie-Skłodowskiej",
                "addr:housenumber": "19",
                "addr:city": "Chełmno",
                "addr:postcode": "86-200",
                "amenity": "pharmacy"
            },
            "geometry": {
                "type": "Point",
                "coordinates": [
                    18.442802518167824,
                    53.34693189525298
                ]
            }
        },
        {
            "type": "Feature",
            "properties": {
                "ref:csioz": 1230770,
                "name": "Punkt Apteczny Stokrotka",
                "addr:street": "Chełmińska",
                "addr:housenumber": "18",
                "addr:city": "Lisewo",
                "addr:postcode": "86-230",
                "amenity": "pharmacy"
            },
            "geometry": {
                "type": "Point",
                "coordinates": [
                    18.68766159584149,
                    53.29515712710702
                ]
            }
        },
        {
            "type": "Feature",
            "properties": {
                "ref:csioz": 1103323,
                "name": "Remedium",
                "addr:street": "Parkowa",
                "addr:housenumber": "17a",
                "addr:city": "Unisław",
                "addr:postcode": "86-260",
                "amenity": "pharmacy"
            },
            "geometry": {
                "type": "Point",
                "coordinates": [
                    18.38224555620735,
                    53.208384007489144
                ]
            }
        },
        {
            "type": "Feature",
            "properties": {
                "ref:csioz": 1110629,
                "name": "\"Apteka 'Unisław'\"",
                "addr:street": "Wiślana",
                "addr:housenumber": "18a",
                "addr:city": "Unisław",
                "addr:postcode": "86-260",
                "amenity": "pharmacy"
            },
            "geometry": {
                "type": "Point",
                "coordinates": [
                    18.38398622097317,
                    53.20888538522234
                ]
            }
        }
    ]
}