{
    "type": "FeatureCollection",
    "name": "JPT_KOD_JE_2004",
    "crs": {
        "type": "name",
        "properties": {
            "name": "urn:ogc:def:crs:EPSG::4326"
        }
    },
    "features": [
        {
            "type": "Feature",
            "properties": {
                "ref:csioz": 1015890,
                "name": "Punkt Apteczny Provita",
                "addr:street": "500-lecia",
                "addr:housenumber": "16",
                "addr:city": "Radziłów",
                "addr:postcode": "19-213",
                "amenity": "pharmacy"
            },
            "geometry": {
                "type": "Point",
                "coordinates": [
                    22.40976470599049,
                    53.40962720168913
                ]
            }
        },
        {
            "type": "Feature",
            "properties": {
                "ref:csioz": 1015913,
                "addr:street": "Franciszka Zabielskiego",
                "addr:housenumber": "6",
                "addr:city": "Rajgród",
                "addr:postcode": "19-206",
                "amenity": "pharmacy"
            },
            "geometry": {
                "type": "Point",
                "coordinates": [
                    22.683053367766018,
                    53.73038210747044
                ]
            }
        },
        {
            "type": "Feature",
            "properties": {
                "ref:csioz": 1016053,
                "addr:street": "Rzędziana",
                "addr:housenumber": "11",
                "addr:city": "Wąsosz",
                "addr:postcode": "19-222",
                "amenity": "pharmacy"
            },
            "geometry": {
                "type": "Point",
                "coordinates": [
                    22.32090526589901,
                    53.52132701254405
                ]
            }
        },
        {
            "type": "Feature",
            "properties": {
                "ref:csioz": 1017138,
                "name": "Apteka Tania",
                "addr:street": "Jana Kilińskiego",
                "addr:housenumber": "4",
                "addr:city": "Szczuczyn",
                "addr:postcode": "19-230",
                "amenity": "pharmacy"
            },
            "geometry": {
                "type": "Point",
                "coordinates": [
                    22.285454984506213,
                    53.56371995451261
                ]
            }
        },
        {
            "type": "Feature",
            "properties": {
                "ref:csioz": 1017247,
                "name": "Apteka Osak Spółka Jawna",
                "addr:street": "Ełcka",
                "addr:housenumber": "9",
                "addr:city": "Grajewo",
                "addr:postcode": "19-200",
                "amenity": "pharmacy"
            },
            "geometry": {
                "type": "Point",
                "coordinates": [
                    22.455339600582374,
                    53.6489279475615
                ]
            }
        },
        {
            "type": "Feature",
            "properties": {
                "ref:csioz": 1017764,
                "name": "Apteka Na Konstytucji 3 Maja Nowa Farmacja",
                "addr:street": "Konstytucji 3 Maja",
                "addr:housenumber": "13",
                "addr:city": "Grajewo",
                "addr:postcode": "19-200",
                "amenity": "pharmacy"
            },
            "geometry": {
                "type": "Point",
                "coordinates": [
                    22.463590000028137,
                    53.645034000018626
                ]
            }
        },
        {
            "type": "Feature",
            "properties": {
                "ref:csioz": 1020581,
                "name": "Dbam O Zdrowie",
                "addr:street": "marsz. Józefa Piłsudskiego",
                "addr:housenumber": "15",
                "addr:city": "Grajewo",
                "addr:postcode": "19-200",
                "amenity": "pharmacy"
            },
            "geometry": {
                "type": "Point",
                "coordinates": [
                    22.453120000027734,
                    53.64641600001862
                ]
            }
        },
        {
            "type": "Feature",
            "properties": {
                "ref:csioz": 1021281,
                "name": "Vita",
                "addr:street": "Południe",
                "addr:housenumber": "9",
                "addr:city": "Grajewo",
                "addr:postcode": "19-200",
                "amenity": "pharmacy"
            },
            "geometry": {
                "type": "Point",
                "coordinates": [
                    22.46756802289946,
                    53.64581172268587
                ]
            }
        },
        {
            "type": "Feature",
            "properties": {
                "ref:csioz": 1023024,
                "name": "\"Apteka Cef@Rm 36,6\"",
                "addr:street": "1000-lecia",
                "addr:housenumber": "19",
                "addr:city": "Szczuczyn",
                "addr:postcode": "19-230",
                "amenity": "pharmacy"
            },
            "geometry": {
                "type": "Point",
                "coordinates": [
                    22.286720542188366,
                    53.5633057471429
                ]
            }
        },
        {
            "type": "Feature",
            "properties": {
                "ref:csioz": 1182683,
                "name": "Vita",
                "addr:street": "Franciszka Zabielskiego",
                "addr:housenumber": "6",
                "addr:city": "Rajgród",
                "addr:postcode": "19-206",
                "amenity": "pharmacy"
            },
            "geometry": {
                "type": "Point",
                "coordinates": [
                    22.683053367766018,
                    53.73038210747044
                ]
            }
        },
        {
            "type": "Feature",
            "properties": {
                "ref:csioz": 1228035,
                "name": "Punkt Apteczny Joanna Janiszewska",
                "addr:street": "Mikołaja Kopernika",
                "addr:housenumber": "5",
                "addr:city": "Białaszewo",
                "addr:postcode": "19-200",
                "amenity": "pharmacy"
            },
            "geometry": {
                "type": "Point",
                "coordinates": [
                    22.508293006605566,
                    53.51552517233476
                ]
            }
        },
        {
            "type": "Feature",
            "properties": {
                "ref:csioz": 1019725,
                "name": "Apteka Cis",
                "addr:street": "Koszarowa",
                "addr:housenumber": "41",
                "addr:city": "Grajewo",
                "addr:postcode": "19-203",
                "amenity": "pharmacy"
            },
            "geometry": {
                "type": "Point",
                "coordinates": [
                    22.465622023238033,
                    53.64240036573507
                ]
            }
        },
        {
            "type": "Feature",
            "properties": {
                "ref:csioz": 1020446,
                "name": "\"Apteka \"\"Vita\"\"\"",
                "addr:street": "Kolejowa",
                "addr:housenumber": "5",
                "addr:city": "Grajewo",
                "addr:postcode": "19-200",
                "amenity": "pharmacy"
            },
            "geometry": {
                "type": "Point",
                "coordinates": [
                    22.45090942512594,
                    53.64674890714815
                ]
            }
        },
        {
            "type": "Feature",
            "properties": {
                "ref:csioz": 1022969,
                "name": "\"Apteka Cef@Rm 36,6\"",
                "addr:street": "Południe",
                "addr:housenumber": "47",
                "addr:city": "Grajewo",
                "addr:postcode": "19-200",
                "amenity": "pharmacy"
            },
            "geometry": {
                "type": "Point",
                "coordinates": [
                    22.464154950312505,
                    53.644115466957835
                ]
            }
        },
        {
            "type": "Feature",
            "properties": {
                "ref:csioz": 1023168,
                "name": "Doz Apteka. Dbam O Zdrowie Natura",
                "addr:street": "Konstytucji 3 Maja",
                "addr:housenumber": "2",
                "addr:flats": "10",
                "addr:city": "Grajewo",
                "addr:postcode": "19-200",
                "amenity": "pharmacy"
            },
            "geometry": {
                "type": "Point",
                "coordinates": [
                    22.460958000028047,
                    53.64312400001862
                ]
            }
        },
        {
            "type": "Feature",
            "properties": {
                "ref:csioz": 1025227,
                "name": "Apteka Prywatna Remedium Spółka Cywilna",
                "addr:street": "Konstytucji 3 Maja",
                "addr:housenumber": "2",
                "addr:flats": "12",
                "addr:city": "Grajewo",
                "addr:postcode": "19-200",
                "amenity": "pharmacy"
            },
            "geometry": {
                "type": "Point",
                "coordinates": [
                    22.460958000028047,
                    53.64312400001862
                ]
            }
        },
        {
            "type": "Feature",
            "properties": {
                "ref:csioz": 1176053,
                "addr:street": "Szpitalna",
                "addr:housenumber": "1",
                "addr:city": "Szczuczyn",
                "addr:postcode": "19-230",
                "amenity": "pharmacy"
            },
            "geometry": {
                "type": "Point",
                "coordinates": [
                    22.283861832854605,
                    53.560834265766346
                ]
            }
        },
        {
            "type": "Feature",
            "properties": {
                "ref:csioz": 1180832,
                "addr:street": "Konstytucji 3 Maja",
                "addr:housenumber": "34",
                "addr:city": "Grajewo",
                "addr:postcode": "19-200",
                "amenity": "pharmacy"
            },
            "geometry": {
                "type": "Point",
                "coordinates": [
                    22.469809000028363,
                    53.64636900001863
                ]
            }
        },
        {
            "type": "Feature",
            "properties": {
                "ref:csioz": 1207204,
                "name": "Apteka Gemini",
                "addr:street": "Wojska Polskiego",
                "addr:housenumber": "50",
                "addr:city": "Grajewo",
                "addr:postcode": "19-200",
                "amenity": "pharmacy"
            },
            "geometry": {
                "type": "Point",
                "coordinates": [
                    22.46014600921832,
                    53.64203257784442
                ]
            }
        },
        {
            "type": "Feature",
            "properties": {
                "ref:csioz": 1110891,
                "name": "\"Apteka \"\"Arnika\"\"\"",
                "addr:street": "Konstytucji 3 Maja",
                "addr:housenumber": "17",
                "addr:city": "Grajewo",
                "addr:postcode": "19-203",
                "amenity": "pharmacy"
            },
            "geometry": {
                "type": "Point",
                "coordinates": [
                    22.46432900002816,
                    53.64527500001862
                ]
            }
        }
    ]
}