{
    "type": "FeatureCollection",
    "name": "JPT_KOD_JE_2612",
    "crs": {
        "type": "name",
        "properties": {
            "name": "urn:ogc:def:crs:EPSG::4326"
        }
    },
    "features": [
        {
            "type": "Feature",
            "properties": {
                "ref:csioz": 1000230,
                "addr:street": "Łokietka",
                "addr:housenumber": "1",
                "addr:city": "SZYDŁÓW",
                "addr:postcode": "28-225",
                "amenity": "pharmacy"
            },
            "geometry": {
                "type": "Point",
                "coordinates": [
                    21.0017504271891,
                    50.59155647187778
                ]
            }
        },
        {
            "type": "Feature",
            "properties": {
                "ref:csioz": 1001036,
                "addr:street": "Konstytucji 3 Maja",
                "addr:housenumber": "10C",
                "addr:city": "Staszów",
                "addr:postcode": "28-200",
                "amenity": "pharmacy"
            },
            "geometry": {
                "type": "Point",
                "coordinates": [
                    21.17921600000451,
                    50.559171000013315
                ]
            }
        },
        {
            "type": "Feature",
            "properties": {
                "ref:csioz": 1001116,
                "name": "Apteka Codzienna",
                "addr:street": "Jana Pawła II",
                "addr:housenumber": "10",
                "addr:city": "Staszów",
                "addr:postcode": "28-200",
                "amenity": "pharmacy"
            },
            "geometry": {
                "type": "Point",
                "coordinates": [
                    21.17144892074137,
                    50.568356826616785
                ]
            }
        },
        {
            "type": "Feature",
            "properties": {
                "ref:csioz": 1001671,
                "name": "Apteka Przy Wschodniej",
                "addr:street": "Jana Pawła II",
                "addr:housenumber": "23",
                "addr:city": "Staszów",
                "addr:postcode": "28-200",
                "amenity": "pharmacy"
            },
            "geometry": {
                "type": "Point",
                "coordinates": [
                    21.171855910828054,
                    50.565929316696284
                ]
            }
        },
        {
            "type": "Feature",
            "properties": {
                "ref:csioz": 1001890,
                "name": "Apteka Zdrowie Rh+",
                "addr:street": "Opatowska",
                "addr:housenumber": "10",
                "addr:city": "Staszów",
                "addr:postcode": "28-200",
                "amenity": "pharmacy"
            },
            "geometry": {
                "type": "Point",
                "coordinates": [
                    21.167454562070894,
                    50.5657809467428
                ]
            }
        },
        {
            "type": "Feature",
            "properties": {
                "ref:csioz": 1002164,
                "addr:street": "Jędrusiów",
                "addr:housenumber": "3",
                "addr:city": "Bogoria",
                "addr:postcode": "28-210",
                "amenity": "pharmacy"
            },
            "geometry": {
                "type": "Point",
                "coordinates": [
                    21.261579598650222,
                    50.65139346683179
                ]
            }
        },
        {
            "type": "Feature",
            "properties": {
                "ref:csioz": 1003398,
                "addr:street": "Rynek",
                "addr:housenumber": "17",
                "addr:city": "Bogoria",
                "addr:postcode": "28-210",
                "amenity": "pharmacy"
            },
            "geometry": {
                "type": "Point",
                "coordinates": [
                    21.259641584377725,
                    50.65227719361874
                ]
            }
        },
        {
            "type": "Feature",
            "properties": {
                "ref:csioz": 1003689,
                "name": "Apteka Prolek",
                "addr:street": "Adama Mickiewicza",
                "addr:housenumber": "62",
                "addr:city": "Staszów",
                "addr:postcode": "28-200",
                "amenity": "pharmacy"
            },
            "geometry": {
                "type": "Point",
                "coordinates": [
                    21.189284500678554,
                    50.55720634317565
                ]
            }
        },
        {
            "type": "Feature",
            "properties": {
                "ref:csioz": 1004899,
                "name": "Punkt Apteczny Rodzinny",
                "addr:housenumber": "116",
                "addr:city": "Wiśniowa",
                "addr:postcode": "28-200",
                "amenity": "pharmacy"
            },
            "geometry": {
                "type": "Point",
                "coordinates": [
                    21.24731407551704,
                    50.594931975942714
                ]
            }
        },
        {
            "type": "Feature",
            "properties": {
                "ref:csioz": 1138044,
                "name": "Apteka Szpitalna",
                "addr:street": "11 Listopada",
                "addr:housenumber": "78",
                "addr:city": "Staszów",
                "addr:postcode": "28-200",
                "amenity": "pharmacy"
            },
            "geometry": {
                "type": "Point",
                "coordinates": [
                    21.190757265853897,
                    50.561531086396826
                ]
            }
        },
        {
            "type": "Feature",
            "properties": {
                "ref:csioz": 1178967,
                "name": "Apteka Osobista",
                "addr:street": "Krakowska",
                "addr:housenumber": "14",
                "addr:city": "Staszów",
                "addr:postcode": "28-200",
                "amenity": "pharmacy"
            },
            "geometry": {
                "type": "Point",
                "coordinates": [
                    21.16559444877766,
                    50.563185483197735
                ]
            }
        },
        {
            "type": "Feature",
            "properties": {
                "ref:csioz": 1194384,
                "name": "Apteka Społeczna Na Jana Pawła Ii Grupa Nowa Farmacja",
                "addr:street": "Jana Pawła II",
                "addr:housenumber": "22",
                "addr:city": "Staszów",
                "addr:postcode": "28-200",
                "amenity": "pharmacy"
            },
            "geometry": {
                "type": "Point",
                "coordinates": [
                    21.171556066039756,
                    50.56621628060408
                ]
            }
        },
        {
            "type": "Feature",
            "properties": {
                "ref:csioz": 1001150,
                "addr:street": "Rynek",
                "addr:housenumber": "30",
                "addr:city": "Staszów",
                "addr:postcode": "28-200",
                "amenity": "pharmacy"
            },
            "geometry": {
                "type": "Point",
                "coordinates": [
                    21.16766859276218,
                    50.56475874048214
                ]
            }
        },
        {
            "type": "Feature",
            "properties": {
                "ref:csioz": 1001386,
                "addr:street": "Kościelna",
                "addr:housenumber": "8",
                "addr:flats": "1",
                "addr:city": "Rytwiany",
                "addr:postcode": "28-236",
                "amenity": "pharmacy"
            },
            "geometry": {
                "type": "Point",
                "coordinates": [
                    21.20313247494064,
                    50.52753777555342
                ]
            }
        },
        {
            "type": "Feature",
            "properties": {
                "ref:csioz": 1002358,
                "name": "Aloes",
                "addr:street": "Staszowska",
                "addr:housenumber": "4",
                "addr:city": "Koniemłoty",
                "addr:postcode": "28-200",
                "amenity": "pharmacy"
            },
            "geometry": {
                "type": "Point",
                "coordinates": [
                    21.11666152158539,
                    50.51976921501936
                ]
            }
        },
        {
            "type": "Feature",
            "properties": {
                "ref:csioz": 1123216,
                "name": "Nzol Koniemłoty Dział Farmacji",
                "addr:street": "Plac Księdza Romana Kotlarza",
                "addr:housenumber": "9",
                "addr:city": "Koniemłoty",
                "addr:postcode": "28-200",
                "amenity": "pharmacy"
            },
            "geometry": {
                "type": "Point",
                "coordinates": [
                    21.117568000003967,
                    50.519721000013256
                ]
            }
        },
        {
            "type": "Feature",
            "properties": {
                "ref:csioz": 1172176,
                "name": "Apteka Artfarm",
                "addr:street": "Krakowska",
                "addr:housenumber": "49",
                "addr:city": "Staszów",
                "addr:postcode": "28-200",
                "amenity": "pharmacy"
            },
            "geometry": {
                "type": "Point",
                "coordinates": [
                    21.153034954947753,
                    50.551541947543555
                ]
            }
        },
        {
            "type": "Feature",
            "properties": {
                "ref:csioz": 1176015,
                "name": "Dr. Max",
                "addr:street": "Rynek",
                "addr:housenumber": "1",
                "addr:city": "Staszów",
                "addr:postcode": "28-200",
                "amenity": "pharmacy"
            },
            "geometry": {
                "type": "Point",
                "coordinates": [
                    21.167201456989407,
                    50.563975016923905
                ]
            }
        },
        {
            "type": "Feature",
            "properties": {
                "ref:csioz": 1181614,
                "name": "Apteka Plus",
                "addr:street": "11 Listopada",
                "addr:housenumber": "76A",
                "addr:city": "Staszów",
                "addr:postcode": "28-200",
                "amenity": "pharmacy"
            },
            "geometry": {
                "type": "Point",
                "coordinates": [
                    21.190169564183886,
                    50.561717036649746
                ]
            }
        },
        {
            "type": "Feature",
            "properties": {
                "ref:csioz": 1216045,
                "name": "Apteka Rodzinna",
                "addr:street": "ul. Rynek",
                "addr:housenumber": "34",
                "addr:city": "Bogoria",
                "addr:postcode": "28-210",
                "amenity": "pharmacy"
            },
            "geometry": {
                "type": "Point",
                "coordinates": [
                    21.259508172450744,
                    50.65130048976693
                ]
            }
        },
        {
            "type": "Feature",
            "properties": {
                "ref:csioz": 1218861,
                "addr:street": "11 LISTOPADA",
                "addr:housenumber": "119",
                "addr:city": "Staszów",
                "addr:postcode": "28-200",
                "amenity": "pharmacy"
            },
            "geometry": {
                "type": "Point",
                "coordinates": [
                    21.191313186176934,
                    50.561884209475075
                ]
            }
        },
        {
            "type": "Feature",
            "properties": {
                "ref:csioz": 1004779,
                "addr:housenumber": "62",
                "addr:city": "Jurkowice",
                "addr:postcode": "28-210",
                "amenity": "pharmacy"
            },
            "geometry": {
                "type": "Point",
                "coordinates": [
                    21.367860997963803,
                    50.63651535870354
                ]
            }
        },
        {
            "type": "Feature",
            "properties": {
                "ref:csioz": 1189722,
                "name": "Arnika",
                "addr:street": "Rynek",
                "addr:housenumber": "13",
                "addr:city": "Osiek",
                "addr:postcode": "28-221",
                "amenity": "pharmacy"
            },
            "geometry": {
                "type": "Point",
                "coordinates": [
                    21.443182852126622,
                    50.52016291953661
                ]
            }
        },
        {
            "type": "Feature",
            "properties": {
                "ref:csioz": 1230781,
                "name": "Apteka Rodzinna",
                "addr:street": "Wolności",
                "addr:housenumber": "18A",
                "addr:city": "Osiek",
                "addr:postcode": "28-221",
                "amenity": "pharmacy"
            },
            "geometry": {
                "type": "Point",
                "coordinates": [
                    21.447110649735,
                    50.51869426722402
                ]
            }
        },
        {
            "type": "Feature",
            "properties": {
                "ref:csioz": 1003986,
                "name": "Słoneczna",
                "addr:street": "Rynek",
                "addr:housenumber": "11",
                "addr:city": "Oleśnica",
                "addr:postcode": "28-220",
                "amenity": "pharmacy"
            },
            "geometry": {
                "type": "Point",
                "coordinates": [
                    21.063906402527,
                    50.45003395209625
                ]
            }
        },
        {
            "type": "Feature",
            "properties": {
                "ref:csioz": 1004514,
                "addr:housenumber": "73",
                "addr:city": "ŁUBNICE",
                "addr:postcode": "28-232",
                "amenity": "pharmacy"
            },
            "geometry": {
                "type": "Point",
                "coordinates": [
                    21.14938013077316,
                    50.4102861155716
                ]
            }
        },
        {
            "type": "Feature",
            "properties": {
                "ref:csioz": 1001127,
                "addr:street": "Żapniowska",
                "addr:housenumber": "2",
                "addr:city": "Połaniec",
                "addr:postcode": "28-230",
                "amenity": "pharmacy"
            },
            "geometry": {
                "type": "Point",
                "coordinates": [
                    21.281769727001496,
                    50.42427757454127
                ]
            }
        },
        {
            "type": "Feature",
            "properties": {
                "ref:csioz": 1001134,
                "addr:housenumber": "24",
                "addr:city": "Zawada",
                "addr:postcode": "28-230",
                "amenity": "pharmacy"
            },
            "geometry": {
                "type": "Point",
                "coordinates": [
                    21.333407334559958,
                    50.43304446303155
                ]
            }
        },
        {
            "type": "Feature",
            "properties": {
                "ref:csioz": 1003379,
                "name": "Jaśminowa",
                "addr:street": "Stefana Czarnieckiego",
                "addr:housenumber": "1",
                "addr:flats": "1",
                "addr:city": "Połaniec",
                "addr:postcode": "28-230",
                "amenity": "pharmacy"
            },
            "geometry": {
                "type": "Point",
                "coordinates": [
                    21.274958541113715,
                    50.4295495821567
                ]
            }
        },
        {
            "type": "Feature",
            "properties": {
                "ref:csioz": 1213708,
                "name": "Apfarm",
                "addr:street": "Tadeusza Kościuszki",
                "addr:housenumber": "41",
                "addr:city": "Połaniec",
                "addr:postcode": "28-230",
                "amenity": "pharmacy"
            },
            "geometry": {
                "type": "Point",
                "coordinates": [
                    21.282773526463192,
                    50.428016788386316
                ]
            }
        },
        {
            "type": "Feature",
            "properties": {
                "ref:csioz": 1221433,
                "name": "Apteka Przy Poczcie",
                "addr:street": "Krakowska",
                "addr:housenumber": "3A",
                "addr:city": "Połaniec",
                "addr:postcode": "28-230",
                "amenity": "pharmacy"
            },
            "geometry": {
                "type": "Point",
                "coordinates": [
                    21.27526560844183,
                    50.431413745604
                ]
            }
        },
        {
            "type": "Feature",
            "properties": {
                "ref:csioz": 1135037,
                "name": "\"Punkt Apteczny \"\"Nad Potokiem\"\"\"",
                "addr:housenumber": "70",
                "addr:flats": "2",
                "addr:city": "Strzelce",
                "addr:postcode": "58-124",
                "amenity": "pharmacy"
            },
            "geometry": {
                "type": "Point",
                "coordinates": [
                    21.035168452512806,
                    50.47319992741363
                ]
            }
        }
    ]
}