{
    "type": "FeatureCollection",
    "name": "JPT_KOD_JE_0265",
    "crs": {
        "type": "name",
        "properties": {
            "name": "urn:ogc:def:crs:EPSG::4326"
        }
    },
    "features": [
        {
            "type": "Feature",
            "properties": {
                "ref:csioz": 1133728,
                "name": "Pod Arkadami",
                "addr:street": "Główna",
                "addr:housenumber": "11",
                "addr:city": "Wałbrzych",
                "addr:postcode": "58-309",
                "amenity": "pharmacy"
            },
            "geometry": {
                "type": "Point",
                "coordinates": [
                    16.2832424990113,
                    50.80875078483228
                ]
            }
        },
        {
            "type": "Feature",
            "properties": {
                "ref:csioz": 1133777,
                "name": "Astra",
                "addr:street": "Jana Pawła II",
                "addr:housenumber": "3f",
                "addr:city": "Wałbrzych",
                "addr:postcode": "58-314",
                "amenity": "pharmacy"
            },
            "geometry": {
                "type": "Point",
                "coordinates": [
                    16.276821703856847,
                    50.823203067461705
                ]
            }
        },
        {
            "type": "Feature",
            "properties": {
                "ref:csioz": 1133819,
                "name": "Doz Apteka. Dbam O Zdrowie. Familia",
                "addr:street": "Henryka Wieniawskiego",
                "addr:housenumber": "19",
                "addr:city": "Wałbrzych",
                "addr:postcode": "58-300",
                "amenity": "pharmacy"
            },
            "geometry": {
                "type": "Point",
                "coordinates": [
                    16.289365968028765,
                    50.822222982499284
                ]
            }
        },
        {
            "type": "Feature",
            "properties": {
                "ref:csioz": 1134033,
                "name": "Apteka Rusinova",
                "addr:street": "Głuszycka",
                "addr:housenumber": "82",
                "addr:city": "Wałbrzych",
                "addr:postcode": "58-308",
                "amenity": "pharmacy"
            },
            "geometry": {
                "type": "Point",
                "coordinates": [
                    16.336899941925275,
                    50.760208041194126
                ]
            }
        },
        {
            "type": "Feature",
            "properties": {
                "ref:csioz": 1134200,
                "name": "Apteka Złota",
                "addr:street": "1-go Maja",
                "addr:housenumber": "121",
                "addr:city": "Wałbrzych",
                "addr:postcode": "58-305",
                "amenity": "pharmacy"
            },
            "geometry": {
                "type": "Point",
                "coordinates": [
                    16.246178999986675,
                    50.76413500001367
                ]
            }
        },
        {
            "type": "Feature",
            "properties": {
                "ref:csioz": 1134245,
                "name": "Djol 2",
                "addr:street": "Piotra Wysockiego",
                "addr:housenumber": "26B",
                "addr:city": "Wałbrzych",
                "addr:postcode": "58-304",
                "amenity": "pharmacy"
            },
            "geometry": {
                "type": "Point",
                "coordinates": [
                    16.26382371815857,
                    50.77253700297924
                ]
            }
        },
        {
            "type": "Feature",
            "properties": {
                "ref:csioz": 1134581,
                "name": "Dworcowa",
                "addr:street": "Listopada",
                "addr:housenumber": "1-3",
                "addr:city": "Wałbrzych",
                "addr:postcode": "58-302",
                "amenity": "pharmacy"
            },
            "geometry": {
                "type": "Point",
                "coordinates": [
                    16.28605899998761,
                    50.7844250000137
                ]
            }
        },
        {
            "type": "Feature",
            "properties": {
                "ref:csioz": 1135672,
                "name": "Nzoz Poradnia Opieki Hospicyjno-Paliatywnej",
                "addr:street": "Krasińskiego",
                "addr:housenumber": "8",
                "addr:city": "Wałbrzych",
                "addr:postcode": "58-309",
                "amenity": "pharmacy"
            },
            "geometry": {
                "type": "Point",
                "coordinates": [
                    16.284571120398045,
                    50.80682490391169
                ]
            }
        },
        {
            "type": "Feature",
            "properties": {
                "ref:csioz": 1136890,
                "name": "Hebeapteka",
                "addr:street": "Wyzwolenia",
                "addr:housenumber": "44",
                "addr:city": "Wałbrzych",
                "addr:postcode": "58-300",
                "amenity": "pharmacy"
            },
            "geometry": {
                "type": "Point",
                "coordinates": [
                    16.2841628620929,
                    50.767975153306544
                ]
            }
        },
        {
            "type": "Feature",
            "properties": {
                "ref:csioz": 1137306,
                "name": "Apteka Silesia 5",
                "addr:street": "Główna",
                "addr:housenumber": "10",
                "addr:city": "Wałbrzych",
                "addr:postcode": "58-309",
                "amenity": "pharmacy"
            },
            "geometry": {
                "type": "Point",
                "coordinates": [
                    16.282528992783245,
                    50.808395511640775
                ]
            }
        },
        {
            "type": "Feature",
            "properties": {
                "ref:csioz": 1137628,
                "name": "Apteka Dr. Optima",
                "addr:street": "Grodzka",
                "addr:housenumber": "56",
                "addr:city": "Wałbrzych",
                "addr:postcode": "58-316",
                "amenity": "pharmacy"
            },
            "geometry": {
                "type": "Point",
                "coordinates": [
                    16.27514206505576,
                    50.822890862876264
                ]
            }
        },
        {
            "type": "Feature",
            "properties": {
                "ref:csioz": 1160554,
                "addr:street": "Adama Mickiewicza",
                "addr:housenumber": "28",
                "addr:city": "Wałbrzych",
                "addr:postcode": "58-300",
                "amenity": "pharmacy"
            },
            "geometry": {
                "type": "Point",
                "coordinates": [
                    16.283635062836655,
                    50.763256145009144
                ]
            }
        },
        {
            "type": "Feature",
            "properties": {
                "ref:csioz": 1160579,
                "name": "Piastowska",
                "addr:street": "Bolesława Chrobrego",
                "addr:housenumber": "1",
                "addr:city": "Wałbrzych",
                "addr:postcode": "58-300",
                "amenity": "pharmacy"
            },
            "geometry": {
                "type": "Point",
                "coordinates": [
                    16.277147220073804,
                    50.771295929806485
                ]
            }
        },
        {
            "type": "Feature",
            "properties": {
                "ref:csioz": 1160587,
                "name": "Agawa",
                "addr:street": "Rynek",
                "addr:housenumber": "3-4",
                "addr:city": "Wałbrzych",
                "addr:postcode": "58-300",
                "amenity": "pharmacy"
            },
            "geometry": {
                "type": "Point",
                "coordinates": [
                    16.282405500599072,
                    50.766237586544975
                ]
            }
        },
        {
            "type": "Feature",
            "properties": {
                "ref:csioz": 1160675,
                "name": "Doz Apteka. Dbam O Zdrowie. Familia",
                "addr:street": "Gen. Władysława Andersa",
                "addr:housenumber": "152",
                "addr:city": "Wałbrzych",
                "addr:postcode": "58-304",
                "amenity": "pharmacy"
            },
            "geometry": {
                "type": "Point",
                "coordinates": [
                    16.254564456364147,
                    50.791602145367364
                ]
            }
        },
        {
            "type": "Feature",
            "properties": {
                "ref:csioz": 1160731,
                "name": "Doz Apteka. Dbam O Zdrowie. Na Dobre I Na Złe",
                "addr:street": "Kasztelańska",
                "addr:housenumber": "1",
                "addr:city": "Wałbrzych",
                "addr:postcode": "58-314",
                "amenity": "pharmacy"
            },
            "geometry": {
                "type": "Point",
                "coordinates": [
                    16.27209056763671,
                    50.819080635181564
                ]
            }
        },
        {
            "type": "Feature",
            "properties": {
                "ref:csioz": 1160744,
                "name": "Oazowa",
                "addr:street": "Grodzka",
                "addr:housenumber": "32",
                "addr:city": "Wałbrzych",
                "addr:postcode": "58-314",
                "amenity": "pharmacy"
            },
            "geometry": {
                "type": "Point",
                "coordinates": [
                    16.27248618710984,
                    50.82178312591039
                ]
            }
        },
        {
            "type": "Feature",
            "properties": {
                "ref:csioz": 1160753,
                "name": "Doz Apteka. Dbam O Zdrowie.Na Dobre I Na Złe",
                "addr:street": "Grodzka",
                "addr:housenumber": "75c",
                "addr:city": "Wałbrzych",
                "addr:postcode": "58-314",
                "amenity": "pharmacy"
            },
            "geometry": {
                "type": "Point",
                "coordinates": [
                    16.27631079035705,
                    50.82351720491788
                ]
            }
        },
        {
            "type": "Feature",
            "properties": {
                "ref:csioz": 1160691,
                "name": "Apteka Gemini",
                "addr:street": "Główna",
                "addr:housenumber": "7",
                "addr:city": "Wałbrzych",
                "addr:postcode": "58-309",
                "amenity": "pharmacy"
            },
            "geometry": {
                "type": "Point",
                "coordinates": [
                    16.284344324596738,
                    50.80878352067362
                ]
            }
        },
        {
            "type": "Feature",
            "properties": {
                "ref:csioz": 1165612,
                "name": "Verbena",
                "addr:street": "Kusocińskiego",
                "addr:housenumber": "21 B",
                "addr:city": "Wałbrzych",
                "addr:postcode": "58-309",
                "amenity": "pharmacy"
            },
            "geometry": {
                "type": "Point",
                "coordinates": [
                    16.27872205683038,
                    50.80800936317978
                ]
            }
        },
        {
            "type": "Feature",
            "properties": {
                "ref:csioz": 1188042,
                "name": "Apteka Silesia 6",
                "addr:street": "Bolesława Chrobrego",
                "addr:housenumber": "2",
                "addr:city": "Wałbrzych",
                "addr:postcode": "58-300",
                "amenity": "pharmacy"
            },
            "geometry": {
                "type": "Point",
                "coordinates": [
                    16.27693066336657,
                    50.771111391289516
                ]
            }
        },
        {
            "type": "Feature",
            "properties": {
                "ref:csioz": 1214924,
                "name": "Apteka Społeczna Na Wyzwolenia Grupa Nowa Farmacja",
                "addr:street": "al. Wyzwolenia",
                "addr:housenumber": "4",
                "addr:city": "Wałbrzych",
                "addr:postcode": "58-300",
                "amenity": "pharmacy"
            },
            "geometry": {
                "type": "Point",
                "coordinates": [
                    16.277979609249407,
                    50.770953178420335
                ]
            }
        },
        {
            "type": "Feature",
            "properties": {
                "ref:csioz": 1134352,
                "name": "Piaskowa Góra",
                "addr:street": "Główna",
                "addr:housenumber": "4",
                "addr:city": "Wałbrzych",
                "addr:postcode": "58-309",
                "amenity": "pharmacy"
            },
            "geometry": {
                "type": "Point",
                "coordinates": [
                    16.284774916557048,
                    50.8083422076658
                ]
            }
        },
        {
            "type": "Feature",
            "properties": {
                "ref:csioz": 1133598,
                "name": "Jadeit",
                "addr:street": "Szymona Fabiana",
                "addr:housenumber": "28",
                "addr:city": "Wałbrzych",
                "addr:postcode": "58-300",
                "amenity": "pharmacy"
            },
            "geometry": {
                "type": "Point",
                "coordinates": [
                    16.303655589818376,
                    50.82565132538169
                ]
            }
        },
        {
            "type": "Feature",
            "properties": {
                "ref:csioz": 1133522,
                "name": "Apteka Lawenda",
                "addr:street": "Marii Konopnickiej",
                "addr:housenumber": "5a",
                "addr:city": "Wałbrzych",
                "addr:postcode": "58-300",
                "amenity": "pharmacy"
            },
            "geometry": {
                "type": "Point",
                "coordinates": [
                    16.275565039491344,
                    50.7704794767534
                ]
            }
        },
        {
            "type": "Feature",
            "properties": {
                "ref:csioz": 1133533,
                "name": "Apteka Na Rozdrożu",
                "addr:street": "1 Maja",
                "addr:housenumber": "18",
                "addr:city": "Wałbrzych",
                "addr:postcode": "58-300",
                "amenity": "pharmacy"
            },
            "geometry": {
                "type": "Point",
                "coordinates": [
                    16.27822488658123,
                    50.76508056741334
                ]
            }
        },
        {
            "type": "Feature",
            "properties": {
                "ref:csioz": 1133923,
                "name": "Szwedzka",
                "addr:street": "Hetmańska",
                "addr:housenumber": "80H",
                "addr:city": "Wałbrzych",
                "addr:postcode": "58-316",
                "amenity": "pharmacy"
            },
            "geometry": {
                "type": "Point",
                "coordinates": [
                    16.270698957067342,
                    50.823752424859094
                ]
            }
        },
        {
            "type": "Feature",
            "properties": {
                "ref:csioz": 1133972,
                "name": "Malva",
                "addr:street": "Niepodległości",
                "addr:housenumber": "160",
                "addr:city": "Wałbrzych",
                "addr:postcode": "58-303",
                "amenity": "pharmacy"
            },
            "geometry": {
                "type": "Point",
                "coordinates": [
                    16.288431331216145,
                    50.74330356681811
                ]
            }
        },
        {
            "type": "Feature",
            "properties": {
                "ref:csioz": 1134173,
                "name": "Apteka Prima",
                "addr:street": "Palisadowa",
                "addr:housenumber": "15",
                "addr:city": "Wałbrzych",
                "addr:postcode": "58-316",
                "amenity": "pharmacy"
            },
            "geometry": {
                "type": "Point",
                "coordinates": [
                    16.277537999987473,
                    50.824750000013765
                ]
            }
        },
        {
            "type": "Feature",
            "properties": {
                "ref:csioz": 1135760,
                "name": "Apteka Prima",
                "addr:street": "Piłsudskiego",
                "addr:housenumber": "100",
                "addr:city": "Wałbrzych",
                "addr:postcode": "58-301",
                "amenity": "pharmacy"
            },
            "geometry": {
                "type": "Point",
                "coordinates": [
                    16.299605294085136,
                    50.77287701568163
                ]
            }
        },
        {
            "type": "Feature",
            "properties": {
                "ref:csioz": 1135783,
                "name": "Ap",
                "addr:street": "1 Maja",
                "addr:housenumber": "64",
                "addr:city": "Wałbrzych",
                "addr:postcode": "58-300",
                "amenity": "pharmacy"
            },
            "geometry": {
                "type": "Point",
                "coordinates": [
                    16.26624565492658,
                    50.76603261671966
                ]
            }
        },
        {
            "type": "Feature",
            "properties": {
                "ref:csioz": 1135794,
                "name": "Czerwona Torebka",
                "addr:street": "11 Listopada",
                "addr:housenumber": "87",
                "addr:city": "Wałbrzych",
                "addr:postcode": "58-302",
                "amenity": "pharmacy"
            },
            "geometry": {
                "type": "Point",
                "coordinates": [
                    16.299019222665045,
                    50.777121801612
                ]
            }
        },
        {
            "type": "Feature",
            "properties": {
                "ref:csioz": 1160598,
                "name": "Na Skale",
                "addr:street": "Tadeusza Kościuszki",
                "addr:housenumber": "4-6",
                "addr:city": "Wałbrzych",
                "addr:postcode": "58-300",
                "amenity": "pharmacy"
            },
            "geometry": {
                "type": "Point",
                "coordinates": [
                    16.284110508228277,
                    50.76628562350737
                ]
            }
        },
        {
            "type": "Feature",
            "properties": {
                "ref:csioz": 1160634,
                "name": "Panaceum",
                "addr:street": "Niepodległości",
                "addr:housenumber": "110",
                "addr:city": "Wałbrzych",
                "addr:postcode": "58-303",
                "amenity": "pharmacy"
            },
            "geometry": {
                "type": "Point",
                "coordinates": [
                    16.294225518400253,
                    50.747844752114815
                ]
            }
        },
        {
            "type": "Feature",
            "properties": {
                "ref:csioz": 1160642,
                "name": "Apteka Podgórze",
                "addr:street": "Niepodległości",
                "addr:housenumber": "141",
                "addr:city": "Wałbrzych",
                "addr:postcode": "58-303",
                "amenity": "pharmacy"
            },
            "geometry": {
                "type": "Point",
                "coordinates": [
                    16.295207580852768,
                    50.74919149386418
                ]
            }
        },
        {
            "type": "Feature",
            "properties": {
                "ref:csioz": 1160650,
                "name": "Grodzka",
                "addr:street": "Gen. Władysława Andersa",
                "addr:housenumber": "183",
                "addr:city": "Wałbrzych",
                "addr:postcode": "58-304",
                "amenity": "pharmacy"
            },
            "geometry": {
                "type": "Point",
                "coordinates": [
                    16.25223524734419,
                    50.79571256665561
                ]
            }
        },
        {
            "type": "Feature",
            "properties": {
                "ref:csioz": 1160881,
                "name": "Arnica",
                "addr:street": "Janusza Kusocińskiego",
                "addr:housenumber": "4",
                "addr:city": "Wałbrzych",
                "addr:postcode": "58-309",
                "amenity": "pharmacy"
            },
            "geometry": {
                "type": "Point",
                "coordinates": [
                    16.27868296141289,
                    50.80856260795095
                ]
            }
        },
        {
            "type": "Feature",
            "properties": {
                "ref:csioz": 1161438,
                "name": "Szpital Ginekologii I Położnictwa",
                "addr:street": "Paderewskiego",
                "addr:housenumber": "10",
                "addr:city": "Wałbrzych",
                "addr:postcode": "58-301",
                "amenity": "pharmacy"
            },
            "geometry": {
                "type": "Point",
                "coordinates": [
                    16.290646040694245,
                    50.7716183288797
                ]
            }
        },
        {
            "type": "Feature",
            "properties": {
                "ref:csioz": 1174545,
                "name": "Specjalistyczny Szpital Im. Dra Alfreda Sokołowskiego W Wałbrzychu",
                "addr:street": "Alfreda Sokołowskiego",
                "addr:housenumber": "4",
                "addr:city": "Wałbrzych",
                "addr:postcode": "58-309",
                "amenity": "pharmacy"
            },
            "geometry": {
                "type": "Point",
                "coordinates": [
                    16.27748915765248,
                    50.80167209122489
                ]
            }
        },
        {
            "type": "Feature",
            "properties": {
                "ref:csioz": 1198184,
                "name": "Magnolia",
                "addr:street": "marsz. Józefa Piłsudskiego",
                "addr:housenumber": "55",
                "addr:city": "Wałbrzych",
                "addr:postcode": "58-310",
                "amenity": "pharmacy"
            },
            "geometry": {
                "type": "Point",
                "coordinates": [
                    16.294446830556392,
                    50.77187513567357
                ]
            }
        },
        {
            "type": "Feature",
            "properties": {
                "ref:csioz": 1206722,
                "name": "Apteka Silesia 8",
                "addr:street": "Jana Pawła II",
                "addr:housenumber": "3",
                "addr:city": "Wałbrzych",
                "addr:postcode": "58-316",
                "amenity": "pharmacy"
            },
            "geometry": {
                "type": "Point",
                "coordinates": [
                    16.279800026018602,
                    50.773556343049115
                ]
            }
        },
        {
            "type": "Feature",
            "properties": {
                "ref:csioz": 1207675,
                "name": "Apteka Aqua",
                "addr:street": "Bystrzycka",
                "addr:housenumber": "2",
                "addr:city": "Wałbrzych",
                "addr:postcode": "58-308",
                "amenity": "pharmacy"
            },
            "geometry": {
                "type": "Point",
                "coordinates": [
                    16.338004699718194,
                    50.761679244935124
                ]
            }
        },
        {
            "type": "Feature",
            "properties": {
                "ref:csioz": 1221984,
                "name": "Nasza Apteka",
                "addr:street": "Melchiora Wańkowicza",
                "addr:housenumber": "2",
                "addr:city": "Wałbrzych",
                "addr:postcode": "58-304",
                "amenity": "pharmacy"
            },
            "geometry": {
                "type": "Point",
                "coordinates": [
                    16.25455164077207,
                    50.79233140065741
                ]
            }
        },
        {
            "type": "Feature",
            "properties": {
                "ref:csioz": 1228930,
                "name": "Dział Farmacji Szpitalnej",
                "addr:street": "Bolesława Chrobrego",
                "addr:housenumber": "31",
                "addr:city": "Wałbrzych",
                "addr:postcode": "58-300",
                "amenity": "pharmacy"
            },
            "geometry": {
                "type": "Point",
                "coordinates": [
                    16.274983572873175,
                    50.77410707462601
                ]
            }
        },
        {
            "type": "Feature",
            "properties": {
                "ref:csioz": 1175332,
                "name": "Ok",
                "addr:street": "Mazowiecka",
                "addr:housenumber": "3",
                "addr:city": "Wałbrzych",
                "addr:postcode": "58-300",
                "amenity": "pharmacy"
            },
            "geometry": {
                "type": "Point",
                "coordinates": [
                    16.273020402003105,
                    50.77493190168387
                ]
            }
        },
        {
            "type": "Feature",
            "properties": {
                "ref:csioz": 1133744,
                "name": "Dr. Max",
                "addr:street": "Długa",
                "addr:housenumber": "4b",
                "addr:city": "Wałbrzych",
                "addr:postcode": "58-309",
                "amenity": "pharmacy"
            },
            "geometry": {
                "type": "Point",
                "coordinates": [
                    16.27922506957201,
                    50.81228513732235
                ]
            }
        },
        {
            "type": "Feature",
            "properties": {
                "ref:csioz": 1160603,
                "name": "\"Apteka \"\"Wiktoriańska\"\"\"",
                "addr:street": "Marsz. Józefa Piłsudskiego",
                "addr:housenumber": "45",
                "addr:city": "Wałbrzych",
                "addr:postcode": "58-301",
                "amenity": "pharmacy"
            },
            "geometry": {
                "type": "Point",
                "coordinates": [
                    16.293124132709693,
                    50.771575415159816
                ]
            }
        }
    ]
}