{
    "type": "FeatureCollection",
    "name": "JPT_KOD_JE_1820",
    "features": [
        {
            "type": "Feature",
            "properties": {
                "ref:csioz": 1175530,
                "name": "Apteka Etiuda",
                "addr:street": "3 Maja",
                "addr:housenumber": "8",
                "addr:city": "Gorzyce",
                "addr:postcode": "39-432",
                "amenity": "pharmacy"
            },
            "geometry": {
                "type": "Point",
                "coordinates": [
                    21.844885074093177,
                    50.658281739579884
                ]
            }
        },
        {
            "type": "Feature",
            "properties": {
                "ref:csioz": 1200304,
                "name": "Apteka Nova",
                "addr:street": "por. Sarny",
                "addr:housenumber": "2",
                "addr:city": "Gorzyce",
                "addr:postcode": "39-432",
                "amenity": "pharmacy"
            },
            "geometry": {
                "type": "Point",
                "coordinates": [
                    21.844014998747735,
                    50.65913402271576
                ]
            }
        },
        {
            "type": "Feature",
            "properties": {
                "ref:csioz": 1143887,
                "addr:street": "Rynek",
                "addr:housenumber": "23",
                "addr:city": "Baranów Sandomierski",
                "addr:postcode": "39-450",
                "amenity": "pharmacy"
            },
            "geometry": {
                "type": "Point",
                "coordinates": [
                    21.54249262712667,
                    50.49943719742719
                ]
            }
        },
        {
            "type": "Feature",
            "properties": {
                "ref:csioz": 1143904,
                "addr:street": "Józefa Piłsudskiego",
                "addr:housenumber": "17",
                "addr:city": "Gorzyce",
                "addr:postcode": "39-432",
                "amenity": "pharmacy"
            },
            "geometry": {
                "type": "Point",
                "coordinates": [
                    21.840293926430856,
                    50.66299686875225
                ]
            }
        },
        {
            "type": "Feature",
            "properties": {
                "ref:csioz": 1143912,
                "addr:street": "por. Sarny",
                "addr:housenumber": "5",
                "addr:city": "Gorzyce",
                "addr:postcode": "39-432",
                "amenity": "pharmacy"
            },
            "geometry": {
                "type": "Point",
                "coordinates": [
                    21.84316609804173,
                    50.65913190587384
                ]
            }
        },
        {
            "type": "Feature",
            "properties": {
                "ref:csioz": 1165334,
                "addr:street": "Księdza Michalca",
                "addr:housenumber": "2",
                "addr:city": "Trześń",
                "addr:postcode": "39-432",
                "amenity": "pharmacy"
            },
            "geometry": {
                "type": "Point",
                "coordinates": [
                    21.782569284429034,
                    50.65501515955323
                ]
            }
        },
        {
            "type": "Feature",
            "properties": {
                "ref:csioz": 1165342,
                "name": "Punkt Apteczny Rodzinny",
                "addr:housenumber": "89",
                "addr:city": "Stale",
                "addr:postcode": "39-400",
                "amenity": "pharmacy"
            },
            "geometry": {
                "type": "Point",
                "coordinates": [
                    21.74415677244858,
                    50.56074210885127
                ]
            }
        },
        {
            "type": "Feature",
            "properties": {
                "ref:csioz": 1216973,
                "name": "Apteka Serdeczna",
                "addr:street": "Fabryczna",
                "addr:housenumber": "4",
                "addr:city": "Baranów Sandomierski",
                "addr:postcode": "39-450",
                "amenity": "pharmacy"
            },
            "geometry": {
                "type": "Point",
                "coordinates": [
                    21.541770199124397,
                    50.498796910337376
                ]
            }
        },
        {
            "type": "Feature",
            "properties": {
                "ref:csioz": 1228698,
                "addr:street": "Kolejowa",
                "addr:housenumber": "5",
                "addr:city": "Chmielów",
                "addr:postcode": "39-442",
                "amenity": "pharmacy"
            },
            "geometry": {
                "type": "Point",
                "coordinates": [
                    21.66978387500879,
                    50.51672382781104
                ]
            }
        },
        {
            "type": "Feature",
            "properties": {
                "ref:csioz": 1143920,
                "name": "Izabela",
                "addr:street": "Rynek",
                "addr:housenumber": "1E",
                "addr:city": "Grębów",
                "addr:postcode": "39-410",
                "amenity": "pharmacy"
            },
            "geometry": {
                "type": "Point",
                "coordinates": [
                    21.874920893912492,
                    50.565151881505415
                ]
            }
        },
        {
            "type": "Feature",
            "properties": {
                "ref:csioz": 1143936,
                "name": "Rodzinna",
                "addr:street": "Rynek",
                "addr:housenumber": "31",
                "addr:city": "Grębów",
                "addr:postcode": "39-410",
                "amenity": "pharmacy"
            },
            "geometry": {
                "type": "Point",
                "coordinates": [
                    21.87618397697946,
                    50.564989876224416
                ]
            }
        },
        {
            "type": "Feature",
            "properties": {
                "ref:csioz": 1144012,
                "name": "Rumianek",
                "addr:housenumber": "36",
                "addr:city": "Ślęzaki",
                "addr:postcode": "39-450",
                "amenity": "pharmacy"
            },
            "geometry": {
                "type": "Point",
                "coordinates": [
                    21.637158708332823,
                    50.470205043169976
                ]
            }
        },
        {
            "type": "Feature",
            "properties": {
                "ref:csioz": 1143948,
                "name": "Twoje Leki",
                "addr:street": "Aleja Zwycięstwa",
                "addr:housenumber": "3",
                "addr:flats": "37",
                "addr:city": "Nowa Dęba",
                "addr:postcode": "39-460",
                "amenity": "pharmacy"
            },
            "geometry": {
                "type": "Point",
                "coordinates": [
                    21.75118039773064,
                    50.415183155067865
                ]
            }
        },
        {
            "type": "Feature",
            "properties": {
                "ref:csioz": 1143957,
                "name": "4 Pory Roku",
                "addr:street": "Tadeusza Kościuszki",
                "addr:housenumber": "1",
                "addr:city": "Nowa Dęba",
                "addr:postcode": "39-460",
                "amenity": "pharmacy"
            },
            "geometry": {
                "type": "Point",
                "coordinates": [
                    21.748926625610977,
                    50.418923541039874
                ]
            }
        },
        {
            "type": "Feature",
            "properties": {
                "ref:csioz": 1143961,
                "name": "Centrum",
                "addr:street": "Jana Pawła II",
                "addr:housenumber": "18F",
                "addr:city": "Nowa Dęba",
                "addr:postcode": "39-460",
                "amenity": "pharmacy"
            },
            "geometry": {
                "type": "Point",
                "coordinates": [
                    21.752040325527197,
                    50.416089512168234
                ]
            }
        },
        {
            "type": "Feature",
            "properties": {
                "ref:csioz": 1143973,
                "addr:street": "Rzeszowska",
                "addr:housenumber": "5",
                "addr:city": "Nowa Dęba",
                "addr:postcode": "39-460",
                "amenity": "pharmacy"
            },
            "geometry": {
                "type": "Point",
                "coordinates": [
                    21.753515243728778,
                    50.41373836472859
                ]
            }
        },
        {
            "type": "Feature",
            "properties": {
                "ref:csioz": 1184805,
                "name": "Różana",
                "addr:street": "Aleja Zwycięstwa",
                "addr:housenumber": "1b",
                "addr:flats": "22",
                "addr:city": "Nowa Dęba",
                "addr:postcode": "39-460",
                "amenity": "pharmacy"
            },
            "geometry": {
                "type": "Point",
                "coordinates": [
                    21.75230363205456,
                    50.41526605804274
                ]
            }
        },
        {
            "type": "Feature",
            "properties": {
                "ref:csioz": 1198486,
                "name": "Apteka Nova",
                "addr:street": "Jasna",
                "addr:housenumber": "7",
                "addr:city": "Nowa Dęba",
                "addr:postcode": "39-460",
                "amenity": "pharmacy"
            },
            "geometry": {
                "type": "Point",
                "coordinates": [
                    21.754931432061813,
                    50.41415485961235
                ]
            }
        },
        {
            "type": "Feature",
            "properties": {
                "ref:csioz": 1230377,
                "addr:street": "Marii Skłodowskiej-Curie",
                "addr:housenumber": "1A",
                "addr:city": "Nowa Dęba",
                "addr:postcode": "39-460",
                "amenity": "pharmacy"
            },
            "geometry": {
                "type": "Point",
                "coordinates": [
                    21.755715269002433,
                    50.42099839986489
                ]
            }
        },
        {
            "type": "Feature",
            "properties": {
                "ref:csioz": 1230752,
                "addr:street": "Wschodnia",
                "addr:housenumber": "10",
                "addr:city": "Wola Baranowska",
                "addr:postcode": "39-451",
                "amenity": "pharmacy"
            },
            "geometry": {
                "type": "Point",
                "coordinates": [
                    21.56775181470116,
                    50.46163340645943
                ]
            }
        }
    ]
}