{
    "type": "FeatureCollection",
    "name": "JPT_KOD_JE_1421",
    "crs": {
        "type": "name",
        "properties": {
            "name": "urn:ogc:def:crs:EPSG::4326"
        }
    },
    "features": [
        {
            "type": "Feature",
            "properties": {
                "ref:csioz": 1115250,
                "addr:street": "Wiejska",
                "addr:housenumber": "2",
                "addr:city": "Brwinów",
                "addr:postcode": "05-840",
                "amenity": "pharmacy"
            },
            "geometry": {
                "type": "Point",
                "coordinates": [
                    20.717952066349902,
                    52.14245097769088
                ]
            }
        },
        {
            "type": "Feature",
            "properties": {
                "ref:csioz": 1204558,
                "name": "Goldenfarm Złoty Standard Opieki",
                "addr:street": "Rynek",
                "addr:housenumber": "5",
                "addr:city": "Brwinów",
                "addr:postcode": "05-840",
                "amenity": "pharmacy"
            },
            "geometry": {
                "type": "Point",
                "coordinates": [
                    20.71638351248524,
                    52.14248474700779
                ]
            }
        },
        {
            "type": "Feature",
            "properties": {
                "ref:csioz": 1183148,
                "name": "Chc No 1",
                "addr:street": "Armii Krajowej",
                "addr:housenumber": "3",
                "addr:flats": "10",
                "addr:city": "Brwinów",
                "addr:postcode": "05-840",
                "amenity": "pharmacy"
            },
            "geometry": {
                "type": "Point",
                "coordinates": [
                    20.715658526798585,
                    52.144618018392904
                ]
            }
        },
        {
            "type": "Feature",
            "properties": {
                "ref:csioz": 1229505,
                "name": "Goldenfarm",
                "addr:street": "Żółwińska",
                "addr:housenumber": "27B",
                "addr:city": "Owczarnia",
                "addr:postcode": "05-807",
                "amenity": "pharmacy"
            },
            "geometry": {
                "type": "Point",
                "coordinates": [
                    20.71119537779208,
                    52.113636228198864
                ]
            }
        },
        {
            "type": "Feature",
            "properties": {
                "ref:csioz": 1088820,
                "name": "Dr. Max",
                "addr:street": "Mszczonowska",
                "addr:housenumber": "3",
                "addr:city": "Janki",
                "addr:postcode": "05-090",
                "amenity": "pharmacy"
            },
            "geometry": {
                "type": "Point",
                "coordinates": [
                    20.889825081519113,
                    52.13535502502668
                ]
            }
        },
        {
            "type": "Feature",
            "properties": {
                "ref:csioz": 1119726,
                "name": "Tonika",
                "addr:street": "Szwedzki",
                "addr:housenumber": "3",
                "addr:flats": "33",
                "addr:city": "Janki",
                "addr:postcode": "05-090",
                "amenity": "pharmacy"
            },
            "geometry": {
                "type": "Point",
                "coordinates": [
                    20.897383758424642,
                    52.13472591543272
                ]
            }
        },
        {
            "type": "Feature",
            "properties": {
                "ref:csioz": 1199206,
                "name": "Falenty",
                "addr:street": "Zygmunta Opackiego",
                "addr:housenumber": "17",
                "addr:city": "Falenty",
                "addr:postcode": "05-090",
                "amenity": "pharmacy"
            },
            "geometry": {
                "type": "Point",
                "coordinates": [
                    20.923249351235576,
                    52.136598730733965
                ]
            }
        },
        {
            "type": "Feature",
            "properties": {
                "ref:csioz": 1004384,
                "addr:housenumber": "27",
                "addr:city": "Stara Wieś",
                "addr:postcode": "26-010",
                "amenity": "pharmacy"
            },
            "geometry": {
                "type": "Point",
                "coordinates": [
                    20.765538246084958,
                    52.090848046182295
                ]
            }
        },
        {
            "type": "Feature",
            "properties": {
                "ref:csioz": 1089650,
                "name": "Medincus",
                "addr:street": "Mokra",
                "addr:housenumber": "1",
                "addr:city": "Kajetany",
                "addr:postcode": "05-830",
                "amenity": "pharmacy"
            },
            "geometry": {
                "type": "Point",
                "coordinates": [
                    20.820728000001964,
                    52.09764100001562
                ]
            }
        },
        {
            "type": "Feature",
            "properties": {
                "ref:csioz": 1098543,
                "name": "Światowe Centrum Słuchu - Szpital Instytutu Fizjologii I Patologii Słuchu",
                "addr:street": "Mokra",
                "addr:housenumber": "17",
                "addr:city": "Kajetany",
                "addr:postcode": "05-830",
                "amenity": "pharmacy"
            },
            "geometry": {
                "type": "Point",
                "coordinates": [
                    20.82345297019732,
                    52.096523985176326
                ]
            }
        },
        {
            "type": "Feature",
            "properties": {
                "ref:csioz": 1179237,
                "name": "Cuantum",
                "addr:street": "Długa",
                "addr:housenumber": "52",
                "addr:city": "Łady",
                "addr:postcode": "05-090",
                "amenity": "pharmacy"
            },
            "geometry": {
                "type": "Point",
                "coordinates": [
                    20.953585363988037,
                    52.1249788007026
                ]
            }
        },
        {
            "type": "Feature",
            "properties": {
                "ref:csioz": 1118073,
                "name": "Centralna",
                "addr:street": "Niecała",
                "addr:housenumber": "2",
                "addr:city": "Pruszków",
                "addr:postcode": "05-800",
                "amenity": "pharmacy"
            },
            "geometry": {
                "type": "Point",
                "coordinates": [
                    20.80655624552644,
                    52.16480911420464
                ]
            }
        },
        {
            "type": "Feature",
            "properties": {
                "ref:csioz": 1208495,
                "name": "Przy Szpitalu",
                "addr:street": "Armii Krajowej",
                "addr:housenumber": "2/4",
                "addr:city": "Pruszków",
                "addr:postcode": "05-800",
                "amenity": "pharmacy"
            },
            "geometry": {
                "type": "Point",
                "coordinates": [
                    20.82723920180791,
                    52.16963442615769
                ]
            }
        },
        {
            "type": "Feature",
            "properties": {
                "ref:csioz": 1088848,
                "name": "Apteka Centralna",
                "addr:street": "Jesionowa",
                "addr:housenumber": "40",
                "addr:city": "Michałowice",
                "addr:postcode": "05-816",
                "amenity": "pharmacy"
            },
            "geometry": {
                "type": "Point",
                "coordinates": [
                    20.88087551032297,
                    52.17422013227882
                ]
            }
        },
        {
            "type": "Feature",
            "properties": {
                "ref:csioz": 1088939,
                "name": "Doz. Dbam O Zdrowie. Pruszków",
                "addr:street": "Wojska Polskiego",
                "addr:housenumber": "16A",
                "addr:city": "Pruszków",
                "addr:postcode": "05-800",
                "amenity": "pharmacy"
            },
            "geometry": {
                "type": "Point",
                "coordinates": [
                    20.80406435127645,
                    52.1638445218755
                ]
            }
        },
        {
            "type": "Feature",
            "properties": {
                "ref:csioz": 1090253,
                "name": "Na Lwowskiej",
                "addr:street": "Lwowska",
                "addr:housenumber": "1B",
                "addr:city": "Piastów",
                "addr:postcode": "05-820",
                "amenity": "pharmacy"
            },
            "geometry": {
                "type": "Point",
                "coordinates": [
                    20.83826833142265,
                    52.19426590476351
                ]
            }
        },
        {
            "type": "Feature",
            "properties": {
                "ref:csioz": 1090527,
                "name": "Grafitowa",
                "addr:street": "Ołówkowa",
                "addr:housenumber": "1D/98",
                "addr:city": "Pruszków",
                "addr:postcode": "05-800",
                "amenity": "pharmacy"
            },
            "geometry": {
                "type": "Point",
                "coordinates": [
                    20.79788000000187,
                    52.167160000015734
                ]
            }
        },
        {
            "type": "Feature",
            "properties": {
                "ref:csioz": 1098570,
                "name": "Samodzielny Publiczny Zespół Zakładów Opieki Zdrowotnej W Pruszkowie Szpital Powiatowy",
                "addr:street": "Armii Krajowej",
                "addr:housenumber": "2/4",
                "addr:city": "Pruszków",
                "addr:postcode": "05-800",
                "amenity": "pharmacy"
            },
            "geometry": {
                "type": "Point",
                "coordinates": [
                    20.81890742674671,
                    52.15917359681466
                ]
            }
        },
        {
            "type": "Feature",
            "properties": {
                "ref:csioz": 1098581,
                "name": "Mazowieckie Specjalistyczne Centrum Zdrowia Im. Prof. Jana Mazurkiewicza",
                "addr:street": "Partyzantów",
                "addr:housenumber": "2/4",
                "addr:city": "Pruszków",
                "addr:postcode": "05-802",
                "amenity": "pharmacy"
            },
            "geometry": {
                "type": "Point",
                "coordinates": [
                    20.82723920180791,
                    52.16963442615769
                ]
            }
        },
        {
            "type": "Feature",
            "properties": {
                "ref:csioz": 1113839,
                "name": "Wpr Apteka Andrzeja",
                "addr:street": "Andrzeja",
                "addr:housenumber": "26",
                "addr:city": "Pruszków",
                "addr:postcode": "05-800",
                "amenity": "pharmacy"
            },
            "geometry": {
                "type": "Point",
                "coordinates": [
                    20.81807707108405,
                    52.16006633530365
                ]
            }
        },
        {
            "type": "Feature",
            "properties": {
                "ref:csioz": 1174420,
                "addr:street": "3 Maja",
                "addr:housenumber": "57",
                "addr:city": "Pruszków",
                "addr:postcode": "05-800",
                "amenity": "pharmacy"
            },
            "geometry": {
                "type": "Point",
                "coordinates": [
                    20.80179016459389,
                    52.175968464933355
                ]
            }
        },
        {
            "type": "Feature",
            "properties": {
                "ref:csioz": 1205593,
                "name": "Centralna",
                "addr:street": "Józefa Wybickiego",
                "addr:housenumber": "3",
                "addr:city": "Piastów",
                "addr:postcode": "05-820",
                "amenity": "pharmacy"
            },
            "geometry": {
                "type": "Point",
                "coordinates": [
                    20.837211376727762,
                    52.18398252978524
                ]
            }
        },
        {
            "type": "Feature",
            "properties": {
                "ref:csioz": 1212645,
                "name": "Ziko",
                "addr:street": "Warszawska",
                "addr:housenumber": "43",
                "addr:flats": "D5",
                "addr:city": "Piastów",
                "addr:postcode": "05-820",
                "amenity": "pharmacy"
            },
            "geometry": {
                "type": "Point",
                "coordinates": [
                    20.83875287257598,
                    52.1836712820133
                ]
            }
        },
        {
            "type": "Feature",
            "properties": {
                "ref:csioz": 1215040,
                "name": "Pod Lipami",
                "addr:street": "Józefa Ignacego Kraszewskiego",
                "addr:housenumber": "7",
                "addr:city": "Pruszków",
                "addr:postcode": "05-803",
                "amenity": "pharmacy"
            },
            "geometry": {
                "type": "Point",
                "coordinates": [
                    20.81399424116998,
                    52.16142776832618
                ]
            }
        },
        {
            "type": "Feature",
            "properties": {
                "ref:csioz": 1225042,
                "name": "Centralna",
                "addr:street": "Warsztatowa",
                "addr:housenumber": "1",
                "addr:city": "Pruszków",
                "addr:postcode": "05-800",
                "amenity": "pharmacy"
            },
            "geometry": {
                "type": "Point",
                "coordinates": [
                    20.807011964883152,
                    52.17501499698619
                ]
            }
        },
        {
            "type": "Feature",
            "properties": {
                "ref:csioz": 1088787,
                "addr:street": "Grodziska",
                "addr:housenumber": "7",
                "addr:city": "Brwinów",
                "addr:postcode": "05-840",
                "amenity": "pharmacy"
            },
            "geometry": {
                "type": "Point",
                "coordinates": [
                    20.71627922939717,
                    52.139930826734634
                ]
            }
        },
        {
            "type": "Feature",
            "properties": {
                "ref:csioz": 1088798,
                "name": "Zdrowie",
                "addr:street": "Powstańców Warszawy",
                "addr:housenumber": "10",
                "addr:city": "Brwinów",
                "addr:postcode": "05-840",
                "amenity": "pharmacy"
            },
            "geometry": {
                "type": "Point",
                "coordinates": [
                    20.720101259982076,
                    52.14450417547073
                ]
            }
        },
        {
            "type": "Feature",
            "properties": {
                "ref:csioz": 1088836,
                "name": "Apteka Leśna",
                "addr:street": "Ceglana",
                "addr:housenumber": "2",
                "addr:city": "Komorów",
                "addr:postcode": "05-806",
                "amenity": "pharmacy"
            },
            "geometry": {
                "type": "Point",
                "coordinates": [
                    20.81148148518807,
                    52.15102144734694
                ]
            }
        },
        {
            "type": "Feature",
            "properties": {
                "ref:csioz": 1089005,
                "name": "Dr. Max",
                "addr:street": "Powstańców",
                "addr:housenumber": "17",
                "addr:city": "Pruszków",
                "addr:postcode": "05-804",
                "amenity": "pharmacy"
            },
            "geometry": {
                "type": "Point",
                "coordinates": [
                    20.79384385044658,
                    52.15956384614109
                ]
            }
        },
        {
            "type": "Feature",
            "properties": {
                "ref:csioz": 1090100,
                "name": "Panaceum",
                "addr:street": "Tysiąclecia",
                "addr:housenumber": "2A",
                "addr:city": "Piastów",
                "addr:postcode": "05-820",
                "amenity": "pharmacy"
            },
            "geometry": {
                "type": "Point",
                "coordinates": [
                    20.840947884514982,
                    52.179730045534455
                ]
            }
        },
        {
            "type": "Feature",
            "properties": {
                "ref:csioz": 1113901,
                "name": "Wpr Apteka Ceramiczna",
                "addr:street": "Bolesława Prusa",
                "addr:housenumber": "35A",
                "addr:flats": "18",
                "addr:city": "Pruszków",
                "addr:postcode": "05-800",
                "amenity": "pharmacy"
            },
            "geometry": {
                "type": "Point",
                "coordinates": [
                    20.804586876989376,
                    52.16012450938666
                ]
            }
        },
        {
            "type": "Feature",
            "properties": {
                "ref:csioz": 1115376,
                "addr:street": "mjr. Waleriana Łukasińskiego",
                "addr:housenumber": "25",
                "addr:city": "Piastów",
                "addr:postcode": "05-820",
                "amenity": "pharmacy"
            },
            "geometry": {
                "type": "Point",
                "coordinates": [
                    20.831822000002006,
                    52.19189800001577
                ]
            }
        },
        {
            "type": "Feature",
            "properties": {
                "ref:csioz": 1179148,
                "name": "Żbikowska",
                "addr:street": "3 Maja",
                "addr:housenumber": "27",
                "addr:city": "Pruszków",
                "addr:postcode": "05-800",
                "amenity": "pharmacy"
            },
            "geometry": {
                "type": "Point",
                "coordinates": [
                    20.791792054097833,
                    52.16946214807997
                ]
            }
        },
        {
            "type": "Feature",
            "properties": {
                "ref:csioz": 1088857,
                "name": "Apteka Parkowa",
                "addr:street": "Parkowa",
                "addr:housenumber": "1A",
                "addr:city": "Michałowice",
                "addr:postcode": "05-816",
                "amenity": "pharmacy"
            },
            "geometry": {
                "type": "Point",
                "coordinates": [
                    20.888396748494397,
                    52.172699545442626
                ]
            }
        },
        {
            "type": "Feature",
            "properties": {
                "ref:csioz": 1088885,
                "addr:street": "Aleja Józefa Piłsudskiego",
                "addr:housenumber": "32",
                "addr:city": "Piastów",
                "addr:postcode": "05-820",
                "amenity": "pharmacy"
            },
            "geometry": {
                "type": "Point",
                "coordinates": [
                    20.836076942948964,
                    52.19013561213589
                ]
            }
        },
        {
            "type": "Feature",
            "properties": {
                "ref:csioz": 1088905,
                "addr:street": "Harcerska",
                "addr:housenumber": "16",
                "addr:city": "Piastów",
                "addr:postcode": "05-820",
                "amenity": "pharmacy"
            },
            "geometry": {
                "type": "Point",
                "coordinates": [
                    20.842694025265374,
                    52.17678872467449
                ]
            }
        },
        {
            "type": "Feature",
            "properties": {
                "ref:csioz": 1089946,
                "addr:street": "Armii Krajowej",
                "addr:housenumber": "44",
                "addr:city": "Pruszków",
                "addr:postcode": "05-800",
                "amenity": "pharmacy"
            },
            "geometry": {
                "type": "Point",
                "coordinates": [
                    20.807118372035383,
                    52.161839063667784
                ]
            }
        },
        {
            "type": "Feature",
            "properties": {
                "ref:csioz": 1090202,
                "name": "Ostoja",
                "addr:street": "Berylowa",
                "addr:housenumber": "34",
                "addr:city": "Komorów",
                "addr:postcode": "05-806",
                "amenity": "pharmacy"
            },
            "geometry": {
                "type": "Point",
                "coordinates": [
                    20.812968541185548,
                    52.14791366056657
                ]
            }
        },
        {
            "type": "Feature",
            "properties": {
                "ref:csioz": 1090304,
                "name": "Grażyna Zielińska",
                "addr:street": "Wiejska",
                "addr:housenumber": "21",
                "addr:city": "Otrębusy",
                "addr:postcode": "05-805",
                "amenity": "pharmacy"
            },
            "geometry": {
                "type": "Point",
                "coordinates": [
                    20.754863246438553,
                    52.12809602445836
                ]
            }
        },
        {
            "type": "Feature",
            "properties": {
                "ref:csioz": 1090516,
                "name": "Cosmedica",
                "addr:street": "Grodziska",
                "addr:housenumber": "46",
                "addr:flats": "18",
                "addr:city": "Brwinów",
                "addr:postcode": "05-840",
                "amenity": "pharmacy"
            },
            "geometry": {
                "type": "Point",
                "coordinates": [
                    20.706116669706145,
                    52.13490483071167
                ]
            }
        },
        {
            "type": "Feature",
            "properties": {
                "ref:csioz": 1121611,
                "addr:street": "Peronowa",
                "addr:housenumber": "2",
                "addr:city": "Brwinów",
                "addr:postcode": "05-840",
                "amenity": "pharmacy"
            },
            "geometry": {
                "type": "Point",
                "coordinates": [
                    20.722557498327618,
                    52.14057087848923
                ]
            }
        },
        {
            "type": "Feature",
            "properties": {
                "ref:csioz": 1115392,
                "addr:street": "Promyka",
                "addr:housenumber": "41A",
                "addr:city": "Pruszków",
                "addr:postcode": "05-800",
                "amenity": "pharmacy"
            },
            "geometry": {
                "type": "Point",
                "coordinates": [
                    20.788892006208783,
                    52.17054444311384
                ]
            }
        },
        {
            "type": "Feature",
            "properties": {
                "ref:csioz": 1114972,
                "name": "Wpr Apteka Helenowska",
                "addr:street": "Helenowska",
                "addr:housenumber": "20B",
                "addr:city": "Pruszków",
                "addr:postcode": "05-804",
                "amenity": "pharmacy"
            },
            "geometry": {
                "type": "Point",
                "coordinates": [
                    20.790315004442455,
                    52.15483530093677
                ]
            }
        },
        {
            "type": "Feature",
            "properties": {
                "ref:csioz": 1153188,
                "name": "Apteka Szpitalna",
                "addr:street": "Warsztatowa",
                "addr:housenumber": "1",
                "addr:city": "Pruszków",
                "addr:postcode": "05-800",
                "amenity": "pharmacy"
            },
            "geometry": {
                "type": "Point",
                "coordinates": [
                    20.807011964883152,
                    52.17501499698619
                ]
            }
        },
        {
            "type": "Feature",
            "properties": {
                "ref:csioz": 1178301,
                "name": "Zachodnia",
                "addr:street": "Wojska Polskiego",
                "addr:housenumber": "50A",
                "addr:city": "Pruszków",
                "addr:postcode": "05-800",
                "amenity": "pharmacy"
            },
            "geometry": {
                "type": "Point",
                "coordinates": [
                    20.794897003213883,
                    52.15534344306702
                ]
            }
        },
        {
            "type": "Feature",
            "properties": {
                "ref:csioz": 1189029,
                "name": "Centralna",
                "addr:street": "Niepodległości",
                "addr:housenumber": "14",
                "addr:city": "Pruszków",
                "addr:postcode": "05-800",
                "amenity": "pharmacy"
            },
            "geometry": {
                "type": "Point",
                "coordinates": [
                    20.801261166491283,
                    52.16281492498677
                ]
            }
        },
        {
            "type": "Feature",
            "properties": {
                "ref:csioz": 1208953,
                "name": "Doz Apteka. Dbam O Zdrowie. Parkowa",
                "addr:street": "Mikołaja Kopernika",
                "addr:housenumber": "1",
                "addr:city": "Pruszków",
                "addr:postcode": "05-803",
                "amenity": "pharmacy"
            },
            "geometry": {
                "type": "Point",
                "coordinates": [
                    20.81410017183315,
                    52.16282459980634
                ]
            }
        },
        {
            "type": "Feature",
            "properties": {
                "ref:csioz": 1209933,
                "name": "Bliska",
                "addr:street": "Jesionowa",
                "addr:housenumber": "1E",
                "addr:city": "Michałowice",
                "addr:postcode": "05-816",
                "amenity": "pharmacy"
            },
            "geometry": {
                "type": "Point",
                "coordinates": [
                    20.882528473364594,
                    52.17837828091567
                ]
            }
        },
        {
            "type": "Feature",
            "properties": {
                "ref:csioz": 1211532,
                "name": "U Nas",
                "addr:street": "Polna",
                "addr:housenumber": "16",
                "addr:city": "Otrębusy",
                "addr:postcode": "05-805",
                "amenity": "pharmacy"
            },
            "geometry": {
                "type": "Point",
                "coordinates": [
                    20.76447669596154,
                    52.12812090401325
                ]
            }
        },
        {
            "type": "Feature",
            "properties": {
                "ref:csioz": 1213020,
                "name": "Na Skorupki",
                "addr:street": "Aleja Józefa Piłsudskiego",
                "addr:housenumber": "12A",
                "addr:city": "Piastów",
                "addr:postcode": "05-820",
                "amenity": "pharmacy"
            },
            "geometry": {
                "type": "Point",
                "coordinates": [
                    20.835363626451482,
                    52.18617647896304
                ]
            }
        },
        {
            "type": "Feature",
            "properties": {
                "ref:csioz": 1217121,
                "name": "Przy Alfie",
                "addr:street": "Powstańców Warszawy",
                "addr:housenumber": "8A",
                "addr:flats": "1",
                "addr:city": "Brwinów",
                "addr:postcode": "05-840",
                "amenity": "pharmacy"
            },
            "geometry": {
                "type": "Point",
                "coordinates": [
                    20.719811877783254,
                    52.14446374005916
                ]
            }
        },
        {
            "type": "Feature",
            "properties": {
                "ref:csioz": 1221889,
                "name": "Bliska",
                "addr:street": "Główna",
                "addr:housenumber": "104",
                "addr:city": "Granica",
                "addr:postcode": "05-806",
                "amenity": "pharmacy"
            },
            "geometry": {
                "type": "Point",
                "coordinates": [
                    20.801595215229362,
                    52.133585554028244
                ]
            }
        },
        {
            "type": "Feature",
            "properties": {
                "ref:csioz": 1215148,
                "addr:street": "Mszczonowska",
                "addr:housenumber": "19",
                "addr:city": "Nadarzyn",
                "addr:postcode": "05-830",
                "amenity": "pharmacy"
            },
            "geometry": {
                "type": "Point",
                "coordinates": [
                    20.80398384727902,
                    52.09178879078309
                ]
            }
        },
        {
            "type": "Feature",
            "properties": {
                "ref:csioz": 1088861,
                "addr:street": "Błońska",
                "addr:housenumber": "6B",
                "addr:city": "Nadarzyn",
                "addr:postcode": "05-830",
                "amenity": "pharmacy"
            },
            "geometry": {
                "type": "Point",
                "coordinates": [
                    20.80507352447338,
                    52.09414049849572
                ]
            }
        },
        {
            "type": "Feature",
            "properties": {
                "ref:csioz": 1088873,
                "name": "\"Cef@Rm 36,6\"",
                "addr:street": "Jadwigi i Mieczysława Sitarskich",
                "addr:housenumber": "1",
                "addr:city": "Nadarzyn",
                "addr:postcode": "05-830",
                "amenity": "pharmacy"
            },
            "geometry": {
                "type": "Point",
                "coordinates": [
                    20.80923300000192,
                    52.09549900001561
                ]
            }
        },
        {
            "type": "Feature",
            "properties": {
                "ref:csioz": 1114382,
                "addr:street": "Aleja Katowicka",
                "addr:housenumber": "62",
                "addr:flats": "10",
                "addr:city": "Nadarzyn",
                "addr:postcode": "05-830",
                "amenity": "pharmacy"
            },
            "geometry": {
                "type": "Point",
                "coordinates": [
                    20.832798000002015,
                    52.10756000001564
                ]
            }
        },
        {
            "type": "Feature",
            "properties": {
                "ref:csioz": 1114980,
                "name": "Apteka Pod Dębami",
                "addr:street": "Mszczonowska",
                "addr:housenumber": "58A",
                "addr:city": "Nadarzyn",
                "addr:postcode": "05-830",
                "amenity": "pharmacy"
            },
            "geometry": {
                "type": "Point",
                "coordinates": [
                    20.793840985368043,
                    52.084894442997786
                ]
            }
        },
        {
            "type": "Feature",
            "properties": {
                "ref:csioz": 1180095,
                "name": "Międzynarodowe Centrum Słuchu I Mowy - Grupa Medincus",
                "addr:street": "Mokra",
                "addr:housenumber": "7",
                "addr:city": "Kajetany",
                "addr:postcode": "05-830",
                "amenity": "pharmacy"
            },
            "geometry": {
                "type": "Point",
                "coordinates": [
                    20.820664000001976,
                    52.09745700001562
                ]
            }
        },
        {
            "type": "Feature",
            "properties": {
                "ref:csioz": 1206939,
                "name": "Punkt Apteczny Krzysztof Kowalski",
                "addr:street": "Mazowiecka",
                "addr:housenumber": "5",
                "addr:city": "Młochów",
                "addr:postcode": "05-831",
                "amenity": "pharmacy"
            },
            "geometry": {
                "type": "Point",
                "coordinates": [
                    20.780255614878303,
                    52.04830703853293
                ]
            }
        },
        {
            "type": "Feature",
            "properties": {
                "ref:csioz": 1089018,
                "name": "Da Signum",
                "addr:street": "Krakowska",
                "addr:housenumber": "31",
                "addr:city": "Raszyn",
                "addr:postcode": "05-090",
                "amenity": "pharmacy"
            },
            "geometry": {
                "type": "Point",
                "coordinates": [
                    20.921122133256095,
                    52.155314235500065
                ]
            }
        },
        {
            "type": "Feature",
            "properties": {
                "ref:csioz": 1124469,
                "name": "Ortognatyka Filia",
                "addr:street": "Krakowska",
                "addr:housenumber": "54",
                "addr:city": "Raszyn",
                "addr:postcode": "05-090",
                "amenity": "pharmacy"
            },
            "geometry": {
                "type": "Point",
                "coordinates": [
                    20.925659170635747,
                    52.158475289245516
                ]
            }
        },
        {
            "type": "Feature",
            "properties": {
                "ref:csioz": 1089026,
                "addr:street": "Szkolna",
                "addr:housenumber": "2B",
                "addr:city": "Raszyn",
                "addr:postcode": "05-090",
                "amenity": "pharmacy"
            },
            "geometry": {
                "type": "Point",
                "coordinates": [
                    20.92555173582459,
                    52.15406754684646
                ]
            }
        },
        {
            "type": "Feature",
            "properties": {
                "ref:csioz": 1090432,
                "name": "Ars Medica",
                "addr:street": "Młynarska",
                "addr:housenumber": "2B",
                "addr:city": "Raszyn",
                "addr:postcode": "05-090",
                "amenity": "pharmacy"
            },
            "geometry": {
                "type": "Point",
                "coordinates": [
                    20.926562231366788,
                    52.15876537341271
                ]
            }
        },
        {
            "type": "Feature",
            "properties": {
                "ref:csioz": 1166527,
                "name": "Z Uśmiechem",
                "addr:street": "Warszawska",
                "addr:housenumber": "11B",
                "addr:city": "Dawidy",
                "addr:postcode": "05-090",
                "amenity": "pharmacy"
            },
            "geometry": {
                "type": "Point",
                "coordinates": [
                    20.97724262870781,
                    52.13423111666404
                ]
            }
        },
        {
            "type": "Feature",
            "properties": {
                "ref:csioz": 1209377,
                "name": "W Raszynie",
                "addr:street": "Pruszkowska",
                "addr:housenumber": "52",
                "addr:city": "Raszyn",
                "addr:postcode": "05-090",
                "amenity": "pharmacy"
            },
            "geometry": {
                "type": "Point",
                "coordinates": [
                    20.91463096112323,
                    52.161223119286866
                ]
            }
        },
        {
            "type": "Feature",
            "properties": {
                "ref:csioz": 1089972,
                "name": "Na Rynku",
                "addr:street": "Szkolna",
                "addr:housenumber": "11",
                "addr:flats": "3 i 4",
                "addr:city": "Raszyn",
                "addr:postcode": "05-090",
                "amenity": "pharmacy"
            },
            "geometry": {
                "type": "Point",
                "coordinates": [
                    20.925746724502595,
                    52.15448247453807
                ]
            }
        }
    ]
}