{
    "type": "FeatureCollection",
    "name": "JPT_KOD_JE_3202",
    "crs": {
        "type": "name",
        "properties": {
            "name": "urn:ogc:def:crs:EPSG::4326"
        }
    },
    "features": [
        {
            "type": "Feature",
            "properties": {
                "ref:csioz": 1152205,
                "addr:street": "Wolności",
                "addr:housenumber": "31",
                "addr:city": "Choszczno",
                "addr:postcode": "73-200",
                "amenity": "pharmacy"
            },
            "geometry": {
                "type": "Point",
                "coordinates": [
                    15.408751115032704,
                    53.1664124165973
                ]
            }
        },
        {
            "type": "Feature",
            "properties": {
                "ref:csioz": 1138934,
                "addr:street": "Niedziałkowskiego",
                "addr:housenumber": "4A",
                "addr:city": "Choszczno",
                "addr:postcode": "73-200",
                "amenity": "pharmacy"
            },
            "geometry": {
                "type": "Point",
                "coordinates": [
                    15.413585153016944,
                    53.16568252960055
                ]
            }
        },
        {
            "type": "Feature",
            "properties": {
                "ref:csioz": 1167466,
                "name": "Apteka W Wieży",
                "addr:street": "Niedziałkowskiego",
                "addr:housenumber": "2a",
                "addr:city": "Choszczno",
                "addr:postcode": "73-200",
                "amenity": "pharmacy"
            },
            "geometry": {
                "type": "Point",
                "coordinates": [
                    15.413140281626655,
                    53.16595026846707
                ]
            }
        },
        {
            "type": "Feature",
            "properties": {
                "ref:csioz": 1167477,
                "name": "Apteka Za Wieżą",
                "addr:street": "Wolności",
                "addr:housenumber": "17a",
                "addr:city": "Choszczno",
                "addr:postcode": "73-200",
                "amenity": "pharmacy"
            },
            "geometry": {
                "type": "Point",
                "coordinates": [
                    15.412522407733173,
                    53.16648359009484
                ]
            }
        },
        {
            "type": "Feature",
            "properties": {
                "ref:csioz": 1168030,
                "name": "Mediq Apteka W Rynku",
                "addr:street": "Rynek",
                "addr:housenumber": "1",
                "addr:city": "Choszczno",
                "addr:postcode": "73-200",
                "amenity": "pharmacy"
            },
            "geometry": {
                "type": "Point",
                "coordinates": [
                    15.420987937943728,
                    53.167887087235755
                ]
            }
        },
        {
            "type": "Feature",
            "properties": {
                "ref:csioz": 1168791,
                "name": "Centrum",
                "addr:street": "Wolności",
                "addr:housenumber": "4F",
                "addr:city": "Choszczno",
                "addr:postcode": "73-200",
                "amenity": "pharmacy"
            },
            "geometry": {
                "type": "Point",
                "coordinates": [
                    15.417161752945514,
                    53.16800204121313
                ]
            }
        },
        {
            "type": "Feature",
            "properties": {
                "ref:csioz": 1168978,
                "name": "Grunwald",
                "addr:street": "Władysława Jagiełły",
                "addr:housenumber": "28",
                "addr:city": "Choszczno",
                "addr:postcode": "73-200",
                "amenity": "pharmacy"
            },
            "geometry": {
                "type": "Point",
                "coordinates": [
                    15.426742930100687,
                    53.165548602230785
                ]
            }
        },
        {
            "type": "Feature",
            "properties": {
                "ref:csioz": 1169036,
                "addr:street": "Ogrodowa",
                "addr:housenumber": "11b",
                "addr:city": "Pełczyce",
                "addr:postcode": "73-260",
                "amenity": "pharmacy"
            },
            "geometry": {
                "type": "Point",
                "coordinates": [
                    15.303772977327121,
                    53.04409168680322
                ]
            }
        },
        {
            "type": "Feature",
            "properties": {
                "ref:csioz": 1169272,
                "addr:street": "Szkolna",
                "addr:housenumber": "9",
                "addr:city": "Bierzwnik",
                "addr:postcode": "73-240",
                "amenity": "pharmacy"
            },
            "geometry": {
                "type": "Point",
                "coordinates": [
                    15.659049891436577,
                    53.03304882054181
                ]
            }
        },
        {
            "type": "Feature",
            "properties": {
                "ref:csioz": 1206269,
                "name": "Apteka Puls",
                "addr:street": "Wolności",
                "addr:housenumber": "38",
                "addr:city": "Choszczno",
                "addr:postcode": "73-200",
                "amenity": "pharmacy"
            },
            "geometry": {
                "type": "Point",
                "coordinates": [
                    15.406033223278001,
                    53.16638700986179
                ]
            }
        },
        {
            "type": "Feature",
            "properties": {
                "ref:csioz": 1212331,
                "name": "Centrum Zdrowia",
                "addr:street": "Bursztynowy",
                "addr:housenumber": "7",
                "addr:city": "Pełczyce",
                "addr:postcode": "73-260",
                "amenity": "pharmacy"
            },
            "geometry": {
                "type": "Point",
                "coordinates": [
                    15.301984942293616,
                    53.04369745333442
                ]
            }
        },
        {
            "type": "Feature",
            "properties": {
                "ref:csioz": 1229046,
                "name": "Centrum Zdrowia",
                "addr:street": "Pogodna",
                "addr:housenumber": "9",
                "addr:city": "Krzęcin",
                "addr:postcode": "73-231",
                "amenity": "pharmacy"
            },
            "geometry": {
                "type": "Point",
                "coordinates": [
                    15.49115531371852,
                    53.07857316609972
                ]
            }
        },
        {
            "type": "Feature",
            "properties": {
                "ref:csioz": 1192039,
                "name": "Doz Apteka.Dbam O Zdrowie.Medica",
                "addr:street": "Środkowa",
                "addr:housenumber": "13",
                "addr:city": "Recz",
                "addr:postcode": "73-210",
                "amenity": "pharmacy"
            },
            "geometry": {
                "type": "Point",
                "coordinates": [
                    15.54811711599406,
                    53.260130579551905
                ]
            }
        },
        {
            "type": "Feature",
            "properties": {
                "ref:csioz": 1168788,
                "addr:street": "Środkowa",
                "addr:housenumber": "11",
                "addr:city": "Recz",
                "addr:postcode": "73-210",
                "amenity": "pharmacy"
            },
            "geometry": {
                "type": "Point",
                "coordinates": [
                    15.547274909024244,
                    53.26007278081595
                ]
            }
        },
        {
            "type": "Feature",
            "properties": {
                "ref:csioz": 1169048,
                "name": "Herba",
                "addr:street": "Kolejowa",
                "addr:housenumber": "30",
                "addr:city": "Drawno",
                "addr:postcode": "73-220",
                "amenity": "pharmacy"
            },
            "geometry": {
                "type": "Point",
                "coordinates": [
                    15.759882802945546,
                    53.21960871011631
                ]
            }
        }
    ]
}