{
    "type": "FeatureCollection",
    "name": "JPT_KOD_JE_1402",
    "features": [
        {
            "type": "Feature",
            "properties": {
                "ref:csioz": 1081656,
                "name": "Bliska",
                "addr:street": "Fabryczna",
                "addr:housenumber": "3",
                "addr:city": "Glinojeck",
                "addr:postcode": "06-450",
                "amenity": "pharmacy"
            },
            "geometry": {
                "type": "Point",
                "coordinates": [
                    20.284755076389438,
                    52.81785418521394
                ]
            }
        },
        {
            "type": "Feature",
            "properties": {
                "ref:csioz": 1092096,
                "name": "Dbam O Zdrowie",
                "addr:street": "11 Pułku Ułanów Legionowych",
                "addr:housenumber": "14",
                "addr:city": "Ciechanów",
                "addr:postcode": "06-400",
                "amenity": "pharmacy"
            },
            "geometry": {
                "type": "Point",
                "coordinates": [
                    20.61915280692588,
                    52.878383102974524
                ]
            }
        },
        {
            "type": "Feature",
            "properties": {
                "ref:csioz": 1092105,
                "name": "Przyjazna",
                "addr:street": "Bony",
                "addr:housenumber": "17",
                "addr:city": "Ciechanów",
                "addr:postcode": "06-400",
                "amenity": "pharmacy"
            },
            "geometry": {
                "type": "Point",
                "coordinates": [
                    20.611309728582068,
                    52.88690628761737
                ]
            }
        },
        {
            "type": "Feature",
            "properties": {
                "ref:csioz": 1092139,
                "name": "Doz Apteka. Dbam O Zdrowie",
                "addr:street": "Płocka",
                "addr:housenumber": "24/3",
                "addr:city": "Ciechanów",
                "addr:postcode": "06-400",
                "amenity": "pharmacy"
            },
            "geometry": {
                "type": "Point",
                "coordinates": [
                    20.601874000001263,
                    52.870397000016865
                ]
            }
        },
        {
            "type": "Feature",
            "properties": {
                "ref:csioz": 1092152,
                "name": "Przyjazna",
                "addr:street": "Pułtuska",
                "addr:housenumber": "12",
                "addr:city": "Ciechanów",
                "addr:postcode": "06-400",
                "amenity": "pharmacy"
            },
            "geometry": {
                "type": "Point",
                "coordinates": [
                    20.62174541612594,
                    52.88126257276566
                ]
            }
        },
        {
            "type": "Feature",
            "properties": {
                "ref:csioz": 1092160,
                "name": "Dbam O Zdrowie",
                "addr:street": "Pułtuska",
                "addr:housenumber": "20A",
                "addr:city": "Ciechanów",
                "addr:postcode": "06-400",
                "amenity": "pharmacy"
            },
            "geometry": {
                "type": "Point",
                "coordinates": [
                    20.625527661167734,
                    52.881142391323266
                ]
            }
        },
        {
            "type": "Feature",
            "properties": {
                "ref:csioz": 1092171,
                "name": "Przyjazna",
                "addr:street": "Henryka Sienkiewicza",
                "addr:housenumber": "71B",
                "addr:city": "Ciechanów",
                "addr:postcode": "06-400",
                "amenity": "pharmacy"
            },
            "geometry": {
                "type": "Point",
                "coordinates": [
                    20.59332453258476,
                    52.883396256845536
                ]
            }
        },
        {
            "type": "Feature",
            "properties": {
                "ref:csioz": 1092270,
                "addr:street": "Ciechanowska",
                "addr:housenumber": "27",
                "addr:city": "Ojrzeń",
                "addr:postcode": "06-456",
                "amenity": "pharmacy"
            },
            "geometry": {
                "type": "Point",
                "coordinates": [
                    20.54477632035179,
                    52.7685717067264
                ]
            }
        },
        {
            "type": "Feature",
            "properties": {
                "ref:csioz": 1092872,
                "name": "Dr. Optima Ceny Hurtowe",
                "addr:street": "Adama Mickiewicza",
                "addr:housenumber": "3",
                "addr:city": "Ciechanów",
                "addr:postcode": "06-400",
                "amenity": "pharmacy"
            },
            "geometry": {
                "type": "Point",
                "coordinates": [
                    20.618433984573,
                    52.87647570457057
                ]
            }
        },
        {
            "type": "Feature",
            "properties": {
                "ref:csioz": 1196570,
                "name": "Społeczna Na Mickiewicza Grupa Nowa Farmacja",
                "addr:street": "Adama Mickiewicza",
                "addr:housenumber": "1/2",
                "addr:city": "Ciechanów",
                "addr:postcode": "06-400",
                "amenity": "pharmacy"
            },
            "geometry": {
                "type": "Point",
                "coordinates": [
                    20.618465000001308,
                    52.87648600001687
                ]
            }
        },
        {
            "type": "Feature",
            "properties": {
                "ref:csioz": 1200455,
                "name": "Arnica",
                "addr:street": "Stefana Okrzei",
                "addr:housenumber": "1A",
                "addr:city": "Ciechanów",
                "addr:postcode": "06-400",
                "amenity": "pharmacy"
            },
            "geometry": {
                "type": "Point",
                "coordinates": [
                    20.602563225315247,
                    52.88191402616365
                ]
            }
        },
        {
            "type": "Feature",
            "properties": {
                "ref:csioz": 1216370,
                "name": "Arnica",
                "addr:street": "Władysława Broniewskiego",
                "addr:housenumber": "14",
                "addr:city": "Ciechanów",
                "addr:postcode": "06-400",
                "amenity": "pharmacy"
            },
            "geometry": {
                "type": "Point",
                "coordinates": [
                    20.60355100000127,
                    52.88877900001688
                ]
            }
        },
        {
            "type": "Feature",
            "properties": {
                "ref:csioz": 1091829,
                "addr:housenumber": "43",
                "addr:city": "Ościsłowo",
                "addr:postcode": "06-452",
                "amenity": "pharmacy"
            },
            "geometry": {
                "type": "Point",
                "coordinates": [
                    20.452490316464978,
                    52.83369217225381
                ]
            }
        },
        {
            "type": "Feature",
            "properties": {
                "ref:csioz": 1091832,
                "addr:street": "Michała Bojanowskiego",
                "addr:housenumber": "3",
                "addr:city": "Regimin",
                "addr:postcode": "06-461",
                "amenity": "pharmacy"
            },
            "geometry": {
                "type": "Point",
                "coordinates": [
                    20.553360748821785,
                    52.94149342985789
                ]
            }
        },
        {
            "type": "Feature",
            "properties": {
                "ref:csioz": 1092183,
                "name": "Przyjazna",
                "addr:street": "Spółdzielcza",
                "addr:housenumber": "2",
                "addr:city": "Ciechanów",
                "addr:postcode": "06-400",
                "amenity": "pharmacy"
            },
            "geometry": {
                "type": "Point",
                "coordinates": [
                    20.598561000001265,
                    52.88128700001687
                ]
            }
        },
        {
            "type": "Feature",
            "properties": {
                "ref:csioz": 1092208,
                "name": "Dbam O Zdrowie",
                "addr:street": "ks. Piotra Ściegiennego",
                "addr:housenumber": "10",
                "addr:city": "Ciechanów",
                "addr:postcode": "06-400",
                "amenity": "pharmacy"
            },
            "geometry": {
                "type": "Point",
                "coordinates": [
                    20.61504435707906,
                    52.87688621983692
                ]
            }
        },
        {
            "type": "Feature",
            "properties": {
                "ref:csioz": 1092224,
                "addr:street": "Warszawska",
                "addr:housenumber": "7",
                "addr:city": "Ciechanów",
                "addr:postcode": "06-400",
                "amenity": "pharmacy"
            },
            "geometry": {
                "type": "Point",
                "coordinates": [
                    20.618210841818744,
                    52.88110819219829
                ]
            }
        },
        {
            "type": "Feature",
            "properties": {
                "ref:csioz": 1092243,
                "name": "Arnica",
                "addr:street": "Płocka",
                "addr:housenumber": "13I",
                "addr:city": "Glinojeck",
                "addr:postcode": "06-450",
                "amenity": "pharmacy"
            },
            "geometry": {
                "type": "Point",
                "coordinates": [
                    20.289693016104405,
                    52.819173427238226
                ]
            }
        },
        {
            "type": "Feature",
            "properties": {
                "ref:csioz": 1092262,
                "addr:street": "Żeromskiego",
                "addr:housenumber": "1",
                "addr:city": "Grudusk",
                "addr:postcode": "06-460",
                "amenity": "pharmacy"
            },
            "geometry": {
                "type": "Point",
                "coordinates": [
                    20.626109023544082,
                    53.058632259083765
                ]
            }
        },
        {
            "type": "Feature",
            "properties": {
                "ref:csioz": 1092690,
                "name": "Apteka Zachodnia",
                "addr:street": "Maksymiliana Marii Kolbe",
                "addr:housenumber": "35",
                "addr:city": "Ciechanów",
                "addr:postcode": "06-400",
                "amenity": "pharmacy"
            },
            "geometry": {
                "type": "Point",
                "coordinates": [
                    20.589861987641036,
                    52.872020002014004
                ]
            }
        },
        {
            "type": "Feature",
            "properties": {
                "ref:csioz": 1092750,
                "name": "Przyjazna",
                "addr:street": "Niechodzka",
                "addr:housenumber": "5",
                "addr:city": "Ciechanów",
                "addr:postcode": "06-400",
                "amenity": "pharmacy"
            },
            "geometry": {
                "type": "Point",
                "coordinates": [
                    20.605053499067452,
                    52.867399231771095
                ]
            }
        },
        {
            "type": "Feature",
            "properties": {
                "ref:csioz": 1092788,
                "name": "Arnica",
                "addr:street": "Armii Krajowej",
                "addr:housenumber": "18A",
                "addr:city": "Ciechanów",
                "addr:postcode": "06-400",
                "amenity": "pharmacy"
            },
            "geometry": {
                "type": "Point",
                "coordinates": [
                    20.62787425130664,
                    52.87687526594023
                ]
            }
        },
        {
            "type": "Feature",
            "properties": {
                "ref:csioz": 1092791,
                "name": "Arnica",
                "addr:street": "Powstańców Wielkopolskich",
                "addr:housenumber": "2",
                "addr:city": "Ciechanów",
                "addr:postcode": "06-400",
                "amenity": "pharmacy"
            },
            "geometry": {
                "type": "Point",
                "coordinates": [
                    20.634207441257534,
                    52.88344364847427
                ]
            }
        },
        {
            "type": "Feature",
            "properties": {
                "ref:csioz": 1098451,
                "name": "Apteka Szpitalna",
                "addr:street": "Powstańców Wielkopolskich",
                "addr:housenumber": "2",
                "addr:city": "Ciechanów",
                "addr:postcode": "06-400",
                "amenity": "pharmacy"
            },
            "geometry": {
                "type": "Point",
                "coordinates": [
                    20.634207441257534,
                    52.88344364847427
                ]
            }
        },
        {
            "type": "Feature",
            "properties": {
                "ref:csioz": 1116659,
                "name": "Przyjazna - Przyjazne Ceny",
                "addr:housenumber": "65",
                "addr:city": "Władysławowo",
                "addr:postcode": "06-406",
                "amenity": "pharmacy"
            },
            "geometry": {
                "type": "Point",
                "coordinates": [
                    20.658277475348505,
                    52.880678626608386
                ]
            }
        },
        {
            "type": "Feature",
            "properties": {
                "ref:csioz": 1177302,
                "name": "Hebeapteka",
                "addr:street": "Władysława Sikorskiego",
                "addr:housenumber": "11",
                "addr:city": "Ciechanów",
                "addr:postcode": "06-400",
                "amenity": "pharmacy"
            },
            "geometry": {
                "type": "Point",
                "coordinates": [
                    20.6291936609901,
                    52.879304309814344
                ]
            }
        },
        {
            "type": "Feature",
            "properties": {
                "ref:csioz": 1220916,
                "name": "Dr. Max",
                "addr:street": "Armii Krajowej",
                "addr:housenumber": "15",
                "addr:city": "Ciechanów",
                "addr:postcode": "06-400",
                "amenity": "pharmacy"
            },
            "geometry": {
                "type": "Point",
                "coordinates": [
                    20.62911627382047,
                    52.876871811771345
                ]
            }
        },
        {
            "type": "Feature",
            "properties": {
                "ref:csioz": 1092063,
                "addr:housenumber": "36A",
                "addr:city": "Soboklęszcz",
                "addr:postcode": "06-430",
                "amenity": "pharmacy"
            },
            "geometry": {
                "type": "Point",
                "coordinates": [
                    20.712095956252305,
                    52.73148831571374
                ]
            }
        },
        {
            "type": "Feature",
            "properties": {
                "ref:csioz": 1092281,
                "addr:street": "Zygmunta Krasińskiego",
                "addr:housenumber": "2",
                "addr:city": "Opinogóra Górna",
                "addr:postcode": "06-406",
                "amenity": "pharmacy"
            },
            "geometry": {
                "type": "Point",
                "coordinates": [
                    20.718906836756524,
                    52.906026717296704
                ]
            }
        },
        {
            "type": "Feature",
            "properties": {
                "ref:csioz": 1092235,
                "addr:street": "Strażacka",
                "addr:housenumber": "19",
                "addr:city": "Gąsocin",
                "addr:postcode": "06-440",
                "amenity": "pharmacy"
            },
            "geometry": {
                "type": "Point",
                "coordinates": [
                    20.713670950987797,
                    52.738617042504686
                ]
            }
        },
        {
            "type": "Feature",
            "properties": {
                "ref:csioz": 1092256,
                "addr:street": "Nowa",
                "addr:housenumber": "7",
                "addr:city": "Gołymin-Ośrodek",
                "addr:postcode": "06-420",
                "amenity": "pharmacy"
            },
            "geometry": {
                "type": "Point",
                "coordinates": [
                    20.875336149670044,
                    52.80501011573952
                ]
            }
        }
    ]
}