{
    "type": "FeatureCollection",
    "name": "JPT_KOD_JE_2402",
    "crs": {
        "type": "name",
        "properties": {
            "name": "urn:ogc:def:crs:EPSG::4326"
        }
    },
    "features": [
        {
            "type": "Feature",
            "properties": {
                "ref:csioz": 1057412,
                "name": "Brak",
                "addr:street": "SZKOLNA",
                "addr:housenumber": "4",
                "addr:city": "BESTWINA",
                "addr:postcode": "43-512",
                "amenity": "pharmacy"
            },
            "geometry": {
                "type": "Point",
                "coordinates": [
                    19.06110500000002,
                    49.89666300001236
                ]
            }
        },
        {
            "type": "Feature",
            "properties": {
                "ref:csioz": 1058662,
                "name": "Przyjazna",
                "addr:street": "Szkolna",
                "addr:housenumber": "1",
                "addr:city": "Buczkowice",
                "addr:postcode": "43-374",
                "amenity": "pharmacy"
            },
            "geometry": {
                "type": "Point",
                "coordinates": [
                    19.06897060657723,
                    49.72702806980114
                ]
            }
        },
        {
            "type": "Feature",
            "properties": {
                "ref:csioz": 1058670,
                "name": "Beskidzka",
                "addr:street": "Szczyrkowska",
                "addr:housenumber": "58",
                "addr:city": "Bystra",
                "addr:postcode": "43-360",
                "amenity": "pharmacy"
            },
            "geometry": {
                "type": "Point",
                "coordinates": [
                    19.07259667103684,
                    49.76344966381697
                ]
            }
        },
        {
            "type": "Feature",
            "properties": {
                "ref:csioz": 1059974,
                "name": "Hipokrates Iv",
                "addr:street": "Legionów",
                "addr:housenumber": "189",
                "addr:city": "Czechowice-Dziedzice",
                "addr:postcode": "43-502",
                "amenity": "pharmacy"
            },
            "geometry": {
                "type": "Point",
                "coordinates": [
                    19.021321000000004,
                    49.89005000001236
                ]
            }
        },
        {
            "type": "Feature",
            "properties": {
                "ref:csioz": 1059982,
                "name": "Galenika",
                "addr:street": "Kornela Makuszyńskiego",
                "addr:housenumber": "6",
                "addr:city": "Czechowice-Dziedzice",
                "addr:postcode": "43-502",
                "amenity": "pharmacy"
            },
            "geometry": {
                "type": "Point",
                "coordinates": [
                    18.999714013993287,
                    49.922377901279326
                ]
            }
        },
        {
            "type": "Feature",
            "properties": {
                "ref:csioz": 1060034,
                "name": "Zdrowie",
                "addr:street": "Henryka Sienkiewicza",
                "addr:housenumber": "4",
                "addr:flats": "1",
                "addr:city": "Czechowice-Dziedzice",
                "addr:postcode": "43-502",
                "amenity": "pharmacy"
            },
            "geometry": {
                "type": "Point",
                "coordinates": [
                    19.01229748109172,
                    49.913461025917684
                ]
            }
        },
        {
            "type": "Feature",
            "properties": {
                "ref:csioz": 1060042,
                "name": "Hygieja",
                "addr:street": "Romualda Traugutta",
                "addr:housenumber": "18 A",
                "addr:city": "Czechowice-Dziedzice",
                "addr:postcode": "43-502",
                "amenity": "pharmacy"
            },
            "geometry": {
                "type": "Point",
                "coordinates": [
                    19.008603355364276,
                    49.9197879755131
                ]
            }
        },
        {
            "type": "Feature",
            "properties": {
                "ref:csioz": 1061304,
                "name": "Brak",
                "addr:street": "św. Wojciecha",
                "addr:housenumber": "12",
                "addr:city": "Dankowice",
                "addr:postcode": "43-331",
                "amenity": "pharmacy"
            },
            "geometry": {
                "type": "Point",
                "coordinates": [
                    19.109308305426392,
                    49.92717455664764
                ]
            }
        },
        {
            "type": "Feature",
            "properties": {
                "ref:csioz": 1062717,
                "name": "Apteka Familia",
                "addr:housenumber": "933",
                "addr:city": "Jasienica",
                "addr:postcode": "43-385",
                "amenity": "pharmacy"
            },
            "geometry": {
                "type": "Point",
                "coordinates": [
                    18.92308413130576,
                    49.80548478277956
                ]
            }
        },
        {
            "type": "Feature",
            "properties": {
                "ref:csioz": 1063466,
                "name": "Apteka Dobrych Rad",
                "addr:street": "Batalionów Chłopskich",
                "addr:housenumber": "15A",
                "addr:city": "Kaniów",
                "addr:postcode": "43-514",
                "amenity": "pharmacy"
            },
            "geometry": {
                "type": "Point",
                "coordinates": [
                    19.048683225140632,
                    49.93972344374979
                ]
            }
        },
        {
            "type": "Feature",
            "properties": {
                "ref:csioz": 1064865,
                "name": "Pod Dębem",
                "addr:street": "Żywiecka",
                "addr:housenumber": "10A",
                "addr:city": "Kobiernice",
                "addr:postcode": "43-356",
                "amenity": "pharmacy"
            },
            "geometry": {
                "type": "Point",
                "coordinates": [
                    19.216324583739674,
                    49.84628986180556
                ]
            }
        },
        {
            "type": "Feature",
            "properties": {
                "ref:csioz": 1065094,
                "name": "Barbara",
                "addr:street": "Ludowa",
                "addr:housenumber": "4",
                "addr:city": "Kozy",
                "addr:postcode": "43-340",
                "amenity": "pharmacy"
            },
            "geometry": {
                "type": "Point",
                "coordinates": [
                    19.14331844036609,
                    49.84457683791363
                ]
            }
        },
        {
            "type": "Feature",
            "properties": {
                "ref:csioz": 1065107,
                "name": "Koziańskie Centrum Leków",
                "addr:street": "Przecznia",
                "addr:housenumber": "2",
                "addr:city": "Kozy",
                "addr:postcode": "43-340",
                "amenity": "pharmacy"
            },
            "geometry": {
                "type": "Point",
                "coordinates": [
                    19.147675656440054,
                    49.84741612214792
                ]
            }
        },
        {
            "type": "Feature",
            "properties": {
                "ref:csioz": 1065702,
                "name": "Bursztynowa",
                "addr:housenumber": "433",
                "addr:city": "Międzyrzecze Górne",
                "addr:postcode": "43-392",
                "amenity": "pharmacy"
            },
            "geometry": {
                "type": "Point",
                "coordinates": [
                    18.939543480359337,
                    49.83925399093369
                ]
            }
        },
        {
            "type": "Feature",
            "properties": {
                "ref:csioz": 1066846,
                "name": "Farmana",
                "addr:street": "Rynek",
                "addr:housenumber": "3",
                "addr:city": "Porąbka",
                "addr:postcode": "43-353",
                "amenity": "pharmacy"
            },
            "geometry": {
                "type": "Point",
                "coordinates": [
                    19.21769849212063,
                    49.81917981646144
                ]
            }
        },
        {
            "type": "Feature",
            "properties": {
                "ref:csioz": 1069821,
                "name": "Pod Starą Pocztą",
                "addr:street": "Beskidzka",
                "addr:housenumber": "16",
                "addr:city": "Szczyrk",
                "addr:postcode": "43-370",
                "amenity": "pharmacy"
            },
            "geometry": {
                "type": "Point",
                "coordinates": [
                    19.02633824300959,
                    49.71622709245073
                ]
            }
        },
        {
            "type": "Feature",
            "properties": {
                "ref:csioz": 1069837,
                "name": "Apteka Dbam O Zdrowie",
                "addr:street": "Beskidzka",
                "addr:housenumber": "69",
                "addr:city": "Szczyrk",
                "addr:postcode": "43-370",
                "amenity": "pharmacy"
            },
            "geometry": {
                "type": "Point",
                "coordinates": [
                    19.029676862164653,
                    49.71761670731884
                ]
            }
        },
        {
            "type": "Feature",
            "properties": {
                "ref:csioz": 1069845,
                "name": "Brak Nazwy",
                "addr:street": "Myśliwska",
                "addr:housenumber": "11",
                "addr:city": "Szczyrk",
                "addr:postcode": "43-370",
                "amenity": "pharmacy"
            },
            "geometry": {
                "type": "Point",
                "coordinates": [
                    19.02125968698346,
                    49.71261302786908
                ]
            }
        },
        {
            "type": "Feature",
            "properties": {
                "ref:csioz": 1070877,
                "name": "Medena",
                "addr:street": "Rynek",
                "addr:housenumber": "2",
                "addr:city": "Wilamowice",
                "addr:postcode": "43-330",
                "amenity": "pharmacy"
            },
            "geometry": {
                "type": "Point",
                "coordinates": [
                    19.152602583864507,
                    49.91612256513556
                ]
            }
        },
        {
            "type": "Feature",
            "properties": {
                "ref:csioz": 1070890,
                "name": "Apteka Dbam O Zdrowie",
                "addr:street": "Wyzwolenia",
                "addr:housenumber": "31",
                "addr:city": "Wilkowice",
                "addr:postcode": "43-365",
                "amenity": "pharmacy"
            },
            "geometry": {
                "type": "Point",
                "coordinates": [
                    19.078711936914885,
                    49.76320159246503
                ]
            }
        },
        {
            "type": "Feature",
            "properties": {
                "ref:csioz": 1071790,
                "name": "Na Widnej",
                "addr:street": "WIDNA",
                "addr:housenumber": "1",
                "addr:city": "ZABRZEG",
                "addr:postcode": "43-516",
                "amenity": "pharmacy"
            },
            "geometry": {
                "type": "Point",
                "coordinates": [
                    18.943984980440963,
                    49.9073790156389
                ]
            }
        },
        {
            "type": "Feature",
            "properties": {
                "ref:csioz": 1072952,
                "name": "U Aptekarza",
                "addr:street": "BIELSKA",
                "addr:housenumber": "13",
                "addr:city": "LIGOTA",
                "addr:postcode": "43-518",
                "amenity": "pharmacy"
            },
            "geometry": {
                "type": "Point",
                "coordinates": [
                    18.949934330584,
                    49.87893481071486
                ]
            }
        },
        {
            "type": "Feature",
            "properties": {
                "ref:csioz": 1114881,
                "name": "Apteka Przy Wiarusie",
                "addr:street": "Bielska",
                "addr:housenumber": "38",
                "addr:city": "Jaworze",
                "addr:postcode": "43-384",
                "amenity": "pharmacy"
            },
            "geometry": {
                "type": "Point",
                "coordinates": [
                    18.948906973844373,
                    49.80566627446781
                ]
            }
        },
        {
            "type": "Feature",
            "properties": {
                "ref:csioz": 1165997,
                "name": "W Rynku",
                "addr:street": "pl. Jana Pawła II",
                "addr:housenumber": "4",
                "addr:flats": "1",
                "addr:city": "Czechowice-Dziedzice",
                "addr:postcode": "43-502",
                "amenity": "pharmacy"
            },
            "geometry": {
                "type": "Point",
                "coordinates": [
                    19.008673000000012,
                    49.91107600001239
                ]
            }
        },
        {
            "type": "Feature",
            "properties": {
                "ref:csioz": 1221802,
                "name": "Apteka Słoneczna",
                "addr:street": "Traugutta",
                "addr:housenumber": "20",
                "addr:city": "Czechowice-Dziedzice",
                "addr:postcode": "43-502",
                "amenity": "pharmacy"
            },
            "geometry": {
                "type": "Point",
                "coordinates": [
                    19.00784700000001,
                    49.92009600001241
                ]
            }
        },
        {
            "type": "Feature",
            "properties": {
                "ref:csioz": 1223964,
                "name": "Dział Farmacji Szpitalnej",
                "addr:street": "Krótka",
                "addr:housenumber": "4",
                "addr:city": "Czechowice-Dziedzice",
                "addr:postcode": "43-502",
                "amenity": "pharmacy"
            },
            "geometry": {
                "type": "Point",
                "coordinates": [
                    19.004548000000007,
                    49.909387000012394
                ]
            }
        },
        {
            "type": "Feature",
            "properties": {
                "ref:csioz": 1224514,
                "name": "Apteka Dobrych Rad",
                "addr:street": "Nad Białką",
                "addr:housenumber": "1",
                "addr:city": "Czechowice-Dziedzice",
                "addr:postcode": "43-502",
                "amenity": "pharmacy"
            },
            "geometry": {
                "type": "Point",
                "coordinates": [
                    19.015542,
                    49.93528100001241
                ]
            }
        },
        {
            "type": "Feature",
            "properties": {
                "ref:csioz": 1057105,
                "name": "Beskidzki Zespół Leczniczo-Rehabilitacyjny Szpital Opieki Długoterminowej W Jaworzu Oddział Leczniczo-Rehabilitacyjny Dla Dorosłych",
                "addr:street": "Słoneczna",
                "addr:housenumber": "83",
                "addr:city": "Jaworze",
                "addr:postcode": "43-384",
                "amenity": "pharmacy"
            },
            "geometry": {
                "type": "Point",
                "coordinates": [
                    18.94681433786944,
                    49.792914977927715
                ]
            }
        },
        {
            "type": "Feature",
            "properties": {
                "ref:csioz": 1059917,
                "name": "Brak",
                "addr:street": "kard. Karola Wojtyły",
                "addr:housenumber": "26",
                "addr:city": "Czaniec",
                "addr:postcode": "34-314",
                "amenity": "pharmacy"
            },
            "geometry": {
                "type": "Point",
                "coordinates": [
                    19.24517997974439,
                    49.84990851592266
                ]
            }
        },
        {
            "type": "Feature",
            "properties": {
                "ref:csioz": 1059949,
                "name": "Apteka Imienia Ojca Pio",
                "addr:street": "Jagiellońska",
                "addr:housenumber": "13",
                "addr:city": "Czechowice-Dziedzice",
                "addr:postcode": "43-502",
                "amenity": "pharmacy"
            },
            "geometry": {
                "type": "Point",
                "coordinates": [
                    19.000786599632107,
                    49.90821174812685
                ]
            }
        },
        {
            "type": "Feature",
            "properties": {
                "ref:csioz": 1062966,
                "name": "Apteka Jaworzańska",
                "addr:street": "Szkolna",
                "addr:housenumber": "7",
                "addr:city": "Jaworze",
                "addr:postcode": "43-384",
                "amenity": "pharmacy"
            },
            "geometry": {
                "type": "Point",
                "coordinates": [
                    18.946571816926493,
                    49.79365490922643
                ]
            }
        },
        {
            "type": "Feature",
            "properties": {
                "ref:csioz": 1062977,
                "name": "Ostoja",
                "addr:street": "Zdrojowa",
                "addr:housenumber": "138",
                "addr:city": "Jaworze",
                "addr:postcode": "43-384",
                "amenity": "pharmacy"
            },
            "geometry": {
                "type": "Point",
                "coordinates": [
                    18.946767741732234,
                    49.79394108391097
                ]
            }
        },
        {
            "type": "Feature",
            "properties": {
                "ref:csioz": 1065627,
                "name": "Brak",
                "addr:housenumber": "22",
                "addr:city": "Mazańcowice",
                "addr:postcode": "43-391",
                "amenity": "pharmacy"
            },
            "geometry": {
                "type": "Point",
                "coordinates": [
                    18.974388123605905,
                    49.86272686141254
                ]
            }
        },
        {
            "type": "Feature",
            "properties": {
                "ref:csioz": 1074424,
                "name": "Szpital Kolejowy",
                "addr:street": "Żywiecka",
                "addr:housenumber": "19",
                "addr:city": "Wilkowice",
                "addr:postcode": "43-365",
                "amenity": "pharmacy"
            },
            "geometry": {
                "type": "Point",
                "coordinates": [
                    19.09168638187323,
                    49.77295102119402
                ]
            }
        },
        {
            "type": "Feature",
            "properties": {
                "ref:csioz": 1112140,
                "name": "Apteka Isofarm",
                "addr:street": "Bielska",
                "addr:housenumber": "46A",
                "addr:city": "Pisarzowice",
                "addr:postcode": "43-332",
                "amenity": "pharmacy"
            },
            "geometry": {
                "type": "Point",
                "coordinates": [
                    19.13302620946996,
                    49.87581965057424
                ]
            }
        },
        {
            "type": "Feature",
            "properties": {
                "ref:csioz": 1118959,
                "name": "Apteka Pod Lipami Nowa Farmacja",
                "addr:street": "Lipowa",
                "addr:housenumber": "2",
                "addr:city": "Kozy",
                "addr:postcode": "43-340",
                "amenity": "pharmacy"
            },
            "geometry": {
                "type": "Point",
                "coordinates": [
                    19.147307887500045,
                    49.84785107659839
                ]
            }
        },
        {
            "type": "Feature",
            "properties": {
                "ref:csioz": 1119646,
                "name": "Arnika",
                "addr:street": "Bielska",
                "addr:housenumber": "147",
                "addr:city": "Kozy",
                "addr:postcode": "43-340",
                "amenity": "pharmacy"
            },
            "geometry": {
                "type": "Point",
                "coordinates": [
                    19.12330221190016,
                    49.831379988066125
                ]
            }
        },
        {
            "type": "Feature",
            "properties": {
                "ref:csioz": 1120218,
                "name": "Familia",
                "addr:housenumber": "541",
                "addr:flats": "6",
                "addr:city": "Rudzica",
                "addr:postcode": "43-394",
                "amenity": "pharmacy"
            },
            "geometry": {
                "type": "Point",
                "coordinates": [
                    18.88669026568682,
                    49.85595054750033
                ]
            }
        },
        {
            "type": "Feature",
            "properties": {
                "ref:csioz": 1171156,
                "name": "Centrum Pulmonologii I Torakochirurgii W Bystrej",
                "addr:street": "Juliana Fałata",
                "addr:housenumber": "2",
                "addr:city": "Bystra",
                "addr:postcode": "43-360",
                "amenity": "pharmacy"
            },
            "geometry": {
                "type": "Point",
                "coordinates": [
                    19.070328000000018,
                    49.76416400001217
                ]
            }
        },
        {
            "type": "Feature",
            "properties": {
                "ref:csioz": 1175487,
                "name": "Apteka Familia Plus",
                "addr:housenumber": "845",
                "addr:city": "Jasienica",
                "addr:postcode": "43-385",
                "amenity": "pharmacy"
            },
            "geometry": {
                "type": "Point",
                "coordinates": [
                    18.91902999999998,
                    49.81357700001224
                ]
            }
        },
        {
            "type": "Feature",
            "properties": {
                "ref:csioz": 1178616,
                "name": "Apteka Lekosfera Dga 21",
                "addr:street": "Legionów",
                "addr:housenumber": "83",
                "addr:city": "Czechowice-Dziedzice",
                "addr:postcode": "43-502",
                "amenity": "pharmacy"
            },
            "geometry": {
                "type": "Point",
                "coordinates": [
                    18.996839816475006,
                    49.91331034227311
                ]
            }
        },
        {
            "type": "Feature",
            "properties": {
                "ref:csioz": 1186400,
                "name": "Panaceum",
                "addr:street": "Krakowska",
                "addr:housenumber": "24",
                "addr:city": "Kobiernice",
                "addr:postcode": "43-356",
                "amenity": "pharmacy"
            },
            "geometry": {
                "type": "Point",
                "coordinates": [
                    19.21730900000006,
                    49.849267000012304
                ]
            }
        },
        {
            "type": "Feature",
            "properties": {
                "ref:csioz": 1204332,
                "name": "Dr. Max",
                "addr:street": "Romana Białka",
                "addr:housenumber": "1307",
                "addr:city": "Buczkowice",
                "addr:postcode": "43-374",
                "amenity": "pharmacy"
            },
            "geometry": {
                "type": "Point",
                "coordinates": [
                    19.068107818624984,
                    49.72688705462161
                ]
            }
        },
        {
            "type": "Feature",
            "properties": {
                "ref:csioz": 1210499,
                "name": "Hygieia",
                "addr:street": "Kolejowa",
                "addr:housenumber": "17",
                "addr:city": "Czechowice-Dziedzice",
                "addr:postcode": "43-502",
                "amenity": "pharmacy"
            },
            "geometry": {
                "type": "Point",
                "coordinates": [
                    19.002340392382763,
                    49.91424722566858
                ]
            }
        },
        {
            "type": "Feature",
            "properties": {
                "ref:csioz": 1217917,
                "name": "Apteka Max 2",
                "addr:street": "Juliusza Słowackiego",
                "addr:housenumber": "2",
                "addr:city": "Czechowice-Dziedzice",
                "addr:postcode": "43-502",
                "amenity": "pharmacy"
            },
            "geometry": {
                "type": "Point",
                "coordinates": [
                    19.004736720456997,
                    49.91405775457472
                ]
            }
        },
        {
            "type": "Feature",
            "properties": {
                "ref:csioz": 1218086,
                "name": "Apteka Lekosfera Dga26",
                "addr:street": "Juliusza Słowackiego",
                "addr:housenumber": "31",
                "addr:city": "Czechowice-Dziedzice",
                "addr:postcode": "43-502",
                "amenity": "pharmacy"
            },
            "geometry": {
                "type": "Point",
                "coordinates": [
                    19.011763173147507,
                    49.91416750350152
                ]
            }
        },
        {
            "type": "Feature",
            "properties": {
                "ref:csioz": 1219204,
                "name": "Apteka Wilamowicka",
                "addr:street": "gen. Kazimierza Pułaskiego",
                "addr:housenumber": "2",
                "addr:city": "Wilamowice",
                "addr:postcode": "43-330",
                "amenity": "pharmacy"
            },
            "geometry": {
                "type": "Point",
                "coordinates": [
                    19.15156876738825,
                    49.91349451891845
                ]
            }
        },
        {
            "type": "Feature",
            "properties": {
                "ref:csioz": 1221828,
                "name": "Apteka Słoneczna",
                "addr:street": "Niepodległości",
                "addr:housenumber": "10",
                "addr:city": "Czechowice-Dziedzice",
                "addr:postcode": "43-502",
                "amenity": "pharmacy"
            },
            "geometry": {
                "type": "Point",
                "coordinates": [
                    19.005564000000003,
                    49.91275600001238
                ]
            }
        },
        {
            "type": "Feature",
            "properties": {
                "ref:csioz": 1224392,
                "name": "Ziko Apteka",
                "addr:street": "Beskidzka",
                "addr:housenumber": "135",
                "addr:city": "Szczyrk",
                "addr:postcode": "43-370",
                "amenity": "pharmacy"
            },
            "geometry": {
                "type": "Point",
                "coordinates": [
                    19.041332985669225,
                    49.72056029993283
                ]
            }
        },
        {
            "type": "Feature",
            "properties": {
                "ref:csioz": 1224466,
                "name": "Apteka Duofarm",
                "addr:street": "Zdrowa",
                "addr:housenumber": "4",
                "addr:city": "Pisarzowice",
                "addr:postcode": "43-332",
                "amenity": "pharmacy"
            },
            "geometry": {
                "type": "Point",
                "coordinates": [
                    19.14018027916469,
                    49.88274374620603
                ]
            }
        },
        {
            "type": "Feature",
            "properties": {
                "ref:csioz": 1225456,
                "name": "Apteka Familia",
                "addr:housenumber": "1045",
                "addr:city": "Mazańcowice",
                "addr:postcode": "43-391",
                "amenity": "pharmacy"
            },
            "geometry": {
                "type": "Point",
                "coordinates": [
                    18.98175373756862,
                    49.85519373714404
                ]
            }
        },
        {
            "type": "Feature",
            "properties": {
                "ref:csioz": 1228883,
                "name": "Zdrówko",
                "addr:street": "Beskidzka",
                "addr:housenumber": "860",
                "addr:city": "Rybarzowice",
                "addr:postcode": "43-378",
                "amenity": "pharmacy"
            },
            "geometry": {
                "type": "Point",
                "coordinates": [
                    19.103659286089005,
                    49.72926348449653
                ]
            }
        },
        {
            "type": "Feature",
            "properties": {
                "ref:csioz": 1226664,
                "name": "Centrum Dla Zdrowia",
                "addr:street": "kard. Karola Wojtyły",
                "addr:housenumber": "58",
                "addr:city": "Czaniec",
                "addr:postcode": "43-354",
                "amenity": "pharmacy"
            },
            "geometry": {
                "type": "Point",
                "coordinates": [
                    19.252617017645637,
                    49.85067079008278
                ]
            }
        }
    ]
}