{
    "type": "FeatureCollection",
    "name": "JPT_KOD_JE_3014",
    "crs": {
        "type": "name",
        "properties": {
            "name": "urn:ogc:def:crs:EPSG::4326"
        }
    },
    "features": [
        {
            "type": "Feature",
            "properties": {
                "ref:csioz": 1124771,
                "addr:street": "CHARCICE",
                "addr:housenumber": "12",
                "addr:city": "CHRZYPSKO WIELKIE",
                "addr:postcode": "64-412",
                "amenity": "pharmacy"
            },
            "geometry": {
                "type": "Point",
                "coordinates": [
                    16.20172799998819,
                    52.648764000016584
                ]
            }
        },
        {
            "type": "Feature",
            "properties": {
                "ref:csioz": 1044818,
                "name": "Doz Apteka Dbam O Zdrowie Apteka Nova",
                "addr:street": "WRONIECKA",
                "addr:housenumber": "9",
                "addr:city": "SIERAKÓW",
                "addr:postcode": "64-410",
                "amenity": "pharmacy"
            },
            "geometry": {
                "type": "Point",
                "coordinates": [
                    16.09098791959399,
                    52.6483710359201
                ]
            }
        },
        {
            "type": "Feature",
            "properties": {
                "ref:csioz": 1045823,
                "name": "Lamberti",
                "addr:street": "Gumna",
                "addr:housenumber": "4D",
                "addr:city": "Kwilcz",
                "addr:postcode": "64-320",
                "amenity": "pharmacy"
            },
            "geometry": {
                "type": "Point",
                "coordinates": [
                    16.08336442097522,
                    52.55434541535684
                ]
            }
        },
        {
            "type": "Feature",
            "properties": {
                "ref:csioz": 1047757,
                "addr:street": "Kardynała Stefana Wyszyńskiego",
                "addr:housenumber": "25",
                "addr:city": "Kwilcz",
                "addr:postcode": "64-420",
                "amenity": "pharmacy"
            },
            "geometry": {
                "type": "Point",
                "coordinates": [
                    16.083289824972773,
                    52.550070302692795
                ]
            }
        },
        {
            "type": "Feature",
            "properties": {
                "ref:csioz": 1051315,
                "name": "Pod Kasztanami",
                "addr:street": "SIKORSKIEGO",
                "addr:housenumber": "12",
                "addr:city": "MIĘDZYCHÓD",
                "addr:postcode": "64-400",
                "amenity": "pharmacy"
            },
            "geometry": {
                "type": "Point",
                "coordinates": [
                    15.909021041674501,
                    52.605537380272146
                ]
            }
        },
        {
            "type": "Feature",
            "properties": {
                "ref:csioz": 1051328,
                "name": "Arnika",
                "addr:street": "17 Stycznia",
                "addr:housenumber": "28",
                "addr:city": "Międzychód",
                "addr:postcode": "64-400",
                "amenity": "pharmacy"
            },
            "geometry": {
                "type": "Point",
                "coordinates": [
                    15.891796582522995,
                    52.603812292936
                ]
            }
        },
        {
            "type": "Feature",
            "properties": {
                "ref:csioz": 1051344,
                "name": "Salix",
                "addr:street": "CHROBREGO",
                "addr:housenumber": "12",
                "addr:city": "SIERAKÓW",
                "addr:postcode": "64-410",
                "amenity": "pharmacy"
            },
            "geometry": {
                "type": "Point",
                "coordinates": [
                    16.076223934044474,
                    52.65083501990065
                ]
            }
        },
        {
            "type": "Feature",
            "properties": {
                "ref:csioz": 1051599,
                "name": "Tilia",
                "addr:street": "Marszałka Piłsudskiego",
                "addr:housenumber": "49",
                "addr:city": "Międzychód",
                "addr:postcode": "64-400",
                "amenity": "pharmacy"
            },
            "geometry": {
                "type": "Point",
                "coordinates": [
                    15.889455636267106,
                    52.60107221748395
                ]
            }
        },
        {
            "type": "Feature",
            "properties": {
                "ref:csioz": 1055210,
                "name": "Adonis",
                "addr:street": "Jeziorna",
                "addr:housenumber": "11",
                "addr:city": "Chrzypsko Wielkie",
                "addr:postcode": "64-412",
                "amenity": "pharmacy"
            },
            "geometry": {
                "type": "Point",
                "coordinates": [
                    16.218027124168277,
                    52.6253438723979
                ]
            }
        },
        {
            "type": "Feature",
            "properties": {
                "ref:csioz": 1055614,
                "name": "Doz Apteka.Dbam O Zdrowie Antonina Sobkowska",
                "addr:street": "17 Stycznia",
                "addr:housenumber": "96",
                "addr:city": "Międzychód",
                "addr:postcode": "64-400",
                "amenity": "pharmacy"
            },
            "geometry": {
                "type": "Point",
                "coordinates": [
                    15.899215488494912,
                    52.606070594637224
                ]
            }
        },
        {
            "type": "Feature",
            "properties": {
                "ref:csioz": 1055623,
                "addr:street": "17 Stycznia",
                "addr:housenumber": "87",
                "addr:city": "Międzychód",
                "addr:postcode": "64-400",
                "amenity": "pharmacy"
            },
            "geometry": {
                "type": "Point",
                "coordinates": [
                    15.896506828046723,
                    52.60557058304739
                ]
            }
        },
        {
            "type": "Feature",
            "properties": {
                "ref:csioz": 1186459,
                "name": "Passiflora",
                "addr:street": "Poznańska",
                "addr:housenumber": "40 B",
                "addr:city": "Sieraków",
                "addr:postcode": "64-410",
                "amenity": "pharmacy"
            },
            "geometry": {
                "type": "Point",
                "coordinates": [
                    16.086144996024252,
                    52.64631481417841
                ]
            }
        },
        {
            "type": "Feature",
            "properties": {
                "ref:csioz": 1186753,
                "name": "Centrum Zdrowia",
                "addr:street": "Daszyńskiego",
                "addr:housenumber": "19 D",
                "addr:city": "Międzychód",
                "addr:postcode": "64-400",
                "amenity": "pharmacy"
            },
            "geometry": {
                "type": "Point",
                "coordinates": [
                    15.889915947455824,
                    52.598291715670726
                ]
            }
        },
        {
            "type": "Feature",
            "properties": {
                "ref:csioz": 1192285,
                "name": "Passiflora",
                "addr:street": "Sportowa",
                "addr:housenumber": "1",
                "addr:city": "Lubosz",
                "addr:postcode": "64-423",
                "amenity": "pharmacy"
            },
            "geometry": {
                "type": "Point",
                "coordinates": [
                    16.181162263740923,
                    52.52918632136133
                ]
            }
        },
        {
            "type": "Feature",
            "properties": {
                "ref:csioz": 1207094,
                "name": "Apteka Szpitalna",
                "addr:street": "Szpitalna",
                "addr:housenumber": "10",
                "addr:city": "Międzychód",
                "addr:postcode": "64-400",
                "amenity": "pharmacy"
            },
            "geometry": {
                "type": "Point",
                "coordinates": [
                    15.88973602913183,
                    52.599475310130686
                ]
            }
        },
        {
            "type": "Feature",
            "properties": {
                "ref:csioz": 1214855,
                "name": "Stara Farmacja",
                "addr:street": "Kwiatowa",
                "addr:housenumber": "15",
                "addr:city": "Chrzypsko Wielkie",
                "addr:postcode": "64-412",
                "amenity": "pharmacy"
            },
            "geometry": {
                "type": "Point",
                "coordinates": [
                    16.20783087775757,
                    52.628538531846665
                ]
            }
        },
        {
            "type": "Feature",
            "properties": {
                "ref:csioz": 1221652,
                "name": "Medica",
                "addr:street": "Powstańców Wielkopolskich",
                "addr:housenumber": "15",
                "addr:city": "Kwilcz",
                "addr:postcode": "64-420",
                "amenity": "pharmacy"
            },
            "geometry": {
                "type": "Point",
                "coordinates": [
                    16.083205794572592,
                    52.55537346066196
                ]
            }
        },
        {
            "type": "Feature",
            "properties": {
                "ref:csioz": 1221743,
                "name": "Medica",
                "addr:street": "Kwiatowa",
                "addr:housenumber": "13",
                "addr:city": "Bielsko",
                "addr:postcode": "64-400",
                "amenity": "pharmacy"
            },
            "geometry": {
                "type": "Point",
                "coordinates": [
                    15.926109319167436,
                    52.60681906076422
                ]
            }
        },
        {
            "type": "Feature",
            "properties": {
                "ref:csioz": 1221756,
                "name": "Medica",
                "addr:street": "Generała Sikorskiego",
                "addr:housenumber": "4",
                "addr:city": "Międzychód",
                "addr:postcode": "64-420",
                "amenity": "pharmacy"
            },
            "geometry": {
                "type": "Point",
                "coordinates": [
                    15.905609566202271,
                    52.60598940302613
                ]
            }
        },
        {
            "type": "Feature",
            "properties": {
                "ref:csioz": 1044963,
                "name": "\"Doz Apteka Dbam O Zdrowie \"\"Pod Białym Orłem\"\"\"",
                "addr:street": "Plac Powstańców Wlkp.",
                "addr:housenumber": "22",
                "addr:city": "Sieraków",
                "addr:postcode": "64-410",
                "amenity": "pharmacy"
            },
            "geometry": {
                "type": "Point",
                "coordinates": [
                    16.08136499998563,
                    52.65147500001663
                ]
            }
        }
    ]
}