{
    "type": "FeatureCollection",
    "name": "JPT_KOD_JE_2010",
    "features": [
        {
            "type": "Feature",
            "properties": {
                "ref:csioz": 1021243,
                "name": "Apteka Rodzinna",
                "addr:street": "Szpitalna",
                "addr:housenumber": "1A",
                "addr:city": "Siemiatycze",
                "addr:postcode": "17-300",
                "amenity": "pharmacy"
            },
            "geometry": {
                "type": "Point",
                "coordinates": [
                    22.86663593322165,
                    52.42096862726828
                ]
            }
        },
        {
            "type": "Feature",
            "properties": {
                "ref:csioz": 1022643,
                "name": "\"Apteka Cef@Rm 36,6\"",
                "addr:street": "Plac Jana Pawła II",
                "addr:housenumber": "16",
                "addr:city": "Siemiatycze",
                "addr:postcode": "17-300",
                "amenity": "pharmacy"
            },
            "geometry": {
                "type": "Point",
                "coordinates": [
                    22.862401483020296,
                    52.427139989104084
                ]
            }
        },
        {
            "type": "Feature",
            "properties": {
                "ref:csioz": 1022662,
                "name": "\"Apteka Cef@Rm 36,6\"",
                "addr:street": "Tadeusza Kościuszki",
                "addr:housenumber": "12",
                "addr:city": "Drohiczyn",
                "addr:postcode": "17-312",
                "amenity": "pharmacy"
            },
            "geometry": {
                "type": "Point",
                "coordinates": [
                    22.657613799867253,
                    52.395292398840475
                ]
            }
        },
        {
            "type": "Feature",
            "properties": {
                "ref:csioz": 1024565,
                "addr:street": "Szkolna",
                "addr:housenumber": "3",
                "addr:city": "Nurzec-Stacja",
                "addr:postcode": "17-330",
                "amenity": "pharmacy"
            },
            "geometry": {
                "type": "Point",
                "coordinates": [
                    23.08177454383468,
                    52.462136942916864
                ]
            }
        },
        {
            "type": "Feature",
            "properties": {
                "ref:csioz": 1021126,
                "name": "Apteka -Janina Karp",
                "addr:street": "Pałacowa",
                "addr:housenumber": "20",
                "addr:city": "Siemiatycze",
                "addr:postcode": "17-300",
                "amenity": "pharmacy"
            },
            "geometry": {
                "type": "Point",
                "coordinates": [
                    22.86295655137907,
                    52.424069103730744
                ]
            }
        },
        {
            "type": "Feature",
            "properties": {
                "ref:csioz": 1166622,
                "addr:street": "Szpitalna",
                "addr:housenumber": "8",
                "addr:city": "Siemiatycze",
                "addr:postcode": "17-300",
                "amenity": "pharmacy"
            },
            "geometry": {
                "type": "Point",
                "coordinates": [
                    22.863777296877107,
                    52.42182256168644
                ]
            }
        },
        {
            "type": "Feature",
            "properties": {
                "ref:csioz": 1014615,
                "addr:street": "1 Maja",
                "addr:housenumber": "11",
                "addr:city": "Grodzisk",
                "addr:postcode": "17-315",
                "amenity": "pharmacy"
            },
            "geometry": {
                "type": "Point",
                "coordinates": [
                    22.73484687990539,
                    52.58165801168366
                ]
            }
        },
        {
            "type": "Feature",
            "properties": {
                "ref:csioz": 1015061,
                "name": "Punkt Apteczny Przy Bielskiej",
                "addr:street": "Bielska",
                "addr:housenumber": "4A",
                "addr:city": "Grodzisk",
                "addr:postcode": "17-315",
                "amenity": "pharmacy"
            },
            "geometry": {
                "type": "Point",
                "coordinates": [
                    22.739557176231624,
                    52.58324297187802
                ]
            }
        },
        {
            "type": "Feature",
            "properties": {
                "ref:csioz": 1015517,
                "addr:street": "3 Maja",
                "addr:housenumber": "33",
                "addr:city": "Milejczyce",
                "addr:postcode": "17-332",
                "amenity": "pharmacy"
            },
            "geometry": {
                "type": "Point",
                "coordinates": [
                    23.130620404304583,
                    52.51829361058345
                ]
            }
        },
        {
            "type": "Feature",
            "properties": {
                "ref:csioz": 1021105,
                "name": "Urtica",
                "addr:street": "Warszawska",
                "addr:housenumber": "12",
                "addr:city": "Drohiczyn",
                "addr:postcode": "17-312",
                "amenity": "pharmacy"
            },
            "geometry": {
                "type": "Point",
                "coordinates": [
                    22.65803861545507,
                    52.40060909195175
                ]
            }
        },
        {
            "type": "Feature",
            "properties": {
                "ref:csioz": 1021867,
                "addr:street": "Grodzieńska",
                "addr:housenumber": "36",
                "addr:city": "Siemiatycze",
                "addr:postcode": "17-300",
                "amenity": "pharmacy"
            },
            "geometry": {
                "type": "Point",
                "coordinates": [
                    22.869617207221307,
                    52.427246513407425
                ]
            }
        },
        {
            "type": "Feature",
            "properties": {
                "ref:csioz": 1022044,
                "name": "Doz Apteka. Dbam O Zdrowie. Bożena Lesner.",
                "addr:street": "11 Listopada",
                "addr:housenumber": "45",
                "addr:city": "Siemiatycze",
                "addr:postcode": "17-300",
                "amenity": "pharmacy"
            },
            "geometry": {
                "type": "Point",
                "coordinates": [
                    22.86710944134349,
                    52.42235705982931
                ]
            }
        },
        {
            "type": "Feature",
            "properties": {
                "ref:csioz": 1206983,
                "name": "Apteka Społeczna Na Placu Jana Pawła Ii Grupa Nowa Farmacja",
                "addr:street": "Plac Jana Pawła II",
                "addr:housenumber": "14",
                "addr:city": "Siemiatycze",
                "addr:postcode": "17-300",
                "amenity": "pharmacy"
            },
            "geometry": {
                "type": "Point",
                "coordinates": [
                    22.863788071458355,
                    52.427500951527115
                ]
            }
        },
        {
            "type": "Feature",
            "properties": {
                "ref:csioz": 1024363,
                "name": "Doz Apteka. Dbam O Zdrowie. Bożena Lesner.",
                "addr:street": "Pałacowa",
                "addr:housenumber": "19",
                "addr:city": "Siemiatycze",
                "addr:postcode": "17-300",
                "amenity": "pharmacy"
            },
            "geometry": {
                "type": "Point",
                "coordinates": [
                    22.863346050442267,
                    52.42433403992474
                ]
            }
        },
        {
            "type": "Feature",
            "properties": {
                "ref:csioz": 1024744,
                "addr:street": "gen. Władysława Andersa",
                "addr:housenumber": "7A",
                "addr:city": "Siemiatycze",
                "addr:postcode": "17-300",
                "amenity": "pharmacy"
            },
            "geometry": {
                "type": "Point",
                "coordinates": [
                    22.88224348773238,
                    52.42862432636878
                ]
            }
        },
        {
            "type": "Feature",
            "properties": {
                "ref:csioz": 1213530,
                "name": "Apteka Miejska",
                "addr:street": "Plac Jana Pawła II",
                "addr:housenumber": "38",
                "addr:city": "Siemiatycze",
                "addr:postcode": "17-300",
                "amenity": "pharmacy"
            },
            "geometry": {
                "type": "Point",
                "coordinates": [
                    22.86283113470596,
                    52.42875387863428
                ]
            }
        },
        {
            "type": "Feature",
            "properties": {
                "ref:csioz": 1224918,
                "name": "Rodzinny Punkt Apteczny Janusz Bonda",
                "addr:housenumber": "44B",
                "addr:city": "Perlejewo",
                "addr:postcode": "17-322",
                "amenity": "pharmacy"
            },
            "geometry": {
                "type": "Point",
                "coordinates": [
                    22.563226536255613,
                    52.56851494796077
                ]
            }
        },
        {
            "type": "Feature",
            "properties": {
                "ref:csioz": 1230659,
                "addr:housenumber": "47",
                "addr:city": "Dziadkowice",
                "addr:postcode": "17-306",
                "amenity": "pharmacy"
            },
            "geometry": {
                "type": "Point",
                "coordinates": [
                    22.914590590206696,
                    52.56818592341607
                ]
            }
        }
    ]
}