{
    "type": "FeatureCollection",
    "name": "JPT_KOD_JE_1009",
    "crs": {
        "type": "name",
        "properties": {
            "name": "urn:ogc:def:crs:EPSG::4326"
        }
    },
    "features": [
        {
            "type": "Feature",
            "properties": {
                "ref:csioz": 1011861,
                "addr:street": "Wolności",
                "addr:housenumber": "8",
                "addr:city": "Działoszyn",
                "addr:postcode": "98-355",
                "amenity": "pharmacy"
            },
            "geometry": {
                "type": "Point",
                "coordinates": [
                    18.86541707582886,
                    51.11710307419578
                ]
            }
        },
        {
            "type": "Feature",
            "properties": {
                "ref:csioz": 1009893,
                "addr:street": "Kościuszki",
                "addr:housenumber": "29A",
                "addr:city": "Pajęczno",
                "addr:postcode": "98-330",
                "amenity": "pharmacy"
            },
            "geometry": {
                "type": "Point",
                "coordinates": [
                    18.99742654043587,
                    51.14530227790154
                ]
            }
        },
        {
            "type": "Feature",
            "properties": {
                "ref:csioz": 1011983,
                "name": "Doz Apteka. Dbam O Zdrowie. Mgr Farm. Cykowska Urszula",
                "addr:street": "Józefa Piłsudskiego",
                "addr:housenumber": "21C",
                "addr:city": "Działoszyn",
                "addr:postcode": "98-355",
                "amenity": "pharmacy"
            },
            "geometry": {
                "type": "Point",
                "coordinates": [
                    18.873935268313442,
                    51.117536097653044
                ]
            }
        },
        {
            "type": "Feature",
            "properties": {
                "ref:csioz": 1013350,
                "name": "Primula",
                "addr:street": "Usługowa",
                "addr:housenumber": "1C",
                "addr:city": "Działoszyn",
                "addr:postcode": "98-355",
                "amenity": "pharmacy"
            },
            "geometry": {
                "type": "Point",
                "coordinates": [
                    18.874133294807866,
                    51.11642234296618
                ]
            }
        },
        {
            "type": "Feature",
            "properties": {
                "ref:csioz": 1014750,
                "name": "Dr. Max",
                "addr:street": "Wiśniowa",
                "addr:housenumber": "3A",
                "addr:city": "Pajęczno",
                "addr:postcode": "98-330",
                "amenity": "pharmacy"
            },
            "geometry": {
                "type": "Point",
                "coordinates": [
                    18.99754424895412,
                    51.14765653477851
                ]
            }
        },
        {
            "type": "Feature",
            "properties": {
                "ref:csioz": 1017793,
                "name": "Centrum",
                "addr:street": "Kościuszki",
                "addr:housenumber": "41",
                "addr:city": "Pajęczno",
                "addr:postcode": "98-330",
                "amenity": "pharmacy"
            },
            "geometry": {
                "type": "Point",
                "coordinates": [
                    18.996524350910466,
                    51.145188558087085
                ]
            }
        },
        {
            "type": "Feature",
            "properties": {
                "ref:csioz": 1017954,
                "addr:street": "Kościuszki",
                "addr:housenumber": "59",
                "addr:city": "Nowa Brzeźnica",
                "addr:postcode": "98-331",
                "amenity": "pharmacy"
            },
            "geometry": {
                "type": "Point",
                "coordinates": [
                    19.180796961312385,
                    51.07947291120453
                ]
            }
        },
        {
            "type": "Feature",
            "properties": {
                "ref:csioz": 1009552,
                "addr:street": "Kościuszki",
                "addr:housenumber": "26",
                "addr:city": "Nowa Brzeźnica",
                "addr:postcode": "98-331",
                "amenity": "pharmacy"
            },
            "geometry": {
                "type": "Point",
                "coordinates": [
                    19.183812870674473,
                    51.081346112231934
                ]
            }
        },
        {
            "type": "Feature",
            "properties": {
                "ref:csioz": 1009583,
                "addr:street": "Częstochowska",
                "addr:housenumber": "8A",
                "addr:city": "Strzelce Wielkie",
                "addr:postcode": "98-337",
                "amenity": "pharmacy"
            },
            "geometry": {
                "type": "Point",
                "coordinates": [
                    19.142948461195118,
                    51.13970516621397
                ]
            }
        },
        {
            "type": "Feature",
            "properties": {
                "ref:csioz": 1018946,
                "name": "Apteka Z Uśmiechem",
                "addr:street": "Wiśniowa",
                "addr:housenumber": "26",
                "addr:city": "Pajęczno",
                "addr:postcode": "98-330",
                "amenity": "pharmacy"
            },
            "geometry": {
                "type": "Point",
                "coordinates": [
                    18.99726370337491,
                    51.14701158906551
                ]
            }
        },
        {
            "type": "Feature",
            "properties": {
                "ref:csioz": 1021910,
                "name": "Panaceum",
                "addr:street": "Częstochowska",
                "addr:housenumber": "26",
                "addr:city": "Działoszyn",
                "addr:postcode": "98-355",
                "amenity": "pharmacy"
            },
            "geometry": {
                "type": "Point",
                "coordinates": [
                    18.86849740452521,
                    51.11546849548722
                ]
            }
        },
        {
            "type": "Feature",
            "properties": {
                "ref:csioz": 1025836,
                "name": "Super Apteka",
                "addr:street": "Kościuszki",
                "addr:housenumber": "89",
                "addr:city": "Pajęczno",
                "addr:postcode": "98-330",
                "amenity": "pharmacy"
            },
            "geometry": {
                "type": "Point",
                "coordinates": [
                    18.992934934789716,
                    51.146655296735354
                ]
            }
        },
        {
            "type": "Feature",
            "properties": {
                "ref:csioz": 1181999,
                "name": "\"Apteki Burchacińscy; Wejdź Po Zdrowie !\"",
                "addr:street": "Józefa Piłsudskiego",
                "addr:housenumber": "30",
                "addr:city": "Działoszyn",
                "addr:postcode": "98-355",
                "amenity": "pharmacy"
            },
            "geometry": {
                "type": "Point",
                "coordinates": [
                    18.878004199486544,
                    51.11785145830319
                ]
            }
        },
        {
            "type": "Feature",
            "properties": {
                "ref:csioz": 1193297,
                "name": "Samodzielny Publiczny Zakład Opieki Zdrowotnej W Pajęcznie",
                "addr:street": "1 Maja",
                "addr:housenumber": "13/15",
                "addr:city": "Pajęczno",
                "addr:postcode": "98-330",
                "amenity": "pharmacy"
            },
            "geometry": {
                "type": "Point",
                "coordinates": [
                    19.000642530507804,
                    51.14700406352901
                ]
            }
        },
        {
            "type": "Feature",
            "properties": {
                "ref:csioz": 1194242,
                "name": "Przyjazna",
                "addr:street": "Kard. S. Wyszyńskiego",
                "addr:housenumber": "1",
                "addr:city": "Pajęczno",
                "addr:postcode": "98-330",
                "amenity": "pharmacy"
            },
            "geometry": {
                "type": "Point",
                "coordinates": [
                    18.995788346517198,
                    51.14542958394173
                ]
            }
        },
        {
            "type": "Feature",
            "properties": {
                "ref:csioz": 1230814,
                "name": "\"Apteka \"\"Magnolia\"\"\"",
                "addr:street": "Szkolna",
                "addr:housenumber": "12",
                "addr:city": "Trębaczew",
                "addr:postcode": "98-355",
                "amenity": "pharmacy"
            },
            "geometry": {
                "type": "Point",
                "coordinates": [
                    18.920112668347464,
                    51.132085908006445
                ]
            }
        },
        {
            "type": "Feature",
            "properties": {
                "ref:csioz": 1004477,
                "addr:housenumber": "94",
                "addr:city": "Lipnik",
                "addr:postcode": "27-540",
                "amenity": "pharmacy"
            },
            "geometry": {
                "type": "Point",
                "coordinates": [
                    18.876251158398404,
                    51.229358361697045
                ]
            }
        },
        {
            "type": "Feature",
            "properties": {
                "ref:csioz": 1010286,
                "addr:street": "Tysiąclecia",
                "addr:housenumber": "18",
                "addr:city": "Kiełczygłów",
                "addr:postcode": "98-358",
                "amenity": "pharmacy"
            },
            "geometry": {
                "type": "Point",
                "coordinates": [
                    18.988223970874127,
                    51.237882564812175
                ]
            }
        },
        {
            "type": "Feature",
            "properties": {
                "ref:csioz": 1013943,
                "name": "\"Apteki Burchacińscy; Wejdź Po Zdrowie!\"",
                "addr:street": "Nowa",
                "addr:housenumber": "2",
                "addr:city": "Rząśnia",
                "addr:postcode": "97-518",
                "amenity": "pharmacy"
            },
            "geometry": {
                "type": "Point",
                "coordinates": [
                    19.04340857666025,
                    51.21871149614295
                ]
            }
        },
        {
            "type": "Feature",
            "properties": {
                "ref:csioz": 1017933,
                "name": "\"Apteki Burchacińscy; Wejdź Po Zdrowie!\"",
                "addr:street": "Szkolna",
                "addr:housenumber": "9A",
                "addr:city": "Siemkowice",
                "addr:postcode": "98-354",
                "amenity": "pharmacy"
            },
            "geometry": {
                "type": "Point",
                "coordinates": [
                    18.897338133549333,
                    51.20347958910046
                ]
            }
        },
        {
            "type": "Feature",
            "properties": {
                "ref:csioz": 1025754,
                "name": "Apteka Medicus",
                "addr:street": "im. Gabriela Turskiego",
                "addr:housenumber": "3",
                "addr:city": "Sulmierzyce",
                "addr:postcode": "98-338",
                "amenity": "pharmacy"
            },
            "geometry": {
                "type": "Point",
                "coordinates": [
                    19.20342028944304,
                    51.18722182639699
                ]
            }
        },
        {
            "type": "Feature",
            "properties": {
                "ref:csioz": 1010469,
                "addr:street": "Powstania Styczniowego",
                "addr:housenumber": "1",
                "addr:city": "Radoszewice",
                "addr:postcode": "98-354",
                "amenity": "pharmacy"
            },
            "geometry": {
                "type": "Point",
                "coordinates": [
                    18.83428763802482,
                    51.24931380169183
                ]
            }
        }
    ]
}