{
    "type": "FeatureCollection",
    "name": "JPT_KOD_JE_0664",
    "crs": {
        "type": "name",
        "properties": {
            "name": "urn:ogc:def:crs:EPSG::4326"
        }
    },
    "features": [
        {
            "type": "Feature",
            "properties": {
                "ref:csioz": 1110763,
                "name": "Apteka Dbam O Zdrowie",
                "addr:street": "Grodzka",
                "addr:housenumber": "2",
                "addr:city": "Zamość",
                "addr:postcode": "22-400",
                "amenity": "pharmacy"
            },
            "geometry": {
                "type": "Point",
                "coordinates": [
                    23.255370868012008,
                    50.71668949609497
                ]
            }
        },
        {
            "type": "Feature",
            "properties": {
                "ref:csioz": 1115444,
                "addr:street": "Polna",
                "addr:housenumber": "9 A",
                "addr:city": "Zamość",
                "addr:postcode": "22-400",
                "amenity": "pharmacy"
            },
            "geometry": {
                "type": "Point",
                "coordinates": [
                    23.28243554992701,
                    50.71085304144494
                ]
            }
        },
        {
            "type": "Feature",
            "properties": {
                "ref:csioz": 1153735,
                "addr:street": "Śląska",
                "addr:housenumber": "7",
                "addr:city": "Zamość",
                "addr:postcode": "22-400",
                "amenity": "pharmacy"
            },
            "geometry": {
                "type": "Point",
                "coordinates": [
                    23.22798781001103,
                    50.71626298737209
                ]
            }
        },
        {
            "type": "Feature",
            "properties": {
                "ref:csioz": 1153756,
                "name": "Apteka Zamojska Apteka Sda",
                "addr:street": "Piłsudskiego",
                "addr:housenumber": "35",
                "addr:flats": "49",
                "addr:city": "Zamość",
                "addr:postcode": "22-400",
                "amenity": "pharmacy"
            },
            "geometry": {
                "type": "Point",
                "coordinates": [
                    23.25101645430032,
                    50.72804557354523
                ]
            }
        },
        {
            "type": "Feature",
            "properties": {
                "ref:csioz": 1153828,
                "name": "Apteka Vitamed Apteka Sda",
                "addr:street": "Wyszyńskiego",
                "addr:housenumber": "3",
                "addr:city": "Zamość",
                "addr:postcode": "22-400",
                "amenity": "pharmacy"
            },
            "geometry": {
                "type": "Point",
                "coordinates": [
                    23.268228507782155,
                    50.71668768844013
                ]
            }
        },
        {
            "type": "Feature",
            "properties": {
                "ref:csioz": 1153866,
                "addr:street": "Aleje Jana Pawła II",
                "addr:housenumber": "21a",
                "addr:city": "Zamość",
                "addr:postcode": "22-400",
                "amenity": "pharmacy"
            },
            "geometry": {
                "type": "Point",
                "coordinates": [
                    23.285686000123988,
                    50.71324600001573
                ]
            }
        },
        {
            "type": "Feature",
            "properties": {
                "ref:csioz": 1154072,
                "name": "Apteka W D.T. Tomasz",
                "addr:street": "Hrubieszowska",
                "addr:housenumber": "4A",
                "addr:city": "Zamość",
                "addr:postcode": "22-400",
                "amenity": "pharmacy"
            },
            "geometry": {
                "type": "Point",
                "coordinates": [
                    23.27674379792569,
                    50.7129149584835
                ]
            }
        },
        {
            "type": "Feature",
            "properties": {
                "ref:csioz": 1154080,
                "addr:street": "Szwedzka",
                "addr:housenumber": "20",
                "addr:city": "Zamość",
                "addr:postcode": "22-400",
                "amenity": "pharmacy"
            },
            "geometry": {
                "type": "Point",
                "coordinates": [
                    23.255753845722147,
                    50.73534570547382
                ]
            }
        },
        {
            "type": "Feature",
            "properties": {
                "ref:csioz": 1154095,
                "addr:street": "Ciepła",
                "addr:housenumber": "10",
                "addr:city": "Zamość",
                "addr:postcode": "22-400",
                "amenity": "pharmacy"
            },
            "geometry": {
                "type": "Point",
                "coordinates": [
                    23.249630687113118,
                    50.72436131036805
                ]
            }
        },
        {
            "type": "Feature",
            "properties": {
                "ref:csioz": 1154279,
                "name": "Dr. Max",
                "addr:street": "Lwowska",
                "addr:housenumber": "56",
                "addr:city": "Zamość",
                "addr:postcode": "22-400",
                "amenity": "pharmacy"
            },
            "geometry": {
                "type": "Point",
                "coordinates": [
                    23.283132267716177,
                    50.705632762318956
                ]
            }
        },
        {
            "type": "Feature",
            "properties": {
                "ref:csioz": 1155136,
                "addr:street": "Szwedzka",
                "addr:housenumber": "22",
                "addr:city": "Zamość",
                "addr:postcode": "22-400",
                "amenity": "pharmacy"
            },
            "geometry": {
                "type": "Point",
                "coordinates": [
                    23.25663922769882,
                    50.73543149602978
                ]
            }
        },
        {
            "type": "Feature",
            "properties": {
                "ref:csioz": 1155360,
                "name": "Apteka Zielarska Leki I Zioła",
                "addr:street": "Prymasa Stefana Wyszyńskiego",
                "addr:housenumber": "52",
                "addr:city": "Zamość",
                "addr:postcode": "22-400",
                "amenity": "pharmacy"
            },
            "geometry": {
                "type": "Point",
                "coordinates": [
                    23.2785798533714,
                    50.715201159798106
                ]
            }
        },
        {
            "type": "Feature",
            "properties": {
                "ref:csioz": 1155383,
                "addr:street": "Św.Piątka",
                "addr:housenumber": "49",
                "addr:city": "Zamość",
                "addr:postcode": "22-400",
                "amenity": "pharmacy"
            },
            "geometry": {
                "type": "Point",
                "coordinates": [
                    23.2702762940891,
                    50.707729930631274
                ]
            }
        },
        {
            "type": "Feature",
            "properties": {
                "ref:csioz": 1155414,
                "addr:street": "Peowiaków",
                "addr:housenumber": "1",
                "addr:city": "Zamość",
                "addr:postcode": "22-400",
                "amenity": "pharmacy"
            },
            "geometry": {
                "type": "Point",
                "coordinates": [
                    23.252915000119007,
                    50.723685000015635
                ]
            }
        },
        {
            "type": "Feature",
            "properties": {
                "ref:csioz": 1200244,
                "name": "Apteka Dyżurna",
                "addr:street": "Sadowa",
                "addr:housenumber": "8A",
                "addr:flats": "2.03",
                "addr:city": "Zamość",
                "addr:postcode": "22-400",
                "amenity": "pharmacy"
            },
            "geometry": {
                "type": "Point",
                "coordinates": [
                    23.24828700011834,
                    50.7238480000156
                ]
            }
        },
        {
            "type": "Feature",
            "properties": {
                "ref:csioz": 1206431,
                "name": "Apteka Dyżurna",
                "addr:street": "Hrubieszowska",
                "addr:housenumber": "9",
                "addr:flats": "1.14",
                "addr:city": "Zamość",
                "addr:postcode": "22-400",
                "amenity": "pharmacy"
            },
            "geometry": {
                "type": "Point",
                "coordinates": [
                    23.27799090895597,
                    50.71361490222823
                ]
            }
        },
        {
            "type": "Feature",
            "properties": {
                "ref:csioz": 1220799,
                "name": "Apteka Gemini",
                "addr:street": "Mikołaja Reja",
                "addr:housenumber": "21",
                "addr:city": "Zamość",
                "addr:postcode": "22-400",
                "amenity": "pharmacy"
            },
            "geometry": {
                "type": "Point",
                "coordinates": [
                    23.27763572722088,
                    50.712735269948254
                ]
            }
        },
        {
            "type": "Feature",
            "properties": {
                "ref:csioz": 1153694,
                "addr:street": "Lubelska",
                "addr:housenumber": "2",
                "addr:city": "Zamość",
                "addr:postcode": "22-400",
                "amenity": "pharmacy"
            },
            "geometry": {
                "type": "Point",
                "coordinates": [
                    23.25113246942407,
                    50.73309747333551
                ]
            }
        },
        {
            "type": "Feature",
            "properties": {
                "ref:csioz": 1106009,
                "addr:street": "Hrubieszowska",
                "addr:housenumber": "34A",
                "addr:city": "Zamość",
                "addr:postcode": "22-400",
                "amenity": "pharmacy"
            },
            "geometry": {
                "type": "Point",
                "coordinates": [
                    23.284200574672372,
                    50.713833614441306
                ]
            }
        },
        {
            "type": "Feature",
            "properties": {
                "ref:csioz": 1106046,
                "addr:street": "Partyzantów",
                "addr:housenumber": "74",
                "addr:city": "Zamość",
                "addr:postcode": "22-400",
                "amenity": "pharmacy"
            },
            "geometry": {
                "type": "Point",
                "coordinates": [
                    23.269637209919356,
                    50.711389582323356
                ]
            }
        },
        {
            "type": "Feature",
            "properties": {
                "ref:csioz": 1117685,
                "name": "Apteka Słoneczna",
                "addr:street": "Aleje Jana Pawła II",
                "addr:housenumber": "19",
                "addr:city": "Zamość",
                "addr:postcode": "22-400",
                "amenity": "pharmacy"
            },
            "geometry": {
                "type": "Point",
                "coordinates": [
                    23.285859138701674,
                    50.71304067047017
                ]
            }
        },
        {
            "type": "Feature",
            "properties": {
                "ref:csioz": 1153890,
                "name": "Apteka Hetmańska",
                "addr:street": "Aleje Jana Pawła II",
                "addr:housenumber": "8",
                "addr:city": "Zamość",
                "addr:postcode": "22-400",
                "amenity": "pharmacy"
            },
            "geometry": {
                "type": "Point",
                "coordinates": [
                    23.286200000124094,
                    50.71155300001573
                ]
            }
        },
        {
            "type": "Feature",
            "properties": {
                "ref:csioz": 1154131,
                "name": "Apteka Rumiankowa",
                "addr:street": "Piłsudskiego",
                "addr:housenumber": "27",
                "addr:city": "Zamość",
                "addr:postcode": "22-400",
                "amenity": "pharmacy"
            },
            "geometry": {
                "type": "Point",
                "coordinates": [
                    23.25142858388545,
                    50.72605290001691
                ]
            }
        },
        {
            "type": "Feature",
            "properties": {
                "ref:csioz": 1154369,
                "addr:street": "Wiejska",
                "addr:housenumber": "17",
                "addr:city": "Zamość",
                "addr:postcode": "22-400",
                "amenity": "pharmacy"
            },
            "geometry": {
                "type": "Point",
                "coordinates": [
                    23.245604996000722,
                    50.73125939933977
                ]
            }
        },
        {
            "type": "Feature",
            "properties": {
                "ref:csioz": 1154745,
                "addr:street": "Lipska",
                "addr:housenumber": "28",
                "addr:city": "Zamość",
                "addr:postcode": "22-400",
                "amenity": "pharmacy"
            },
            "geometry": {
                "type": "Point",
                "coordinates": [
                    23.261926850754403,
                    50.70790558156293
                ]
            }
        },
        {
            "type": "Feature",
            "properties": {
                "ref:csioz": 1155268,
                "addr:street": "M.Reja",
                "addr:housenumber": "13 a",
                "addr:city": "Zamość",
                "addr:postcode": "22-400",
                "amenity": "pharmacy"
            },
            "geometry": {
                "type": "Point",
                "coordinates": [
                    23.276069000122593,
                    50.711538000015686
                ]
            }
        },
        {
            "type": "Feature",
            "properties": {
                "ref:csioz": 1155276,
                "addr:street": "Orlicz-Dreszera",
                "addr:housenumber": "8",
                "addr:city": "Zamość",
                "addr:postcode": "22-400",
                "amenity": "pharmacy"
            },
            "geometry": {
                "type": "Point",
                "coordinates": [
                    23.26217978100595,
                    50.71451329666815
                ]
            }
        },
        {
            "type": "Feature",
            "properties": {
                "ref:csioz": 1155292,
                "addr:street": "Rynek Wielki",
                "addr:housenumber": "2",
                "addr:city": "Zamość",
                "addr:postcode": "22-400",
                "amenity": "pharmacy"
            },
            "geometry": {
                "type": "Point",
                "coordinates": [
                    23.25315839275115,
                    50.716613056479225
                ]
            }
        },
        {
            "type": "Feature",
            "properties": {
                "ref:csioz": 1155305,
                "name": "Apteka W Szpitalu",
                "addr:street": "Aleje Jana Pawła II",
                "addr:housenumber": "10",
                "addr:city": "Zamość",
                "addr:postcode": "22-400",
                "amenity": "pharmacy"
            },
            "geometry": {
                "type": "Point",
                "coordinates": [
                    23.28754800012428,
                    50.71239500001574
                ]
            }
        },
        {
            "type": "Feature",
            "properties": {
                "ref:csioz": 1163435,
                "name": "Apteka Od Serca",
                "addr:street": "Szczebrzeska",
                "addr:housenumber": "11i",
                "addr:city": "Zamość",
                "addr:postcode": "22-400",
                "amenity": "pharmacy"
            },
            "geometry": {
                "type": "Point",
                "coordinates": [
                    23.244799452650796,
                    50.71463737312821
                ]
            }
        },
        {
            "type": "Feature",
            "properties": {
                "ref:csioz": 1183371,
                "name": "Dr. Max",
                "addr:street": "Przemysłowa",
                "addr:housenumber": "10",
                "addr:flats": "27",
                "addr:city": "Zamość",
                "addr:postcode": "22-400",
                "amenity": "pharmacy"
            },
            "geometry": {
                "type": "Point",
                "coordinates": [
                    23.26301968118471,
                    50.726177006038625
                ]
            }
        },
        {
            "type": "Feature",
            "properties": {
                "ref:csioz": 1190053,
                "name": "Apteka Szpitalna",
                "addr:street": "Aleje Jana Pawła II",
                "addr:housenumber": "10",
                "addr:city": "Zamość",
                "addr:postcode": "22-400",
                "amenity": "pharmacy"
            },
            "geometry": {
                "type": "Point",
                "coordinates": [
                    23.287544378811816,
                    50.71254832555551
                ]
            }
        },
        {
            "type": "Feature",
            "properties": {
                "ref:csioz": 1190066,
                "name": "Apteka Szpitalna",
                "addr:street": "Peowiaków",
                "addr:housenumber": "1",
                "addr:city": "Zamość",
                "addr:postcode": "22-400",
                "amenity": "pharmacy"
            },
            "geometry": {
                "type": "Point",
                "coordinates": [
                    23.252915000119007,
                    50.723685000015635
                ]
            }
        },
        {
            "type": "Feature",
            "properties": {
                "ref:csioz": 1190460,
                "name": "Dział Farmacji Szpitalnej",
                "addr:street": "Aleje Jana Pawła II",
                "addr:housenumber": "8",
                "addr:city": "Zamość",
                "amenity": "pharmacy"
            },
            "geometry": {
                "type": "Point",
                "coordinates": [
                    23.286200000124094,
                    50.71155300001573
                ]
            }
        },
        {
            "type": "Feature",
            "properties": {
                "ref:csioz": 1190471,
                "name": "Dział Farmacji Szpitalnej",
                "addr:street": "Aleje Jana Pawła II",
                "addr:housenumber": "19",
                "addr:city": "Zamość",
                "addr:postcode": "22-400",
                "amenity": "pharmacy"
            },
            "geometry": {
                "type": "Point",
                "coordinates": [
                    23.285859138701674,
                    50.71304067047017
                ]
            }
        },
        {
            "type": "Feature",
            "properties": {
                "ref:csioz": 1209247,
                "name": "Apteka Od Serca",
                "addr:street": "Nowy Rynek",
                "addr:housenumber": "20",
                "addr:city": "Zamość",
                "addr:postcode": "22-400",
                "amenity": "pharmacy"
            },
            "geometry": {
                "type": "Point",
                "coordinates": [
                    23.2759273232841,
                    50.70923750014985
                ]
            }
        },
        {
            "type": "Feature",
            "properties": {
                "ref:csioz": 1209676,
                "addr:street": "Aleje Jana Pawła II",
                "addr:housenumber": "10",
                "addr:city": "Zamość",
                "amenity": "pharmacy"
            },
            "geometry": {
                "type": "Point",
                "coordinates": [
                    23.287544378811816,
                    50.71254832555551
                ]
            }
        },
        {
            "type": "Feature",
            "properties": {
                "ref:csioz": 1222881,
                "name": "Przy Rynku",
                "addr:street": "Nowy Rynek",
                "addr:housenumber": "5A",
                "addr:city": "Zamość",
                "addr:postcode": "22-400",
                "amenity": "pharmacy"
            },
            "geometry": {
                "type": "Point",
                "coordinates": [
                    23.275284004703956,
                    50.710527426116414
                ]
            }
        },
        {
            "type": "Feature",
            "properties": {
                "ref:csioz": 1230138,
                "name": "Dział Farmacji Szpitalnej",
                "addr:street": "św. Piątka",
                "addr:housenumber": "37",
                "addr:city": "Zamość",
                "addr:postcode": "22-400",
                "amenity": "pharmacy"
            },
            "geometry": {
                "type": "Point",
                "coordinates": [
                    23.268557175268583,
                    50.70817354643596
                ]
            }
        },
        {
            "type": "Feature",
            "properties": {
                "ref:csioz": 1154144,
                "name": "Twoja Apteka Jms Rozkres Spółka Jawna",
                "addr:street": "Aleje Jana Pawła II",
                "addr:housenumber": "21",
                "addr:city": "Zamość",
                "addr:postcode": "22-400",
                "amenity": "pharmacy"
            },
            "geometry": {
                "type": "Point",
                "coordinates": [
                    23.285807000124013,
                    50.71325300001575
                ]
            }
        }
    ]
}