{
    "type": "FeatureCollection",
    "name": "JPT_KOD_JE_1601",
    "features": [
        {
            "type": "Feature",
            "properties": {
                "ref:csioz": 1107915,
                "addr:street": "Kościuszki",
                "addr:housenumber": "46",
                "addr:city": "Lewin Brzeski",
                "addr:postcode": "49-340",
                "amenity": "pharmacy"
            },
            "geometry": {
                "type": "Point",
                "coordinates": [
                    17.617872983345702,
                    50.750814191559336
                ]
            }
        },
        {
            "type": "Feature",
            "properties": {
                "ref:csioz": 1107902,
                "name": "\"Apteka \"\"Joanna\"\"\"",
                "addr:street": "Wojska Polskiego",
                "addr:housenumber": "21",
                "addr:city": "Lewin Brzeski",
                "addr:postcode": "49-340",
                "amenity": "pharmacy"
            },
            "geometry": {
                "type": "Point",
                "coordinates": [
                    17.611661476682233,
                    50.74977297774865
                ]
            }
        },
        {
            "type": "Feature",
            "properties": {
                "ref:csioz": 1107931,
                "addr:street": "Rynek",
                "addr:housenumber": "21",
                "addr:city": "Lewin Brzeski",
                "addr:postcode": "49-340",
                "amenity": "pharmacy"
            },
            "geometry": {
                "type": "Point",
                "coordinates": [
                    17.615744574243013,
                    50.748845110520506
                ]
            }
        },
        {
            "type": "Feature",
            "properties": {
                "ref:csioz": 1108013,
                "name": "Pod Srebrną Wagą",
                "addr:street": "Główna",
                "addr:housenumber": "121 A",
                "addr:city": "Łosiów",
                "addr:postcode": "49-330",
                "amenity": "pharmacy"
            },
            "geometry": {
                "type": "Point",
                "coordinates": [
                    17.563984999999114,
                    50.79047300001363
                ]
            }
        },
        {
            "type": "Feature",
            "properties": {
                "ref:csioz": 1109340,
                "addr:street": "Wolności",
                "addr:housenumber": "13",
                "addr:city": "Skorogoszcz",
                "addr:postcode": "49-345",
                "amenity": "pharmacy"
            },
            "geometry": {
                "type": "Point",
                "coordinates": [
                    17.678163588010953,
                    50.76093718308938
                ]
            }
        },
        {
            "type": "Feature",
            "properties": {
                "ref:csioz": 1121231,
                "name": "Dr. Max",
                "addr:street": "Reymonta",
                "addr:housenumber": "7",
                "addr:city": "Grodków",
                "addr:postcode": "49-200",
                "amenity": "pharmacy"
            },
            "geometry": {
                "type": "Point",
                "coordinates": [
                    17.38634499352646,
                    50.69721971346975
                ]
            }
        },
        {
            "type": "Feature",
            "properties": {
                "ref:csioz": 1107213,
                "name": "Miejska",
                "addr:street": "Warszawska",
                "addr:housenumber": "17",
                "addr:city": "Grodków",
                "addr:postcode": "49-200",
                "amenity": "pharmacy"
            },
            "geometry": {
                "type": "Point",
                "coordinates": [
                    17.380586681322782,
                    50.69775375853345
                ]
            }
        },
        {
            "type": "Feature",
            "properties": {
                "ref:csioz": 1186603,
                "name": "Dr. Max",
                "addr:street": "Kościuszki",
                "addr:housenumber": "37D",
                "addr:city": "Lewin Brzeski",
                "addr:postcode": "49-340",
                "amenity": "pharmacy"
            },
            "geometry": {
                "type": "Point",
                "coordinates": [
                    17.615535342094315,
                    50.75184236528519
                ]
            }
        },
        {
            "type": "Feature",
            "properties": {
                "ref:csioz": 1186325,
                "name": "Apteka Centrum",
                "addr:street": "Warszawska",
                "addr:housenumber": "20",
                "addr:city": "Grodków",
                "addr:postcode": "49-200",
                "amenity": "pharmacy"
            },
            "geometry": {
                "type": "Point",
                "coordinates": [
                    17.382826035375285,
                    50.69831239930376
                ]
            }
        },
        {
            "type": "Feature",
            "properties": {
                "ref:csioz": 1206108,
                "name": "Apteka Z Plusem",
                "addr:street": "Rynek",
                "addr:housenumber": "8-9",
                "addr:city": "Grodków",
                "addr:postcode": "49-200",
                "amenity": "pharmacy"
            },
            "geometry": {
                "type": "Point",
                "coordinates": [
                    17.38550950785022,
                    50.699040433730154
                ]
            }
        },
        {
            "type": "Feature",
            "properties": {
                "ref:csioz": 1107199,
                "name": "\"Prywatna Apteka \"\"Arnika\"\"\"",
                "addr:street": "Rynek",
                "addr:housenumber": "13-14",
                "addr:city": "Grodków",
                "addr:postcode": "49-200",
                "amenity": "pharmacy"
            },
            "geometry": {
                "type": "Point",
                "coordinates": [
                    17.386159505086642,
                    50.69839378046167
                ]
            }
        },
        {
            "type": "Feature",
            "properties": {
                "ref:csioz": 1105860,
                "name": "Pod Arkadami",
                "addr:street": "Chocimska",
                "addr:housenumber": "5",
                "addr:city": "Brzeg",
                "addr:postcode": "49-304",
                "amenity": "pharmacy"
            },
            "geometry": {
                "type": "Point",
                "coordinates": [
                    17.45943320628873,
                    50.853293891331816
                ]
            }
        },
        {
            "type": "Feature",
            "properties": {
                "ref:csioz": 1105894,
                "name": "Doz Apteka. Dbam O Zdrowie. Południowa",
                "addr:street": "Brzechwy",
                "addr:housenumber": "3",
                "addr:city": "Brzeg",
                "addr:postcode": "49-305",
                "amenity": "pharmacy"
            },
            "geometry": {
                "type": "Point",
                "coordinates": [
                    17.473655373570306,
                    50.845895645348605
                ]
            }
        },
        {
            "type": "Feature",
            "properties": {
                "ref:csioz": 1105901,
                "name": "Apteka Nowa",
                "addr:street": "Ofiar Katynia",
                "addr:housenumber": "13",
                "addr:city": "Brzeg",
                "addr:postcode": "49-300",
                "amenity": "pharmacy"
            },
            "geometry": {
                "type": "Point",
                "coordinates": [
                    17.479353632729936,
                    50.85848608231872
                ]
            }
        },
        {
            "type": "Feature",
            "properties": {
                "ref:csioz": 1105930,
                "name": "Millennium",
                "addr:street": "1 Maja",
                "addr:housenumber": "19",
                "addr:city": "Brzeg",
                "addr:postcode": "49-305",
                "amenity": "pharmacy"
            },
            "geometry": {
                "type": "Point",
                "coordinates": [
                    17.465079798446094,
                    50.850566655913205
                ]
            }
        },
        {
            "type": "Feature",
            "properties": {
                "ref:csioz": 1105925,
                "name": "Dr. Max",
                "addr:street": "Trzech Kotwic",
                "addr:housenumber": "6",
                "addr:city": "Brzeg",
                "addr:postcode": "49-300",
                "amenity": "pharmacy"
            },
            "geometry": {
                "type": "Point",
                "coordinates": [
                    17.472119900653237,
                    50.855126225734
                ]
            }
        },
        {
            "type": "Feature",
            "properties": {
                "ref:csioz": 1107953,
                "addr:street": "Brzeska",
                "addr:housenumber": "17",
                "addr:city": "Lubsza",
                "addr:postcode": "49-313",
                "amenity": "pharmacy"
            },
            "geometry": {
                "type": "Point",
                "coordinates": [
                    17.520074554319795,
                    50.91454821720196
                ]
            }
        },
        {
            "type": "Feature",
            "properties": {
                "ref:csioz": 1110087,
                "name": "Dr. Max",
                "addr:street": "Akacjowa",
                "addr:housenumber": "3",
                "addr:flats": "3",
                "addr:city": "Skarbimierz Osiedle",
                "addr:postcode": "49-318",
                "amenity": "pharmacy"
            },
            "geometry": {
                "type": "Point",
                "coordinates": [
                    17.4215089999988,
                    50.84768700001372
                ]
            }
        },
        {
            "type": "Feature",
            "properties": {
                "ref:csioz": 1159164,
                "name": "Apteka Szpitalna Brzeskiego Centrum Medycznego - Lecznictwo Stacjonarne",
                "addr:street": "Sergiusza Mossora",
                "addr:housenumber": "1",
                "addr:city": "Brzeg",
                "addr:postcode": "49-300",
                "amenity": "pharmacy"
            },
            "geometry": {
                "type": "Point",
                "coordinates": [
                    17.477238006345114,
                    50.85754590985775
                ]
            }
        },
        {
            "type": "Feature",
            "properties": {
                "ref:csioz": 1202485,
                "name": "Apteka Społeczna Na Mlecznej Grupa Nowa Farmacja",
                "addr:street": "Mleczna",
                "addr:housenumber": "2",
                "addr:city": "Brzeg",
                "addr:postcode": "49-300",
                "amenity": "pharmacy"
            },
            "geometry": {
                "type": "Point",
                "coordinates": [
                    17.470230412826403,
                    50.860893960366504
                ]
            }
        },
        {
            "type": "Feature",
            "properties": {
                "ref:csioz": 1105826,
                "name": "Apteka Lekosfera Dga9",
                "addr:street": "Łokietka",
                "addr:housenumber": "24A",
                "addr:city": "Brzeg",
                "addr:postcode": "49-300",
                "amenity": "pharmacy"
            },
            "geometry": {
                "type": "Point",
                "coordinates": [
                    17.47805437185641,
                    50.85483485212698
                ]
            }
        },
        {
            "type": "Feature",
            "properties": {
                "ref:csioz": 1105839,
                "name": "Apteka Lekosfera Dga18",
                "addr:street": "Długa",
                "addr:housenumber": "2",
                "addr:city": "Brzeg",
                "addr:postcode": "49-300",
                "amenity": "pharmacy"
            },
            "geometry": {
                "type": "Point",
                "coordinates": [
                    17.471430162381555,
                    50.85947330757837
                ]
            }
        },
        {
            "type": "Feature",
            "properties": {
                "ref:csioz": 1121192,
                "name": "Prima",
                "addr:street": "Powstańców Śląskich",
                "addr:housenumber": "12b",
                "addr:city": "Brzeg",
                "addr:postcode": "49-300",
                "amenity": "pharmacy"
            },
            "geometry": {
                "type": "Point",
                "coordinates": [
                    17.477286768787373,
                    50.85820872698953
                ]
            }
        },
        {
            "type": "Feature",
            "properties": {
                "ref:csioz": 1205179,
                "name": "Apteka Zdrowit",
                "addr:street": "Słowackiego",
                "addr:housenumber": "31",
                "addr:city": "Brzeg",
                "addr:postcode": "49-305",
                "amenity": "pharmacy"
            },
            "geometry": {
                "type": "Point",
                "coordinates": [
                    17.472966756220607,
                    50.84759288677319
                ]
            }
        },
        {
            "type": "Feature",
            "properties": {
                "ref:csioz": 1206706,
                "name": "Dr. Max",
                "addr:street": "Sergiusza Mossora",
                "addr:housenumber": "6",
                "addr:city": "Brzeg",
                "addr:postcode": "49-300",
                "amenity": "pharmacy"
            },
            "geometry": {
                "type": "Point",
                "coordinates": [
                    17.47651462361352,
                    50.85780597815501
                ]
            }
        },
        {
            "type": "Feature",
            "properties": {
                "ref:csioz": 1222565,
                "name": "Apteka Gemini",
                "addr:street": "Bolesława Chrobrego",
                "addr:housenumber": "2A",
                "addr:city": "Brzeg",
                "addr:postcode": "49-300",
                "amenity": "pharmacy"
            },
            "geometry": {
                "type": "Point",
                "coordinates": [
                    17.470901907886415,
                    50.85903851307364
                ]
            }
        },
        {
            "type": "Feature",
            "properties": {
                "ref:csioz": 1121184,
                "name": "Dr. Max",
                "addr:street": "Robotnicza",
                "addr:housenumber": "7-7A",
                "addr:city": "Brzeg",
                "addr:postcode": "49-300",
                "amenity": "pharmacy"
            },
            "geometry": {
                "type": "Point",
                "coordinates": [
                    17.46265111481992,
                    50.86031395070379
                ]
            }
        },
        {
            "type": "Feature",
            "properties": {
                "ref:csioz": 1177088,
                "name": "Apteka Z Plusem",
                "addr:street": "Trzech Kotwic",
                "addr:housenumber": "\"11 \"\"O\"\"\"",
                "addr:city": "Brzeg",
                "addr:postcode": "49-300",
                "amenity": "pharmacy"
            },
            "geometry": {
                "type": "Point",
                "coordinates": [
                    17.474807999998934,
                    50.855773000013734
                ]
            }
        },
        {
            "type": "Feature",
            "properties": {
                "ref:csioz": 1105852,
                "name": "Dr. Max",
                "addr:street": "Piastowska",
                "addr:housenumber": "17-19",
                "addr:city": "Brzeg",
                "addr:postcode": "49-300",
                "amenity": "pharmacy"
            },
            "geometry": {
                "type": "Point",
                "coordinates": [
                    17.472605286083603,
                    50.857027685357046
                ]
            }
        }
    ]
}