{
    "type": "FeatureCollection",
    "name": "JPT_KOD_JE_2216",
    "features": [
        {
            "type": "Feature",
            "properties": {
                "ref:csioz": 1029397,
                "name": "Herbowa",
                "addr:street": "Słowackiego",
                "addr:housenumber": "1",
                "addr:city": "Dzierzgoń",
                "addr:postcode": "82-440",
                "amenity": "pharmacy"
            },
            "geometry": {
                "type": "Point",
                "coordinates": [
                    19.34695914897506,
                    53.921303433667646
                ]
            }
        },
        {
            "type": "Feature",
            "properties": {
                "ref:csioz": 1033729,
                "addr:housenumber": "5",
                "addr:city": "Myślice",
                "addr:postcode": "82-450",
                "amenity": "pharmacy"
            },
            "geometry": {
                "type": "Point",
                "coordinates": [
                    19.50332421661207,
                    53.90953006399011
                ]
            }
        },
        {
            "type": "Feature",
            "properties": {
                "ref:csioz": 1181985,
                "name": "Apteka Miejska",
                "addr:street": "Odrodzenia",
                "addr:housenumber": "5",
                "addr:city": "Dzierzgoń",
                "addr:postcode": "82-440",
                "amenity": "pharmacy"
            },
            "geometry": {
                "type": "Point",
                "coordinates": [
                    19.347904743411284,
                    53.92119615783854
                ]
            }
        },
        {
            "type": "Feature",
            "properties": {
                "ref:csioz": 1202398,
                "name": "Bliska Apteka",
                "addr:street": "Przemysłowa",
                "addr:housenumber": "1",
                "addr:city": "Nowiny",
                "addr:postcode": "26-052",
                "amenity": "pharmacy"
            },
            "geometry": {
                "type": "Point",
                "coordinates": [
                    19.346754000000157,
                    53.92176800001861
                ]
            }
        },
        {
            "type": "Feature",
            "properties": {
                "ref:csioz": 1028802,
                "name": "Apteka Pomorska",
                "addr:street": "Dworcowa",
                "addr:housenumber": "4",
                "addr:city": "Mikołajki Pomorskie",
                "addr:postcode": "82-433",
                "amenity": "pharmacy"
            },
            "geometry": {
                "type": "Point",
                "coordinates": [
                    19.163852431824395,
                    53.85093948455684
                ]
            }
        },
        {
            "type": "Feature",
            "properties": {
                "ref:csioz": 1028831,
                "name": "Św. Anny",
                "addr:street": "Galla Anonima",
                "addr:housenumber": "12",
                "addr:city": "Sztum",
                "addr:postcode": "82-400",
                "amenity": "pharmacy"
            },
            "geometry": {
                "type": "Point",
                "coordinates": [
                    19.038049895804516,
                    53.915209175159504
                ]
            }
        },
        {
            "type": "Feature",
            "properties": {
                "ref:csioz": 1032427,
                "name": "Centralna",
                "addr:street": "Mickiewicza",
                "addr:housenumber": "50",
                "addr:city": "Sztum",
                "addr:postcode": "82-400",
                "amenity": "pharmacy"
            },
            "geometry": {
                "type": "Point",
                "coordinates": [
                    19.030953035439236,
                    53.92020773678174
                ]
            }
        },
        {
            "type": "Feature",
            "properties": {
                "ref:csioz": 1033778,
                "addr:housenumber": "9 c",
                "addr:city": "Szropy",
                "addr:postcode": "82-410",
                "amenity": "pharmacy"
            },
            "geometry": {
                "type": "Point",
                "coordinates": [
                    19.151288521295896,
                    53.98583176665758
                ]
            }
        },
        {
            "type": "Feature",
            "properties": {
                "ref:csioz": 1139640,
                "name": "Apteka Szpitalna W Zakładzie Leczniczym: Szpital Polski Sztum",
                "addr:street": "Reja",
                "addr:housenumber": "12",
                "addr:city": "Sztum",
                "addr:postcode": "82-400",
                "amenity": "pharmacy"
            },
            "geometry": {
                "type": "Point",
                "coordinates": [
                    19.025387900960908,
                    53.92255579908195
                ]
            }
        },
        {
            "type": "Feature",
            "properties": {
                "ref:csioz": 1028295,
                "addr:street": "Nowotarska",
                "addr:housenumber": "1",
                "addr:city": "Stary Targ",
                "addr:postcode": "82-410",
                "amenity": "pharmacy"
            },
            "geometry": {
                "type": "Point",
                "coordinates": [
                    19.170335174824107,
                    53.92264824778767
                ]
            }
        },
        {
            "type": "Feature",
            "properties": {
                "ref:csioz": 1028310,
                "addr:street": "Sienkiewicza",
                "addr:housenumber": "10",
                "addr:city": "Sztum",
                "addr:postcode": "82-400",
                "amenity": "pharmacy"
            },
            "geometry": {
                "type": "Point",
                "coordinates": [
                    19.029638982511404,
                    53.92159259290529
                ]
            }
        },
        {
            "type": "Feature",
            "properties": {
                "ref:csioz": 1028329,
                "addr:street": "Morawskiego",
                "addr:housenumber": "1",
                "addr:city": "Sztum",
                "addr:postcode": "82-400",
                "amenity": "pharmacy"
            },
            "geometry": {
                "type": "Point",
                "coordinates": [
                    19.032535840788462,
                    53.91828540890156
                ]
            }
        },
        {
            "type": "Feature",
            "properties": {
                "ref:csioz": 1195764,
                "name": "Centrum Zdrowia",
                "addr:street": "Krzysztofa Kamila Baczyńskiego",
                "addr:housenumber": "1",
                "addr:city": "Sztum",
                "addr:postcode": "82-400",
                "amenity": "pharmacy"
            },
            "geometry": {
                "type": "Point",
                "coordinates": [
                    19.034350111691953,
                    53.91676461896286
                ]
            }
        }
    ]
}