{
    "type": "FeatureCollection",
    "name": "JPT_KOD_JE_1019",
    "crs": {
        "type": "name",
        "properties": {
            "name": "urn:ogc:def:crs:EPSG::4326"
        }
    },
    "features": [
        {
            "type": "Feature",
            "properties": {
                "ref:csioz": 1015341,
                "name": "Doz Apteka. Dbam O Zdrowie. Astra Farmacja",
                "addr:street": "Osmolińska",
                "addr:housenumber": "17",
                "addr:city": "Zduńska Wola",
                "addr:postcode": "98-220",
                "amenity": "pharmacy"
            },
            "geometry": {
                "type": "Point",
                "coordinates": [
                    18.9485961189436,
                    51.59822862401964
                ]
            }
        },
        {
            "type": "Feature",
            "properties": {
                "ref:csioz": 1018094,
                "name": "Radosna",
                "addr:street": "Szadkowska",
                "addr:housenumber": "25",
                "addr:city": "Zduńska Wola",
                "addr:postcode": "98-220",
                "amenity": "pharmacy"
            },
            "geometry": {
                "type": "Point",
                "coordinates": [
                    18.95296029751216,
                    51.582469402098845
                ]
            }
        },
        {
            "type": "Feature",
            "properties": {
                "ref:csioz": 1018110,
                "name": "Siódemka",
                "addr:street": "Getta Żydowskiego",
                "addr:housenumber": "3",
                "addr:city": "Zduńska Wola",
                "addr:postcode": "98-220",
                "amenity": "pharmacy"
            },
            "geometry": {
                "type": "Point",
                "coordinates": [
                    18.932458880927786,
                    51.603823970798274
                ]
            }
        },
        {
            "type": "Feature",
            "properties": {
                "ref:csioz": 1018843,
                "name": "Galmed",
                "addr:street": "Jana Kilińskiego",
                "addr:housenumber": "1C",
                "addr:city": "Zduńska Wola",
                "addr:postcode": "98-220",
                "amenity": "pharmacy"
            },
            "geometry": {
                "type": "Point",
                "coordinates": [
                    18.942845933268675,
                    51.598435262156016
                ]
            }
        },
        {
            "type": "Feature",
            "properties": {
                "ref:csioz": 1022111,
                "name": "Centrum Farmaceutyczne Apteka Słoneczna",
                "addr:street": "Łaska",
                "addr:housenumber": "26",
                "addr:city": "Zduńska Wola",
                "addr:postcode": "98-220",
                "amenity": "pharmacy"
            },
            "geometry": {
                "type": "Point",
                "coordinates": [
                    18.938685009381516,
                    51.59952902521764
                ]
            }
        },
        {
            "type": "Feature",
            "properties": {
                "ref:csioz": 1191743,
                "name": "Zduńskowolski Szpital Powiatowy Spółka Z Ograniczoną Odpowiedzialnością",
                "addr:street": "Królewska",
                "addr:housenumber": "29",
                "addr:city": "Zduńska Wola",
                "addr:postcode": "98-220",
                "amenity": "pharmacy"
            },
            "geometry": {
                "type": "Point",
                "coordinates": [
                    18.94257059845509,
                    51.60410659740661
                ]
            }
        },
        {
            "type": "Feature",
            "properties": {
                "ref:csioz": 1012611,
                "name": "Duo-Pharm",
                "addr:street": "Szadkowska",
                "addr:housenumber": "26",
                "addr:city": "Zduńska Wola",
                "addr:postcode": "98-220",
                "amenity": "pharmacy"
            },
            "geometry": {
                "type": "Point",
                "coordinates": [
                    18.94647710558704,
                    51.60800831515903
                ]
            }
        },
        {
            "type": "Feature",
            "properties": {
                "ref:csioz": 1014365,
                "addr:street": "Zielona",
                "addr:housenumber": "7",
                "addr:city": "Zduńska Wola",
                "addr:postcode": "98-220",
                "amenity": "pharmacy"
            },
            "geometry": {
                "type": "Point",
                "coordinates": [
                    18.94224540945813,
                    51.60323602114832
                ]
            }
        },
        {
            "type": "Feature",
            "properties": {
                "ref:csioz": 1018257,
                "name": "Aloes",
                "addr:street": "Getta Żydowskiego",
                "addr:housenumber": "29",
                "addr:city": "Zduńska Wola",
                "addr:postcode": "98-220",
                "amenity": "pharmacy"
            },
            "geometry": {
                "type": "Point",
                "coordinates": [
                    18.930103721035135,
                    51.60671577793103
                ]
            }
        },
        {
            "type": "Feature",
            "properties": {
                "ref:csioz": 1022712,
                "name": "\"Apteka \"\"Aloes 3\"\"\"",
                "addr:street": "Jana Kilińskiego",
                "addr:housenumber": "6",
                "addr:city": "Zduńska Wola",
                "addr:postcode": "98-220",
                "amenity": "pharmacy"
            },
            "geometry": {
                "type": "Point",
                "coordinates": [
                    18.94346186632625,
                    51.59845121045111
                ]
            }
        },
        {
            "type": "Feature",
            "properties": {
                "ref:csioz": 1118968,
                "name": "Apteka Karsznicka",
                "addr:street": "Karsznicka",
                "addr:housenumber": "112",
                "addr:city": "Zduńska Wola",
                "addr:postcode": "98-220",
                "amenity": "pharmacy"
            },
            "geometry": {
                "type": "Point",
                "coordinates": [
                    19.006112889330893,
                    51.57913782473234
                ]
            }
        },
        {
            "type": "Feature",
            "properties": {
                "ref:csioz": 1187346,
                "addr:street": "Łaska",
                "addr:housenumber": "63",
                "addr:city": "Zduńska Wola",
                "addr:postcode": "98-220",
                "amenity": "pharmacy"
            },
            "geometry": {
                "type": "Point",
                "coordinates": [
                    18.945520999999992,
                    51.596714000014835
                ]
            }
        },
        {
            "type": "Feature",
            "properties": {
                "ref:csioz": 1197609,
                "name": "Dr. Max",
                "addr:street": "Opiesińska",
                "addr:housenumber": "6",
                "addr:city": "Zduńska Wola",
                "addr:postcode": "98-220",
                "amenity": "pharmacy"
            },
            "geometry": {
                "type": "Point",
                "coordinates": [
                    18.939267408223916,
                    51.608670292380225
                ]
            }
        },
        {
            "type": "Feature",
            "properties": {
                "ref:csioz": 1208199,
                "addr:street": "Spacerowa",
                "addr:housenumber": "3A",
                "addr:city": "Zapolice",
                "addr:postcode": "98-161",
                "amenity": "pharmacy"
            },
            "geometry": {
                "type": "Point",
                "coordinates": [
                    18.888981081460198,
                    51.54668961169681
                ]
            }
        },
        {
            "type": "Feature",
            "properties": {
                "ref:csioz": 1114396,
                "name": "\"Apteka \"\"Aloes 3\"\"\"",
                "addr:street": "Kościelna",
                "addr:housenumber": "3",
                "addr:city": "Zduńska Wola",
                "addr:postcode": "98-220",
                "amenity": "pharmacy"
            },
            "geometry": {
                "type": "Point",
                "coordinates": [
                    18.933550299700368,
                    51.601316361414305
                ]
            }
        },
        {
            "type": "Feature",
            "properties": {
                "ref:csioz": 1194674,
                "name": "Stylowa",
                "addr:street": "Kościelna",
                "addr:housenumber": "6",
                "addr:city": "Szadek",
                "addr:postcode": "98-240",
                "amenity": "pharmacy"
            },
            "geometry": {
                "type": "Point",
                "coordinates": [
                    18.974139299954068,
                    51.69207193832171
                ]
            }
        },
        {
            "type": "Feature",
            "properties": {
                "ref:csioz": 1222598,
                "name": "Apteka Na Szóstkę",
                "addr:street": "Piotrkowska",
                "addr:housenumber": "15B",
                "addr:city": "Szadek",
                "addr:postcode": "98-240",
                "amenity": "pharmacy"
            },
            "geometry": {
                "type": "Point",
                "coordinates": [
                    18.97852781774965,
                    51.6906700974422
                ]
            }
        },
        {
            "type": "Feature",
            "properties": {
                "ref:csioz": 1025994,
                "name": "\"Apteka \"\"Kwiaty Polskie\"\"\"",
                "addr:street": "Piotrkowska",
                "addr:housenumber": "1",
                "addr:city": "Szadek",
                "addr:postcode": "98-240",
                "amenity": "pharmacy"
            },
            "geometry": {
                "type": "Point",
                "coordinates": [
                    18.975920039144803,
                    51.691014426961026
                ]
            }
        }
    ]
}