{
    "type": "FeatureCollection",
    "name": "JPT_KOD_JE_1427",
    "crs": {
        "type": "name",
        "properties": {
            "name": "urn:ogc:def:crs:EPSG::4326"
        }
    },
    "features": [
        {
            "type": "Feature",
            "properties": {
                "ref:csioz": 1093293,
                "name": "Dr. Max",
                "addr:street": "Braci Tułodzieckich",
                "addr:housenumber": "1A",
                "addr:city": "Sierpc",
                "addr:postcode": "09-200",
                "amenity": "pharmacy"
            },
            "geometry": {
                "type": "Point",
                "coordinates": [
                    19.668373679517387,
                    52.85153096579303
                ]
            }
        },
        {
            "type": "Feature",
            "properties": {
                "ref:csioz": 1093308,
                "name": "Apteka Nr 2",
                "addr:street": "Konstytucji 3 Maja",
                "addr:housenumber": "7D",
                "addr:city": "Sierpc",
                "addr:postcode": "09-200",
                "amenity": "pharmacy"
            },
            "geometry": {
                "type": "Point",
                "coordinates": [
                    19.66153880009341,
                    52.85417331585819
                ]
            }
        },
        {
            "type": "Feature",
            "properties": {
                "ref:csioz": 1093833,
                "name": "Apteka Z Uśmiechem Centrum Niskich Cen",
                "addr:street": "Jana Matejki",
                "addr:housenumber": "1C",
                "addr:city": "Sierpc",
                "addr:postcode": "09-200",
                "amenity": "pharmacy"
            },
            "geometry": {
                "type": "Point",
                "coordinates": [
                    19.67373251456537,
                    52.84962268646828
                ]
            }
        },
        {
            "type": "Feature",
            "properties": {
                "ref:csioz": 1094085,
                "name": "Dr. Optima",
                "addr:street": "Gabriela Narutowicza",
                "addr:housenumber": "2A",
                "addr:city": "Sierpc",
                "addr:postcode": "09-200",
                "amenity": "pharmacy"
            },
            "geometry": {
                "type": "Point",
                "coordinates": [
                    19.66762975573402,
                    52.85435443658715
                ]
            }
        },
        {
            "type": "Feature",
            "properties": {
                "ref:csioz": 1094364,
                "name": "Aloes",
                "addr:street": "Lipowa",
                "addr:housenumber": "7",
                "addr:city": "Szczutowo",
                "addr:postcode": "09-227",
                "amenity": "pharmacy"
            },
            "geometry": {
                "type": "Point",
                "coordinates": [
                    19.57329924338924,
                    52.93814937070688
                ]
            }
        },
        {
            "type": "Feature",
            "properties": {
                "ref:csioz": 1098480,
                "name": "Apteka Szpitalna",
                "addr:street": "Juliusza Słowackiego",
                "addr:housenumber": "32",
                "addr:city": "Sierpc",
                "addr:postcode": "09-200",
                "amenity": "pharmacy"
            },
            "geometry": {
                "type": "Point",
                "coordinates": [
                    19.675299283035706,
                    52.8523962392502
                ]
            }
        },
        {
            "type": "Feature",
            "properties": {
                "ref:csioz": 1116786,
                "name": "Apteka Centralna",
                "addr:street": "Wiosny Ludów",
                "addr:housenumber": "10",
                "addr:city": "Sierpc",
                "addr:postcode": "09-200",
                "amenity": "pharmacy"
            },
            "geometry": {
                "type": "Point",
                "coordinates": [
                    19.664294591205046,
                    52.851804471290485
                ]
            }
        },
        {
            "type": "Feature",
            "properties": {
                "ref:csioz": 1117009,
                "name": "Eden",
                "addr:street": "Piastowska",
                "addr:housenumber": "42",
                "addr:city": "Sierpc",
                "addr:postcode": "09-200",
                "amenity": "pharmacy"
            },
            "geometry": {
                "type": "Point",
                "coordinates": [
                    19.66286139346268,
                    52.84989238576634
                ]
            }
        },
        {
            "type": "Feature",
            "properties": {
                "ref:csioz": 1120659,
                "addr:street": "Kwiatowa",
                "addr:housenumber": "1A",
                "addr:city": "Zawidz Kościelny",
                "addr:postcode": "09-226",
                "amenity": "pharmacy"
            },
            "geometry": {
                "type": "Point",
                "coordinates": [
                    19.872497891454234,
                    52.82854715915368
                ]
            }
        },
        {
            "type": "Feature",
            "properties": {
                "ref:csioz": 1173038,
                "name": "Dr. Max",
                "addr:street": "Piastowska",
                "addr:housenumber": "26A",
                "addr:city": "Sierpc",
                "addr:postcode": "09-200",
                "amenity": "pharmacy"
            },
            "geometry": {
                "type": "Point",
                "coordinates": [
                    19.66586851715948,
                    52.852313162112345
                ]
            }
        },
        {
            "type": "Feature",
            "properties": {
                "ref:csioz": 1200100,
                "name": "Superfarm",
                "addr:street": "Piastowska",
                "addr:housenumber": "17",
                "addr:city": "Sierpc",
                "addr:postcode": "09-200",
                "amenity": "pharmacy"
            },
            "geometry": {
                "type": "Point",
                "coordinates": [
                    19.666417394233434,
                    52.85243435041
                ]
            }
        },
        {
            "type": "Feature",
            "properties": {
                "ref:csioz": 1230829,
                "name": "Z Uśmiechem",
                "addr:street": "Dobrzyńska",
                "addr:housenumber": "5",
                "addr:city": "Mochowo",
                "addr:postcode": "09-214",
                "amenity": "pharmacy"
            },
            "geometry": {
                "type": "Point",
                "coordinates": [
                    19.56086830165829,
                    52.764039734832075
                ]
            }
        },
        {
            "type": "Feature",
            "properties": {
                "ref:csioz": 1093324,
                "addr:street": "kard. Wyszyńskiego",
                "addr:housenumber": "7",
                "addr:city": "Sierpc",
                "addr:postcode": "09-200",
                "amenity": "pharmacy"
            },
            "geometry": {
                "type": "Point",
                "coordinates": [
                    19.668937849888653,
                    52.85690357793664
                ]
            }
        },
        {
            "type": "Feature",
            "properties": {
                "ref:csioz": 1093335,
                "addr:street": "Romualda Traugutta",
                "addr:housenumber": "1",
                "addr:city": "Sierpc",
                "addr:postcode": "09-200",
                "amenity": "pharmacy"
            },
            "geometry": {
                "type": "Point",
                "coordinates": [
                    19.660085831467494,
                    52.84871715702361
                ]
            }
        },
        {
            "type": "Feature",
            "properties": {
                "ref:csioz": 1093973,
                "name": "Centrum Apteczne B+R Studio Apteka Internetowa",
                "addr:street": "Krystyna Gozdawy",
                "addr:housenumber": "15E",
                "addr:city": "Gozdowo",
                "addr:postcode": "09-213",
                "amenity": "pharmacy"
            },
            "geometry": {
                "type": "Point",
                "coordinates": [
                    19.687878111678188,
                    52.72493966638803
                ]
            }
        },
        {
            "type": "Feature",
            "properties": {
                "ref:csioz": 1094188,
                "name": "Aloes",
                "addr:street": "Sierpecka",
                "addr:housenumber": "14",
                "addr:city": "Gójsk",
                "addr:postcode": "09-216",
                "amenity": "pharmacy"
            },
            "geometry": {
                "type": "Point",
                "coordinates": [
                    19.528756085319397,
                    52.90023811616372
                ]
            }
        },
        {
            "type": "Feature",
            "properties": {
                "ref:csioz": 1120979,
                "name": "Avena - Niskie Ceny",
                "addr:street": "Juliusza Słowackiego",
                "addr:housenumber": "13",
                "addr:city": "Sierpc",
                "addr:postcode": "09-200",
                "amenity": "pharmacy"
            },
            "geometry": {
                "type": "Point",
                "coordinates": [
                    19.671938067457344,
                    52.850349853315414
                ]
            }
        },
        {
            "type": "Feature",
            "properties": {
                "ref:csioz": 1124672,
                "name": "Pharma-Land",
                "addr:street": "Braci Tułodzieckich",
                "addr:housenumber": "10",
                "addr:city": "Sierpc",
                "addr:postcode": "09-200",
                "amenity": "pharmacy"
            },
            "geometry": {
                "type": "Point",
                "coordinates": [
                    19.667618619699784,
                    52.85139125149422
                ]
            }
        },
        {
            "type": "Feature",
            "properties": {
                "ref:csioz": 1184432,
                "addr:street": "Szkolna",
                "addr:housenumber": "1",
                "addr:city": "Lelice",
                "addr:postcode": "09-212",
                "amenity": "pharmacy"
            },
            "geometry": {
                "type": "Point",
                "coordinates": [
                    19.767805567628315,
                    52.73689168658715
                ]
            }
        },
        {
            "type": "Feature",
            "properties": {
                "ref:csioz": 1217503,
                "name": "Doz Apteka Dbam O Zdrowie Aspirynka 2",
                "addr:street": "Jana Pawła II",
                "addr:housenumber": "38",
                "addr:city": "Sierpc",
                "addr:postcode": "09-200",
                "amenity": "pharmacy"
            },
            "geometry": {
                "type": "Point",
                "coordinates": [
                    19.65568200000025,
                    52.85498800001684
                ]
            }
        },
        {
            "type": "Feature",
            "properties": {
                "ref:csioz": 1225858,
                "name": "Prima",
                "addr:street": "Armii Krajowej",
                "addr:housenumber": "2",
                "addr:city": "Rościszewo",
                "addr:postcode": "09-204",
                "amenity": "pharmacy"
            },
            "geometry": {
                "type": "Point",
                "coordinates": [
                    19.775180000000315,
                    52.90344900001692
                ]
            }
        },
        {
            "type": "Feature",
            "properties": {
                "ref:csioz": 1225911,
                "addr:street": "Jana Pawła II",
                "addr:housenumber": "41",
                "addr:city": "Rościszewo",
                "addr:postcode": "09-204",
                "amenity": "pharmacy"
            },
            "geometry": {
                "type": "Point",
                "coordinates": [
                    19.775672501689392,
                    52.89923622756432
                ]
            }
        }
    ]
}