{
    "type": "FeatureCollection",
    "name": "JPT_KOD_JE_0602",
    "features": [
        {
            "type": "Feature",
            "properties": {
                "ref:csioz": 1153762,
                "name": "Moja Apteka",
                "addr:street": "Poprzeczna",
                "addr:housenumber": "3a",
                "addr:city": "Biłgoraj",
                "addr:postcode": "23-400",
                "amenity": "pharmacy"
            },
            "geometry": {
                "type": "Point",
                "coordinates": [
                    22.717183304131314,
                    50.53286982132372
                ]
            }
        },
        {
            "type": "Feature",
            "properties": {
                "ref:csioz": 1154233,
                "addr:street": "Dr Stanisława Pojaska",
                "addr:housenumber": "3",
                "addr:city": "Biłgoraj",
                "addr:postcode": "23-400",
                "amenity": "pharmacy"
            },
            "geometry": {
                "type": "Point",
                "coordinates": [
                    22.71475900006106,
                    50.529318000014
                ]
            }
        },
        {
            "type": "Feature",
            "properties": {
                "ref:csioz": 1154673,
                "addr:street": "Kościuszki",
                "addr:housenumber": "77",
                "addr:city": "Biłgoraj",
                "addr:postcode": "23-400",
                "amenity": "pharmacy"
            },
            "geometry": {
                "type": "Point",
                "coordinates": [
                    22.719416209471937,
                    50.5327517395918
                ]
            }
        },
        {
            "type": "Feature",
            "properties": {
                "ref:csioz": 1154943,
                "addr:street": "Długa",
                "addr:housenumber": "39",
                "addr:city": "Biłgoraj",
                "addr:postcode": "23-400",
                "amenity": "pharmacy"
            },
            "geometry": {
                "type": "Point",
                "coordinates": [
                    22.724299229172857,
                    50.53860823488924
                ]
            }
        },
        {
            "type": "Feature",
            "properties": {
                "ref:csioz": 1154956,
                "addr:street": "Kościuszki",
                "addr:housenumber": "42",
                "addr:city": "Biłgoraj",
                "addr:postcode": "23-400",
                "amenity": "pharmacy"
            },
            "geometry": {
                "type": "Point",
                "coordinates": [
                    22.72030753406902,
                    50.5363387550859
                ]
            }
        },
        {
            "type": "Feature",
            "properties": {
                "ref:csioz": 1154970,
                "addr:street": "Rynek",
                "addr:housenumber": "32",
                "addr:city": "Frampol",
                "addr:postcode": "23-440",
                "amenity": "pharmacy"
            },
            "geometry": {
                "type": "Point",
                "coordinates": [
                    22.67137007676741,
                    50.67105405047795
                ]
            }
        },
        {
            "type": "Feature",
            "properties": {
                "ref:csioz": 1155120,
                "name": "Apteka Premium - Lek",
                "addr:street": "3 Maja",
                "addr:housenumber": "87A",
                "addr:city": "Biłgoraj",
                "addr:postcode": "23-400",
                "amenity": "pharmacy"
            },
            "geometry": {
                "type": "Point",
                "coordinates": [
                    22.72138056980375,
                    50.53557228558506
                ]
            }
        },
        {
            "type": "Feature",
            "properties": {
                "ref:csioz": 1155157,
                "addr:street": "Kościuszki",
                "addr:housenumber": "56",
                "addr:city": "Biłgoraj",
                "addr:postcode": "23-400",
                "amenity": "pharmacy"
            },
            "geometry": {
                "type": "Point",
                "coordinates": [
                    22.71902030274122,
                    50.533981319883026
                ]
            }
        },
        {
            "type": "Feature",
            "properties": {
                "ref:csioz": 1155173,
                "addr:street": "Plac Wolności",
                "addr:housenumber": "12",
                "addr:city": "Biłgoraj",
                "addr:postcode": "23-400",
                "amenity": "pharmacy"
            },
            "geometry": {
                "type": "Point",
                "coordinates": [
                    22.721237398578683,
                    50.54321098632509
                ]
            }
        },
        {
            "type": "Feature",
            "properties": {
                "ref:csioz": 1155347,
                "addr:street": "Kościuszki",
                "addr:housenumber": "138",
                "addr:city": "Biłgoraj",
                "addr:postcode": "23-400",
                "amenity": "pharmacy"
            },
            "geometry": {
                "type": "Point",
                "coordinates": [
                    22.713023291730806,
                    50.52593003871541
                ]
            }
        },
        {
            "type": "Feature",
            "properties": {
                "ref:csioz": 1155371,
                "addr:street": "Rynek 600-lecia",
                "addr:housenumber": "6",
                "addr:city": "Goraj",
                "addr:postcode": "23-450",
                "amenity": "pharmacy"
            },
            "geometry": {
                "type": "Point",
                "coordinates": [
                    22.667365450501574,
                    50.72132422778054
                ]
            }
        },
        {
            "type": "Feature",
            "properties": {
                "ref:csioz": 1201855,
                "name": "Apteka Nova",
                "addr:street": "Długa",
                "addr:housenumber": "67",
                "addr:city": "Biłgoraj",
                "addr:postcode": "23-400",
                "amenity": "pharmacy"
            },
            "geometry": {
                "type": "Point",
                "coordinates": [
                    22.7230659796551,
                    50.53435130842825
                ]
            }
        },
        {
            "type": "Feature",
            "properties": {
                "ref:csioz": 1216544,
                "name": "Dr. Max",
                "addr:street": "Aleja Jana Pawła II",
                "addr:housenumber": "49",
                "addr:city": "Biłgoraj",
                "addr:postcode": "23-400",
                "amenity": "pharmacy"
            },
            "geometry": {
                "type": "Point",
                "coordinates": [
                    22.70862196189819,
                    50.52985710442092
                ]
            }
        },
        {
            "type": "Feature",
            "properties": {
                "ref:csioz": 1153976,
                "name": "\"Apteka S.C. Bożena Romańska, Bożena Romańska \"",
                "addr:street": "Hetmana Górki",
                "addr:housenumber": "2",
                "addr:city": "Turobin",
                "addr:postcode": "23-465",
                "amenity": "pharmacy"
            },
            "geometry": {
                "type": "Point",
                "coordinates": [
                    22.744563504765775,
                    50.8224607706339
                ]
            }
        },
        {
            "type": "Feature",
            "properties": {
                "ref:csioz": 1154128,
                "name": "Apteka „Pod Gwiazdą”",
                "addr:street": "gen. Sikorskiego",
                "addr:housenumber": "5",
                "addr:city": "Biłgoraj",
                "addr:postcode": "23-400",
                "amenity": "pharmacy"
            },
            "geometry": {
                "type": "Point",
                "coordinates": [
                    22.714707462328743,
                    50.5313945631389
                ]
            }
        },
        {
            "type": "Feature",
            "properties": {
                "ref:csioz": 1154303,
                "addr:street": "Kościuszki",
                "addr:housenumber": "35 a",
                "addr:city": "Józefów",
                "addr:postcode": "23-460",
                "amenity": "pharmacy"
            },
            "geometry": {
                "type": "Point",
                "coordinates": [
                    23.054464776306183,
                    50.480831492044146
                ]
            }
        },
        {
            "type": "Feature",
            "properties": {
                "ref:csioz": 1154505,
                "addr:street": "Zamojska",
                "addr:housenumber": "21",
                "addr:city": "Biłgoraj",
                "addr:postcode": "23-400",
                "amenity": "pharmacy"
            },
            "geometry": {
                "type": "Point",
                "coordinates": [
                    22.726017213111756,
                    50.543875180905815
                ]
            }
        },
        {
            "type": "Feature",
            "properties": {
                "ref:csioz": 1154539,
                "addr:street": "Kościuszki",
                "addr:housenumber": "97",
                "addr:city": "Biłgoraj",
                "addr:postcode": "23-400",
                "amenity": "pharmacy"
            },
            "geometry": {
                "type": "Point",
                "coordinates": [
                    22.716964957254405,
                    50.53051128373402
                ]
            }
        },
        {
            "type": "Feature",
            "properties": {
                "ref:csioz": 1154583,
                "addr:street": "Rynek",
                "addr:housenumber": "17",
                "addr:city": "Frampol",
                "addr:postcode": "23-440",
                "amenity": "pharmacy"
            },
            "geometry": {
                "type": "Point",
                "coordinates": [
                    22.670387951555412,
                    50.67229079521365
                ]
            }
        },
        {
            "type": "Feature",
            "properties": {
                "ref:csioz": 1154636,
                "name": "Twoja Apteka",
                "addr:street": "Polna",
                "addr:housenumber": "2 A",
                "addr:city": "Biłgoraj",
                "addr:postcode": "23-400",
                "amenity": "pharmacy"
            },
            "geometry": {
                "type": "Point",
                "coordinates": [
                    22.70369884305555,
                    50.533249660192894
                ]
            }
        },
        {
            "type": "Feature",
            "properties": {
                "ref:csioz": 1154685,
                "addr:street": "Nadstawna",
                "addr:housenumber": "56 a",
                "addr:city": "Biłgoraj",
                "addr:postcode": "23-400",
                "amenity": "pharmacy"
            },
            "geometry": {
                "type": "Point",
                "coordinates": [
                    22.718512926150595,
                    50.53720881257331
                ]
            }
        },
        {
            "type": "Feature",
            "properties": {
                "ref:csioz": 1154713,
                "addr:street": "Kościuszki",
                "addr:housenumber": "112",
                "addr:city": "Biłgoraj",
                "addr:postcode": "23-400",
                "amenity": "pharmacy"
            },
            "geometry": {
                "type": "Point",
                "coordinates": [
                    22.714839423082235,
                    50.52828441115655
                ]
            }
        },
        {
            "type": "Feature",
            "properties": {
                "ref:csioz": 1154776,
                "name": "Apteka Grzegorz Silezin",
                "addr:street": "Kościuszki",
                "addr:housenumber": "95",
                "addr:city": "Biłgoraj",
                "addr:postcode": "23-400",
                "amenity": "pharmacy"
            },
            "geometry": {
                "type": "Point",
                "coordinates": [
                    22.717086533129475,
                    50.53067469925863
                ]
            }
        },
        {
            "type": "Feature",
            "properties": {
                "ref:csioz": 1154784,
                "addr:street": "Wojska Polskiego",
                "addr:housenumber": "1",
                "addr:city": "Józefów",
                "addr:postcode": "23-460",
                "amenity": "pharmacy"
            },
            "geometry": {
                "type": "Point",
                "coordinates": [
                    23.055304035587938,
                    50.48008354915083
                ]
            }
        },
        {
            "type": "Feature",
            "properties": {
                "ref:csioz": 1155033,
                "addr:street": "Rynek 600-lecia",
                "addr:housenumber": "13",
                "addr:city": "Goraj",
                "addr:postcode": "23-450",
                "amenity": "pharmacy"
            },
            "geometry": {
                "type": "Point",
                "coordinates": [
                    22.666996586686416,
                    50.721968314747635
                ]
            }
        },
        {
            "type": "Feature",
            "properties": {
                "ref:csioz": 1155065,
                "addr:housenumber": "380",
                "addr:city": "Aleksandrów",
                "addr:postcode": "23-408",
                "amenity": "pharmacy"
            },
            "geometry": {
                "type": "Point",
                "coordinates": [
                    22.882480630302712,
                    50.46686729737689
                ]
            }
        },
        {
            "type": "Feature",
            "properties": {
                "ref:csioz": 1155087,
                "addr:street": "Dekerta",
                "addr:housenumber": "13",
                "addr:city": "Turobin",
                "addr:postcode": "22-465",
                "amenity": "pharmacy"
            },
            "geometry": {
                "type": "Point",
                "coordinates": [
                    22.74437589889733,
                    50.82344979444103
                ]
            }
        },
        {
            "type": "Feature",
            "properties": {
                "ref:csioz": 1155112,
                "name": "Apteka Premium - Lek",
                "addr:street": "Kościuszki",
                "addr:housenumber": "35",
                "addr:city": "Biłgoraj",
                "addr:postcode": "23-400",
                "amenity": "pharmacy"
            },
            "geometry": {
                "type": "Point",
                "coordinates": [
                    22.721580980491503,
                    50.539392506468836
                ]
            }
        },
        {
            "type": "Feature",
            "properties": {
                "ref:csioz": 1164053,
                "name": "Moja Apteka",
                "addr:street": "Długa",
                "addr:housenumber": "309 a",
                "addr:city": "Tereszpol - Zaorenda",
                "addr:postcode": "23-407",
                "amenity": "pharmacy"
            },
            "geometry": {
                "type": "Point",
                "coordinates": [
                    22.88515000007637,
                    50.57280500001434
                ]
            }
        },
        {
            "type": "Feature",
            "properties": {
                "ref:csioz": 1190002,
                "name": "Apteka Szpitalna",
                "addr:street": "dr. Stanisława Pojaska",
                "addr:housenumber": "5",
                "addr:city": "Biłgoraj",
                "addr:postcode": "23-400",
                "amenity": "pharmacy"
            },
            "geometry": {
                "type": "Point",
                "coordinates": [
                    22.713809180250408,
                    50.529068917753506
                ]
            }
        },
        {
            "type": "Feature",
            "properties": {
                "ref:csioz": 1191422,
                "addr:housenumber": "38",
                "addr:city": "Majdan Nowy",
                "addr:postcode": "23-414",
                "amenity": "pharmacy"
            },
            "geometry": {
                "type": "Point",
                "coordinates": [
                    22.74130907932822,
                    50.46944875839014
                ]
            }
        },
        {
            "type": "Feature",
            "properties": {
                "ref:csioz": 1195998,
                "name": "Punkt Apteczny-Monika Łukasik",
                "addr:housenumber": "23 a",
                "addr:city": "Sól",
                "addr:postcode": "23-400",
                "amenity": "pharmacy"
            },
            "geometry": {
                "type": "Point",
                "coordinates": [
                    22.67024468730981,
                    50.51707436611157
                ]
            }
        },
        {
            "type": "Feature",
            "properties": {
                "ref:csioz": 1206836,
                "name": "Centrum Farmaceutyczne Vita Pharma",
                "addr:street": "Bartoszewskiego",
                "addr:housenumber": "1",
                "addr:city": "Józefów",
                "addr:postcode": "23-460",
                "amenity": "pharmacy"
            },
            "geometry": {
                "type": "Point",
                "coordinates": [
                    23.055173992028816,
                    50.480645740226834
                ]
            }
        },
        {
            "type": "Feature",
            "properties": {
                "ref:csioz": 1210398,
                "name": "Apteka Premium-Lek",
                "addr:street": "Tadeusza  Kościuszki",
                "addr:housenumber": "33",
                "addr:city": "Biłgoraj",
                "addr:postcode": "23-400",
                "amenity": "pharmacy"
            },
            "geometry": {
                "type": "Point",
                "coordinates": [
                    22.721759719651757,
                    50.53984124776177
                ]
            }
        },
        {
            "type": "Feature",
            "properties": {
                "ref:csioz": 1215011,
                "name": "-",
                "addr:street": "Bohaterów Monte Cassino",
                "addr:housenumber": "3",
                "addr:city": "Biłgoraj",
                "addr:postcode": "22-400",
                "amenity": "pharmacy"
            },
            "geometry": {
                "type": "Point",
                "coordinates": [
                    22.720250239320286,
                    50.53157625707797
                ]
            }
        },
        {
            "type": "Feature",
            "properties": {
                "ref:csioz": 1221853,
                "name": "-",
                "addr:street": "Rynek",
                "addr:housenumber": "14",
                "addr:city": "Frampol",
                "addr:postcode": "23-440",
                "amenity": "pharmacy"
            },
            "geometry": {
                "type": "Point",
                "coordinates": [
                    22.669363840456317,
                    50.672175438697984
                ]
            }
        },
        {
            "type": "Feature",
            "properties": {
                "ref:csioz": 1187670,
                "name": "\"Apteka \"\"Nowa\"\"\"",
                "addr:street": "Rynek",
                "addr:housenumber": "27",
                "addr:city": "Turobin",
                "addr:postcode": "23-465",
                "amenity": "pharmacy"
            },
            "geometry": {
                "type": "Point",
                "coordinates": [
                    22.74613098962469,
                    50.821391705653724
                ]
            }
        },
        {
            "type": "Feature",
            "properties": {
                "ref:csioz": 1154981,
                "name": "Apteka Marianna Garbacz",
                "addr:housenumber": "51",
                "addr:city": "Łukowa",
                "addr:postcode": "23-412",
                "amenity": "pharmacy"
            },
            "geometry": {
                "type": "Point",
                "coordinates": [
                    22.907525359238342,
                    50.381343052840045
                ]
            }
        },
        {
            "type": "Feature",
            "properties": {
                "ref:csioz": 1154177,
                "addr:housenumber": "543 A",
                "addr:city": "Łukowa",
                "addr:postcode": "23-412",
                "amenity": "pharmacy"
            },
            "geometry": {
                "type": "Point",
                "coordinates": [
                    22.94512295870106,
                    50.373991873515195
                ]
            }
        },
        {
            "type": "Feature",
            "properties": {
                "ref:csioz": 1154792,
                "name": "Apteka Mgr Farm. Jolanta Ważna",
                "addr:housenumber": "35 B",
                "addr:city": "Obsza",
                "addr:postcode": "23-413",
                "amenity": "pharmacy"
            },
            "geometry": {
                "type": "Point",
                "coordinates": [
                    22.956146457608327,
                    50.315722730620834
                ]
            }
        },
        {
            "type": "Feature",
            "properties": {
                "ref:csioz": 1214095,
                "name": "Moja Apteka",
                "addr:housenumber": "50 A",
                "addr:city": "Łukowa",
                "addr:postcode": "23-412",
                "amenity": "pharmacy"
            },
            "geometry": {
                "type": "Point",
                "coordinates": [
                    22.906793976261746,
                    50.381471825712204
                ]
            }
        },
        {
            "type": "Feature",
            "properties": {
                "ref:csioz": 1106496,
                "name": "Matki Bożej",
                "addr:housenumber": "194E",
                "addr:city": "Potok Górny",
                "addr:postcode": "23-423",
                "amenity": "pharmacy"
            },
            "geometry": {
                "type": "Point",
                "coordinates": [
                    22.561695036679666,
                    50.38527921911459
                ]
            }
        },
        {
            "type": "Feature",
            "properties": {
                "ref:csioz": 1154430,
                "addr:housenumber": "50",
                "addr:city": "Biszcza",
                "addr:postcode": "23-425",
                "amenity": "pharmacy"
            },
            "geometry": {
                "type": "Point",
                "coordinates": [
                    22.65141021293305,
                    50.399526399612114
                ]
            }
        },
        {
            "type": "Feature",
            "properties": {
                "ref:csioz": 1154768,
                "addr:housenumber": "2A",
                "addr:city": "Lipiny Górne-Lewki",
                "addr:postcode": "23-423",
                "amenity": "pharmacy"
            },
            "geometry": {
                "type": "Point",
                "coordinates": [
                    22.50383903201926,
                    50.40577159577827
                ]
            }
        },
        {
            "type": "Feature",
            "properties": {
                "ref:csioz": 1154807,
                "name": "Apteka Prywatna Mgr Farm. Julita Majcher",
                "addr:street": "Rynek",
                "addr:housenumber": "89a",
                "addr:city": "Tarnogród",
                "addr:postcode": "23-420",
                "amenity": "pharmacy"
            },
            "geometry": {
                "type": "Point",
                "coordinates": [
                    22.743062745215227,
                    50.35969711783674
                ]
            }
        },
        {
            "type": "Feature",
            "properties": {
                "ref:csioz": 1155022,
                "addr:street": "Rynek",
                "addr:housenumber": "3",
                "addr:city": "Tarnogród",
                "addr:postcode": "23-420",
                "amenity": "pharmacy"
            },
            "geometry": {
                "type": "Point",
                "coordinates": [
                    22.74180134231005,
                    50.35980735607687
                ]
            }
        },
        {
            "type": "Feature",
            "properties": {
                "ref:csioz": 1170278,
                "name": "Moja Apteka",
                "addr:street": "Rynek",
                "addr:housenumber": "75",
                "addr:city": "Tarnogród",
                "addr:postcode": "23-420",
                "amenity": "pharmacy"
            },
            "geometry": {
                "type": "Point",
                "coordinates": [
                    22.742896655120678,
                    50.361170557756
                ]
            }
        },
        {
            "type": "Feature",
            "properties": {
                "ref:csioz": 1213012,
                "name": "Moja Apteka",
                "addr:street": "Biłgorajska",
                "addr:housenumber": "18 A",
                "addr:city": "Księżpol",
                "addr:postcode": "23-415",
                "amenity": "pharmacy"
            },
            "geometry": {
                "type": "Point",
                "coordinates": [
                    22.737906563675683,
                    50.4248797930187
                ]
            }
        }
    ]
}