{
    "type": "FeatureCollection",
    "name": "JPT_KOD_JE_0222",
    "crs": {
        "type": "name",
        "properties": {
            "name": "urn:ogc:def:crs:EPSG::4326"
        }
    },
    "features": [
        {
            "type": "Feature",
            "properties": {
                "ref:csioz": 1126716,
                "name": "Wołowska",
                "addr:street": "Poznańska",
                "addr:housenumber": "22",
                "addr:city": "Wołów",
                "addr:postcode": "56-100",
                "amenity": "pharmacy"
            },
            "geometry": {
                "type": "Point",
                "coordinates": [
                    16.643994215560127,
                    51.3369642084689
                ]
            }
        },
        {
            "type": "Feature",
            "properties": {
                "ref:csioz": 1129249,
                "name": "\"'Dr. Max'\"",
                "addr:street": "Piłsudskiego",
                "addr:housenumber": "34",
                "addr:city": "Wołów",
                "addr:postcode": "56-100",
                "amenity": "pharmacy"
            },
            "geometry": {
                "type": "Point",
                "coordinates": [
                    16.643028060666516,
                    51.336154363908925
                ]
            }
        },
        {
            "type": "Feature",
            "properties": {
                "ref:csioz": 1129635,
                "name": "Lawendowa",
                "addr:street": "Zwycięstwa",
                "addr:housenumber": "9",
                "addr:city": "Brzeg Dolny",
                "addr:postcode": "56-120",
                "amenity": "pharmacy"
            },
            "geometry": {
                "type": "Point",
                "coordinates": [
                    16.717360235525952,
                    51.27560150279703
                ]
            }
        },
        {
            "type": "Feature",
            "properties": {
                "ref:csioz": 1129736,
                "name": "Tęczowa 2",
                "addr:street": "Jerozolimskie",
                "addr:housenumber": "33",
                "addr:city": "Brzeg Dolny",
                "addr:postcode": "56-120",
                "amenity": "pharmacy"
            },
            "geometry": {
                "type": "Point",
                "coordinates": [
                    16.70744671954695,
                    51.26612279532385
                ]
            }
        },
        {
            "type": "Feature",
            "properties": {
                "ref:csioz": 1129681,
                "name": "Dolnobrzeska",
                "addr:street": "Wojciecha Kętrzyńskiego",
                "addr:housenumber": "1",
                "addr:city": "Brzeg Dolny",
                "addr:postcode": "56-120",
                "amenity": "pharmacy"
            },
            "geometry": {
                "type": "Point",
                "coordinates": [
                    16.707593167471373,
                    51.26491893030465
                ]
            }
        },
        {
            "type": "Feature",
            "properties": {
                "ref:csioz": 1130765,
                "name": "Nova 4",
                "addr:street": "Piłsudskiego",
                "addr:housenumber": "32B",
                "addr:city": "Wołów",
                "addr:postcode": "56-100",
                "amenity": "pharmacy"
            },
            "geometry": {
                "type": "Point",
                "coordinates": [
                    16.642057147490696,
                    51.3362373870874
                ]
            }
        },
        {
            "type": "Feature",
            "properties": {
                "ref:csioz": 1136574,
                "name": "\"Apteka \"\"Pod Eskulapem\"\"\"",
                "addr:street": "Wolności",
                "addr:housenumber": "2a",
                "addr:city": "Wińsko",
                "addr:postcode": "56-160",
                "amenity": "pharmacy"
            },
            "geometry": {
                "type": "Point",
                "coordinates": [
                    16.61386949120344,
                    51.4705273153004
                ]
            }
        },
        {
            "type": "Feature",
            "properties": {
                "ref:csioz": 1137537,
                "name": "Centrum Zdrowia",
                "addr:street": "Ludowa",
                "addr:housenumber": "3",
                "addr:city": "Wołów",
                "addr:postcode": "56-100",
                "amenity": "pharmacy"
            },
            "geometry": {
                "type": "Point",
                "coordinates": [
                    16.6456086517212,
                    51.33962776606175
                ]
            }
        },
        {
            "type": "Feature",
            "properties": {
                "ref:csioz": 1183953,
                "name": "Apteka Stella",
                "addr:street": "Juliusza Słowackiego",
                "addr:housenumber": "4",
                "addr:city": "Brzeg Dolny",
                "addr:postcode": "56-120",
                "amenity": "pharmacy"
            },
            "geometry": {
                "type": "Point",
                "coordinates": [
                    16.704626415333188,
                    51.268798235662814
                ]
            }
        },
        {
            "type": "Feature",
            "properties": {
                "ref:csioz": 1130477,
                "name": "Apteka W Lubiążu",
                "addr:street": "Willmanna",
                "addr:housenumber": "21A",
                "addr:city": "Lubiąż",
                "addr:postcode": "56-110",
                "amenity": "pharmacy"
            },
            "geometry": {
                "type": "Point",
                "coordinates": [
                    16.46692864309171,
                    51.266831595904385
                ]
            }
        },
        {
            "type": "Feature",
            "properties": {
                "ref:csioz": 1222995,
                "name": "Pod Eskulapem",
                "addr:housenumber": "49",
                "addr:city": "Krzelów",
                "addr:postcode": "56-160",
                "amenity": "pharmacy"
            },
            "geometry": {
                "type": "Point",
                "coordinates": [
                    16.510368477923137,
                    51.43781064779759
                ]
            }
        },
        {
            "type": "Feature",
            "properties": {
                "ref:csioz": 1174929,
                "name": "Szpital Psychiatryczny Oraz Psychiatryczny Zakład Opiekuńczo-Leczniczy",
                "addr:street": "Adama Mickiewicza",
                "addr:housenumber": "1",
                "addr:city": "Lubiąż",
                "addr:postcode": "56-100",
                "amenity": "pharmacy"
            },
            "geometry": {
                "type": "Point",
                "coordinates": [
                    16.45741976587568,
                    51.27919449786492
                ]
            }
        },
        {
            "type": "Feature",
            "properties": {
                "ref:csioz": 1188998,
                "name": "Apteka Manamedica",
                "addr:street": "Inwalidów Wojennych",
                "addr:housenumber": "13",
                "addr:city": "Wołów",
                "addr:postcode": "56-100",
                "amenity": "pharmacy"
            },
            "geometry": {
                "type": "Point",
                "coordinates": [
                    16.64120751814299,
                    51.33953514915391
                ]
            }
        },
        {
            "type": "Feature",
            "properties": {
                "ref:csioz": 1212998,
                "name": "Doz Apteka. Dbam O Zdrowie Gemini",
                "addr:street": "Trzebnicka",
                "addr:housenumber": "20",
                "addr:flats": "lokal 2",
                "addr:city": "Wołów",
                "addr:postcode": "56-100",
                "amenity": "pharmacy"
            },
            "geometry": {
                "type": "Point",
                "coordinates": [
                    16.65902339886044,
                    51.332549112588595
                ]
            }
        },
        {
            "type": "Feature",
            "properties": {
                "ref:csioz": 1220868,
                "name": "Apteka W Przychodni",
                "addr:street": "Aleje Jerozolimskie",
                "addr:housenumber": "28",
                "addr:city": "Brzeg Dolny",
                "addr:postcode": "56-120",
                "amenity": "pharmacy"
            },
            "geometry": {
                "type": "Point",
                "coordinates": [
                    16.709060480685295,
                    51.26516540669233
                ]
            }
        },
        {
            "type": "Feature",
            "properties": {
                "ref:csioz": 1230792,
                "name": "Dział Farmacji Szpitalnej W Powiatowym Centrum Medycznym W Wołowie Spółka Z O.O.",
                "addr:street": "Aleje Jerozolimskie",
                "addr:housenumber": "28",
                "addr:city": "Brzeg Dolny",
                "addr:postcode": "56-120",
                "amenity": "pharmacy"
            },
            "geometry": {
                "type": "Point",
                "coordinates": [
                    16.709060480685295,
                    51.26516540669233
                ]
            }
        }
    ]
}