{
    "type": "FeatureCollection",
    "name": "JPT_KOD_JE_0401",
    "crs": {
        "type": "name",
        "properties": {
            "name": "urn:ogc:def:crs:EPSG::4326"
        }
    },
    "features": [
        {
            "type": "Feature",
            "properties": {
                "ref:csioz": 1104260,
                "name": "Nieszawska",
                "addr:street": "Henryka Sienkiewicza",
                "addr:housenumber": "22",
                "addr:city": "Nieszawa",
                "addr:postcode": "87-730",
                "amenity": "pharmacy"
            },
            "geometry": {
                "type": "Point",
                "coordinates": [
                    18.899175999999965,
                    52.83402800001682
                ]
            }
        },
        {
            "type": "Feature",
            "properties": {
                "ref:csioz": 1103859,
                "name": "Aloes",
                "addr:street": "Juliusza Słowackiego",
                "addr:housenumber": "43",
                "addr:city": "Aleksandrów Kujawski",
                "addr:postcode": "87-700",
                "amenity": "pharmacy"
            },
            "geometry": {
                "type": "Point",
                "coordinates": [
                    18.69601322291852,
                    52.87424416898403
                ]
            }
        },
        {
            "type": "Feature",
            "properties": {
                "ref:csioz": 1103868,
                "name": "Pod Konwalią",
                "addr:street": "Fryderyka Chopina",
                "addr:housenumber": "14",
                "addr:city": "Aleksandrów Kujawski",
                "addr:postcode": "87-700",
                "amenity": "pharmacy"
            },
            "geometry": {
                "type": "Point",
                "coordinates": [
                    18.691877773119696,
                    52.87615821330883
                ]
            }
        },
        {
            "type": "Feature",
            "properties": {
                "ref:csioz": 1103884,
                "name": "Herba",
                "addr:street": "Juliusza Słowackiego",
                "addr:housenumber": "95",
                "addr:city": "Aleksandrów Kujawski",
                "addr:postcode": "87-700",
                "amenity": "pharmacy"
            },
            "geometry": {
                "type": "Point",
                "coordinates": [
                    18.700638927816172,
                    52.87064141287514
                ]
            }
        },
        {
            "type": "Feature",
            "properties": {
                "ref:csioz": 1103988,
                "name": "Im.S.Staszica",
                "addr:street": "Armii Krajowej",
                "addr:housenumber": "4",
                "addr:city": "Ciechocinek",
                "addr:postcode": "87-720",
                "amenity": "pharmacy"
            },
            "geometry": {
                "type": "Point",
                "coordinates": [
                    18.792040674945124,
                    52.88022355311223
                ]
            }
        },
        {
            "type": "Feature",
            "properties": {
                "ref:csioz": 1103991,
                "name": "Mikstura",
                "addr:street": "Dembickiego",
                "addr:housenumber": "31",
                "addr:city": "Ciechocinek",
                "addr:postcode": "87-720",
                "amenity": "pharmacy"
            },
            "geometry": {
                "type": "Point",
                "coordinates": [
                    18.80120752945394,
                    52.88174127589322
                ]
            }
        },
        {
            "type": "Feature",
            "properties": {
                "ref:csioz": 1104692,
                "name": "Doz Apteka Dbam O Zdrowie",
                "addr:street": "Zdrojowa",
                "addr:housenumber": "34",
                "addr:city": "Ciechocinek",
                "addr:postcode": "87-720",
                "amenity": "pharmacy"
            },
            "geometry": {
                "type": "Point",
                "coordinates": [
                    18.78860364378517,
                    52.8778838070308
                ]
            }
        },
        {
            "type": "Feature",
            "properties": {
                "ref:csioz": 1104863,
                "name": "\"Doz Apteka. Dbam O Zdrowie Słoneczna\"\"\"",
                "addr:street": "Aleja 700-lecia",
                "addr:housenumber": "2",
                "addr:city": "Ciechocinek",
                "addr:postcode": "87-720",
                "amenity": "pharmacy"
            },
            "geometry": {
                "type": "Point",
                "coordinates": [
                    18.810132999999922,
                    52.87222200001687
                ]
            }
        },
        {
            "type": "Feature",
            "properties": {
                "ref:csioz": 1105709,
                "name": "22 Wojskowy Szpital Uzdrowiskowo-Rehabilitacyjny Sp Zakladu Opieki Zdrowotnej",
                "addr:street": "Wojska Polskiego",
                "addr:housenumber": "5",
                "addr:city": "Ciechocinek",
                "addr:postcode": "87-720",
                "amenity": "pharmacy"
            },
            "geometry": {
                "type": "Point",
                "coordinates": [
                    18.80418617492158,
                    52.87727929541087
                ]
            }
        },
        {
            "type": "Feature",
            "properties": {
                "ref:csioz": 1110597,
                "name": "Kujawski",
                "addr:street": "1000-lecia",
                "addr:housenumber": "7",
                "addr:city": "Służewo",
                "addr:postcode": "87-710",
                "amenity": "pharmacy"
            },
            "geometry": {
                "type": "Point",
                "coordinates": [
                    18.650619399385665,
                    52.85418847205239
                ]
            }
        },
        {
            "type": "Feature",
            "properties": {
                "ref:csioz": 1153525,
                "name": "Apteka Szpitalna Powiatowego Szpitala W Aleksandrowie Kujawskim Spółka Z O. O.",
                "addr:street": "Juliusza Słowackiego",
                "addr:housenumber": "18",
                "addr:city": "Aleksandrów Kujawski",
                "addr:postcode": "87-700",
                "amenity": "pharmacy"
            },
            "geometry": {
                "type": "Point",
                "coordinates": [
                    18.69700002545837,
                    52.87384800646373
                ]
            }
        },
        {
            "type": "Feature",
            "properties": {
                "ref:csioz": 1201375,
                "name": "Punkt Apteczny Raciążek",
                "addr:street": "Wysoka",
                "addr:housenumber": "6",
                "addr:city": "Raciążek",
                "addr:postcode": "87-721",
                "amenity": "pharmacy"
            },
            "geometry": {
                "type": "Point",
                "coordinates": [
                    18.81258973156705,
                    52.85668596635988
                ]
            }
        },
        {
            "type": "Feature",
            "properties": {
                "ref:csioz": 1204574,
                "name": "Aspirynka Centrum Leków",
                "addr:street": "Wojska Polskiego",
                "addr:housenumber": "17/47",
                "addr:flats": "3",
                "addr:city": "Aleksandrów Kujawski",
                "addr:postcode": "87-700",
                "amenity": "pharmacy"
            },
            "geometry": {
                "type": "Point",
                "coordinates": [
                    18.697995999999883,
                    52.876452000016876
                ]
            }
        },
        {
            "type": "Feature",
            "properties": {
                "ref:csioz": 1230786,
                "name": "\"Zespół Nzoz W Uzdrowisku Ciechocinek S.A. Szpital Uzdrowiskowy Nr Iv \"\"Dom Zdrojowy\"\"\"",
                "addr:street": "Leśna",
                "addr:housenumber": "3",
                "addr:city": "Ciechocinek",
                "addr:postcode": "87-720",
                "amenity": "pharmacy"
            },
            "geometry": {
                "type": "Point",
                "coordinates": [
                    18.799507763633304,
                    52.87641178646786
                ]
            }
        },
        {
            "type": "Feature",
            "properties": {
                "ref:csioz": 1103942,
                "name": "Zdrojowa",
                "addr:street": "Zdrojowa",
                "addr:housenumber": "44",
                "addr:city": "Ciechocinek",
                "addr:postcode": "87-720",
                "amenity": "pharmacy"
            },
            "geometry": {
                "type": "Point",
                "coordinates": [
                    18.78722483601619,
                    52.876477572597025
                ]
            }
        },
        {
            "type": "Feature",
            "properties": {
                "ref:csioz": 1103950,
                "name": "Apteka Im. Prof. Zofii Jerzmanowskiej",
                "addr:street": "Bema",
                "addr:housenumber": "37 E",
                "addr:city": "Ciechocinek",
                "addr:postcode": "87-720",
                "amenity": "pharmacy"
            },
            "geometry": {
                "type": "Point",
                "coordinates": [
                    18.78499599999992,
                    52.87152600001687
                ]
            }
        },
        {
            "type": "Feature",
            "properties": {
                "ref:csioz": 1103969,
                "name": "Apteka Puls Pod Lwem",
                "addr:street": "Stolarska",
                "addr:housenumber": "6a",
                "addr:city": "Ciechocinek",
                "addr:postcode": "87-720",
                "amenity": "pharmacy"
            },
            "geometry": {
                "type": "Point",
                "coordinates": [
                    18.78693328105635,
                    52.87950641085526
                ]
            }
        },
        {
            "type": "Feature",
            "properties": {
                "ref:csioz": 1104825,
                "name": "Farmacja",
                "addr:street": "Zdrojowa",
                "addr:housenumber": "14",
                "addr:city": "Ciechocinek",
                "addr:postcode": "87-720",
                "amenity": "pharmacy"
            },
            "geometry": {
                "type": "Point",
                "coordinates": [
                    18.79003799999992,
                    52.879358000016886
                ]
            }
        },
        {
            "type": "Feature",
            "properties": {
                "ref:csioz": 1105714,
                "name": "Samodzielny Publiczny Zakład Leczniczo - Opiekuńczy",
                "addr:street": "Przedmiejska",
                "addr:housenumber": "1",
                "addr:city": "Raciążek",
                "addr:postcode": "87-721",
                "amenity": "pharmacy"
            },
            "geometry": {
                "type": "Point",
                "coordinates": [
                    18.809880261043734,
                    52.85561871544338
                ]
            }
        },
        {
            "type": "Feature",
            "properties": {
                "ref:csioz": 1116600,
                "name": "Apteka Pod Tężniami",
                "addr:street": "Władysława Broniewskiego",
                "addr:housenumber": "15",
                "addr:city": "Ciechocinek",
                "addr:postcode": "87-720",
                "amenity": "pharmacy"
            },
            "geometry": {
                "type": "Point",
                "coordinates": [
                    18.787772999999927,
                    52.878957000016875
                ]
            }
        },
        {
            "type": "Feature",
            "properties": {
                "ref:csioz": 1221487,
                "name": "Apteka Puls Osiedlowa",
                "addr:street": "Spółdzielcza",
                "addr:housenumber": "2E",
                "addr:city": "Aleksandrów Kujawski",
                "addr:postcode": "87-700",
                "amenity": "pharmacy"
            },
            "geometry": {
                "type": "Point",
                "coordinates": [
                    18.701006300288196,
                    52.876723997087595
                ]
            }
        },
        {
            "type": "Feature",
            "properties": {
                "ref:csioz": 1226352,
                "name": "Stacjonarne Lecznictwo Uzdrowiskowe",
                "addr:street": "Warzelniana",
                "addr:housenumber": "1",
                "addr:city": "Ciechocinek",
                "addr:postcode": "87-720",
                "amenity": "pharmacy"
            },
            "geometry": {
                "type": "Point",
                "coordinates": [
                    18.790625999999918,
                    52.88344600001688
                ]
            }
        },
        {
            "type": "Feature",
            "properties": {
                "ref:csioz": 1228486,
                "name": "\"Klinika Uzdrowiskowa ,,Pod Tężniami'' Im. Jana Pawła Ii - Spółdzielnia Usług Medycznych\"",
                "addr:street": "Warzelniana",
                "addr:housenumber": "7",
                "addr:city": "Ciechocinek",
                "addr:postcode": "87-720",
                "amenity": "pharmacy"
            },
            "geometry": {
                "type": "Point",
                "coordinates": [
                    18.793393251626103,
                    52.88633130398804
                ]
            }
        },
        {
            "type": "Feature",
            "properties": {
                "ref:csioz": 1229233,
                "name": "Kolejowy Szpital Uzdrowiskowy Nr 2",
                "addr:street": "Gabriela Narutowicza",
                "addr:housenumber": "12",
                "addr:city": "Aleksandrów Kujawski",
                "addr:postcode": "87-700",
                "amenity": "pharmacy"
            },
            "geometry": {
                "type": "Point",
                "coordinates": [
                    18.68713923520709,
                    52.88439685582872
                ]
            }
        },
        {
            "type": "Feature",
            "properties": {
                "ref:csioz": 1230114,
                "name": "Kolejowy Szpital Uzdrowiskowy Nr 1",
                "addr:street": "Zdrojowa",
                "addr:housenumber": "17",
                "addr:city": "Ciechocinek",
                "addr:postcode": "87-720",
                "amenity": "pharmacy"
            },
            "geometry": {
                "type": "Point",
                "coordinates": [
                    18.789577575842227,
                    52.878099022510284
                ]
            }
        },
        {
            "type": "Feature",
            "properties": {
                "ref:csioz": 1103903,
                "name": "Pod Modrzewiem",
                "addr:street": "Włocławska",
                "addr:housenumber": "11",
                "addr:city": "Bądkowo",
                "addr:postcode": "87-704",
                "amenity": "pharmacy"
            },
            "geometry": {
                "type": "Point",
                "coordinates": [
                    18.790110896973562,
                    52.70314761634238
                ]
            }
        },
        {
            "type": "Feature",
            "properties": {
                "ref:csioz": 1104443,
                "name": "Arnika",
                "addr:street": "Dworcowa",
                "addr:housenumber": "5",
                "addr:city": "Waganiec",
                "addr:postcode": "87-731",
                "amenity": "pharmacy"
            },
            "geometry": {
                "type": "Point",
                "coordinates": [
                    18.871837951851695,
                    52.80418111381044
                ]
            }
        },
        {
            "type": "Feature",
            "properties": {
                "ref:csioz": 1104998,
                "addr:street": "Radziejowska",
                "addr:housenumber": "6 A",
                "addr:city": "Zakrzewo",
                "addr:postcode": "87-707",
                "amenity": "pharmacy"
            },
            "geometry": {
                "type": "Point",
                "coordinates": [
                    18.626590699792803,
                    52.7556813392277
                ]
            }
        },
        {
            "type": "Feature",
            "properties": {
                "ref:csioz": 1208438,
                "name": "Punkt Apteczny Zbrachlin",
                "addr:housenumber": "49a",
                "addr:city": "Zbrachlin",
                "addr:postcode": "87-731",
                "amenity": "pharmacy"
            },
            "geometry": {
                "type": "Point",
                "coordinates": [
                    18.875855983002435,
                    52.7883458646484
                ]
            }
        },
        {
            "type": "Feature",
            "properties": {
                "ref:csioz": 1220274,
                "name": "Doz Apteka Dbam O Zdrowie Markiewicz",
                "addr:street": "Osiedlowa",
                "addr:housenumber": "19",
                "addr:city": "Zakrzewo",
                "addr:postcode": "87-707",
                "amenity": "pharmacy"
            },
            "geometry": {
                "type": "Point",
                "coordinates": [
                    18.626330558001168,
                    52.756606316744715
                ]
            }
        },
        {
            "type": "Feature",
            "properties": {
                "ref:csioz": 1230767,
                "name": "Zdrowie I Uroda",
                "addr:street": "Adamczyka Wiesława",
                "addr:housenumber": "13",
                "addr:flats": "2",
                "addr:city": "Koneck",
                "addr:postcode": "87-702",
                "amenity": "pharmacy"
            },
            "geometry": {
                "type": "Point",
                "coordinates": [
                    18.72212049268929,
                    52.780858015997346
                ]
            }
        }
    ]
}