{
    "type": "FeatureCollection",
    "name": "JPT_KOD_JE_2007",
    "crs": {
        "type": "name",
        "properties": {
            "name": "urn:ogc:def:crs:EPSG::4326"
        }
    },
    "features": [
        {
            "type": "Feature",
            "properties": {
                "ref:csioz": 1016077,
                "name": "Punkt Apteczny Litwor",
                "addr:street": "Kościelna",
                "addr:housenumber": "39",
                "addr:city": "Wygoda",
                "addr:postcode": "18-400",
                "amenity": "pharmacy"
            },
            "geometry": {
                "type": "Point",
                "coordinates": [
                    22.156058094596883,
                    53.068911305976144
                ]
            }
        },
        {
            "type": "Feature",
            "properties": {
                "ref:csioz": 1022187,
                "name": "Apteka Prywatna",
                "addr:street": "Miastkowska",
                "addr:housenumber": "12",
                "addr:city": "Nowogród",
                "addr:postcode": "18-414",
                "amenity": "pharmacy"
            },
            "geometry": {
                "type": "Point",
                "coordinates": [
                    21.87618443243833,
                    53.22304799798039
                ]
            }
        },
        {
            "type": "Feature",
            "properties": {
                "ref:csioz": 1022988,
                "name": "\"Apteka Cef@Rm 36,6\"",
                "addr:street": "Czarnocka",
                "addr:housenumber": "14",
                "addr:city": "Piątnica Poduchowna",
                "addr:postcode": "18-421",
                "amenity": "pharmacy"
            },
            "geometry": {
                "type": "Point",
                "coordinates": [
                    22.093286998490996,
                    53.197384414309695
                ]
            }
        },
        {
            "type": "Feature",
            "properties": {
                "ref:csioz": 1022927,
                "name": "\"Apteka Cef@Rm 36,6\"",
                "addr:street": "Ostrołęcka",
                "addr:housenumber": "5",
                "addr:city": "Śniadowo",
                "addr:postcode": "18-411",
                "amenity": "pharmacy"
            },
            "geometry": {
                "type": "Point",
                "coordinates": [
                    21.987866969006642,
                    53.03885395010701
                ]
            }
        },
        {
            "type": "Feature",
            "properties": {
                "ref:csioz": 1227879,
                "name": "Punkt Apteczny Katarzyna Kędzierska",
                "addr:street": "Łomżyńska",
                "addr:housenumber": "8",
                "addr:city": "Miastkowo",
                "addr:postcode": "18-413",
                "amenity": "pharmacy"
            },
            "geometry": {
                "type": "Point",
                "coordinates": [
                    21.826809326092544,
                    53.15258416099864
                ]
            }
        },
        {
            "type": "Feature",
            "properties": {
                "ref:csioz": 1015877,
                "addr:street": "Supska",
                "addr:housenumber": "7",
                "addr:city": "Przytuły",
                "addr:postcode": "18-423",
                "amenity": "pharmacy"
            },
            "geometry": {
                "type": "Point",
                "coordinates": [
                    22.31301514216957,
                    53.36515874629652
                ]
            }
        },
        {
            "type": "Feature",
            "properties": {
                "ref:csioz": 1020888,
                "addr:street": "Plac Jana Pawła II",
                "addr:housenumber": "11",
                "addr:city": "Jedwabne",
                "addr:postcode": "18-420",
                "amenity": "pharmacy"
            },
            "geometry": {
                "type": "Point",
                "coordinates": [
                    22.303421067801615,
                    53.28622846903
                ]
            }
        },
        {
            "type": "Feature",
            "properties": {
                "ref:csioz": 1022942,
                "name": "\"Apteka Cef@Rm 36,6\"",
                "addr:street": "kpt. Władysława Raginisa",
                "addr:housenumber": "31",
                "addr:city": "Wizna",
                "addr:postcode": "18-430",
                "amenity": "pharmacy"
            },
            "geometry": {
                "type": "Point",
                "coordinates": [
                    22.385538002790085,
                    53.19197562309138
                ]
            }
        },
        {
            "type": "Feature",
            "properties": {
                "ref:csioz": 1221660,
                "name": "Apteka Bliska",
                "addr:street": "Łomżyńska",
                "addr:housenumber": "1",
                "addr:city": "Jedwabne",
                "addr:postcode": "18-420",
                "amenity": "pharmacy"
            },
            "geometry": {
                "type": "Point",
                "coordinates": [
                    22.30190291117983,
                    53.28535156789959
                ]
            }
        },
        {
            "type": "Feature",
            "properties": {
                "ref:csioz": 1192071,
                "name": "\"Apteka \"\"Farmacja\"\"\"",
                "addr:street": "Łomżyńska",
                "addr:housenumber": "4",
                "addr:city": "Jedwabne",
                "addr:postcode": "18-420",
                "amenity": "pharmacy"
            },
            "geometry": {
                "type": "Point",
                "coordinates": [
                    22.301358106119935,
                    53.28550137590571
                ]
            }
        }
    ]
}