{
    "type": "FeatureCollection",
    "name": "JPT_KOD_JE_1810",
    "features": [
        {
            "type": "Feature",
            "properties": {
                "ref:csioz": 1145529,
                "addr:housenumber": "1362",
                "addr:city": "Markowa",
                "addr:postcode": "37-120",
                "amenity": "pharmacy"
            },
            "geometry": {
                "type": "Point",
                "coordinates": [
                    22.308797604470737,
                    50.02251981829096
                ]
            }
        },
        {
            "type": "Feature",
            "properties": {
                "ref:csioz": 1145555,
                "addr:street": "Białobrzeska",
                "addr:housenumber": "5",
                "addr:city": "Żołynia",
                "addr:postcode": "37-110",
                "amenity": "pharmacy"
            },
            "geometry": {
                "type": "Point",
                "coordinates": [
                    22.30808204879278,
                    50.16096974196837
                ]
            }
        },
        {
            "type": "Feature",
            "properties": {
                "ref:csioz": 1145564,
                "addr:street": "Białobrzeska",
                "addr:housenumber": "13",
                "addr:city": "Żołynia",
                "addr:postcode": "37-110",
                "amenity": "pharmacy"
            },
            "geometry": {
                "type": "Point",
                "coordinates": [
                    22.308935361585867,
                    50.16082171845879
                ]
            }
        },
        {
            "type": "Feature",
            "properties": {
                "ref:csioz": 1145578,
                "name": "\"Apteka \"\"W Rynku\"\"\"",
                "addr:street": "Rynek",
                "addr:housenumber": "18",
                "addr:city": "Żołynia",
                "addr:postcode": "37-110",
                "amenity": "pharmacy"
            },
            "geometry": {
                "type": "Point",
                "coordinates": [
                    22.309054000035413,
                    50.16018400001301
                ]
            }
        },
        {
            "type": "Feature",
            "properties": {
                "ref:csioz": 1137448,
                "name": "Zakład Pielęgnacyjno Opiekuńczy Im. Matki Teresy Z Kalkuty",
                "addr:street": "Górska",
                "addr:housenumber": "8",
                "addr:city": "Żołynia",
                "addr:postcode": "37-110",
                "amenity": "pharmacy"
            },
            "geometry": {
                "type": "Point",
                "coordinates": [
                    22.306139919801797,
                    50.16555889203052
                ]
            }
        },
        {
            "type": "Feature",
            "properties": {
                "ref:csioz": 1137809,
                "addr:housenumber": "180",
                "addr:city": "Kosina",
                "addr:postcode": "37-112",
                "amenity": "pharmacy"
            },
            "geometry": {
                "type": "Point",
                "coordinates": [
                    22.3341508380331,
                    50.06588025311718
                ]
            }
        },
        {
            "type": "Feature",
            "properties": {
                "ref:csioz": 1145471,
                "name": "Pod Gwiazdą",
                "addr:housenumber": "3",
                "addr:city": "Białobrzegi",
                "addr:postcode": "37-114",
                "amenity": "pharmacy"
            },
            "geometry": {
                "type": "Point",
                "coordinates": [
                    22.33903652388087,
                    50.101981800426906
                ]
            }
        },
        {
            "type": "Feature",
            "properties": {
                "ref:csioz": 1185689,
                "name": "Apteka W Markowej",
                "addr:housenumber": "1679",
                "addr:city": "Markowa",
                "addr:postcode": "37-120",
                "amenity": "pharmacy"
            },
            "geometry": {
                "type": "Point",
                "coordinates": [
                    22.33152427407197,
                    50.02751149153501
                ]
            }
        },
        {
            "type": "Feature",
            "properties": {
                "ref:csioz": 1193576,
                "addr:housenumber": "1035",
                "addr:city": "Kosina",
                "addr:postcode": "37-112",
                "amenity": "pharmacy"
            },
            "geometry": {
                "type": "Point",
                "coordinates": [
                    22.334141329506412,
                    50.06827054515794
                ]
            }
        },
        {
            "type": "Feature",
            "properties": {
                "ref:csioz": 1202716,
                "addr:housenumber": "66",
                "addr:city": "Budy Łańcuckie",
                "addr:postcode": "37-114",
                "amenity": "pharmacy"
            },
            "geometry": {
                "type": "Point",
                "coordinates": [
                    22.400220132261687,
                    50.10019566711335
                ]
            }
        },
        {
            "type": "Feature",
            "properties": {
                "ref:csioz": 1226966,
                "name": "Rodzinny",
                "addr:housenumber": "1",
                "addr:city": "Husów",
                "addr:postcode": "37-121",
                "amenity": "pharmacy"
            },
            "geometry": {
                "type": "Point",
                "coordinates": [
                    22.29027508001269,
                    49.975764065094616
                ]
            }
        },
        {
            "type": "Feature",
            "properties": {
                "ref:csioz": 1230744,
                "addr:housenumber": "376",
                "addr:city": "Rogóżno",
                "addr:postcode": "37-112",
                "amenity": "pharmacy"
            },
            "geometry": {
                "type": "Point",
                "coordinates": [
                    22.374360000039484,
                    50.07481200001294
                ]
            }
        },
        {
            "type": "Feature",
            "properties": {
                "ref:csioz": 1145507,
                "addr:housenumber": "285",
                "addr:city": "Kraczkowa",
                "addr:postcode": "37-124",
                "amenity": "pharmacy"
            },
            "geometry": {
                "type": "Point",
                "coordinates": [
                    22.165366598070726,
                    50.040423407680635
                ]
            }
        },
        {
            "type": "Feature",
            "properties": {
                "ref:csioz": 1145367,
                "name": "Pod Farą",
                "addr:street": "Farna",
                "addr:housenumber": "4",
                "addr:city": "Łańcut",
                "addr:postcode": "37-100",
                "amenity": "pharmacy"
            },
            "geometry": {
                "type": "Point",
                "coordinates": [
                    22.230035904665947,
                    50.0694339136662
                ]
            }
        },
        {
            "type": "Feature",
            "properties": {
                "ref:csioz": 1145380,
                "name": "Dbam O Zdrowie",
                "addr:street": "Adama Mickiewicza",
                "addr:housenumber": "10",
                "addr:city": "Łańcut",
                "addr:postcode": "37-100",
                "amenity": "pharmacy"
            },
            "geometry": {
                "type": "Point",
                "coordinates": [
                    22.22893519045038,
                    50.065294974626255
                ]
            }
        },
        {
            "type": "Feature",
            "properties": {
                "ref:csioz": 1145395,
                "name": "Łańcucka",
                "addr:street": "Józefa Piłsudskiego",
                "addr:housenumber": "24",
                "addr:city": "Łańcut",
                "addr:postcode": "37-100",
                "amenity": "pharmacy"
            },
            "geometry": {
                "type": "Point",
                "coordinates": [
                    22.22804118045008,
                    50.06606190774217
                ]
            }
        },
        {
            "type": "Feature",
            "properties": {
                "ref:csioz": 1145405,
                "name": "Apteka Lafarma",
                "addr:street": "Józefa Piłsudskiego",
                "addr:housenumber": "56",
                "addr:city": "Łańcut",
                "addr:postcode": "37-100",
                "amenity": "pharmacy"
            },
            "geometry": {
                "type": "Point",
                "coordinates": [
                    22.224674321481203,
                    50.06474990401457
                ]
            }
        },
        {
            "type": "Feature",
            "properties": {
                "ref:csioz": 1145426,
                "name": "Apteka Lafarma",
                "addr:street": "Podzwierzyniec",
                "addr:housenumber": "78",
                "addr:city": "Łańcut",
                "addr:postcode": "37-100",
                "amenity": "pharmacy"
            },
            "geometry": {
                "type": "Point",
                "coordinates": [
                    22.232036099824455,
                    50.0905087779801
                ]
            }
        },
        {
            "type": "Feature",
            "properties": {
                "ref:csioz": 1145439,
                "name": "Apteka Lafarma",
                "addr:street": "Rynek",
                "addr:housenumber": "18",
                "addr:city": "Łańcut",
                "addr:postcode": "37-100",
                "amenity": "pharmacy"
            },
            "geometry": {
                "type": "Point",
                "coordinates": [
                    22.228553437021432,
                    50.068913591656575
                ]
            }
        },
        {
            "type": "Feature",
            "properties": {
                "ref:csioz": 1145483,
                "addr:housenumber": "262c",
                "addr:city": "Czarna",
                "addr:postcode": "37-125",
                "amenity": "pharmacy"
            },
            "geometry": {
                "type": "Point",
                "coordinates": [
                    22.1840930575872,
                    50.093267640225314
                ]
            }
        },
        {
            "type": "Feature",
            "properties": {
                "ref:csioz": 1145510,
                "addr:housenumber": "676",
                "addr:city": "Krzemienica",
                "addr:postcode": "37-127",
                "amenity": "pharmacy"
            },
            "geometry": {
                "type": "Point",
                "coordinates": [
                    22.187314642207962,
                    50.069690963481676
                ]
            }
        },
        {
            "type": "Feature",
            "properties": {
                "ref:csioz": 1145541,
                "addr:housenumber": "427",
                "addr:city": "Rakszawa",
                "addr:postcode": "37-111",
                "amenity": "pharmacy"
            },
            "geometry": {
                "type": "Point",
                "coordinates": [
                    22.239331685220282,
                    50.15982479822679
                ]
            }
        },
        {
            "type": "Feature",
            "properties": {
                "ref:csioz": 1209205,
                "name": "Apteka Słoneczna",
                "addr:street": "Józefa Piłsudskiego",
                "addr:housenumber": "5",
                "addr:city": "Łańcut",
                "addr:postcode": "37-100",
                "amenity": "pharmacy"
            },
            "geometry": {
                "type": "Point",
                "coordinates": [
                    22.23002622715238,
                    50.06666220886134
                ]
            }
        },
        {
            "type": "Feature",
            "properties": {
                "ref:csioz": 1219220,
                "addr:housenumber": "619",
                "addr:city": "Medynia Głogowska",
                "addr:postcode": "37-126",
                "amenity": "pharmacy"
            },
            "geometry": {
                "type": "Point",
                "coordinates": [
                    22.133965841770166,
                    50.150829394389056
                ]
            }
        },
        {
            "type": "Feature",
            "properties": {
                "ref:csioz": 1136945,
                "name": "Rodzinna",
                "addr:street": "Piłsudskiego",
                "addr:housenumber": "10",
                "addr:city": "Łańcut",
                "addr:postcode": "37-100",
                "amenity": "pharmacy"
            },
            "geometry": {
                "type": "Point",
                "coordinates": [
                    22.22922565295426,
                    50.06654040554647
                ]
            }
        },
        {
            "type": "Feature",
            "properties": {
                "ref:csioz": 1138201,
                "name": "Apteka Szpitalna",
                "addr:street": "Paderewskiego",
                "addr:housenumber": "5",
                "addr:city": "Łańcut",
                "addr:postcode": "37-100",
                "amenity": "pharmacy"
            },
            "geometry": {
                "type": "Point",
                "coordinates": [
                    22.2327213805512,
                    50.06601698805589
                ]
            }
        },
        {
            "type": "Feature",
            "properties": {
                "ref:csioz": 1145447,
                "name": "Pod Matką Boską",
                "addr:street": "Rzeźnicza",
                "addr:housenumber": "2",
                "addr:city": "Łańcut",
                "addr:postcode": "37-100",
                "amenity": "pharmacy"
            },
            "geometry": {
                "type": "Point",
                "coordinates": [
                    22.228487832855173,
                    50.06801450621049
                ]
            }
        },
        {
            "type": "Feature",
            "properties": {
                "ref:csioz": 1145452,
                "name": "Apteka Lafarma",
                "addr:street": "3-go Maja",
                "addr:housenumber": "6",
                "addr:city": "Łańcut",
                "addr:postcode": "37-100",
                "amenity": "pharmacy"
            },
            "geometry": {
                "type": "Point",
                "coordinates": [
                    22.232116038202836,
                    50.06720783185448
                ]
            }
        },
        {
            "type": "Feature",
            "properties": {
                "ref:csioz": 1164704,
                "name": "Przyjazna Dla Pacjenta",
                "addr:housenumber": "1054a",
                "addr:city": "Albigowa",
                "addr:postcode": "37-122",
                "amenity": "pharmacy"
            },
            "geometry": {
                "type": "Point",
                "coordinates": [
                    22.2340988678207,
                    50.03275913730821
                ]
            }
        },
        {
            "type": "Feature",
            "properties": {
                "ref:csioz": 1164643,
                "name": "Melisa",
                "addr:street": "Podzwierzyniec",
                "addr:housenumber": "41",
                "addr:city": "Łańcut",
                "addr:postcode": "37-100",
                "amenity": "pharmacy"
            },
            "geometry": {
                "type": "Point",
                "coordinates": [
                    22.231180867665106,
                    50.09075072992091
                ]
            }
        },
        {
            "type": "Feature",
            "properties": {
                "ref:csioz": 1183200,
                "name": "Apteka W Centrum",
                "addr:housenumber": "344 A",
                "addr:city": "Rakszawa",
                "addr:postcode": "37-111",
                "amenity": "pharmacy"
            },
            "geometry": {
                "type": "Point",
                "coordinates": [
                    22.243257557626038,
                    50.15259741627013
                ]
            }
        },
        {
            "type": "Feature",
            "properties": {
                "ref:csioz": 1185690,
                "name": "Melisa",
                "addr:street": "Jana Matejki",
                "addr:housenumber": "13",
                "addr:city": "Łańcut",
                "addr:postcode": "37-100",
                "amenity": "pharmacy"
            },
            "geometry": {
                "type": "Point",
                "coordinates": [
                    22.2228102332654,
                    50.06632374819883
                ]
            }
        },
        {
            "type": "Feature",
            "properties": {
                "ref:csioz": 1222445,
                "addr:housenumber": "222",
                "addr:city": "Dąbrówki",
                "addr:postcode": "37-100",
                "amenity": "pharmacy"
            },
            "geometry": {
                "type": "Point",
                "coordinates": [
                    22.23282019075711,
                    50.116547922945024
                ]
            }
        },
        {
            "type": "Feature",
            "properties": {
                "ref:csioz": 1227747,
                "name": "Rodzinny",
                "addr:housenumber": "150",
                "addr:city": "Brzóza Stadnicka",
                "addr:postcode": "37-110",
                "amenity": "pharmacy"
            },
            "geometry": {
                "type": "Point",
                "coordinates": [
                    22.27446636051386,
                    50.195691385634355
                ]
            }
        }
    ]
}