{
    "type": "FeatureCollection",
    "name": "JPT_KOD_JE_0225",
    "crs": {
        "type": "name",
        "properties": {
            "name": "urn:ogc:def:crs:EPSG::4326"
        }
    },
    "features": [
        {
            "type": "Feature",
            "properties": {
                "ref:csioz": 1131172,
                "name": "\"\"\"Ewa\"\"\"",
                "addr:street": "Marii Curie-Skłodowskiej",
                "addr:housenumber": "5",
                "addr:city": "Zawidów",
                "addr:postcode": "59-970",
                "amenity": "pharmacy"
            },
            "geometry": {
                "type": "Point",
                "coordinates": [
                    15.063298999923223,
                    51.02770700001517
                ]
            }
        },
        {
            "type": "Feature",
            "properties": {
                "ref:csioz": 1131205,
                "name": "\"\"\"Apteka Pod Kasztanami\"\"\"",
                "addr:street": "Łużycka",
                "addr:housenumber": "24",
                "addr:city": "Zgorzelec",
                "addr:postcode": "59-900",
                "amenity": "pharmacy"
            },
            "geometry": {
                "type": "Point",
                "coordinates": [
                    15.01267945450009,
                    51.13899885429126
                ]
            }
        },
        {
            "type": "Feature",
            "properties": {
                "ref:csioz": 1131218,
                "name": "\"\"\"Zachodnia\"\"\"",
                "addr:street": "Jarosława Iwaszkiewicza",
                "addr:housenumber": "10A",
                "addr:city": "Zgorzelec",
                "addr:postcode": "59-900",
                "amenity": "pharmacy"
            },
            "geometry": {
                "type": "Point",
                "coordinates": [
                    14.999224999918178,
                    51.157324000015514
                ]
            }
        },
        {
            "type": "Feature",
            "properties": {
                "ref:csioz": 1131226,
                "name": "\"\"\"Cito\"\"\"",
                "addr:street": "Ignacego Daszyńskiego",
                "addr:housenumber": "75A",
                "addr:city": "Zgorzelec",
                "addr:postcode": "59-900",
                "amenity": "pharmacy"
            },
            "geometry": {
                "type": "Point",
                "coordinates": [
                    15.00529348783251,
                    51.150120647424366
                ]
            }
        },
        {
            "type": "Feature",
            "properties": {
                "ref:csioz": 1131408,
                "name": "Łużycka",
                "addr:street": "Warszawska",
                "addr:housenumber": "5",
                "addr:flats": "2",
                "addr:city": "Zgorzelec",
                "addr:postcode": "59-900",
                "amenity": "pharmacy"
            },
            "geometry": {
                "type": "Point",
                "coordinates": [
                    15.007360436583566,
                    51.14908040838229
                ]
            }
        },
        {
            "type": "Feature",
            "properties": {
                "ref:csioz": 1131456,
                "name": "Forte",
                "addr:street": "Fryderyka Chopina",
                "addr:housenumber": "1a",
                "addr:city": "Zgorzelec",
                "addr:postcode": "59-900",
                "amenity": "pharmacy"
            },
            "geometry": {
                "type": "Point",
                "coordinates": [
                    15.008454036472545,
                    51.15316843256681
                ]
            }
        },
        {
            "type": "Feature",
            "properties": {
                "ref:csioz": 1131613,
                "name": "Rodzinna",
                "addr:street": "Fabryczna",
                "addr:housenumber": "2",
                "addr:city": "Bogatynia",
                "addr:postcode": "59-920",
                "amenity": "pharmacy"
            },
            "geometry": {
                "type": "Point",
                "coordinates": [
                    14.961577501634384,
                    50.90106670308512
                ]
            }
        },
        {
            "type": "Feature",
            "properties": {
                "ref:csioz": 1131676,
                "name": "Dr. Max",
                "addr:street": "Armii Krajowej",
                "addr:housenumber": "29",
                "addr:city": "Zgorzelec",
                "addr:postcode": "59-900",
                "amenity": "pharmacy"
            },
            "geometry": {
                "type": "Point",
                "coordinates": [
                    15.015873056023278,
                    51.1518367490967
                ]
            }
        },
        {
            "type": "Feature",
            "properties": {
                "ref:csioz": 1131801,
                "name": "Nad Nysą",
                "addr:street": "Traugutta",
                "addr:housenumber": "6",
                "addr:flats": "2",
                "addr:city": "Pieńsk",
                "addr:postcode": "59-930",
                "amenity": "pharmacy"
            },
            "geometry": {
                "type": "Point",
                "coordinates": [
                    15.044453999923759,
                    51.249012000015554
                ]
            }
        },
        {
            "type": "Feature",
            "properties": {
                "ref:csioz": 1131849,
                "name": "Dr. Max",
                "addr:street": "Warszawska",
                "addr:housenumber": "30",
                "addr:city": "Zgorzelec",
                "addr:postcode": "59-900",
                "amenity": "pharmacy"
            },
            "geometry": {
                "type": "Point",
                "coordinates": [
                    15.009431999919087,
                    51.14447100001549
                ]
            }
        },
        {
            "type": "Feature",
            "properties": {
                "ref:csioz": 1131817,
                "name": "\"Apteka \"\"Impuls\"\"\"",
                "addr:street": "Daszyńskiego",
                "addr:housenumber": "23",
                "addr:city": "Bogatynia",
                "addr:postcode": "59-920",
                "amenity": "pharmacy"
            },
            "geometry": {
                "type": "Point",
                "coordinates": [
                    14.956131152666314,
                    50.906861056105754
                ]
            }
        },
        {
            "type": "Feature",
            "properties": {
                "ref:csioz": 1132051,
                "name": "Apteka Dbam O Zdrowie",
                "addr:street": "Daszyńskiego",
                "addr:housenumber": "43A",
                "addr:city": "Bogatynia",
                "addr:postcode": "59-920",
                "amenity": "pharmacy"
            },
            "geometry": {
                "type": "Point",
                "coordinates": [
                    14.953900164001151,
                    50.91169968561145
                ]
            }
        },
        {
            "type": "Feature",
            "properties": {
                "ref:csioz": 1135416,
                "name": "Lawenda",
                "addr:street": "Kantowicza",
                "addr:housenumber": "2",
                "addr:city": "Ruszów",
                "addr:postcode": "59-950",
                "amenity": "pharmacy"
            },
            "geometry": {
                "type": "Point",
                "coordinates": [
                    15.180526238318068,
                    51.39988327972044
                ]
            }
        },
        {
            "type": "Feature",
            "properties": {
                "ref:csioz": 1135609,
                "name": "Punkt Apteczny W Sulikowie",
                "addr:street": "Wojska Polskiego",
                "addr:housenumber": "18",
                "addr:city": "Sulików",
                "addr:postcode": "59-975",
                "amenity": "pharmacy"
            },
            "geometry": {
                "type": "Point",
                "coordinates": [
                    15.061302110099602,
                    51.07807204103191
                ]
            }
        },
        {
            "type": "Feature",
            "properties": {
                "ref:csioz": 1135488,
                "name": "\"Punkt Apteczny \"\"Jagoda\"\"\"",
                "addr:street": "Dłużyna Dolna",
                "addr:housenumber": "27a",
                "addr:city": "Dłużyna Dolna",
                "addr:postcode": "59-930",
                "amenity": "pharmacy"
            },
            "geometry": {
                "type": "Point",
                "coordinates": [
                    15.111455999929902,
                    51.23335500001538
                ]
            }
        },
        {
            "type": "Feature",
            "properties": {
                "ref:csioz": 1192261,
                "name": "Apteka Na Ujeździe",
                "addr:street": "Łużycka",
                "addr:housenumber": "34A",
                "addr:city": "Zgorzelec",
                "addr:postcode": "59-900",
                "amenity": "pharmacy"
            },
            "geometry": {
                "type": "Point",
                "coordinates": [
                    15.01383889641559,
                    51.137294428138176
                ]
            }
        },
        {
            "type": "Feature",
            "properties": {
                "ref:csioz": 1209729,
                "name": "Apteka Społeczna Na Kościuszki Grupa Nowa Farmacja",
                "addr:street": "Tadeusza Kościuszki",
                "addr:housenumber": "49",
                "addr:flats": "lok. 3",
                "addr:city": "Zgorzelec",
                "addr:postcode": "59-900",
                "amenity": "pharmacy"
            },
            "geometry": {
                "type": "Point",
                "coordinates": [
                    15.007194999918989,
                    51.156320000015505
                ]
            }
        },
        {
            "type": "Feature",
            "properties": {
                "ref:csioz": 1131091,
                "name": "\"\"\"Pod Słońcem\"\"\"",
                "addr:street": "Sikorskiego",
                "addr:housenumber": "40",
                "addr:city": "Węgliniec",
                "addr:postcode": "59-940",
                "amenity": "pharmacy"
            },
            "geometry": {
                "type": "Point",
                "coordinates": [
                    15.219316968675681,
                    51.28863577953816
                ]
            }
        },
        {
            "type": "Feature",
            "properties": {
                "ref:csioz": 1131328,
                "name": "Pod Klonem",
                "addr:street": "Romualda Traugutta",
                "addr:housenumber": "6",
                "addr:city": "Pieńsk",
                "addr:postcode": "59-924",
                "amenity": "pharmacy"
            },
            "geometry": {
                "type": "Point",
                "coordinates": [
                    15.044237999923737,
                    51.24901700001555
                ]
            }
        },
        {
            "type": "Feature",
            "properties": {
                "ref:csioz": 1131470,
                "name": "Arnika",
                "addr:street": "Władysława Broniewskiego",
                "addr:housenumber": "28",
                "addr:city": "Zgorzelec",
                "addr:postcode": "59-900",
                "amenity": "pharmacy"
            },
            "geometry": {
                "type": "Point",
                "coordinates": [
                    15.0121309999195,
                    51.15606100001549
                ]
            }
        },
        {
            "type": "Feature",
            "properties": {
                "ref:csioz": 1131729,
                "name": "Dbam O Zdrowie",
                "addr:street": "Lubańska",
                "addr:housenumber": "11-12",
                "addr:city": "Zgorzelec",
                "addr:postcode": "59-900",
                "amenity": "pharmacy"
            },
            "geometry": {
                "type": "Point",
                "coordinates": [
                    15.011323361116567,
                    51.15823916521721
                ]
            }
        },
        {
            "type": "Feature",
            "properties": {
                "ref:csioz": 1131732,
                "name": "Inter Apteka",
                "addr:street": "Jeleniogórska",
                "addr:housenumber": "42",
                "addr:city": "Łagów",
                "addr:postcode": "59-900",
                "amenity": "pharmacy"
            },
            "geometry": {
                "type": "Point",
                "coordinates": [
                    15.031342944025702,
                    51.155667114468784
                ]
            }
        },
        {
            "type": "Feature",
            "properties": {
                "ref:csioz": 1136959,
                "addr:street": "3-go Maja",
                "addr:housenumber": "1",
                "addr:city": "Czerwona Woda",
                "addr:postcode": "59-940",
                "amenity": "pharmacy"
            },
            "geometry": {
                "type": "Point",
                "coordinates": [
                    15.216090999939038,
                    51.24823500001519
                ]
            }
        },
        {
            "type": "Feature",
            "properties": {
                "ref:csioz": 1137677,
                "name": "Apteka U Nelli",
                "addr:street": "Lubańska",
                "addr:housenumber": "3B",
                "addr:city": "Zgorzelec",
                "addr:postcode": "59-900",
                "amenity": "pharmacy"
            },
            "geometry": {
                "type": "Point",
                "coordinates": [
                    15.004642295309761,
                    51.159403144524504
                ]
            }
        },
        {
            "type": "Feature",
            "properties": {
                "ref:csioz": 1161157,
                "name": "Samodzielny Publiczny Zespół Opieki Zdrowotnej Stacjonarne I Całodobowe Świadczenia Szpitalne",
                "addr:street": "Szpitalna",
                "addr:housenumber": "16",
                "addr:city": "Bogatynia",
                "addr:postcode": "59-920",
                "amenity": "pharmacy"
            },
            "geometry": {
                "type": "Point",
                "coordinates": [
                    14.970174265662669,
                    50.907168029593265
                ]
            }
        },
        {
            "type": "Feature",
            "properties": {
                "ref:csioz": 1161268,
                "name": "Wielospecjalistyczny Szpital - Samodzielny Publiczny Zespół Opieki Zdrowotnej W Zgorzelcu Szpitalnictwo",
                "addr:street": "Lubańska",
                "addr:housenumber": "11-12",
                "addr:city": "Zgorzelec",
                "addr:postcode": "59-900",
                "amenity": "pharmacy"
            },
            "geometry": {
                "type": "Point",
                "coordinates": [
                    15.011323361116567,
                    51.15823916521721
                ]
            }
        },
        {
            "type": "Feature",
            "properties": {
                "ref:csioz": 1174932,
                "name": "Dr. Max",
                "addr:street": "Stanisława Staszica",
                "addr:housenumber": "4",
                "addr:city": "Zgorzelec",
                "addr:postcode": "59-900",
                "amenity": "pharmacy"
            },
            "geometry": {
                "type": "Point",
                "coordinates": [
                    15.006105813812717,
                    51.14930831081776
                ]
            }
        },
        {
            "type": "Feature",
            "properties": {
                "ref:csioz": 1202183,
                "name": "Astra",
                "addr:street": "Ignacego Daszyńskiego",
                "addr:housenumber": "13B",
                "addr:city": "Bogatynia",
                "addr:postcode": "59-920",
                "amenity": "pharmacy"
            },
            "geometry": {
                "type": "Point",
                "coordinates": [
                    14.95694392308013,
                    50.90519280076532
                ]
            }
        },
        {
            "type": "Feature",
            "properties": {
                "ref:csioz": 1207193,
                "name": "Luna",
                "addr:street": "Warszawska",
                "addr:housenumber": "27",
                "addr:city": "Zgorzelec",
                "addr:postcode": "59-900",
                "amenity": "pharmacy"
            },
            "geometry": {
                "type": "Point",
                "coordinates": [
                    15.008922999919054,
                    51.14640300001546
                ]
            }
        },
        {
            "type": "Feature",
            "properties": {
                "ref:csioz": 1217925,
                "name": "Dr. Max",
                "addr:street": "ul. Armii Krajowej",
                "addr:housenumber": "52A",
                "addr:flats": "lokal nr 169",
                "addr:city": "Zgorzelec",
                "addr:postcode": "59-900",
                "amenity": "pharmacy"
            },
            "geometry": {
                "type": "Point",
                "coordinates": [
                    15.027117979896175,
                    51.15331453281201
                ]
            }
        },
        {
            "type": "Feature",
            "properties": {
                "ref:csioz": 1230109,
                "name": "Mniszek",
                "addr:street": "Wojciecha Kossaka",
                "addr:housenumber": "51",
                "addr:city": "Bogatynia",
                "addr:postcode": "59-920",
                "amenity": "pharmacy"
            },
            "geometry": {
                "type": "Point",
                "coordinates": [
                    14.971617721750123,
                    50.90140132445477
                ]
            }
        },
        {
            "type": "Feature",
            "properties": {
                "ref:csioz": 1134796,
                "name": "Na Styku",
                "addr:street": "Mostowa",
                "addr:housenumber": "6A",
                "addr:city": "Porajów",
                "addr:postcode": "59-921",
                "amenity": "pharmacy"
            },
            "geometry": {
                "type": "Point",
                "coordinates": [
                    14.829138188882174,
                    50.886990305074825
                ]
            }
        },
        {
            "type": "Feature",
            "properties": {
                "ref:csioz": 1207273,
                "name": "Apteka Słoneczna",
                "addr:street": "Stefana Batorego",
                "addr:housenumber": "16",
                "addr:city": "Zgorzelec",
                "addr:postcode": "59-900",
                "amenity": "pharmacy"
            },
            "geometry": {
                "type": "Point",
                "coordinates": [
                    15.013773999919602,
                    51.150323000015476
                ]
            }
        },
        {
            "type": "Feature",
            "properties": {
                "ref:csioz": 1131271,
                "name": "Dr. Max",
                "addr:street": "Tadeusza Kościuszki",
                "addr:housenumber": "49",
                "addr:city": "Zgorzelec",
                "addr:postcode": "59-900",
                "amenity": "pharmacy"
            },
            "geometry": {
                "type": "Point",
                "coordinates": [
                    15.007194999918989,
                    51.156320000015505
                ]
            }
        }
    ]
}