{
    "type": "FeatureCollection",
    "name": "JPT_KOD_JE_3212",
    "crs": {
        "type": "name",
        "properties": {
            "name": "urn:ogc:def:crs:EPSG::4326"
        }
    },
    "features": [
        {
            "type": "Feature",
            "properties": {
                "ref:csioz": 1126333,
                "name": "Doz Apteka. Dbam O Zdrowie. Apteka Korona",
                "addr:street": "Księcia Bogusława X",
                "addr:housenumber": "7",
                "addr:city": "Pyrzyce",
                "addr:postcode": "74-200",
                "amenity": "pharmacy"
            },
            "geometry": {
                "type": "Point",
                "coordinates": [
                    14.889850298131616,
                    53.14669499288473
                ]
            }
        },
        {
            "type": "Feature",
            "properties": {
                "ref:csioz": 1152138,
                "name": "Arnica",
                "addr:street": "1 Maja",
                "addr:housenumber": "2",
                "addr:city": "Pyrzyce",
                "addr:postcode": "74-200",
                "amenity": "pharmacy"
            },
            "geometry": {
                "type": "Point",
                "coordinates": [
                    14.89201949105555,
                    53.14486210609552
                ]
            }
        },
        {
            "type": "Feature",
            "properties": {
                "ref:csioz": 1152419,
                "name": "Zdrowie",
                "addr:street": "Poznańska",
                "addr:housenumber": "3",
                "addr:city": "Pyrzyce",
                "addr:postcode": "74-200",
                "amenity": "pharmacy"
            },
            "geometry": {
                "type": "Point",
                "coordinates": [
                    14.895491952946372,
                    53.145800635972265
                ]
            }
        },
        {
            "type": "Feature",
            "properties": {
                "ref:csioz": 1167489,
                "name": "Apteka Z Wieży",
                "addr:street": "Jana Pawła II",
                "addr:housenumber": "8",
                "addr:city": "Pyrzyce",
                "addr:postcode": "74-200",
                "amenity": "pharmacy"
            },
            "geometry": {
                "type": "Point",
                "coordinates": [
                    14.894424044739539,
                    53.14821008049051
                ]
            }
        },
        {
            "type": "Feature",
            "properties": {
                "ref:csioz": 1168420,
                "name": "Arkadia",
                "addr:street": "Stargardzka",
                "addr:housenumber": "18A",
                "addr:city": "Pyrzyce",
                "addr:postcode": "74-200",
                "amenity": "pharmacy"
            },
            "geometry": {
                "type": "Point",
                "coordinates": [
                    14.892680999931983,
                    53.14811800001902
                ]
            }
        },
        {
            "type": "Feature",
            "properties": {
                "ref:csioz": 1168436,
                "name": "Ambrozja",
                "addr:street": "Jana Kilińskiego",
                "addr:housenumber": "13",
                "addr:city": "Pyrzyce",
                "addr:postcode": "74-200",
                "amenity": "pharmacy"
            },
            "geometry": {
                "type": "Point",
                "coordinates": [
                    14.89379199993199,
                    53.141814000019
                ]
            }
        },
        {
            "type": "Feature",
            "properties": {
                "ref:csioz": 1147261,
                "name": "Szpital Powiatowy",
                "addr:street": "Jana Pawła II",
                "addr:housenumber": "2",
                "addr:city": "Pyrzyce",
                "addr:postcode": "74-200",
                "amenity": "pharmacy"
            },
            "geometry": {
                "type": "Point",
                "coordinates": [
                    14.894917583223968,
                    53.146753184662344
                ]
            }
        },
        {
            "type": "Feature",
            "properties": {
                "ref:csioz": 1151541,
                "name": "\"Apteka Cef@Rm 36,6 \"",
                "addr:street": "Barlinecka",
                "addr:housenumber": "2",
                "addr:city": "Lipiany",
                "addr:postcode": "74-240",
                "amenity": "pharmacy"
            },
            "geometry": {
                "type": "Point",
                "coordinates": [
                    14.976804646343165,
                    53.00424658198158
                ]
            }
        },
        {
            "type": "Feature",
            "properties": {
                "ref:csioz": 1168139,
                "name": "\"Apteka Cef@Rm 36,6\"",
                "addr:street": "1 Maja",
                "addr:housenumber": "20",
                "addr:city": "Pyrzyce",
                "addr:postcode": "74-200",
                "amenity": "pharmacy"
            },
            "geometry": {
                "type": "Point",
                "coordinates": [
                    14.891747999931825,
                    53.141556000019015
                ]
            }
        },
        {
            "type": "Feature",
            "properties": {
                "ref:csioz": 1169116,
                "name": "Doz Apteka. Dbam O Zdrowie. Apteka Staromiejska",
                "addr:street": "Armii Krajowej",
                "addr:housenumber": "53",
                "addr:city": "Lipiany",
                "addr:postcode": "74-240",
                "amenity": "pharmacy"
            },
            "geometry": {
                "type": "Point",
                "coordinates": [
                    14.971478056025708,
                    53.00348445365562
                ]
            }
        },
        {
            "type": "Feature",
            "properties": {
                "ref:csioz": 1169238,
                "addr:housenumber": "56",
                "addr:city": "Przelewice",
                "addr:postcode": "74-210",
                "amenity": "pharmacy"
            },
            "geometry": {
                "type": "Point",
                "coordinates": [
                    15.077489944339959,
                    53.10400754293692
                ]
            }
        },
        {
            "type": "Feature",
            "properties": {
                "ref:csioz": 1169310,
                "name": "Aspirynka",
                "addr:street": "Jana Pawła II",
                "addr:housenumber": "34a",
                "addr:flats": "10",
                "addr:city": "Bielice",
                "addr:postcode": "74-202",
                "amenity": "pharmacy"
            },
            "geometry": {
                "type": "Point",
                "coordinates": [
                    14.727505780837589,
                    53.202012733443986
                ]
            }
        },
        {
            "type": "Feature",
            "properties": {
                "ref:csioz": 1230841,
                "name": "Doz Punkt Apteczny Dbam O Zdrowie",
                "addr:housenumber": "38",
                "addr:city": "Warnice",
                "addr:postcode": "74-201",
                "amenity": "pharmacy"
            },
            "geometry": {
                "type": "Point",
                "coordinates": [
                    14.997303350426142,
                    53.255083523135795
                ]
            }
        }
    ]
}