{
    "type": "FeatureCollection",
    "name": "JPT_KOD_JE_0211",
    "features": [
        {
            "type": "Feature",
            "properties": {
                "ref:csioz": 1132657,
                "name": "Vademecum",
                "addr:street": "Kopernika",
                "addr:housenumber": "4",
                "addr:city": "Lubin",
                "addr:postcode": "59-300",
                "amenity": "pharmacy"
            },
            "geometry": {
                "type": "Point",
                "coordinates": [
                    16.202164695268102,
                    51.397690393249256
                ]
            }
        },
        {
            "type": "Feature",
            "properties": {
                "ref:csioz": 1132458,
                "name": "Leśna",
                "addr:street": "Leśna",
                "addr:housenumber": "8",
                "addr:city": "Lubin",
                "addr:postcode": "59-300",
                "amenity": "pharmacy"
            },
            "geometry": {
                "type": "Point",
                "coordinates": [
                    16.203515424274148,
                    51.38374133035399
                ]
            }
        },
        {
            "type": "Feature",
            "properties": {
                "ref:csioz": 1132855,
                "name": "Lawendowa",
                "addr:street": "Rynek",
                "addr:housenumber": "13",
                "addr:city": "Ścinawa",
                "addr:postcode": "59-330",
                "amenity": "pharmacy"
            },
            "geometry": {
                "type": "Point",
                "coordinates": [
                    16.426139335902924,
                    51.416808219107644
                ]
            }
        },
        {
            "type": "Feature",
            "properties": {
                "ref:csioz": 1132893,
                "name": "Górnicza",
                "addr:street": "Marii Skłodowskiej-Curie",
                "addr:housenumber": "60",
                "addr:city": "Lubin",
                "addr:postcode": "59-300",
                "amenity": "pharmacy"
            },
            "geometry": {
                "type": "Point",
                "coordinates": [
                    16.1936201741495,
                    51.40816378953343
                ]
            }
        },
        {
            "type": "Feature",
            "properties": {
                "ref:csioz": 1133129,
                "name": "Prima",
                "addr:street": "Leśna",
                "addr:housenumber": "13A",
                "addr:city": "Lubin",
                "addr:postcode": "59-300",
                "amenity": "pharmacy"
            },
            "geometry": {
                "type": "Point",
                "coordinates": [
                    16.202975226061508,
                    51.38436726858613
                ]
            }
        },
        {
            "type": "Feature",
            "properties": {
                "ref:csioz": 1133132,
                "name": "Nova",
                "addr:street": "Słowackiego",
                "addr:housenumber": "17",
                "addr:city": "Lubin",
                "addr:postcode": "59-300",
                "amenity": "pharmacy"
            },
            "geometry": {
                "type": "Point",
                "coordinates": [
                    16.165523482987147,
                    51.40564276345216
                ]
            }
        },
        {
            "type": "Feature",
            "properties": {
                "ref:csioz": 1133212,
                "name": "Apteka Dla Ciebie",
                "addr:street": "Śląska",
                "addr:housenumber": "4",
                "addr:city": "Lubin",
                "addr:postcode": "59-300",
                "amenity": "pharmacy"
            },
            "geometry": {
                "type": "Point",
                "coordinates": [
                    16.203916567020592,
                    51.4017342960236
                ]
            }
        },
        {
            "type": "Feature",
            "properties": {
                "ref:csioz": 1135059,
                "name": "Lecznictwo Szpitalne Rcz",
                "addr:street": "Gen. Józefa Bema",
                "addr:housenumber": "5-6",
                "addr:city": "Lubin",
                "addr:postcode": "59-300",
                "amenity": "pharmacy"
            },
            "geometry": {
                "type": "Point",
                "coordinates": [
                    16.198541999986425,
                    51.400086000014646
                ]
            }
        },
        {
            "type": "Feature",
            "properties": {
                "ref:csioz": 1135076,
                "name": "Ośrodek Badawczo-Naukowo-Dydaktyczny Chorób Otępiennych Akademii Medycznej We Wrocławiu Spzoz W Ścinawie",
                "addr:street": "Jana Pawła II",
                "addr:housenumber": "12",
                "addr:city": "Ścinawa",
                "addr:postcode": "59-330",
                "amenity": "pharmacy"
            },
            "geometry": {
                "type": "Point",
                "coordinates": [
                    16.42580564758557,
                    51.41310707488368
                ]
            }
        },
        {
            "type": "Feature",
            "properties": {
                "ref:csioz": 1135068,
                "name": "\"Centrum Diagnostyczno - Terapeutyczne \"\"Medicus\"\" Sp. Z O.O.\"",
                "addr:street": "Leśna",
                "addr:housenumber": "8",
                "addr:city": "Lubin",
                "addr:postcode": "59-300",
                "amenity": "pharmacy"
            },
            "geometry": {
                "type": "Point",
                "coordinates": [
                    16.203515424274148,
                    51.38374133035399
                ]
            }
        },
        {
            "type": "Feature",
            "properties": {
                "ref:csioz": 1135887,
                "name": "Prima",
                "addr:street": "Szeroka",
                "addr:housenumber": "6",
                "addr:city": "Ścinawa",
                "addr:postcode": "59-330",
                "amenity": "pharmacy"
            },
            "geometry": {
                "type": "Point",
                "coordinates": [
                    16.423331999990896,
                    51.41719800001462
                ]
            }
        },
        {
            "type": "Feature",
            "properties": {
                "ref:csioz": 1136332,
                "name": "Centrum Zdrowia 24H",
                "addr:street": "Marii Skłodowskiej-Curie",
                "addr:housenumber": "12",
                "addr:city": "Lubin",
                "addr:postcode": "59-300",
                "amenity": "pharmacy"
            },
            "geometry": {
                "type": "Point",
                "coordinates": [
                    16.20148178548198,
                    51.40221003450098
                ]
            }
        },
        {
            "type": "Feature",
            "properties": {
                "ref:csioz": 1159819,
                "name": "Rycerska",
                "addr:street": "Jastrzębia",
                "addr:housenumber": "6",
                "addr:city": "Lubin",
                "addr:postcode": "59-300",
                "amenity": "pharmacy"
            },
            "geometry": {
                "type": "Point",
                "coordinates": [
                    16.2011828815733,
                    51.3869457493498
                ]
            }
        },
        {
            "type": "Feature",
            "properties": {
                "ref:csioz": 1159824,
                "name": "Pod Dobrą Gwiazdą",
                "addr:street": "Grabowa",
                "addr:housenumber": "2",
                "addr:city": "Lubin",
                "addr:postcode": "59-300",
                "amenity": "pharmacy"
            },
            "geometry": {
                "type": "Point",
                "coordinates": [
                    16.18958763872482,
                    51.4040628937995
                ]
            }
        },
        {
            "type": "Feature",
            "properties": {
                "ref:csioz": 1161284,
                "addr:housenumber": "11",
                "addr:city": "Raszówka",
                "addr:postcode": "59-307",
                "amenity": "pharmacy"
            },
            "geometry": {
                "type": "Point",
                "coordinates": [
                    16.1941586574961,
                    51.30981266517284
                ]
            }
        },
        {
            "type": "Feature",
            "properties": {
                "ref:csioz": 1161352,
                "name": "\"Szpital \"\"Miedziowego Centrum Zdrowia\"\" Spółka Akcyjna W Lubinie\"",
                "addr:street": "Marii Skłodowskiej - Curie",
                "addr:housenumber": "54",
                "addr:city": "Lubin",
                "addr:postcode": "59-301",
                "amenity": "pharmacy"
            },
            "geometry": {
                "type": "Point",
                "coordinates": [
                    16.195263999986366,
                    51.408729000014645
                ]
            }
        },
        {
            "type": "Feature",
            "properties": {
                "ref:csioz": 1178107,
                "name": "Apteka Ustronie",
                "addr:street": "Gwarków",
                "addr:housenumber": "84",
                "addr:city": "Lubin",
                "addr:postcode": "59-300",
                "amenity": "pharmacy"
            },
            "geometry": {
                "type": "Point",
                "coordinates": [
                    16.207765407388592,
                    51.379851989944925
                ]
            }
        },
        {
            "type": "Feature",
            "properties": {
                "ref:csioz": 1182099,
                "name": "Cuprum-Med Spółka Z Ograniczoną Odpowiedzialnością",
                "addr:street": "Marii Skłodowskiej-Curie",
                "addr:housenumber": "70",
                "addr:city": "Lubin",
                "addr:postcode": "59-300",
                "amenity": "pharmacy"
            },
            "geometry": {
                "type": "Point",
                "coordinates": [
                    16.206500531966995,
                    51.38011382451292
                ]
            }
        },
        {
            "type": "Feature",
            "properties": {
                "ref:csioz": 1132327,
                "name": "Doz Apteka Dbam O Zdrowie Konwalia",
                "addr:street": "Jana Pawła II",
                "addr:housenumber": "28",
                "addr:city": "Lubin",
                "addr:postcode": "59-300",
                "amenity": "pharmacy"
            },
            "geometry": {
                "type": "Point",
                "coordinates": [
                    16.186052035428105,
                    51.400356089746744
                ]
            }
        },
        {
            "type": "Feature",
            "properties": {
                "ref:csioz": 1132935,
                "name": "Euro Apteka",
                "addr:street": "Generała Jóżefa Bema",
                "addr:housenumber": "1",
                "addr:city": "Lubin",
                "addr:postcode": "59-300",
                "amenity": "pharmacy"
            },
            "geometry": {
                "type": "Point",
                "coordinates": [
                    16.19997217385974,
                    51.40109785619733
                ]
            }
        },
        {
            "type": "Feature",
            "properties": {
                "ref:csioz": 1132962,
                "name": "Apteka Prima",
                "addr:street": "Kilińskiego",
                "addr:housenumber": "12A",
                "addr:city": "Lubin",
                "addr:postcode": "59-300",
                "amenity": "pharmacy"
            },
            "geometry": {
                "type": "Point",
                "coordinates": [
                    16.211862036927357,
                    51.40245920835258
                ]
            }
        },
        {
            "type": "Feature",
            "properties": {
                "ref:csioz": 1133155,
                "name": "Alium",
                "addr:street": "Budowniczych LGOM",
                "addr:housenumber": "61c",
                "addr:city": "Lubin",
                "addr:postcode": "59-300",
                "amenity": "pharmacy"
            },
            "geometry": {
                "type": "Point",
                "coordinates": [
                    16.176865126285836,
                    51.40621698833922
                ]
            }
        },
        {
            "type": "Feature",
            "properties": {
                "ref:csioz": 1136976,
                "name": "Prima",
                "addr:street": "Jana Pawła II",
                "addr:housenumber": "82",
                "addr:city": "Lubin",
                "addr:postcode": "59-300",
                "amenity": "pharmacy"
            },
            "geometry": {
                "type": "Point",
                "coordinates": [
                    16.171587438986254,
                    51.40407200660274
                ]
            }
        },
        {
            "type": "Feature",
            "properties": {
                "ref:csioz": 1137183,
                "name": "Apteka Dr. Optima",
                "addr:street": "Al.Niepodległości",
                "addr:housenumber": "23/25",
                "addr:city": "Lubin",
                "addr:postcode": "59-300",
                "amenity": "pharmacy"
            },
            "geometry": {
                "type": "Point",
                "coordinates": [
                    16.204722999986576,
                    51.400270000014636
                ]
            }
        },
        {
            "type": "Feature",
            "properties": {
                "ref:csioz": 1159688,
                "name": "Pod Różą",
                "addr:street": "Jana Kilińskiego",
                "addr:housenumber": "25D",
                "addr:city": "Lubin",
                "addr:postcode": "59-300",
                "amenity": "pharmacy"
            },
            "geometry": {
                "type": "Point",
                "coordinates": [
                    16.211779494141762,
                    51.40098772201745
                ]
            }
        },
        {
            "type": "Feature",
            "properties": {
                "ref:csioz": 1159702,
                "name": "Panaceum",
                "addr:street": "Władysława Jagiełły",
                "addr:housenumber": "2",
                "addr:city": "Ścinawa",
                "addr:postcode": "59-330",
                "amenity": "pharmacy"
            },
            "geometry": {
                "type": "Point",
                "coordinates": [
                    16.429415397019618,
                    51.41461769999609
                ]
            }
        },
        {
            "type": "Feature",
            "properties": {
                "ref:csioz": 1159789,
                "name": "Aloes",
                "addr:street": "Kamienna",
                "addr:housenumber": "1F",
                "addr:city": "Lubin",
                "addr:postcode": "59-300",
                "amenity": "pharmacy"
            },
            "geometry": {
                "type": "Point",
                "coordinates": [
                    16.1738350204223,
                    51.4026277088081
                ]
            }
        },
        {
            "type": "Feature",
            "properties": {
                "ref:csioz": 1159790,
                "name": "Omega",
                "addr:street": "Jana Pawła II",
                "addr:housenumber": "3",
                "addr:city": "Lubin",
                "addr:postcode": "59-300",
                "amenity": "pharmacy"
            },
            "geometry": {
                "type": "Point",
                "coordinates": [
                    16.17777777040022,
                    51.40112635479138
                ]
            }
        },
        {
            "type": "Feature",
            "properties": {
                "ref:csioz": 1193183,
                "name": "Apteka Nova",
                "addr:street": "Kamienna",
                "addr:housenumber": "36 B",
                "addr:city": "Lubin",
                "addr:postcode": "59-300",
                "amenity": "pharmacy"
            },
            "geometry": {
                "type": "Point",
                "coordinates": [
                    16.167789344625056,
                    51.4031143701454
                ]
            }
        },
        {
            "type": "Feature",
            "properties": {
                "ref:csioz": 1199832,
                "name": "Apteka Nova",
                "addr:street": "Armii Krajowej",
                "addr:housenumber": "15",
                "addr:city": "Lubin",
                "addr:postcode": "59-300",
                "amenity": "pharmacy"
            },
            "geometry": {
                "type": "Point",
                "coordinates": [
                    16.206448910880123,
                    51.40126242308459
                ]
            }
        },
        {
            "type": "Feature",
            "properties": {
                "ref:csioz": 1212172,
                "name": "Apteka Gemini",
                "addr:street": "ul. Tadeusza Kościuszki",
                "addr:housenumber": "13",
                "addr:city": "Lubin",
                "addr:postcode": "59-300",
                "amenity": "pharmacy"
            },
            "geometry": {
                "type": "Point",
                "coordinates": [
                    16.206099985294962,
                    51.40197030979622
                ]
            }
        },
        {
            "type": "Feature",
            "properties": {
                "ref:csioz": 1212573,
                "name": "Dr. Max",
                "addr:street": "ul. gen. Józefa Bema",
                "addr:housenumber": "5-6",
                "addr:city": "Lubin",
                "addr:postcode": "59-300",
                "amenity": "pharmacy"
            },
            "geometry": {
                "type": "Point",
                "coordinates": [
                    16.198541999986425,
                    51.400086000014646
                ]
            }
        },
        {
            "type": "Feature",
            "properties": {
                "ref:csioz": 1216255,
                "name": "Doz Apteka Dbam O Zdrowie",
                "addr:street": "ul. Marii Skłodowskiej-Curie",
                "addr:housenumber": "82",
                "addr:city": "Lubin",
                "addr:postcode": "59-301",
                "amenity": "pharmacy"
            },
            "geometry": {
                "type": "Point",
                "coordinates": [
                    16.192608838923253,
                    51.41011026113952
                ]
            }
        },
        {
            "type": "Feature",
            "properties": {
                "ref:csioz": 1217901,
                "name": "Apteka Drive",
                "addr:street": "ul. Wrocławska",
                "addr:housenumber": "7",
                "addr:city": "Lubin",
                "addr:postcode": "59-300",
                "amenity": "pharmacy"
            },
            "geometry": {
                "type": "Point",
                "coordinates": [
                    16.2081597099325,
                    51.39393881850826
                ]
            }
        },
        {
            "type": "Feature",
            "properties": {
                "ref:csioz": 1218848,
                "name": "Niezapominajka Dla Całej Rodziny",
                "addr:street": "Armii Krajowej",
                "addr:housenumber": "35",
                "addr:flats": "lokal 1",
                "addr:city": "Lubin",
                "addr:postcode": "59-300",
                "amenity": "pharmacy"
            },
            "geometry": {
                "type": "Point",
                "coordinates": [
                    16.207424216752315,
                    51.403545923041854
                ]
            }
        },
        {
            "type": "Feature",
            "properties": {
                "ref:csioz": 1132539,
                "name": "Dr. Max",
                "addr:street": "Zwierzyckiego",
                "addr:housenumber": "2",
                "addr:city": "Lubin",
                "addr:postcode": "59-300",
                "amenity": "pharmacy"
            },
            "geometry": {
                "type": "Point",
                "coordinates": [
                    16.212403824942523,
                    51.38823198105847
                ]
            }
        },
        {
            "type": "Feature",
            "properties": {
                "ref:csioz": 1132713,
                "name": "\"Apteka \"\"Prima\"\"\"",
                "addr:street": "Szpakowa",
                "addr:housenumber": "2A",
                "addr:city": "Lubin",
                "addr:postcode": "59-300",
                "amenity": "pharmacy"
            },
            "geometry": {
                "type": "Point",
                "coordinates": [
                    16.214930441449134,
                    51.38536422917355
                ]
            }
        },
        {
            "type": "Feature",
            "properties": {
                "ref:csioz": 1133164,
                "name": "Miedziowa",
                "addr:street": "Pawia",
                "addr:housenumber": "67",
                "addr:flats": "1",
                "addr:city": "Lubin",
                "addr:postcode": "59-300",
                "amenity": "pharmacy"
            },
            "geometry": {
                "type": "Point",
                "coordinates": [
                    16.209690316132082,
                    51.38847321851867
                ]
            }
        },
        {
            "type": "Feature",
            "properties": {
                "ref:csioz": 1134850,
                "name": "Eliksir",
                "addr:street": "Rynek",
                "addr:housenumber": "13",
                "addr:flats": "lok. 1",
                "addr:city": "Chobienia",
                "addr:postcode": "59-305",
                "amenity": "pharmacy"
            },
            "geometry": {
                "type": "Point",
                "coordinates": [
                    16.448710889007714,
                    51.543096886333224
                ]
            }
        },
        {
            "type": "Feature",
            "properties": {
                "ref:csioz": 1134842,
                "name": "\"Punkt Apteczny \"\"Akacja\"\"\"",
                "addr:street": "Polna",
                "addr:housenumber": "3",
                "addr:city": "Rudna",
                "addr:postcode": "59-305",
                "amenity": "pharmacy"
            },
            "geometry": {
                "type": "Point",
                "coordinates": [
                    16.25920707193646,
                    51.51083446745273
                ]
            }
        },
        {
            "type": "Feature",
            "properties": {
                "ref:csioz": 1175959,
                "name": "Apteka Na Rynku",
                "addr:street": "Zwycięstwa",
                "addr:housenumber": "16",
                "addr:flats": "1",
                "addr:city": "Rudna",
                "addr:postcode": "59-305",
                "amenity": "pharmacy"
            },
            "geometry": {
                "type": "Point",
                "coordinates": [
                    16.26325864040874,
                    51.51018882721812
                ]
            }
        }
    ]
}