{
    "type": "FeatureCollection",
    "name": "JPT_KOD_JE_2006",
    "crs": {
        "type": "name",
        "properties": {
            "name": "urn:ogc:def:crs:EPSG::4326"
        }
    },
    "features": [
        {
            "type": "Feature",
            "properties": {
                "ref:csioz": 1016031,
                "addr:street": "Akacjowa",
                "addr:housenumber": "1",
                "addr:city": "Turośl",
                "addr:postcode": "18-525",
                "amenity": "pharmacy"
            },
            "geometry": {
                "type": "Point",
                "coordinates": [
                    21.726790965001427,
                    53.386918689701645
                ]
            }
        },
        {
            "type": "Feature",
            "properties": {
                "ref:csioz": 1016510,
                "addr:housenumber": "38",
                "addr:flats": "2",
                "addr:city": "KOLNO",
                "addr:postcode": "11-311",
                "amenity": "pharmacy"
            },
            "geometry": {
                "type": "Point",
                "coordinates": [
                    21.928825901516664,
                    53.40613680849806
                ]
            }
        },
        {
            "type": "Feature",
            "properties": {
                "ref:csioz": 1021689,
                "name": "Apteka W Przychodni",
                "addr:street": "Stanisława Milewskiego",
                "addr:housenumber": "36",
                "addr:city": "Kolno",
                "addr:postcode": "18-500",
                "amenity": "pharmacy"
            },
            "geometry": {
                "type": "Point",
                "coordinates": [
                    21.925999000013313,
                    53.41230100001789
                ]
            }
        },
        {
            "type": "Feature",
            "properties": {
                "ref:csioz": 1023043,
                "name": "\"Apteka Cef@Rm 36,6\"",
                "addr:street": "Wojska Polskiego",
                "addr:housenumber": "67",
                "addr:city": "Kolno",
                "addr:postcode": "18-500",
                "amenity": "pharmacy"
            },
            "geometry": {
                "type": "Point",
                "coordinates": [
                    21.924818382156694,
                    53.41132699930019
                ]
            }
        },
        {
            "type": "Feature",
            "properties": {
                "ref:csioz": 1110850,
                "name": "Apteka Miętowa",
                "addr:street": "Wincentego Witosa",
                "addr:housenumber": "3A",
                "addr:flats": "13",
                "addr:city": "Kolno",
                "addr:postcode": "18-500",
                "amenity": "pharmacy"
            },
            "geometry": {
                "type": "Point",
                "coordinates": [
                    21.923202374347152,
                    53.410810593290336
                ]
            }
        },
        {
            "type": "Feature",
            "properties": {
                "ref:csioz": 1179782,
                "addr:street": "Wojska Polskiego",
                "addr:housenumber": "69",
                "addr:city": "Kolno",
                "addr:postcode": "18-500",
                "amenity": "pharmacy"
            },
            "geometry": {
                "type": "Point",
                "coordinates": [
                    21.921814250030643,
                    53.41228288107259
                ]
            }
        },
        {
            "type": "Feature",
            "properties": {
                "ref:csioz": 1182694,
                "name": "\"Apteka Cef@Rm 36,6\"",
                "addr:street": "Wojska Polskiego",
                "addr:housenumber": "69",
                "addr:city": "Kolno",
                "addr:postcode": "18-500",
                "amenity": "pharmacy"
            },
            "geometry": {
                "type": "Point",
                "coordinates": [
                    21.921814250030643,
                    53.41228288107259
                ]
            }
        },
        {
            "type": "Feature",
            "properties": {
                "ref:csioz": 1022002,
                "addr:street": "Wolności",
                "addr:housenumber": "3",
                "addr:city": "Stawiski",
                "addr:postcode": "18-520",
                "amenity": "pharmacy"
            },
            "geometry": {
                "type": "Point",
                "coordinates": [
                    22.154255049183984,
                    53.380036368974956
                ]
            }
        },
        {
            "type": "Feature",
            "properties": {
                "ref:csioz": 1023361,
                "addr:street": "Wolności",
                "addr:housenumber": "18",
                "addr:city": "Stawiski",
                "addr:postcode": "18-520",
                "amenity": "pharmacy"
            },
            "geometry": {
                "type": "Point",
                "coordinates": [
                    22.154884462731587,
                    53.381003090666965
                ]
            }
        },
        {
            "type": "Feature",
            "properties": {
                "ref:csioz": 1024193,
                "name": "Panaceum",
                "addr:street": "11 Listopada",
                "addr:housenumber": "13",
                "addr:city": "Kolno",
                "addr:postcode": "18-500",
                "amenity": "pharmacy"
            },
            "geometry": {
                "type": "Point",
                "coordinates": [
                    21.930331017150912,
                    53.41296148345892
                ]
            }
        },
        {
            "type": "Feature",
            "properties": {
                "ref:csioz": 1025203,
                "addr:street": "Wincentego Witosa",
                "addr:housenumber": "1",
                "addr:city": "Grabowo",
                "addr:postcode": "18-507",
                "amenity": "pharmacy"
            },
            "geometry": {
                "type": "Point",
                "coordinates": [
                    22.152827285853608,
                    53.46232536086613
                ]
            }
        },
        {
            "type": "Feature",
            "properties": {
                "ref:csioz": 1180474,
                "addr:housenumber": "11",
                "addr:city": "Lachowo",
                "addr:postcode": "18-500",
                "amenity": "pharmacy"
            },
            "geometry": {
                "type": "Point",
                "coordinates": [
                    22.017028053116718,
                    53.47080798330684
                ]
            }
        },
        {
            "type": "Feature",
            "properties": {
                "ref:csioz": 1224649,
                "name": "Apteka Podlaska",
                "addr:street": "Wojska Polskiego",
                "addr:housenumber": "51",
                "addr:flats": "U2",
                "addr:city": "Kolno",
                "addr:postcode": "18-500",
                "amenity": "pharmacy"
            },
            "geometry": {
                "type": "Point",
                "coordinates": [
                    21.928232925855294,
                    53.410398226182
                ]
            }
        },
        {
            "type": "Feature",
            "properties": {
                "ref:csioz": 1230778,
                "name": "Główna Apteka",
                "addr:street": "Wojska Polskiego",
                "addr:housenumber": "44",
                "addr:flats": "1",
                "addr:city": "Kolno",
                "addr:postcode": "18-500",
                "amenity": "pharmacy"
            },
            "geometry": {
                "type": "Point",
                "coordinates": [
                    21.924075483687293,
                    53.41212538113734
                ]
            }
        }
    ]
}