{
    "type": "FeatureCollection",
    "name": "JPT_KOD_JE_1815",
    "crs": {
        "type": "name",
        "properties": {
            "name": "urn:ogc:def:crs:EPSG::4326"
        }
    },
    "features": [
        {
            "type": "Feature",
            "properties": {
                "ref:csioz": 1188600,
                "addr:housenumber": "119B",
                "addr:city": "Lubzina",
                "addr:postcode": "39-102",
                "amenity": "pharmacy"
            },
            "geometry": {
                "type": "Point",
                "coordinates": [
                    21.518262759419276,
                    50.06301594169416
                ]
            }
        },
        {
            "type": "Feature",
            "properties": {
                "ref:csioz": 1145773,
                "addr:housenumber": "10",
                "addr:city": "Niedźwiada",
                "addr:postcode": "39-107",
                "amenity": "pharmacy"
            },
            "geometry": {
                "type": "Point",
                "coordinates": [
                    21.550528973683225,
                    49.9892601097342
                ]
            }
        },
        {
            "type": "Feature",
            "properties": {
                "ref:csioz": 1227898,
                "name": "Familijna",
                "addr:housenumber": "248",
                "addr:city": "Łączki Kucharskie",
                "addr:postcode": "39-106",
                "amenity": "pharmacy"
            },
            "geometry": {
                "type": "Point",
                "coordinates": [
                    21.561646734075794,
                    49.99819241623354
                ]
            }
        },
        {
            "type": "Feature",
            "properties": {
                "ref:csioz": 1125675,
                "addr:housenumber": "206",
                "addr:city": "Wielopole Skrzyńskie",
                "addr:postcode": "39-110",
                "amenity": "pharmacy"
            },
            "geometry": {
                "type": "Point",
                "coordinates": [
                    21.61496814915156,
                    49.94587037104756
                ]
            }
        },
        {
            "type": "Feature",
            "properties": {
                "ref:csioz": 1125688,
                "addr:housenumber": "229",
                "addr:city": "Wielopole Skrzyńskie",
                "addr:postcode": "39-110",
                "amenity": "pharmacy"
            },
            "geometry": {
                "type": "Point",
                "coordinates": [
                    21.613813579536412,
                    49.94611813294871
                ]
            }
        },
        {
            "type": "Feature",
            "properties": {
                "ref:csioz": 1145619,
                "name": "Apteka Na Grunwaldzkiej",
                "addr:street": "Grunwaldzka",
                "addr:housenumber": "9",
                "addr:city": "Ropczyce",
                "addr:postcode": "39-100",
                "amenity": "pharmacy"
            },
            "geometry": {
                "type": "Point",
                "coordinates": [
                    21.60951667255077,
                    50.05224233042437
                ]
            }
        },
        {
            "type": "Feature",
            "properties": {
                "ref:csioz": 1145593,
                "name": "Dr.Max",
                "addr:street": "Grunwaldzka",
                "addr:housenumber": "1",
                "addr:city": "Ropczyce",
                "addr:postcode": "39-100",
                "amenity": "pharmacy"
            },
            "geometry": {
                "type": "Point",
                "coordinates": [
                    21.61040589049537,
                    50.052482429060674
                ]
            }
        },
        {
            "type": "Feature",
            "properties": {
                "ref:csioz": 1145720,
                "addr:street": "Kościuszki",
                "addr:housenumber": "18A",
                "addr:city": "Sędziszów Małopolski",
                "addr:postcode": "39-120",
                "amenity": "pharmacy"
            },
            "geometry": {
                "type": "Point",
                "coordinates": [
                    21.701314213059764,
                    50.068987899450015
                ]
            }
        },
        {
            "type": "Feature",
            "properties": {
                "ref:csioz": 1145748,
                "name": "Apteka Im. Św. Ojca Pio",
                "addr:street": "Rynek",
                "addr:housenumber": "6",
                "addr:city": "Sędziszów Małopolski",
                "addr:postcode": "39-120",
                "amenity": "pharmacy"
            },
            "geometry": {
                "type": "Point",
                "coordinates": [
                    21.700486485398223,
                    50.06956429878138
                ]
            }
        },
        {
            "type": "Feature",
            "properties": {
                "ref:csioz": 1145761,
                "addr:housenumber": "260",
                "addr:city": "Wielopole Skrzyńskie",
                "addr:postcode": "39-110",
                "amenity": "pharmacy"
            },
            "geometry": {
                "type": "Point",
                "coordinates": [
                    21.61129930340839,
                    49.944737569752576
                ]
            }
        },
        {
            "type": "Feature",
            "properties": {
                "ref:csioz": 1145757,
                "name": "Pod Ratuszem",
                "addr:street": "Rynek",
                "addr:housenumber": "26",
                "addr:city": "Sędziszów Małopolski",
                "addr:postcode": "39-120",
                "amenity": "pharmacy"
            },
            "geometry": {
                "type": "Point",
                "coordinates": [
                    21.700903552885684,
                    50.07028043653584
                ]
            }
        },
        {
            "type": "Feature",
            "properties": {
                "ref:csioz": 1145712,
                "name": "Apteka Św. Franciszka",
                "addr:street": "Jana Pawła II",
                "addr:housenumber": "56",
                "addr:city": "Sędziszów Małopolski",
                "addr:postcode": "39-120",
                "amenity": "pharmacy"
            },
            "geometry": {
                "type": "Point",
                "coordinates": [
                    21.7076454196727,
                    50.07057155316062
                ]
            }
        },
        {
            "type": "Feature",
            "properties": {
                "ref:csioz": 1165886,
                "addr:street": "Armii Krajowej",
                "addr:housenumber": "4",
                "addr:city": "Ropczyce",
                "addr:postcode": "39-100",
                "amenity": "pharmacy"
            },
            "geometry": {
                "type": "Point",
                "coordinates": [
                    21.60009171514853,
                    50.060217982352135
                ]
            }
        },
        {
            "type": "Feature",
            "properties": {
                "ref:csioz": 1181210,
                "name": "Apteka Prywatna Vitafarm",
                "addr:street": "Osiedle Młodych",
                "addr:housenumber": "1",
                "addr:city": "Sędziszów Małopolski",
                "addr:postcode": "39-120",
                "amenity": "pharmacy"
            },
            "geometry": {
                "type": "Point",
                "coordinates": [
                    21.68661836506259,
                    50.07026791514103
                ]
            }
        },
        {
            "type": "Feature",
            "properties": {
                "ref:csioz": 1202872,
                "name": "Melilotus",
                "addr:street": "Solidarności",
                "addr:housenumber": "2",
                "addr:city": "Sędziszów Małopolski",
                "addr:postcode": "39-120",
                "amenity": "pharmacy"
            },
            "geometry": {
                "type": "Point",
                "coordinates": [
                    21.702033254805706,
                    50.07216113871426
                ]
            }
        },
        {
            "type": "Feature",
            "properties": {
                "ref:csioz": 1206804,
                "name": "Apteka Artfarm",
                "addr:housenumber": "224 a",
                "addr:city": "Ostrów",
                "addr:postcode": "39-103",
                "amenity": "pharmacy"
            },
            "geometry": {
                "type": "Point",
                "coordinates": [
                    21.59199197965106,
                    50.09904207853743
                ]
            }
        },
        {
            "type": "Feature",
            "properties": {
                "ref:csioz": 1209390,
                "name": "Apteka Przyjazna",
                "addr:street": "Józefa Piłsudskiego",
                "addr:housenumber": "26",
                "addr:city": "Ropczyce",
                "addr:postcode": "39-100",
                "amenity": "pharmacy"
            },
            "geometry": {
                "type": "Point",
                "coordinates": [
                    21.6010716812223,
                    50.06100466324575
                ]
            }
        },
        {
            "type": "Feature",
            "properties": {
                "ref:csioz": 1080243,
                "addr:housenumber": "182",
                "addr:city": "Klęczany",
                "addr:postcode": "33-395",
                "amenity": "pharmacy"
            },
            "geometry": {
                "type": "Point",
                "coordinates": [
                    21.784597674463026,
                    50.07309599747719
                ]
            }
        },
        {
            "type": "Feature",
            "properties": {
                "ref:csioz": 1125299,
                "addr:street": "Wyspiańskiego",
                "addr:housenumber": "14",
                "addr:city": "Sędziszów Małopolski",
                "addr:postcode": "39-120",
                "amenity": "pharmacy"
            },
            "geometry": {
                "type": "Point",
                "coordinates": [
                    21.699808377500005,
                    50.069353365712495
                ]
            }
        },
        {
            "type": "Feature",
            "properties": {
                "ref:csioz": 1136465,
                "addr:housenumber": "219",
                "addr:city": "Kamionka",
                "addr:postcode": "39-122",
                "amenity": "pharmacy"
            },
            "geometry": {
                "type": "Point",
                "coordinates": [
                    21.680290664443294,
                    50.1567113060197
                ]
            }
        },
        {
            "type": "Feature",
            "properties": {
                "ref:csioz": 1145662,
                "addr:housenumber": "81",
                "addr:city": "Iwierzyce",
                "addr:postcode": "39-124",
                "amenity": "pharmacy"
            },
            "geometry": {
                "type": "Point",
                "coordinates": [
                    21.757299680051492,
                    50.0279640193166
                ]
            }
        },
        {
            "type": "Feature",
            "properties": {
                "ref:csioz": 1145643,
                "addr:street": "Księdza Kardynała Stefana Wyszyńskiego",
                "addr:housenumber": "45",
                "addr:city": "Ropczyce",
                "addr:postcode": "39-100",
                "amenity": "pharmacy"
            },
            "geometry": {
                "type": "Point",
                "coordinates": [
                    21.61262444490276,
                    50.05667321112229
                ]
            }
        },
        {
            "type": "Feature",
            "properties": {
                "ref:csioz": 1145624,
                "name": "Pro-Me",
                "addr:street": "Króla Kazimierza Wielkiego",
                "addr:housenumber": "6A",
                "addr:city": "Ropczyce",
                "addr:postcode": "39-100",
                "amenity": "pharmacy"
            },
            "geometry": {
                "type": "Point",
                "coordinates": [
                    21.608827000010947,
                    50.05340500001263
                ]
            }
        },
        {
            "type": "Feature",
            "properties": {
                "ref:csioz": 1145681,
                "name": "Apteka Prywatna „Remedium” Lidia Kaźmierczak",
                "addr:housenumber": "226",
                "addr:city": "Ostrów",
                "addr:postcode": "39-103",
                "amenity": "pharmacy"
            },
            "geometry": {
                "type": "Point",
                "coordinates": [
                    21.5928740962282,
                    50.09840968033025
                ]
            }
        },
        {
            "type": "Feature",
            "properties": {
                "ref:csioz": 1145785,
                "addr:housenumber": "367",
                "addr:city": "Zagorzyce",
                "addr:postcode": "39-126",
                "amenity": "pharmacy"
            },
            "geometry": {
                "type": "Point",
                "coordinates": [
                    21.67525021446793,
                    50.01500282190271
                ]
            }
        },
        {
            "type": "Feature",
            "properties": {
                "ref:csioz": 1176044,
                "name": "Apteka Słoneczna Biedronka",
                "addr:street": "Rynek",
                "addr:housenumber": "9",
                "addr:city": "Ropczyce",
                "addr:postcode": "39-100",
                "amenity": "pharmacy"
            },
            "geometry": {
                "type": "Point",
                "coordinates": [
                    21.610772884250245,
                    50.0523767555532
                ]
            }
        },
        {
            "type": "Feature",
            "properties": {
                "ref:csioz": 1200949,
                "name": "Apteka Nova",
                "addr:street": "Jana Pawła II",
                "addr:housenumber": "54A",
                "addr:city": "Sędziszów Małopolski",
                "addr:postcode": "39-120",
                "amenity": "pharmacy"
            },
            "geometry": {
                "type": "Point",
                "coordinates": [
                    21.707346961842013,
                    50.06983635489223
                ]
            }
        },
        {
            "type": "Feature",
            "properties": {
                "ref:csioz": 1208782,
                "name": "Apteka Prywatna Vitafarm",
                "addr:street": "3-go Maja",
                "addr:housenumber": "29",
                "addr:city": "Sędziszów Małopolski",
                "addr:postcode": "39-120",
                "amenity": "pharmacy"
            },
            "geometry": {
                "type": "Point",
                "coordinates": [
                    21.69546015169625,
                    50.069161861644425
                ]
            }
        },
        {
            "type": "Feature",
            "properties": {
                "ref:csioz": 1212481,
                "name": "Apteka Lafarma",
                "addr:street": "Jana Pawła II",
                "addr:housenumber": "25b",
                "addr:city": "Sędziszów Małopolski",
                "addr:postcode": "39-120",
                "amenity": "pharmacy"
            },
            "geometry": {
                "type": "Point",
                "coordinates": [
                    21.703679144272233,
                    50.07096641766116
                ]
            }
        },
        {
            "type": "Feature",
            "properties": {
                "ref:csioz": 1225922,
                "addr:housenumber": "145",
                "addr:city": "Czarna Sędziszowska",
                "addr:postcode": "39-123",
                "amenity": "pharmacy"
            },
            "geometry": {
                "type": "Point",
                "coordinates": [
                    21.75413594870807,
                    50.12428101417858
                ]
            }
        },
        {
            "type": "Feature",
            "properties": {
                "ref:csioz": 1145656,
                "name": "Sinapis",
                "addr:street": "Księdza Kardynała Stefana Wyszyńskiego",
                "addr:housenumber": "54A",
                "addr:city": "Ropczyce",
                "addr:postcode": "39-100",
                "amenity": "pharmacy"
            },
            "geometry": {
                "type": "Point",
                "coordinates": [
                    21.615782974442745,
                    50.05830356777315
                ]
            }
        }
    ]
}