{
    "type": "FeatureCollection",
    "name": "JPT_KOD_JE_1003",
    "features": [
        {
            "type": "Feature",
            "properties": {
                "ref:csioz": 1012883,
                "name": "Apteka Dbam O Zdrowie",
                "addr:street": "Rynek Kościuszki",
                "addr:housenumber": "11",
                "addr:city": "Widawa",
                "addr:postcode": "98-170",
                "amenity": "pharmacy"
            },
            "geometry": {
                "type": "Point",
                "coordinates": [
                    18.941604359981287,
                    51.438457556862254
                ]
            }
        },
        {
            "type": "Feature",
            "properties": {
                "ref:csioz": 1013334,
                "name": "Apteka Malwa",
                "addr:street": "Parkowa",
                "addr:housenumber": "1B",
                "addr:city": "Buczek",
                "addr:postcode": "98-113",
                "amenity": "pharmacy"
            },
            "geometry": {
                "type": "Point",
                "coordinates": [
                    19.164419468838616,
                    51.50459431367252
                ]
            }
        },
        {
            "type": "Feature",
            "properties": {
                "ref:csioz": 1013240,
                "name": "Apteka Dbam O Zdrowie",
                "addr:street": "Wieluńska",
                "addr:housenumber": "4",
                "addr:city": "Sędziejowice",
                "addr:postcode": "98-160",
                "amenity": "pharmacy"
            },
            "geometry": {
                "type": "Point",
                "coordinates": [
                    19.021931841179818,
                    51.50841848540789
                ]
            }
        },
        {
            "type": "Feature",
            "properties": {
                "ref:csioz": 1186669,
                "name": "Apteka - Apteki Dar Zdrowia",
                "addr:street": "Rynek Kościuszki",
                "addr:housenumber": "13",
                "addr:city": "Widawa",
                "addr:postcode": "98-170",
                "amenity": "pharmacy"
            },
            "geometry": {
                "type": "Point",
                "coordinates": [
                    18.942196603740587,
                    51.43808988439741
                ]
            }
        },
        {
            "type": "Feature",
            "properties": {
                "ref:csioz": 1012097,
                "name": "Apteka Dbam O Zdrowie",
                "addr:street": "Dębowa",
                "addr:housenumber": "1",
                "addr:city": "Łask",
                "addr:postcode": "98-100",
                "amenity": "pharmacy"
            },
            "geometry": {
                "type": "Point",
                "coordinates": [
                    19.161675409197734,
                    51.5873589625942
                ]
            }
        },
        {
            "type": "Feature",
            "properties": {
                "ref:csioz": 1013776,
                "name": "Apteka Dbam O Zdrowie",
                "addr:street": "Jana Pawła II",
                "addr:housenumber": "7",
                "addr:city": "Łask",
                "addr:postcode": "98-100",
                "amenity": "pharmacy"
            },
            "geometry": {
                "type": "Point",
                "coordinates": [
                    19.134690172592205,
                    51.58768390384772
                ]
            }
        },
        {
            "type": "Feature",
            "properties": {
                "ref:csioz": 1016624,
                "name": "Apteka Witaminka",
                "addr:street": "Marii Curie-Skłodowskiej",
                "addr:housenumber": "1",
                "addr:city": "Łask",
                "addr:postcode": "98-100",
                "amenity": "pharmacy"
            },
            "geometry": {
                "type": "Point",
                "coordinates": [
                    19.136323282072855,
                    51.588103221556025
                ]
            }
        },
        {
            "type": "Feature",
            "properties": {
                "ref:csioz": 1021559,
                "name": "Apteka Dbam O Zdrowie",
                "addr:street": "Polna",
                "addr:housenumber": "12",
                "addr:city": "Łask",
                "addr:postcode": "98-100",
                "amenity": "pharmacy"
            },
            "geometry": {
                "type": "Point",
                "coordinates": [
                    19.139632750543583,
                    51.58856064897886
                ]
            }
        },
        {
            "type": "Feature",
            "properties": {
                "ref:csioz": 1026621,
                "addr:housenumber": "57",
                "addr:city": "Wodzierady",
                "addr:postcode": "98-105",
                "amenity": "pharmacy"
            },
            "geometry": {
                "type": "Point",
                "coordinates": [
                    19.14966032632615,
                    51.7181351674782
                ]
            }
        },
        {
            "type": "Feature",
            "properties": {
                "ref:csioz": 1177684,
                "name": "\"Apteka \"\"Kwiaty Polskie\"\"\"",
                "addr:street": "Jana Pawła II",
                "addr:housenumber": "1",
                "addr:city": "Łask",
                "addr:postcode": "98-100",
                "amenity": "pharmacy"
            },
            "geometry": {
                "type": "Point",
                "coordinates": [
                    19.133677047332284,
                    51.58774460421908
                ]
            }
        },
        {
            "type": "Feature",
            "properties": {
                "ref:csioz": 1024248,
                "name": "Aloes 3",
                "addr:street": "Warszawska",
                "addr:housenumber": "33",
                "addr:city": "Łask",
                "addr:postcode": "98-100",
                "amenity": "pharmacy"
            },
            "geometry": {
                "type": "Point",
                "coordinates": [
                    19.14015762702451,
                    51.59035087761387
                ]
            }
        },
        {
            "type": "Feature",
            "properties": {
                "ref:csioz": 1009571,
                "addr:street": "11 Listopada",
                "addr:housenumber": "30",
                "addr:city": "Łask",
                "addr:postcode": "98-100",
                "amenity": "pharmacy"
            },
            "geometry": {
                "type": "Point",
                "coordinates": [
                    19.13301925508565,
                    51.59329321140006
                ]
            }
        },
        {
            "type": "Feature",
            "properties": {
                "ref:csioz": 1016785,
                "name": "Apteka Leśna",
                "addr:street": "Szarych Szeregów",
                "addr:housenumber": "1A",
                "addr:city": "Łask",
                "addr:postcode": "98-100",
                "amenity": "pharmacy"
            },
            "geometry": {
                "type": "Point",
                "coordinates": [
                    19.203550107314395,
                    51.61195336385031
                ]
            }
        },
        {
            "type": "Feature",
            "properties": {
                "ref:csioz": 1019480,
                "name": "Melissa",
                "addr:street": "Łódzka",
                "addr:housenumber": "7",
                "addr:city": "Kwiatkowice",
                "addr:postcode": "98-105",
                "amenity": "pharmacy"
            },
            "geometry": {
                "type": "Point",
                "coordinates": [
                    19.11962840884128,
                    51.74426822638795
                ]
            }
        },
        {
            "type": "Feature",
            "properties": {
                "ref:csioz": 1020213,
                "name": "Witaminka 2",
                "addr:street": "Warszawska",
                "addr:housenumber": "65",
                "addr:city": "Łask",
                "addr:postcode": "98-100",
                "amenity": "pharmacy"
            },
            "geometry": {
                "type": "Point",
                "coordinates": [
                    19.145430347002378,
                    51.59125495601331
                ]
            }
        },
        {
            "type": "Feature",
            "properties": {
                "ref:csioz": 1025848,
                "name": "Punkt Apteczny Astra Katarzyna Dziadana-Frątczak",
                "addr:street": "Polna",
                "addr:housenumber": "1",
                "addr:city": "Marzenin",
                "addr:postcode": "98-160",
                "amenity": "pharmacy"
            },
            "geometry": {
                "type": "Point",
                "coordinates": [
                    19.03309282454527,
                    51.55439567550652
                ]
            }
        },
        {
            "type": "Feature",
            "properties": {
                "ref:csioz": 1197125,
                "name": "Szpital Łask",
                "addr:street": "Warszawska",
                "addr:housenumber": "62",
                "addr:city": "Łask",
                "addr:postcode": "98-100",
                "amenity": "pharmacy"
            },
            "geometry": {
                "type": "Point",
                "coordinates": [
                    19.152045974908408,
                    51.5913125017102
                ]
            }
        },
        {
            "type": "Feature",
            "properties": {
                "ref:csioz": 1219634,
                "name": "Apteka Słoneczna Centrum Farmaceutyczne",
                "addr:street": "Jana Pawła II",
                "addr:housenumber": "7",
                "addr:city": "Łask",
                "addr:postcode": "98-100",
                "amenity": "pharmacy"
            },
            "geometry": {
                "type": "Point",
                "coordinates": [
                    19.134690172592205,
                    51.58768390384772
                ]
            }
        }
    ]
}