{
    "type": "FeatureCollection",
    "name": "JPT_KOD_JE_1002",
    "features": [
        {
            "type": "Feature",
            "properties": {
                "ref:csioz": 1012176,
                "name": "Apteka Dbam O Zdrowie",
                "addr:street": "Henryka Sienkiewicza",
                "addr:housenumber": "6",
                "addr:city": "Kutno",
                "addr:postcode": "99-300",
                "amenity": "pharmacy"
            },
            "geometry": {
                "type": "Point",
                "coordinates": [
                    19.3557478460805,
                    52.23199764982778
                ]
            }
        },
        {
            "type": "Feature",
            "properties": {
                "ref:csioz": 1013759,
                "name": "Apteka Dbam O Zdrowie",
                "addr:street": "Wilcza",
                "addr:housenumber": "1",
                "addr:city": "Kutno",
                "addr:postcode": "99-300",
                "amenity": "pharmacy"
            },
            "geometry": {
                "type": "Point",
                "coordinates": [
                    19.36848700000013,
                    52.22857900001584
                ]
            }
        },
        {
            "type": "Feature",
            "properties": {
                "ref:csioz": 1016643,
                "name": "Pod Złotą Wagą",
                "addr:street": "Narutowicza",
                "addr:housenumber": "72",
                "addr:city": "Żychlin",
                "addr:postcode": "99-320",
                "amenity": "pharmacy"
            },
            "geometry": {
                "type": "Point",
                "coordinates": [
                    19.626089682467956,
                    52.23774780789312
                ]
            }
        },
        {
            "type": "Feature",
            "properties": {
                "ref:csioz": 1118329,
                "name": "Medest Iii",
                "addr:street": "Władysława Jagiełły",
                "addr:housenumber": "2",
                "addr:city": "Kutno",
                "addr:postcode": "99-300",
                "amenity": "pharmacy"
            },
            "geometry": {
                "type": "Point",
                "coordinates": [
                    19.357722802053452,
                    52.24198847415183
                ]
            }
        },
        {
            "type": "Feature",
            "properties": {
                "ref:csioz": 1012266,
                "name": "Calendula",
                "addr:street": "Grunwaldzka",
                "addr:housenumber": "1",
                "addr:city": "Kutno",
                "addr:postcode": "99-300",
                "amenity": "pharmacy"
            },
            "geometry": {
                "type": "Point",
                "coordinates": [
                    19.370356697274808,
                    52.229056127697426
                ]
            }
        },
        {
            "type": "Feature",
            "properties": {
                "ref:csioz": 1015188,
                "name": "Apteka Dbam O Zdrowie",
                "addr:street": "Oporowska",
                "addr:housenumber": "6A",
                "addr:city": "Kutno",
                "addr:postcode": "99-300",
                "amenity": "pharmacy"
            },
            "geometry": {
                "type": "Point",
                "coordinates": [
                    19.361069307077035,
                    52.23413477973582
                ]
            }
        },
        {
            "type": "Feature",
            "properties": {
                "ref:csioz": 1013287,
                "name": "\"Apteka \"\"Hipokrates\"\"\"",
                "addr:street": "Sowińskiego",
                "addr:housenumber": "8",
                "addr:city": "Kutno",
                "addr:postcode": "99-300",
                "amenity": "pharmacy"
            },
            "geometry": {
                "type": "Point",
                "coordinates": [
                    19.36541395293719,
                    52.23642959326694
                ]
            }
        },
        {
            "type": "Feature",
            "properties": {
                "ref:csioz": 1185387,
                "addr:housenumber": "15",
                "addr:city": "Plecka Dąbrowa",
                "addr:postcode": "99-311",
                "amenity": "pharmacy"
            },
            "geometry": {
                "type": "Point",
                "coordinates": [
                    19.648170848002053,
                    52.18507585702513
                ]
            }
        },
        {
            "type": "Feature",
            "properties": {
                "ref:csioz": 1188328,
                "name": "Apteka Szlachetna",
                "addr:street": "Konwaliowa",
                "addr:housenumber": "2",
                "addr:city": "Żychlin",
                "addr:postcode": "99-320",
                "amenity": "pharmacy"
            },
            "geometry": {
                "type": "Point",
                "coordinates": [
                    19.628263439381687,
                    52.24466404666547
                ]
            }
        },
        {
            "type": "Feature",
            "properties": {
                "ref:csioz": 1202941,
                "name": "Apteka Słoneczna Centrum Farmaceutyczne",
                "addr:street": "Plac Wolności",
                "addr:housenumber": "7",
                "addr:city": "Kutno",
                "addr:postcode": "99-300",
                "amenity": "pharmacy"
            },
            "geometry": {
                "type": "Point",
                "coordinates": [
                    19.361775835352226,
                    52.23155067661213
                ]
            }
        },
        {
            "type": "Feature",
            "properties": {
                "ref:csioz": 1229685,
                "addr:housenumber": "30A",
                "addr:city": "Bedlno",
                "addr:postcode": "99-320",
                "amenity": "pharmacy"
            },
            "geometry": {
                "type": "Point",
                "coordinates": [
                    19.577053683884607,
                    52.20770758066156
                ]
            }
        },
        {
            "type": "Feature",
            "properties": {
                "ref:csioz": 1119614,
                "name": "\"Doz Apteka. Dbam O Zdrowie \"\"Biedronka\"\"\"",
                "addr:street": "Kościuszki",
                "addr:housenumber": "32",
                "addr:city": "Kutno",
                "addr:postcode": "99-300",
                "amenity": "pharmacy"
            },
            "geometry": {
                "type": "Point",
                "coordinates": [
                    19.36863304989509,
                    52.23683119821752
                ]
            }
        },
        {
            "type": "Feature",
            "properties": {
                "ref:csioz": 1009956,
                "name": "Apteka H2O",
                "addr:street": "Gabriela Narutowicza",
                "addr:housenumber": "71",
                "addr:flats": "1",
                "addr:city": "Żychlin",
                "addr:postcode": "99-320",
                "amenity": "pharmacy"
            },
            "geometry": {
                "type": "Point",
                "coordinates": [
                    19.6262725303902,
                    52.236518053344625
                ]
            }
        },
        {
            "type": "Feature",
            "properties": {
                "ref:csioz": 1010059,
                "addr:street": "Kolejowa",
                "addr:housenumber": "23B",
                "addr:city": "Krośniewice",
                "addr:postcode": "99-340",
                "amenity": "pharmacy"
            },
            "geometry": {
                "type": "Point",
                "coordinates": [
                    19.167124038295807,
                    52.25864611086441
                ]
            }
        },
        {
            "type": "Feature",
            "properties": {
                "ref:csioz": 1010577,
                "name": "Apteka Bellis",
                "addr:street": "1 Maja",
                "addr:housenumber": "3",
                "addr:city": "Żychlin",
                "addr:postcode": "99-320",
                "amenity": "pharmacy"
            },
            "geometry": {
                "type": "Point",
                "coordinates": [
                    19.62468743812363,
                    52.243902764650755
                ]
            }
        },
        {
            "type": "Feature",
            "properties": {
                "ref:csioz": 1010948,
                "addr:housenumber": "12",
                "addr:city": "Krzyżanów",
                "addr:postcode": "99-314",
                "amenity": "pharmacy"
            },
            "geometry": {
                "type": "Point",
                "coordinates": [
                    19.452546237091077,
                    52.184447281612044
                ]
            }
        },
        {
            "type": "Feature",
            "properties": {
                "ref:csioz": 1011722,
                "addr:street": "Kołłątaja",
                "addr:housenumber": "18",
                "addr:city": "Kutno",
                "addr:postcode": "99-300",
                "amenity": "pharmacy"
            },
            "geometry": {
                "type": "Point",
                "coordinates": [
                    19.361523013811876,
                    52.23583947658641
                ]
            }
        },
        {
            "type": "Feature",
            "properties": {
                "ref:csioz": 1011926,
                "addr:street": "Kolejowa",
                "addr:housenumber": "8",
                "addr:city": "Krośniewice",
                "addr:postcode": "99-340",
                "amenity": "pharmacy"
            },
            "geometry": {
                "type": "Point",
                "coordinates": [
                    19.166508768009884,
                    52.257734192795695
                ]
            }
        },
        {
            "type": "Feature",
            "properties": {
                "ref:csioz": 1012826,
                "name": "Medest I",
                "addr:street": "Mickiewicza",
                "addr:housenumber": "5",
                "addr:city": "Kutno",
                "addr:postcode": "99-300",
                "amenity": "pharmacy"
            },
            "geometry": {
                "type": "Point",
                "coordinates": [
                    19.351959507169866,
                    52.23282404938099
                ]
            }
        },
        {
            "type": "Feature",
            "properties": {
                "ref:csioz": 1012958,
                "name": "Apteka Dbam O Zdrowie",
                "addr:street": "Kanclerza Andrzeja Zamoyskiego",
                "addr:housenumber": "4",
                "addr:city": "Kutno",
                "addr:postcode": "99-300",
                "amenity": "pharmacy"
            },
            "geometry": {
                "type": "Point",
                "coordinates": [
                    19.358525134260358,
                    52.24088001606081
                ]
            }
        },
        {
            "type": "Feature",
            "properties": {
                "ref:csioz": 1013745,
                "addr:housenumber": "25/1",
                "addr:city": "Oporów",
                "addr:postcode": "99-322",
                "amenity": "pharmacy"
            },
            "geometry": {
                "type": "Point",
                "coordinates": [
                    19.55679798392391,
                    52.26192690325176
                ]
            }
        },
        {
            "type": "Feature",
            "properties": {
                "ref:csioz": 1016608,
                "name": "Zielona Apteka",
                "addr:street": "Podrzeczna",
                "addr:housenumber": "9",
                "addr:city": "Kutno",
                "addr:postcode": "99-300",
                "amenity": "pharmacy"
            },
            "geometry": {
                "type": "Point",
                "coordinates": [
                    19.35866796030648,
                    52.230953659321536
                ]
            }
        },
        {
            "type": "Feature",
            "properties": {
                "ref:csioz": 1018565,
                "name": "Pod Jesionem",
                "addr:housenumber": "17",
                "addr:city": "Ostrowy",
                "addr:postcode": "99-350",
                "amenity": "pharmacy"
            },
            "geometry": {
                "type": "Point",
                "coordinates": [
                    19.162058765696052,
                    52.31218617828
                ]
            }
        },
        {
            "type": "Feature",
            "properties": {
                "ref:csioz": 1019597,
                "name": "Dr. Max",
                "addr:street": "Kardynała Stefana Wyszyńskiego",
                "addr:housenumber": "5",
                "addr:city": "Kutno",
                "addr:postcode": "99-300",
                "amenity": "pharmacy"
            },
            "geometry": {
                "type": "Point",
                "coordinates": [
                    19.365339597127438,
                    52.230355825119325
                ]
            }
        },
        {
            "type": "Feature",
            "properties": {
                "ref:csioz": 1024731,
                "name": "Apteka Panaceum",
                "addr:street": "Grunwaldzka",
                "addr:housenumber": "1",
                "addr:city": "Kutno",
                "addr:postcode": "99-300",
                "amenity": "pharmacy"
            },
            "geometry": {
                "type": "Point",
                "coordinates": [
                    19.370356697274808,
                    52.229056127697426
                ]
            }
        },
        {
            "type": "Feature",
            "properties": {
                "ref:csioz": 1025376,
                "name": "Elfarm 5",
                "addr:street": "Poznańska",
                "addr:housenumber": "18/20",
                "addr:city": "Krośniewice",
                "addr:postcode": "99-340",
                "amenity": "pharmacy"
            },
            "geometry": {
                "type": "Point",
                "coordinates": [
                    19.165592063730365,
                    52.255519726497845
                ]
            }
        },
        {
            "type": "Feature",
            "properties": {
                "ref:csioz": 1171740,
                "name": "Apteka Panaceum",
                "addr:street": "Henryka Sienkiewicza",
                "addr:housenumber": "12",
                "addr:city": "Kutno",
                "addr:postcode": "99-300",
                "amenity": "pharmacy"
            },
            "geometry": {
                "type": "Point",
                "coordinates": [
                    19.355469092113513,
                    52.231625174931004
                ]
            }
        },
        {
            "type": "Feature",
            "properties": {
                "ref:csioz": 1211483,
                "addr:housenumber": "9A",
                "addr:city": "Łanięta",
                "addr:postcode": "99-306",
                "amenity": "pharmacy"
            },
            "geometry": {
                "type": "Point",
                "coordinates": [
                    19.28089843545855,
                    52.360728219639384
                ]
            }
        },
        {
            "type": "Feature",
            "properties": {
                "ref:csioz": 1230832,
                "name": "\"Niepubliczny Zakład Opieki Zdrowotnej \"\"Stacjonarne Hospicjum Kutnowskie\"\" \"",
                "addr:street": "Jastrzębia",
                "addr:housenumber": "15",
                "addr:city": "KUTNO",
                "addr:postcode": "99-300",
                "amenity": "pharmacy"
            },
            "geometry": {
                "type": "Point",
                "coordinates": [
                    19.317016197538106,
                    52.24567208377822
                ]
            }
        },
        {
            "type": "Feature",
            "properties": {
                "ref:csioz": 1010210,
                "addr:street": "Leśna",
                "addr:housenumber": "1/2",
                "addr:city": "Strzelce",
                "addr:postcode": "99-037",
                "amenity": "pharmacy"
            },
            "geometry": {
                "type": "Point",
                "coordinates": [
                    19.408255000000143,
                    52.31835200001597
                ]
            }
        },
        {
            "type": "Feature",
            "properties": {
                "ref:csioz": 1013924,
                "name": "Apteka Polska Sp.J.",
                "addr:street": "Kościuszki",
                "addr:housenumber": "52",
                "addr:city": "Kutno",
                "addr:postcode": "99-300",
                "amenity": "pharmacy"
            },
            "geometry": {
                "type": "Point",
                "coordinates": [
                    19.371537250872098,
                    52.23890947096825
                ]
            }
        },
        {
            "type": "Feature",
            "properties": {
                "ref:csioz": 1014082,
                "name": "Medest Ii",
                "addr:street": "Marii Skłodowskiej-Curie",
                "addr:housenumber": "46",
                "addr:city": "Kutno",
                "addr:postcode": "99-300",
                "amenity": "pharmacy"
            },
            "geometry": {
                "type": "Point",
                "coordinates": [
                    19.353270588869087,
                    52.24095577798159
                ]
            }
        },
        {
            "type": "Feature",
            "properties": {
                "ref:csioz": 1017858,
                "name": "Dr. Max",
                "addr:street": "Łąkowa",
                "addr:housenumber": "3A",
                "addr:city": "Żychlin",
                "addr:postcode": "99-320",
                "amenity": "pharmacy"
            },
            "geometry": {
                "type": "Point",
                "coordinates": [
                    19.629422570422474,
                    52.24204512373074
                ]
            }
        },
        {
            "type": "Feature",
            "properties": {
                "ref:csioz": 1021194,
                "name": "Medest",
                "addr:housenumber": "7",
                "addr:city": "Wołodrza",
                "addr:postcode": "99-350",
                "amenity": "pharmacy"
            },
            "geometry": {
                "type": "Point",
                "coordinates": [
                    19.193147965790562,
                    52.29654577310526
                ]
            }
        },
        {
            "type": "Feature",
            "properties": {
                "ref:csioz": 1022934,
                "name": "Aloes",
                "addr:street": "Stary Rynek",
                "addr:housenumber": "31",
                "addr:city": "Dąbrowice",
                "addr:postcode": "99-352",
                "amenity": "pharmacy"
            },
            "geometry": {
                "type": "Point",
                "coordinates": [
                    19.08255175109737,
                    52.315890109937826
                ]
            }
        },
        {
            "type": "Feature",
            "properties": {
                "ref:csioz": 1026016,
                "name": "Kwiaty Polskie",
                "addr:street": "29 Listopada",
                "addr:housenumber": "32",
                "addr:city": "Kutno",
                "addr:postcode": "99-300",
                "amenity": "pharmacy"
            },
            "geometry": {
                "type": "Point",
                "coordinates": [
                    19.35254807403253,
                    52.234896328414855
                ]
            }
        },
        {
            "type": "Feature",
            "properties": {
                "ref:csioz": 1186642,
                "name": "Medest Bis Iii",
                "addr:street": "Norberta Barlickiego",
                "addr:housenumber": "2",
                "addr:city": "Kutno",
                "addr:postcode": "99-300",
                "amenity": "pharmacy"
            },
            "geometry": {
                "type": "Point",
                "coordinates": [
                    19.362748954989364,
                    52.23212675109799
                ]
            }
        },
        {
            "type": "Feature",
            "properties": {
                "ref:csioz": 1193243,
                "name": "Szpital Specjalista",
                "addr:street": "29 Listopada",
                "addr:housenumber": "37",
                "addr:city": "Kutno",
                "addr:postcode": "99-300",
                "amenity": "pharmacy"
            },
            "geometry": {
                "type": "Point",
                "coordinates": [
                    19.350511445319835,
                    52.23498745861593
                ]
            }
        },
        {
            "type": "Feature",
            "properties": {
                "ref:csioz": 1196352,
                "addr:street": "Kościuszki",
                "addr:housenumber": "52",
                "addr:city": "Kutno",
                "addr:postcode": "99-300",
                "amenity": "pharmacy"
            },
            "geometry": {
                "type": "Point",
                "coordinates": [
                    19.371537250872098,
                    52.23890947096825
                ]
            }
        },
        {
            "type": "Feature",
            "properties": {
                "ref:csioz": 1196360,
                "name": "\"Niepubliczny Zakład Opieki Zdrowotnej \"\"Kutnowski Szpital Samorządowy\"\"\"",
                "addr:street": "Kościuszki",
                "addr:housenumber": "52",
                "addr:city": "Kutno",
                "addr:postcode": "99-300",
                "amenity": "pharmacy"
            },
            "geometry": {
                "type": "Point",
                "coordinates": [
                    19.371537250872098,
                    52.23890947096825
                ]
            }
        },
        {
            "type": "Feature",
            "properties": {
                "ref:csioz": 1203680,
                "name": "Apteka H2O",
                "addr:street": "Gabriela Narutowicza",
                "addr:housenumber": "20",
                "addr:city": "Żychlin",
                "addr:postcode": "99-320",
                "amenity": "pharmacy"
            },
            "geometry": {
                "type": "Point",
                "coordinates": [
                    19.62593209912584,
                    52.242824214828815
                ]
            }
        },
        {
            "type": "Feature",
            "properties": {
                "ref:csioz": 1211471,
                "name": "Apteka Gemini",
                "addr:street": "Grunwaldzka",
                "addr:housenumber": "3",
                "addr:city": "Kutno",
                "addr:postcode": "99-300",
                "amenity": "pharmacy"
            },
            "geometry": {
                "type": "Point",
                "coordinates": [
                    19.37194931086309,
                    52.22901015618511
                ]
            }
        },
        {
            "type": "Feature",
            "properties": {
                "ref:csioz": 1216589,
                "name": "\"Szpital Prywatny 'Dermex'\"",
                "addr:street": "Henryka Sienkiewicza",
                "addr:housenumber": "16",
                "addr:city": "Kutno",
                "addr:postcode": "99-300",
                "amenity": "pharmacy"
            },
            "geometry": {
                "type": "Point",
                "coordinates": [
                    19.35524814964027,
                    52.231317625520525
                ]
            }
        },
        {
            "type": "Feature",
            "properties": {
                "ref:csioz": 1221719,
                "name": "Apteka Społeczna Na Jana Pawła Ii Grupa Nowa Farmacja",
                "addr:street": "Papieża Jana Pawła II",
                "addr:housenumber": "3",
                "addr:flats": "4",
                "addr:city": "Kutno",
                "addr:postcode": "99-300",
                "amenity": "pharmacy"
            },
            "geometry": {
                "type": "Point",
                "coordinates": [
                    19.364164326855487,
                    52.2300258241768
                ]
            }
        }
    ]
}