{
    "type": "FeatureCollection",
    "name": "JPT_KOD_JE_0215",
    "crs": {
        "type": "name",
        "properties": {
            "name": "urn:ogc:def:crs:EPSG::4326"
        }
    },
    "features": [
        {
            "type": "Feature",
            "properties": {
                "ref:csioz": 1127329,
                "name": "Szczęśliwa",
                "addr:street": "Tadeusza Kościuszki",
                "addr:housenumber": "86A",
                "addr:city": "Minkowice Oławskie",
                "addr:postcode": "55-206",
                "amenity": "pharmacy"
            },
            "geometry": {
                "type": "Point",
                "coordinates": [
                    17.46353040493491,
                    51.018838467824175
                ]
            }
        },
        {
            "type": "Feature",
            "properties": {
                "ref:csioz": 1127057,
                "name": "Apteka Wrocławska",
                "addr:street": "Piastowska",
                "addr:housenumber": "22",
                "addr:city": "Marcinkowice",
                "addr:postcode": "55-200",
                "amenity": "pharmacy"
            },
            "geometry": {
                "type": "Point",
                "coordinates": [
                    17.226653377705986,
                    50.98613847217498
                ]
            }
        },
        {
            "type": "Feature",
            "properties": {
                "ref:csioz": 1127671,
                "name": "Anna",
                "addr:street": "Stefana Żeromskiego",
                "addr:housenumber": "1c",
                "addr:city": "Oława",
                "addr:postcode": "55-200",
                "amenity": "pharmacy"
            },
            "geometry": {
                "type": "Point",
                "coordinates": [
                    17.294645064899484,
                    50.946302627715006
                ]
            }
        },
        {
            "type": "Feature",
            "properties": {
                "ref:csioz": 1129821,
                "name": "Osiedlowa",
                "addr:street": "Chopina",
                "addr:housenumber": "19b",
                "addr:city": "Oława",
                "addr:postcode": "55-200",
                "amenity": "pharmacy"
            },
            "geometry": {
                "type": "Point",
                "coordinates": [
                    17.27738158555568,
                    50.94420842247935
                ]
            }
        },
        {
            "type": "Feature",
            "properties": {
                "ref:csioz": 1130345,
                "name": "Z Uśmiechem",
                "addr:street": "K.K. Baczyńskiego",
                "addr:housenumber": "1",
                "addr:city": "Oława",
                "addr:postcode": "55-200",
                "amenity": "pharmacy"
            },
            "geometry": {
                "type": "Point",
                "coordinates": [
                    17.287005761805183,
                    50.95246320914004
                ]
            }
        },
        {
            "type": "Feature",
            "properties": {
                "ref:csioz": 1130674,
                "name": "Apteka Centrum",
                "addr:street": "Józefa Bożka",
                "addr:housenumber": "15",
                "addr:city": "Jelcz - Laskowice",
                "addr:postcode": "55-231",
                "amenity": "pharmacy"
            },
            "geometry": {
                "type": "Point",
                "coordinates": [
                    17.336363999998554,
                    51.032849000013975
                ]
            }
        },
        {
            "type": "Feature",
            "properties": {
                "ref:csioz": 1135515,
                "addr:street": "Brzeska",
                "addr:housenumber": "29-31",
                "addr:city": "Oława",
                "addr:postcode": "55-200",
                "amenity": "pharmacy"
            },
            "geometry": {
                "type": "Point",
                "coordinates": [
                    17.296220103721478,
                    50.94111736401601
                ]
            }
        },
        {
            "type": "Feature",
            "properties": {
                "ref:csioz": 1160951,
                "name": "Zespół Opieki Zdrowotnej W Oławie - Szpital Powiatowy - 01",
                "addr:street": "K. Baczyńskiego",
                "addr:housenumber": "1",
                "addr:city": "Oława",
                "addr:postcode": "55-200",
                "amenity": "pharmacy"
            },
            "geometry": {
                "type": "Point",
                "coordinates": [
                    17.300068011096286,
                    50.924272279894026
                ]
            }
        },
        {
            "type": "Feature",
            "properties": {
                "ref:csioz": 1170672,
                "name": "Ośrodek Mikrochirurgii Oka",
                "addr:street": "Krzysztofa Kamila Baczyńskiego",
                "addr:housenumber": "1",
                "addr:city": "Oława",
                "addr:postcode": "55-200",
                "amenity": "pharmacy"
            },
            "geometry": {
                "type": "Point",
                "coordinates": [
                    17.287005761805183,
                    50.95246320914004
                ]
            }
        },
        {
            "type": "Feature",
            "properties": {
                "ref:csioz": 1172883,
                "name": "Non Stop - 3 Maja",
                "addr:street": "3 Maja",
                "addr:housenumber": "8u",
                "addr:flats": "4",
                "addr:city": "Oława",
                "addr:postcode": "55-200",
                "amenity": "pharmacy"
            },
            "geometry": {
                "type": "Point",
                "coordinates": [
                    17.299951252171027,
                    50.94104232137465
                ]
            }
        },
        {
            "type": "Feature",
            "properties": {
                "ref:csioz": 1188557,
                "name": "Wratislavia Vi",
                "addr:street": "Aleja Wolności",
                "addr:housenumber": "1D",
                "addr:flats": "2",
                "addr:city": "Jelcz-Laskowice",
                "addr:postcode": "55-220",
                "amenity": "pharmacy"
            },
            "geometry": {
                "type": "Point",
                "coordinates": [
                    17.342939859832835,
                    51.03476971566775
                ]
            }
        },
        {
            "type": "Feature",
            "properties": {
                "ref:csioz": 1194551,
                "name": "Nova Plus Pharmaland",
                "addr:street": "Józefa Bożka",
                "addr:housenumber": "11a",
                "addr:city": "Jelcz-Laskowice",
                "addr:postcode": "55-220",
                "amenity": "pharmacy"
            },
            "geometry": {
                "type": "Point",
                "coordinates": [
                    17.337948443836904,
                    51.03425207971958
                ]
            }
        },
        {
            "type": "Feature",
            "properties": {
                "ref:csioz": 1203794,
                "name": "Non-Stop 2",
                "addr:street": "Józefa Bożka",
                "addr:housenumber": "9",
                "addr:city": "Jelcz-Laskowice",
                "addr:postcode": "55-220",
                "amenity": "pharmacy"
            },
            "geometry": {
                "type": "Point",
                "coordinates": [
                    17.33844007551591,
                    51.03471701576258
                ]
            }
        },
        {
            "type": "Feature",
            "properties": {
                "ref:csioz": 1126584,
                "name": "Pod Białym Orłem",
                "addr:street": "Józefa Bożka",
                "addr:housenumber": "11",
                "addr:city": "Jelcz-Laskowice",
                "addr:postcode": "55-230",
                "amenity": "pharmacy"
            },
            "geometry": {
                "type": "Point",
                "coordinates": [
                    17.337603257560406,
                    51.03393090499217
                ]
            }
        },
        {
            "type": "Feature",
            "properties": {
                "ref:csioz": 1128832,
                "name": "Apteka Laskowicka",
                "addr:street": "Kasztanowa",
                "addr:housenumber": "1",
                "addr:city": "Jelcz-Laskowice",
                "addr:postcode": "55-220",
                "amenity": "pharmacy"
            },
            "geometry": {
                "type": "Point",
                "coordinates": [
                    17.34906135336389,
                    51.03896658745209
                ]
            }
        },
        {
            "type": "Feature",
            "properties": {
                "ref:csioz": 1127191,
                "name": "Panaceum",
                "addr:street": "Bolesława Chrobrego",
                "addr:housenumber": "23B",
                "addr:city": "Oława",
                "addr:postcode": "55-200",
                "amenity": "pharmacy"
            },
            "geometry": {
                "type": "Point",
                "coordinates": [
                    17.301842456863596,
                    50.9436178469291
                ]
            }
        },
        {
            "type": "Feature",
            "properties": {
                "ref:csioz": 1129274,
                "name": "Dobre Ziółko",
                "addr:street": "1 Maja",
                "addr:housenumber": "26A",
                "addr:city": "Oława",
                "addr:postcode": "55-200",
                "amenity": "pharmacy"
            },
            "geometry": {
                "type": "Point",
                "coordinates": [
                    17.29949675823074,
                    50.938357105860966
                ]
            }
        },
        {
            "type": "Feature",
            "properties": {
                "ref:csioz": 1170752,
                "name": "Non Stop",
                "addr:street": "Sportowa",
                "addr:housenumber": "4",
                "addr:flats": "/1",
                "addr:city": "Oława",
                "addr:postcode": "55-200",
                "amenity": "pharmacy"
            },
            "geometry": {
                "type": "Point",
                "coordinates": [
                    17.300175999998423,
                    50.945159000013874
                ]
            }
        },
        {
            "type": "Feature",
            "properties": {
                "ref:csioz": 1199604,
                "name": "Dr. Max",
                "addr:street": "Jarosława Iwaszkiewicza",
                "addr:housenumber": "4",
                "addr:city": "Oława",
                "addr:postcode": "55-200",
                "amenity": "pharmacy"
            },
            "geometry": {
                "type": "Point",
                "coordinates": [
                    17.283209346194713,
                    50.94468339507169
                ]
            }
        },
        {
            "type": "Feature",
            "properties": {
                "ref:csioz": 1205140,
                "name": "Osiedlowa Ii",
                "addr:street": "ks. Franciszka Kutrowskiego",
                "addr:housenumber": "50",
                "addr:flats": "lokal 3B",
                "addr:city": "Oława",
                "addr:postcode": "55-200",
                "amenity": "pharmacy"
            },
            "geometry": {
                "type": "Point",
                "coordinates": [
                    17.27741469336903,
                    50.95082216623826
                ]
            }
        },
        {
            "type": "Feature",
            "properties": {
                "ref:csioz": 1221694,
                "name": "Non Stop Bis",
                "addr:street": "Zamkowy",
                "addr:housenumber": "5",
                "addr:city": "Oława",
                "addr:postcode": "55-200",
                "amenity": "pharmacy"
            },
            "geometry": {
                "type": "Point",
                "coordinates": [
                    17.295584296810297,
                    50.94388499461246
                ]
            }
        },
        {
            "type": "Feature",
            "properties": {
                "ref:csioz": 1226414,
                "name": "Apteka Liliowa",
                "addr:street": "Liliowa",
                "addr:housenumber": "5A",
                "addr:city": "Jelcz-Laskowice",
                "addr:postcode": "55-220",
                "amenity": "pharmacy"
            },
            "geometry": {
                "type": "Point",
                "coordinates": [
                    17.333920090354532,
                    51.035237800617985
                ]
            }
        },
        {
            "type": "Feature",
            "properties": {
                "ref:csioz": 1127364,
                "name": "\"Apteka \"\"Malwa\"\"\"",
                "addr:street": "Tadeusza Kościuszki",
                "addr:housenumber": "61",
                "addr:city": "Bystrzyca",
                "addr:postcode": "55-200",
                "amenity": "pharmacy"
            },
            "geometry": {
                "type": "Point",
                "coordinates": [
                    17.395256697056706,
                    50.961164184431624
                ]
            }
        },
        {
            "type": "Feature",
            "properties": {
                "ref:csioz": 1127558,
                "name": "Non Stop - Chrobrego",
                "addr:street": "Bolesława Chrobrego",
                "addr:housenumber": "56e",
                "addr:city": "Oława",
                "addr:postcode": "55-200",
                "amenity": "pharmacy"
            },
            "geometry": {
                "type": "Point",
                "coordinates": [
                    17.304490957647005,
                    50.945631088526845
                ]
            }
        }
    ]
}