{
    "type": "FeatureCollection",
    "name": "JPT_KOD_JE_3019",
    "crs": {
        "type": "name",
        "properties": {
            "name": "urn:ogc:def:crs:EPSG::4326"
        }
    },
    "features": [
        {
            "type": "Feature",
            "properties": {
                "ref:csioz": 1042626,
                "name": "Panaceum",
                "addr:street": "BOHATERÓW",
                "addr:housenumber": "1A",
                "addr:city": "OSIEK NAD NOTECIĄ",
                "addr:postcode": "89-333",
                "amenity": "pharmacy"
            },
            "geometry": {
                "type": "Point",
                "coordinates": [
                    17.28836901921661,
                    53.11829334901806
                ]
            }
        },
        {
            "type": "Feature",
            "properties": {
                "ref:csioz": 1042639,
                "name": "\"Apteka 'Św. Łukasza'\"",
                "addr:street": "Piękna",
                "addr:housenumber": "18",
                "addr:city": "Osiek nad Notecią",
                "addr:postcode": "89-333",
                "amenity": "pharmacy"
            },
            "geometry": {
                "type": "Point",
                "coordinates": [
                    17.290047276257482,
                    53.119577168114034
                ]
            }
        },
        {
            "type": "Feature",
            "properties": {
                "ref:csioz": 1043394,
                "name": "Doz Apteka. Dbam O Zdrowie.Vitrum",
                "addr:street": "Przy Stawie",
                "addr:housenumber": "13",
                "addr:city": "Wyrzysk",
                "addr:postcode": "89-300",
                "amenity": "pharmacy"
            },
            "geometry": {
                "type": "Point",
                "coordinates": [
                    17.263745999998378,
                    53.15503500001733
                ]
            }
        },
        {
            "type": "Feature",
            "properties": {
                "ref:csioz": 1043607,
                "name": "Pod Koroną",
                "addr:street": "Sportowa",
                "addr:housenumber": "16",
                "addr:city": "Łobżenica",
                "addr:postcode": "89-310",
                "amenity": "pharmacy"
            },
            "geometry": {
                "type": "Point",
                "coordinates": [
                    17.257213920492728,
                    53.258290572535515
                ]
            }
        },
        {
            "type": "Feature",
            "properties": {
                "ref:csioz": 1026882,
                "name": "Hipokrates",
                "addr:street": "WOJSKA POLSKIEGO",
                "addr:housenumber": "14",
                "addr:city": "WYRZYSK",
                "addr:postcode": "89-300",
                "amenity": "pharmacy"
            },
            "geometry": {
                "type": "Point",
                "coordinates": [
                    17.268635307878384,
                    53.153137436808194
                ]
            }
        },
        {
            "type": "Feature",
            "properties": {
                "ref:csioz": 1042937,
                "name": "Sokal",
                "addr:street": "WOJSKA POLSKIEGO",
                "addr:housenumber": "21",
                "addr:city": "WYRZYSK",
                "addr:postcode": "89-300",
                "amenity": "pharmacy"
            },
            "geometry": {
                "type": "Point",
                "coordinates": [
                    17.26861055297762,
                    53.15259081940164
                ]
            }
        },
        {
            "type": "Feature",
            "properties": {
                "ref:csioz": 1043136,
                "name": "Apteka Nowa",
                "addr:street": "Złotowska",
                "addr:housenumber": "11",
                "addr:city": "Łobżenica",
                "addr:postcode": "89-310",
                "amenity": "pharmacy"
            },
            "geometry": {
                "type": "Point",
                "coordinates": [
                    17.25557735504231,
                    53.26177306233366
                ]
            }
        },
        {
            "type": "Feature",
            "properties": {
                "ref:csioz": 1044606,
                "addr:street": "22 STYCZNIA",
                "addr:housenumber": "41",
                "addr:city": "WYRZYSK",
                "addr:postcode": "89-300",
                "amenity": "pharmacy"
            },
            "geometry": {
                "type": "Point",
                "coordinates": [
                    17.27199885687962,
                    53.149034918835746
                ]
            }
        },
        {
            "type": "Feature",
            "properties": {
                "ref:csioz": 1172441,
                "name": "Parkowa",
                "addr:street": "Parkowa",
                "addr:housenumber": "1",
                "addr:city": "Wyrzysk",
                "addr:postcode": "89-300",
                "amenity": "pharmacy"
            },
            "geometry": {
                "type": "Point",
                "coordinates": [
                    17.265622020892977,
                    53.15259464401602
                ]
            }
        },
        {
            "type": "Feature",
            "properties": {
                "ref:csioz": 1216553,
                "name": "Apteka W Biedronce",
                "addr:street": "Sikorskiego",
                "addr:housenumber": "9",
                "addr:city": "Łobżenica",
                "addr:postcode": "89-310",
                "amenity": "pharmacy"
            },
            "geometry": {
                "type": "Point",
                "coordinates": [
                    17.25840509922437,
                    53.26103392340603
                ]
            }
        },
        {
            "type": "Feature",
            "properties": {
                "ref:csioz": 1042652,
                "name": "Sokal",
                "addr:street": "Łączna",
                "addr:housenumber": "47",
                "addr:city": "Piła",
                "addr:postcode": "64-920",
                "amenity": "pharmacy"
            },
            "geometry": {
                "type": "Point",
                "coordinates": [
                    16.75266089414187,
                    53.162855367225134
                ]
            }
        },
        {
            "type": "Feature",
            "properties": {
                "ref:csioz": 1043383,
                "addr:street": "Powstańców Wielkopolskich",
                "addr:housenumber": "15",
                "addr:city": "Wysoka",
                "addr:postcode": "89-320",
                "amenity": "pharmacy"
            },
            "geometry": {
                "type": "Point",
                "coordinates": [
                    17.07944537529145,
                    53.18155529993339
                ]
            }
        },
        {
            "type": "Feature",
            "properties": {
                "ref:csioz": 1123983,
                "name": "Centrum Zdrowia",
                "addr:street": "Piastów",
                "addr:housenumber": "16B",
                "addr:city": "Piła",
                "addr:postcode": "64-920",
                "amenity": "pharmacy"
            },
            "geometry": {
                "type": "Point",
                "coordinates": [
                    16.73740499999559,
                    53.14944900001734
                ]
            }
        },
        {
            "type": "Feature",
            "properties": {
                "ref:csioz": 1179607,
                "name": "Aurum",
                "addr:street": "Średnia",
                "addr:housenumber": "1",
                "addr:city": "Piła",
                "addr:postcode": "64-920",
                "amenity": "pharmacy"
            },
            "geometry": {
                "type": "Point",
                "coordinates": [
                    16.748175514971365,
                    53.17114481475135
                ]
            }
        },
        {
            "type": "Feature",
            "properties": {
                "ref:csioz": 1186579,
                "name": "Stara Łubianka",
                "addr:street": "Kościuszkowców",
                "addr:housenumber": "25",
                "addr:city": "Stara Łubianka",
                "addr:postcode": "64-930",
                "amenity": "pharmacy"
            },
            "geometry": {
                "type": "Point",
                "coordinates": [
                    16.684413773506353,
                    53.229718014940836
                ]
            }
        },
        {
            "type": "Feature",
            "properties": {
                "ref:csioz": 1206994,
                "name": "Pod Lipami",
                "addr:street": "Podgórna",
                "addr:housenumber": "54A",
                "addr:city": "Białośliwie",
                "addr:postcode": "89-340",
                "amenity": "pharmacy"
            },
            "geometry": {
                "type": "Point",
                "coordinates": [
                    17.122817275612253,
                    53.100067134614925
                ]
            }
        },
        {
            "type": "Feature",
            "properties": {
                "ref:csioz": 1215098,
                "name": "Apteka Społeczna Na 1 Maja Grupa Nowa Farmacja",
                "addr:street": "ul. 1 Maja",
                "addr:housenumber": "5",
                "addr:city": "Piła",
                "addr:postcode": "64-920",
                "amenity": "pharmacy"
            },
            "geometry": {
                "type": "Point",
                "coordinates": [
                    16.735963333800647,
                    53.1474459357597
                ]
            }
        },
        {
            "type": "Feature",
            "properties": {
                "ref:csioz": 1215104,
                "name": "Apteka Lipowa",
                "addr:street": "ul. Strzelecka",
                "addr:housenumber": "1A",
                "addr:city": "Wysoka",
                "addr:postcode": "89-320",
                "amenity": "pharmacy"
            },
            "geometry": {
                "type": "Point",
                "coordinates": [
                    17.078217751255757,
                    53.181544454982046
                ]
            }
        },
        {
            "type": "Feature",
            "properties": {
                "ref:csioz": 1219236,
                "name": "Apteka Z Misiem",
                "addr:street": "Plac Wiosny Ludów",
                "addr:housenumber": "5",
                "addr:city": "Ujście",
                "addr:postcode": "64-850",
                "amenity": "pharmacy"
            },
            "geometry": {
                "type": "Point",
                "coordinates": [
                    16.7328228249548,
                    53.052640717018484
                ]
            }
        },
        {
            "type": "Feature",
            "properties": {
                "ref:csioz": 1026863,
                "name": "Sokal",
                "addr:street": "Ludowa",
                "addr:housenumber": "11",
                "addr:flats": "A-B",
                "addr:city": "Piła",
                "addr:postcode": "64-920",
                "amenity": "pharmacy"
            },
            "geometry": {
                "type": "Point",
                "coordinates": [
                    16.750488168253668,
                    53.15061036824069
                ]
            }
        },
        {
            "type": "Feature",
            "properties": {
                "ref:csioz": 1042724,
                "name": "Dr. Max",
                "addr:street": "BYDGOSKA",
                "addr:housenumber": "33B",
                "addr:city": "PIŁA",
                "addr:postcode": "64-920",
                "amenity": "pharmacy"
            },
            "geometry": {
                "type": "Point",
                "coordinates": [
                    16.75008101107673,
                    53.15308114420714
                ]
            }
        },
        {
            "type": "Feature",
            "properties": {
                "ref:csioz": 1042743,
                "name": "Apteka Dbam O Zdrowie",
                "addr:street": "Wyspiańskiego",
                "addr:housenumber": "33-35",
                "addr:city": "Piła",
                "addr:postcode": "64-920",
                "amenity": "pharmacy"
            },
            "geometry": {
                "type": "Point",
                "coordinates": [
                    16.716792390430683,
                    53.14687736621981
                ]
            }
        },
        {
            "type": "Feature",
            "properties": {
                "ref:csioz": 1042762,
                "name": "Eliksir",
                "addr:street": "KONSTYTUCJI 3 MAJA",
                "addr:housenumber": "6",
                "addr:city": "PIŁA",
                "addr:postcode": "64-920",
                "amenity": "pharmacy"
            },
            "geometry": {
                "type": "Point",
                "coordinates": [
                    16.737597855521084,
                    53.14741233411885
                ]
            }
        },
        {
            "type": "Feature",
            "properties": {
                "ref:csioz": 1042844,
                "name": "Apteka Dbam O Zdrowie",
                "addr:street": "Powstańców Wielkopolskich",
                "addr:housenumber": "99",
                "addr:city": "Piła",
                "addr:postcode": "64-920",
                "amenity": "pharmacy"
            },
            "geometry": {
                "type": "Point",
                "coordinates": [
                    16.753934607337772,
                    53.15945289715216
                ]
            }
        },
        {
            "type": "Feature",
            "properties": {
                "ref:csioz": 1042853,
                "name": "Apteka Dbam O Zdrowie",
                "addr:street": "Bydgoska",
                "addr:housenumber": "135",
                "addr:city": "Piła",
                "addr:postcode": "64-920",
                "amenity": "pharmacy"
            },
            "geometry": {
                "type": "Point",
                "coordinates": [
                    16.7698026655176,
                    53.15047835085433
                ]
            }
        },
        {
            "type": "Feature",
            "properties": {
                "ref:csioz": 1042866,
                "name": "Sokal",
                "addr:street": "Ludwika Rydygiera",
                "addr:housenumber": "1",
                "addr:city": "PIŁA",
                "addr:postcode": "64-920",
                "amenity": "pharmacy"
            },
            "geometry": {
                "type": "Point",
                "coordinates": [
                    16.716515195834468,
                    53.12117346052248
                ]
            }
        },
        {
            "type": "Feature",
            "properties": {
                "ref:csioz": 1042900,
                "name": "Sokal",
                "addr:street": "MICKIEWICZA",
                "addr:housenumber": "105",
                "addr:city": "PIŁA",
                "addr:postcode": "64-920",
                "amenity": "pharmacy"
            },
            "geometry": {
                "type": "Point",
                "coordinates": [
                    16.711134035094823,
                    53.14919192611863
                ]
            }
        },
        {
            "type": "Feature",
            "properties": {
                "ref:csioz": 1042968,
                "name": "Dbam O Zdrowie",
                "addr:street": "Kilińskiego",
                "addr:housenumber": "2",
                "addr:city": "Piła",
                "addr:postcode": "64-920",
                "amenity": "pharmacy"
            },
            "geometry": {
                "type": "Point",
                "coordinates": [
                    16.73328208704668,
                    53.1501663570992
                ]
            }
        },
        {
            "type": "Feature",
            "properties": {
                "ref:csioz": 1043033,
                "name": "Apteka Kubuś",
                "addr:street": "Kraszewskiego",
                "addr:housenumber": "12",
                "addr:city": "Piła",
                "addr:postcode": "64-920",
                "amenity": "pharmacy"
            },
            "geometry": {
                "type": "Point",
                "coordinates": [
                    16.716915648925696,
                    53.15364511207563
                ]
            }
        },
        {
            "type": "Feature",
            "properties": {
                "ref:csioz": 1043065,
                "name": "Doz Apteka Dbam O Zdrowie",
                "addr:street": "Kujawska",
                "addr:housenumber": "1D",
                "addr:city": "Piła",
                "addr:postcode": "64-920",
                "amenity": "pharmacy"
            },
            "geometry": {
                "type": "Point",
                "coordinates": [
                    16.734284549939076,
                    53.15299279413455
                ]
            }
        },
        {
            "type": "Feature",
            "properties": {
                "ref:csioz": 1043079,
                "name": "Panaceum",
                "addr:street": "OJCA MAKSYMILIANA KOLBE",
                "addr:housenumber": "13A",
                "addr:city": "PIŁA",
                "addr:postcode": "64-920",
                "amenity": "pharmacy"
            },
            "geometry": {
                "type": "Point",
                "coordinates": [
                    16.73489129982931,
                    53.15432708828467
                ]
            }
        },
        {
            "type": "Feature",
            "properties": {
                "ref:csioz": 1043112,
                "name": "Dbam O Zdrowie",
                "addr:street": "Poznańska",
                "addr:housenumber": "28",
                "addr:city": "Piła",
                "addr:postcode": "64-920",
                "amenity": "pharmacy"
            },
            "geometry": {
                "type": "Point",
                "coordinates": [
                    16.753094277067497,
                    53.136262159332325
                ]
            }
        },
        {
            "type": "Feature",
            "properties": {
                "ref:csioz": 1043157,
                "name": "Dr. Max",
                "addr:street": "Powstańców Wielkopolskich",
                "addr:housenumber": "102",
                "addr:city": "Piła",
                "addr:postcode": "64-920",
                "amenity": "pharmacy"
            },
            "geometry": {
                "type": "Point",
                "coordinates": [
                    16.75276886475797,
                    53.15978134093679
                ]
            }
        },
        {
            "type": "Feature",
            "properties": {
                "ref:csioz": 1043161,
                "name": "Paprotka",
                "addr:street": "Czarnkowska",
                "addr:housenumber": "7",
                "addr:city": "Ujście",
                "addr:postcode": "64-850",
                "amenity": "pharmacy"
            },
            "geometry": {
                "type": "Point",
                "coordinates": [
                    16.73120107974731,
                    53.053155225582756
                ]
            }
        },
        {
            "type": "Feature",
            "properties": {
                "ref:csioz": 1043237,
                "name": "Miralex",
                "addr:street": "Powstańców Wielkopolskich",
                "addr:housenumber": "162",
                "addr:city": "Piła",
                "addr:postcode": "64-920",
                "amenity": "pharmacy"
            },
            "geometry": {
                "type": "Point",
                "coordinates": [
                    16.756952612101166,
                    53.16252676621022
                ]
            }
        },
        {
            "type": "Feature",
            "properties": {
                "ref:csioz": 1043284,
                "name": "Melisa",
                "addr:street": "Rynkowa",
                "addr:housenumber": "22",
                "addr:city": "Piła",
                "addr:postcode": "64-920",
                "amenity": "pharmacy"
            },
            "geometry": {
                "type": "Point",
                "coordinates": [
                    16.735930337907078,
                    53.146815877437554
                ]
            }
        },
        {
            "type": "Feature",
            "properties": {
                "ref:csioz": 1043438,
                "addr:street": "Plac Wiosny Ludów",
                "addr:housenumber": "6",
                "addr:city": "Ujście",
                "addr:postcode": "64-850",
                "amenity": "pharmacy"
            },
            "geometry": {
                "type": "Point",
                "coordinates": [
                    16.73347040581605,
                    53.05277251312362
                ]
            }
        },
        {
            "type": "Feature",
            "properties": {
                "ref:csioz": 1043467,
                "name": "Św. Łukasza",
                "addr:street": "Księdza Kordeckiego",
                "addr:housenumber": "3",
                "addr:city": "Białośliwie",
                "addr:postcode": "89-340",
                "amenity": "pharmacy"
            },
            "geometry": {
                "type": "Point",
                "coordinates": [
                    17.12080621131374,
                    53.09977279445063
                ]
            }
        },
        {
            "type": "Feature",
            "properties": {
                "ref:csioz": 1043495,
                "name": "Sokal",
                "addr:street": "Wojska Polskiego",
                "addr:housenumber": "20",
                "addr:city": "Piła",
                "addr:postcode": "64-920",
                "amenity": "pharmacy"
            },
            "geometry": {
                "type": "Point",
                "coordinates": [
                    16.73283029034018,
                    53.151196581565046
                ]
            }
        },
        {
            "type": "Feature",
            "properties": {
                "ref:csioz": 1043508,
                "name": "Dr.Max",
                "addr:street": "Żeromskiego",
                "addr:housenumber": "7",
                "addr:city": "Piła",
                "addr:postcode": "64-920",
                "amenity": "pharmacy"
            },
            "geometry": {
                "type": "Point",
                "coordinates": [
                    16.721221359005728,
                    53.14851276934009
                ]
            }
        },
        {
            "type": "Feature",
            "properties": {
                "ref:csioz": 1043519,
                "addr:street": "Wojska Polskiego",
                "addr:housenumber": "43",
                "addr:city": "Piła",
                "addr:postcode": "64-920",
                "amenity": "pharmacy"
            },
            "geometry": {
                "type": "Point",
                "coordinates": [
                    16.716975745085595,
                    53.15206787061108
                ]
            }
        },
        {
            "type": "Feature",
            "properties": {
                "ref:csioz": 1043524,
                "name": "Eskulap",
                "addr:street": "Elizy Orzeszkowej",
                "addr:housenumber": "18A",
                "addr:city": "Piła",
                "addr:postcode": "64-920",
                "amenity": "pharmacy"
            },
            "geometry": {
                "type": "Point",
                "coordinates": [
                    16.715920046114753,
                    53.14816569587517
                ]
            }
        },
        {
            "type": "Feature",
            "properties": {
                "ref:csioz": 1043535,
                "addr:street": "Zwycięstwa",
                "addr:housenumber": "17",
                "addr:city": "Piła",
                "addr:postcode": "64-920",
                "amenity": "pharmacy"
            },
            "geometry": {
                "type": "Point",
                "coordinates": [
                    16.73601838488354,
                    53.15005784027936
                ]
            }
        },
        {
            "type": "Feature",
            "properties": {
                "ref:csioz": 1043556,
                "addr:street": "Szkolna",
                "addr:housenumber": "2",
                "addr:city": "Kruszewo",
                "addr:postcode": "64-706",
                "amenity": "pharmacy"
            },
            "geometry": {
                "type": "Point",
                "coordinates": [
                    16.661047669119533,
                    52.97148892645616
                ]
            }
        },
        {
            "type": "Feature",
            "properties": {
                "ref:csioz": 1043562,
                "name": "Doz Apteka. Dbam O Zdrowie",
                "addr:street": "Pilska",
                "addr:housenumber": "2",
                "addr:city": "KACZORY",
                "addr:postcode": "64-810",
                "amenity": "pharmacy"
            },
            "geometry": {
                "type": "Point",
                "coordinates": [
                    16.878537695260217,
                    53.10415956474192
                ]
            }
        },
        {
            "type": "Feature",
            "properties": {
                "ref:csioz": 1044611,
                "addr:street": "LUDWIKA RYDYGIERA",
                "addr:housenumber": "1",
                "addr:city": "PIŁA",
                "addr:postcode": "64-920",
                "amenity": "pharmacy"
            },
            "geometry": {
                "type": "Point",
                "coordinates": [
                    16.716515195834468,
                    53.12117346052248
                ]
            }
        },
        {
            "type": "Feature",
            "properties": {
                "ref:csioz": 1044679,
                "addr:street": "ALEJA WOJSKA POLSKIEGO",
                "addr:housenumber": "43",
                "addr:city": "PIŁA",
                "addr:postcode": "64-920",
                "amenity": "pharmacy"
            },
            "geometry": {
                "type": "Point",
                "coordinates": [
                    16.716974999995422,
                    53.15212900001735
                ]
            }
        },
        {
            "type": "Feature",
            "properties": {
                "ref:csioz": 1123971,
                "name": "Doz Apteka Dbam O Zdrowie.Centrum",
                "addr:street": "Powstańców Wielkopolskich",
                "addr:housenumber": "68",
                "addr:city": "Piła",
                "addr:postcode": "64-920",
                "amenity": "pharmacy"
            },
            "geometry": {
                "type": "Point",
                "coordinates": [
                    16.74946300302924,
                    53.15682839490061
                ]
            }
        },
        {
            "type": "Feature",
            "properties": {
                "ref:csioz": 1124840,
                "addr:street": "Kraszewskiego",
                "addr:housenumber": "4",
                "addr:city": "Piła",
                "addr:postcode": "64-920",
                "amenity": "pharmacy"
            },
            "geometry": {
                "type": "Point",
                "coordinates": [
                    16.71748031128409,
                    53.15365664262154
                ]
            }
        },
        {
            "type": "Feature",
            "properties": {
                "ref:csioz": 1179570,
                "name": "Sokal",
                "addr:street": "14 LUTEGO",
                "addr:housenumber": "26",
                "addr:flats": "028",
                "addr:city": "Piła",
                "addr:postcode": "64-920",
                "amenity": "pharmacy"
            },
            "geometry": {
                "type": "Point",
                "coordinates": [
                    16.757561762459524,
                    53.14794252899736
                ]
            }
        },
        {
            "type": "Feature",
            "properties": {
                "ref:csioz": 1191393,
                "addr:street": "Okrzei",
                "addr:housenumber": "14",
                "addr:city": "Piła",
                "addr:postcode": "64-920",
                "amenity": "pharmacy"
            },
            "geometry": {
                "type": "Point",
                "coordinates": [
                    16.728493048139494,
                    53.14867602938083
                ]
            }
        },
        {
            "type": "Feature",
            "properties": {
                "ref:csioz": 1191618,
                "name": "Punkt Apteczny W Jaraczewie",
                "addr:housenumber": "2A",
                "addr:city": "Jaraczewo",
                "addr:postcode": "64-920",
                "amenity": "pharmacy"
            },
            "geometry": {
                "type": "Point",
                "coordinates": [
                    16.598307803591364,
                    53.166962619184915
                ]
            }
        },
        {
            "type": "Feature",
            "properties": {
                "ref:csioz": 1208326,
                "name": "Apteka Z Misiem",
                "addr:street": "Rodła",
                "addr:housenumber": "10B",
                "addr:city": "Piła",
                "addr:postcode": "64-920",
                "amenity": "pharmacy"
            },
            "geometry": {
                "type": "Point",
                "coordinates": [
                    16.764320999995807,
                    53.157542000017344
                ]
            }
        },
        {
            "type": "Feature",
            "properties": {
                "ref:csioz": 1219476,
                "name": "Apteka Zdrowie Agnieszka Speier",
                "addr:street": "Kościuszki",
                "addr:housenumber": "56A",
                "addr:city": "Miasteczko Krajeńskie",
                "addr:postcode": "89-350",
                "amenity": "pharmacy"
            },
            "geometry": {
                "type": "Point",
                "coordinates": [
                    17.006576261788727,
                    53.096759602543585
                ]
            }
        },
        {
            "type": "Feature",
            "properties": {
                "ref:csioz": 1219715,
                "name": "Nowa",
                "addr:street": "Nowe Osiedle",
                "addr:housenumber": "8",
                "addr:city": "Kaczory",
                "addr:postcode": "64-810",
                "amenity": "pharmacy"
            },
            "geometry": {
                "type": "Point",
                "coordinates": [
                    16.87928374850058,
                    53.102462833424575
                ]
            }
        },
        {
            "type": "Feature",
            "properties": {
                "ref:csioz": 1223448,
                "name": "Dr. Max",
                "addr:street": "Ludowa",
                "addr:housenumber": "35",
                "addr:city": "Piła",
                "addr:postcode": "64-920",
                "amenity": "pharmacy"
            },
            "geometry": {
                "type": "Point",
                "coordinates": [
                    16.7547192704819,
                    53.15124656503004
                ]
            }
        },
        {
            "type": "Feature",
            "properties": {
                "ref:csioz": 1226446,
                "addr:street": "Lotnicza",
                "addr:housenumber": "3",
                "addr:city": "Piła",
                "addr:postcode": "64-920",
                "amenity": "pharmacy"
            },
            "geometry": {
                "type": "Point",
                "coordinates": [
                    16.716817132100118,
                    53.153955233493654
                ]
            }
        },
        {
            "type": "Feature",
            "properties": {
                "ref:csioz": 1230561,
                "addr:street": "Królewska",
                "addr:housenumber": "8",
                "addr:city": "Piła",
                "addr:postcode": "64-920",
                "amenity": "pharmacy"
            },
            "geometry": {
                "type": "Point",
                "coordinates": [
                    16.75454408441938,
                    53.18596643786527
                ]
            }
        }
    ]
}