{
    "type": "FeatureCollection",
    "name": "JPT_KOD_JE_3216",
    "crs": {
        "type": "name",
        "properties": {
            "name": "urn:ogc:def:crs:EPSG::4326"
        }
    },
    "features": [
        {
            "type": "Feature",
            "properties": {
                "ref:csioz": 1140399,
                "name": "Osiedlowa",
                "addr:street": "Wojska Polskiego",
                "addr:housenumber": "22c",
                "addr:flats": "2",
                "addr:city": "Świdwin",
                "addr:postcode": "78-300",
                "amenity": "pharmacy"
            },
            "geometry": {
                "type": "Point",
                "coordinates": [
                    15.778984960333883,
                    53.77219218336487
                ]
            }
        },
        {
            "type": "Feature",
            "properties": {
                "ref:csioz": 1140407,
                "name": "Panaceum",
                "addr:street": "Drawska",
                "addr:housenumber": "2",
                "addr:city": "Świdwin",
                "addr:postcode": "78-300",
                "amenity": "pharmacy"
            },
            "geometry": {
                "type": "Point",
                "coordinates": [
                    15.77624516540165,
                    53.77443942593829
                ]
            }
        },
        {
            "type": "Feature",
            "properties": {
                "ref:csioz": 1147603,
                "name": "Apteka Nr 1",
                "addr:street": "3 Marca",
                "addr:housenumber": "1a",
                "addr:city": "Świdwin",
                "addr:postcode": "78-300",
                "amenity": "pharmacy"
            },
            "geometry": {
                "type": "Point",
                "coordinates": [
                    15.773599109445446,
                    53.776726373316706
                ]
            }
        },
        {
            "type": "Feature",
            "properties": {
                "ref:csioz": 1147634,
                "name": "Apteka Dbam O Zdrowie",
                "addr:street": "1 Maja",
                "addr:housenumber": "23",
                "addr:city": "Świdwin",
                "addr:postcode": "78-300",
                "amenity": "pharmacy"
            },
            "geometry": {
                "type": "Point",
                "coordinates": [
                    15.772769333246297,
                    53.775560223013045
                ]
            }
        },
        {
            "type": "Feature",
            "properties": {
                "ref:csioz": 1147650,
                "name": "Nad Regą",
                "addr:street": "1 Maja",
                "addr:housenumber": "16",
                "addr:city": "Świdwin",
                "addr:postcode": "78-300",
                "amenity": "pharmacy"
            },
            "geometry": {
                "type": "Point",
                "coordinates": [
                    15.771002999980038,
                    53.774037000018645
                ]
            }
        },
        {
            "type": "Feature",
            "properties": {
                "ref:csioz": 1147914,
                "name": "Wojskowa",
                "addr:street": "Gagarina",
                "addr:housenumber": "71",
                "addr:city": "Świdwin",
                "addr:postcode": "78-301",
                "amenity": "pharmacy"
            },
            "geometry": {
                "type": "Point",
                "coordinates": [
                    15.827548999981598,
                    53.77917900001861
                ]
            }
        },
        {
            "type": "Feature",
            "properties": {
                "ref:csioz": 1147938,
                "name": "Melisa",
                "addr:housenumber": "47",
                "addr:city": "Brzeżno",
                "addr:postcode": "78-316",
                "amenity": "pharmacy"
            },
            "geometry": {
                "type": "Point",
                "coordinates": [
                    15.791234493850238,
                    53.69940467809267
                ]
            }
        },
        {
            "type": "Feature",
            "properties": {
                "ref:csioz": 1147995,
                "addr:street": "Kołobrzeska",
                "addr:housenumber": "3",
                "addr:city": "Sławoborze",
                "addr:postcode": "78-314",
                "amenity": "pharmacy"
            },
            "geometry": {
                "type": "Point",
                "coordinates": [
                    15.711273574250793,
                    53.892318086635115
                ]
            }
        },
        {
            "type": "Feature",
            "properties": {
                "ref:csioz": 1152561,
                "name": "Staromiejska",
                "addr:street": "3 Marca",
                "addr:housenumber": "53",
                "addr:city": "Świdwin",
                "addr:postcode": "78-300",
                "amenity": "pharmacy"
            },
            "geometry": {
                "type": "Point",
                "coordinates": [
                    15.773874797179516,
                    53.776380734451166
                ]
            }
        },
        {
            "type": "Feature",
            "properties": {
                "ref:csioz": 1152830,
                "name": "Centrum Zdrowia",
                "addr:street": "Kościuszki",
                "addr:housenumber": "23a",
                "addr:city": "Świdwin",
                "addr:postcode": "78-300",
                "amenity": "pharmacy"
            },
            "geometry": {
                "type": "Point",
                "coordinates": [
                    15.773213684521453,
                    53.77896004014983
                ]
            }
        },
        {
            "type": "Feature",
            "properties": {
                "ref:csioz": 1125141,
                "name": "Apteka Aptecom",
                "addr:street": "Drawska",
                "addr:housenumber": "7a",
                "addr:city": "Świdwin",
                "addr:postcode": "78-300",
                "amenity": "pharmacy"
            },
            "geometry": {
                "type": "Point",
                "coordinates": [
                    15.77640187982433,
                    53.77268701467932
                ]
            }
        },
        {
            "type": "Feature",
            "properties": {
                "ref:csioz": 1126412,
                "name": "Doz Apteka Dbam O Zdrowie. Centrum",
                "addr:street": "Plac 1000-lecia Państwa Polskiego",
                "addr:housenumber": "10",
                "addr:city": "Połczyn Zdrój",
                "addr:postcode": "78-320",
                "amenity": "pharmacy"
            },
            "geometry": {
                "type": "Point",
                "coordinates": [
                    16.097601999987702,
                    53.76678600001848
                ]
            }
        },
        {
            "type": "Feature",
            "properties": {
                "ref:csioz": 1138608,
                "name": "Doz Apteka Dbam O Zdrowie. W Przychodni",
                "addr:street": "Wojska Polskiego",
                "addr:housenumber": "13",
                "addr:city": "Połczyn Zdrój",
                "addr:postcode": "78-320",
                "amenity": "pharmacy"
            },
            "geometry": {
                "type": "Point",
                "coordinates": [
                    16.095730999987673,
                    53.76478500001847
                ]
            }
        },
        {
            "type": "Feature",
            "properties": {
                "ref:csioz": 1139772,
                "name": "Dr. Max",
                "addr:street": "Chrobrego",
                "addr:housenumber": "1",
                "addr:city": "Połczyn Zdrój",
                "addr:postcode": "78-320",
                "amenity": "pharmacy"
            },
            "geometry": {
                "type": "Point",
                "coordinates": [
                    16.09428899998764,
                    53.76651500001847
                ]
            }
        },
        {
            "type": "Feature",
            "properties": {
                "ref:csioz": 1151323,
                "addr:street": "Gwardii Ludowej",
                "addr:housenumber": "5",
                "addr:city": "Połczyn Zdrój",
                "addr:postcode": "78-320",
                "amenity": "pharmacy"
            },
            "geometry": {
                "type": "Point",
                "coordinates": [
                    16.089568999987545,
                    53.76283900001845
                ]
            }
        },
        {
            "type": "Feature",
            "properties": {
                "ref:csioz": 1151372,
                "addr:street": "Zdrojowa",
                "addr:housenumber": "6",
                "addr:city": "Połczyn Zdrój",
                "addr:postcode": "78-320",
                "amenity": "pharmacy"
            },
            "geometry": {
                "type": "Point",
                "coordinates": [
                    16.09316599998762,
                    53.76377800001847
                ]
            }
        },
        {
            "type": "Feature",
            "properties": {
                "ref:csioz": 1224162,
                "name": "Apteka Przy Placu Wolności",
                "addr:street": "Wolności",
                "addr:housenumber": "10",
                "addr:city": "Połczyn-Zdrój",
                "addr:postcode": "78-320",
                "amenity": "pharmacy"
            },
            "geometry": {
                "type": "Point",
                "coordinates": [
                    16.092612432640724,
                    53.76568765605045
                ]
            }
        }
    ]
}