{
    "type": "FeatureCollection",
    "name": "JPT_KOD_JE_0610",
    "crs": {
        "type": "name",
        "properties": {
            "name": "urn:ogc:def:crs:EPSG::4326"
        }
    },
    "features": [
        {
            "type": "Feature",
            "properties": {
                "ref:csioz": 1153626,
                "addr:street": "11-go Listopada",
                "addr:housenumber": "10",
                "addr:city": "Łęczna",
                "addr:postcode": "21-010",
                "amenity": "pharmacy"
            },
            "geometry": {
                "type": "Point",
                "coordinates": [
                    22.883129000068898,
                    51.30595700001548
                ]
            }
        },
        {
            "type": "Feature",
            "properties": {
                "ref:csioz": 1158269,
                "addr:street": "Partyzancka",
                "addr:housenumber": "20",
                "addr:city": "Milejów",
                "addr:postcode": "21-020",
                "amenity": "pharmacy"
            },
            "geometry": {
                "type": "Point",
                "coordinates": [
                    22.92839534738943,
                    51.22190921560213
                ]
            }
        },
        {
            "type": "Feature",
            "properties": {
                "ref:csioz": 1158337,
                "addr:street": "Polna",
                "addr:housenumber": "1",
                "addr:city": "Łęczna",
                "addr:postcode": "21-010",
                "amenity": "pharmacy"
            },
            "geometry": {
                "type": "Point",
                "coordinates": [
                    22.892933068874118,
                    51.29825563505103
                ]
            }
        },
        {
            "type": "Feature",
            "properties": {
                "ref:csioz": 1161782,
                "name": "Apteka Centrum Apteka Sda",
                "addr:street": "Targowa",
                "addr:housenumber": "\"15,17\"",
                "addr:city": "Łęczna",
                "addr:postcode": "21-010",
                "amenity": "pharmacy"
            },
            "geometry": {
                "type": "Point",
                "coordinates": [
                    22.8870510000562,
                    51.30081599968498
                ]
            }
        },
        {
            "type": "Feature",
            "properties": {
                "ref:csioz": 1161977,
                "addr:street": "Partyzantów",
                "addr:housenumber": "9",
                "addr:city": "Puchaczów",
                "addr:postcode": "21-013",
                "amenity": "pharmacy"
            },
            "geometry": {
                "type": "Point",
                "coordinates": [
                    22.97485843996806,
                    51.314148056432614
                ]
            }
        },
        {
            "type": "Feature",
            "properties": {
                "ref:csioz": 1162158,
                "addr:street": "Krasnystawska",
                "addr:housenumber": "52",
                "addr:city": "Łęczna",
                "addr:postcode": "21-010",
                "amenity": "pharmacy"
            },
            "geometry": {
                "type": "Point",
                "coordinates": [
                    22.877716333999018,
                    51.290617822290855
                ]
            }
        },
        {
            "type": "Feature",
            "properties": {
                "ref:csioz": 1162163,
                "addr:street": "Stefanii Pawlak",
                "addr:housenumber": "3",
                "addr:city": "Łęczna",
                "addr:postcode": "21-010",
                "amenity": "pharmacy"
            },
            "geometry": {
                "type": "Point",
                "coordinates": [
                    22.89131567931003,
                    51.30106588817153
                ]
            }
        },
        {
            "type": "Feature",
            "properties": {
                "ref:csioz": 1163668,
                "name": "Vita",
                "addr:street": "Staszica",
                "addr:housenumber": "19",
                "addr:city": "Łęczna",
                "addr:postcode": "21-010",
                "amenity": "pharmacy"
            },
            "geometry": {
                "type": "Point",
                "coordinates": [
                    22.891653520267234,
                    51.303156162418304
                ]
            }
        },
        {
            "type": "Feature",
            "properties": {
                "ref:csioz": 1156854,
                "name": "Helena",
                "addr:street": "Wólka Cycowska",
                "addr:housenumber": "96",
                "addr:city": "Cyców",
                "addr:postcode": "21-070",
                "amenity": "pharmacy"
            },
            "geometry": {
                "type": "Point",
                "coordinates": [
                    23.120838000093006,
                    51.30470100001608
                ]
            }
        },
        {
            "type": "Feature",
            "properties": {
                "ref:csioz": 1157527,
                "name": "Apteka Centrum Ii Apteka Sda",
                "addr:street": "Jana Pawła II",
                "addr:housenumber": "96",
                "addr:city": "Łęczna",
                "addr:postcode": "21-010",
                "amenity": "pharmacy"
            },
            "geometry": {
                "type": "Point",
                "coordinates": [
                    22.89126458279932,
                    51.29979184069356
                ]
            }
        },
        {
            "type": "Feature",
            "properties": {
                "ref:csioz": 1158857,
                "addr:street": "Jaśminowa",
                "addr:housenumber": "4",
                "addr:city": "Łęczna",
                "addr:postcode": "21-010",
                "amenity": "pharmacy"
            },
            "geometry": {
                "type": "Point",
                "coordinates": [
                    22.884095603590062,
                    51.291097861937054
                ]
            }
        },
        {
            "type": "Feature",
            "properties": {
                "ref:csioz": 1162356,
                "name": "Apteka Dla Zdrowia",
                "addr:street": "Partyzancka",
                "addr:housenumber": "24",
                "addr:city": "Łęczna",
                "addr:postcode": "21-010",
                "amenity": "pharmacy"
            },
            "geometry": {
                "type": "Point",
                "coordinates": [
                    22.882629479684176,
                    51.30654729753447
                ]
            }
        },
        {
            "type": "Feature",
            "properties": {
                "ref:csioz": 1162589,
                "name": "Apteka Zielona",
                "addr:street": "Obrońców Pokoju",
                "addr:housenumber": "11",
                "addr:city": "Łęczna",
                "addr:postcode": "21-010",
                "amenity": "pharmacy"
            },
            "geometry": {
                "type": "Point",
                "coordinates": [
                    22.89163632999919,
                    51.2955071919119
                ]
            }
        },
        {
            "type": "Feature",
            "properties": {
                "ref:csioz": 1162609,
                "name": "Apteka Wamex",
                "addr:street": "Jana Pawła II",
                "addr:housenumber": "99",
                "addr:city": "Łęczna",
                "addr:postcode": "21-010",
                "amenity": "pharmacy"
            },
            "geometry": {
                "type": "Point",
                "coordinates": [
                    22.887989558430334,
                    51.29880310621858
                ]
            }
        },
        {
            "type": "Feature",
            "properties": {
                "ref:csioz": 1163091,
                "addr:housenumber": "51A",
                "addr:city": "Ludwin",
                "addr:postcode": "21-075",
                "amenity": "pharmacy"
            },
            "geometry": {
                "type": "Point",
                "coordinates": [
                    22.906677631085348,
                    51.3455279384019
                ]
            }
        },
        {
            "type": "Feature",
            "properties": {
                "ref:csioz": 1184640,
                "addr:street": "Partyzancka",
                "addr:housenumber": "11",
                "addr:city": "Milejów-Osada",
                "addr:postcode": "21-020",
                "amenity": "pharmacy"
            },
            "geometry": {
                "type": "Point",
                "coordinates": [
                    22.92846489622995,
                    51.22420243204642
                ]
            }
        },
        {
            "type": "Feature",
            "properties": {
                "ref:csioz": 1187656,
                "name": "Top-Farm",
                "addr:street": "Chełmska",
                "addr:housenumber": "31",
                "addr:city": "Cyców",
                "addr:postcode": "21-070",
                "amenity": "pharmacy"
            },
            "geometry": {
                "type": "Point",
                "coordinates": [
                    23.134903187444035,
                    51.3034987172722
                ]
            }
        },
        {
            "type": "Feature",
            "properties": {
                "ref:csioz": 1189873,
                "name": "Apteka Szpitalna",
                "addr:street": "Krasnystawska",
                "addr:housenumber": "52",
                "addr:city": "Łęczna",
                "addr:postcode": "21-010",
                "amenity": "pharmacy"
            },
            "geometry": {
                "type": "Point",
                "coordinates": [
                    22.877716333999018,
                    51.290617822290855
                ]
            }
        },
        {
            "type": "Feature",
            "properties": {
                "ref:csioz": 1210412,
                "name": "Apteka Prima",
                "addr:street": "Wacława  Jawoszka",
                "addr:housenumber": "3",
                "addr:flats": "U1",
                "addr:city": "Łęczna",
                "addr:postcode": "21-010",
                "amenity": "pharmacy"
            },
            "geometry": {
                "type": "Point",
                "coordinates": [
                    22.888136578282698,
                    51.295582624947386
                ]
            }
        },
        {
            "type": "Feature",
            "properties": {
                "ref:csioz": 1212260,
                "name": "Luxfarm",
                "addr:street": "Partyzancka",
                "addr:housenumber": "11",
                "addr:city": "Milejów-Osada",
                "addr:postcode": "21-020",
                "amenity": "pharmacy"
            },
            "geometry": {
                "type": "Point",
                "coordinates": [
                    22.92846489622995,
                    51.22420243204642
                ]
            }
        },
        {
            "type": "Feature",
            "properties": {
                "ref:csioz": 1158119,
                "addr:housenumber": "1A",
                "addr:city": "Kijany",
                "addr:postcode": "21-077",
                "amenity": "pharmacy"
            },
            "geometry": {
                "type": "Point",
                "coordinates": [
                    22.762457175628985,
                    51.338310917977296
                ]
            }
        },
        {
            "type": "Feature",
            "properties": {
                "ref:csioz": 1229721,
                "name": "Dział Farmacji Szpitalnej",
                "addr:housenumber": "11A",
                "addr:city": "Ludwików",
                "addr:postcode": "21-077",
                "amenity": "pharmacy"
            },
            "geometry": {
                "type": "Point",
                "coordinates": [
                    22.780019694389335,
                    51.3147377655492
                ]
            }
        }
    ]
}