{
    "type": "FeatureCollection",
    "name": "JPT_KOD_JE_0224",
    "features": [
        {
            "type": "Feature",
            "properties": {
                "ref:csioz": 1133634,
                "name": "Aspirynka",
                "addr:street": "Wąska",
                "addr:housenumber": "15/17",
                "addr:city": "Ziębice",
                "addr:postcode": "57-220",
                "amenity": "pharmacy"
            },
            "geometry": {
                "type": "Point",
                "coordinates": [
                    17.042246999997193,
                    50.59876700001337
                ]
            }
        },
        {
            "type": "Feature",
            "properties": {
                "ref:csioz": 1133691,
                "name": "Pod Lwem",
                "addr:street": "Tadeusza Kościuszki",
                "addr:housenumber": "6",
                "addr:city": "Ząbkowice Śląskie",
                "addr:postcode": "57-200",
                "amenity": "pharmacy"
            },
            "geometry": {
                "type": "Point",
                "coordinates": [
                    16.81154302386206,
                    50.590655492065544
                ]
            }
        },
        {
            "type": "Feature",
            "properties": {
                "ref:csioz": 1134213,
                "name": "Pod Orłem",
                "addr:street": "XX-lecia",
                "addr:housenumber": "16",
                "addr:city": "Ząbkowice Śląskie",
                "addr:postcode": "57-200",
                "amenity": "pharmacy"
            },
            "geometry": {
                "type": "Point",
                "coordinates": [
                    16.81784833451632,
                    50.59647816813907
                ]
            }
        },
        {
            "type": "Feature",
            "properties": {
                "ref:csioz": 1160083,
                "name": "Cortex",
                "addr:street": "Henryka Brodatego",
                "addr:housenumber": "17",
                "addr:city": "Henryków",
                "addr:postcode": "57-210",
                "amenity": "pharmacy"
            },
            "geometry": {
                "type": "Point",
                "coordinates": [
                    17.010837578791747,
                    50.653260824559524
                ]
            }
        },
        {
            "type": "Feature",
            "properties": {
                "ref:csioz": 1160777,
                "name": "Pod Koroną",
                "addr:street": "Rynek",
                "addr:housenumber": "3",
                "addr:city": "Ząbkowice Śląskie",
                "addr:postcode": "57-200",
                "amenity": "pharmacy"
            },
            "geometry": {
                "type": "Point",
                "coordinates": [
                    16.81067379469661,
                    50.589166415203294
                ]
            }
        },
        {
            "type": "Feature",
            "properties": {
                "ref:csioz": 1160789,
                "name": "Doz Apteka Dbam O Zdrowie Konfarm",
                "addr:street": "Kolejowa",
                "addr:housenumber": "24",
                "addr:city": "Ziębice",
                "addr:postcode": "57-220",
                "amenity": "pharmacy"
            },
            "geometry": {
                "type": "Point",
                "coordinates": [
                    17.038929358827296,
                    50.60225261163789
                ]
            }
        },
        {
            "type": "Feature",
            "properties": {
                "ref:csioz": 1188050,
                "name": "\"Apteka 'Centrum Zdrowia'\"",
                "addr:street": "Rynek",
                "addr:housenumber": "26-27",
                "addr:city": "Ziębice",
                "addr:postcode": "57-220",
                "amenity": "pharmacy"
            },
            "geometry": {
                "type": "Point",
                "coordinates": [
                    17.041498492270893,
                    50.60153522877971
                ]
            }
        },
        {
            "type": "Feature",
            "properties": {
                "ref:csioz": 1133484,
                "name": "Witaminka",
                "addr:street": "Wojska Polskiego",
                "addr:housenumber": "13",
                "addr:city": "Złoty Stok",
                "addr:postcode": "57-250",
                "amenity": "pharmacy"
            },
            "geometry": {
                "type": "Point",
                "coordinates": [
                    16.87294201834385,
                    50.44308935135403
                ]
            }
        },
        {
            "type": "Feature",
            "properties": {
                "ref:csioz": 1134360,
                "name": "Pod Murzynem",
                "addr:street": "Rynek",
                "addr:housenumber": "28",
                "addr:city": "Ząbkowice Śląskie",
                "addr:postcode": "57-200",
                "amenity": "pharmacy"
            },
            "geometry": {
                "type": "Point",
                "coordinates": [
                    16.812107372807034,
                    50.58876267071915
                ]
            }
        },
        {
            "type": "Feature",
            "properties": {
                "ref:csioz": 1137058,
                "name": "Srebrny Punkt Apteczny",
                "addr:housenumber": "178 A",
                "addr:city": "Budzów",
                "addr:postcode": "57-214",
                "amenity": "pharmacy"
            },
            "geometry": {
                "type": "Point",
                "coordinates": [
                    16.669617876172868,
                    50.575615995071246
                ]
            }
        },
        {
            "type": "Feature",
            "properties": {
                "ref:csioz": 1137788,
                "name": "Apteka Zdrowie",
                "addr:street": "Kolejowa",
                "addr:housenumber": "15 A",
                "addr:city": "Kamieniec Ząbkowicki",
                "addr:postcode": "57-230",
                "amenity": "pharmacy"
            },
            "geometry": {
                "type": "Point",
                "coordinates": [
                    16.876485999995975,
                    50.52429200001327
                ]
            }
        },
        {
            "type": "Feature",
            "properties": {
                "ref:csioz": 1159897,
                "addr:street": "Główna",
                "addr:housenumber": "26",
                "addr:city": "Bardo",
                "addr:postcode": "57-256",
                "amenity": "pharmacy"
            },
            "geometry": {
                "type": "Point",
                "coordinates": [
                    16.740755426310976,
                    50.50598655698286
                ]
            }
        },
        {
            "type": "Feature",
            "properties": {
                "ref:csioz": 1160790,
                "name": "Pod Orłem",
                "addr:street": "Rynek",
                "addr:housenumber": "33",
                "addr:city": "Ziębice",
                "addr:postcode": "57-220",
                "amenity": "pharmacy"
            },
            "geometry": {
                "type": "Point",
                "coordinates": [
                    17.04196951724916,
                    50.60097959838937
                ]
            }
        },
        {
            "type": "Feature",
            "properties": {
                "ref:csioz": 1160856,
                "name": "Apteka Pod Złotym Smokiem",
                "addr:street": "1 Maja",
                "addr:housenumber": "17",
                "addr:city": "Ząbkowice Śląskie",
                "addr:postcode": "57-200",
                "amenity": "pharmacy"
            },
            "geometry": {
                "type": "Point",
                "coordinates": [
                    16.81226219444021,
                    50.593924877395665
                ]
            }
        },
        {
            "type": "Feature",
            "properties": {
                "ref:csioz": 1181854,
                "name": "Polskie Centrum Zdrowia Instytut Medyczny Ot Ziębice Szpital Specjalistyczny Z Ośrodkiem Badań Klinicznych W Ziębicach Polskie Centrum Zdrowia Ot Ziębice Szpital Długoterminowy W Ziębicach",
                "addr:street": "Kolejowa",
                "addr:housenumber": "29",
                "addr:city": "Ziębice",
                "addr:postcode": "57-220",
                "amenity": "pharmacy"
            },
            "geometry": {
                "type": "Point",
                "coordinates": [
                    17.036881061125296,
                    50.60329143237284
                ]
            }
        },
        {
            "type": "Feature",
            "properties": {
                "ref:csioz": 1183850,
                "name": "Apteka Tabletka Przy Szpitalu",
                "addr:street": "Bolesława Chrobrego",
                "addr:housenumber": "4a",
                "addr:city": "Ząbkowice Śląskie",
                "addr:postcode": "57-200",
                "amenity": "pharmacy"
            },
            "geometry": {
                "type": "Point",
                "coordinates": [
                    16.816902144923755,
                    50.58793388588159
                ]
            }
        },
        {
            "type": "Feature",
            "properties": {
                "ref:csioz": 1194617,
                "name": "Centrum Zdrowia",
                "addr:street": "Rynek",
                "addr:housenumber": "12",
                "addr:city": "Ząbkowice Śląskie",
                "addr:postcode": "57-200",
                "amenity": "pharmacy"
            },
            "geometry": {
                "type": "Point",
                "coordinates": [
                    16.81165469273644,
                    50.58999999262176
                ]
            }
        },
        {
            "type": "Feature",
            "properties": {
                "ref:csioz": 1202742,
                "name": "Melisa",
                "addr:street": "Główna",
                "addr:housenumber": "24",
                "addr:city": "Bardo",
                "addr:postcode": "57-256",
                "amenity": "pharmacy"
            },
            "geometry": {
                "type": "Point",
                "coordinates": [
                    16.73946280581136,
                    50.505530917802176
                ]
            }
        },
        {
            "type": "Feature",
            "properties": {
                "ref:csioz": 1202823,
                "name": "Nova",
                "addr:street": "Rynek",
                "addr:housenumber": "23",
                "addr:city": "Ząbkowice Śląskie",
                "addr:postcode": "57-200",
                "amenity": "pharmacy"
            },
            "geometry": {
                "type": "Point",
                "coordinates": [
                    16.812416052226823,
                    50.58940249655647
                ]
            }
        },
        {
            "type": "Feature",
            "properties": {
                "ref:csioz": 1208888,
                "name": "Apteka Zdrowie",
                "addr:street": "Rynek",
                "addr:housenumber": "36",
                "addr:city": "Ziębice",
                "addr:postcode": "57-220",
                "amenity": "pharmacy"
            },
            "geometry": {
                "type": "Point",
                "coordinates": [
                    17.041659454276544,
                    50.600782825883456
                ]
            }
        },
        {
            "type": "Feature",
            "properties": {
                "ref:csioz": 1228550,
                "name": "Złota",
                "addr:street": "3 Maja",
                "addr:housenumber": "21",
                "addr:city": "Złoty Stok",
                "addr:postcode": "57-250",
                "amenity": "pharmacy"
            },
            "geometry": {
                "type": "Point",
                "coordinates": [
                    16.877311713458372,
                    50.445700131644536
                ]
            }
        },
        {
            "type": "Feature",
            "properties": {
                "ref:csioz": 1222257,
                "name": "\"Dział Farmacji Szpitalnej W Niepublicznym Zakładzie Opiekuńczo-Leczniczym \"\"Salutaris\"\" Spółka Z O.O.\"",
                "addr:street": "Spacerowa",
                "addr:housenumber": "5",
                "addr:city": "Złoty Stok",
                "addr:postcode": "57-250",
                "amenity": "pharmacy"
            },
            "geometry": {
                "type": "Point",
                "coordinates": [
                    16.867752057210605,
                    50.44325719573811
                ]
            }
        },
        {
            "type": "Feature",
            "properties": {
                "ref:csioz": 1133938,
                "name": "Apteka Veritas",
                "addr:street": "Wrocławska",
                "addr:housenumber": "23b",
                "addr:city": "Ząbkowice Śląskie",
                "addr:postcode": "57-200",
                "amenity": "pharmacy"
            },
            "geometry": {
                "type": "Point",
                "coordinates": [
                    16.817532724264915,
                    50.59918145561963
                ]
            }
        },
        {
            "type": "Feature",
            "properties": {
                "ref:csioz": 1200654,
                "name": "Lawendowa",
                "addr:street": "Ząbkowicka",
                "addr:housenumber": "16",
                "addr:city": "Kamieniec Ząbkowicki",
                "addr:postcode": "57-230",
                "amenity": "pharmacy"
            },
            "geometry": {
                "type": "Point",
                "coordinates": [
                    16.87243158215866,
                    50.524579926356914
                ]
            }
        },
        {
            "type": "Feature",
            "properties": {
                "ref:csioz": 1134953,
                "addr:street": "Adama Mickiewicza",
                "addr:housenumber": "7",
                "addr:city": "Ciepłowody",
                "addr:postcode": "57-211",
                "amenity": "pharmacy"
            },
            "geometry": {
                "type": "Point",
                "coordinates": [
                    16.909871801340547,
                    50.67562466734937
                ]
            }
        }
    ]
}