{
    "type": "FeatureCollection",
    "name": "JPT_KOD_JE_2202",
    "features": [
        {
            "type": "Feature",
            "properties": {
                "ref:csioz": 1028937,
                "name": "Wracam Do Zdrowia",
                "addr:street": "Kościuszki",
                "addr:housenumber": "39",
                "addr:city": "Czersk",
                "addr:postcode": "89-650",
                "amenity": "pharmacy"
            },
            "geometry": {
                "type": "Point",
                "coordinates": [
                    17.975617631467642,
                    53.79537124286725
                ]
            }
        },
        {
            "type": "Feature",
            "properties": {
                "ref:csioz": 1029117,
                "name": "Apteka Słoneczna",
                "addr:street": "Wiśniowa",
                "addr:housenumber": "1B",
                "addr:city": "Chojnice",
                "addr:postcode": "89-600",
                "amenity": "pharmacy"
            },
            "geometry": {
                "type": "Point",
                "coordinates": [
                    17.546381659833333,
                    53.705656609368916
                ]
            }
        },
        {
            "type": "Feature",
            "properties": {
                "ref:csioz": 1032806,
                "name": "Wracam Do Zdrowia",
                "addr:street": "Jana Pawła II",
                "addr:housenumber": "2D",
                "addr:city": "Chojnice",
                "addr:postcode": "89-604",
                "amenity": "pharmacy"
            },
            "geometry": {
                "type": "Point",
                "coordinates": [
                    17.57786689692972,
                    53.698416766316655
                ]
            }
        },
        {
            "type": "Feature",
            "properties": {
                "ref:csioz": 1033042,
                "name": "Wracam Do Zdrowia",
                "addr:street": "Cmentarna",
                "addr:housenumber": "4",
                "addr:city": "Czersk",
                "addr:postcode": "89-650",
                "amenity": "pharmacy"
            },
            "geometry": {
                "type": "Point",
                "coordinates": [
                    17.97965293602395,
                    53.79743498247875
                ]
            }
        },
        {
            "type": "Feature",
            "properties": {
                "ref:csioz": 1033481,
                "name": "Doz Apteka. Dbam O Zdrowie.",
                "addr:street": "Kościerska",
                "addr:housenumber": "9",
                "addr:city": "Chojnice",
                "addr:postcode": "89-604",
                "amenity": "pharmacy"
            },
            "geometry": {
                "type": "Point",
                "coordinates": [
                    17.572130376641656,
                    53.700421710804655
                ]
            }
        },
        {
            "type": "Feature",
            "properties": {
                "ref:csioz": 1033764,
                "addr:street": "Szeroka",
                "addr:housenumber": "7",
                "addr:city": "Konarzyny",
                "addr:postcode": "89-607",
                "amenity": "pharmacy"
            },
            "geometry": {
                "type": "Point",
                "coordinates": [
                    17.377441850828117,
                    53.8236637079189
                ]
            }
        },
        {
            "type": "Feature",
            "properties": {
                "ref:csioz": 1033863,
                "name": "Św. Łukasza",
                "addr:street": "Królowej Marii Ludwiki",
                "addr:housenumber": "2A",
                "addr:city": "Leśno",
                "addr:postcode": "89-634",
                "amenity": "pharmacy"
            },
            "geometry": {
                "type": "Point",
                "coordinates": [
                    17.69813111600005,
                    53.95000771396574
                ]
            }
        },
        {
            "type": "Feature",
            "properties": {
                "ref:csioz": 1034418,
                "name": "Dział Farmacji Szpitalnej W Hospicjum Zwiastowania Najświętszej Maryi Panny",
                "addr:street": "Strzelecka",
                "addr:housenumber": "89",
                "addr:city": "Chojnice",
                "addr:postcode": "89-600",
                "amenity": "pharmacy"
            },
            "geometry": {
                "type": "Point",
                "coordinates": [
                    17.557280221978868,
                    53.70718720199105
                ]
            }
        },
        {
            "type": "Feature",
            "properties": {
                "ref:csioz": 1113464,
                "name": "Doz Apteka. Dbam O Zdrowie.",
                "addr:street": "Leśna",
                "addr:housenumber": "6A",
                "addr:city": "Chojnice",
                "addr:postcode": "89-600",
                "amenity": "pharmacy"
            },
            "geometry": {
                "type": "Point",
                "coordinates": [
                    17.547013603124537,
                    53.71293767480116
                ]
            }
        },
        {
            "type": "Feature",
            "properties": {
                "ref:csioz": 1120075,
                "name": "Alba",
                "addr:street": "Towarowa",
                "addr:housenumber": "2A",
                "addr:city": "Chojnice",
                "addr:postcode": "89-620",
                "amenity": "pharmacy"
            },
            "geometry": {
                "type": "Point",
                "coordinates": [
                    17.57486192427662,
                    53.68834907858307
                ]
            }
        },
        {
            "type": "Feature",
            "properties": {
                "ref:csioz": 1124985,
                "name": "Doz Apteka. Dbam O Zdrowie.",
                "addr:street": "31 Stycznia",
                "addr:housenumber": "12",
                "addr:city": "Chojnice",
                "addr:postcode": "89-600",
                "amenity": "pharmacy"
            },
            "geometry": {
                "type": "Point",
                "coordinates": [
                    17.559884595483794,
                    53.695326854558296
                ]
            }
        },
        {
            "type": "Feature",
            "properties": {
                "ref:csioz": 1125018,
                "name": "Doz Punkt Apteczny. Dbam O Zdrowie.",
                "addr:street": "Ostrowska",
                "addr:housenumber": "18A",
                "addr:city": "Rytel",
                "addr:postcode": "89-642",
                "amenity": "pharmacy"
            },
            "geometry": {
                "type": "Point",
                "coordinates": [
                    17.771442873140007,
                    53.75541242070208
                ]
            }
        },
        {
            "type": "Feature",
            "properties": {
                "ref:csioz": 1181794,
                "name": "Apteka Promedica",
                "addr:street": "Młodzieżowa",
                "addr:housenumber": "35",
                "addr:city": "Chojnice",
                "addr:postcode": "89-600",
                "amenity": "pharmacy"
            },
            "geometry": {
                "type": "Point",
                "coordinates": [
                    17.571485313594934,
                    53.69980548255007
                ]
            }
        },
        {
            "type": "Feature",
            "properties": {
                "ref:csioz": 1028150,
                "name": "Pod Modrakiem",
                "addr:street": "Gdańska",
                "addr:housenumber": "3B",
                "addr:city": "Brusy",
                "addr:postcode": "89-632",
                "amenity": "pharmacy"
            },
            "geometry": {
                "type": "Point",
                "coordinates": [
                    17.719346707567183,
                    53.88727536763898
                ]
            }
        },
        {
            "type": "Feature",
            "properties": {
                "ref:csioz": 1028175,
                "name": "Nadworna Apteki Polskie",
                "addr:street": "Stary Rynek",
                "addr:housenumber": "7",
                "addr:city": "Chojnice",
                "addr:postcode": "89-600",
                "amenity": "pharmacy"
            },
            "geometry": {
                "type": "Point",
                "coordinates": [
                    17.560900161278756,
                    53.69558357849027
                ]
            }
        },
        {
            "type": "Feature",
            "properties": {
                "ref:csioz": 1028188,
                "name": "Pod Świerkami",
                "addr:street": "Aleja Brzozowa",
                "addr:housenumber": "5",
                "addr:city": "Chojnice",
                "addr:postcode": "89-600",
                "amenity": "pharmacy"
            },
            "geometry": {
                "type": "Point",
                "coordinates": [
                    17.57023377011539,
                    53.68862565300828
                ]
            }
        },
        {
            "type": "Feature",
            "properties": {
                "ref:csioz": 1028191,
                "addr:street": "Gdańska",
                "addr:housenumber": "26A",
                "addr:city": "Chojnice",
                "addr:postcode": "89-600",
                "amenity": "pharmacy"
            },
            "geometry": {
                "type": "Point",
                "coordinates": [
                    17.57431932199783,
                    53.69586105926965
                ]
            }
        },
        {
            "type": "Feature",
            "properties": {
                "ref:csioz": 1029515,
                "name": "Zaborska",
                "addr:street": "Dworcowa",
                "addr:housenumber": "20",
                "addr:city": "Brusy",
                "addr:postcode": "89-632",
                "amenity": "pharmacy"
            },
            "geometry": {
                "type": "Point",
                "coordinates": [
                    17.726600089759987,
                    53.884511619938436
                ]
            }
        },
        {
            "type": "Feature",
            "properties": {
                "ref:csioz": 1029672,
                "name": "Apteka Dbam O Zdrowie",
                "addr:street": "Gdańska",
                "addr:housenumber": "49",
                "addr:city": "Chojnice",
                "addr:postcode": "89-600",
                "amenity": "pharmacy"
            },
            "geometry": {
                "type": "Point",
                "coordinates": [
                    17.579810906154776,
                    53.69807280904363
                ]
            }
        },
        {
            "type": "Feature",
            "properties": {
                "ref:csioz": 1030330,
                "name": "Apteka Dbam O Zdrowie",
                "addr:street": "Plac Świętego Jerzego",
                "addr:housenumber": "4",
                "addr:city": "Chojnice",
                "addr:postcode": "89-600",
                "amenity": "pharmacy"
            },
            "geometry": {
                "type": "Point",
                "coordinates": [
                    17.565522526335236,
                    53.69348019404682
                ]
            }
        },
        {
            "type": "Feature",
            "properties": {
                "ref:csioz": 1032101,
                "name": "Wracam Do Zdrowia",
                "addr:street": "Świętopełka",
                "addr:housenumber": "16",
                "addr:city": "Chojnice",
                "addr:postcode": "89-600",
                "amenity": "pharmacy"
            },
            "geometry": {
                "type": "Point",
                "coordinates": [
                    17.570969999360212,
                    53.691594086119146
                ]
            }
        },
        {
            "type": "Feature",
            "properties": {
                "ref:csioz": 1032293,
                "name": "Centrum Zdrowia",
                "addr:street": "Drzymały",
                "addr:housenumber": "33",
                "addr:city": "Chojnice",
                "addr:postcode": "89-600",
                "amenity": "pharmacy"
            },
            "geometry": {
                "type": "Point",
                "coordinates": [
                    17.573314644283837,
                    53.69444437700084
                ]
            }
        },
        {
            "type": "Feature",
            "properties": {
                "ref:csioz": 1032450,
                "name": "Kaszubska",
                "addr:street": "Młodzieżowa",
                "addr:housenumber": "7F",
                "addr:city": "Chojnice",
                "addr:postcode": "89-604",
                "amenity": "pharmacy"
            },
            "geometry": {
                "type": "Point",
                "coordinates": [
                    17.570363856536094,
                    53.70166636732964
                ]
            }
        },
        {
            "type": "Feature",
            "properties": {
                "ref:csioz": 1033424,
                "name": "Doz Apteka. Dbam O Zdrowie.",
                "addr:street": "Leśna",
                "addr:housenumber": "10",
                "addr:city": "Chojnice",
                "addr:postcode": "89-600",
                "amenity": "pharmacy"
            },
            "geometry": {
                "type": "Point",
                "coordinates": [
                    17.548398138960195,
                    53.712591076833746
                ]
            }
        },
        {
            "type": "Feature",
            "properties": {
                "ref:csioz": 1033600,
                "name": "Doz Apteka. Dbam O Zdrowie.",
                "addr:street": "Obrońców Chojnic",
                "addr:housenumber": "1",
                "addr:city": "Chojnice",
                "addr:postcode": "89-604",
                "amenity": "pharmacy"
            },
            "geometry": {
                "type": "Point",
                "coordinates": [
                    17.573610006414814,
                    53.699586266003045
                ]
            }
        },
        {
            "type": "Feature",
            "properties": {
                "ref:csioz": 1112447,
                "name": "Wracam Do Zdrowia",
                "addr:street": "Bytowska",
                "addr:housenumber": "7",
                "addr:city": "Chojnice",
                "addr:postcode": "89-600",
                "amenity": "pharmacy"
            },
            "geometry": {
                "type": "Point",
                "coordinates": [
                    17.553621284935378,
                    53.69992547063437
                ]
            }
        },
        {
            "type": "Feature",
            "properties": {
                "ref:csioz": 1114026,
                "name": "Dział Farmacji Szpitalnej W Niepublicznym Specjalistycznym Psychiatrycznym Zakładzie Opieki Zdrowotnej Mawiko",
                "addr:street": "Leśna",
                "addr:housenumber": "8",
                "addr:city": "Chojnice",
                "addr:postcode": "89-600",
                "amenity": "pharmacy"
            },
            "geometry": {
                "type": "Point",
                "coordinates": [
                    17.54487442120582,
                    53.7122191694646
                ]
            }
        },
        {
            "type": "Feature",
            "properties": {
                "ref:csioz": 1114374,
                "name": "Wracam Do Zdrowia",
                "addr:street": "Jana Pawła II",
                "addr:housenumber": "1",
                "addr:city": "Czersk",
                "addr:postcode": "89-650",
                "amenity": "pharmacy"
            },
            "geometry": {
                "type": "Point",
                "coordinates": [
                    17.96619511103039,
                    53.79737076957929
                ]
            }
        },
        {
            "type": "Feature",
            "properties": {
                "ref:csioz": 1187950,
                "name": "Doz Apteka. Dbam O Zdrowie.",
                "addr:street": "Mickiewicza",
                "addr:housenumber": "39",
                "addr:city": "Chojnice",
                "addr:postcode": "89-600",
                "amenity": "pharmacy"
            },
            "geometry": {
                "type": "Point",
                "coordinates": [
                    17.56215033626851,
                    53.700118964954775
                ]
            }
        },
        {
            "type": "Feature",
            "properties": {
                "ref:csioz": 1206918,
                "name": "Apteka Szpitalna W Zakładzie Leczniczym: Szpital",
                "addr:street": "Leśna",
                "addr:housenumber": "10",
                "addr:city": "Chojnice",
                "addr:postcode": "89-600",
                "amenity": "pharmacy"
            },
            "geometry": {
                "type": "Point",
                "coordinates": [
                    17.548398138960195,
                    53.712591076833746
                ]
            }
        },
        {
            "type": "Feature",
            "properties": {
                "ref:csioz": 1209069,
                "name": "Hebeapteka",
                "addr:street": "Podmiejska",
                "addr:housenumber": "2 b",
                "addr:city": "Lipienice",
                "addr:postcode": "89-620",
                "amenity": "pharmacy"
            },
            "geometry": {
                "type": "Point",
                "coordinates": [
                    17.6210236247825,
                    53.69422038529653
                ]
            }
        },
        {
            "type": "Feature",
            "properties": {
                "ref:csioz": 1209817,
                "name": "Centrum Zdrowia",
                "addr:street": "Plac Piastowski",
                "addr:housenumber": "30",
                "addr:city": "Chojnice",
                "addr:postcode": "89-600",
                "amenity": "pharmacy"
            },
            "geometry": {
                "type": "Point",
                "coordinates": [
                    17.557508053979554,
                    53.69414071456828
                ]
            }
        },
        {
            "type": "Feature",
            "properties": {
                "ref:csioz": 1216076,
                "name": "Apteka Gemini",
                "addr:street": "Stary Rynek",
                "addr:housenumber": "11",
                "addr:city": "Chojnice",
                "addr:postcode": "89-600",
                "amenity": "pharmacy"
            },
            "geometry": {
                "type": "Point",
                "coordinates": [
                    17.561010064710388,
                    53.695051003670336
                ]
            }
        },
        {
            "type": "Feature",
            "properties": {
                "ref:csioz": 1218143,
                "name": "Apteka Dr. Optima",
                "addr:street": "Gdańska",
                "addr:housenumber": "18",
                "addr:city": "Brusy",
                "addr:postcode": "89-632",
                "amenity": "pharmacy"
            },
            "geometry": {
                "type": "Point",
                "coordinates": [
                    17.71854327942736,
                    53.88537053223878
                ]
            }
        }
    ]
}