{
    "type": "FeatureCollection",
    "name": "JPT_KOD_JE_3204",
    "features": [
        {
            "type": "Feature",
            "properties": {
                "ref:csioz": 1151608,
                "name": "\"Apteka Cef@Rm 36,6\"",
                "addr:street": "Plac Wolności",
                "addr:housenumber": "2",
                "addr:city": "Nowogard",
                "addr:postcode": "72-200",
                "amenity": "pharmacy"
            },
            "geometry": {
                "type": "Point",
                "coordinates": [
                    15.120084909182905,
                    53.671365317734974
                ]
            }
        },
        {
            "type": "Feature",
            "properties": {
                "ref:csioz": 1168742,
                "name": "Dr. Max",
                "addr:street": "15 Lutego",
                "addr:housenumber": "17D",
                "addr:city": "Nowogard",
                "addr:postcode": "72-200",
                "amenity": "pharmacy"
            },
            "geometry": {
                "type": "Point",
                "coordinates": [
                    15.125834861159763,
                    53.66545719270706
                ]
            }
        },
        {
            "type": "Feature",
            "properties": {
                "ref:csioz": 1168750,
                "name": "Dr. Max",
                "addr:street": "Tadeusza Kościuszki",
                "addr:housenumber": "36",
                "addr:flats": "4",
                "addr:city": "Nowogard",
                "addr:postcode": "72-200",
                "amenity": "pharmacy"
            },
            "geometry": {
                "type": "Point",
                "coordinates": [
                    15.115636733326893,
                    53.67482500115634
                ]
            }
        },
        {
            "type": "Feature",
            "properties": {
                "ref:csioz": 1168907,
                "name": "Apteka Im Św. Brata Alberta - Nowa Farmacja Tadeusz Grochowski",
                "addr:street": "Jedności Narodowej",
                "addr:housenumber": "46",
                "addr:city": "Maszewo",
                "addr:postcode": "72-130",
                "amenity": "pharmacy"
            },
            "geometry": {
                "type": "Point",
                "coordinates": [
                    15.059946083498769,
                    53.497267396455854
                ]
            }
        },
        {
            "type": "Feature",
            "properties": {
                "ref:csioz": 1169191,
                "addr:street": "Jedności Narodowej",
                "addr:housenumber": "43",
                "addr:city": "Maszewo",
                "addr:postcode": "72-130",
                "amenity": "pharmacy"
            },
            "geometry": {
                "type": "Point",
                "coordinates": [
                    15.05958164451215,
                    53.49761151237046
                ]
            }
        },
        {
            "type": "Feature",
            "properties": {
                "ref:csioz": 1214700,
                "name": "Doz Apteka. Dbam O Zdrowie. Medica",
                "addr:street": "Szkolna",
                "addr:housenumber": "10a",
                "addr:flats": "8",
                "addr:city": "Maszewo",
                "addr:postcode": "72-130",
                "amenity": "pharmacy"
            },
            "geometry": {
                "type": "Point",
                "coordinates": [
                    15.057290299775772,
                    53.49873316635189
                ]
            }
        },
        {
            "type": "Feature",
            "properties": {
                "ref:csioz": 1147257,
                "addr:street": "Wojska Polskiego",
                "addr:housenumber": "7",
                "addr:city": "Nowogard",
                "addr:postcode": "72-200",
                "amenity": "pharmacy"
            },
            "geometry": {
                "type": "Point",
                "coordinates": [
                    15.109783655106435,
                    53.67272911094436
                ]
            }
        },
        {
            "type": "Feature",
            "properties": {
                "ref:csioz": 1151704,
                "name": "Doz Apteka. Dbam O Zdrowie. Apteka Majowa",
                "addr:street": "3 Maja",
                "addr:housenumber": "47",
                "addr:city": "Nowogard",
                "addr:postcode": "72-200",
                "amenity": "pharmacy"
            },
            "geometry": {
                "type": "Point",
                "coordinates": [
                    15.119464999952378,
                    53.66703000001929
                ]
            }
        },
        {
            "type": "Feature",
            "properties": {
                "ref:csioz": 1151876,
                "name": "Asa",
                "addr:street": "Warszawska",
                "addr:housenumber": "14",
                "addr:city": "Nowogard",
                "addr:postcode": "72-200",
                "amenity": "pharmacy"
            },
            "geometry": {
                "type": "Point",
                "coordinates": [
                    15.117224338330745,
                    53.67363237770047
                ]
            }
        },
        {
            "type": "Feature",
            "properties": {
                "ref:csioz": 1169127,
                "addr:housenumber": "1A",
                "addr:city": "Osina",
                "addr:postcode": "72-221",
                "amenity": "pharmacy"
            },
            "geometry": {
                "type": "Point",
                "coordinates": [
                    15.011927735498569,
                    53.60517778680518
                ]
            }
        },
        {
            "type": "Feature",
            "properties": {
                "ref:csioz": 1191647,
                "name": "Cardia",
                "addr:street": "700-lecia",
                "addr:housenumber": "15",
                "addr:city": "Nowogard",
                "addr:postcode": "72-200",
                "amenity": "pharmacy"
            },
            "geometry": {
                "type": "Point",
                "coordinates": [
                    15.124526999952673,
                    53.66797400001927
                ]
            }
        },
        {
            "type": "Feature",
            "properties": {
                "ref:csioz": 1212561,
                "name": "Apteka Na Bohaterów Warszawy Nowa Farmacja",
                "addr:street": "Bohaterów Warszawy",
                "addr:housenumber": "103",
                "addr:flats": "3-4",
                "addr:city": "Nowogard",
                "addr:postcode": "72-200",
                "amenity": "pharmacy"
            },
            "geometry": {
                "type": "Point",
                "coordinates": [
                    15.129389551330412,
                    53.6652263008507
                ]
            }
        },
        {
            "type": "Feature",
            "properties": {
                "ref:csioz": 1215664,
                "name": "Apteka Centrum Zdrowia",
                "addr:street": "700 Lecia",
                "addr:housenumber": "21",
                "addr:city": "Nowogard",
                "addr:postcode": "72-200",
                "amenity": "pharmacy"
            },
            "geometry": {
                "type": "Point",
                "coordinates": [
                    15.12332518812888,
                    53.66919605062561
                ]
            }
        },
        {
            "type": "Feature",
            "properties": {
                "ref:csioz": 1228464,
                "name": "Pod Lipami",
                "addr:housenumber": "56a",
                "addr:city": "Mosty",
                "addr:postcode": "72-132",
                "amenity": "pharmacy"
            },
            "geometry": {
                "type": "Point",
                "coordinates": [
                    14.952123853781544,
                    53.54647510997688
                ]
            }
        },
        {
            "type": "Feature",
            "properties": {
                "ref:csioz": 1137631,
                "name": "Doz Apteka. Dbam O Zdrowie",
                "addr:street": "Bolesława Chrobrego",
                "addr:housenumber": "82A",
                "addr:city": "Przybiernów",
                "addr:postcode": "72-110",
                "amenity": "pharmacy"
            },
            "geometry": {
                "type": "Point",
                "coordinates": [
                    14.782837829234769,
                    53.756303527981316
                ]
            }
        },
        {
            "type": "Feature",
            "properties": {
                "ref:csioz": 1152172,
                "name": "Panaceum",
                "addr:street": "Piaskowa",
                "addr:housenumber": "5",
                "addr:city": "Goleniów",
                "addr:postcode": "72-100",
                "amenity": "pharmacy"
            },
            "geometry": {
                "type": "Point",
                "coordinates": [
                    14.820050237348353,
                    53.56111748147449
                ]
            }
        },
        {
            "type": "Feature",
            "properties": {
                "ref:csioz": 1152353,
                "name": "Nazwa Apteki Doz Apteka. Dbam O Zdrowie. Apteka Przy Fontannie",
                "addr:street": "Szczecińska",
                "addr:housenumber": "1F",
                "addr:city": "Goleniów",
                "addr:postcode": "72-100",
                "amenity": "pharmacy"
            },
            "geometry": {
                "type": "Point",
                "coordinates": [
                    14.826568500460926,
                    53.56229551501583
                ]
            }
        },
        {
            "type": "Feature",
            "properties": {
                "ref:csioz": 1168333,
                "name": "Nad Strumieniem",
                "addr:street": "Tadeusza Kościuszki",
                "addr:housenumber": "8",
                "addr:city": "Goleniów",
                "addr:postcode": "72-100",
                "amenity": "pharmacy"
            },
            "geometry": {
                "type": "Point",
                "coordinates": [
                    14.82919816429676,
                    53.561977074758765
                ]
            }
        },
        {
            "type": "Feature",
            "properties": {
                "ref:csioz": 1168387,
                "name": "Na Sportowej",
                "addr:street": "Sportowa",
                "addr:housenumber": "6",
                "addr:city": "Goleniów",
                "addr:postcode": "72-100",
                "amenity": "pharmacy"
            },
            "geometry": {
                "type": "Point",
                "coordinates": [
                    14.825691479457296,
                    53.55978042769813
                ]
            }
        },
        {
            "type": "Feature",
            "properties": {
                "ref:csioz": 1168398,
                "name": "Pod Klonami",
                "addr:street": "Szczecińska",
                "addr:housenumber": "24a",
                "addr:city": "Kliniska Wielkie",
                "addr:postcode": "72-123",
                "amenity": "pharmacy"
            },
            "geometry": {
                "type": "Point",
                "coordinates": [
                    14.771548297353764,
                    53.459659409538524
                ]
            }
        },
        {
            "type": "Feature",
            "properties": {
                "ref:csioz": 1168727,
                "name": "Mediq",
                "addr:street": "Pocztowa",
                "addr:housenumber": "43",
                "addr:city": "Goleniów",
                "addr:postcode": "72-100",
                "amenity": "pharmacy"
            },
            "geometry": {
                "type": "Point",
                "coordinates": [
                    14.832916061803457,
                    53.56276591124262
                ]
            }
        },
        {
            "type": "Feature",
            "properties": {
                "ref:csioz": 1176736,
                "name": "Wieża Zdrowia",
                "addr:street": "Marii Konopnickiej",
                "addr:housenumber": "7",
                "addr:city": "Goleniów",
                "addr:postcode": "72-100",
                "amenity": "pharmacy"
            },
            "geometry": {
                "type": "Point",
                "coordinates": [
                    14.82542796952875,
                    53.56062875566308
                ]
            }
        },
        {
            "type": "Feature",
            "properties": {
                "ref:csioz": 1195109,
                "name": "Centrum Zdrowia",
                "addr:street": "Lubczyńska",
                "addr:housenumber": "6",
                "addr:city": "Załom",
                "addr:postcode": "70-896",
                "amenity": "pharmacy"
            },
            "geometry": {
                "type": "Point",
                "coordinates": [
                    14.731920059205837,
                    53.435533115910054
                ]
            }
        },
        {
            "type": "Feature",
            "properties": {
                "ref:csioz": 1137139,
                "name": "Euro-Apteka",
                "addr:street": "Szczecińska",
                "addr:housenumber": "4a",
                "addr:city": "Goleniów",
                "addr:postcode": "72-100",
                "amenity": "pharmacy"
            },
            "geometry": {
                "type": "Point",
                "coordinates": [
                    14.824870561018493,
                    53.562381846946394
                ]
            }
        },
        {
            "type": "Feature",
            "properties": {
                "ref:csioz": 1151555,
                "name": "\"Apteka Cef@Rm 36,6\"",
                "addr:street": "Juliusza Słowackiego",
                "addr:housenumber": "3",
                "addr:city": "Goleniów",
                "addr:postcode": "72-100",
                "amenity": "pharmacy"
            },
            "geometry": {
                "type": "Point",
                "coordinates": [
                    14.827100306859117,
                    53.56729845109557
                ]
            }
        },
        {
            "type": "Feature",
            "properties": {
                "ref:csioz": 1167203,
                "name": "Doz Apteka. Dbam O Zdrowie",
                "addr:street": "Pocztowa",
                "addr:housenumber": "1",
                "addr:city": "Goleniów",
                "addr:postcode": "72-100",
                "amenity": "pharmacy"
            },
            "geometry": {
                "type": "Point",
                "coordinates": [
                    14.832131721206572,
                    53.56202983179336
                ]
            }
        },
        {
            "type": "Feature",
            "properties": {
                "ref:csioz": 1167514,
                "name": "Zdrowie",
                "addr:street": "Dworcowa",
                "addr:housenumber": "9",
                "addr:city": "Goleniów",
                "addr:postcode": "72-100",
                "amenity": "pharmacy"
            },
            "geometry": {
                "type": "Point",
                "coordinates": [
                    14.837343026317706,
                    53.559305041122265
                ]
            }
        },
        {
            "type": "Feature",
            "properties": {
                "ref:csioz": 1181879,
                "addr:street": "Lubczyńska",
                "addr:housenumber": "44",
                "addr:city": "Załom",
                "addr:postcode": "72-123",
                "amenity": "pharmacy"
            },
            "geometry": {
                "type": "Point",
                "coordinates": [
                    14.741684719621693,
                    53.443394704492434
                ]
            }
        },
        {
            "type": "Feature",
            "properties": {
                "ref:csioz": 1181887,
                "name": "Doz Apteka. Dbam O Zdrowie",
                "addr:street": "Osiedle Akacjowe",
                "addr:housenumber": "1A",
                "addr:city": "Stepnica",
                "addr:postcode": "72-112",
                "amenity": "pharmacy"
            },
            "geometry": {
                "type": "Point",
                "coordinates": [
                    14.629453627259847,
                    53.653279685487426
                ]
            }
        },
        {
            "type": "Feature",
            "properties": {
                "ref:csioz": 1207995,
                "name": "Apteka Dyżurna",
                "addr:street": "Grunwaldzka",
                "addr:housenumber": "4",
                "addr:city": "Goleniów",
                "addr:postcode": "72-100",
                "amenity": "pharmacy"
            },
            "geometry": {
                "type": "Point",
                "coordinates": [
                    14.826677390369577,
                    53.56396896282147
                ]
            }
        },
        {
            "type": "Feature",
            "properties": {
                "ref:csioz": 1220263,
                "addr:street": "Nowogardzka",
                "addr:housenumber": "2",
                "addr:city": "Goleniów",
                "addr:postcode": "72-100",
                "amenity": "pharmacy"
            },
            "geometry": {
                "type": "Point",
                "coordinates": [
                    14.834089946498956,
                    53.569041657949484
                ]
            }
        }
    ]
}