{
    "type": "FeatureCollection",
    "name": "JPT_KOD_JE_0663",
    "crs": {
        "type": "name",
        "properties": {
            "name": "urn:ogc:def:crs:EPSG::4326"
        }
    },
    "features": [
        {
            "type": "Feature",
            "properties": {
                "ref:csioz": 1162920,
                "name": "Apteka Na Błoniach",
                "addr:street": "Kawaleryjska",
                "addr:housenumber": "20A",
                "addr:city": "Lublin",
                "addr:postcode": "20-552",
                "amenity": "pharmacy"
            },
            "geometry": {
                "type": "Point",
                "coordinates": [
                    22.510383586791953,
                    51.234711803900545
                ]
            }
        },
        {
            "type": "Feature",
            "properties": {
                "ref:csioz": 1110701,
                "name": "Apteka Zdrowotna",
                "addr:street": "Nałkowskich",
                "addr:housenumber": "230",
                "addr:city": "Lublin",
                "addr:postcode": "20-470",
                "amenity": "pharmacy"
            },
            "geometry": {
                "type": "Point",
                "coordinates": [
                    22.54423217720844,
                    51.202711807139636
                ]
            }
        },
        {
            "type": "Feature",
            "properties": {
                "ref:csioz": 1111063,
                "name": "Prima",
                "addr:street": "Onyksowa",
                "addr:housenumber": "12",
                "addr:city": "Lublin",
                "addr:postcode": "20-582",
                "amenity": "pharmacy"
            },
            "geometry": {
                "type": "Point",
                "coordinates": [
                    22.50075979569004,
                    51.22104645254257
                ]
            }
        },
        {
            "type": "Feature",
            "properties": {
                "ref:csioz": 1116561,
                "name": "Mamy Niskie Ceny",
                "addr:street": "Nadbystrzycka",
                "addr:housenumber": "8",
                "addr:city": "Lublin",
                "addr:postcode": "20-618",
                "amenity": "pharmacy"
            },
            "geometry": {
                "type": "Point",
                "coordinates": [
                    22.551912412883205,
                    51.23847034841518
                ]
            }
        },
        {
            "type": "Feature",
            "properties": {
                "ref:csioz": 1153563,
                "addr:street": "Kiepury",
                "addr:housenumber": "5 B",
                "addr:city": "Lublin",
                "addr:postcode": "20-838",
                "amenity": "pharmacy"
            },
            "geometry": {
                "type": "Point",
                "coordinates": [
                    22.545561663571085,
                    51.260130625358016
                ]
            }
        },
        {
            "type": "Feature",
            "properties": {
                "ref:csioz": 1157399,
                "name": "Doz Apteka Dbam O Zdrowie Rodzinna",
                "addr:street": "Woronieckiego",
                "addr:housenumber": "11",
                "addr:city": "Lublin",
                "addr:postcode": "20-492",
                "amenity": "pharmacy"
            },
            "geometry": {
                "type": "Point",
                "coordinates": [
                    22.542239049158855,
                    51.19914867631707
                ]
            }
        },
        {
            "type": "Feature",
            "properties": {
                "ref:csioz": 1157550,
                "addr:street": "Montażowa",
                "addr:housenumber": "16",
                "addr:city": "Lublin",
                "addr:postcode": "20-214",
                "amenity": "pharmacy"
            },
            "geometry": {
                "type": "Point",
                "coordinates": [
                    22.597747344002048,
                    51.24871516314979
                ]
            }
        },
        {
            "type": "Feature",
            "properties": {
                "ref:csioz": 1157569,
                "addr:street": "al. Kraśnicka",
                "addr:housenumber": "100",
                "addr:city": "Lublin",
                "addr:postcode": "20-718",
                "amenity": "pharmacy"
            },
            "geometry": {
                "type": "Point",
                "coordinates": [
                    22.50379555654898,
                    51.23966456115477
                ]
            }
        },
        {
            "type": "Feature",
            "properties": {
                "ref:csioz": 1157611,
                "name": "Apteka Eurofarm Agnieszka Rahnama",
                "addr:street": "Turystyczna",
                "addr:housenumber": "1",
                "addr:city": "Lublin",
                "addr:postcode": "20-207",
                "amenity": "pharmacy"
            },
            "geometry": {
                "type": "Point",
                "coordinates": [
                    22.59924243692359,
                    51.25173628620859
                ]
            }
        },
        {
            "type": "Feature",
            "properties": {
                "ref:csioz": 1157709,
                "addr:street": "Radziwiłłowska",
                "addr:housenumber": "5",
                "addr:city": "Lublin",
                "addr:postcode": "20-080",
                "amenity": "pharmacy"
            },
            "geometry": {
                "type": "Point",
                "coordinates": [
                    22.56155418709098,
                    51.249318074097154
                ]
            }
        },
        {
            "type": "Feature",
            "properties": {
                "ref:csioz": 1157714,
                "addr:street": "Władysława Orkana",
                "addr:housenumber": "4",
                "addr:city": "Lublin",
                "addr:postcode": "20-504",
                "amenity": "pharmacy"
            },
            "geometry": {
                "type": "Point",
                "coordinates": [
                    22.493399852123694,
                    51.23443701108011
                ]
            }
        },
        {
            "type": "Feature",
            "properties": {
                "ref:csioz": 1157751,
                "addr:street": "Lubartowska",
                "addr:housenumber": "64",
                "addr:flats": "66",
                "addr:city": "Lublin",
                "addr:postcode": "20-123",
                "amenity": "pharmacy"
            },
            "geometry": {
                "type": "Point",
                "coordinates": [
                    22.571053427939514,
                    51.25721025200635
                ]
            }
        },
        {
            "type": "Feature",
            "properties": {
                "ref:csioz": 1157767,
                "addr:street": "Nowowiejskiego",
                "addr:housenumber": "6",
                "addr:city": "Lublin",
                "addr:postcode": "20-880",
                "amenity": "pharmacy"
            },
            "geometry": {
                "type": "Point",
                "coordinates": [
                    22.55398445588686,
                    51.26151960955437
                ]
            }
        },
        {
            "type": "Feature",
            "properties": {
                "ref:csioz": 1157772,
                "addr:street": "Romera",
                "addr:housenumber": "37",
                "addr:city": "Lublin",
                "addr:postcode": "20-473",
                "amenity": "pharmacy"
            },
            "geometry": {
                "type": "Point",
                "coordinates": [
                    22.541729276849715,
                    51.210615227728184
                ]
            }
        },
        {
            "type": "Feature",
            "properties": {
                "ref:csioz": 1157780,
                "addr:street": "Wileńska",
                "addr:housenumber": "21",
                "addr:city": "Lublin",
                "addr:postcode": "20-603",
                "amenity": "pharmacy"
            },
            "geometry": {
                "type": "Point",
                "coordinates": [
                    22.51882127412468,
                    51.24225613090365
                ]
            }
        },
        {
            "type": "Feature",
            "properties": {
                "ref:csioz": 1157847,
                "name": "Apteka Rogatka Warszawska",
                "addr:street": "Aleje Racławickie",
                "addr:housenumber": "33",
                "addr:city": "Lublin",
                "addr:postcode": "20-049",
                "amenity": "pharmacy"
            },
            "geometry": {
                "type": "Point",
                "coordinates": [
                    22.52851288885334,
                    51.25138055095955
                ]
            }
        },
        {
            "type": "Feature",
            "properties": {
                "ref:csioz": 1158064,
                "name": "Apteka Łabędzia",
                "addr:street": "Łabędzia",
                "addr:housenumber": "21",
                "addr:city": "Lublin",
                "addr:postcode": "20-335",
                "amenity": "pharmacy"
            },
            "geometry": {
                "type": "Point",
                "coordinates": [
                    22.592593304338923,
                    51.232222450756964
                ]
            }
        },
        {
            "type": "Feature",
            "properties": {
                "ref:csioz": 1158078,
                "addr:street": "Pogodna",
                "addr:housenumber": "42",
                "addr:city": "Lublin",
                "addr:postcode": "20-337",
                "amenity": "pharmacy"
            },
            "geometry": {
                "type": "Point",
                "coordinates": [
                    22.596380330556787,
                    51.233394083569976
                ]
            }
        },
        {
            "type": "Feature",
            "properties": {
                "ref:csioz": 1158242,
                "name": "Doz Apteka. Dbam O Zdrowie",
                "addr:street": "Nałęczowska",
                "addr:housenumber": "25",
                "addr:city": "Lublin",
                "addr:postcode": "20-701",
                "amenity": "pharmacy"
            },
            "geometry": {
                "type": "Point",
                "coordinates": [
                    22.51689689924132,
                    51.24958148823377
                ]
            }
        },
        {
            "type": "Feature",
            "properties": {
                "ref:csioz": 1158960,
                "addr:street": "Kolorowa",
                "addr:housenumber": "24",
                "addr:flats": "44",
                "addr:city": "Lublin",
                "addr:postcode": "20-807",
                "amenity": "pharmacy"
            },
            "geometry": {
                "type": "Point",
                "coordinates": [
                    22.519460367349268,
                    51.25154135452968
                ]
            }
        },
        {
            "type": "Feature",
            "properties": {
                "ref:csioz": 1158300,
                "name": "Apteka Na Bazylianówce",
                "addr:street": "Bazylianówka",
                "addr:housenumber": "58",
                "addr:city": "Lublin",
                "addr:postcode": "20-144",
                "amenity": "pharmacy"
            },
            "geometry": {
                "type": "Point",
                "coordinates": [
                    22.577276630270397,
                    51.26926359292068
                ]
            }
        },
        {
            "type": "Feature",
            "properties": {
                "ref:csioz": 1158359,
                "addr:street": "Kaprysowa",
                "addr:housenumber": "4",
                "addr:city": "Lublin",
                "addr:postcode": "20-843",
                "amenity": "pharmacy"
            },
            "geometry": {
                "type": "Point",
                "coordinates": [
                    22.54557002635198,
                    51.26369180301086
                ]
            }
        },
        {
            "type": "Feature",
            "properties": {
                "ref:csioz": 1158376,
                "name": "Doz Apteka. Dbam O Zdrowie",
                "addr:street": "Tarasowa",
                "addr:housenumber": "3",
                "addr:city": "Lublin",
                "addr:postcode": "20-819",
                "amenity": "pharmacy"
            },
            "geometry": {
                "type": "Point",
                "coordinates": [
                    22.520298408853638,
                    51.265880529604566
                ]
            }
        },
        {
            "type": "Feature",
            "properties": {
                "ref:csioz": 1158477,
                "name": "Doz Apteka. Dbam O Zdrowie Jutrzenka",
                "addr:street": "Jutrzenki",
                "addr:housenumber": "4",
                "addr:city": "Lublin",
                "addr:postcode": "20-538",
                "amenity": "pharmacy"
            },
            "geometry": {
                "type": "Point",
                "coordinates": [
                    22.523393109983875,
                    51.229129191927235
                ]
            }
        },
        {
            "type": "Feature",
            "properties": {
                "ref:csioz": 1158509,
                "name": "Vital Centrum",
                "addr:street": "Leonarda",
                "addr:housenumber": "1A",
                "addr:city": "Lublin",
                "addr:postcode": "20-625",
                "amenity": "pharmacy"
            },
            "geometry": {
                "type": "Point",
                "coordinates": [
                    22.517561247149143,
                    51.241214866377355
                ]
            }
        },
        {
            "type": "Feature",
            "properties": {
                "ref:csioz": 1158514,
                "name": "Apteka Prima",
                "addr:street": "Kleeberga",
                "addr:housenumber": "16",
                "addr:city": "Lublin",
                "addr:postcode": "20-243",
                "amenity": "pharmacy"
            },
            "geometry": {
                "type": "Point",
                "coordinates": [
                    22.588600774384386,
                    51.2572982334055
                ]
            }
        },
        {
            "type": "Feature",
            "properties": {
                "ref:csioz": 1158538,
                "addr:street": "Grażyny",
                "addr:housenumber": "18",
                "addr:city": "Lublin",
                "addr:postcode": "20-605",
                "amenity": "pharmacy"
            },
            "geometry": {
                "type": "Point",
                "coordinates": [
                    22.526789766890563,
                    51.24352131311589
                ]
            }
        },
        {
            "type": "Feature",
            "properties": {
                "ref:csioz": 1158696,
                "name": "Vital Centrum",
                "addr:street": "Zbigniewa Herberta",
                "addr:housenumber": "14",
                "addr:city": "Lublin",
                "addr:postcode": "20-468",
                "amenity": "pharmacy"
            },
            "geometry": {
                "type": "Point",
                "coordinates": [
                    22.5713684585602,
                    51.214375910605675
                ]
            }
        },
        {
            "type": "Feature",
            "properties": {
                "ref:csioz": 1158740,
                "addr:street": "Biskupa M. Fulmana",
                "addr:housenumber": "7",
                "addr:city": "Lublin",
                "addr:postcode": "20-492",
                "amenity": "pharmacy"
            },
            "geometry": {
                "type": "Point",
                "coordinates": [
                    22.54404500004415,
                    51.20050800001479
                ]
            }
        },
        {
            "type": "Feature",
            "properties": {
                "ref:csioz": 1158952,
                "addr:street": "Nadbystrzycka",
                "addr:housenumber": "25",
                "addr:city": "Lublin",
                "addr:postcode": "20-618",
                "amenity": "pharmacy"
            },
            "geometry": {
                "type": "Point",
                "coordinates": [
                    22.548493311805426,
                    51.23731053459537
                ]
            }
        },
        {
            "type": "Feature",
            "properties": {
                "ref:csioz": 1159110,
                "addr:street": "Górska",
                "addr:housenumber": "5",
                "addr:city": "Lublin",
                "addr:postcode": "20-863",
                "amenity": "pharmacy"
            },
            "geometry": {
                "type": "Point",
                "coordinates": [
                    22.55513100080291,
                    51.26726519670289
                ]
            }
        },
        {
            "type": "Feature",
            "properties": {
                "ref:csioz": 1161472,
                "name": "Apteka Magnolia",
                "addr:street": "Ruska",
                "addr:housenumber": "15 c",
                "addr:city": "Lublin",
                "addr:postcode": "20-126",
                "amenity": "pharmacy"
            },
            "geometry": {
                "type": "Point",
                "coordinates": [
                    22.574233147643724,
                    51.252426505527666
                ]
            }
        },
        {
            "type": "Feature",
            "properties": {
                "ref:csioz": 1161524,
                "addr:street": "Kołłątaja",
                "addr:housenumber": "3",
                "addr:city": "Lublin",
                "addr:postcode": "20-006",
                "amenity": "pharmacy"
            },
            "geometry": {
                "type": "Point",
                "coordinates": [
                    22.55799122950916,
                    51.247225221969785
                ]
            }
        },
        {
            "type": "Feature",
            "properties": {
                "ref:csioz": 1161535,
                "name": "Apteka Mgr Elżbieta Trojniak",
                "addr:street": "Szwoleżerów",
                "addr:housenumber": "6",
                "addr:city": "Lublin",
                "addr:postcode": "20-555",
                "amenity": "pharmacy"
            },
            "geometry": {
                "type": "Point",
                "coordinates": [
                    22.497224808074595,
                    51.237605615698676
                ]
            }
        },
        {
            "type": "Feature",
            "properties": {
                "ref:csioz": 1161570,
                "name": "Apteka Esculap Sp. Z O.O. Apteka Sda",
                "addr:street": "Konrada Wallenroda",
                "addr:housenumber": "2E",
                "addr:city": "Lublin",
                "addr:postcode": "20-607",
                "amenity": "pharmacy"
            },
            "geometry": {
                "type": "Point",
                "coordinates": [
                    22.527989468740316,
                    51.240138460210325
                ]
            }
        },
        {
            "type": "Feature",
            "properties": {
                "ref:csioz": 1161730,
                "name": "Dr. Max",
                "addr:street": "Zana T.",
                "addr:housenumber": "19",
                "addr:flats": "1",
                "addr:city": "Lublin",
                "addr:postcode": "20-601",
                "amenity": "pharmacy"
            },
            "geometry": {
                "type": "Point",
                "coordinates": [
                    22.51992600004245,
                    51.24054200001482
                ]
            }
        },
        {
            "type": "Feature",
            "properties": {
                "ref:csioz": 1161749,
                "name": "Apteka Dr Max",
                "addr:street": "al. Tysiąclecia",
                "addr:housenumber": "4",
                "addr:city": "Lublin",
                "addr:postcode": "20-121",
                "amenity": "pharmacy"
            },
            "geometry": {
                "type": "Point",
                "coordinates": [
                    22.57013425598654,
                    51.251820466008006
                ]
            }
        },
        {
            "type": "Feature",
            "properties": {
                "ref:csioz": 1161842,
                "addr:street": "Filaretów",
                "addr:housenumber": "44a",
                "addr:city": "Lublin",
                "addr:postcode": "20-609",
                "amenity": "pharmacy"
            },
            "geometry": {
                "type": "Point",
                "coordinates": [
                    22.531132000043137,
                    51.23779300001483
                ]
            }
        },
        {
            "type": "Feature",
            "properties": {
                "ref:csioz": 1162037,
                "name": "Apteka Mediki Pharma Zemborzycka",
                "addr:street": "Krężnicka",
                "addr:housenumber": "121",
                "addr:city": "Lublin",
                "amenity": "pharmacy"
            },
            "geometry": {
                "type": "Point",
                "coordinates": [
                    22.51039914020083,
                    51.174399194034336
                ]
            }
        },
        {
            "type": "Feature",
            "properties": {
                "ref:csioz": 1162076,
                "name": "Apteka Hipoteczna Tanie Leki",
                "addr:street": "Hipoteczna",
                "addr:housenumber": "4",
                "addr:city": "Lublin",
                "addr:postcode": "20-027",
                "amenity": "pharmacy"
            },
            "geometry": {
                "type": "Point",
                "coordinates": [
                    22.553250301155025,
                    51.246677170753834
                ]
            }
        },
        {
            "type": "Feature",
            "properties": {
                "ref:csioz": 1162196,
                "name": "Apteka Izabela Serwan",
                "addr:street": "Narutowicza",
                "addr:housenumber": "83",
                "addr:city": "Lublin",
                "addr:postcode": "20-119",
                "amenity": "pharmacy"
            },
            "geometry": {
                "type": "Point",
                "coordinates": [
                    22.552680901550364,
                    51.239693856207296
                ]
            }
        },
        {
            "type": "Feature",
            "properties": {
                "ref:csioz": 1162207,
                "name": "Apteka Centrum",
                "addr:street": "3 Maja",
                "addr:housenumber": "10",
                "addr:city": "Lublin",
                "addr:postcode": "20-078",
                "amenity": "pharmacy"
            },
            "geometry": {
                "type": "Point",
                "coordinates": [
                    22.557875000044742,
                    51.24957800001488
                ]
            }
        },
        {
            "type": "Feature",
            "properties": {
                "ref:csioz": 1162278,
                "name": "Apteka Vital Centrum",
                "addr:street": "Radości",
                "addr:housenumber": "9",
                "addr:city": "Lublin",
                "addr:postcode": "20-530",
                "amenity": "pharmacy"
            },
            "geometry": {
                "type": "Point",
                "coordinates": [
                    22.531095574552705,
                    51.227816195825454
                ]
            }
        },
        {
            "type": "Feature",
            "properties": {
                "ref:csioz": 1162450,
                "name": "Sulap",
                "addr:street": "Krańcowa",
                "addr:housenumber": "106",
                "addr:city": "Lublin",
                "addr:postcode": "20-320",
                "amenity": "pharmacy"
            },
            "geometry": {
                "type": "Point",
                "coordinates": [
                    22.590596833814704,
                    51.23250506128733
                ]
            }
        },
        {
            "type": "Feature",
            "properties": {
                "ref:csioz": 1162502,
                "name": "Apteka Panaceum",
                "addr:street": "al. Warszawska",
                "addr:housenumber": "53a",
                "addr:city": "Lublin",
                "addr:postcode": "20-803",
                "amenity": "pharmacy"
            },
            "geometry": {
                "type": "Point",
                "coordinates": [
                    22.518558125220224,
                    51.255689893066744
                ]
            }
        },
        {
            "type": "Feature",
            "properties": {
                "ref:csioz": 1162783,
                "name": "Apteka Mediki Pharma Św. Jana",
                "addr:street": "Staszica",
                "addr:housenumber": "22",
                "addr:city": "Lublin",
                "addr:postcode": "20-081",
                "amenity": "pharmacy"
            },
            "geometry": {
                "type": "Point",
                "coordinates": [
                    22.5644295165014,
                    51.25044945379449
                ]
            }
        },
        {
            "type": "Feature",
            "properties": {
                "ref:csioz": 1162811,
                "addr:street": "Lędzian",
                "addr:housenumber": "49",
                "addr:city": "Lublin",
                "addr:postcode": "20-828",
                "amenity": "pharmacy"
            },
            "geometry": {
                "type": "Point",
                "coordinates": [
                    22.489766141398192,
                    51.25702553099491
                ]
            }
        },
        {
            "type": "Feature",
            "properties": {
                "ref:csioz": 1162936,
                "addr:street": "Leonarda",
                "addr:housenumber": "18",
                "addr:city": "Lublin",
                "addr:postcode": "20-625",
                "amenity": "pharmacy"
            },
            "geometry": {
                "type": "Point",
                "coordinates": [
                    22.512310059481468,
                    51.23972668428496
                ]
            }
        },
        {
            "type": "Feature",
            "properties": {
                "ref:csioz": 1162957,
                "name": "Apteka Vita",
                "addr:street": "Śliwińskiego",
                "addr:housenumber": "1",
                "addr:city": "Lublin",
                "addr:postcode": "20-861",
                "amenity": "pharmacy"
            },
            "geometry": {
                "type": "Point",
                "coordinates": [
                    22.55494203233076,
                    51.27325587706581
                ]
            }
        },
        {
            "type": "Feature",
            "properties": {
                "ref:csioz": 1163585,
                "addr:street": "Harnasie",
                "addr:housenumber": "11",
                "addr:city": "Lublin",
                "addr:postcode": "20-857",
                "amenity": "pharmacy"
            },
            "geometry": {
                "type": "Point",
                "coordinates": [
                    22.545035299979126,
                    51.27541828529691
                ]
            }
        },
        {
            "type": "Feature",
            "properties": {
                "ref:csioz": 1163389,
                "addr:street": "Lubartowska",
                "addr:housenumber": "25",
                "addr:city": "Lublin",
                "addr:postcode": "20-115",
                "amenity": "pharmacy"
            },
            "geometry": {
                "type": "Point",
                "coordinates": [
                    22.566942368635377,
                    51.249802815325694
                ]
            }
        },
        {
            "type": "Feature",
            "properties": {
                "ref:csioz": 1163408,
                "addr:street": "Odlewnicza",
                "addr:housenumber": "1",
                "addr:city": "Lublin",
                "addr:postcode": "20-219",
                "amenity": "pharmacy"
            },
            "geometry": {
                "type": "Point",
                "coordinates": [
                    22.59608837603826,
                    51.24788101499952
                ]
            }
        },
        {
            "type": "Feature",
            "properties": {
                "ref:csioz": 1163419,
                "addr:street": "Tumidajskiego",
                "addr:housenumber": "2",
                "addr:city": "Lublin",
                "addr:postcode": "20-247",
                "amenity": "pharmacy"
            },
            "geometry": {
                "type": "Point",
                "coordinates": [
                    22.586579117900687,
                    51.258835308756765
                ]
            }
        },
        {
            "type": "Feature",
            "properties": {
                "ref:csioz": 1163424,
                "name": "Doz Apteka",
                "addr:street": "Wileńska",
                "addr:housenumber": "21",
                "addr:city": "Lublin",
                "addr:postcode": "20-603",
                "amenity": "pharmacy"
            },
            "geometry": {
                "type": "Point",
                "coordinates": [
                    22.51882127412468,
                    51.24225613090365
                ]
            }
        },
        {
            "type": "Feature",
            "properties": {
                "ref:csioz": 1163613,
                "addr:street": "Tymiankowa",
                "addr:housenumber": "7",
                "addr:city": "Lublin",
                "addr:postcode": "20-542",
                "amenity": "pharmacy"
            },
            "geometry": {
                "type": "Point",
                "coordinates": [
                    22.509964995457842,
                    51.22968687798751
                ]
            }
        },
        {
            "type": "Feature",
            "properties": {
                "ref:csioz": 1163659,
                "addr:street": "1-go Maja",
                "addr:housenumber": "36",
                "addr:city": "Lublin",
                "addr:postcode": "20-410",
                "amenity": "pharmacy"
            },
            "geometry": {
                "type": "Point",
                "coordinates": [
                    22.569257000045557,
                    51.232719000014846
                ]
            }
        },
        {
            "type": "Feature",
            "properties": {
                "ref:csioz": 1163729,
                "name": "Apteka Z Motylem",
                "addr:street": "Chodźki",
                "addr:housenumber": "3",
                "addr:city": "Lublin",
                "addr:postcode": "20-093",
                "amenity": "pharmacy"
            },
            "geometry": {
                "type": "Point",
                "coordinates": [
                    22.566651325819066,
                    51.26023933404298
                ]
            }
        },
        {
            "type": "Feature",
            "properties": {
                "ref:csioz": 1163732,
                "name": "Apteka Z Motylem",
                "addr:street": "Obywatelska",
                "addr:housenumber": "9",
                "addr:city": "Lublin",
                "addr:postcode": "20-092",
                "amenity": "pharmacy"
            },
            "geometry": {
                "type": "Point",
                "coordinates": [
                    22.56988273235065,
                    51.25902017456462
                ]
            }
        },
        {
            "type": "Feature",
            "properties": {
                "ref:csioz": 1163922,
                "addr:street": "Watykańska",
                "addr:housenumber": "6",
                "addr:flats": "\"3a, 4a\"",
                "addr:city": "Lublin",
                "addr:postcode": "20-538",
                "amenity": "pharmacy"
            },
            "geometry": {
                "type": "Point",
                "coordinates": [
                    22.522025702627023,
                    51.228423867735046
                ]
            }
        },
        {
            "type": "Feature",
            "properties": {
                "ref:csioz": 1163940,
                "addr:street": "Tatarakowa",
                "addr:housenumber": "28",
                "addr:city": "Lublin",
                "addr:postcode": "20-541",
                "amenity": "pharmacy"
            },
            "geometry": {
                "type": "Point",
                "coordinates": [
                    22.50747599191478,
                    51.23125951999731
                ]
            }
        },
        {
            "type": "Feature",
            "properties": {
                "ref:csioz": 1171926,
                "name": "Apteka Koralowa",
                "addr:street": "Koralowa",
                "addr:housenumber": "5",
                "addr:city": "Lublin",
                "addr:postcode": "20-853",
                "amenity": "pharmacy"
            },
            "geometry": {
                "type": "Point",
                "coordinates": [
                    22.485020643127722,
                    51.22469863374145
                ]
            }
        },
        {
            "type": "Feature",
            "properties": {
                "ref:csioz": 1178533,
                "addr:street": "1 MAJA",
                "addr:housenumber": "35",
                "addr:city": "Lublin",
                "addr:postcode": "20-410",
                "amenity": "pharmacy"
            },
            "geometry": {
                "type": "Point",
                "coordinates": [
                    22.605055089959333,
                    51.19868109748031
                ]
            }
        },
        {
            "type": "Feature",
            "properties": {
                "ref:csioz": 1184019,
                "name": "Super-Pharm Apteka",
                "addr:street": "Unii Lubelskiej",
                "addr:housenumber": "2",
                "addr:flats": "G 16 A",
                "addr:city": "Lublin",
                "addr:postcode": "20-108",
                "amenity": "pharmacy"
            },
            "geometry": {
                "type": "Point",
                "coordinates": [
                    22.57524400979133,
                    51.249899363420624
                ]
            }
        },
        {
            "type": "Feature",
            "properties": {
                "ref:csioz": 1190133,
                "name": "Dział Farmacji Szpitalnej",
                "addr:street": "Onyksowa",
                "addr:housenumber": "12",
                "addr:city": "Lublin",
                "amenity": "pharmacy"
            },
            "geometry": {
                "type": "Point",
                "coordinates": [
                    22.50075979569004,
                    51.22104645254257
                ]
            }
        },
        {
            "type": "Feature",
            "properties": {
                "ref:csioz": 1190165,
                "name": "Dział Farmacji Szpitalnej",
                "addr:street": "Onyksowa",
                "addr:housenumber": "10",
                "addr:city": "Lublin",
                "addr:postcode": "20-582",
                "amenity": "pharmacy"
            },
            "geometry": {
                "type": "Point",
                "coordinates": [
                    22.500664319855424,
                    51.22134915728425
                ]
            }
        },
        {
            "type": "Feature",
            "properties": {
                "ref:csioz": 1190314,
                "name": "Działa Farmacji Szpitalnej",
                "addr:street": "Kazimierza Jaczewskiego",
                "addr:housenumber": "2",
                "addr:city": "Lublin",
                "amenity": "pharmacy"
            },
            "geometry": {
                "type": "Point",
                "coordinates": [
                    22.563247799188247,
                    51.256103628834026
                ]
            }
        },
        {
            "type": "Feature",
            "properties": {
                "ref:csioz": 1192476,
                "name": "Nova",
                "addr:street": "Stanisława Węglarza",
                "addr:housenumber": "16",
                "addr:city": "Lublin",
                "addr:postcode": "20-141",
                "amenity": "pharmacy"
            },
            "geometry": {
                "type": "Point",
                "coordinates": [
                    22.581593176239423,
                    51.27020546246206
                ]
            }
        },
        {
            "type": "Feature",
            "properties": {
                "ref:csioz": 1202126,
                "name": "Apteka Rodzinna",
                "addr:street": "Sasankowa",
                "addr:housenumber": "8",
                "addr:city": "Lublin",
                "addr:postcode": "20-537",
                "amenity": "pharmacy"
            },
            "geometry": {
                "type": "Point",
                "coordinates": [
                    22.519701118880565,
                    51.23058308049458
                ]
            }
        },
        {
            "type": "Feature",
            "properties": {
                "ref:csioz": 1208446,
                "name": "Niezapominajka Dla Całej Rodziny",
                "addr:street": "Droga Męczenników Majdanka",
                "addr:housenumber": "28",
                "addr:city": "Lublin",
                "addr:postcode": "20-319",
                "amenity": "pharmacy"
            },
            "geometry": {
                "type": "Point",
                "coordinates": [
                    22.59086500004696,
                    51.23193300001488
                ]
            }
        },
        {
            "type": "Feature",
            "properties": {
                "ref:csioz": 1210281,
                "name": "Apteka Zakładowa",
                "addr:street": "Południowa",
                "addr:housenumber": "5",
                "addr:city": "Lublin",
                "amenity": "pharmacy"
            },
            "geometry": {
                "type": "Point",
                "coordinates": [
                    22.56999090170325,
                    51.204731776336395
                ]
            }
        },
        {
            "type": "Feature",
            "properties": {
                "ref:csioz": 1222349,
                "name": "Apteka Premium - Lek",
                "addr:street": "Zesłańców Sybiru",
                "addr:housenumber": "5",
                "addr:city": "Lublin",
                "addr:postcode": "20-008",
                "amenity": "pharmacy"
            },
            "geometry": {
                "type": "Point",
                "coordinates": [
                    22.55770707774553,
                    51.245396191880374
                ]
            }
        },
        {
            "type": "Feature",
            "properties": {
                "ref:csioz": 1157925,
                "name": "Apteka Eurofarm Agnieszka Rahnama",
                "addr:street": "Króla Rogera",
                "addr:housenumber": "3",
                "addr:city": "Lublin",
                "addr:postcode": "20-857",
                "amenity": "pharmacy"
            },
            "geometry": {
                "type": "Point",
                "coordinates": [
                    22.547290449115806,
                    51.27437891658864
                ]
            }
        },
        {
            "type": "Feature",
            "properties": {
                "ref:csioz": 1158873,
                "addr:street": "Junoszy",
                "addr:housenumber": "12",
                "addr:city": "Lublin",
                "addr:postcode": "20-058",
                "amenity": "pharmacy"
            },
            "geometry": {
                "type": "Point",
                "coordinates": [
                    22.539395030232654,
                    51.2526497553501
                ]
            }
        },
        {
            "type": "Feature",
            "properties": {
                "ref:csioz": 1122725,
                "name": "Same Dobre Apteki Apteka Eskulap Apteka Sda",
                "addr:street": "Obywatelska",
                "addr:housenumber": "4/6/8",
                "addr:city": "Lublin",
                "addr:postcode": "20-092",
                "amenity": "pharmacy"
            },
            "geometry": {
                "type": "Point",
                "coordinates": [
                    22.57148900004555,
                    51.25860500001492
                ]
            }
        },
        {
            "type": "Feature",
            "properties": {
                "ref:csioz": 1157410,
                "name": "Apteka Na Zana",
                "addr:street": "Tomasza Zana",
                "addr:housenumber": "27",
                "addr:flats": "1",
                "addr:city": "Lublin",
                "addr:postcode": "20-601",
                "amenity": "pharmacy"
            },
            "geometry": {
                "type": "Point",
                "coordinates": [
                    22.52164470919766,
                    51.2400923169196
                ]
            }
        },
        {
            "type": "Feature",
            "properties": {
                "ref:csioz": 1157464,
                "addr:street": "Nowy Świat",
                "addr:housenumber": "38",
                "addr:city": "Lublin",
                "addr:postcode": "20-418",
                "amenity": "pharmacy"
            },
            "geometry": {
                "type": "Point",
                "coordinates": [
                    22.563583993405,
                    51.22548653942268
                ]
            }
        },
        {
            "type": "Feature",
            "properties": {
                "ref:csioz": 1157478,
                "name": "Apteka Św. Łukasza",
                "addr:street": "Wallenroda Konrada",
                "addr:housenumber": "13",
                "addr:city": "Lublin",
                "addr:postcode": "20-607",
                "amenity": "pharmacy"
            },
            "geometry": {
                "type": "Point",
                "coordinates": [
                    22.524746679355772,
                    51.24217044548925
                ]
            }
        },
        {
            "type": "Feature",
            "properties": {
                "ref:csioz": 1157542,
                "addr:street": "Jutrzenki",
                "addr:housenumber": "10",
                "addr:flats": "10A",
                "addr:city": "Lublin",
                "addr:postcode": "20-538",
                "amenity": "pharmacy"
            },
            "geometry": {
                "type": "Point",
                "coordinates": [
                    22.521185631204528,
                    51.22934467130453
                ]
            }
        },
        {
            "type": "Feature",
            "properties": {
                "ref:csioz": 1157958,
                "name": "Apteka Alicja Doraczyńska-Szopa Józefa Petkowicz",
                "addr:street": "Okrzei",
                "addr:housenumber": "4",
                "addr:city": "Lublin",
                "addr:postcode": "20-128",
                "amenity": "pharmacy"
            },
            "geometry": {
                "type": "Point",
                "coordinates": [
                    22.582790035177332,
                    51.25536988006295
                ]
            }
        },
        {
            "type": "Feature",
            "properties": {
                "ref:csioz": 1158392,
                "addr:street": "Władysława Jagiełły",
                "addr:housenumber": "1",
                "addr:city": "Lublin",
                "addr:postcode": "20-281",
                "amenity": "pharmacy"
            },
            "geometry": {
                "type": "Point",
                "coordinates": [
                    22.629706782271047,
                    51.22046192961461
                ]
            }
        },
        {
            "type": "Feature",
            "properties": {
                "ref:csioz": 1158402,
                "addr:street": "Tarasowa",
                "addr:housenumber": "1",
                "addr:city": "Lublin",
                "addr:postcode": "20-819",
                "amenity": "pharmacy"
            },
            "geometry": {
                "type": "Point",
                "coordinates": [
                    22.52083992035253,
                    51.265239297007305
                ]
            }
        },
        {
            "type": "Feature",
            "properties": {
                "ref:csioz": 1158415,
                "name": "Apteka Sda",
                "addr:street": "Obywatelska",
                "addr:housenumber": "9",
                "addr:city": "Lublin",
                "addr:postcode": "20-092",
                "amenity": "pharmacy"
            },
            "geometry": {
                "type": "Point",
                "coordinates": [
                    22.56988273235065,
                    51.25902017456462
                ]
            }
        },
        {
            "type": "Feature",
            "properties": {
                "ref:csioz": 1158572,
                "addr:street": "Czarkowskiego",
                "addr:housenumber": "2",
                "addr:city": "Lublin",
                "addr:postcode": "20-735",
                "amenity": "pharmacy"
            },
            "geometry": {
                "type": "Point",
                "coordinates": [
                    22.500346975922504,
                    51.24053726477098
                ]
            }
        },
        {
            "type": "Feature",
            "properties": {
                "ref:csioz": 1158601,
                "name": "Vital Centrum",
                "addr:street": "Spadochroniarzy",
                "addr:housenumber": "7",
                "addr:city": "Lublin",
                "addr:postcode": "20-043",
                "amenity": "pharmacy"
            },
            "geometry": {
                "type": "Point",
                "coordinates": [
                    22.530800054637307,
                    51.248775325771305
                ]
            }
        },
        {
            "type": "Feature",
            "properties": {
                "ref:csioz": 1158625,
                "addr:street": "Langiewicza",
                "addr:housenumber": "16",
                "addr:city": "Lublin",
                "addr:postcode": "20-032",
                "amenity": "pharmacy"
            },
            "geometry": {
                "type": "Point",
                "coordinates": [
                    22.534444157311608,
                    51.246356130747294
                ]
            }
        },
        {
            "type": "Feature",
            "properties": {
                "ref:csioz": 1158765,
                "name": "\"Barbara Borsukiewicz, Małgorzata Borsukiewicz, Jerzy Borsukiewicz Spółka Jawna\"",
                "addr:street": "Topolowa",
                "addr:housenumber": "7",
                "addr:city": "Lublin",
                "addr:postcode": "20-352",
                "amenity": "pharmacy"
            },
            "geometry": {
                "type": "Point",
                "coordinates": [
                    22.5854540000466,
                    51.23165500001489
                ]
            }
        },
        {
            "type": "Feature",
            "properties": {
                "ref:csioz": 1158836,
                "name": "Apteka Mgr Farm. Barbara Stanicka",
                "addr:street": "Orla",
                "addr:housenumber": "10",
                "addr:city": "Lublin",
                "addr:postcode": "20-022",
                "amenity": "pharmacy"
            },
            "geometry": {
                "type": "Point",
                "coordinates": [
                    22.555697081868043,
                    51.24453141113733
                ]
            }
        },
        {
            "type": "Feature",
            "properties": {
                "ref:csioz": 1158918,
                "name": "Apteka Na Krańcowej",
                "addr:street": "Krańcowa",
                "addr:housenumber": "103",
                "addr:city": "Lublin",
                "addr:postcode": "20-320",
                "amenity": "pharmacy"
            },
            "geometry": {
                "type": "Point",
                "coordinates": [
                    22.5908262699543,
                    51.2307778908821
                ]
            }
        },
        {
            "type": "Feature",
            "properties": {
                "ref:csioz": 1158926,
                "addr:street": "Braci Wieniawskich",
                "addr:housenumber": "3",
                "addr:city": "Lublin",
                "addr:postcode": "20-844",
                "amenity": "pharmacy"
            },
            "geometry": {
                "type": "Point",
                "coordinates": [
                    22.5473482316046,
                    51.26324377304932
                ]
            }
        },
        {
            "type": "Feature",
            "properties": {
                "ref:csioz": 1158630,
                "name": "\"Apteka \"\"Świt\"\"\"",
                "addr:street": "Roztocze",
                "addr:housenumber": "33 a",
                "addr:city": "Lublin",
                "addr:postcode": "20-723",
                "amenity": "pharmacy"
            },
            "geometry": {
                "type": "Point",
                "coordinates": [
                    22.49196627678505,
                    51.23067278179354
                ]
            }
        },
        {
            "type": "Feature",
            "properties": {
                "ref:csioz": 1163573,
                "addr:street": "Popiełuszki",
                "addr:housenumber": "28",
                "addr:flats": "3",
                "addr:city": "Lublin",
                "addr:postcode": "20-052",
                "amenity": "pharmacy"
            },
            "geometry": {
                "type": "Point",
                "coordinates": [
                    22.535133000043302,
                    51.25333800001485
                ]
            }
        },
        {
            "type": "Feature",
            "properties": {
                "ref:csioz": 1161632,
                "name": "Apteka Dzieciątka Jezus",
                "addr:street": "Karmelicka",
                "addr:housenumber": "2",
                "addr:city": "Lublin",
                "addr:postcode": "20-081",
                "amenity": "pharmacy"
            },
            "geometry": {
                "type": "Point",
                "coordinates": [
                    22.563079981438847,
                    51.249815348573065
                ]
            }
        },
        {
            "type": "Feature",
            "properties": {
                "ref:csioz": 1161664,
                "addr:street": "Bolesława Chrobrego",
                "addr:housenumber": "6",
                "addr:city": "Lublin",
                "addr:postcode": "20-611",
                "amenity": "pharmacy"
            },
            "geometry": {
                "type": "Point",
                "coordinates": [
                    22.537685082600376,
                    51.24048568519383
                ]
            }
        },
        {
            "type": "Feature",
            "properties": {
                "ref:csioz": 1161902,
                "addr:street": "Olchowa",
                "addr:housenumber": "11",
                "addr:city": "Lublin",
                "addr:postcode": "20-338",
                "amenity": "pharmacy"
            },
            "geometry": {
                "type": "Point",
                "coordinates": [
                    22.585354439410157,
                    51.22831612419859
                ]
            }
        },
        {
            "type": "Feature",
            "properties": {
                "ref:csioz": 1161915,
                "addr:street": "Nałkowskich",
                "addr:housenumber": "112",
                "addr:city": "Lublin",
                "addr:postcode": "20-470",
                "amenity": "pharmacy"
            },
            "geometry": {
                "type": "Point",
                "coordinates": [
                    22.54407947479142,
                    51.2083331796397
                ]
            }
        },
        {
            "type": "Feature",
            "properties": {
                "ref:csioz": 1162362,
                "name": "Apteka Agavita",
                "addr:street": "Abramowicka",
                "addr:housenumber": "13B",
                "addr:city": "Lublin",
                "addr:postcode": "20-442",
                "amenity": "pharmacy"
            },
            "geometry": {
                "type": "Point",
                "coordinates": [
                    22.58607185132828,
                    51.204844612504786
                ]
            }
        },
        {
            "type": "Feature",
            "properties": {
                "ref:csioz": 1162638,
                "addr:street": "al. Tysiąclecia",
                "addr:housenumber": "5",
                "addr:city": "Lublin",
                "addr:postcode": "20-121",
                "amenity": "pharmacy"
            },
            "geometry": {
                "type": "Point",
                "coordinates": [
                    22.569417388490688,
                    51.25136862797288
                ]
            }
        },
        {
            "type": "Feature",
            "properties": {
                "ref:csioz": 1163003,
                "addr:street": "Kunickiego",
                "addr:housenumber": "252",
                "addr:city": "Lublin",
                "addr:postcode": "20-444",
                "amenity": "pharmacy"
            },
            "geometry": {
                "type": "Point",
                "coordinates": [
                    22.586530999066873,
                    51.20852020264652
                ]
            }
        },
        {
            "type": "Feature",
            "properties": {
                "ref:csioz": 1163034,
                "name": "Apteka Tilia S.C. Marta Kurek Białota Małgorzata Selwa",
                "addr:street": "Kościelna",
                "addr:housenumber": "7a",
                "addr:city": "Lublin",
                "addr:postcode": "20-307",
                "amenity": "pharmacy"
            },
            "geometry": {
                "type": "Point",
                "coordinates": [
                    22.573800321810484,
                    51.23695569972191
                ]
            }
        },
        {
            "type": "Feature",
            "properties": {
                "ref:csioz": 1163069,
                "addr:street": "Koryznowej",
                "addr:housenumber": "2G",
                "addr:city": "Lublin",
                "addr:postcode": "20-137",
                "amenity": "pharmacy"
            },
            "geometry": {
                "type": "Point",
                "coordinates": [
                    22.584877579865235,
                    51.25925815236408
                ]
            }
        },
        {
            "type": "Feature",
            "properties": {
                "ref:csioz": 1163151,
                "addr:street": "Głęboka",
                "addr:housenumber": "10",
                "addr:city": "Lublin",
                "addr:postcode": "20-612",
                "amenity": "pharmacy"
            },
            "geometry": {
                "type": "Point",
                "coordinates": [
                    22.548588558436183,
                    51.23984087014618
                ]
            }
        },
        {
            "type": "Feature",
            "properties": {
                "ref:csioz": 1163167,
                "name": "Doz Apteka.Dbam O Zdrowie. Na Dożynkowej",
                "addr:street": "Dożynkowa",
                "addr:housenumber": "1",
                "addr:city": "Lublin",
                "addr:postcode": "20-152",
                "amenity": "pharmacy"
            },
            "geometry": {
                "type": "Point",
                "coordinates": [
                    22.574227000045624,
                    51.27519800001494
                ]
            }
        },
        {
            "type": "Feature",
            "properties": {
                "ref:csioz": 1163328,
                "addr:street": "Aleje Racławickie",
                "addr:housenumber": "27",
                "addr:city": "Lublin",
                "addr:postcode": "20-049",
                "amenity": "pharmacy"
            },
            "geometry": {
                "type": "Point",
                "coordinates": [
                    22.531082594046747,
                    51.25087623020008
                ]
            }
        },
        {
            "type": "Feature",
            "properties": {
                "ref:csioz": 1163331,
                "addr:street": "Bramowa",
                "addr:housenumber": "2-8",
                "addr:city": "Lublin",
                "addr:postcode": "20-111",
                "amenity": "pharmacy"
            },
            "geometry": {
                "type": "Point",
                "coordinates": [
                    22.566865214397186,
                    51.24777731576022
                ]
            }
        },
        {
            "type": "Feature",
            "properties": {
                "ref:csioz": 1163344,
                "addr:street": "Droga Męcz. Majd.",
                "addr:housenumber": "20",
                "addr:city": "Lublin",
                "addr:postcode": "20-325",
                "amenity": "pharmacy"
            },
            "geometry": {
                "type": "Point",
                "coordinates": [
                    22.587225000046715,
                    51.23325400001488
                ]
            }
        },
        {
            "type": "Feature",
            "properties": {
                "ref:csioz": 1163353,
                "name": "Doz Apteka Dbam O Zdrowie",
                "addr:street": "Jana Pawła II",
                "addr:housenumber": "23",
                "addr:city": "Lublin",
                "addr:postcode": "20-535",
                "amenity": "pharmacy"
            },
            "geometry": {
                "type": "Point",
                "coordinates": [
                    22.514405377544513,
                    51.229047567431586
                ]
            }
        },
        {
            "type": "Feature",
            "properties": {
                "ref:csioz": 1163366,
                "name": "Doz Apteka",
                "addr:street": "Kalinowszczyzna",
                "addr:housenumber": "46",
                "addr:city": "Lublin",
                "addr:postcode": "20-129",
                "amenity": "pharmacy"
            },
            "geometry": {
                "type": "Point",
                "coordinates": [
                    22.584221301367094,
                    51.25227176544212
                ]
            }
        },
        {
            "type": "Feature",
            "properties": {
                "ref:csioz": 1163497,
                "name": "Apteka Salutis",
                "addr:street": "Bursztynowa",
                "addr:housenumber": "35",
                "addr:city": "Lublin",
                "addr:postcode": "20-576",
                "amenity": "pharmacy"
            },
            "geometry": {
                "type": "Point",
                "coordinates": [
                    22.52004556036157,
                    51.22305115565487
                ]
            }
        },
        {
            "type": "Feature",
            "properties": {
                "ref:csioz": 1163520,
                "addr:street": "Głuska",
                "addr:housenumber": "138",
                "addr:city": "Lublin",
                "addr:postcode": "20-380",
                "amenity": "pharmacy"
            },
            "geometry": {
                "type": "Point",
                "coordinates": [
                    22.597180607264516,
                    51.191705326700486
                ]
            }
        },
        {
            "type": "Feature",
            "properties": {
                "ref:csioz": 1163536,
                "addr:street": "Nałkowskich",
                "addr:housenumber": "108",
                "addr:city": "Lublin",
                "addr:postcode": "20-470",
                "amenity": "pharmacy"
            },
            "geometry": {
                "type": "Point",
                "coordinates": [
                    22.54437577151194,
                    51.210544362531834
                ]
            }
        },
        {
            "type": "Feature",
            "properties": {
                "ref:csioz": 1163764,
                "addr:street": "Chodźki Witolda",
                "addr:housenumber": "14",
                "addr:city": "Lublin",
                "addr:postcode": "20-093",
                "amenity": "pharmacy"
            },
            "geometry": {
                "type": "Point",
                "coordinates": [
                    22.560740540150004,
                    51.2660109534051
                ]
            }
        },
        {
            "type": "Feature",
            "properties": {
                "ref:csioz": 1165552,
                "name": "Apteka Prima",
                "addr:street": "Koncertowa",
                "addr:housenumber": "4D",
                "addr:flats": "G",
                "addr:city": "Lublin",
                "addr:postcode": "20-866",
                "amenity": "pharmacy"
            },
            "geometry": {
                "type": "Point",
                "coordinates": [
                    22.541228170712692,
                    51.26815055785139
                ]
            }
        },
        {
            "type": "Feature",
            "properties": {
                "ref:csioz": 1165784,
                "addr:street": "Kazimierza Jaczewskiego",
                "addr:housenumber": "2",
                "addr:city": "Lublin",
                "addr:postcode": "20-090",
                "amenity": "pharmacy"
            },
            "geometry": {
                "type": "Point",
                "coordinates": [
                    22.563247799188247,
                    51.256103628834026
                ]
            }
        },
        {
            "type": "Feature",
            "properties": {
                "ref:csioz": 1165807,
                "addr:street": "Bernardyńska",
                "addr:housenumber": "11a",
                "addr:city": "Lublin",
                "addr:postcode": "20-109",
                "amenity": "pharmacy"
            },
            "geometry": {
                "type": "Point",
                "coordinates": [
                    22.566268350678975,
                    51.24464814414892
                ]
            }
        },
        {
            "type": "Feature",
            "properties": {
                "ref:csioz": 1170037,
                "name": "Super-Pharm Apteka",
                "addr:street": "Wincentego Witosa",
                "addr:housenumber": "32",
                "addr:flats": "056A",
                "addr:city": "Lublin",
                "addr:postcode": "20-315",
                "amenity": "pharmacy"
            },
            "geometry": {
                "type": "Point",
                "coordinates": [
                    22.61258608233721,
                    51.23100532994021
                ]
            }
        },
        {
            "type": "Feature",
            "properties": {
                "ref:csioz": 1173206,
                "name": "Vital Centrum",
                "addr:street": "Juranda",
                "addr:housenumber": "7",
                "addr:city": "Lublin",
                "addr:postcode": "20-629",
                "amenity": "pharmacy"
            },
            "geometry": {
                "type": "Point",
                "coordinates": [
                    22.520942204767255,
                    51.23863924863391
                ]
            }
        },
        {
            "type": "Feature",
            "properties": {
                "ref:csioz": 1174978,
                "name": "Apteka Na Deptaku",
                "addr:street": "Krakowskie Przedmieście",
                "addr:housenumber": "23",
                "addr:city": "Lublin",
                "addr:postcode": "20-002",
                "amenity": "pharmacy"
            },
            "geometry": {
                "type": "Point",
                "coordinates": [
                    22.562898754467845,
                    51.248026529562715
                ]
            }
        },
        {
            "type": "Feature",
            "properties": {
                "ref:csioz": 1176089,
                "name": "Apteka Bajeczna",
                "addr:street": "Ignacego Daszyńskiego",
                "addr:housenumber": "3",
                "addr:city": "Lublin",
                "addr:postcode": "20-250",
                "amenity": "pharmacy"
            },
            "geometry": {
                "type": "Point",
                "coordinates": [
                    22.594867189504637,
                    51.26095466206023
                ]
            }
        },
        {
            "type": "Feature",
            "properties": {
                "ref:csioz": 1178273,
                "name": "Apteka Lubelska",
                "addr:street": "Pozytywistów",
                "addr:housenumber": "1",
                "addr:city": "Lublin",
                "addr:postcode": "20-884",
                "amenity": "pharmacy"
            },
            "geometry": {
                "type": "Point",
                "coordinates": [
                    22.537002664559047,
                    51.23195454872258
                ]
            }
        },
        {
            "type": "Feature",
            "properties": {
                "ref:csioz": 1184312,
                "name": "Apteka Lubelska",
                "addr:street": "Ametystowa",
                "addr:housenumber": "1",
                "addr:city": "Lublin",
                "addr:postcode": "20-577",
                "amenity": "pharmacy"
            },
            "geometry": {
                "type": "Point",
                "coordinates": [
                    22.510436206514807,
                    51.22199149660896
                ]
            }
        },
        {
            "type": "Feature",
            "properties": {
                "ref:csioz": 1183360,
                "name": "Całotygodniowa Apteka Familijna",
                "addr:street": "Radości",
                "addr:housenumber": "4",
                "addr:flats": "7",
                "addr:city": "Lublin",
                "addr:postcode": "20-530",
                "amenity": "pharmacy"
            },
            "geometry": {
                "type": "Point",
                "coordinates": [
                    22.528951132991224,
                    51.22839936615829
                ]
            }
        },
        {
            "type": "Feature",
            "properties": {
                "ref:csioz": 1185788,
                "name": "Apteka Rodzinna",
                "addr:street": "Onyksowa",
                "addr:housenumber": "7",
                "addr:flats": "U 1",
                "addr:city": "Lublin",
                "addr:postcode": "20-582",
                "amenity": "pharmacy"
            },
            "geometry": {
                "type": "Point",
                "coordinates": [
                    22.499098275847984,
                    51.2216542619533
                ]
            }
        },
        {
            "type": "Feature",
            "properties": {
                "ref:csioz": 1189798,
                "name": "Apteka Szpitalna",
                "addr:street": "Kraśnicka",
                "addr:housenumber": "100",
                "addr:city": "Lublin",
                "addr:postcode": "20-718",
                "amenity": "pharmacy"
            },
            "geometry": {
                "type": "Point",
                "coordinates": [
                    22.50379555654898,
                    51.23966456115477
                ]
            }
        },
        {
            "type": "Feature",
            "properties": {
                "ref:csioz": 1189804,
                "name": "Apteka Szpitalna",
                "addr:street": "Abramowicka",
                "addr:housenumber": "2",
                "addr:city": "Lublin",
                "addr:postcode": "20-442",
                "amenity": "pharmacy"
            },
            "geometry": {
                "type": "Point",
                "coordinates": [
                    22.58697451993118,
                    51.20462604582399
                ]
            }
        },
        {
            "type": "Feature",
            "properties": {
                "ref:csioz": 1189812,
                "name": "Apteka Szpitalna",
                "addr:street": "Mieczysława Biernackiego",
                "addr:housenumber": "9",
                "addr:city": "Lublin",
                "addr:postcode": "20-089",
                "amenity": "pharmacy"
            },
            "geometry": {
                "type": "Point",
                "coordinates": [
                    22.56743299489065,
                    51.25544916999164
                ]
            }
        },
        {
            "type": "Feature",
            "properties": {
                "ref:csioz": 1189820,
                "name": "Apteka Szpitalna",
                "addr:street": "Prof. A. Gębali",
                "addr:housenumber": "6",
                "addr:city": "Lublin",
                "addr:postcode": "20-093",
                "amenity": "pharmacy"
            },
            "geometry": {
                "type": "Point",
                "coordinates": [
                    22.48548440540019,
                    51.239240080998606
                ]
            }
        },
        {
            "type": "Feature",
            "properties": {
                "ref:csioz": 1189836,
                "name": "Apteka Szpitalna",
                "addr:street": "Kazimierza Jaczewskiego",
                "addr:housenumber": "7",
                "addr:city": "Lublin",
                "addr:postcode": "20-090",
                "amenity": "pharmacy"
            },
            "geometry": {
                "type": "Point",
                "coordinates": [
                    22.567024978631398,
                    51.25816531534555
                ]
            }
        },
        {
            "type": "Feature",
            "properties": {
                "ref:csioz": 1189848,
                "name": "Apteka Szpitalna",
                "addr:street": "Kazimierza Jaczewskiego",
                "addr:housenumber": "8",
                "addr:city": "Lublin",
                "addr:postcode": "20-954",
                "amenity": "pharmacy"
            },
            "geometry": {
                "type": "Point",
                "coordinates": [
                    22.564808703702685,
                    51.258244871395625
                ]
            }
        },
        {
            "type": "Feature",
            "properties": {
                "ref:csioz": 1189857,
                "name": "Apteka Szpitalna",
                "addr:street": "Grenadierów",
                "addr:housenumber": "3",
                "addr:city": "Lublin",
                "addr:postcode": "20-331",
                "amenity": "pharmacy"
            },
            "geometry": {
                "type": "Point",
                "coordinates": [
                    22.613143199742375,
                    51.22658685611129
                ]
            }
        },
        {
            "type": "Feature",
            "properties": {
                "ref:csioz": 1189861,
                "name": "Apteka Szpitalna",
                "addr:street": "Stanisława Staszica",
                "addr:housenumber": "16",
                "addr:city": "Lublin",
                "amenity": "pharmacy"
            },
            "geometry": {
                "type": "Point",
                "coordinates": [
                    22.563028753789624,
                    51.250517497747
                ]
            }
        },
        {
            "type": "Feature",
            "properties": {
                "ref:csioz": 1190111,
                "name": "Dział Farmacji Szpitalnej",
                "addr:street": "Kazimierza Przerwy-Tetmajera",
                "addr:housenumber": "21",
                "addr:city": "Lublin",
                "addr:postcode": "20-362",
                "amenity": "pharmacy"
            },
            "geometry": {
                "type": "Point",
                "coordinates": [
                    22.595233114113505,
                    51.22605726022705
                ]
            }
        },
        {
            "type": "Feature",
            "properties": {
                "ref:csioz": 1190201,
                "name": "Dział Farmacji Szpitalnej",
                "addr:street": "Witolda Chodźki",
                "addr:housenumber": "13",
                "addr:city": "Lublin",
                "amenity": "pharmacy"
            },
            "geometry": {
                "type": "Point",
                "coordinates": [
                    22.564165975667198,
                    51.26219709452151
                ]
            }
        },
        {
            "type": "Feature",
            "properties": {
                "ref:csioz": 1190217,
                "name": "Dział Farmacji Szpitalnej",
                "addr:street": "Młyńska",
                "addr:housenumber": "14 A",
                "addr:city": "Lublin",
                "addr:postcode": "20-406",
                "amenity": "pharmacy"
            },
            "geometry": {
                "type": "Point",
                "coordinates": [
                    22.56817274101122,
                    51.23311339122615
                ]
            }
        },
        {
            "type": "Feature",
            "properties": {
                "ref:csioz": 1190230,
                "name": "Dział Farmacji Szpitalnej",
                "addr:street": "Okopowa",
                "addr:housenumber": "3",
                "addr:city": "Lublin",
                "addr:postcode": "20-022",
                "amenity": "pharmacy"
            },
            "geometry": {
                "type": "Point",
                "coordinates": [
                    22.557496000044736,
                    51.245289000014864
                ]
            }
        },
        {
            "type": "Feature",
            "properties": {
                "ref:csioz": 1190282,
                "name": "Dział Farmacji Szpitalnej",
                "addr:street": "Lędzian",
                "addr:housenumber": "49",
                "addr:city": "Lublin",
                "amenity": "pharmacy"
            },
            "geometry": {
                "type": "Point",
                "coordinates": [
                    22.489766141398192,
                    51.25702553099491
                ]
            }
        },
        {
            "type": "Feature",
            "properties": {
                "ref:csioz": 1191150,
                "name": "Apteka Lubelska",
                "addr:street": "Władysława Kunickiego",
                "addr:housenumber": "141",
                "addr:city": "Lublin",
                "addr:postcode": "20-459",
                "amenity": "pharmacy"
            },
            "geometry": {
                "type": "Point",
                "coordinates": [
                    22.580301530153037,
                    51.21666302546417
                ]
            }
        },
        {
            "type": "Feature",
            "properties": {
                "ref:csioz": 1191169,
                "name": "Apteka Lubelska",
                "addr:street": "Wyżynna",
                "addr:housenumber": "41",
                "addr:city": "Lublin",
                "addr:postcode": "20-560",
                "amenity": "pharmacy"
            },
            "geometry": {
                "type": "Point",
                "coordinates": [
                    22.529608138387793,
                    51.22331849143868
                ]
            }
        },
        {
            "type": "Feature",
            "properties": {
                "ref:csioz": 1191378,
                "name": "Apteka Przyjazna",
                "addr:street": "Przyjaźni",
                "addr:housenumber": "38",
                "addr:city": "Lublin",
                "addr:postcode": "20-314",
                "amenity": "pharmacy"
            },
            "geometry": {
                "type": "Point",
                "coordinates": [
                    22.590385229918734,
                    51.243399041185555
                ]
            }
        },
        {
            "type": "Feature",
            "properties": {
                "ref:csioz": 1203614,
                "name": "Apteka Leki",
                "addr:street": "ks. Jerzego Popiełuszki",
                "addr:housenumber": "35 A",
                "addr:city": "Lublin",
                "addr:postcode": "20-034",
                "amenity": "pharmacy"
            },
            "geometry": {
                "type": "Point",
                "coordinates": [
                    22.532672000043146,
                    51.25436400001485
                ]
            }
        },
        {
            "type": "Feature",
            "properties": {
                "ref:csioz": 1194836,
                "name": "Apteka Hipoteczna",
                "addr:street": "Wincentego Witosa",
                "addr:housenumber": "6",
                "addr:city": "Lublin",
                "addr:postcode": "20-315",
                "amenity": "pharmacy"
            },
            "geometry": {
                "type": "Point",
                "coordinates": [
                    22.603829737096383,
                    51.23596019628475
                ]
            }
        },
        {
            "type": "Feature",
            "properties": {
                "ref:csioz": 1197442,
                "name": "Apteka Poręba",
                "addr:street": "Bursztynowa",
                "addr:housenumber": "1/U1",
                "addr:city": "Lublin",
                "addr:postcode": "20-576",
                "amenity": "pharmacy"
            },
            "geometry": {
                "type": "Point",
                "coordinates": [
                    22.50496900004164,
                    51.22458100001477
                ]
            }
        },
        {
            "type": "Feature",
            "properties": {
                "ref:csioz": 1197469,
                "name": "Apteka Mediki Pharma",
                "addr:street": "Zbożowa",
                "addr:housenumber": "22D",
                "addr:city": "Lublin",
                "addr:postcode": "20-827",
                "amenity": "pharmacy"
            },
            "geometry": {
                "type": "Point",
                "coordinates": [
                    22.50504613210011,
                    51.270162857987096
                ]
            }
        },
        {
            "type": "Feature",
            "properties": {
                "ref:csioz": 1199792,
                "name": "Ziko Apteka",
                "addr:street": "Krakowskie Przedmieście",
                "addr:housenumber": "70",
                "addr:city": "Lublin",
                "addr:postcode": "20-076",
                "amenity": "pharmacy"
            },
            "geometry": {
                "type": "Point",
                "coordinates": [
                    22.55431100004452,
                    51.247535000014864
                ]
            }
        },
        {
            "type": "Feature",
            "properties": {
                "ref:csioz": 1201620,
                "name": "Same Dobre Apteki Eskulap Ii Apteka Sda",
                "addr:street": "Koncertowa",
                "addr:housenumber": "4D",
                "addr:flats": "E2",
                "addr:city": "Lublin",
                "addr:postcode": "20-866",
                "amenity": "pharmacy"
            },
            "geometry": {
                "type": "Point",
                "coordinates": [
                    22.541228170712692,
                    51.26815055785139
                ]
            }
        },
        {
            "type": "Feature",
            "properties": {
                "ref:csioz": 1205704,
                "name": "Vita",
                "addr:street": "Spadochroniarzy",
                "addr:housenumber": "2",
                "addr:city": "Lublin",
                "addr:postcode": "20-043",
                "amenity": "pharmacy"
            },
            "geometry": {
                "type": "Point",
                "coordinates": [
                    22.53202492853437,
                    51.249992159798076
                ]
            }
        },
        {
            "type": "Feature",
            "properties": {
                "ref:csioz": 1205773,
                "name": "Apteka W Zone",
                "addr:street": "Zwycięska",
                "addr:housenumber": "6 A",
                "addr:city": "Lublin",
                "addr:postcode": "20-555",
                "amenity": "pharmacy"
            },
            "geometry": {
                "type": "Point",
                "coordinates": [
                    22.494870573529116,
                    51.23687757001399
                ]
            }
        },
        {
            "type": "Feature",
            "properties": {
                "ref:csioz": 1206234,
                "name": "Jedyna Taka",
                "addr:street": "Głęboka",
                "addr:housenumber": "8 A",
                "addr:city": "Lublin",
                "addr:postcode": "20-612",
                "amenity": "pharmacy"
            },
            "geometry": {
                "type": "Point",
                "coordinates": [
                    22.550109246010678,
                    51.23958254605454
                ]
            }
        },
        {
            "type": "Feature",
            "properties": {
                "ref:csioz": 1206523,
                "name": "1 Wojskowy Szpital Kliniczny Z Polikliniką - Samodzielny Publiczny Zakład Opieki Zdrowotnej W Lublinie",
                "addr:street": "aleje Racławickie",
                "addr:housenumber": "23",
                "addr:city": "Lublin",
                "addr:postcode": "20-049",
                "amenity": "pharmacy"
            },
            "geometry": {
                "type": "Point",
                "coordinates": [
                    22.534503572049914,
                    51.250635698111815
                ]
            }
        },
        {
            "type": "Feature",
            "properties": {
                "ref:csioz": 1206857,
                "name": "Vital Centrum",
                "addr:street": "Gospodarcza",
                "addr:housenumber": "2",
                "addr:city": "Lublin",
                "addr:postcode": "20-217",
                "amenity": "pharmacy"
            },
            "geometry": {
                "type": "Point",
                "coordinates": [
                    22.596551593464167,
                    51.242769928301044
                ]
            }
        },
        {
            "type": "Feature",
            "properties": {
                "ref:csioz": 1207325,
                "name": "Dział Farmacji Szpitalnej",
                "addr:street": "Kazimierza Jaczewskiego",
                "addr:housenumber": "2",
                "addr:city": "Lublin",
                "amenity": "pharmacy"
            },
            "geometry": {
                "type": "Point",
                "coordinates": [
                    22.563247799188247,
                    51.256103628834026
                ]
            }
        },
        {
            "type": "Feature",
            "properties": {
                "ref:csioz": 1210537,
                "name": "Dr Zdrowie",
                "addr:street": "Spółdzielczości Pracy",
                "addr:housenumber": "36",
                "addr:flats": "1009",
                "addr:city": "Lublin",
                "addr:postcode": "20-147",
                "amenity": "pharmacy"
            },
            "geometry": {
                "type": "Point",
                "coordinates": [
                    22.572404534598927,
                    51.26701104033003
                ]
            }
        },
        {
            "type": "Feature",
            "properties": {
                "ref:csioz": 1210615,
                "name": "Apteka Rodzinna",
                "addr:street": "Ułanów",
                "addr:housenumber": "10",
                "addr:city": "Lublin",
                "addr:postcode": "20-554",
                "amenity": "pharmacy"
            },
            "geometry": {
                "type": "Point",
                "coordinates": [
                    22.505134216175737,
                    51.23629240301083
                ]
            }
        },
        {
            "type": "Feature",
            "properties": {
                "ref:csioz": 1211975,
                "name": "Niezapominajka Dla Całej Rodziny",
                "addr:street": "Żelazowej Woli",
                "addr:housenumber": "1A",
                "addr:city": "Lublin",
                "addr:postcode": "20-853",
                "amenity": "pharmacy"
            },
            "geometry": {
                "type": "Point",
                "coordinates": [
                    22.54954914571627,
                    51.267741655067894
                ]
            }
        },
        {
            "type": "Feature",
            "properties": {
                "ref:csioz": 1212732,
                "name": "Apteka Nova",
                "addr:street": "Abramowicka",
                "addr:housenumber": "43",
                "addr:flats": "5",
                "addr:city": "Lublin",
                "addr:postcode": "20-442",
                "amenity": "pharmacy"
            },
            "geometry": {
                "type": "Point",
                "coordinates": [
                    22.584499917245584,
                    51.19454076300122
                ]
            }
        },
        {
            "type": "Feature",
            "properties": {
                "ref:csioz": 1213781,
                "name": "Niezapominajka Dla Całej Rodziny",
                "addr:street": "Jana Sawy",
                "addr:housenumber": "1B",
                "addr:city": "Lublin",
                "addr:postcode": "20-632",
                "amenity": "pharmacy"
            },
            "geometry": {
                "type": "Point",
                "coordinates": [
                    22.523904857449747,
                    51.237922000483124
                ]
            }
        },
        {
            "type": "Feature",
            "properties": {
                "ref:csioz": 1215556,
                "name": "Apteka Na Kunickiego",
                "addr:street": "Władysława Kunickiego",
                "addr:housenumber": "59",
                "addr:city": "Lublin",
                "addr:postcode": "20-422",
                "amenity": "pharmacy"
            },
            "geometry": {
                "type": "Point",
                "coordinates": [
                    22.573236288394764,
                    51.22574109828597
                ]
            }
        },
        {
            "type": "Feature",
            "properties": {
                "ref:csioz": 1215891,
                "name": "--",
                "addr:street": "Cypriana Godebskiego",
                "addr:housenumber": "1",
                "addr:city": "Lublin",
                "addr:postcode": "20-045",
                "amenity": "pharmacy"
            },
            "geometry": {
                "type": "Point",
                "coordinates": [
                    22.535801341832336,
                    51.248909044350306
                ]
            }
        },
        {
            "type": "Feature",
            "properties": {
                "ref:csioz": 1216278,
                "name": "Apteka Mediki",
                "addr:street": "Dra Witolda Chodźki",
                "addr:housenumber": "3A",
                "addr:flats": "1",
                "addr:city": "Lublin",
                "addr:postcode": "20-093",
                "amenity": "pharmacy"
            },
            "geometry": {
                "type": "Point",
                "coordinates": [
                    22.56748098304929,
                    51.26002602365346
                ]
            }
        },
        {
            "type": "Feature",
            "properties": {
                "ref:csioz": 1216705,
                "name": "Neuro Apteka",
                "addr:street": "Abramowicka",
                "addr:housenumber": "2",
                "addr:city": "Lublin",
                "addr:postcode": "20-442",
                "amenity": "pharmacy"
            },
            "geometry": {
                "type": "Point",
                "coordinates": [
                    22.58697451993118,
                    51.20462604582399
                ]
            }
        },
        {
            "type": "Feature",
            "properties": {
                "ref:csioz": 1217714,
                "name": "Apteka Lawenda",
                "addr:street": "Wojciecha Żywnego",
                "addr:housenumber": "8",
                "addr:city": "Lublin",
                "addr:postcode": "20-854",
                "amenity": "pharmacy"
            },
            "geometry": {
                "type": "Point",
                "coordinates": [
                    22.548855982618527,
                    51.26889824813991
                ]
            }
        },
        {
            "type": "Feature",
            "properties": {
                "ref:csioz": 1219285,
                "name": "Akademicka",
                "addr:street": "Akademicka",
                "addr:housenumber": "5",
                "addr:city": "Lublin",
                "addr:postcode": "20-033",
                "amenity": "pharmacy"
            },
            "geometry": {
                "type": "Point",
                "coordinates": [
                    22.542726509160246,
                    51.24668331067656
                ]
            }
        },
        {
            "type": "Feature",
            "properties": {
                "ref:csioz": 1220800,
                "name": "Apteka Gemini",
                "addr:street": "Unicka",
                "addr:housenumber": "4",
                "addr:city": "Lublin",
                "addr:postcode": "20-126",
                "amenity": "pharmacy"
            },
            "geometry": {
                "type": "Point",
                "coordinates": [
                    22.573303659915418,
                    51.25828426633089
                ]
            }
        },
        {
            "type": "Feature",
            "properties": {
                "ref:csioz": 1221378,
                "name": "Ziko Apteka",
                "addr:street": "Nadstawna",
                "addr:housenumber": "2",
                "addr:city": "Lublin",
                "addr:postcode": "20-120",
                "amenity": "pharmacy"
            },
            "geometry": {
                "type": "Point",
                "coordinates": [
                    22.570884835319482,
                    51.252533847284404
                ]
            }
        },
        {
            "type": "Feature",
            "properties": {
                "ref:csioz": 1222554,
                "name": "Apteka Hipoteczna",
                "addr:street": "Spokojna",
                "addr:housenumber": "5",
                "addr:city": "Lublin",
                "addr:postcode": "20-074",
                "amenity": "pharmacy"
            },
            "geometry": {
                "type": "Point",
                "coordinates": [
                    22.553870935288693,
                    51.25036736917743
                ]
            }
        },
        {
            "type": "Feature",
            "properties": {
                "ref:csioz": 1224820,
                "name": "Dr Zdrowie",
                "addr:street": "Aleja Spółdzielczości Pracy",
                "addr:housenumber": "88",
                "addr:flats": "38",
                "addr:city": "Lublin",
                "addr:postcode": "20-147",
                "amenity": "pharmacy"
            },
            "geometry": {
                "type": "Point",
                "coordinates": [
                    22.571362139935594,
                    51.28326668274849
                ]
            }
        },
        {
            "type": "Feature",
            "properties": {
                "ref:csioz": 1226774,
                "name": "Apteka Andria",
                "addr:street": "Krężnicka",
                "addr:housenumber": "1A",
                "addr:city": "Lublin",
                "addr:postcode": "20-518",
                "amenity": "pharmacy"
            },
            "geometry": {
                "type": "Point",
                "coordinates": [
                    22.526922017693938,
                    51.19451057560208
                ]
            }
        },
        {
            "type": "Feature",
            "properties": {
                "ref:csioz": 1229303,
                "addr:street": "Żołnierzy Niepodległej",
                "addr:housenumber": "8",
                "addr:city": "Lublin",
                "addr:postcode": "20-078",
                "amenity": "pharmacy"
            },
            "geometry": {
                "type": "Point",
                "coordinates": [
                    22.556408152127457,
                    51.24869142862933
                ]
            }
        },
        {
            "type": "Feature",
            "properties": {
                "ref:csioz": 1212668,
                "name": "Prima",
                "addr:street": "Sympatyczna",
                "addr:housenumber": "9",
                "addr:city": "Lublin",
                "addr:postcode": "20-530",
                "amenity": "pharmacy"
            },
            "geometry": {
                "type": "Point",
                "coordinates": [
                    22.526632327461147,
                    51.22852045015441
                ]
            }
        },
        {
            "type": "Feature",
            "properties": {
                "ref:csioz": 1203286,
                "name": "Nasza Apteka",
                "addr:street": "Władysława Jagiełły",
                "addr:housenumber": "16",
                "addr:city": "Lublin",
                "addr:postcode": "20-281",
                "amenity": "pharmacy"
            },
            "geometry": {
                "type": "Point",
                "coordinates": [
                    22.63361406963675,
                    51.22065656921548
                ]
            }
        },
        {
            "type": "Feature",
            "properties": {
                "ref:csioz": 1230344,
                "name": "Niezapominajka Dla Całej Rodziny",
                "addr:street": "Lwowska",
                "addr:housenumber": "12",
                "addr:flats": "U1",
                "addr:city": "Lublin",
                "addr:postcode": "20-128",
                "amenity": "pharmacy"
            },
            "geometry": {
                "type": "Point",
                "coordinates": [
                    22.580946977920053,
                    51.256037624328115
                ]
            }
        }
    ]
}