{
    "type": "FeatureCollection",
    "name": "JPT_KOD_JE_3211",
    "crs": {
        "type": "name",
        "properties": {
            "name": "urn:ogc:def:crs:EPSG::4326"
        }
    },
    "features": [
        {
            "type": "Feature",
            "properties": {
                "ref:csioz": 1126183,
                "name": "Apteka Dla Ciebie",
                "addr:street": "Welecka",
                "addr:housenumber": "2",
                "addr:city": "Mierzyn",
                "addr:postcode": "72-009",
                "amenity": "pharmacy"
            },
            "geometry": {
                "type": "Point",
                "coordinates": [
                    14.469925450706244,
                    53.429018354973984
                ]
            }
        },
        {
            "type": "Feature",
            "properties": {
                "ref:csioz": 1136558,
                "name": "Samo Zdrowie",
                "addr:street": "Piastów",
                "addr:housenumber": "43",
                "addr:city": "Police",
                "addr:postcode": "72-010",
                "amenity": "pharmacy"
            },
            "geometry": {
                "type": "Point",
                "coordinates": [
                    14.539885460206946,
                    53.593953605340985
                ]
            }
        },
        {
            "type": "Feature",
            "properties": {
                "ref:csioz": 1140320,
                "name": "Apteka Puls Mierzyn",
                "addr:street": "Welecka",
                "addr:housenumber": "38",
                "addr:city": "Mierzyn",
                "addr:postcode": "72-006",
                "amenity": "pharmacy"
            },
            "geometry": {
                "type": "Point",
                "coordinates": [
                    14.46600320746546,
                    53.42941970607988
                ]
            }
        },
        {
            "type": "Feature",
            "properties": {
                "ref:csioz": 1152034,
                "name": "Apteka Na Górnej",
                "addr:street": "Górna",
                "addr:housenumber": "18A",
                "addr:city": "Bezrzecze",
                "addr:postcode": "71-218",
                "amenity": "pharmacy"
            },
            "geometry": {
                "type": "Point",
                "coordinates": [
                    14.451381631214396,
                    53.462335814111135
                ]
            }
        },
        {
            "type": "Feature",
            "properties": {
                "ref:csioz": 1152114,
                "name": "Apteka Dla Ciebie",
                "addr:street": "Zamenhofa",
                "addr:housenumber": "46",
                "addr:city": "Police",
                "addr:postcode": "72-010",
                "amenity": "pharmacy"
            },
            "geometry": {
                "type": "Point",
                "coordinates": [
                    14.552619306283448,
                    53.53942344743152
                ]
            }
        },
        {
            "type": "Feature",
            "properties": {
                "ref:csioz": 1167181,
                "name": "Apteka Puls",
                "addr:street": "kard. Stefana Wyszyńskiego",
                "addr:housenumber": "13",
                "addr:city": "Police",
                "addr:postcode": "72-010",
                "amenity": "pharmacy"
            },
            "geometry": {
                "type": "Point",
                "coordinates": [
                    14.547285888337282,
                    53.53958138493466
                ]
            }
        },
        {
            "type": "Feature",
            "properties": {
                "ref:csioz": 1167321,
                "name": "Apteka Piastowska",
                "addr:street": "Bankowa",
                "addr:housenumber": "24a",
                "addr:city": "Police",
                "addr:postcode": "72-010",
                "amenity": "pharmacy"
            },
            "geometry": {
                "type": "Point",
                "coordinates": [
                    14.56145033624678,
                    53.542291891124336
                ]
            }
        },
        {
            "type": "Feature",
            "properties": {
                "ref:csioz": 1168809,
                "name": "Samo Zdrowie",
                "addr:street": "Grunwaldzka",
                "addr:housenumber": "11",
                "addr:city": "Police",
                "addr:postcode": "72-010",
                "amenity": "pharmacy"
            },
            "geometry": {
                "type": "Point",
                "coordinates": [
                    14.569268243005446,
                    53.551582118079494
                ]
            }
        },
        {
            "type": "Feature",
            "properties": {
                "ref:csioz": 1174666,
                "name": "Punkt Apteczny Dołuje",
                "addr:street": "Daniela",
                "addr:housenumber": "3",
                "addr:city": "Dołuje",
                "addr:postcode": "72-002",
                "amenity": "pharmacy"
            },
            "geometry": {
                "type": "Point",
                "coordinates": [
                    14.410132406047047,
                    53.43639386788262
                ]
            }
        },
        {
            "type": "Feature",
            "properties": {
                "ref:csioz": 1176748,
                "addr:street": "Szczecińska",
                "addr:housenumber": "52",
                "addr:city": "Tanowo",
                "addr:postcode": "72-015",
                "amenity": "pharmacy"
            },
            "geometry": {
                "type": "Point",
                "coordinates": [
                    14.46629434143112,
                    53.543663624028575
                ]
            }
        },
        {
            "type": "Feature",
            "properties": {
                "ref:csioz": 1211225,
                "name": "Doz Apteka Dbam O Zdrowie",
                "addr:street": "Górna",
                "addr:housenumber": "7A",
                "addr:city": "Bezrzecze",
                "addr:postcode": "71-218",
                "amenity": "pharmacy"
            },
            "geometry": {
                "type": "Point",
                "coordinates": [
                    14.454847636065029,
                    53.460430303252835
                ]
            }
        },
        {
            "type": "Feature",
            "properties": {
                "ref:csioz": 1221781,
                "name": "Doz Apteka. Dbam O Zdrowie.Centrum Leków",
                "addr:street": "Szczecińska",
                "addr:housenumber": "13",
                "addr:city": "Dobra",
                "addr:postcode": "72-210",
                "amenity": "pharmacy"
            },
            "geometry": {
                "type": "Point",
                "coordinates": [
                    14.389116565628559,
                    53.487416278534525
                ]
            }
        },
        {
            "type": "Feature",
            "properties": {
                "ref:csioz": 1147285,
                "addr:street": "Siedlecka",
                "addr:housenumber": "2",
                "addr:city": "Police",
                "addr:postcode": "72-010",
                "amenity": "pharmacy"
            },
            "geometry": {
                "type": "Point",
                "coordinates": [
                    14.561487293401125,
                    53.54670044933054
                ]
            }
        },
        {
            "type": "Feature",
            "properties": {
                "ref:csioz": 1151662,
                "name": "Punkt Apteczny 81-114",
                "addr:street": "Kuźnicka",
                "addr:housenumber": "1",
                "addr:city": "Police",
                "addr:postcode": "72-010",
                "amenity": "pharmacy"
            },
            "geometry": {
                "type": "Point",
                "coordinates": [
                    14.549813737303388,
                    53.570678267599384
                ]
            }
        },
        {
            "type": "Feature",
            "properties": {
                "ref:csioz": 1151903,
                "name": "Macierzanka",
                "addr:street": "Koralowa",
                "addr:housenumber": "90",
                "addr:flats": "2",
                "addr:city": "Bezrzecze",
                "addr:postcode": "71-220",
                "amenity": "pharmacy"
            },
            "geometry": {
                "type": "Point",
                "coordinates": [
                    14.464107134506971,
                    53.45615442451904
                ]
            }
        },
        {
            "type": "Feature",
            "properties": {
                "ref:csioz": 1167313,
                "name": "Apteka Policka",
                "addr:street": "26 Kwietnia",
                "addr:housenumber": "7",
                "addr:city": "Police",
                "addr:postcode": "72-009",
                "amenity": "pharmacy"
            },
            "geometry": {
                "type": "Point",
                "coordinates": [
                    14.539686954662372,
                    53.540325155573036
                ]
            }
        },
        {
            "type": "Feature",
            "properties": {
                "ref:csioz": 1167359,
                "name": "Apteka Portowa",
                "addr:housenumber": "44",
                "addr:city": "Warzymice",
                "addr:postcode": "72-005",
                "amenity": "pharmacy"
            },
            "geometry": {
                "type": "Point",
                "coordinates": [
                    14.481140269898633,
                    53.386067162132676
                ]
            }
        },
        {
            "type": "Feature",
            "properties": {
                "ref:csioz": 1168872,
                "name": "Centrum Zdrowia",
                "addr:street": "Zygmunta Wróblewskiego",
                "addr:housenumber": "1",
                "addr:city": "Police",
                "addr:postcode": "72-010",
                "amenity": "pharmacy"
            },
            "geometry": {
                "type": "Point",
                "coordinates": [
                    14.559779898106775,
                    53.546288828673426
                ]
            }
        },
        {
            "type": "Feature",
            "properties": {
                "ref:csioz": 1168929,
                "name": "Gemini",
                "addr:street": "kard. Stefana Wyszyńskiego",
                "addr:housenumber": "6L",
                "addr:city": "Police",
                "addr:postcode": "72-010",
                "amenity": "pharmacy"
            },
            "geometry": {
                "type": "Point",
                "coordinates": [
                    14.545810068216234,
                    53.539770870498515
                ]
            }
        },
        {
            "type": "Feature",
            "properties": {
                "ref:csioz": 1169267,
                "name": "Macierzanka",
                "addr:street": "WOP",
                "addr:housenumber": "29A",
                "addr:city": "Trzebież",
                "addr:postcode": "72-020",
                "amenity": "pharmacy"
            },
            "geometry": {
                "type": "Point",
                "coordinates": [
                    14.509232999906214,
                    53.65687400002145
                ]
            }
        },
        {
            "type": "Feature",
            "properties": {
                "ref:csioz": 1182959,
                "name": "Centrum Zdrowia",
                "addr:street": "Bankowa",
                "addr:housenumber": "5",
                "addr:flats": "U1",
                "addr:city": "Police",
                "addr:postcode": "72-010",
                "amenity": "pharmacy"
            },
            "geometry": {
                "type": "Point",
                "coordinates": [
                    14.551025206652035,
                    53.541950294615106
                ]
            }
        },
        {
            "type": "Feature",
            "properties": {
                "ref:csioz": 1183562,
                "name": "Punkt Apteczny Efekt Apotheke Punkt",
                "addr:housenumber": "1B",
                "addr:city": "Lubieszyn",
                "addr:postcode": "72-002",
                "amenity": "pharmacy"
            },
            "geometry": {
                "type": "Point",
                "coordinates": [
                    14.393140940871595,
                    53.447293414010815
                ]
            }
        },
        {
            "type": "Feature",
            "properties": {
                "ref:csioz": 1210677,
                "name": "Zdrowie",
                "addr:street": "Przyjaźni",
                "addr:housenumber": "6",
                "addr:city": "Police",
                "addr:postcode": "72-010",
                "amenity": "pharmacy"
            },
            "geometry": {
                "type": "Point",
                "coordinates": [
                    14.542793596189561,
                    53.54004467548818
                ]
            }
        },
        {
            "type": "Feature",
            "properties": {
                "ref:csioz": 1215524,
                "name": "Panaceum",
                "addr:housenumber": "56",
                "addr:city": "Przecław",
                "addr:postcode": "72-005",
                "amenity": "pharmacy"
            },
            "geometry": {
                "type": "Point",
                "coordinates": [
                    14.474097364481816,
                    53.379822680817426
                ]
            }
        },
        {
            "type": "Feature",
            "properties": {
                "ref:csioz": 1229864,
                "name": "Plastmed Maciej Pastucha",
                "addr:street": "Dębowa",
                "addr:housenumber": "3",
                "addr:city": "Dobra",
                "addr:postcode": "72-003",
                "amenity": "pharmacy"
            },
            "geometry": {
                "type": "Point",
                "coordinates": [
                    14.388918728400311,
                    53.49514310576652
                ]
            }
        },
        {
            "type": "Feature",
            "properties": {
                "ref:csioz": 1230146,
                "name": "Stowarzyszenie Hospicjum Królowej Apostołów",
                "addr:street": "Szczecińska",
                "addr:housenumber": "12",
                "addr:city": "Tanowo",
                "addr:postcode": "72-004",
                "amenity": "pharmacy"
            },
            "geometry": {
                "type": "Point",
                "coordinates": [
                    14.465818683612197,
                    53.53693974635746
                ]
            }
        }
    ]
}