{
    "type": "FeatureCollection",
    "name": "JPT_KOD_JE_1406",
    "crs": {
        "type": "name",
        "properties": {
            "name": "urn:ogc:def:crs:EPSG::4326"
        }
    },
    "features": [
        {
            "type": "Feature",
            "properties": {
                "ref:csioz": 1094454,
                "addr:street": "Nowy Rynek",
                "addr:housenumber": "6",
                "addr:city": "Błędów",
                "addr:postcode": "05-620",
                "amenity": "pharmacy"
            },
            "geometry": {
                "type": "Point",
                "coordinates": [
                    20.696192986143068,
                    51.77779546132681
                ]
            }
        },
        {
            "type": "Feature",
            "properties": {
                "ref:csioz": 1094626,
                "addr:street": "Dziarnowska",
                "addr:housenumber": "11/13",
                "addr:city": "Mogielnica",
                "addr:postcode": "05-640",
                "amenity": "pharmacy"
            },
            "geometry": {
                "type": "Point",
                "coordinates": [
                    20.72465835962913,
                    51.69357387452038
                ]
            }
        },
        {
            "type": "Feature",
            "properties": {
                "ref:csioz": 1172407,
                "name": "Farmacja I Uroda",
                "addr:street": "Grójecka",
                "addr:housenumber": "3",
                "addr:city": "Mogielnica",
                "addr:postcode": "05-640",
                "amenity": "pharmacy"
            },
            "geometry": {
                "type": "Point",
                "coordinates": [
                    20.723983779302372,
                    51.694571021831635
                ]
            }
        },
        {
            "type": "Feature",
            "properties": {
                "ref:csioz": 1094639,
                "name": "Alma",
                "addr:street": "Dziarnowska",
                "addr:housenumber": "40",
                "addr:city": "Mogielnica",
                "addr:postcode": "05-640",
                "amenity": "pharmacy"
            },
            "geometry": {
                "type": "Point",
                "coordinates": [
                    20.725803261446426,
                    51.69078738272439
                ]
            }
        },
        {
            "type": "Feature",
            "properties": {
                "ref:csioz": 1214997,
                "name": "Lawendowa",
                "addr:street": "Kościelna",
                "addr:housenumber": "2",
                "addr:city": "Mogielnica",
                "addr:postcode": "05-640",
                "amenity": "pharmacy"
            },
            "geometry": {
                "type": "Point",
                "coordinates": [
                    20.721189042226623,
                    51.6934816728206
                ]
            }
        },
        {
            "type": "Feature",
            "properties": {
                "ref:csioz": 1094440,
                "name": "Papaya 3",
                "addr:street": "Szkolna",
                "addr:housenumber": "4",
                "addr:city": "Belsk Duży",
                "addr:postcode": "05-622",
                "amenity": "pharmacy"
            },
            "geometry": {
                "type": "Point",
                "coordinates": [
                    20.807484839868906,
                    51.82447783185353
                ]
            }
        },
        {
            "type": "Feature",
            "properties": {
                "ref:csioz": 1094582,
                "name": "Dr. Max",
                "addr:street": "ks. Piotra Skargi",
                "addr:housenumber": "10A",
                "addr:city": "Grójec",
                "addr:postcode": "05-600",
                "amenity": "pharmacy"
            },
            "geometry": {
                "type": "Point",
                "coordinates": [
                    20.867584751977073,
                    51.86740722040605
                ]
            }
        },
        {
            "type": "Feature",
            "properties": {
                "ref:csioz": 1094618,
                "name": "Zdrówko",
                "addr:street": "Czerska",
                "addr:housenumber": "4B",
                "addr:city": "Jasieniec",
                "addr:postcode": "05-604",
                "amenity": "pharmacy"
            },
            "geometry": {
                "type": "Point",
                "coordinates": [
                    20.940938753580628,
                    51.81995287332863
                ]
            }
        },
        {
            "type": "Feature",
            "properties": {
                "ref:csioz": 1110758,
                "addr:street": "Kazimierza Pułaskiego",
                "addr:housenumber": "2",
                "addr:flats": "3B",
                "addr:city": "Warka",
                "addr:postcode": "05-660",
                "amenity": "pharmacy"
            },
            "geometry": {
                "type": "Point",
                "coordinates": [
                    21.20193862849565,
                    51.78925760804154
                ]
            }
        },
        {
            "type": "Feature",
            "properties": {
                "ref:csioz": 1117254,
                "name": "Papaya 2",
                "addr:street": "Armii Krajowej",
                "addr:housenumber": "50B",
                "addr:flats": "1.8",
                "addr:city": "Grójec",
                "addr:postcode": "05-600",
                "amenity": "pharmacy"
            },
            "geometry": {
                "type": "Point",
                "coordinates": [
                    20.865526934616557,
                    51.87369167408326
                ]
            }
        },
        {
            "type": "Feature",
            "properties": {
                "ref:csioz": 1118900,
                "name": "Urtica Mgr Farm. Anna Jasiorowska",
                "addr:street": "Józefa Piłsudskiego",
                "addr:housenumber": "33",
                "addr:city": "Grójec",
                "addr:postcode": "05-600",
                "amenity": "pharmacy"
            },
            "geometry": {
                "type": "Point",
                "coordinates": [
                    20.875063702922137,
                    51.86501598099835
                ]
            }
        },
        {
            "type": "Feature",
            "properties": {
                "ref:csioz": 1174171,
                "name": "Ziko",
                "addr:street": "Józefa Piłsudskiego",
                "addr:housenumber": "4",
                "addr:city": "Grójec",
                "addr:postcode": "05-600",
                "amenity": "pharmacy"
            },
            "geometry": {
                "type": "Point",
                "coordinates": [
                    20.867747550071822,
                    51.86545178795563
                ]
            }
        },
        {
            "type": "Feature",
            "properties": {
                "ref:csioz": 1212621,
                "name": "Farmacja I Uroda",
                "addr:street": "Wójtowska",
                "addr:housenumber": "1",
                "addr:city": "Warka",
                "addr:postcode": "05-660",
                "amenity": "pharmacy"
            },
            "geometry": {
                "type": "Point",
                "coordinates": [
                    21.18636862773988,
                    51.78360107452183
                ]
            }
        },
        {
            "type": "Feature",
            "properties": {
                "ref:csioz": 1094479,
                "name": "Alanova",
                "addr:street": "Warszawska",
                "addr:housenumber": "16",
                "addr:city": "Goszczyn",
                "addr:postcode": "05-610",
                "amenity": "pharmacy"
            },
            "geometry": {
                "type": "Point",
                "coordinates": [
                    20.85223613383868,
                    51.73283749155443
                ]
            }
        },
        {
            "type": "Feature",
            "properties": {
                "ref:csioz": 1094487,
                "name": "Papaya 1",
                "addr:street": "Armii Krajowej",
                "addr:housenumber": "7",
                "addr:city": "Grójec",
                "addr:postcode": "05-600",
                "amenity": "pharmacy"
            },
            "geometry": {
                "type": "Point",
                "coordinates": [
                    20.865754517698228,
                    51.867252262461705
                ]
            }
        },
        {
            "type": "Feature",
            "properties": {
                "ref:csioz": 1094498,
                "name": "Codzienna",
                "addr:street": "Bankowa",
                "addr:housenumber": "1",
                "addr:flats": "U-4",
                "addr:city": "Grójec",
                "addr:postcode": "05-600",
                "amenity": "pharmacy"
            },
            "geometry": {
                "type": "Point",
                "coordinates": [
                    20.87171692786163,
                    51.86604846895889
                ]
            }
        },
        {
            "type": "Feature",
            "properties": {
                "ref:csioz": 1094517,
                "name": "Centrum",
                "addr:street": "Niepodległości",
                "addr:housenumber": "1",
                "addr:city": "Grójec",
                "addr:postcode": "05-600",
                "amenity": "pharmacy"
            },
            "geometry": {
                "type": "Point",
                "coordinates": [
                    20.866959024232585,
                    51.865279439928756
                ]
            }
        },
        {
            "type": "Feature",
            "properties": {
                "ref:csioz": 1094549,
                "name": "Dbam O Zdrowie",
                "addr:street": "Niepodległości",
                "addr:housenumber": "19",
                "addr:city": "Grójec",
                "addr:postcode": "05-600",
                "amenity": "pharmacy"
            },
            "geometry": {
                "type": "Point",
                "coordinates": [
                    20.867831268973177,
                    51.86290791813829
                ]
            }
        },
        {
            "type": "Feature",
            "properties": {
                "ref:csioz": 1094558,
                "name": "Melisa",
                "addr:street": "Jana Pawła II",
                "addr:housenumber": "46",
                "addr:city": "Grójec",
                "addr:postcode": "05-600",
                "amenity": "pharmacy"
            },
            "geometry": {
                "type": "Point",
                "coordinates": [
                    20.878898644317346,
                    51.86205527121268
                ]
            }
        },
        {
            "type": "Feature",
            "properties": {
                "ref:csioz": 1094719,
                "addr:street": "Senatorska",
                "addr:housenumber": "6",
                "addr:city": "Warka",
                "addr:postcode": "05-660",
                "amenity": "pharmacy"
            },
            "geometry": {
                "type": "Point",
                "coordinates": [
                    21.2003451690052,
                    51.79296094152851
                ]
            }
        },
        {
            "type": "Feature",
            "properties": {
                "ref:csioz": 1094724,
                "addr:street": "Warszawska",
                "addr:housenumber": "3",
                "addr:city": "Warka",
                "addr:postcode": "05-660",
                "amenity": "pharmacy"
            },
            "geometry": {
                "type": "Point",
                "coordinates": [
                    21.186769146504115,
                    51.78332741529939
                ]
            }
        },
        {
            "type": "Feature",
            "properties": {
                "ref:csioz": 1094735,
                "name": "Dbam O Zdrowie",
                "addr:street": "Warszawska",
                "addr:housenumber": "28/71",
                "addr:city": "Warka",
                "addr:postcode": "05-660",
                "amenity": "pharmacy"
            },
            "geometry": {
                "type": "Point",
                "coordinates": [
                    21.184832000004178,
                    51.78586900001515
                ]
            }
        },
        {
            "type": "Feature",
            "properties": {
                "ref:csioz": 1119000,
                "name": "Farmab S.C",
                "addr:street": "Wolska",
                "addr:housenumber": "3",
                "addr:city": "Chynów",
                "addr:postcode": "05-650",
                "amenity": "pharmacy"
            },
            "geometry": {
                "type": "Point",
                "coordinates": [
                    21.086786456644575,
                    51.908495860978114
                ]
            }
        },
        {
            "type": "Feature",
            "properties": {
                "ref:csioz": 1209294,
                "name": "Farmacja I Uroda",
                "addr:street": "Tomasza Nocznickiego",
                "addr:housenumber": "4",
                "addr:flats": "1",
                "addr:city": "Belsk Duży",
                "addr:postcode": "05-622",
                "amenity": "pharmacy"
            },
            "geometry": {
                "type": "Point",
                "coordinates": [
                    20.81083416444871,
                    51.826340635279536
                ]
            }
        },
        {
            "type": "Feature",
            "properties": {
                "ref:csioz": 1152940,
                "name": "Apteka Szpitalna",
                "addr:street": "Tomaszowska",
                "addr:housenumber": "43",
                "addr:city": "Nowe Miasto nad Pilicą",
                "addr:postcode": "26-420",
                "amenity": "pharmacy"
            },
            "geometry": {
                "type": "Point",
                "coordinates": [
                    20.56440081743419,
                    51.61702897249417
                ]
            }
        },
        {
            "type": "Feature",
            "properties": {
                "ref:csioz": 1094647,
                "name": "Nad Pilicą",
                "addr:street": "Południowa",
                "addr:housenumber": "9",
                "addr:city": "Nowe Miasto nad Pilicą",
                "addr:postcode": "26-420",
                "amenity": "pharmacy"
            },
            "geometry": {
                "type": "Point",
                "coordinates": [
                    20.580311901464192,
                    51.61707069282364
                ]
            }
        },
        {
            "type": "Feature",
            "properties": {
                "ref:csioz": 1094652,
                "addr:street": "Tomaszowska",
                "addr:housenumber": "26",
                "addr:city": "Nowe Miasto nad Pilicą",
                "addr:postcode": "26-420",
                "amenity": "pharmacy"
            },
            "geometry": {
                "type": "Point",
                "coordinates": [
                    20.56992633317082,
                    51.61772391644921
                ]
            }
        },
        {
            "type": "Feature",
            "properties": {
                "ref:csioz": 1094660,
                "name": "Nova",
                "addr:street": "Warszawska",
                "addr:housenumber": "38",
                "addr:city": "Nowe Miasto nad Pilicą",
                "addr:postcode": "26-420",
                "amenity": "pharmacy"
            },
            "geometry": {
                "type": "Point",
                "coordinates": [
                    20.58676090858724,
                    51.618083149026205
                ]
            }
        },
        {
            "type": "Feature",
            "properties": {
                "ref:csioz": 1094671,
                "name": "Nowe Miasto",
                "addr:street": "Spacerowa",
                "addr:housenumber": "1",
                "addr:city": "Nowe Miasto nad Pilicą",
                "addr:postcode": "26-420",
                "amenity": "pharmacy"
            },
            "geometry": {
                "type": "Point",
                "coordinates": [
                    20.563653197784333,
                    51.616228558856676
                ]
            }
        },
        {
            "type": "Feature",
            "properties": {
                "ref:csioz": 1205346,
                "name": "Grosik",
                "addr:street": "Tomaszowska",
                "addr:housenumber": "29/33",
                "addr:city": "Nowe Miasto nad Pilicą",
                "addr:postcode": "26-420",
                "amenity": "pharmacy"
            },
            "geometry": {
                "type": "Point",
                "coordinates": [
                    20.566996732137156,
                    51.61715080299611
                ]
            }
        },
        {
            "type": "Feature",
            "properties": {
                "ref:csioz": 1096250,
                "addr:housenumber": "133A",
                "addr:city": "Wilków Drugi",
                "addr:postcode": "05-620",
                "amenity": "pharmacy"
            },
            "geometry": {
                "type": "Point",
                "coordinates": [
                    20.62229577723574,
                    51.7996422910383
                ]
            }
        },
        {
            "type": "Feature",
            "properties": {
                "ref:csioz": 1115402,
                "name": "Papaya 4",
                "addr:street": "Nowy Rynek",
                "addr:housenumber": "19",
                "addr:city": "Błędów",
                "addr:postcode": "05-620",
                "amenity": "pharmacy"
            },
            "geometry": {
                "type": "Point",
                "coordinates": [
                    20.695159000001535,
                    51.776748000015125
                ]
            }
        },
        {
            "type": "Feature",
            "properties": {
                "ref:csioz": 1152906,
                "name": "Szpital Specjalistyczny",
                "addr:street": "ks. Piotra Skargi",
                "addr:housenumber": "10",
                "addr:city": "Grójec",
                "addr:postcode": "05-600",
                "amenity": "pharmacy"
            },
            "geometry": {
                "type": "Point",
                "coordinates": [
                    20.867967619283014,
                    51.867812239657546
                ]
            }
        },
        {
            "type": "Feature",
            "properties": {
                "ref:csioz": 1183383,
                "name": "Przyjazna",
                "addr:street": "Gośniewska",
                "addr:housenumber": "2",
                "addr:city": "Warka",
                "addr:postcode": "05-660",
                "amenity": "pharmacy"
            },
            "geometry": {
                "type": "Point",
                "coordinates": [
                    21.182670097948563,
                    51.78721966594322
                ]
            }
        },
        {
            "type": "Feature",
            "properties": {
                "ref:csioz": 1094465,
                "addr:street": "Główna",
                "addr:housenumber": "56",
                "addr:city": "Chynów",
                "addr:postcode": "05-650",
                "amenity": "pharmacy"
            },
            "geometry": {
                "type": "Point",
                "coordinates": [
                    21.081805453289977,
                    51.904650209444625
                ]
            }
        },
        {
            "type": "Feature",
            "properties": {
                "ref:csioz": 1094501,
                "name": "Nova",
                "addr:street": "Mogielnicka",
                "addr:housenumber": "1",
                "addr:city": "Grójec",
                "addr:postcode": "05-600",
                "amenity": "pharmacy"
            },
            "geometry": {
                "type": "Point",
                "coordinates": [
                    20.865135649450533,
                    51.86555470958515
                ]
            }
        },
        {
            "type": "Feature",
            "properties": {
                "ref:csioz": 1094525,
                "name": "\"Cef@Rm 36,6\"",
                "addr:street": "Osiedle Polna",
                "addr:housenumber": "B",
                "addr:city": "Grójec",
                "addr:postcode": "05-600",
                "amenity": "pharmacy"
            },
            "geometry": {
                "type": "Point",
                "coordinates": [
                    20.861291000002158,
                    51.864614000015266
                ]
            }
        },
        {
            "type": "Feature",
            "properties": {
                "ref:csioz": 1094530,
                "addr:street": "Jana Pawła II",
                "addr:housenumber": "26",
                "addr:city": "Grójec",
                "addr:postcode": "05-600",
                "amenity": "pharmacy"
            },
            "geometry": {
                "type": "Point",
                "coordinates": [
                    20.87488941894653,
                    51.86219655074743
                ]
            }
        },
        {
            "type": "Feature",
            "properties": {
                "ref:csioz": 1094683,
                "name": "E-50",
                "addr:housenumber": "1",
                "addr:city": "Jeziora",
                "addr:postcode": "05-652",
                "amenity": "pharmacy"
            },
            "geometry": {
                "type": "Point",
                "coordinates": [
                    20.739616296451054,
                    51.90916587033193
                ]
            }
        },
        {
            "type": "Feature",
            "properties": {
                "ref:csioz": 1094708,
                "addr:street": "Piotra Wysockiego",
                "addr:housenumber": "15",
                "addr:city": "Warka",
                "addr:postcode": "05-660",
                "amenity": "pharmacy"
            },
            "geometry": {
                "type": "Point",
                "coordinates": [
                    21.189362706202473,
                    51.78554321422779
                ]
            }
        },
        {
            "type": "Feature",
            "properties": {
                "ref:csioz": 1171078,
                "name": "Papaya 5",
                "addr:street": "Mogielnicka",
                "addr:housenumber": "28C",
                "addr:city": "Grójec",
                "addr:postcode": "05-600",
                "amenity": "pharmacy"
            },
            "geometry": {
                "type": "Point",
                "coordinates": [
                    20.8599347293702,
                    51.86515660066939
                ]
            }
        },
        {
            "type": "Feature",
            "properties": {
                "ref:csioz": 1195091,
                "name": "Papaya 7",
                "addr:street": "Olimpijska",
                "addr:housenumber": "8",
                "addr:city": "Grójec",
                "addr:postcode": "05-600",
                "amenity": "pharmacy"
            },
            "geometry": {
                "type": "Point",
                "coordinates": [
                    20.87829096395508,
                    51.86662801364816
                ]
            }
        }
    ]
}