{
    "type": "FeatureCollection",
    "name": "JPT_KOD_JE_0806",
    "crs": {
        "type": "name",
        "properties": {
            "name": "urn:ogc:def:crs:EPSG::4326"
        }
    },
    "features": [
        {
            "type": "Feature",
            "properties": {
                "ref:csioz": 1149377,
                "name": "Św. Marcina",
                "addr:street": "Sienkiewicza",
                "addr:housenumber": "2",
                "addr:city": "Dobiegniew",
                "addr:postcode": "66-520",
                "amenity": "pharmacy"
            },
            "geometry": {
                "type": "Point",
                "coordinates": [
                    15.750559481465888,
                    52.96783333363937
                ]
            }
        },
        {
            "type": "Feature",
            "properties": {
                "ref:csioz": 1149408,
                "name": "Asklepios",
                "addr:street": "Piłsudskiego",
                "addr:housenumber": "38A",
                "addr:city": "Drezdenko",
                "addr:postcode": "66-530",
                "amenity": "pharmacy"
            },
            "geometry": {
                "type": "Point",
                "coordinates": [
                    15.826390884935556,
                    52.83386128813374
                ]
            }
        },
        {
            "type": "Feature",
            "properties": {
                "ref:csioz": 1149424,
                "name": "Św. Łukasza",
                "addr:street": "Szkolna",
                "addr:housenumber": "8",
                "addr:city": "Drezdenko",
                "addr:postcode": "66-530",
                "amenity": "pharmacy"
            },
            "geometry": {
                "type": "Point",
                "coordinates": [
                    15.829260351204743,
                    52.83959072892666
                ]
            }
        },
        {
            "type": "Feature",
            "properties": {
                "ref:csioz": 1149419,
                "name": "Doz Apteka. Dbam O Zdrowie. Millenium",
                "addr:street": "Piłsudskiego",
                "addr:housenumber": "39A",
                "addr:city": "Drezdenko",
                "addr:postcode": "66-530",
                "amenity": "pharmacy"
            },
            "geometry": {
                "type": "Point",
                "coordinates": [
                    15.827164465792267,
                    52.834313341885185
                ]
            }
        },
        {
            "type": "Feature",
            "properties": {
                "ref:csioz": 1150653,
                "name": "Pinus",
                "addr:housenumber": "116",
                "addr:city": "Gościm",
                "addr:postcode": "66-535",
                "amenity": "pharmacy"
            },
            "geometry": {
                "type": "Point",
                "coordinates": [
                    15.70813471056902,
                    52.767545360964974
                ]
            }
        },
        {
            "type": "Feature",
            "properties": {
                "ref:csioz": 1150880,
                "addr:street": "Piłsudskiego",
                "addr:housenumber": "8",
                "addr:city": "Drezdenko",
                "addr:postcode": "66-533",
                "amenity": "pharmacy"
            },
            "geometry": {
                "type": "Point",
                "coordinates": [
                    15.826242764632243,
                    52.83425153213119
                ]
            }
        },
        {
            "type": "Feature",
            "properties": {
                "ref:csioz": 1158143,
                "addr:housenumber": "7",
                "addr:city": "Kosin",
                "addr:postcode": "23-235",
                "amenity": "pharmacy"
            },
            "geometry": {
                "type": "Point",
                "coordinates": [
                    15.880708712172424,
                    52.838643093311404
                ]
            }
        },
        {
            "type": "Feature",
            "properties": {
                "ref:csioz": 1183581,
                "name": "Prima",
                "addr:street": "Bolesława Chrobrego",
                "addr:housenumber": "6",
                "addr:city": "Strzelce Krajeńskie",
                "addr:postcode": "66-500",
                "amenity": "pharmacy"
            },
            "geometry": {
                "type": "Point",
                "coordinates": [
                    15.532328426178557,
                    52.878296896622686
                ]
            }
        },
        {
            "type": "Feature",
            "properties": {
                "ref:csioz": 1139385,
                "name": "Apteka Przyjazna",
                "addr:street": "Bolesława Chrobrego",
                "addr:housenumber": "2",
                "addr:city": "Strzelce Krajeńskie",
                "addr:postcode": "66-500",
                "amenity": "pharmacy"
            },
            "geometry": {
                "type": "Point",
                "coordinates": [
                    15.530938831369788,
                    52.87758739761847
                ]
            }
        },
        {
            "type": "Feature",
            "properties": {
                "ref:csioz": 1139399,
                "name": "Apteka Dbam O Zdrowie",
                "addr:street": "Wyzwolenia",
                "addr:housenumber": "2",
                "addr:city": "Strzelce Krajeńskie",
                "addr:postcode": "66-500",
                "amenity": "pharmacy"
            },
            "geometry": {
                "type": "Point",
                "coordinates": [
                    15.529291997018523,
                    52.877406443553575
                ]
            }
        },
        {
            "type": "Feature",
            "properties": {
                "ref:csioz": 1149390,
                "name": "Eskulap",
                "addr:street": "Stary Rynek",
                "addr:housenumber": "10",
                "addr:city": "Drezdenko",
                "addr:postcode": "66-530",
                "amenity": "pharmacy"
            },
            "geometry": {
                "type": "Point",
                "coordinates": [
                    15.831210106208506,
                    52.839340746448386
                ]
            }
        },
        {
            "type": "Feature",
            "properties": {
                "ref:csioz": 1149389,
                "name": "Pod Platanem",
                "addr:street": "Mickiewicza",
                "addr:housenumber": "37g",
                "addr:city": "Dobiegniew",
                "addr:postcode": "66-520",
                "amenity": "pharmacy"
            },
            "geometry": {
                "type": "Point",
                "coordinates": [
                    15.752079296230882,
                    52.97052979249757
                ]
            }
        },
        {
            "type": "Feature",
            "properties": {
                "ref:csioz": 1178204,
                "name": "Carbea",
                "addr:street": "Kościuszki",
                "addr:housenumber": "34B",
                "addr:city": "Stare Kurowo",
                "addr:postcode": "66-540",
                "amenity": "pharmacy"
            },
            "geometry": {
                "type": "Point",
                "coordinates": [
                    15.685837559471643,
                    52.85703988728645
                ]
            }
        },
        {
            "type": "Feature",
            "properties": {
                "ref:csioz": 1217277,
                "name": "Centrum Zdrowia",
                "addr:street": "Piłsudskiego",
                "addr:housenumber": "56",
                "addr:city": "Drezdenko",
                "addr:postcode": "66-530",
                "amenity": "pharmacy"
            },
            "geometry": {
                "type": "Point",
                "coordinates": [
                    15.83076303467288,
                    52.835514741957006
                ]
            }
        },
        {
            "type": "Feature",
            "properties": {
                "ref:csioz": 1223769,
                "name": "\"Apteka \"\"Dr. Max\"\"\"",
                "addr:street": "Wyzwolenia",
                "addr:housenumber": "4",
                "addr:city": "Strzelce Krajeńskie",
                "addr:postcode": "66-500",
                "amenity": "pharmacy"
            },
            "geometry": {
                "type": "Point",
                "coordinates": [
                    15.527175301156701,
                    52.87855057317183
                ]
            }
        },
        {
            "type": "Feature",
            "properties": {
                "ref:csioz": 1229425,
                "name": "Remedium",
                "addr:street": "Wojska Polskiego",
                "addr:housenumber": "58",
                "addr:city": "Zwierzyn",
                "addr:postcode": "66-542",
                "amenity": "pharmacy"
            },
            "geometry": {
                "type": "Point",
                "coordinates": [
                    15.569598977387637,
                    52.83297833346104
                ]
            }
        },
        {
            "type": "Feature",
            "properties": {
                "ref:csioz": 1165102,
                "name": "Centrum Zdrowia",
                "addr:street": "Bolesława Chrobrego",
                "addr:housenumber": "7",
                "addr:city": "Strzelce Krajeńskie",
                "addr:postcode": "66-500",
                "amenity": "pharmacy"
            },
            "geometry": {
                "type": "Point",
                "coordinates": [
                    15.534210367670292,
                    52.87902665214183
                ]
            }
        }
    ]
}