{
    "type": "FeatureCollection",
    "name": "JPT_KOD_JE_2463",
    "crs": {
        "type": "name",
        "properties": {
            "name": "urn:ogc:def:crs:EPSG::4326"
        }
    },
    "features": [
        {
            "type": "Feature",
            "properties": {
                "ref:csioz": 1230536,
                "name": "Ośrodek Stacjonarny",
                "addr:street": "Główna",
                "addr:housenumber": "31",
                "addr:city": "Chorzów",
                "addr:postcode": "41-503",
                "amenity": "pharmacy"
            },
            "geometry": {
                "type": "Point",
                "coordinates": [
                    18.970740075081093,
                    50.32298536612956
                ]
            }
        },
        {
            "type": "Feature",
            "properties": {
                "ref:csioz": 1059588,
                "name": "Witaminka",
                "addr:street": "Młodzieżowa",
                "addr:housenumber": "31",
                "addr:city": "Chorzów",
                "addr:postcode": "41-500",
                "amenity": "pharmacy"
            },
            "geometry": {
                "type": "Point",
                "coordinates": [
                    18.962579635542163,
                    50.29020900616308
                ]
            }
        },
        {
            "type": "Feature",
            "properties": {
                "ref:csioz": 1056984,
                "addr:street": "Wiejska",
                "addr:housenumber": "4",
                "addr:city": "Chorzów",
                "addr:postcode": "41-503",
                "amenity": "pharmacy"
            },
            "geometry": {
                "type": "Point",
                "coordinates": [
                    18.962787850767512,
                    50.317073605758694
                ]
            }
        },
        {
            "type": "Feature",
            "properties": {
                "ref:csioz": 1059320,
                "name": "Dr.Max",
                "addr:street": "3 Maja",
                "addr:housenumber": "185",
                "addr:city": "Chorzów",
                "addr:postcode": "41-500",
                "amenity": "pharmacy"
            },
            "geometry": {
                "type": "Point",
                "coordinates": [
                    18.92233326047556,
                    50.303971881809346
                ]
            }
        },
        {
            "type": "Feature",
            "properties": {
                "ref:csioz": 1059575,
                "name": "Pod Matką Boską",
                "addr:street": "Mazurska",
                "addr:housenumber": "16",
                "addr:city": "Chorzów",
                "addr:postcode": "41-503",
                "amenity": "pharmacy"
            },
            "geometry": {
                "type": "Point",
                "coordinates": [
                    18.97327486147249,
                    50.30251801201983
                ]
            }
        },
        {
            "type": "Feature",
            "properties": {
                "ref:csioz": 1059361,
                "name": "Floriańska",
                "addr:street": "Beskidzka",
                "addr:housenumber": "4",
                "addr:city": "Chorzów",
                "addr:postcode": "41-500",
                "amenity": "pharmacy"
            },
            "geometry": {
                "type": "Point",
                "coordinates": [
                    18.933764926031415,
                    50.297474317428374
                ]
            }
        },
        {
            "type": "Feature",
            "properties": {
                "ref:csioz": 1059399,
                "name": "Apteka Premium-Lek",
                "addr:street": "Pawła Dombka",
                "addr:housenumber": "20",
                "addr:city": "CHORZÓW",
                "addr:postcode": "41-500",
                "amenity": "pharmacy"
            },
            "geometry": {
                "type": "Point",
                "coordinates": [
                    18.94530510445951,
                    50.3080725697728
                ]
            }
        },
        {
            "type": "Feature",
            "properties": {
                "ref:csioz": 1059407,
                "name": "Lux - Lek Ii",
                "addr:street": "Filarowa",
                "addr:housenumber": "3",
                "addr:city": "Chorzów",
                "addr:postcode": "41-500",
                "amenity": "pharmacy"
            },
            "geometry": {
                "type": "Point",
                "coordinates": [
                    18.941935432716747,
                    50.298724995278285
                ]
            }
        },
        {
            "type": "Feature",
            "properties": {
                "ref:csioz": 1059432,
                "name": "Franciszkańska",
                "addr:street": "ks. Jana Gałeczki",
                "addr:housenumber": "41",
                "addr:city": "Chorzów",
                "addr:postcode": "41-500",
                "amenity": "pharmacy"
            },
            "geometry": {
                "type": "Point",
                "coordinates": [
                    18.959914282766423,
                    50.285657849261945
                ]
            }
        },
        {
            "type": "Feature",
            "properties": {
                "ref:csioz": 1059464,
                "name": "Lege Artis",
                "addr:street": "Grunwaldzka",
                "addr:housenumber": "1",
                "addr:city": "Chorzów",
                "addr:postcode": "41-500",
                "amenity": "pharmacy"
            },
            "geometry": {
                "type": "Point",
                "coordinates": [
                    18.945154466623137,
                    50.310239332118606
                ]
            }
        },
        {
            "type": "Feature",
            "properties": {
                "ref:csioz": 1059493,
                "name": "Niezapominajka Dla Całej Rodziny",
                "addr:street": "Katowicka",
                "addr:housenumber": "74",
                "addr:city": "Chorzów",
                "addr:postcode": "41-500",
                "amenity": "pharmacy"
            },
            "geometry": {
                "type": "Point",
                "coordinates": [
                    18.954866868381806,
                    50.29840436715404
                ]
            }
        },
        {
            "type": "Feature",
            "properties": {
                "ref:csioz": 1059591,
                "name": "Apteka Pod Lwem",
                "addr:street": "Odrowążów",
                "addr:housenumber": "7",
                "addr:city": "CHORZÓW",
                "addr:postcode": "41-506",
                "amenity": "pharmacy"
            },
            "geometry": {
                "type": "Point",
                "coordinates": [
                    18.936694635556076,
                    50.27538740318866
                ]
            }
        },
        {
            "type": "Feature",
            "properties": {
                "ref:csioz": 1059611,
                "name": "Duos",
                "addr:street": "Adama Mickiewicza",
                "addr:housenumber": "10",
                "addr:flats": "1",
                "addr:city": "Chorzów",
                "addr:postcode": "41-500",
                "amenity": "pharmacy"
            },
            "geometry": {
                "type": "Point",
                "coordinates": [
                    18.947472337537654,
                    50.306234172506045
                ]
            }
        },
        {
            "type": "Feature",
            "properties": {
                "ref:csioz": 1059679,
                "name": "Ziko Apteka",
                "addr:street": "Jana Sobieskiego",
                "addr:housenumber": "21",
                "addr:city": "Chorzów",
                "addr:postcode": "41-500",
                "amenity": "pharmacy"
            },
            "geometry": {
                "type": "Point",
                "coordinates": [
                    18.953576551322186,
                    50.29406082674059
                ]
            }
        },
        {
            "type": "Feature",
            "properties": {
                "ref:csioz": 1059709,
                "name": "Niezapominajka Dla Całej Rodziny",
                "addr:street": "Wolności",
                "addr:housenumber": "13",
                "addr:city": "Chorzów",
                "addr:postcode": "41-500",
                "amenity": "pharmacy"
            },
            "geometry": {
                "type": "Point",
                "coordinates": [
                    18.951386155390868,
                    50.297256251649536
                ]
            }
        },
        {
            "type": "Feature",
            "properties": {
                "ref:csioz": 1059714,
                "name": "Apteka Centrum 2",
                "addr:street": "Wolności",
                "addr:housenumber": "66",
                "addr:city": "Chorzów",
                "addr:postcode": "41-500",
                "amenity": "pharmacy"
            },
            "geometry": {
                "type": "Point",
                "coordinates": [
                    18.946889196233485,
                    50.29262994358867
                ]
            }
        },
        {
            "type": "Feature",
            "properties": {
                "ref:csioz": 1059723,
                "name": "Apteka Centrum 1",
                "addr:street": "Wolności",
                "addr:housenumber": "78",
                "addr:city": "Chorzów",
                "addr:postcode": "41-500",
                "amenity": "pharmacy"
            },
            "geometry": {
                "type": "Point",
                "coordinates": [
                    18.945773623729526,
                    50.29178521800747
                ]
            }
        },
        {
            "type": "Feature",
            "properties": {
                "ref:csioz": 1073903,
                "name": "Szpital Specjalistczny W Chorzowie",
                "addr:street": "ZJEDNOCZENIA",
                "addr:housenumber": "10",
                "addr:city": "CHORZÓW",
                "addr:postcode": "41-500",
                "amenity": "pharmacy"
            },
            "geometry": {
                "type": "Point",
                "coordinates": [
                    18.952956629651304,
                    50.29243921982469
                ]
            }
        },
        {
            "type": "Feature",
            "properties": {
                "ref:csioz": 1074088,
                "addr:street": "TRUCHANA",
                "addr:housenumber": "7",
                "addr:city": "CHORZÓW",
                "addr:postcode": "41-500",
                "amenity": "pharmacy"
            },
            "geometry": {
                "type": "Point",
                "coordinates": [
                    18.94841684051104,
                    50.29681016845741
                ]
            }
        },
        {
            "type": "Feature",
            "properties": {
                "ref:csioz": 1113168,
                "name": "Niepubliczny Zakład Opieki Zdrowotnej Zakład Pielęgnacyjno-Opiekuńczy Spółka Partnerska",
                "addr:street": "Szpitalna",
                "addr:housenumber": "25",
                "addr:city": "Chorzów",
                "addr:postcode": "41-506",
                "amenity": "pharmacy"
            },
            "geometry": {
                "type": "Point",
                "coordinates": [
                    18.942219265132895,
                    50.275391899948566
                ]
            }
        },
        {
            "type": "Feature",
            "properties": {
                "ref:csioz": 1115291,
                "name": "Brak",
                "addr:street": "Tadeusza Kościuszki",
                "addr:housenumber": "52",
                "addr:city": "Chorzów",
                "addr:postcode": "41-500",
                "amenity": "pharmacy"
            },
            "geometry": {
                "type": "Point",
                "coordinates": [
                    18.969394809141843,
                    50.29799314687312
                ]
            }
        },
        {
            "type": "Feature",
            "properties": {
                "ref:csioz": 1170182,
                "name": "Medical Active Care",
                "addr:street": "Racławicka",
                "addr:housenumber": "20A",
                "addr:city": "Chorzów",
                "addr:postcode": "41-506",
                "amenity": "pharmacy"
            },
            "geometry": {
                "type": "Point",
                "coordinates": [
                    18.950986889719196,
                    50.28019306298825
                ]
            }
        },
        {
            "type": "Feature",
            "properties": {
                "ref:csioz": 1170840,
                "name": "Opieka Paliatywna Stacjonarna",
                "addr:street": "Szpitalna",
                "addr:housenumber": "24",
                "addr:city": "Chorzów",
                "addr:postcode": "41-506",
                "amenity": "pharmacy"
            },
            "geometry": {
                "type": "Point",
                "coordinates": [
                    18.941661173644906,
                    50.27595374757778
                ]
            }
        },
        {
            "type": "Feature",
            "properties": {
                "ref:csioz": 1176154,
                "name": "Przyjazna",
                "addr:street": "ks. Jana Gałeczki",
                "addr:housenumber": "30",
                "addr:city": "Chorzów",
                "addr:postcode": "41-500",
                "amenity": "pharmacy"
            },
            "geometry": {
                "type": "Point",
                "coordinates": [
                    18.958642222169285,
                    50.287089283048516
                ]
            }
        },
        {
            "type": "Feature",
            "properties": {
                "ref:csioz": 1218078,
                "name": "Apteka Nova Sieciowa",
                "addr:street": "Klonowa",
                "addr:housenumber": "2",
                "addr:city": "Chorzów",
                "addr:postcode": "41-506",
                "amenity": "pharmacy"
            },
            "geometry": {
                "type": "Point",
                "coordinates": [
                    18.937042280075506,
                    50.26445823341899
                ]
            }
        },
        {
            "type": "Feature",
            "properties": {
                "ref:csioz": 1057139,
                "name": "Niepubliczny Zakład Opieki Zdrowotnej Lecznica Dzieci I Dorosłych-Szpital Im. I. Mościckiego",
                "addr:street": "Powstańców",
                "addr:housenumber": "27",
                "addr:city": "Chorzów",
                "addr:postcode": "41-500",
                "amenity": "pharmacy"
            },
            "geometry": {
                "type": "Point",
                "coordinates": [
                    18.949948296398805,
                    50.29343654365154
                ]
            }
        },
        {
            "type": "Feature",
            "properties": {
                "ref:csioz": 1057243,
                "name": "\"Niepubliczny Zakład Opieki Zdrowotnej Szpital 'Śląskie Centrum Urologii'\"",
                "addr:street": "Strzelców Bytomskich",
                "addr:housenumber": "11",
                "addr:city": "Chorzów",
                "addr:postcode": "41-500",
                "amenity": "pharmacy"
            },
            "geometry": {
                "type": "Point",
                "coordinates": [
                    18.944104686739006,
                    50.292872206079366
                ]
            }
        },
        {
            "type": "Feature",
            "properties": {
                "ref:csioz": 1111499,
                "name": "Doz Apteka Melissa",
                "addr:street": "Józefa Ryszki",
                "addr:housenumber": "57",
                "addr:city": "Chorzów",
                "addr:postcode": "41-500",
                "amenity": "pharmacy"
            },
            "geometry": {
                "type": "Point",
                "coordinates": [
                    18.9527984704385,
                    50.28610131374179
                ]
            }
        },
        {
            "type": "Feature",
            "properties": {
                "ref:csioz": 1170335,
                "name": "Dr. Max",
                "addr:street": "Żołnierzy Września",
                "addr:housenumber": "20",
                "addr:city": "Chorzów",
                "addr:postcode": "41-500",
                "amenity": "pharmacy"
            },
            "geometry": {
                "type": "Point",
                "coordinates": [
                    18.935653362877304,
                    50.2969803120315
                ]
            }
        },
        {
            "type": "Feature",
            "properties": {
                "ref:csioz": 1170370,
                "name": "Sieciowa Nr 15",
                "addr:street": "Graniczna",
                "addr:housenumber": "15",
                "addr:flats": "4",
                "addr:city": "Chorzów",
                "addr:postcode": "41-506",
                "amenity": "pharmacy"
            },
            "geometry": {
                "type": "Point",
                "coordinates": [
                    18.964120679084907,
                    50.28720436648803
                ]
            }
        },
        {
            "type": "Feature",
            "properties": {
                "ref:csioz": 1175251,
                "name": "Sp Zoz Zespół Szpitali Miejskich",
                "addr:street": "Strzelców Bytomskich",
                "addr:housenumber": "11",
                "addr:city": "Chorzów",
                "addr:postcode": "41-500",
                "amenity": "pharmacy"
            },
            "geometry": {
                "type": "Point",
                "coordinates": [
                    18.944104686739006,
                    50.292872206079366
                ]
            }
        },
        {
            "type": "Feature",
            "properties": {
                "ref:csioz": 1177922,
                "name": "Apteka Nova Sieciowa",
                "addr:street": "ks. Józefa Czempiela",
                "addr:housenumber": "8",
                "addr:city": "Chorzów",
                "addr:postcode": "41-506",
                "amenity": "pharmacy"
            },
            "geometry": {
                "type": "Point",
                "coordinates": [
                    18.93603520952457,
                    50.266821939968374
                ]
            }
        },
        {
            "type": "Feature",
            "properties": {
                "ref:csioz": 1198035,
                "name": "Apteka Słoneczna",
                "addr:street": "Wolności",
                "addr:housenumber": "62",
                "addr:city": "Chorzów",
                "addr:postcode": "41-500",
                "amenity": "pharmacy"
            },
            "geometry": {
                "type": "Point",
                "coordinates": [
                    18.947389829067063,
                    50.29297460564252
                ]
            }
        },
        {
            "type": "Feature",
            "properties": {
                "ref:csioz": 1198883,
                "name": "Duos",
                "addr:street": "Parkowa",
                "addr:housenumber": "20",
                "addr:city": "Chorzów",
                "addr:postcode": "41-500",
                "amenity": "pharmacy"
            },
            "geometry": {
                "type": "Point",
                "coordinates": [
                    18.96744164126879,
                    50.291242669108584
                ]
            }
        },
        {
            "type": "Feature",
            "properties": {
                "ref:csioz": 1203491,
                "name": "Topfarm",
                "addr:street": "Stefana Batorego",
                "addr:housenumber": "19",
                "addr:city": "Chorzów",
                "addr:postcode": "41-506",
                "amenity": "pharmacy"
            },
            "geometry": {
                "type": "Point",
                "coordinates": [
                    18.93951588729654,
                    50.2737784549301
                ]
            }
        },
        {
            "type": "Feature",
            "properties": {
                "ref:csioz": 1205380,
                "name": "Damian Vii",
                "addr:street": "Powstańców",
                "addr:housenumber": "26",
                "addr:city": "Chorzów",
                "addr:postcode": "41-500",
                "amenity": "pharmacy"
            },
            "geometry": {
                "type": "Point",
                "coordinates": [
                    18.94969683399093,
                    50.29349343565694
                ]
            }
        },
        {
            "type": "Feature",
            "properties": {
                "ref:csioz": 1208869,
                "name": "Apteka 4 Pory Roku",
                "addr:street": "Wita Stwosza",
                "addr:housenumber": "13",
                "addr:city": "Chorzów",
                "addr:postcode": "41-506",
                "amenity": "pharmacy"
            },
            "geometry": {
                "type": "Point",
                "coordinates": [
                    18.947812801022845,
                    50.27955052273501
                ]
            }
        },
        {
            "type": "Feature",
            "properties": {
                "ref:csioz": 1210500,
                "name": "Hygieia",
                "addr:street": "Wolności",
                "addr:housenumber": "40",
                "addr:flats": "1",
                "addr:city": "Chorzów",
                "addr:postcode": "41-500",
                "amenity": "pharmacy"
            },
            "geometry": {
                "type": "Point",
                "coordinates": [
                    18.94945354027401,
                    50.29517112132398
                ]
            }
        },
        {
            "type": "Feature",
            "properties": {
                "ref:csioz": 1211282,
                "name": "Ziko Apteka",
                "addr:street": "Tadeusza Kościuszki",
                "addr:housenumber": "9",
                "addr:city": "Chorzów",
                "addr:postcode": "41-500",
                "amenity": "pharmacy"
            },
            "geometry": {
                "type": "Point",
                "coordinates": [
                    18.95841537935263,
                    50.2991295859362
                ]
            }
        },
        {
            "type": "Feature",
            "properties": {
                "ref:csioz": 1216286,
                "name": "Sieciowa Nr 77",
                "addr:street": "Kaliny",
                "addr:housenumber": "77",
                "addr:city": "Chorzów",
                "addr:postcode": "41-506",
                "amenity": "pharmacy"
            },
            "geometry": {
                "type": "Point",
                "coordinates": [
                    18.93105318285136,
                    50.27359453657888
                ]
            }
        },
        {
            "type": "Feature",
            "properties": {
                "ref:csioz": 1217429,
                "name": "Opieka I Zdrowie",
                "addr:street": "Jubileuszowa",
                "addr:housenumber": "42",
                "addr:city": "Chorzów",
                "addr:postcode": "41-506",
                "amenity": "pharmacy"
            },
            "geometry": {
                "type": "Point",
                "coordinates": [
                    18.934291080325146,
                    50.26831282981239
                ]
            }
        },
        {
            "type": "Feature",
            "properties": {
                "ref:csioz": 1220720,
                "name": "Apteka Rodzinna",
                "addr:street": "Graniczna",
                "addr:housenumber": "88",
                "addr:flats": "3",
                "addr:city": "Chorzów",
                "addr:postcode": "41-506",
                "amenity": "pharmacy"
            },
            "geometry": {
                "type": "Point",
                "coordinates": [
                    18.927474528913876,
                    50.27397966879407
                ]
            }
        },
        {
            "type": "Feature",
            "properties": {
                "ref:csioz": 1224170,
                "name": "Apteka Pod Orłem",
                "addr:street": "3 Maja",
                "addr:housenumber": "1",
                "addr:city": "Chorzów",
                "addr:postcode": "42-500",
                "amenity": "pharmacy"
            },
            "geometry": {
                "type": "Point",
                "coordinates": [
                    18.950720999999994,
                    50.303545000012925
                ]
            }
        },
        {
            "type": "Feature",
            "properties": {
                "ref:csioz": 1224733,
                "name": "Śląski Oddział Okręgowy Dom Polskiego Czerwonego Krzyża W Chorzowie",
                "addr:street": "Piastowski",
                "addr:housenumber": "19",
                "addr:city": "Chorzów",
                "addr:postcode": "41-503",
                "amenity": "pharmacy"
            },
            "geometry": {
                "type": "Point",
                "coordinates": [
                    18.972367788509818,
                    50.30089487934122
                ]
            }
        },
        {
            "type": "Feature",
            "properties": {
                "ref:csioz": 1226581,
                "name": "Chorzowskie Centrum Kardiologii",
                "addr:street": "Strzelców Bytomskich",
                "addr:housenumber": "11",
                "addr:city": "Chorzów",
                "addr:postcode": "41-500",
                "amenity": "pharmacy"
            },
            "geometry": {
                "type": "Point",
                "coordinates": [
                    18.944104686739006,
                    50.292872206079366
                ]
            }
        }
    ]
}