{
    "type": "FeatureCollection",
    "name": "JPT_KOD_JE_1423",
    "crs": {
        "type": "name",
        "properties": {
            "name": "urn:ogc:def:crs:EPSG::4326"
        }
    },
    "features": [
        {
            "type": "Feature",
            "properties": {
                "ref:csioz": 1095002,
                "addr:street": "Warszawska",
                "addr:housenumber": "6/8",
                "addr:city": "Odrzywół",
                "addr:postcode": "26-425",
                "amenity": "pharmacy"
            },
            "geometry": {
                "type": "Point",
                "coordinates": [
                    20.55535200000114,
                    51.52067000001474
                ]
            }
        },
        {
            "type": "Feature",
            "properties": {
                "ref:csioz": 1096345,
                "addr:street": "Opoczyńska",
                "addr:housenumber": "1",
                "addr:city": "Gielniów",
                "addr:postcode": "26-434",
                "amenity": "pharmacy"
            },
            "geometry": {
                "type": "Point",
                "coordinates": [
                    20.47128212753703,
                    51.397761318865754
                ]
            }
        },
        {
            "type": "Feature",
            "properties": {
                "ref:csioz": 1098245,
                "name": "Samodzielny Publiczny Zespół Zakładów Opieki Zdrowotnej W Przysusze Szpitalnictwo",
                "addr:street": "Partyzantów",
                "addr:housenumber": "8",
                "addr:city": "Przysucha",
                "addr:postcode": "26-400",
                "amenity": "pharmacy"
            },
            "geometry": {
                "type": "Point",
                "coordinates": [
                    20.630346138277677,
                    51.359450583980994
                ]
            }
        },
        {
            "type": "Feature",
            "properties": {
                "ref:csioz": 1182549,
                "addr:street": "Opoczyńska",
                "addr:housenumber": "39",
                "addr:city": "Klwów",
                "addr:postcode": "26-415",
                "amenity": "pharmacy"
            },
            "geometry": {
                "type": "Point",
                "coordinates": [
                    20.631867335798,
                    51.53294249420124
                ]
            }
        },
        {
            "type": "Feature",
            "properties": {
                "ref:csioz": 1184542,
                "addr:street": "Warszawska",
                "addr:housenumber": "19",
                "addr:city": "Przysucha",
                "addr:postcode": "26-400",
                "amenity": "pharmacy"
            },
            "geometry": {
                "type": "Point",
                "coordinates": [
                    20.628955434378746,
                    51.359462106306694
                ]
            }
        },
        {
            "type": "Feature",
            "properties": {
                "ref:csioz": 1201222,
                "name": "Prywatna A&R Agnieszka I Radosław Salij Sp. J.",
                "addr:street": "Warszawska",
                "addr:housenumber": "25",
                "addr:city": "Przysucha",
                "addr:postcode": "26-400",
                "amenity": "pharmacy"
            },
            "geometry": {
                "type": "Point",
                "coordinates": [
                    20.629146639797398,
                    51.359691979280385
                ]
            }
        },
        {
            "type": "Feature",
            "properties": {
                "ref:csioz": 1095031,
                "addr:street": "Radomska",
                "addr:housenumber": "21",
                "addr:city": "Przysucha",
                "addr:postcode": "26-400",
                "amenity": "pharmacy"
            },
            "geometry": {
                "type": "Point",
                "coordinates": [
                    20.63386202027842,
                    51.357666643093204
                ]
            }
        },
        {
            "type": "Feature",
            "properties": {
                "ref:csioz": 1095053,
                "addr:street": "Legionów Polskich",
                "addr:housenumber": "6B",
                "addr:city": "Przysucha",
                "addr:postcode": "26-400",
                "amenity": "pharmacy"
            },
            "geometry": {
                "type": "Point",
                "coordinates": [
                    20.63083600000134,
                    51.35665700001447
                ]
            }
        },
        {
            "type": "Feature",
            "properties": {
                "ref:csioz": 1119037,
                "name": "Apteka Codzienna",
                "addr:street": "Radomska",
                "addr:housenumber": "1",
                "addr:city": "Przysucha",
                "addr:postcode": "26-400",
                "amenity": "pharmacy"
            },
            "geometry": {
                "type": "Point",
                "coordinates": [
                    20.62976218902198,
                    51.35861988520944
                ]
            }
        },
        {
            "type": "Feature",
            "properties": {
                "ref:csioz": 1183347,
                "name": "Niepubliczny Zakład Opieki Zdrowotnej Promień Oddział Rehabilitacji",
                "addr:housenumber": "1",
                "addr:city": "Mariówka",
                "addr:postcode": "26-400",
                "amenity": "pharmacy"
            },
            "geometry": {
                "type": "Point",
                "coordinates": [
                    20.599254937826394,
                    51.38869384556035
                ]
            }
        },
        {
            "type": "Feature",
            "properties": {
                "ref:csioz": 1188940,
                "addr:street": "Żeromskiego",
                "addr:housenumber": "1A",
                "addr:city": "Rusinów",
                "addr:postcode": "26-411",
                "amenity": "pharmacy"
            },
            "geometry": {
                "type": "Point",
                "coordinates": [
                    20.5857560478599,
                    51.435353847604205
                ]
            }
        },
        {
            "type": "Feature",
            "properties": {
                "ref:csioz": 1195732,
                "name": "Prywatna A&R Agnieszka I Radosław Salij Sp. J.",
                "addr:street": "Grodzka",
                "addr:housenumber": "10",
                "addr:city": "Przysucha",
                "addr:postcode": "26-400",
                "amenity": "pharmacy"
            },
            "geometry": {
                "type": "Point",
                "coordinates": [
                    20.62749023503196,
                    51.3578543883027
                ]
            }
        },
        {
            "type": "Feature",
            "properties": {
                "ref:csioz": 1094992,
                "name": "Apteka W Starym Klasztorze",
                "addr:street": "ks. Jana Wiśniewskiego",
                "addr:housenumber": "13B",
                "addr:city": "Borkowice",
                "addr:postcode": "26-422",
                "amenity": "pharmacy"
            },
            "geometry": {
                "type": "Point",
                "coordinates": [
                    20.68498631940226,
                    51.319834279972774
                ]
            }
        },
        {
            "type": "Feature",
            "properties": {
                "ref:csioz": 1196136,
                "name": "Punkt Apteczny A&R Agnieszka I Radosław Salij Sp.J.",
                "addr:street": "Radomska",
                "addr:housenumber": "14a",
                "addr:city": "Skrzynno",
                "addr:postcode": "26-432",
                "amenity": "pharmacy"
            },
            "geometry": {
                "type": "Point",
                "coordinates": [
                    20.720081000001635,
                    51.36334600001449
                ]
            }
        },
        {
            "type": "Feature",
            "properties": {
                "ref:csioz": 1095015,
                "addr:street": "Przysuska",
                "addr:housenumber": "10/9",
                "addr:city": "Potworów",
                "addr:postcode": "26-414",
                "amenity": "pharmacy"
            },
            "geometry": {
                "type": "Point",
                "coordinates": [
                    20.72144600000163,
                    51.50721000001471
                ]
            }
        },
        {
            "type": "Feature",
            "properties": {
                "ref:csioz": 1095066,
                "addr:street": "Kochanowskiego",
                "addr:housenumber": "86",
                "addr:city": "Wieniawa",
                "addr:postcode": "26-432",
                "amenity": "pharmacy"
            },
            "geometry": {
                "type": "Point",
                "coordinates": [
                    20.792364387615525,
                    51.362254181907204
                ]
            }
        }
    ]
}