{
    "type": "FeatureCollection",
    "name": "JPT_KOD_JE_2211",
    "crs": {
        "type": "name",
        "properties": {
            "name": "urn:ogc:def:crs:EPSG::4326"
        }
    },
    "features": [
        {
            "type": "Feature",
            "properties": {
                "ref:csioz": 1033707,
                "name": "Medyk",
                "addr:street": "Spacerowa",
                "addr:housenumber": "16A",
                "addr:city": "Dębki",
                "addr:postcode": "84-110",
                "amenity": "pharmacy"
            },
            "geometry": {
                "type": "Point",
                "coordinates": [
                    18.088798999999508,
                    54.829627000020174
                ]
            }
        },
        {
            "type": "Feature",
            "properties": {
                "ref:csioz": 1028012,
                "name": "Medyk",
                "addr:street": "Morska",
                "addr:housenumber": "1",
                "addr:city": "Wierzchucino",
                "addr:postcode": "84-113",
                "amenity": "pharmacy"
            },
            "geometry": {
                "type": "Point",
                "coordinates": [
                    18.003885054881486,
                    54.788028797539134
                ]
            }
        },
        {
            "type": "Feature",
            "properties": {
                "ref:csioz": 1027303,
                "addr:street": "Wejherowska",
                "addr:housenumber": "3",
                "addr:city": "Puck",
                "addr:postcode": "84-100",
                "amenity": "pharmacy"
            },
            "geometry": {
                "type": "Point",
                "coordinates": [
                    18.408609409808456,
                    54.71759249419791
                ]
            }
        },
        {
            "type": "Feature",
            "properties": {
                "ref:csioz": 1027810,
                "name": "Medyk",
                "addr:street": "Długa",
                "addr:housenumber": "2",
                "addr:city": "Starzyno",
                "addr:postcode": "84-107",
                "amenity": "pharmacy"
            },
            "geometry": {
                "type": "Point",
                "coordinates": [
                    18.262603697511892,
                    54.7555173642906
                ]
            }
        },
        {
            "type": "Feature",
            "properties": {
                "ref:csioz": 1028762,
                "name": "Słoneczna",
                "addr:street": "Żarnowiecka",
                "addr:housenumber": "25",
                "addr:city": "Krokowa",
                "addr:postcode": "84-110",
                "amenity": "pharmacy"
            },
            "geometry": {
                "type": "Point",
                "coordinates": [
                    18.161285875047284,
                    54.77883010608298
                ]
            }
        },
        {
            "type": "Feature",
            "properties": {
                "ref:csioz": 1028959,
                "name": "Klifowa S.C.",
                "addr:street": "Słoneczna",
                "addr:housenumber": "16A",
                "addr:city": "Władysławowo",
                "addr:postcode": "84-120",
                "amenity": "pharmacy"
            },
            "geometry": {
                "type": "Point",
                "coordinates": [
                    18.39274241405997,
                    54.79982144957706
                ]
            }
        },
        {
            "type": "Feature",
            "properties": {
                "ref:csioz": 1029021,
                "name": "Apteka Cisowa",
                "addr:street": "Cisowa",
                "addr:housenumber": "8",
                "addr:city": "Ostrowo",
                "addr:postcode": "84-105",
                "amenity": "pharmacy"
            },
            "geometry": {
                "type": "Point",
                "coordinates": [
                    18.23772282463797,
                    54.821987716496224
                ]
            }
        },
        {
            "type": "Feature",
            "properties": {
                "ref:csioz": 1029264,
                "name": "Pod Wieżą",
                "addr:street": "Wojska Polskiego",
                "addr:housenumber": "7",
                "addr:city": "Puck",
                "addr:postcode": "84-100",
                "amenity": "pharmacy"
            },
            "geometry": {
                "type": "Point",
                "coordinates": [
                    18.411754459421843,
                    54.717616180227
                ]
            }
        },
        {
            "type": "Feature",
            "properties": {
                "ref:csioz": 1029403,
                "name": "Apteka Bursztynowa",
                "addr:street": "Królewska",
                "addr:housenumber": "9",
                "addr:city": "Jastrzębia Góra",
                "addr:postcode": "84-104",
                "amenity": "pharmacy"
            },
            "geometry": {
                "type": "Point",
                "coordinates": [
                    18.298204632903214,
                    54.83247206449364
                ]
            }
        },
        {
            "type": "Feature",
            "properties": {
                "ref:csioz": 1029783,
                "name": "Nad Zatoką",
                "addr:street": "Męczenników Piaśnicy",
                "addr:housenumber": "16",
                "addr:city": "Puck",
                "addr:postcode": "84-100",
                "amenity": "pharmacy"
            },
            "geometry": {
                "type": "Point",
                "coordinates": [
                    18.415017626682996,
                    54.7185161343049
                ]
            }
        },
        {
            "type": "Feature",
            "properties": {
                "ref:csioz": 1031758,
                "name": "Doz Apteka. Dbam O Zdrowie. W Pucku",
                "addr:street": "Wojska Polskiego",
                "addr:housenumber": "16",
                "addr:city": "Puck",
                "addr:postcode": "84-100",
                "amenity": "pharmacy"
            },
            "geometry": {
                "type": "Point",
                "coordinates": [
                    18.410796436047736,
                    54.71635748136708
                ]
            }
        },
        {
            "type": "Feature",
            "properties": {
                "ref:csioz": 1033088,
                "name": "Apteka Dyżurna",
                "addr:street": "gen. Józefa Hallera",
                "addr:housenumber": "1",
                "addr:city": "Władysławowo",
                "addr:postcode": "84-120",
                "amenity": "pharmacy"
            },
            "geometry": {
                "type": "Point",
                "coordinates": [
                    18.40281969519162,
                    54.79404202484298
                ]
            }
        },
        {
            "type": "Feature",
            "properties": {
                "ref:csioz": 1033167,
                "name": "Doz Apteka. Dbam O Zdrowie. Przy Szpitalu",
                "addr:street": "Sobieskiego",
                "addr:housenumber": "1",
                "addr:city": "Puck",
                "addr:postcode": "84-100",
                "amenity": "pharmacy"
            },
            "geometry": {
                "type": "Point",
                "coordinates": [
                    18.413438475056335,
                    54.72052454949479
                ]
            }
        },
        {
            "type": "Feature",
            "properties": {
                "ref:csioz": 1033817,
                "name": "Rumianek",
                "addr:street": "Kościelna",
                "addr:housenumber": "10",
                "addr:city": "Strzelno",
                "addr:postcode": "84-103",
                "amenity": "pharmacy"
            },
            "geometry": {
                "type": "Point",
                "coordinates": [
                    18.326590971033674,
                    54.78608981160148
                ]
            }
        },
        {
            "type": "Feature",
            "properties": {
                "ref:csioz": 1034263,
                "name": "Dział Farmacji Szpitalnej W Hospicyjnym Zakładzie Opieki Zdrowotnej",
                "addr:street": "Dziedzictwa Jana Pawła II",
                "addr:housenumber": "12",
                "addr:city": "Puck",
                "addr:postcode": "84-100",
                "amenity": "pharmacy"
            },
            "geometry": {
                "type": "Point",
                "coordinates": [
                    18.40291186420163,
                    54.71117717479653
                ]
            }
        },
        {
            "type": "Feature",
            "properties": {
                "ref:csioz": 1139534,
                "name": "Apteka Szpitalna W Zakładzie Leczniczym: Szpital",
                "addr:street": "1 Maja",
                "addr:housenumber": "13",
                "addr:city": "Puck",
                "addr:postcode": "84-100",
                "amenity": "pharmacy"
            },
            "geometry": {
                "type": "Point",
                "coordinates": [
                    18.414626076306295,
                    54.72090237877081
                ]
            }
        },
        {
            "type": "Feature",
            "properties": {
                "ref:csioz": 1175393,
                "name": "Domowa",
                "addr:street": "Niepodległości",
                "addr:housenumber": "17",
                "addr:city": "Władysławowo",
                "addr:postcode": "84-120",
                "amenity": "pharmacy"
            },
            "geometry": {
                "type": "Point",
                "coordinates": [
                    18.405297301269236,
                    54.79039923186231
                ]
            }
        },
        {
            "type": "Feature",
            "properties": {
                "ref:csioz": 1179966,
                "name": "Apteka Pogodna W Galerii Rondo",
                "addr:street": "Kasztanowa",
                "addr:housenumber": "9",
                "addr:city": "Puck",
                "addr:postcode": "84-100",
                "amenity": "pharmacy"
            },
            "geometry": {
                "type": "Point",
                "coordinates": [
                    18.39179762865386,
                    54.708506061653566
                ]
            }
        },
        {
            "type": "Feature",
            "properties": {
                "ref:csioz": 1026732,
                "name": "Doz Apteka Dbam O Zdrowie",
                "addr:street": "Stary Rynek",
                "addr:housenumber": "12",
                "addr:city": "Puck",
                "addr:postcode": "84-100",
                "amenity": "pharmacy"
            },
            "geometry": {
                "type": "Point",
                "coordinates": [
                    18.410909609672867,
                    54.71999999666195
                ]
            }
        },
        {
            "type": "Feature",
            "properties": {
                "ref:csioz": 1032059,
                "name": "Apteka Dyżurna",
                "addr:street": "Wejhera",
                "addr:housenumber": "9",
                "addr:city": "Puck",
                "addr:postcode": "84-100",
                "amenity": "pharmacy"
            },
            "geometry": {
                "type": "Point",
                "coordinates": [
                    18.411145356338167,
                    54.71576595079448
                ]
            }
        },
        {
            "type": "Feature",
            "properties": {
                "ref:csioz": 1032319,
                "name": "Apteka Kaszub Mgr Farm. Katarzyna Pietrzak",
                "addr:street": "Sportowa",
                "addr:housenumber": "1",
                "addr:city": "Żelistrzewo",
                "addr:postcode": "84-122",
                "amenity": "pharmacy"
            },
            "geometry": {
                "type": "Point",
                "coordinates": [
                    18.41840539840111,
                    54.67514345969316
                ]
            }
        },
        {
            "type": "Feature",
            "properties": {
                "ref:csioz": 1119397,
                "name": "Wracam Do Zdrowia",
                "addr:street": "Gdańska",
                "addr:housenumber": "2a",
                "addr:city": "Władysławowo",
                "addr:postcode": "84-120",
                "amenity": "pharmacy"
            },
            "geometry": {
                "type": "Point",
                "coordinates": [
                    18.40730575686492,
                    54.78880262506295
                ]
            }
        },
        {
            "type": "Feature",
            "properties": {
                "ref:csioz": 1125026,
                "name": "Dział Farmacji Szpitalnej W Szpitalu Chirurgii Jednego Dnia",
                "addr:street": "Wojska Polskiego",
                "addr:housenumber": "16",
                "addr:city": "Puck",
                "addr:postcode": "84-100",
                "amenity": "pharmacy"
            },
            "geometry": {
                "type": "Point",
                "coordinates": [
                    18.410796436047736,
                    54.71635748136708
                ]
            }
        },
        {
            "type": "Feature",
            "properties": {
                "ref:csioz": 1125039,
                "name": "Dział Farmacji Szpitalnej W Puckim Centrum Medycznym Szpitala Jednego Dnia",
                "addr:street": "Wojska Polskiego",
                "addr:housenumber": "16",
                "addr:city": "Puck",
                "addr:postcode": "84-100",
                "amenity": "pharmacy"
            },
            "geometry": {
                "type": "Point",
                "coordinates": [
                    18.410796436047736,
                    54.71635748136708
                ]
            }
        },
        {
            "type": "Feature",
            "properties": {
                "ref:csioz": 1172654,
                "name": "Calendula",
                "addr:street": "Starowiejska",
                "addr:housenumber": "11",
                "addr:city": "Leśniewo",
                "addr:postcode": "84-106",
                "amenity": "pharmacy"
            },
            "geometry": {
                "type": "Point",
                "coordinates": [
                    18.237520492026015,
                    54.69520164072058
                ]
            }
        },
        {
            "type": "Feature",
            "properties": {
                "ref:csioz": 1201784,
                "name": "Rodzinna",
                "addr:street": "Żarnowiecka",
                "addr:housenumber": "1",
                "addr:city": "Puck",
                "addr:postcode": "84-100",
                "amenity": "pharmacy"
            },
            "geometry": {
                "type": "Point",
                "coordinates": [
                    18.390999506591566,
                    54.71766253950854
                ]
            }
        },
        {
            "type": "Feature",
            "properties": {
                "ref:csioz": 1217527,
                "name": "Apteka Dyżurna",
                "addr:street": "Wejherowska",
                "addr:housenumber": "16",
                "addr:city": "Puck",
                "addr:postcode": "84-100",
                "amenity": "pharmacy"
            },
            "geometry": {
                "type": "Point",
                "coordinates": [
                    18.40548058822948,
                    54.71612924565188
                ]
            }
        },
        {
            "type": "Feature",
            "properties": {
                "ref:csioz": 1223058,
                "name": "Doz Apteka. Dbam O Zdrowie. W Krokowej",
                "addr:street": "Żarnowiecka",
                "addr:housenumber": "4",
                "addr:city": "Krokowa",
                "addr:postcode": "84-110",
                "amenity": "pharmacy"
            },
            "geometry": {
                "type": "Point",
                "coordinates": [
                    18.160638999999563,
                    54.7796070000201
                ]
            }
        },
        {
            "type": "Feature",
            "properties": {
                "ref:csioz": 1223750,
                "name": "Wracam Do Zdrowia",
                "addr:street": "Kopernika",
                "addr:housenumber": "4",
                "addr:city": "Puck",
                "addr:postcode": "84-100",
                "amenity": "pharmacy"
            },
            "geometry": {
                "type": "Point",
                "coordinates": [
                    18.405226784517023,
                    54.71792912885942
                ]
            }
        },
        {
            "type": "Feature",
            "properties": {
                "ref:csioz": 1226931,
                "name": "Doz Apteka. Dbam O Zdrowie. Nad Zatoką Pucką",
                "addr:street": "10 Lutego",
                "addr:housenumber": "52",
                "addr:city": "Puck",
                "addr:postcode": "84-100",
                "amenity": "pharmacy"
            },
            "geometry": {
                "type": "Point",
                "coordinates": [
                    18.392558561205046,
                    54.71877124934202
                ]
            }
        },
        {
            "type": "Feature",
            "properties": {
                "ref:csioz": 1031414,
                "name": "\"Apteka \"\"Pod Filarami\"\" K.Pietrzak, K.Karolak Sp.J.\"",
                "addr:street": "gen. Józefa Hallera",
                "addr:housenumber": "19",
                "addr:city": "Władysławowo",
                "addr:postcode": "84-120",
                "amenity": "pharmacy"
            },
            "geometry": {
                "type": "Point",
                "coordinates": [
                    18.409645892928424,
                    54.794077250070316
                ]
            }
        },
        {
            "type": "Feature",
            "properties": {
                "ref:csioz": 1026497,
                "name": "Jantar",
                "addr:street": "Żeromskiego",
                "addr:housenumber": "51A",
                "addr:city": "Kosakowo",
                "addr:postcode": "81-198",
                "amenity": "pharmacy"
            },
            "geometry": {
                "type": "Point",
                "coordinates": [
                    18.49267157896689,
                    54.587804768862625
                ]
            }
        },
        {
            "type": "Feature",
            "properties": {
                "ref:csioz": 1116419,
                "name": "Apteka Serdeczna",
                "addr:street": "Żeromskiego",
                "addr:housenumber": "34",
                "addr:city": "Kosakowo",
                "addr:postcode": "81-198",
                "amenity": "pharmacy"
            },
            "geometry": {
                "type": "Point",
                "coordinates": [
                    18.49359850854857,
                    54.58235079097669
                ]
            }
        },
        {
            "type": "Feature",
            "properties": {
                "ref:csioz": 1033419,
                "name": "Multiapteka",
                "addr:street": "płk. Stanisława Dąbka",
                "addr:housenumber": "338",
                "addr:city": "Gdynia",
                "addr:postcode": "81-198",
                "amenity": "pharmacy"
            },
            "geometry": {
                "type": "Point",
                "coordinates": [
                    18.50417399999976,
                    54.565270000019716
                ]
            }
        },
        {
            "type": "Feature",
            "properties": {
                "ref:csioz": 1230462,
                "name": "Dział Farmacji Szpitalnej W Zakładzie Leczniczym: Discovery Clinic Pernak Banasiak",
                "addr:street": "Sowia",
                "addr:housenumber": "3",
                "addr:city": "Suchy Dwór",
                "addr:postcode": "81-198",
                "amenity": "pharmacy"
            },
            "geometry": {
                "type": "Point",
                "coordinates": [
                    18.47159336308149,
                    54.57535745433665
                ]
            }
        },
        {
            "type": "Feature",
            "properties": {
                "ref:csioz": 1032149,
                "name": "Wracam Do Zdrowia",
                "addr:street": "Dworcowa",
                "addr:housenumber": "1",
                "addr:city": "Hel",
                "addr:postcode": "84-150",
                "amenity": "pharmacy"
            },
            "geometry": {
                "type": "Point",
                "coordinates": [
                    18.801628723722995,
                    54.60928248289612
                ]
            }
        },
        {
            "type": "Feature",
            "properties": {
                "ref:csioz": 1031120,
                "name": "Helska",
                "addr:street": "Wiejska",
                "addr:housenumber": "97",
                "addr:city": "Hel",
                "addr:postcode": "84-150",
                "amenity": "pharmacy"
            },
            "geometry": {
                "type": "Point",
                "coordinates": [
                    18.8039949479672,
                    54.60333938898409
                ]
            }
        },
        {
            "type": "Feature",
            "properties": {
                "ref:csioz": 1033377,
                "name": "Wiktoria",
                "addr:street": "Mariana Stelmaszczyka",
                "addr:housenumber": "5A",
                "addr:city": "Jastarnia",
                "addr:postcode": "84-140",
                "amenity": "pharmacy"
            },
            "geometry": {
                "type": "Point",
                "coordinates": [
                    18.674868936866016,
                    54.69976312155945
                ]
            }
        },
        {
            "type": "Feature",
            "properties": {
                "ref:csioz": 1209151,
                "name": "115 Szpital Wojskowy Z Przychodnią Sp Zoz Hel",
                "addr:street": "Boczna",
                "addr:housenumber": "10",
                "addr:city": "Hel",
                "addr:postcode": "84-150",
                "amenity": "pharmacy"
            },
            "geometry": {
                "type": "Point",
                "coordinates": [
                    18.799783693416796,
                    54.61057435211234
                ]
            }
        }
    ]
}