{
    "type": "FeatureCollection",
    "name": "JPT_KOD_JE_3030",
    "crs": {
        "type": "name",
        "properties": {
            "name": "urn:ogc:def:crs:EPSG::4326"
        }
    },
    "features": [
        {
            "type": "Feature",
            "properties": {
                "ref:csioz": 1044925,
                "name": "Na Sławnie",
                "addr:street": "Fromborska",
                "addr:housenumber": "46A",
                "addr:city": "Września",
                "addr:postcode": "62-300",
                "amenity": "pharmacy"
            },
            "geometry": {
                "type": "Point",
                "coordinates": [
                    17.56507909952016,
                    52.31482655919467
                ]
            }
        },
        {
            "type": "Feature",
            "properties": {
                "ref:csioz": 1046325,
                "name": "Świętego Jakuba",
                "addr:street": "Wiosny Ludów",
                "addr:housenumber": "22",
                "addr:city": "Miłosław",
                "addr:postcode": "62-320",
                "amenity": "pharmacy"
            },
            "geometry": {
                "type": "Point",
                "coordinates": [
                    17.488970582499586,
                    52.20270235598295
                ]
            }
        },
        {
            "type": "Feature",
            "properties": {
                "ref:csioz": 1046330,
                "name": "Jana Pawła Ii",
                "addr:street": "Rynek",
                "addr:housenumber": "1",
                "addr:city": "Pyzdry",
                "addr:postcode": "62-310",
                "amenity": "pharmacy"
            },
            "geometry": {
                "type": "Point",
                "coordinates": [
                    17.687588362550347,
                    52.16605504833733
                ]
            }
        },
        {
            "type": "Feature",
            "properties": {
                "ref:csioz": 1046702,
                "name": "Płomińskich",
                "addr:street": "Daszyńskiego",
                "addr:housenumber": "7",
                "addr:city": "Pyzdry",
                "addr:postcode": "62-310",
                "amenity": "pharmacy"
            },
            "geometry": {
                "type": "Point",
                "coordinates": [
                    17.686388450709543,
                    52.16630167325806
                ]
            }
        },
        {
            "type": "Feature",
            "properties": {
                "ref:csioz": 1123402,
                "name": "Prima",
                "addr:street": "Armii Poznań",
                "addr:housenumber": "6",
                "addr:city": "Września",
                "addr:postcode": "62-300",
                "amenity": "pharmacy"
            },
            "geometry": {
                "type": "Point",
                "coordinates": [
                    17.566062462723426,
                    52.33452259829836
                ]
            }
        },
        {
            "type": "Feature",
            "properties": {
                "ref:csioz": 1175626,
                "name": "Gemini",
                "addr:street": "Warszawska",
                "addr:housenumber": "22",
                "addr:city": "Września",
                "addr:postcode": "62-300",
                "amenity": "pharmacy"
            },
            "geometry": {
                "type": "Point",
                "coordinates": [
                    17.57165544092241,
                    52.32571551044187
                ]
            }
        },
        {
            "type": "Feature",
            "properties": {
                "ref:csioz": 1191020,
                "name": "Na Zdrowie",
                "addr:street": "Wrzesińska",
                "addr:housenumber": "79",
                "addr:city": "Borzykowo",
                "addr:postcode": "62-307",
                "amenity": "pharmacy"
            },
            "geometry": {
                "type": "Point",
                "coordinates": [
                    17.660033571835097,
                    52.19871083142051
                ]
            }
        },
        {
            "type": "Feature",
            "properties": {
                "ref:csioz": 1043990,
                "addr:street": "Spokojna",
                "addr:housenumber": "4",
                "addr:city": "Sokolniki",
                "addr:postcode": "62-305",
                "amenity": "pharmacy"
            },
            "geometry": {
                "type": "Point",
                "coordinates": [
                    17.707437405705218,
                    52.25181515988805
                ]
            }
        },
        {
            "type": "Feature",
            "properties": {
                "ref:csioz": 1044486,
                "addr:street": "SŁOWACKIEGO",
                "addr:housenumber": "2",
                "addr:city": "WRZEŚNIA",
                "addr:postcode": "62-300",
                "amenity": "pharmacy"
            },
            "geometry": {
                "type": "Point",
                "coordinates": [
                    17.573444791488424,
                    52.32508016127205
                ]
            }
        },
        {
            "type": "Feature",
            "properties": {
                "ref:csioz": 1045986,
                "name": "Stylowa",
                "addr:street": "Henryka Sienkiewicza",
                "addr:housenumber": "7",
                "addr:city": "Września",
                "addr:postcode": "62-300",
                "amenity": "pharmacy"
            },
            "geometry": {
                "type": "Point",
                "coordinates": [
                    17.566258386874242,
                    52.323986610560226
                ]
            }
        },
        {
            "type": "Feature",
            "properties": {
                "ref:csioz": 1046484,
                "name": "U Złotego Źródła",
                "addr:street": "Wrzesińska",
                "addr:housenumber": "24B",
                "addr:city": "Miłosław",
                "addr:postcode": "62-320",
                "amenity": "pharmacy"
            },
            "geometry": {
                "type": "Point",
                "coordinates": [
                    17.48962849259178,
                    52.206908056358856
                ]
            }
        },
        {
            "type": "Feature",
            "properties": {
                "ref:csioz": 1046843,
                "name": "Betula",
                "addr:street": "Chopina",
                "addr:housenumber": "43A",
                "addr:city": "Nekla",
                "addr:postcode": "62-330",
                "amenity": "pharmacy"
            },
            "geometry": {
                "type": "Point",
                "coordinates": [
                    17.41220322471112,
                    52.364010308619314
                ]
            }
        },
        {
            "type": "Feature",
            "properties": {
                "ref:csioz": 1048034,
                "name": "Arnika",
                "addr:street": "Kolejowa",
                "addr:housenumber": "21",
                "addr:city": "Orzechowo",
                "addr:postcode": "62-322",
                "amenity": "pharmacy"
            },
            "geometry": {
                "type": "Point",
                "coordinates": [
                    17.476576670430266,
                    52.128185844073755
                ]
            }
        },
        {
            "type": "Feature",
            "properties": {
                "ref:csioz": 1049952,
                "name": "Witaminka",
                "addr:street": "LEGII WRZESIŃSKIEJ",
                "addr:housenumber": "11",
                "addr:city": "WRZEŚNIA",
                "addr:postcode": "62-300",
                "amenity": "pharmacy"
            },
            "geometry": {
                "type": "Point",
                "coordinates": [
                    17.574777646264458,
                    52.324463869936416
                ]
            }
        },
        {
            "type": "Feature",
            "properties": {
                "ref:csioz": 1050156,
                "name": "\"Cef@Rm 36,6\"",
                "addr:street": "Kosynierów",
                "addr:housenumber": "23",
                "addr:city": "Września",
                "addr:postcode": "62-300",
                "amenity": "pharmacy"
            },
            "geometry": {
                "type": "Point",
                "coordinates": [
                    17.57238535889513,
                    52.33037228431514
                ]
            }
        },
        {
            "type": "Feature",
            "properties": {
                "ref:csioz": 1050812,
                "name": "Dr. Max",
                "addr:street": "Miłosławska",
                "addr:housenumber": "10",
                "addr:city": "Września",
                "addr:postcode": "62-300",
                "amenity": "pharmacy"
            },
            "geometry": {
                "type": "Point",
                "coordinates": [
                    17.562361716248766,
                    52.32194320111885
                ]
            }
        },
        {
            "type": "Feature",
            "properties": {
                "ref:csioz": 1051585,
                "name": "Vita",
                "addr:street": "Miłosławska",
                "addr:housenumber": "1",
                "addr:city": "Kołaczkowo",
                "addr:postcode": "62-306",
                "amenity": "pharmacy"
            },
            "geometry": {
                "type": "Point",
                "coordinates": [
                    17.62308270076166,
                    52.21580469805295
                ]
            }
        },
        {
            "type": "Feature",
            "properties": {
                "ref:csioz": 1055381,
                "name": "Prima",
                "addr:street": "Bolesława Chrobrego",
                "addr:housenumber": "10",
                "addr:city": "Września",
                "addr:postcode": "62-300",
                "amenity": "pharmacy"
            },
            "geometry": {
                "type": "Point",
                "coordinates": [
                    17.58383563467769,
                    52.32311394834546
                ]
            }
        },
        {
            "type": "Feature",
            "properties": {
                "ref:csioz": 1055442,
                "name": "Aspirynka",
                "addr:street": "Henryka Sienkiewicza",
                "addr:housenumber": "20",
                "addr:city": "Września",
                "addr:postcode": "62-300",
                "amenity": "pharmacy"
            },
            "geometry": {
                "type": "Point",
                "coordinates": [
                    17.56612681540167,
                    52.32470873941314
                ]
            }
        },
        {
            "type": "Feature",
            "properties": {
                "ref:csioz": 1124021,
                "name": "Medica",
                "addr:street": "Rynek",
                "addr:housenumber": "20",
                "addr:flats": "21",
                "addr:city": "Nekla",
                "addr:postcode": "62-330",
                "amenity": "pharmacy"
            },
            "geometry": {
                "type": "Point",
                "coordinates": [
                    17.41327584833543,
                    52.365804415281794
                ]
            }
        },
        {
            "type": "Feature",
            "properties": {
                "ref:csioz": 1202929,
                "name": "Moja",
                "addr:street": "Bolesława Chrobrego",
                "addr:housenumber": "17",
                "addr:city": "Września",
                "addr:postcode": "62-300",
                "amenity": "pharmacy"
            },
            "geometry": {
                "type": "Point",
                "coordinates": [
                    17.583221690003363,
                    52.32387895122295
                ]
            }
        },
        {
            "type": "Feature",
            "properties": {
                "ref:csioz": 1206345,
                "name": "Dr. Max",
                "addr:street": "Kolejowa",
                "addr:housenumber": "15",
                "addr:city": "Września",
                "addr:postcode": "62-300",
                "amenity": "pharmacy"
            },
            "geometry": {
                "type": "Point",
                "coordinates": [
                    17.56134120212161,
                    52.32440233439671
                ]
            }
        },
        {
            "type": "Feature",
            "properties": {
                "ref:csioz": 1207484,
                "name": "Prima",
                "addr:street": "Ignacego Paderewskiego",
                "addr:housenumber": "52",
                "addr:city": "Września",
                "addr:postcode": "62-300",
                "amenity": "pharmacy"
            },
            "geometry": {
                "type": "Point",
                "coordinates": [
                    17.541698378360884,
                    52.330969991168665
                ]
            }
        },
        {
            "type": "Feature",
            "properties": {
                "ref:csioz": 1214807,
                "name": "Moja",
                "addr:street": "ul. Piastów",
                "addr:housenumber": "16",
                "addr:city": "Września",
                "addr:postcode": "62-300",
                "amenity": "pharmacy"
            },
            "geometry": {
                "type": "Point",
                "coordinates": [
                    17.588443500220908,
                    52.322262483946815
                ]
            }
        },
        {
            "type": "Feature",
            "properties": {
                "ref:csioz": 1218523,
                "name": "Mega-Pharm",
                "addr:street": "Piastów",
                "addr:housenumber": "16",
                "addr:flats": "F",
                "addr:city": "Września",
                "addr:postcode": "62-300",
                "amenity": "pharmacy"
            },
            "geometry": {
                "type": "Point",
                "coordinates": [
                    17.588443500220908,
                    52.322262483946815
                ]
            }
        }
    ]
}