{
    "type": "FeatureCollection",
    "name": "JPT_KOD_JE_2807",
    "crs": {
        "type": "name",
        "properties": {
            "name": "urn:ogc:def:crs:EPSG::4326"
        }
    },
    "features": [
        {
            "type": "Feature",
            "properties": {
                "ref:csioz": 1040636,
                "name": "Remedium",
                "addr:street": "Rzepnikowskiego",
                "addr:housenumber": "20",
                "addr:city": "LUBAWA",
                "addr:postcode": "14-260",
                "amenity": "pharmacy"
            },
            "geometry": {
                "type": "Point",
                "coordinates": [
                    19.749081019704235,
                    53.5013261624531
                ]
            }
        },
        {
            "type": "Feature",
            "properties": {
                "ref:csioz": 1114856,
                "name": "Grunwaldzka 1",
                "addr:street": "Kopernika",
                "addr:housenumber": "3",
                "addr:city": "Lubawa",
                "addr:postcode": "14-260",
                "amenity": "pharmacy"
            },
            "geometry": {
                "type": "Point",
                "coordinates": [
                    19.75086819978067,
                    53.50628154960448
                ]
            }
        },
        {
            "type": "Feature",
            "properties": {
                "ref:csioz": 1228780,
                "name": "\"Niepubliczny Zakład Opieki Długoterminowej P.W. \"\"Szpital Św. Jerzego\"\"\"",
                "addr:street": "Grunwaldzka",
                "addr:housenumber": "11",
                "addr:city": "Lubawa",
                "addr:postcode": "14-260",
                "amenity": "pharmacy"
            },
            "geometry": {
                "type": "Point",
                "coordinates": [
                    19.74913416416312,
                    53.50633907975578
                ]
            }
        },
        {
            "type": "Feature",
            "properties": {
                "ref:csioz": 1040612,
                "name": "Apteka Arnika",
                "addr:street": "Rynek",
                "addr:housenumber": "20",
                "addr:city": "LUBAWA",
                "addr:postcode": "14-260",
                "amenity": "pharmacy"
            },
            "geometry": {
                "type": "Point",
                "coordinates": [
                    19.75008201488259,
                    53.50375879256652
                ]
            }
        },
        {
            "type": "Feature",
            "properties": {
                "ref:csioz": 1040620,
                "name": "Grunwaldzka",
                "addr:street": "Grunwaldzka",
                "addr:housenumber": "2",
                "addr:city": "LUBAWA",
                "addr:postcode": "14-260",
                "amenity": "pharmacy"
            },
            "geometry": {
                "type": "Point",
                "coordinates": [
                    19.75004188473925,
                    53.50485996186716
                ]
            }
        },
        {
            "type": "Feature",
            "properties": {
                "ref:csioz": 1210235,
                "addr:housenumber": "54",
                "addr:city": "Prątnica",
                "addr:postcode": "14-260",
                "amenity": "pharmacy"
            },
            "geometry": {
                "type": "Point",
                "coordinates": [
                    19.810167768159122,
                    53.477112202901814
                ]
            }
        },
        {
            "type": "Feature",
            "properties": {
                "ref:csioz": 1192870,
                "name": "\"Apteka \"\"Dla Ciebie\"\"\"",
                "addr:street": "Rynek",
                "addr:housenumber": "6",
                "addr:flats": "22",
                "addr:city": "Lubawa",
                "addr:postcode": "14-260",
                "amenity": "pharmacy"
            },
            "geometry": {
                "type": "Point",
                "coordinates": [
                    19.74932495616451,
                    53.504490458259724
                ]
            }
        },
        {
            "type": "Feature",
            "properties": {
                "ref:csioz": 1040594,
                "name": "Witaminka",
                "addr:street": "Sienkiewicza",
                "addr:housenumber": "34",
                "addr:city": "KISIELICE",
                "addr:postcode": "14-220",
                "amenity": "pharmacy"
            },
            "geometry": {
                "type": "Point",
                "coordinates": [
                    19.262607930066256,
                    53.609691766968915
                ]
            }
        },
        {
            "type": "Feature",
            "properties": {
                "ref:csioz": 1040430,
                "addr:street": "Okulickiego",
                "addr:housenumber": "1",
                "addr:city": "IŁAWA",
                "addr:postcode": "14-200",
                "amenity": "pharmacy"
            },
            "geometry": {
                "type": "Point",
                "coordinates": [
                    19.555037129415492,
                    53.5855081904885
                ]
            }
        },
        {
            "type": "Feature",
            "properties": {
                "ref:csioz": 1040449,
                "name": "Dr. Max",
                "addr:street": "Niepodległości",
                "addr:housenumber": "10",
                "addr:city": "Iława",
                "addr:postcode": "14-200",
                "amenity": "pharmacy"
            },
            "geometry": {
                "type": "Point",
                "coordinates": [
                    19.562745539792488,
                    53.59728445514832
                ]
            }
        },
        {
            "type": "Feature",
            "properties": {
                "ref:csioz": 1040463,
                "name": "Apteka Dbam O Zdrowie",
                "addr:street": "Wyszyńskiego",
                "addr:housenumber": "33",
                "addr:city": "IŁAWA",
                "addr:postcode": "14-200",
                "amenity": "pharmacy"
            },
            "geometry": {
                "type": "Point",
                "coordinates": [
                    19.572726893115213,
                    53.58861546517199
                ]
            }
        },
        {
            "type": "Feature",
            "properties": {
                "ref:csioz": 1040474,
                "name": "Dla Ciebie",
                "addr:street": "Marii Skłodowskiej-Curie",
                "addr:housenumber": "25C",
                "addr:city": "Iława",
                "addr:postcode": "14-200",
                "amenity": "pharmacy"
            },
            "geometry": {
                "type": "Point",
                "coordinates": [
                    19.562182550856424,
                    53.583421042481135
                ]
            }
        },
        {
            "type": "Feature",
            "properties": {
                "ref:csioz": 1040482,
                "name": "Eskulap",
                "addr:street": "Grunwaldzka",
                "addr:housenumber": "1",
                "addr:city": "IŁAWA",
                "addr:postcode": "14-200",
                "amenity": "pharmacy"
            },
            "geometry": {
                "type": "Point",
                "coordinates": [
                    19.568420922985716,
                    53.59506311095932
                ]
            }
        },
        {
            "type": "Feature",
            "properties": {
                "ref:csioz": 1040496,
                "name": "Lipowy Dwór",
                "addr:street": "Jarosława Dąbrowskiego",
                "addr:housenumber": "46B",
                "addr:flats": "1A",
                "addr:city": "Iława",
                "addr:postcode": "14-200",
                "amenity": "pharmacy"
            },
            "geometry": {
                "type": "Point",
                "coordinates": [
                    19.567280383726303,
                    53.60470682697832
                ]
            }
        },
        {
            "type": "Feature",
            "properties": {
                "ref:csioz": 1040505,
                "name": "Mandragora",
                "addr:street": "M.C. Skłodowskiej",
                "addr:housenumber": "24A",
                "addr:city": "IŁAWA",
                "addr:postcode": "14-200",
                "amenity": "pharmacy"
            },
            "geometry": {
                "type": "Point",
                "coordinates": [
                    19.560741000000245,
                    53.58518600001804
                ]
            }
        },
        {
            "type": "Feature",
            "properties": {
                "ref:csioz": 1040560,
                "name": "Staromiejska",
                "addr:street": "Niepodległości",
                "addr:housenumber": "14",
                "addr:city": "IŁAWA",
                "addr:postcode": "14-200",
                "amenity": "pharmacy"
            },
            "geometry": {
                "type": "Point",
                "coordinates": [
                    19.559714912918178,
                    53.59817344976578
                ]
            }
        },
        {
            "type": "Feature",
            "properties": {
                "ref:csioz": 1116573,
                "name": "Centrum Kardiologii Scanmed W Iławie",
                "addr:street": "gen. Władysława Andersa",
                "addr:housenumber": "3",
                "addr:city": "Iława",
                "addr:postcode": "14-200",
                "amenity": "pharmacy"
            },
            "geometry": {
                "type": "Point",
                "coordinates": [
                    19.566849036711236,
                    53.58650015534902
                ]
            }
        },
        {
            "type": "Feature",
            "properties": {
                "ref:csioz": 1184407,
                "name": "Doz Apteka. Dbam O Zdrowie",
                "addr:street": "Królowej Jadwigi",
                "addr:housenumber": "6",
                "addr:flats": "B 0.02",
                "addr:city": "Iława",
                "addr:postcode": "14-200",
                "amenity": "pharmacy"
            },
            "geometry": {
                "type": "Point",
                "coordinates": [
                    19.565367009926682,
                    53.595439171514
                ]
            }
        },
        {
            "type": "Feature",
            "properties": {
                "ref:csioz": 1211800,
                "name": "Apteka Społeczna Na Kopernika Grupa Nowa Farmacja",
                "addr:street": "Mikołaja Kopernika",
                "addr:housenumber": "5A",
                "addr:flats": "1",
                "addr:city": "Iława",
                "addr:postcode": "14-200",
                "amenity": "pharmacy"
            },
            "geometry": {
                "type": "Point",
                "coordinates": [
                    19.565978133482815,
                    53.58951041015623
                ]
            }
        },
        {
            "type": "Feature",
            "properties": {
                "ref:csioz": 1220217,
                "name": "Nova",
                "addr:street": "Mikołaja Kopernika",
                "addr:housenumber": "3",
                "addr:flats": "4A/1",
                "addr:city": "Iława",
                "addr:postcode": "14-200",
                "amenity": "pharmacy"
            },
            "geometry": {
                "type": "Point",
                "coordinates": [
                    19.567013514669302,
                    53.58962887603354
                ]
            }
        },
        {
            "type": "Feature",
            "properties": {
                "ref:csioz": 1041092,
                "name": "Hubertus",
                "addr:street": "Słowiańska",
                "addr:housenumber": "21",
                "addr:flats": "3",
                "addr:city": "SUSZ",
                "addr:postcode": "14-240",
                "amenity": "pharmacy"
            },
            "geometry": {
                "type": "Point",
                "coordinates": [
                    19.336265680079208,
                    53.71732705321411
                ]
            }
        },
        {
            "type": "Feature",
            "properties": {
                "ref:csioz": 1041101,
                "name": "Doz Apteka. Dbam O Zdrowie W Przychodni",
                "addr:street": "Wybickiego",
                "addr:housenumber": "9",
                "addr:city": "SUSZ",
                "addr:postcode": "14-240",
                "amenity": "pharmacy"
            },
            "geometry": {
                "type": "Point",
                "coordinates": [
                    19.3367034980135,
                    53.71370643318911
                ]
            }
        },
        {
            "type": "Feature",
            "properties": {
                "ref:csioz": 1041125,
                "name": "Arnika",
                "addr:street": "29 Stycznia",
                "addr:housenumber": "18A",
                "addr:city": "ZALEWO",
                "addr:postcode": "14-230",
                "amenity": "pharmacy"
            },
            "geometry": {
                "type": "Point",
                "coordinates": [
                    19.60037937569865,
                    53.84598302022407
                ]
            }
        },
        {
            "type": "Feature",
            "properties": {
                "ref:csioz": 1041130,
                "name": "Błękitna",
                "addr:street": "Częstochowska",
                "addr:housenumber": "13",
                "addr:city": "ZALEWO",
                "addr:postcode": "14-230",
                "amenity": "pharmacy"
            },
            "geometry": {
                "type": "Point",
                "coordinates": [
                    19.605936000000273,
                    53.84557400001848
                ]
            }
        },
        {
            "type": "Feature",
            "properties": {
                "ref:csioz": 1041149,
                "name": "Apteka Dr N. Farm. Tomasz Dębowski",
                "addr:street": "Szkolna",
                "addr:housenumber": "4",
                "addr:city": "Ząbrowo",
                "addr:postcode": "14-241",
                "amenity": "pharmacy"
            },
            "geometry": {
                "type": "Point",
                "coordinates": [
                    19.457364423954523,
                    53.63585417320511
                ]
            }
        },
        {
            "type": "Feature",
            "properties": {
                "ref:csioz": 1115162,
                "name": "Staromiejska",
                "addr:street": "Stare Miasto",
                "addr:housenumber": "6",
                "addr:city": "Susz",
                "addr:postcode": "14-240",
                "amenity": "pharmacy"
            },
            "geometry": {
                "type": "Point",
                "coordinates": [
                    19.33900462443336,
                    53.71849063609369
                ]
            }
        },
        {
            "type": "Feature",
            "properties": {
                "ref:csioz": 1120239,
                "name": "Apteka Dla Ciebie",
                "addr:street": "Plażowa",
                "addr:housenumber": "2",
                "addr:city": "Susz",
                "addr:postcode": "14-240",
                "amenity": "pharmacy"
            },
            "geometry": {
                "type": "Point",
                "coordinates": [
                    19.335591797482788,
                    53.71324777031748
                ]
            }
        },
        {
            "type": "Feature",
            "properties": {
                "ref:csioz": 1175307,
                "name": "Nova",
                "addr:street": "Wiejska",
                "addr:housenumber": "5",
                "addr:city": "Iława",
                "addr:postcode": "14-200",
                "amenity": "pharmacy"
            },
            "geometry": {
                "type": "Point",
                "coordinates": [
                    19.556358458153724,
                    53.58543724397097
                ]
            }
        },
        {
            "type": "Feature",
            "properties": {
                "ref:csioz": 1185354,
                "addr:street": "gen. Władysława Andersa",
                "addr:housenumber": "3",
                "addr:city": "Iława",
                "addr:postcode": "14-200",
                "amenity": "pharmacy"
            },
            "geometry": {
                "type": "Point",
                "coordinates": [
                    19.566849036711236,
                    53.58650015534902
                ]
            }
        },
        {
            "type": "Feature",
            "properties": {
                "ref:csioz": 1187892,
                "name": "Apteka Mgr Adam Justyn Cichoń",
                "addr:street": "gen. Władysława Andersa",
                "addr:housenumber": "3",
                "addr:city": "Iława",
                "addr:postcode": "14-200",
                "amenity": "pharmacy"
            },
            "geometry": {
                "type": "Point",
                "coordinates": [
                    19.566849036711236,
                    53.58650015534902
                ]
            }
        },
        {
            "type": "Feature",
            "properties": {
                "ref:csioz": 1197973,
                "name": "Doz Apteka Dbam O Zdrowie",
                "addr:street": "Aleja Jana Pawła II",
                "addr:housenumber": "14",
                "addr:city": "Iława",
                "addr:postcode": "14-200",
                "amenity": "pharmacy"
            },
            "geometry": {
                "type": "Point",
                "coordinates": [
                    19.573901692538943,
                    53.59967911475822
                ]
            }
        },
        {
            "type": "Feature",
            "properties": {
                "ref:csioz": 1212874,
                "name": "Apteka Gemini",
                "addr:street": "Jana III Sobieskiego",
                "addr:housenumber": "45",
                "addr:city": "Iława",
                "addr:postcode": "14-202",
                "amenity": "pharmacy"
            },
            "geometry": {
                "type": "Point",
                "coordinates": [
                    19.5662841602567,
                    53.58823791408093
                ]
            }
        },
        {
            "type": "Feature",
            "properties": {
                "ref:csioz": 1228527,
                "addr:street": "Ostródzka",
                "addr:housenumber": "54",
                "addr:city": "Iława",
                "addr:postcode": "14-200",
                "amenity": "pharmacy"
            },
            "geometry": {
                "type": "Point",
                "coordinates": [
                    19.590813160432607,
                    53.60590966288182
                ]
            }
        },
        {
            "type": "Feature",
            "properties": {
                "ref:csioz": 1229240,
                "name": "Punkt Apteczny Arnika",
                "addr:housenumber": "123A",
                "addr:city": "Rożental",
                "addr:postcode": "14-260",
                "amenity": "pharmacy"
            },
            "geometry": {
                "type": "Point",
                "coordinates": [
                    19.769646810690514,
                    53.566876782519195
                ]
            }
        },
        {
            "type": "Feature",
            "properties": {
                "ref:csioz": 1204048,
                "name": "\"Niepubliczny Zakład Opieki Zdrowotnej \"\"Twoje Oczy\"\" Janusz Adamski\"",
                "addr:street": "gen. Władysława Andersa",
                "addr:housenumber": "3",
                "addr:city": "Iława",
                "addr:postcode": "14-200",
                "amenity": "pharmacy"
            },
            "geometry": {
                "type": "Point",
                "coordinates": [
                    19.566849036711236,
                    53.58650015534902
                ]
            }
        }
    ]
}