{
    "type": "FeatureCollection",
    "name": "JPT_KOD_JE_1061",
    "features": [
        {
            "type": "Feature",
            "properties": {
                "ref:csioz": 1010936,
                "name": "Doz Apteka Dbam O Zdrowie",
                "addr:street": "Piotrkowska",
                "addr:housenumber": "225",
                "addr:city": "Łódź",
                "addr:postcode": "90-451",
                "amenity": "pharmacy"
            },
            "geometry": {
                "type": "Point",
                "coordinates": [
                    19.459730764379188,
                    51.75289111323172
                ]
            }
        },
        {
            "type": "Feature",
            "properties": {
                "ref:csioz": 1012145,
                "name": "Apteka Dbam O Zdrowie",
                "addr:street": "Wolności",
                "addr:housenumber": "2",
                "addr:city": "Łódź",
                "addr:postcode": "91-415",
                "amenity": "pharmacy"
            },
            "geometry": {
                "type": "Point",
                "coordinates": [
                    19.4541506027091,
                    51.77625156591741
                ]
            }
        },
        {
            "type": "Feature",
            "properties": {
                "ref:csioz": 1012569,
                "name": "Bio",
                "addr:street": "Traktorowa",
                "addr:housenumber": "67",
                "addr:city": "Łódź",
                "addr:postcode": "91-204",
                "amenity": "pharmacy"
            },
            "geometry": {
                "type": "Point",
                "coordinates": [
                    19.39478191014083,
                    51.79686044545222
                ]
            }
        },
        {
            "type": "Feature",
            "properties": {
                "ref:csioz": 1013095,
                "name": "Alfa",
                "addr:street": "Zielona",
                "addr:housenumber": "24/26",
                "addr:city": "Łódź",
                "addr:postcode": "90-602",
                "amenity": "pharmacy"
            },
            "geometry": {
                "type": "Point",
                "coordinates": [
                    19.447528000000144,
                    51.76974400001512
                ]
            }
        },
        {
            "type": "Feature",
            "properties": {
                "ref:csioz": 1013792,
                "name": "Apteka Dbam O Zdrowie",
                "addr:street": "Pojezierska",
                "addr:housenumber": "93",
                "addr:city": "Łódź",
                "addr:postcode": "91-341",
                "amenity": "pharmacy"
            },
            "geometry": {
                "type": "Point",
                "coordinates": [
                    19.420945647206413,
                    51.80057672967209
                ]
            }
        },
        {
            "type": "Feature",
            "properties": {
                "ref:csioz": 1013970,
                "name": "Apteka U Dominika",
                "addr:street": "Adama Próchnika",
                "addr:housenumber": "12",
                "addr:city": "Łódź",
                "addr:postcode": "90-404",
                "amenity": "pharmacy"
            },
            "geometry": {
                "type": "Point",
                "coordinates": [
                    19.452965087820193,
                    51.774428319838954
                ]
            }
        },
        {
            "type": "Feature",
            "properties": {
                "ref:csioz": 1014340,
                "name": "Rodzinna",
                "addr:street": "Juliusza Jurczyńskiego",
                "addr:housenumber": "30A",
                "addr:city": "Łódź",
                "addr:postcode": "92-306",
                "amenity": "pharmacy"
            },
            "geometry": {
                "type": "Point",
                "coordinates": [
                    19.55220083366074,
                    51.7592959928923
                ]
            }
        },
        {
            "type": "Feature",
            "properties": {
                "ref:csioz": 1015267,
                "name": "Fortuna",
                "addr:street": "Zygmunta Sierakowskiego",
                "addr:housenumber": "67A",
                "addr:city": "Łódź",
                "addr:postcode": "91-324",
                "amenity": "pharmacy"
            },
            "geometry": {
                "type": "Point",
                "coordinates": [
                    19.43945542341999,
                    51.79629967007254
                ]
            }
        },
        {
            "type": "Feature",
            "properties": {
                "ref:csioz": 1015364,
                "name": "Apteka Propharma",
                "addr:street": "hm. Aleksandra  Kamińskiego",
                "addr:housenumber": "2",
                "addr:city": "Łódź-Śródmieście",
                "addr:postcode": "91-427",
                "amenity": "pharmacy"
            },
            "geometry": {
                "type": "Point",
                "coordinates": [
                    19.47460075352669,
                    51.7804078326314
                ]
            }
        },
        {
            "type": "Feature",
            "properties": {
                "ref:csioz": 1015525,
                "name": "Apteka Dbam O Zdrowie",
                "addr:street": "Rewolucji 1905 r.",
                "addr:housenumber": "11",
                "addr:city": "Łódź",
                "addr:postcode": "90-273",
                "amenity": "pharmacy"
            },
            "geometry": {
                "type": "Point",
                "coordinates": [
                    19.457463567144003,
                    51.7748239688817
                ]
            }
        },
        {
            "type": "Feature",
            "properties": {
                "ref:csioz": 1017419,
                "name": "Euro-Apteka",
                "addr:street": "Prezydenta Gabriela Narutowicza",
                "addr:housenumber": "96",
                "addr:city": "Łódź",
                "addr:postcode": "90-141",
                "amenity": "pharmacy"
            },
            "geometry": {
                "type": "Point",
                "coordinates": [
                    19.483484190682823,
                    51.77329112153963
                ]
            }
        },
        {
            "type": "Feature",
            "properties": {
                "ref:csioz": 1018856,
                "name": "Apteka Dbam O Zdrowie",
                "addr:street": "Beli Bartoka",
                "addr:housenumber": "72",
                "addr:city": "Łódź",
                "addr:postcode": "92-530",
                "amenity": "pharmacy"
            },
            "geometry": {
                "type": "Point",
                "coordinates": [
                    19.53525810807336,
                    51.758329093120324
                ]
            }
        },
        {
            "type": "Feature",
            "properties": {
                "ref:csioz": 1019161,
                "name": "Super-Pharm",
                "addr:street": "Jana Karskiego",
                "addr:housenumber": "5",
                "addr:city": "Łódź",
                "addr:postcode": "91-071",
                "amenity": "pharmacy"
            },
            "geometry": {
                "type": "Point",
                "coordinates": [
                    19.439014337398767,
                    51.77898210415599
                ]
            }
        },
        {
            "type": "Feature",
            "properties": {
                "ref:csioz": 1019221,
                "name": "Europejska",
                "addr:street": "Zgierska",
                "addr:housenumber": "107",
                "addr:city": "Łódź",
                "addr:postcode": "91-468",
                "amenity": "pharmacy"
            },
            "geometry": {
                "type": "Point",
                "coordinates": [
                    19.445459906308272,
                    51.796418633659556
                ]
            }
        },
        {
            "type": "Feature",
            "properties": {
                "ref:csioz": 1020597,
                "name": "Super Tania Apteka Panax",
                "addr:street": "Wici",
                "addr:housenumber": "44",
                "addr:city": "Łódź",
                "addr:postcode": "91-157",
                "amenity": "pharmacy"
            },
            "geometry": {
                "type": "Point",
                "coordinates": [
                    19.372469950699692,
                    51.79871111000274
                ]
            }
        },
        {
            "type": "Feature",
            "properties": {
                "ref:csioz": 1022452,
                "name": "Doz Apteka Dbam O Zdrowie Supervita",
                "addr:street": "Wilcza",
                "addr:housenumber": "4",
                "addr:city": "Łódź",
                "addr:postcode": "90-339",
                "amenity": "pharmacy"
            },
            "geometry": {
                "type": "Point",
                "coordinates": [
                    19.48496212512993,
                    51.7560112819735
                ]
            }
        },
        {
            "type": "Feature",
            "properties": {
                "ref:csioz": 1023432,
                "name": "Zioła Polskie",
                "addr:street": "Nawrot",
                "addr:housenumber": "100",
                "addr:city": "Łódź",
                "addr:postcode": "90-040",
                "amenity": "pharmacy"
            },
            "geometry": {
                "type": "Point",
                "coordinates": [
                    19.480205080328517,
                    51.76436600480849
                ]
            }
        },
        {
            "type": "Feature",
            "properties": {
                "ref:csioz": 1023455,
                "name": "\"Apteka \"\"Kwiaty Polskie\"\"\"",
                "addr:street": "Zgierska",
                "addr:housenumber": "54",
                "addr:city": "Łódź",
                "addr:postcode": "91-303",
                "amenity": "pharmacy"
            },
            "geometry": {
                "type": "Point",
                "coordinates": [
                    19.4518914561336,
                    51.78685881149889
                ]
            }
        },
        {
            "type": "Feature",
            "properties": {
                "ref:csioz": 1024413,
                "name": "Apteka-Sieciowa",
                "addr:street": "Pomorska",
                "addr:housenumber": "62/64",
                "addr:city": "Łódź",
                "addr:postcode": "91-409",
                "amenity": "pharmacy"
            },
            "geometry": {
                "type": "Point",
                "coordinates": [
                    19.470298795485963,
                    51.77836726433241
                ]
            }
        },
        {
            "type": "Feature",
            "properties": {
                "ref:csioz": 1024897,
                "name": "\"Apteka \"\"Camelia\"\"\"",
                "addr:street": "Wodnika",
                "addr:housenumber": "7",
                "addr:city": "Łódź",
                "addr:postcode": "91-498",
                "amenity": "pharmacy"
            },
            "geometry": {
                "type": "Point",
                "coordinates": [
                    19.446290790496697,
                    51.81874847111556
                ]
            }
        },
        {
            "type": "Feature",
            "properties": {
                "ref:csioz": 1025696,
                "name": "Apteka Lawenda",
                "addr:street": "Limanowskiego Bolesława",
                "addr:housenumber": "196A",
                "addr:city": "Łódź",
                "addr:postcode": "91-031",
                "amenity": "pharmacy"
            },
            "geometry": {
                "type": "Point",
                "coordinates": [
                    19.41387779246475,
                    51.792634125254494
                ]
            }
        },
        {
            "type": "Feature",
            "properties": {
                "ref:csioz": 1026114,
                "name": "Apteka Nowa Naj",
                "addr:street": "Rydzowa",
                "addr:housenumber": "12",
                "addr:city": "Łódź",
                "addr:postcode": "91-211",
                "amenity": "pharmacy"
            },
            "geometry": {
                "type": "Point",
                "coordinates": [
                    19.376124973583448,
                    51.7972624205211
                ]
            }
        },
        {
            "type": "Feature",
            "properties": {
                "ref:csioz": 1119590,
                "name": "Apteka Wrzosowa",
                "addr:street": "28 Pułku Strzelców Kaniowskich",
                "addr:housenumber": "61/63",
                "addr:city": "Łódź",
                "addr:postcode": "90-558",
                "amenity": "pharmacy"
            },
            "geometry": {
                "type": "Point",
                "coordinates": [
                    19.441074134556768,
                    51.763501513923096
                ]
            }
        },
        {
            "type": "Feature",
            "properties": {
                "ref:csioz": 1182574,
                "name": "Fiołkowa",
                "addr:street": "Wiączyńska",
                "addr:housenumber": "3",
                "addr:city": "Łódź",
                "addr:postcode": "92-760",
                "amenity": "pharmacy"
            },
            "geometry": {
                "type": "Point",
                "coordinates": [
                    19.591460333774396,
                    51.792711377012864
                ]
            }
        },
        {
            "type": "Feature",
            "properties": {
                "ref:csioz": 1185082,
                "name": "Rosa",
                "addr:street": "Armii Krajowej",
                "addr:housenumber": "34",
                "addr:city": "Łódź",
                "addr:postcode": "94-046",
                "amenity": "pharmacy"
            },
            "geometry": {
                "type": "Point",
                "coordinates": [
                    19.398682082326935,
                    51.7446641554852
                ]
            }
        },
        {
            "type": "Feature",
            "properties": {
                "ref:csioz": 1189135,
                "name": "Apteka Słoneczna Centrum Farmaceutyczne",
                "addr:street": "Piotrkowska",
                "addr:housenumber": "191",
                "addr:city": "Łódź",
                "addr:postcode": "90-447",
                "amenity": "pharmacy"
            },
            "geometry": {
                "type": "Point",
                "coordinates": [
                    19.45891383776181,
                    51.756246105164536
                ]
            }
        },
        {
            "type": "Feature",
            "properties": {
                "ref:csioz": 1189551,
                "name": "Apteka Najlepsza Dla Ciebie",
                "addr:street": "Rojna",
                "addr:housenumber": "41",
                "addr:city": "Łódź",
                "addr:postcode": "91-134",
                "amenity": "pharmacy"
            },
            "geometry": {
                "type": "Point",
                "coordinates": [
                    19.375270702902988,
                    51.794801078123065
                ]
            }
        },
        {
            "type": "Feature",
            "properties": {
                "ref:csioz": 1190154,
                "name": "Złota Apteka",
                "addr:street": "Aleksandrowska",
                "addr:housenumber": "38",
                "addr:city": "Łódź",
                "addr:postcode": "91-151",
                "amenity": "pharmacy"
            },
            "geometry": {
                "type": "Point",
                "coordinates": [
                    19.392244328182915,
                    51.79753431499883
                ]
            }
        },
        {
            "type": "Feature",
            "properties": {
                "ref:csioz": 1193365,
                "name": "\"Niepubliczny Zakład Opieki Zdrowotnej \"\"Jasne Błonia\"\"\"",
                "addr:street": "Rojna",
                "addr:housenumber": "90",
                "addr:city": "Łódź",
                "addr:postcode": "91-134",
                "amenity": "pharmacy"
            },
            "geometry": {
                "type": "Point",
                "coordinates": [
                    19.361360192996095,
                    51.795373772875976
                ]
            }
        },
        {
            "type": "Feature",
            "properties": {
                "ref:csioz": 1194032,
                "name": "Apteka 104",
                "addr:street": "Bolesława Limanowskiego",
                "addr:housenumber": "104",
                "addr:city": "Łódź",
                "addr:postcode": "91-042",
                "amenity": "pharmacy"
            },
            "geometry": {
                "type": "Point",
                "coordinates": [
                    19.435555848663565,
                    51.789083403100825
                ]
            }
        },
        {
            "type": "Feature",
            "properties": {
                "ref:csioz": 1194041,
                "name": "Apteka Zdrowit",
                "addr:street": "Łęczycka",
                "addr:housenumber": "11/13",
                "addr:city": "Łódź",
                "addr:postcode": "93-193",
                "amenity": "pharmacy"
            },
            "geometry": {
                "type": "Point",
                "coordinates": [
                    19.48374037055049,
                    51.748366350681216
                ]
            }
        },
        {
            "type": "Feature",
            "properties": {
                "ref:csioz": 1194523,
                "name": "Samodzielny Publiczny Zakład Opieki Zdrowotnej Uniwersytecki Szpital Kliniczny Nr 1 Im. N. Barlickiego Uniwersytetu Medycznego W Łodzi",
                "addr:street": "dr. Stefana Kopcińskiego",
                "addr:housenumber": "22",
                "addr:city": "Łódź",
                "addr:postcode": "90-153",
                "amenity": "pharmacy"
            },
            "geometry": {
                "type": "Point",
                "coordinates": [
                    19.482959840125922,
                    51.77390225514541
                ]
            }
        },
        {
            "type": "Feature",
            "properties": {
                "ref:csioz": 1196065,
                "name": "Apteka Limanowskiego",
                "addr:street": "Bolesława Limanowskiego",
                "addr:housenumber": "37",
                "addr:city": "Łódź",
                "addr:postcode": "91-309",
                "amenity": "pharmacy"
            },
            "geometry": {
                "type": "Point",
                "coordinates": [
                    19.445663211349952,
                    51.78758556745827
                ]
            }
        },
        {
            "type": "Feature",
            "properties": {
                "ref:csioz": 1202690,
                "name": "Apteka - Apteki Dar Zdrowia",
                "addr:street": "Zgierska",
                "addr:housenumber": "42A",
                "addr:city": "Łódź",
                "addr:postcode": "91-059",
                "amenity": "pharmacy"
            },
            "geometry": {
                "type": "Point",
                "coordinates": [
                    19.452397238340307,
                    51.78558429723331
                ]
            }
        },
        {
            "type": "Feature",
            "properties": {
                "ref:csioz": 1210653,
                "name": "Vademecum",
                "addr:street": "Andrzeja Sacharowa",
                "addr:housenumber": "17A",
                "addr:city": "Łódź",
                "addr:postcode": "92-525",
                "amenity": "pharmacy"
            },
            "geometry": {
                "type": "Point",
                "coordinates": [
                    19.538634389058597,
                    51.75815243853829
                ]
            }
        },
        {
            "type": "Feature",
            "properties": {
                "ref:csioz": 1216335,
                "name": "Apteka U Dominika",
                "addr:street": "\"Organizacji 'Wolność i Niezawisłość'\"",
                "addr:housenumber": "50",
                "addr:city": "Łódź",
                "addr:postcode": "91-836",
                "amenity": "pharmacy"
            },
            "geometry": {
                "type": "Point",
                "coordinates": [
                    19.464607116298637,
                    51.788408640006075
                ]
            }
        },
        {
            "type": "Feature",
            "properties": {
                "ref:csioz": 1009526,
                "name": "Supertaniaapteka.Pl",
                "addr:street": "Bolesława Limanowskiego",
                "addr:housenumber": "80",
                "addr:city": "Łódź",
                "addr:postcode": "91-049",
                "amenity": "pharmacy"
            },
            "geometry": {
                "type": "Point",
                "coordinates": [
                    19.43930170659023,
                    51.788366929333804
                ]
            }
        },
        {
            "type": "Feature",
            "properties": {
                "ref:csioz": 1010623,
                "name": "Botanik",
                "addr:street": "Wincentego Tomaszewicza",
                "addr:housenumber": "2",
                "addr:city": "Łódź",
                "addr:postcode": "94-048",
                "amenity": "pharmacy"
            },
            "geometry": {
                "type": "Point",
                "coordinates": [
                    19.401300986757214,
                    51.7479801258026
                ]
            }
        },
        {
            "type": "Feature",
            "properties": {
                "ref:csioz": 1012192,
                "name": "Apteka Dbam O Zdrowie",
                "addr:street": "Józefa Elsnera",
                "addr:housenumber": "19",
                "addr:city": "Łódź",
                "addr:postcode": "92-502",
                "amenity": "pharmacy"
            },
            "geometry": {
                "type": "Point",
                "coordinates": [
                    19.533105711709222,
                    51.75704486138198
                ]
            }
        },
        {
            "type": "Feature",
            "properties": {
                "ref:csioz": 1012441,
                "name": "Apteka Dbam O Zdrowie",
                "addr:street": "Zielona",
                "addr:housenumber": "28",
                "addr:city": "Łódź",
                "addr:postcode": "90-624",
                "amenity": "pharmacy"
            },
            "geometry": {
                "type": "Point",
                "coordinates": [
                    19.44555897847038,
                    51.76955281142806
                ]
            }
        },
        {
            "type": "Feature",
            "properties": {
                "ref:csioz": 1012464,
                "name": "Natura",
                "addr:street": "11 Listopada",
                "addr:housenumber": "39C",
                "addr:city": "Łódź",
                "addr:postcode": "91-371",
                "amenity": "pharmacy"
            },
            "geometry": {
                "type": "Point",
                "coordinates": [
                    19.418949519662863,
                    51.81864012993367
                ]
            }
        },
        {
            "type": "Feature",
            "properties": {
                "ref:csioz": 1012665,
                "name": "Apteka Dbam O Zdrowie",
                "addr:street": "Żubardzka",
                "addr:housenumber": "4",
                "addr:city": "Łódź",
                "addr:postcode": "91-022",
                "amenity": "pharmacy"
            },
            "geometry": {
                "type": "Point",
                "coordinates": [
                    19.41644371542847,
                    51.78675794801999
                ]
            }
        },
        {
            "type": "Feature",
            "properties": {
                "ref:csioz": 1012894,
                "name": "Apteka Dbam O Zdrowie",
                "addr:street": "Lutomierska",
                "addr:housenumber": "146",
                "addr:city": "Łódź",
                "addr:postcode": "91-041",
                "amenity": "pharmacy"
            },
            "geometry": {
                "type": "Point",
                "coordinates": [
                    19.42887702527239,
                    51.78744067516876
                ]
            }
        },
        {
            "type": "Feature",
            "properties": {
                "ref:csioz": 1013009,
                "name": "Brassica",
                "addr:street": "Nastrojowa",
                "addr:housenumber": "26",
                "addr:city": "Łódź",
                "addr:postcode": "91-496",
                "amenity": "pharmacy"
            },
            "geometry": {
                "type": "Point",
                "coordinates": [
                    19.44152573826599,
                    51.8225135061372
                ]
            }
        },
        {
            "type": "Feature",
            "properties": {
                "ref:csioz": 1013417,
                "name": "Super Apteka",
                "addr:street": "Pomorska",
                "addr:housenumber": "96",
                "addr:city": "Łódź",
                "addr:postcode": "91-402",
                "amenity": "pharmacy"
            },
            "geometry": {
                "type": "Point",
                "coordinates": [
                    19.4796697768476,
                    51.779286645275974
                ]
            }
        },
        {
            "type": "Feature",
            "properties": {
                "ref:csioz": 1013474,
                "name": "Apteka Dbam O Zdrowie",
                "addr:street": "Zbocze",
                "addr:housenumber": "17",
                "addr:city": "Łódź",
                "addr:postcode": "92-003",
                "amenity": "pharmacy"
            },
            "geometry": {
                "type": "Point",
                "coordinates": [
                    19.530492709767707,
                    51.77664157893935
                ]
            }
        },
        {
            "type": "Feature",
            "properties": {
                "ref:csioz": 1013935,
                "name": "Aralia",
                "addr:street": "Armii Krajowej",
                "addr:housenumber": "44",
                "addr:city": "Łódź",
                "addr:postcode": "94-046",
                "amenity": "pharmacy"
            },
            "geometry": {
                "type": "Point",
                "coordinates": [
                    19.394611075681276,
                    51.74693265746292
                ]
            }
        },
        {
            "type": "Feature",
            "properties": {
                "ref:csioz": 1018261,
                "name": "Apteka Ewa Pawlak Sp.Z O.O.",
                "addr:street": "Północna",
                "addr:housenumber": "42",
                "addr:city": "Łódź",
                "addr:postcode": "91-425",
                "amenity": "pharmacy"
            },
            "geometry": {
                "type": "Point",
                "coordinates": [
                    19.47444835346621,
                    51.78086746892421
                ]
            }
        },
        {
            "type": "Feature",
            "properties": {
                "ref:csioz": 1019816,
                "name": "Familia",
                "addr:street": "Zygmunta Sierakowskiego",
                "addr:housenumber": "8/10",
                "addr:city": "Łódź",
                "addr:postcode": "91-042",
                "amenity": "pharmacy"
            },
            "geometry": {
                "type": "Point",
                "coordinates": [
                    19.434977663532553,
                    51.788330349630705
                ]
            }
        },
        {
            "type": "Feature",
            "properties": {
                "ref:csioz": 1019834,
                "name": "Apteka Dbam O Zdrowie",
                "addr:street": "Jana Brzechwy",
                "addr:housenumber": "5",
                "addr:city": "Łódź",
                "addr:postcode": "93-219",
                "amenity": "pharmacy"
            },
            "geometry": {
                "type": "Point",
                "coordinates": [
                    19.495976214405502,
                    51.74636125706601
                ]
            }
        },
        {
            "type": "Feature",
            "properties": {
                "ref:csioz": 1019850,
                "name": "Familia",
                "addr:street": "Lutomierska",
                "addr:housenumber": "115A",
                "addr:city": "Łódź",
                "addr:postcode": "91-041",
                "amenity": "pharmacy"
            },
            "geometry": {
                "type": "Point",
                "coordinates": [
                    19.430578980013664,
                    51.78746138124769
                ]
            }
        },
        {
            "type": "Feature",
            "properties": {
                "ref:csioz": 1020414,
                "name": "Rosa",
                "addr:street": "Tatrzańska",
                "addr:housenumber": "42/44",
                "addr:city": "Łódź",
                "addr:postcode": "93-217",
                "amenity": "pharmacy"
            },
            "geometry": {
                "type": "Point",
                "coordinates": [
                    19.493948000000167,
                    51.747410000015066
                ]
            }
        },
        {
            "type": "Feature",
            "properties": {
                "ref:csioz": 1021030,
                "name": "Apteka-Sieciowa",
                "addr:street": "Retkińska",
                "addr:housenumber": "79C",
                "addr:city": "Łódź",
                "addr:postcode": "94-004",
                "amenity": "pharmacy"
            },
            "geometry": {
                "type": "Point",
                "coordinates": [
                    19.40934566986651,
                    51.75106866268938
                ]
            }
        },
        {
            "type": "Feature",
            "properties": {
                "ref:csioz": 1024753,
                "name": "Rosa",
                "addr:street": "Rojna",
                "addr:housenumber": "19",
                "addr:city": "Łódź",
                "addr:postcode": "91-142",
                "amenity": "pharmacy"
            },
            "geometry": {
                "type": "Point",
                "coordinates": [
                    19.385279372967222,
                    51.79395618316888
                ]
            }
        },
        {
            "type": "Feature",
            "properties": {
                "ref:csioz": 1025135,
                "name": "Farm-Med2",
                "addr:street": "Tamka",
                "addr:housenumber": "3",
                "addr:city": "Łódź",
                "addr:postcode": "91-043",
                "amenity": "pharmacy"
            },
            "geometry": {
                "type": "Point",
                "coordinates": [
                    19.489773578960726,
                    51.779104743670516
                ]
            }
        },
        {
            "type": "Feature",
            "properties": {
                "ref:csioz": 1113958,
                "name": "Apteka Melissa",
                "addr:street": "Łagiewnicka",
                "addr:housenumber": "29/31",
                "addr:city": "Łódź",
                "addr:postcode": "91-839",
                "amenity": "pharmacy"
            },
            "geometry": {
                "type": "Point",
                "coordinates": [
                    19.45473201792392,
                    51.78833619277714
                ]
            }
        },
        {
            "type": "Feature",
            "properties": {
                "ref:csioz": 1121410,
                "name": "Forte-Vita",
                "addr:street": "Inflancka",
                "addr:housenumber": "45",
                "addr:city": "Łódź",
                "addr:postcode": "91-848",
                "amenity": "pharmacy"
            },
            "geometry": {
                "type": "Point",
                "coordinates": [
                    19.469362515808623,
                    51.79913356586088
                ]
            }
        },
        {
            "type": "Feature",
            "properties": {
                "ref:csioz": 1164405,
                "name": "Super-Pharm Apteka",
                "addr:street": "marsz. Józefa Piłsudskiego",
                "addr:housenumber": "15/23",
                "addr:flats": "CH Galeria Łódzka",
                "addr:city": "Łódź",
                "addr:postcode": "90-307",
                "amenity": "pharmacy"
            },
            "geometry": {
                "type": "Point",
                "coordinates": [
                    19.464938571037926,
                    51.759551966078924
                ]
            }
        },
        {
            "type": "Feature",
            "properties": {
                "ref:csioz": 1173287,
                "name": "Apteka Wspólna",
                "addr:street": "Chóralna",
                "addr:housenumber": "18",
                "addr:city": "Łódź",
                "addr:postcode": "93-328",
                "amenity": "pharmacy"
            },
            "geometry": {
                "type": "Point",
                "coordinates": [
                    19.365126267988902,
                    51.772779514364686
                ]
            }
        },
        {
            "type": "Feature",
            "properties": {
                "ref:csioz": 1185235,
                "name": "Rosa",
                "addr:street": "Lutomierska",
                "addr:housenumber": "17",
                "addr:city": "Łódź",
                "addr:postcode": "91-056",
                "amenity": "pharmacy"
            },
            "geometry": {
                "type": "Point",
                "coordinates": [
                    19.449886513869256,
                    51.78318051407293
                ]
            }
        },
        {
            "type": "Feature",
            "properties": {
                "ref:csioz": 1185365,
                "name": "Apteka Dr. Optima",
                "addr:street": "Bratysławska",
                "addr:housenumber": "8A",
                "addr:city": "Łódź",
                "addr:postcode": "94-035",
                "amenity": "pharmacy"
            },
            "geometry": {
                "type": "Point",
                "coordinates": [
                    19.424024474434137,
                    51.75012620310783
                ]
            }
        },
        {
            "type": "Feature",
            "properties": {
                "ref:csioz": 1186052,
                "name": "Złota Apteka",
                "addr:street": "marsz. Józefa Piłsudskiego",
                "addr:housenumber": "31",
                "addr:city": "Łódź",
                "addr:postcode": "90-307",
                "amenity": "pharmacy"
            },
            "geometry": {
                "type": "Point",
                "coordinates": [
                    19.46793644325994,
                    51.759850034210956
                ]
            }
        },
        {
            "type": "Feature",
            "properties": {
                "ref:csioz": 1192506,
                "name": "Dr. Max",
                "addr:street": "Zgierska",
                "addr:housenumber": "229",
                "addr:city": "Łódź",
                "addr:postcode": "91-496",
                "amenity": "pharmacy"
            },
            "geometry": {
                "type": "Point",
                "coordinates": [
                    19.431048148072634,
                    51.82210456875703
                ]
            }
        },
        {
            "type": "Feature",
            "properties": {
                "ref:csioz": 1197076,
                "name": "Wojewódzki Zespół Zakładów Opieki Zdrowotnej Centrum Leczenia Chorób Płuc I Rehabilitacji W Łodzi",
                "addr:street": "Okólna",
                "addr:housenumber": "181",
                "addr:city": "Łódź",
                "addr:postcode": "91-520",
                "amenity": "pharmacy"
            },
            "geometry": {
                "type": "Point",
                "coordinates": [
                    19.478809572059742,
                    51.84734499501959
                ]
            }
        },
        {
            "type": "Feature",
            "properties": {
                "ref:csioz": 1197264,
                "name": "Centra Medyczne Medyceusz - Szpital",
                "addr:street": "Bazarowa",
                "addr:housenumber": "9",
                "addr:city": "Łódź",
                "addr:postcode": "91-053",
                "amenity": "pharmacy"
            },
            "geometry": {
                "type": "Point",
                "coordinates": [
                    19.448122268380114,
                    51.784460909436916
                ]
            }
        },
        {
            "type": "Feature",
            "properties": {
                "ref:csioz": 1198478,
                "name": "Niepubliczny Zakład Opieki Zdrowotnej All-Med Centrum Medyczne Specjalistyczne Gabinety Lekarskie",
                "addr:street": "ks. kard. Stefana Wyszyńskiego",
                "addr:housenumber": "29",
                "addr:city": "Łódź",
                "addr:postcode": "94-048",
                "amenity": "pharmacy"
            },
            "geometry": {
                "type": "Point",
                "coordinates": [
                    19.39712603202752,
                    51.746397150139636
                ]
            }
        },
        {
            "type": "Feature",
            "properties": {
                "ref:csioz": 1198795,
                "name": "Szpital",
                "addr:street": "dr. Seweryna Sterlinga",
                "addr:housenumber": "13",
                "addr:city": "Łódź",
                "addr:postcode": "90-217",
                "amenity": "pharmacy"
            },
            "geometry": {
                "type": "Point",
                "coordinates": [
                    19.46849426041308,
                    51.77725863498686
                ]
            }
        },
        {
            "type": "Feature",
            "properties": {
                "ref:csioz": 1200137,
                "name": "Apteka Zdrowit",
                "addr:street": "Armii Krajowej",
                "addr:housenumber": "35",
                "addr:city": "Łódź",
                "addr:postcode": "94-046",
                "amenity": "pharmacy"
            },
            "geometry": {
                "type": "Point",
                "coordinates": [
                    19.40015507849865,
                    51.7447307519277
                ]
            }
        },
        {
            "type": "Feature",
            "properties": {
                "ref:csioz": 1206086,
                "name": "Apteka Wspólna",
                "addr:street": "Jana Matejki",
                "addr:housenumber": "3/5",
                "addr:city": "Łódź",
                "addr:postcode": "90-237",
                "amenity": "pharmacy"
            },
            "geometry": {
                "type": "Point",
                "coordinates": [
                    19.484682744156203,
                    51.78116985762593
                ]
            }
        },
        {
            "type": "Feature",
            "properties": {
                "ref:csioz": 1210194,
                "name": "\"Apteka 'Melissa'\"",
                "addr:street": "Mieczysławy  Ćwiklińskiej",
                "addr:housenumber": "22",
                "addr:city": "Łódź-Widzew",
                "addr:postcode": "92-508",
                "amenity": "pharmacy"
            },
            "geometry": {
                "type": "Point",
                "coordinates": [
                    19.536354095408086,
                    51.75630326201546
                ]
            }
        },
        {
            "type": "Feature",
            "properties": {
                "ref:csioz": 1214401,
                "name": "Apteka Bliska Zdrowiu",
                "addr:street": "Powstańców Wielkopolskich",
                "addr:housenumber": "2",
                "addr:flats": "1",
                "addr:city": "Łódź",
                "addr:postcode": "91-043",
                "amenity": "pharmacy"
            },
            "geometry": {
                "type": "Point",
                "coordinates": [
                    19.430773553931644,
                    51.78631213623523
                ]
            }
        },
        {
            "type": "Feature",
            "properties": {
                "ref:csioz": 1214981,
                "name": "Apteka Magnus Pharm",
                "addr:street": "Mikołaja Kopernika",
                "addr:housenumber": "38",
                "addr:city": "Łódź",
                "addr:postcode": "90-552",
                "amenity": "pharmacy"
            },
            "geometry": {
                "type": "Point",
                "coordinates": [
                    19.444122254338907,
                    51.76048646697341
                ]
            }
        },
        {
            "type": "Feature",
            "properties": {
                "ref:csioz": 1216840,
                "name": "Ziko Apteka",
                "addr:street": "marsz. Józefa Piłsudskiego",
                "addr:housenumber": "6",
                "addr:city": "Łódź",
                "addr:postcode": "90-051",
                "amenity": "pharmacy"
            },
            "geometry": {
                "type": "Point",
                "coordinates": [
                    19.460023608766317,
                    51.75998150027838
                ]
            }
        },
        {
            "type": "Feature",
            "properties": {
                "ref:csioz": 1216865,
                "name": "Ziko Apteka",
                "addr:street": "Piotrkowska",
                "addr:housenumber": "29",
                "addr:city": "Łódź",
                "addr:postcode": "90-410",
                "amenity": "pharmacy"
            },
            "geometry": {
                "type": "Point",
                "coordinates": [
                    19.455422057111928,
                    51.77249655263377
                ]
            }
        },
        {
            "type": "Feature",
            "properties": {
                "ref:csioz": 1217062,
                "addr:street": "Wileńska",
                "addr:housenumber": "37",
                "addr:city": "Łódź",
                "addr:postcode": "94-029",
                "amenity": "pharmacy"
            },
            "geometry": {
                "type": "Point",
                "coordinates": [
                    19.423103044745645,
                    51.75320659638402
                ]
            }
        },
        {
            "type": "Feature",
            "properties": {
                "ref:csioz": 1220969,
                "name": "Apteka Bliska Zdrowiu",
                "addr:street": "Beli Bartoka",
                "addr:housenumber": "25A",
                "addr:city": "Łódź",
                "addr:postcode": "92-547",
                "amenity": "pharmacy"
            },
            "geometry": {
                "type": "Point",
                "coordinates": [
                    19.524602335868874,
                    51.76050763102203
                ]
            }
        },
        {
            "type": "Feature",
            "properties": {
                "ref:csioz": 1222650,
                "name": "Dr. Max",
                "addr:street": "Bazarowa",
                "addr:housenumber": "9",
                "addr:city": "Łódź",
                "addr:postcode": "91-053",
                "amenity": "pharmacy"
            },
            "geometry": {
                "type": "Point",
                "coordinates": [
                    19.448122268380114,
                    51.784460909436916
                ]
            }
        },
        {
            "type": "Feature",
            "properties": {
                "ref:csioz": 1224041,
                "addr:street": "Łupkowa",
                "addr:housenumber": "1",
                "addr:city": "Łódź",
                "addr:postcode": "91-528",
                "amenity": "pharmacy"
            },
            "geometry": {
                "type": "Point",
                "coordinates": [
                    19.49660033498553,
                    51.81453794243175
                ]
            }
        },
        {
            "type": "Feature",
            "properties": {
                "ref:csioz": 1021978,
                "name": "\"Apteka \"\"Kwiaty Polskie\"\"\"",
                "addr:street": "Szparagowa",
                "addr:housenumber": "10",
                "addr:city": "Łódź",
                "addr:postcode": "91-211",
                "amenity": "pharmacy"
            },
            "geometry": {
                "type": "Point",
                "coordinates": [
                    19.37812323188102,
                    51.80440645916591
                ]
            }
        },
        {
            "type": "Feature",
            "properties": {
                "ref:csioz": 1206682,
                "name": "\"Apteka \"\"Zdrówko\"\"\"",
                "addr:street": "Jana Długosza",
                "addr:housenumber": "26",
                "addr:flats": "1/4",
                "addr:city": "Łódź",
                "addr:postcode": "91-083",
                "amenity": "pharmacy"
            },
            "geometry": {
                "type": "Point",
                "coordinates": [
                    19.425759984336377,
                    51.77646218253013
                ]
            }
        },
        {
            "type": "Feature",
            "properties": {
                "ref:csioz": 1010293,
                "name": "\"Apteka \"\"Pilula\"\"\"",
                "addr:street": "Kolumny",
                "addr:housenumber": "341",
                "addr:city": "Łódź",
                "addr:postcode": "93-647",
                "amenity": "pharmacy"
            },
            "geometry": {
                "type": "Point",
                "coordinates": [
                    19.553743902536407,
                    51.713025309749874
                ]
            }
        },
        {
            "type": "Feature",
            "properties": {
                "ref:csioz": 1011032,
                "name": "Alofa",
                "addr:street": "Józefa Elsnera",
                "addr:housenumber": "11 BL.19",
                "addr:city": "Łódź",
                "addr:postcode": "92-504",
                "amenity": "pharmacy"
            },
            "geometry": {
                "type": "Point",
                "coordinates": [
                    19.532141000000177,
                    51.755821000015075
                ]
            }
        },
        {
            "type": "Feature",
            "properties": {
                "ref:csioz": 1011269,
                "addr:street": "Milionowa",
                "addr:housenumber": "96",
                "addr:city": "Łódź",
                "addr:postcode": "92-310",
                "amenity": "pharmacy"
            },
            "geometry": {
                "type": "Point",
                "coordinates": [
                    19.521751866625312,
                    51.7563561631634
                ]
            }
        },
        {
            "type": "Feature",
            "properties": {
                "ref:csioz": 1011415,
                "name": "Na Przełęczy",
                "addr:street": "Przełęcz",
                "addr:housenumber": "1",
                "addr:city": "Łódź",
                "addr:postcode": "92-114",
                "amenity": "pharmacy"
            },
            "geometry": {
                "type": "Point",
                "coordinates": [
                    19.526610652161594,
                    51.78175744250903
                ]
            }
        },
        {
            "type": "Feature",
            "properties": {
                "ref:csioz": 1011514,
                "name": "\"Apteka \"\"Majowa\"\" Iwona Stasio\"",
                "addr:street": "Nowosolna",
                "addr:housenumber": "8A",
                "addr:city": "Łódź",
                "addr:postcode": "92-703",
                "amenity": "pharmacy"
            },
            "geometry": {
                "type": "Point",
                "coordinates": [
                    19.588158308875517,
                    51.793241808530716
                ]
            }
        },
        {
            "type": "Feature",
            "properties": {
                "ref:csioz": 1015406,
                "name": "Doz Apteka. Dbam O Zdrowie. Tessa",
                "addr:street": "Widzewska",
                "addr:housenumber": "22",
                "addr:city": "Łódź",
                "addr:postcode": "92-308",
                "amenity": "pharmacy"
            },
            "geometry": {
                "type": "Point",
                "coordinates": [
                    19.51970757590322,
                    51.76134472268875
                ]
            }
        },
        {
            "type": "Feature",
            "properties": {
                "ref:csioz": 1018374,
                "name": "Dr. Max",
                "addr:street": "Stanisława Czernika",
                "addr:housenumber": "10",
                "addr:city": "Łódź",
                "addr:postcode": "92-540",
                "amenity": "pharmacy"
            },
            "geometry": {
                "type": "Point",
                "coordinates": [
                    19.526658589039428,
                    51.760013411758905
                ]
            }
        },
        {
            "type": "Feature",
            "properties": {
                "ref:csioz": 1018675,
                "name": "Apteka Zrowit",
                "addr:street": "Janusza Kusocińskiego",
                "addr:housenumber": "134",
                "addr:city": "Łódź",
                "addr:postcode": "94-054",
                "amenity": "pharmacy"
            },
            "geometry": {
                "type": "Point",
                "coordinates": [
                    19.535412529009545,
                    51.79928774111616
                ]
            }
        },
        {
            "type": "Feature",
            "properties": {
                "ref:csioz": 1020850,
                "name": "Olmed",
                "addr:street": "Henryka Brodatego",
                "addr:housenumber": "2",
                "addr:city": "Łódź",
                "addr:postcode": "92-413",
                "amenity": "pharmacy"
            },
            "geometry": {
                "type": "Point",
                "coordinates": [
                    19.56874841001473,
                    51.74158001316456
                ]
            }
        },
        {
            "type": "Feature",
            "properties": {
                "ref:csioz": 1023746,
                "name": "\"Apteka \"\"Kwiaty Polskie\"\"\"",
                "addr:street": "ks. Zdzisława Wujaka",
                "addr:housenumber": "2",
                "addr:city": "Łódź",
                "addr:postcode": "92-515",
                "amenity": "pharmacy"
            },
            "geometry": {
                "type": "Point",
                "coordinates": [
                    19.536638141745197,
                    51.75732314667688
                ]
            }
        },
        {
            "type": "Feature",
            "properties": {
                "ref:csioz": 1114155,
                "name": "Ginsana Ii",
                "addr:street": "Ketlinga",
                "addr:housenumber": "21",
                "addr:city": "Łódź",
                "addr:postcode": "92-431",
                "amenity": "pharmacy"
            },
            "geometry": {
                "type": "Point",
                "coordinates": [
                    19.570738352512954,
                    51.7489557923256
                ]
            }
        },
        {
            "type": "Feature",
            "properties": {
                "ref:csioz": 1195302,
                "name": "Srebrna Apteka",
                "addr:street": "ks. Zdzisława Wujaka",
                "addr:housenumber": "4",
                "addr:city": "Łódź",
                "addr:postcode": "92-515",
                "amenity": "pharmacy"
            },
            "geometry": {
                "type": "Point",
                "coordinates": [
                    19.537093841312664,
                    51.75722522762633
                ]
            }
        },
        {
            "type": "Feature",
            "properties": {
                "ref:csioz": 1014379,
                "name": "Przy Kościele",
                "addr:street": "Mikołaja Gogola",
                "addr:housenumber": "12",
                "addr:city": "Łódź",
                "addr:postcode": "92-513",
                "amenity": "pharmacy"
            },
            "geometry": {
                "type": "Point",
                "coordinates": [
                    19.54386722607382,
                    51.75699567163601
                ]
            }
        },
        {
            "type": "Feature",
            "properties": {
                "ref:csioz": 1026692,
                "name": "Apteka Dla Zdrowia",
                "addr:street": "Andrzeja Sacharowa",
                "addr:housenumber": "63",
                "addr:city": "Łódź",
                "addr:postcode": "92-518",
                "amenity": "pharmacy"
            },
            "geometry": {
                "type": "Point",
                "coordinates": [
                    19.548670800104812,
                    51.75623769526628
                ]
            }
        },
        {
            "type": "Feature",
            "properties": {
                "ref:csioz": 1177599,
                "name": "Apteka Melissa",
                "addr:street": "Piotrkowska",
                "addr:housenumber": "292",
                "addr:city": "Łódź",
                "addr:postcode": "93-004",
                "amenity": "pharmacy"
            },
            "geometry": {
                "type": "Point",
                "coordinates": [
                    19.545975273017273,
                    51.71193384694013
                ]
            }
        },
        {
            "type": "Feature",
            "properties": {
                "ref:csioz": 1177729,
                "name": "Olmed",
                "addr:street": "Jagienki",
                "addr:housenumber": "32",
                "addr:city": "Łódź",
                "addr:postcode": "92-439",
                "amenity": "pharmacy"
            },
            "geometry": {
                "type": "Point",
                "coordinates": [
                    19.573653530619165,
                    51.75316545833732
                ]
            }
        },
        {
            "type": "Feature",
            "properties": {
                "ref:csioz": 1202955,
                "name": "Złota Apteka",
                "addr:street": "ks. Zdzisława Wujaka",
                "addr:housenumber": "2",
                "addr:city": "Łódź",
                "addr:postcode": "92-515",
                "amenity": "pharmacy"
            },
            "geometry": {
                "type": "Point",
                "coordinates": [
                    19.536638141745197,
                    51.75732314667688
                ]
            }
        },
        {
            "type": "Feature",
            "properties": {
                "ref:csioz": 1205165,
                "name": "Ziko Apteka",
                "addr:street": "Aleksandra Puszkina",
                "addr:housenumber": "17",
                "addr:city": "Łódź",
                "addr:postcode": "92-516",
                "amenity": "pharmacy"
            },
            "geometry": {
                "type": "Point",
                "coordinates": [
                    19.534906308939103,
                    51.75713021674552
                ]
            }
        },
        {
            "type": "Feature",
            "properties": {
                "ref:csioz": 1206861,
                "name": "Olmed",
                "addr:street": "Księcia Władysława Opolczyka",
                "addr:housenumber": "17",
                "addr:city": "Łódź",
                "addr:postcode": "92-417",
                "amenity": "pharmacy"
            },
            "geometry": {
                "type": "Point",
                "coordinates": [
                    19.570022866759977,
                    51.7392517690283
                ]
            }
        },
        {
            "type": "Feature",
            "properties": {
                "ref:csioz": 1209786,
                "name": "Apteka Wrzosowa",
                "addr:street": "dr. Tytusa  Chałubińskiego",
                "addr:housenumber": "20/22",
                "addr:city": "Łódź-Widzew",
                "addr:postcode": "92-109",
                "amenity": "pharmacy"
            },
            "geometry": {
                "type": "Point",
                "coordinates": [
                    19.52470100000018,
                    51.79128600001515
                ]
            }
        },
        {
            "type": "Feature",
            "properties": {
                "ref:csioz": 1217550,
                "name": "Apteka Wspólna",
                "addr:street": "Brzezińska",
                "addr:housenumber": "50",
                "addr:city": "Łódź",
                "addr:postcode": "92-111",
                "amenity": "pharmacy"
            },
            "geometry": {
                "type": "Point",
                "coordinates": [
                    19.522897556644867,
                    51.79689366571697
                ]
            }
        },
        {
            "type": "Feature",
            "properties": {
                "ref:csioz": 1010651,
                "name": "Ruda Zegar",
                "addr:street": "Rudzka",
                "addr:housenumber": "106/108",
                "addr:city": "Łódź",
                "addr:postcode": "93-438",
                "amenity": "pharmacy"
            },
            "geometry": {
                "type": "Point",
                "coordinates": [
                    19.441313422503878,
                    51.697936735809144
                ]
            }
        },
        {
            "type": "Feature",
            "properties": {
                "ref:csioz": 1009401,
                "name": "Melissa",
                "addr:street": "Prezydenta Gabriela Narutowicza",
                "addr:housenumber": "42",
                "addr:city": "Łódź",
                "addr:postcode": "90-135",
                "amenity": "pharmacy"
            },
            "geometry": {
                "type": "Point",
                "coordinates": [
                    19.46426004509688,
                    51.771446527149834
                ]
            }
        },
        {
            "type": "Feature",
            "properties": {
                "ref:csioz": 1009425,
                "name": "Calendula",
                "addr:street": "Wólczańska",
                "addr:housenumber": "37",
                "addr:city": "Łódź",
                "addr:postcode": "90-607",
                "amenity": "pharmacy"
            },
            "geometry": {
                "type": "Point",
                "coordinates": [
                    19.45183827838179,
                    51.768620465691036
                ]
            }
        },
        {
            "type": "Feature",
            "properties": {
                "ref:csioz": 1009449,
                "name": "Pod Białym Orłem",
                "addr:street": "Piotrkowska",
                "addr:housenumber": "46",
                "addr:city": "Łódź",
                "addr:postcode": "90-265",
                "amenity": "pharmacy"
            },
            "geometry": {
                "type": "Point",
                "coordinates": [
                    19.45605483244451,
                    51.771403104915734
                ]
            }
        },
        {
            "type": "Feature",
            "properties": {
                "ref:csioz": 1009458,
                "name": "Familia",
                "addr:street": "Mikołaja Kopernika",
                "addr:housenumber": "26",
                "addr:city": "Łódź",
                "addr:postcode": "90-503",
                "amenity": "pharmacy"
            },
            "geometry": {
                "type": "Point",
                "coordinates": [
                    19.44794116915472,
                    51.76202272944082
                ]
            }
        },
        {
            "type": "Feature",
            "properties": {
                "ref:csioz": 1009685,
                "name": "Omega",
                "addr:street": "Boya-Żeleńskiego",
                "addr:housenumber": "12",
                "addr:city": "Łódź",
                "addr:postcode": "91-704",
                "amenity": "pharmacy"
            },
            "geometry": {
                "type": "Point",
                "coordinates": [
                    19.477227000000152,
                    51.79061900001515
                ]
            }
        },
        {
            "type": "Feature",
            "properties": {
                "ref:csioz": 1009841,
                "name": "Galen",
                "addr:street": "Traktorowa",
                "addr:housenumber": "61",
                "addr:city": "Łódź",
                "addr:postcode": "91-111",
                "amenity": "pharmacy"
            },
            "geometry": {
                "type": "Point",
                "coordinates": [
                    19.394535654356545,
                    51.795217573213776
                ]
            }
        },
        {
            "type": "Feature",
            "properties": {
                "ref:csioz": 1009908,
                "name": "Apteka-Sieciowa",
                "addr:street": "Zgierska",
                "addr:housenumber": "38",
                "addr:city": "Łódź",
                "addr:postcode": "91-059",
                "amenity": "pharmacy"
            },
            "geometry": {
                "type": "Point",
                "coordinates": [
                    19.452608633274494,
                    51.78491892205567
                ]
            }
        },
        {
            "type": "Feature",
            "properties": {
                "ref:csioz": 1009943,
                "name": "Olimpijska",
                "addr:street": "Olimpijska",
                "addr:housenumber": "7A",
                "addr:city": "Łódź",
                "addr:postcode": "94-043",
                "amenity": "pharmacy"
            },
            "geometry": {
                "type": "Point",
                "coordinates": [
                    19.412110119219246,
                    51.74597013395621
                ]
            }
        },
        {
            "type": "Feature",
            "properties": {
                "ref:csioz": 1010013,
                "addr:street": "Pabianicka",
                "addr:housenumber": "218",
                "addr:city": "Łódź",
                "addr:postcode": "93-402",
                "amenity": "pharmacy"
            },
            "geometry": {
                "type": "Point",
                "coordinates": [
                    19.429417476956736,
                    51.71151207172676
                ]
            }
        },
        {
            "type": "Feature",
            "properties": {
                "ref:csioz": 1010163,
                "name": "Apteka Zdrowie Kuzaniak I Gałązka Spółka Jawna",
                "addr:street": "Augusta Cieszkowskiego",
                "addr:housenumber": "6",
                "addr:city": "Łódź",
                "addr:postcode": "93-504",
                "amenity": "pharmacy"
            },
            "geometry": {
                "type": "Point",
                "coordinates": [
                    19.44898037231565,
                    51.73371552903174
                ]
            }
        },
        {
            "type": "Feature",
            "properties": {
                "ref:csioz": 1010255,
                "name": "Viola",
                "addr:street": "Gimnastyczna",
                "addr:housenumber": "26",
                "addr:city": "Łódź",
                "addr:postcode": "94-128",
                "amenity": "pharmacy"
            },
            "geometry": {
                "type": "Point",
                "coordinates": [
                    19.379364360067207,
                    51.73873381655272
                ]
            }
        },
        {
            "type": "Feature",
            "properties": {
                "ref:csioz": 1010488,
                "name": "Apteka-Sieciowa",
                "addr:street": "Armii Krajowej",
                "addr:housenumber": "32",
                "addr:city": "Łódź",
                "addr:postcode": "94-046",
                "amenity": "pharmacy"
            },
            "geometry": {
                "type": "Point",
                "coordinates": [
                    19.472616920363755,
                    51.801607625645076
                ]
            }
        },
        {
            "type": "Feature",
            "properties": {
                "ref:csioz": 1010491,
                "name": "Apteka Medic",
                "addr:street": "Stefana Okrzei",
                "addr:housenumber": "40",
                "addr:city": "Łódź",
                "addr:postcode": "91-009",
                "amenity": "pharmacy"
            },
            "geometry": {
                "type": "Point",
                "coordinates": [
                    19.428426976872572,
                    51.78052629190634
                ]
            }
        },
        {
            "type": "Feature",
            "properties": {
                "ref:csioz": 1010515,
                "name": "Centrum",
                "addr:street": "Piotrkowska",
                "addr:housenumber": "100",
                "addr:city": "Łódź",
                "addr:postcode": "90-004",
                "amenity": "pharmacy"
            },
            "geometry": {
                "type": "Point",
                "coordinates": [
                    19.457485754746518,
                    51.765361691566085
                ]
            }
        },
        {
            "type": "Feature",
            "properties": {
                "ref:csioz": 1010528,
                "name": "Arkadia",
                "addr:street": "Łagiewnicka",
                "addr:housenumber": "108A",
                "addr:city": "Łódź",
                "addr:postcode": "91-456",
                "amenity": "pharmacy"
            },
            "geometry": {
                "type": "Point",
                "coordinates": [
                    19.455754305650977,
                    51.79818920115366
                ]
            }
        },
        {
            "type": "Feature",
            "properties": {
                "ref:csioz": 1010531,
                "name": "Awicenna",
                "addr:street": "Bolesława Limanowskiego",
                "addr:housenumber": "121",
                "addr:city": "Łódź",
                "addr:postcode": "91-334",
                "amenity": "pharmacy"
            },
            "geometry": {
                "type": "Point",
                "coordinates": [
                    19.430484345559414,
                    51.79038777818127
                ]
            }
        },
        {
            "type": "Feature",
            "properties": {
                "ref:csioz": 1010887,
                "name": "Apteka Passiflora",
                "addr:street": "Przełajowa",
                "addr:housenumber": "14",
                "addr:city": "Łódź",
                "addr:postcode": "94-044",
                "amenity": "pharmacy"
            },
            "geometry": {
                "type": "Point",
                "coordinates": [
                    19.40857707759067,
                    51.74327122554577
                ]
            }
        },
        {
            "type": "Feature",
            "properties": {
                "ref:csioz": 1010912,
                "addr:street": "Mazurska",
                "addr:housenumber": "21",
                "addr:city": "Łódź",
                "addr:postcode": "93-149",
                "amenity": "pharmacy"
            },
            "geometry": {
                "type": "Point",
                "coordinates": [
                    19.48057444212359,
                    51.72951395844495
                ]
            }
        },
        {
            "type": "Feature",
            "properties": {
                "ref:csioz": 1011010,
                "name": "Apteka Wspólna",
                "addr:street": "Rzgowska",
                "addr:housenumber": "198",
                "addr:city": "Łódź",
                "addr:postcode": "93-317",
                "amenity": "pharmacy"
            },
            "geometry": {
                "type": "Point",
                "coordinates": [
                    19.485636434779355,
                    51.7173347175265
                ]
            }
        },
        {
            "type": "Feature",
            "properties": {
                "ref:csioz": 1011055,
                "name": "\"Apteka 'Aura'\"",
                "addr:street": "Legionów",
                "addr:housenumber": "33",
                "addr:city": "Łódź",
                "addr:postcode": "91-061",
                "amenity": "pharmacy"
            },
            "geometry": {
                "type": "Point",
                "coordinates": [
                    19.448142886365915,
                    51.77631090156204
                ]
            }
        },
        {
            "type": "Feature",
            "properties": {
                "ref:csioz": 1011078,
                "name": "Dr. Max",
                "addr:street": "Łączna",
                "addr:housenumber": "28",
                "addr:city": "Łódź",
                "addr:postcode": "93-166",
                "amenity": "pharmacy"
            },
            "geometry": {
                "type": "Point",
                "coordinates": [
                    19.47363608204243,
                    51.73328565918965
                ]
            }
        },
        {
            "type": "Feature",
            "properties": {
                "ref:csioz": 1011156,
                "name": "Doz Apteka. Dbam O Zdrowie. Lawendowa",
                "addr:street": "Jęczmienna",
                "addr:housenumber": "22/24",
                "addr:city": "Łódź",
                "addr:postcode": "94-202",
                "amenity": "pharmacy"
            },
            "geometry": {
                "type": "Point",
                "coordinates": [
                    19.409085903974493,
                    51.77561233701284
                ]
            }
        },
        {
            "type": "Feature",
            "properties": {
                "ref:csioz": 1011170,
                "name": "Victoria",
                "addr:street": "Alojzego Felińskiego",
                "addr:housenumber": "9A",
                "addr:city": "Łódź",
                "addr:postcode": "93-252",
                "amenity": "pharmacy"
            },
            "geometry": {
                "type": "Point",
                "coordinates": [
                    19.500544500564896,
                    51.73214965290226
                ]
            }
        },
        {
            "type": "Feature",
            "properties": {
                "ref:csioz": 1011321,
                "name": "Cito",
                "addr:street": "Stefana Żeromskiego",
                "addr:housenumber": "39",
                "addr:city": "Łódź",
                "addr:postcode": "90-624",
                "amenity": "pharmacy"
            },
            "geometry": {
                "type": "Point",
                "coordinates": [
                    19.445854988192973,
                    51.76911778527666
                ]
            }
        },
        {
            "type": "Feature",
            "properties": {
                "ref:csioz": 1011337,
                "name": "Apteka-Sieciowa",
                "addr:street": "Wileńska",
                "addr:housenumber": "47",
                "addr:city": "Łódź",
                "addr:postcode": "94-016",
                "amenity": "pharmacy"
            },
            "geometry": {
                "type": "Point",
                "coordinates": [
                    19.419129209436644,
                    51.75415256791195
                ]
            }
        },
        {
            "type": "Feature",
            "properties": {
                "ref:csioz": 1011477,
                "name": "Convallaria",
                "addr:street": "Zygmunta Sierakowskiego",
                "addr:housenumber": "94",
                "addr:city": "Łódź",
                "addr:postcode": "91-347",
                "amenity": "pharmacy"
            },
            "geometry": {
                "type": "Point",
                "coordinates": [
                    19.438378576751937,
                    51.798509229183445
                ]
            }
        },
        {
            "type": "Feature",
            "properties": {
                "ref:csioz": 1011523,
                "name": "Pod Eskulapem",
                "addr:street": "1  Maja",
                "addr:housenumber": "42/44",
                "addr:city": "Łódź-Polesie",
                "addr:postcode": "90-741",
                "amenity": "pharmacy"
            },
            "geometry": {
                "type": "Point",
                "coordinates": [
                    19.440566047465396,
                    51.771645731022026
                ]
            }
        },
        {
            "type": "Feature",
            "properties": {
                "ref:csioz": 1011538,
                "name": "Terapia",
                "addr:street": "Juliana Ursyna Niemcewicza",
                "addr:housenumber": "17",
                "addr:city": "Łódź",
                "addr:postcode": "93-024",
                "amenity": "pharmacy"
            },
            "geometry": {
                "type": "Point",
                "coordinates": [
                    19.472965527536328,
                    51.73045448212376
                ]
            }
        },
        {
            "type": "Feature",
            "properties": {
                "ref:csioz": 1011674,
                "name": "Apteka Aloes Sp.J.",
                "addr:street": "Prezydenta Gabriela Narutowicza",
                "addr:housenumber": "92",
                "addr:city": "Łódź",
                "addr:postcode": "90-139",
                "amenity": "pharmacy"
            },
            "geometry": {
                "type": "Point",
                "coordinates": [
                    19.481794872102324,
                    51.77307610619897
                ]
            }
        },
        {
            "type": "Feature",
            "properties": {
                "ref:csioz": 1011696,
                "name": "\"Apteka \"\"Nowa\"\"\"",
                "addr:street": "Rydzowa",
                "addr:housenumber": "20",
                "addr:city": "Łódź",
                "addr:postcode": "91-211",
                "amenity": "pharmacy"
            },
            "geometry": {
                "type": "Point",
                "coordinates": [
                    19.375683756046808,
                    51.79636491153086
                ]
            }
        },
        {
            "type": "Feature",
            "properties": {
                "ref:csioz": 1012019,
                "name": "Apteka Dbam O Zdrowie",
                "addr:street": "Niciarniana",
                "addr:housenumber": "15",
                "addr:city": "Łódź",
                "addr:postcode": "92-238",
                "amenity": "pharmacy"
            },
            "geometry": {
                "type": "Point",
                "coordinates": [
                    19.507697823138134,
                    51.76379118412915
                ]
            }
        },
        {
            "type": "Feature",
            "properties": {
                "ref:csioz": 1012035,
                "name": "Dąbrówka",
                "addr:street": "gen. Jarosława Dąbrowskiego",
                "addr:housenumber": "50",
                "addr:city": "Łódź",
                "addr:postcode": "93-208",
                "amenity": "pharmacy"
            },
            "geometry": {
                "type": "Point",
                "coordinates": [
                    19.495685217287132,
                    51.737274760665656
                ]
            }
        },
        {
            "type": "Feature",
            "properties": {
                "ref:csioz": 1012056,
                "addr:street": "Henryka Rodakowskiego",
                "addr:housenumber": "1",
                "addr:city": "Łódź",
                "addr:postcode": "93-277",
                "amenity": "pharmacy"
            },
            "geometry": {
                "type": "Point",
                "coordinates": [
                    19.491007246253105,
                    51.73897221754096
                ]
            }
        },
        {
            "type": "Feature",
            "properties": {
                "ref:csioz": 1012121,
                "name": "Doz Apteka Dbam O Zdrowie",
                "addr:street": "Ignacego Paderewskiego",
                "addr:housenumber": "6",
                "addr:city": "Łódź",
                "addr:postcode": "93-530",
                "amenity": "pharmacy"
            },
            "geometry": {
                "type": "Point",
                "coordinates": [
                    19.458357176504645,
                    51.72917147393795
                ]
            }
        },
        {
            "type": "Feature",
            "properties": {
                "ref:csioz": 1012304,
                "name": "Doz Apteka Dbam O Zdrowie",
                "addr:street": "Michała Ossowskiego",
                "addr:housenumber": "4",
                "addr:city": "Łódź",
                "addr:postcode": "91-089",
                "amenity": "pharmacy"
            },
            "geometry": {
                "type": "Point",
                "coordinates": [
                    19.42339528496537,
                    51.77382990322239
                ]
            }
        },
        {
            "type": "Feature",
            "properties": {
                "ref:csioz": 1012336,
                "name": "Apteka Dbam O Zdrowie",
                "addr:street": "Sporna",
                "addr:housenumber": "83",
                "addr:city": "Łódź",
                "addr:postcode": "91-708",
                "amenity": "pharmacy"
            },
            "geometry": {
                "type": "Point",
                "coordinates": [
                    19.47896388044805,
                    51.79063886783656
                ]
            }
        },
        {
            "type": "Feature",
            "properties": {
                "ref:csioz": 1012348,
                "name": "Apis",
                "addr:street": "Bojowników Getta Warszawskiego",
                "addr:housenumber": "5",
                "addr:city": "Łódź",
                "addr:postcode": "91-431",
                "amenity": "pharmacy"
            },
            "geometry": {
                "type": "Point",
                "coordinates": [
                    19.458275250245748,
                    51.78251214458121
                ]
            }
        },
        {
            "type": "Feature",
            "properties": {
                "ref:csioz": 1012542,
                "name": "Apteka Dbam O Zdrowie",
                "addr:street": "Rydzowa",
                "addr:housenumber": "22",
                "addr:city": "Łódź",
                "addr:postcode": "91-211",
                "amenity": "pharmacy"
            },
            "geometry": {
                "type": "Point",
                "coordinates": [
                    19.37618375920424,
                    51.79591725206756
                ]
            }
        },
        {
            "type": "Feature",
            "properties": {
                "ref:csioz": 1012575,
                "name": "Apteka Dbam O Zdrowie",
                "addr:street": "Piotrkowska",
                "addr:housenumber": "67",
                "addr:city": "Łódź",
                "addr:postcode": "90-422",
                "amenity": "pharmacy"
            },
            "geometry": {
                "type": "Point",
                "coordinates": [
                    19.456294617802556,
                    51.768368924389705
                ]
            }
        },
        {
            "type": "Feature",
            "properties": {
                "ref:csioz": 1012588,
                "name": "Apteka Dbam O Zdrowie",
                "addr:street": "Bolesława Limanowskiego",
                "addr:housenumber": "196A",
                "addr:city": "Łódź",
                "addr:postcode": "91-027",
                "amenity": "pharmacy"
            },
            "geometry": {
                "type": "Point",
                "coordinates": [
                    19.41387779246475,
                    51.792634125254494
                ]
            }
        },
        {
            "type": "Feature",
            "properties": {
                "ref:csioz": 1012723,
                "name": "Apteka Ziołolecznicza Konwentu Bonifratrów",
                "addr:street": "Kosynierów Gdyńskich",
                "addr:housenumber": "61A",
                "addr:city": "Łódź",
                "addr:postcode": "93-357",
                "amenity": "pharmacy"
            },
            "geometry": {
                "type": "Point",
                "coordinates": [
                    19.47150355271139,
                    51.71737073180898
                ]
            }
        },
        {
            "type": "Feature",
            "properties": {
                "ref:csioz": 1012839,
                "name": "Joga",
                "addr:street": "Maurycego Mochnackiego",
                "addr:housenumber": "1/3",
                "addr:city": "Łódź",
                "addr:postcode": "93-160",
                "amenity": "pharmacy"
            },
            "geometry": {
                "type": "Point",
                "coordinates": [
                    19.47499782005073,
                    51.73189466997693
                ]
            }
        },
        {
            "type": "Feature",
            "properties": {
                "ref:csioz": 1012949,
                "name": "Doz Apteka Dbam O Zdrowie",
                "addr:street": "Pokoju",
                "addr:housenumber": "3/4",
                "addr:city": "Łódź",
                "addr:postcode": "90-227",
                "amenity": "pharmacy"
            },
            "geometry": {
                "type": "Point",
                "coordinates": [
                    19.477462000000163,
                    51.77686400001512
                ]
            }
        },
        {
            "type": "Feature",
            "properties": {
                "ref:csioz": 1012974,
                "name": "Apteka Dbam O Zdrowie",
                "addr:street": "Żabia",
                "addr:housenumber": "4",
                "addr:city": "Łódź",
                "addr:postcode": "91-457",
                "amenity": "pharmacy"
            },
            "geometry": {
                "type": "Point",
                "coordinates": [
                    19.45192308692814,
                    51.793774507384626
                ]
            }
        },
        {
            "type": "Feature",
            "properties": {
                "ref:csioz": 1013115,
                "name": "Julianowska",
                "addr:street": "Julianowska",
                "addr:housenumber": "7A",
                "addr:city": "Łódź",
                "addr:postcode": "91-474",
                "amenity": "pharmacy"
            },
            "geometry": {
                "type": "Point",
                "coordinates": [
                    19.452940896212617,
                    51.799556809828964
                ]
            }
        },
        {
            "type": "Feature",
            "properties": {
                "ref:csioz": 1013206,
                "name": "Apteka Dbam O Zdrowie",
                "addr:street": "gen. Jarosława Dąbrowskiego",
                "addr:housenumber": "60",
                "addr:city": "Łódź",
                "addr:postcode": "93-208",
                "amenity": "pharmacy"
            },
            "geometry": {
                "type": "Point",
                "coordinates": [
                    19.39567782515761,
                    51.748315725144366
                ]
            }
        },
        {
            "type": "Feature",
            "properties": {
                "ref:csioz": 1013211,
                "name": "Apteka Dbam O Zdrowie",
                "addr:street": "Maratońska",
                "addr:housenumber": "71",
                "addr:city": "Łódź",
                "addr:postcode": "94-007",
                "amenity": "pharmacy"
            },
            "geometry": {
                "type": "Point",
                "coordinates": [
                    19.392499874886834,
                    51.740302998209316
                ]
            }
        },
        {
            "type": "Feature",
            "properties": {
                "ref:csioz": 1013829,
                "name": "Dr Zdrowie",
                "addr:street": "Brzezińska",
                "addr:housenumber": "27/29",
                "addr:city": "Łódź",
                "addr:postcode": "92-103",
                "amenity": "pharmacy"
            },
            "geometry": {
                "type": "Point",
                "coordinates": [
                    19.510133184799503,
                    51.79526930949125
                ]
            }
        },
        {
            "type": "Feature",
            "properties": {
                "ref:csioz": 1013956,
                "name": "Apteka Dbam O Zdrowie",
                "addr:street": "Piotrkowska",
                "addr:housenumber": "165/169",
                "addr:city": "Łódź",
                "addr:postcode": "90-447",
                "amenity": "pharmacy"
            },
            "geometry": {
                "type": "Point",
                "coordinates": [
                    19.458364235592907,
                    51.75848743811582
                ]
            }
        },
        {
            "type": "Feature",
            "properties": {
                "ref:csioz": 1014194,
                "name": "Zdrowie",
                "addr:street": "Rajdowa",
                "addr:housenumber": "8",
                "addr:city": "Łódź",
                "addr:postcode": "94-003",
                "amenity": "pharmacy"
            },
            "geometry": {
                "type": "Point",
                "coordinates": [
                    19.414081855064868,
                    51.74924388859026
                ]
            }
        },
        {
            "type": "Feature",
            "properties": {
                "ref:csioz": 1014473,
                "addr:street": "Stefana Rogozińskiego",
                "addr:housenumber": "6A",
                "addr:city": "Łódź",
                "addr:postcode": "93-503",
                "amenity": "pharmacy"
            },
            "geometry": {
                "type": "Point",
                "coordinates": [
                    19.447578192590612,
                    51.732807291290264
                ]
            }
        },
        {
            "type": "Feature",
            "properties": {
                "ref:csioz": 1014513,
                "name": "Apteka Czerwona",
                "addr:street": "Żubardzka",
                "addr:housenumber": "3",
                "addr:city": "Łódź",
                "addr:postcode": "91-022",
                "amenity": "pharmacy"
            },
            "geometry": {
                "type": "Point",
                "coordinates": [
                    19.41744338159572,
                    51.78700792895585
                ]
            }
        },
        {
            "type": "Feature",
            "properties": {
                "ref:csioz": 1014584,
                "name": "Zarzewska",
                "addr:street": "Zarzewska",
                "addr:housenumber": "45",
                "addr:city": "Łódź",
                "addr:postcode": "93-180",
                "amenity": "pharmacy"
            },
            "geometry": {
                "type": "Point",
                "coordinates": [
                    19.472228419023917,
                    51.74266496082705
                ]
            }
        },
        {
            "type": "Feature",
            "properties": {
                "ref:csioz": 1015134,
                "name": "Melissa",
                "addr:street": "Pomorska",
                "addr:housenumber": "80",
                "addr:city": "Łódź",
                "addr:postcode": "91-409",
                "amenity": "pharmacy"
            },
            "geometry": {
                "type": "Point",
                "coordinates": [
                    19.47436168897879,
                    51.7785780466477
                ]
            }
        },
        {
            "type": "Feature",
            "properties": {
                "ref:csioz": 1015280,
                "name": "Apteka Dbam O Zdrowie",
                "addr:street": "Szparagowa",
                "addr:housenumber": "7",
                "addr:city": "Łódź",
                "addr:postcode": "91-211",
                "amenity": "pharmacy"
            },
            "geometry": {
                "type": "Point",
                "coordinates": [
                    19.379494887315516,
                    51.80455792840389
                ]
            }
        },
        {
            "type": "Feature",
            "properties": {
                "ref:csioz": 1015563,
                "name": "Obywatelska",
                "addr:street": "Obywatelska",
                "addr:housenumber": "69",
                "addr:city": "Łódź",
                "addr:postcode": "93-562",
                "amenity": "pharmacy"
            },
            "geometry": {
                "type": "Point",
                "coordinates": [
                    19.444078340669222,
                    51.73672898343013
                ]
            }
        },
        {
            "type": "Feature",
            "properties": {
                "ref:csioz": 1015708,
                "name": "Convallaria",
                "addr:street": "Parcelacyjna",
                "addr:housenumber": "19",
                "addr:city": "Łódź",
                "addr:postcode": "91-141",
                "amenity": "pharmacy"
            },
            "geometry": {
                "type": "Point",
                "coordinates": [
                    19.391253728145337,
                    51.793074378803205
                ]
            }
        },
        {
            "type": "Feature",
            "properties": {
                "ref:csioz": 1015724,
                "name": "Dracena",
                "addr:street": "Janusza Kusocińskiego",
                "addr:housenumber": "140A",
                "addr:city": "Łódź",
                "addr:postcode": "94-054",
                "amenity": "pharmacy"
            },
            "geometry": {
                "type": "Point",
                "coordinates": [
                    19.386323518391233,
                    51.7455828484081
                ]
            }
        },
        {
            "type": "Feature",
            "properties": {
                "ref:csioz": 1015743,
                "name": "Apteka Zapolska",
                "addr:street": "Gabrieli Zapolskiej",
                "addr:housenumber": "60/62",
                "addr:city": "Łódź",
                "addr:postcode": "93-256",
                "amenity": "pharmacy"
            },
            "geometry": {
                "type": "Point",
                "coordinates": [
                    19.494575392212596,
                    51.73031346301082
                ]
            }
        },
        {
            "type": "Feature",
            "properties": {
                "ref:csioz": 1016249,
                "name": "Apteka Dbam O Zdrowie",
                "addr:street": "gen. Karola Kniaziewicza",
                "addr:housenumber": "1/5",
                "addr:city": "Łódź",
                "addr:postcode": "91-347",
                "amenity": "pharmacy"
            },
            "geometry": {
                "type": "Point",
                "coordinates": [
                    19.439250148183927,
                    51.80003307995746
                ]
            }
        },
        {
            "type": "Feature",
            "properties": {
                "ref:csioz": 1016704,
                "name": "Apteka Dbam O Zdrowie",
                "addr:street": "ks. bp. Władysława Bandurskiego",
                "addr:housenumber": "49",
                "addr:city": "Łódź",
                "addr:postcode": "94-020",
                "amenity": "pharmacy"
            },
            "geometry": {
                "type": "Point",
                "coordinates": [
                    19.419748551632104,
                    51.752587640550644
                ]
            }
        },
        {
            "type": "Feature",
            "properties": {
                "ref:csioz": 1016934,
                "name": "Apteka Dbam O Zdrowie",
                "addr:street": "marsz. Józefa Piłsudskiego",
                "addr:housenumber": "94",
                "addr:city": "Łódź",
                "addr:postcode": "92-202",
                "amenity": "pharmacy"
            },
            "geometry": {
                "type": "Point",
                "coordinates": [
                    19.496305749951436,
                    51.76467064338542
                ]
            }
        },
        {
            "type": "Feature",
            "properties": {
                "ref:csioz": 1016991,
                "name": "Apteka Kwiaty Polskie",
                "addr:street": "Piotrkowska",
                "addr:housenumber": "286",
                "addr:city": "Łódź-Górna",
                "addr:postcode": "93-034",
                "amenity": "pharmacy"
            },
            "geometry": {
                "type": "Point",
                "coordinates": [
                    19.46234613336218,
                    51.74324077758855
                ]
            }
        },
        {
            "type": "Feature",
            "properties": {
                "ref:csioz": 1017172,
                "name": "Doz Apteka Dbam O Zdrowie",
                "addr:street": "Rzgowska",
                "addr:housenumber": "281/289",
                "addr:city": "Łódź",
                "addr:postcode": "93-338",
                "amenity": "pharmacy"
            },
            "geometry": {
                "type": "Point",
                "coordinates": [
                    19.482968685930384,
                    51.707474556304746
                ]
            }
        },
        {
            "type": "Feature",
            "properties": {
                "ref:csioz": 1017260,
                "name": "Apteka Dbam O Zdrowie",
                "addr:street": "Tokarska",
                "addr:housenumber": "14",
                "addr:city": "Łódź",
                "addr:postcode": "91-450",
                "amenity": "pharmacy"
            },
            "geometry": {
                "type": "Point",
                "coordinates": [
                    19.4540671974551,
                    51.790618199914476
                ]
            }
        },
        {
            "type": "Feature",
            "properties": {
                "ref:csioz": 1017435,
                "name": "Na Strzelców",
                "addr:street": "28 Pułku Strzelców Kaniowskich",
                "addr:housenumber": "6/10",
                "addr:city": "Łódź",
                "addr:postcode": "90-750",
                "amenity": "pharmacy"
            },
            "geometry": {
                "type": "Point",
                "coordinates": [
                    19.440598281889876,
                    51.770109912906875
                ]
            }
        },
        {
            "type": "Feature",
            "properties": {
                "ref:csioz": 1017573,
                "name": "Prima Mgr Farm. Tomasz Buszmak",
                "addr:street": "Myśliwska",
                "addr:housenumber": "9",
                "addr:city": "Łódź",
                "addr:postcode": "93-519",
                "amenity": "pharmacy"
            },
            "geometry": {
                "type": "Point",
                "coordinates": [
                    19.462039624076525,
                    51.73162882794248
                ]
            }
        },
        {
            "type": "Feature",
            "properties": {
                "ref:csioz": 1018413,
                "name": "Arka",
                "addr:street": "Chóralna",
                "addr:housenumber": "16",
                "addr:city": "Łódź",
                "addr:postcode": "93-328",
                "amenity": "pharmacy"
            },
            "geometry": {
                "type": "Point",
                "coordinates": [
                    19.486532593592365,
                    51.71939269275294
                ]
            }
        },
        {
            "type": "Feature",
            "properties": {
                "ref:csioz": 1018909,
                "name": "Apteka Dbam O Zdrowie",
                "addr:street": "Lucjana Rydla",
                "addr:housenumber": "23",
                "addr:city": "Łódź",
                "addr:postcode": "93-203",
                "amenity": "pharmacy"
            },
            "geometry": {
                "type": "Point",
                "coordinates": [
                    19.49974501461287,
                    51.7352126750551
                ]
            }
        },
        {
            "type": "Feature",
            "properties": {
                "ref:csioz": 1019409,
                "name": "Św. Franciszka",
                "addr:street": "Sporna",
                "addr:housenumber": "36",
                "addr:flats": "50",
                "addr:city": "Łódź",
                "addr:postcode": "91-738",
                "amenity": "pharmacy"
            },
            "geometry": {
                "type": "Point",
                "coordinates": [
                    19.47960500000016,
                    51.78674200001514
                ]
            }
        },
        {
            "type": "Feature",
            "properties": {
                "ref:csioz": 1019556,
                "name": "Apteka Bonifratów",
                "addr:street": "Kosynierów Gdyńskich",
                "addr:housenumber": "61",
                "addr:city": "Łódź",
                "addr:postcode": "93-357",
                "amenity": "pharmacy"
            },
            "geometry": {
                "type": "Point",
                "coordinates": [
                    19.470465766204164,
                    51.7177855422933
                ]
            }
        },
        {
            "type": "Feature",
            "properties": {
                "ref:csioz": 1019693,
                "name": "Rosa",
                "addr:street": "Leopolda Tyrmanda",
                "addr:housenumber": "4",
                "addr:city": "Łódź",
                "addr:postcode": "93-218",
                "amenity": "pharmacy"
            },
            "geometry": {
                "type": "Point",
                "coordinates": [
                    19.50092867508863,
                    51.745168798235305
                ]
            }
        },
        {
            "type": "Feature",
            "properties": {
                "ref:csioz": 1019977,
                "name": "Medeor",
                "addr:street": "Maratońska",
                "addr:housenumber": "67/69",
                "addr:city": "Łódź",
                "addr:postcode": "94-102",
                "amenity": "pharmacy"
            },
            "geometry": {
                "type": "Point",
                "coordinates": [
                    19.39389700000013,
                    51.738597000015055
                ]
            }
        },
        {
            "type": "Feature",
            "properties": {
                "ref:csioz": 1020472,
                "name": "Medest Vi",
                "addr:street": "Bratysławska",
                "addr:housenumber": "2A",
                "addr:city": "Łódź",
                "addr:postcode": "94-032",
                "amenity": "pharmacy"
            },
            "geometry": {
                "type": "Point",
                "coordinates": [
                    19.424962942014773,
                    51.751410334384715
                ]
            }
        },
        {
            "type": "Feature",
            "properties": {
                "ref:csioz": 1020610,
                "name": "Super Tania Apteka Im. Zawiszy Czarnego",
                "addr:street": "Zawiszy Czarnego",
                "addr:housenumber": "26",
                "addr:city": "Łódź",
                "addr:postcode": "91-818",
                "amenity": "pharmacy"
            },
            "geometry": {
                "type": "Point",
                "coordinates": [
                    19.460372561240113,
                    51.78686791676453
                ]
            }
        },
        {
            "type": "Feature",
            "properties": {
                "ref:csioz": 1020796,
                "name": "Apteka Dbam O Zdrowie",
                "addr:street": "Ignacego Paderewskiego",
                "addr:housenumber": "47",
                "addr:city": "Łódź",
                "addr:postcode": "93-523",
                "amenity": "pharmacy"
            },
            "geometry": {
                "type": "Point",
                "coordinates": [
                    19.46960631140281,
                    51.728213299446914
                ]
            }
        },
        {
            "type": "Feature",
            "properties": {
                "ref:csioz": 1020875,
                "name": "Nowa Złotno",
                "addr:street": "Złotno",
                "addr:housenumber": "60/62",
                "addr:city": "Łódź",
                "addr:postcode": "94-221",
                "amenity": "pharmacy"
            },
            "geometry": {
                "type": "Point",
                "coordinates": [
                    19.430734959392222,
                    51.71976029048131
                ]
            }
        },
        {
            "type": "Feature",
            "properties": {
                "ref:csioz": 1020931,
                "name": "Apteka Zdrowit",
                "addr:street": "gen. Jarosława Dąbrowskiego",
                "addr:housenumber": "15B",
                "addr:city": "Łódź",
                "addr:postcode": "93-177",
                "amenity": "pharmacy"
            },
            "geometry": {
                "type": "Point",
                "coordinates": [
                    19.47624214396743,
                    51.7380671772984
                ]
            }
        },
        {
            "type": "Feature",
            "properties": {
                "ref:csioz": 1021074,
                "name": "Gwiazda",
                "addr:street": "Władysława Broniewskiego",
                "addr:housenumber": "67",
                "addr:city": "Łódź",
                "addr:postcode": "93-258",
                "amenity": "pharmacy"
            },
            "geometry": {
                "type": "Point",
                "coordinates": [
                    19.493038922009255,
                    51.73292358712991
                ]
            }
        },
        {
            "type": "Feature",
            "properties": {
                "ref:csioz": 1021311,
                "name": "Rosa",
                "addr:street": "Radwańska",
                "addr:housenumber": "19/20",
                "addr:city": "Łódź",
                "addr:postcode": "90-452",
                "amenity": "pharmacy"
            },
            "geometry": {
                "type": "Point",
                "coordinates": [
                    19.455716000000155,
                    51.75255400001509
                ]
            }
        },
        {
            "type": "Feature",
            "properties": {
                "ref:csioz": 1021457,
                "addr:street": "gen. Ignacego Prądzyńskiego",
                "addr:housenumber": "40/46",
                "addr:city": "Łódź",
                "addr:postcode": "93-466",
                "amenity": "pharmacy"
            },
            "geometry": {
                "type": "Point",
                "coordinates": [
                    19.43093576428266,
                    51.722714640046455
                ]
            }
        },
        {
            "type": "Feature",
            "properties": {
                "ref:csioz": 1021537,
                "name": "Anyżowa",
                "addr:street": "Anyżowa",
                "addr:housenumber": "3",
                "addr:city": "Łódź",
                "addr:postcode": "91-358",
                "amenity": "pharmacy"
            },
            "geometry": {
                "type": "Point",
                "coordinates": [
                    19.431311380510248,
                    51.81873031470213
                ]
            }
        },
        {
            "type": "Feature",
            "properties": {
                "ref:csioz": 1021677,
                "addr:street": "Chryzantem",
                "addr:housenumber": "6",
                "addr:city": "Łódź",
                "addr:postcode": "91-718",
                "amenity": "pharmacy"
            },
            "geometry": {
                "type": "Point",
                "coordinates": [
                    19.484340561634912,
                    51.79206149156379
                ]
            }
        },
        {
            "type": "Feature",
            "properties": {
                "ref:csioz": 1022090,
                "name": "Doz Apteka Dbam O Zdrowie",
                "addr:street": "Lecznicza",
                "addr:housenumber": "4",
                "addr:city": "Łódź",
                "addr:postcode": "93-173",
                "amenity": "pharmacy"
            },
            "geometry": {
                "type": "Point",
                "coordinates": [
                    19.472328638641116,
                    51.73464808424324
                ]
            }
        },
        {
            "type": "Feature",
            "properties": {
                "ref:csioz": 1024047,
                "name": "Apteka Hortensja Spółka Jawna A.M.Bahour",
                "addr:street": "Jana Kilińskiego",
                "addr:housenumber": "15",
                "addr:city": "Łódź",
                "addr:postcode": "90-205",
                "amenity": "pharmacy"
            },
            "geometry": {
                "type": "Point",
                "coordinates": [
                    19.461873504320696,
                    51.776741410573855
                ]
            }
        },
        {
            "type": "Feature",
            "properties": {
                "ref:csioz": 1024715,
                "name": "Super-Pharm Apteka",
                "addr:street": "Pabianicka",
                "addr:housenumber": "245 (CH Port Łódź)",
                "addr:city": "Łódź",
                "addr:postcode": "93-457",
                "amenity": "pharmacy"
            },
            "geometry": {
                "type": "Point",
                "coordinates": [
                    19.414194000000137,
                    51.70365600001501
                ]
            }
        },
        {
            "type": "Feature",
            "properties": {
                "ref:csioz": 1025032,
                "name": "Apteka Nastrojowa Ewa Gostomska I Wspólnicy Spółka Jawna",
                "addr:street": "Nastrojowa",
                "addr:housenumber": "10",
                "addr:city": "Łódź",
                "addr:postcode": "91-496",
                "amenity": "pharmacy"
            },
            "geometry": {
                "type": "Point",
                "coordinates": [
                    19.440449781501144,
                    51.8238617365241
                ]
            }
        },
        {
            "type": "Feature",
            "properties": {
                "ref:csioz": 1025078,
                "name": "\"Apteka 'Kwiaty Polskie'\"",
                "addr:street": "Janusza Kusocińskiego",
                "addr:housenumber": "61",
                "addr:city": "Łódź",
                "addr:postcode": "94-054",
                "amenity": "pharmacy"
            },
            "geometry": {
                "type": "Point",
                "coordinates": [
                    19.399431732478146,
                    51.752263844115554
                ]
            }
        },
        {
            "type": "Feature",
            "properties": {
                "ref:csioz": 1025250,
                "name": "Melissa",
                "addr:street": "Prezydenta Gabriela Narutowicza",
                "addr:housenumber": "55",
                "addr:city": "Łódź",
                "addr:postcode": "90-130",
                "amenity": "pharmacy"
            },
            "geometry": {
                "type": "Point",
                "coordinates": [
                    19.470726442385143,
                    51.77177138181663
                ]
            }
        },
        {
            "type": "Feature",
            "properties": {
                "ref:csioz": 1025682,
                "name": "Apteka Dbam O Zdrowie",
                "addr:street": "Jana Pawła II",
                "addr:housenumber": "30",
                "addr:flats": "M18",
                "addr:city": "Łódź",
                "addr:postcode": "93-570",
                "amenity": "pharmacy"
            },
            "geometry": {
                "type": "Point",
                "coordinates": [
                    19.439883732852373,
                    51.74982671005109
                ]
            }
        },
        {
            "type": "Feature",
            "properties": {
                "ref:csioz": 1026075,
                "name": "A Jak Apteka",
                "addr:street": "Augusta Cieszkowskiego",
                "addr:housenumber": "4",
                "addr:flats": "U4",
                "addr:city": "Łódź",
                "addr:postcode": "93-504",
                "amenity": "pharmacy"
            },
            "geometry": {
                "type": "Point",
                "coordinates": [
                    19.44894063845961,
                    51.73248226061849
                ]
            }
        },
        {
            "type": "Feature",
            "properties": {
                "ref:csioz": 1026561,
                "name": "Rosa",
                "addr:street": "Jana Brzechwy",
                "addr:housenumber": "7A",
                "addr:city": "Łódź",
                "addr:postcode": "93-219",
                "amenity": "pharmacy"
            },
            "geometry": {
                "type": "Point",
                "coordinates": [
                    19.495375051795317,
                    51.74746927095975
                ]
            }
        },
        {
            "type": "Feature",
            "properties": {
                "ref:csioz": 1113974,
                "name": "Apteka Serdeczna",
                "addr:street": "Marcina Kasprzaka",
                "addr:housenumber": "29",
                "addr:city": "Łódź",
                "addr:postcode": "91-078",
                "amenity": "pharmacy"
            },
            "geometry": {
                "type": "Point",
                "coordinates": [
                    19.42767502965505,
                    51.77655669560926
                ]
            }
        },
        {
            "type": "Feature",
            "properties": {
                "ref:csioz": 1114164,
                "name": "Apteka Farm-Med 3",
                "addr:street": "Odrzańska",
                "addr:housenumber": "29",
                "addr:city": "Łódź",
                "addr:postcode": "93-472",
                "amenity": "pharmacy"
            },
            "geometry": {
                "type": "Point",
                "coordinates": [
                    19.423881736756325,
                    51.71443972960577
                ]
            }
        },
        {
            "type": "Feature",
            "properties": {
                "ref:csioz": 1118280,
                "name": "Kapsułka",
                "addr:street": "Rzgowska",
                "addr:housenumber": "170",
                "addr:city": "Łódź",
                "addr:postcode": "93-311",
                "amenity": "pharmacy"
            },
            "geometry": {
                "type": "Point",
                "coordinates": [
                    19.48577766323682,
                    51.72016416577824
                ]
            }
        },
        {
            "type": "Feature",
            "properties": {
                "ref:csioz": 1119680,
                "name": "Apteka A-Z Od Apteki Do Zdrowia",
                "addr:street": "Władysława Broniewskiego",
                "addr:housenumber": "62",
                "addr:flats": "4U",
                "addr:city": "Łódź",
                "addr:postcode": "93-264",
                "amenity": "pharmacy"
            },
            "geometry": {
                "type": "Point",
                "coordinates": [
                    19.499866498256818,
                    51.73347720213164
                ]
            }
        },
        {
            "type": "Feature",
            "properties": {
                "ref:csioz": 1119695,
                "name": "Apteka Czerwona",
                "addr:street": "Bratysławska",
                "addr:housenumber": "10A",
                "addr:city": "Łódź",
                "addr:postcode": "94-040",
                "amenity": "pharmacy"
            },
            "geometry": {
                "type": "Point",
                "coordinates": [
                    19.423445364539162,
                    51.74865802073726
                ]
            }
        },
        {
            "type": "Feature",
            "properties": {
                "ref:csioz": 1120729,
                "name": "Fortuna",
                "addr:street": "POJEZIERSKA",
                "addr:housenumber": "2/6",
                "addr:city": "ŁÓDŹ",
                "addr:postcode": "91-322",
                "amenity": "pharmacy"
            },
            "geometry": {
                "type": "Point",
                "coordinates": [
                    19.441512000000145,
                    51.797060000015165
                ]
            }
        },
        {
            "type": "Feature",
            "properties": {
                "ref:csioz": 1121081,
                "name": "Apteka Dary Natury",
                "addr:street": "Łagiewnicka",
                "addr:housenumber": "118 B",
                "addr:city": "Łódź",
                "addr:postcode": "91-471",
                "amenity": "pharmacy"
            },
            "geometry": {
                "type": "Point",
                "coordinates": [
                    19.45549062625352,
                    51.79885657641014
                ]
            }
        },
        {
            "type": "Feature",
            "properties": {
                "ref:csioz": 1121441,
                "name": "Medest Ii",
                "addr:street": "Wojska Polskiego",
                "addr:housenumber": "148",
                "addr:city": "Łódź",
                "addr:postcode": "91-711",
                "amenity": "pharmacy"
            },
            "geometry": {
                "type": "Point",
                "coordinates": [
                    19.482674482223537,
                    51.79042412168444
                ]
            }
        },
        {
            "type": "Feature",
            "properties": {
                "ref:csioz": 1122953,
                "name": "Apteka 24 H",
                "addr:street": "Strażacka",
                "addr:housenumber": "7",
                "addr:city": "Łódź",
                "addr:postcode": "93-318",
                "amenity": "pharmacy"
            },
            "geometry": {
                "type": "Point",
                "coordinates": [
                    19.481862848691378,
                    51.71777241504087
                ]
            }
        },
        {
            "type": "Feature",
            "properties": {
                "ref:csioz": 1177801,
                "name": "Trzy Korony",
                "addr:street": "Nastrojowa",
                "addr:housenumber": "56",
                "addr:city": "Łódź",
                "addr:postcode": "91-496",
                "amenity": "pharmacy"
            },
            "geometry": {
                "type": "Point",
                "coordinates": [
                    19.443184659672845,
                    51.819782975612725
                ]
            }
        },
        {
            "type": "Feature",
            "properties": {
                "ref:csioz": 1178039,
                "name": "Przyjazna",
                "addr:street": "Zakładowa",
                "addr:housenumber": "62",
                "addr:city": "Łódź",
                "addr:postcode": "92-402",
                "amenity": "pharmacy"
            },
            "geometry": {
                "type": "Point",
                "coordinates": [
                    19.394036774124277,
                    51.74771432816632
                ]
            }
        },
        {
            "type": "Feature",
            "properties": {
                "ref:csioz": 1178129,
                "name": "Apteka Dla Zdrowia",
                "addr:street": "Juliusza Kossaka",
                "addr:housenumber": "12",
                "addr:city": "Łódź",
                "addr:postcode": "93-213",
                "amenity": "pharmacy"
            },
            "geometry": {
                "type": "Point",
                "coordinates": [
                    19.501007512220234,
                    51.738062573145946
                ]
            }
        },
        {
            "type": "Feature",
            "properties": {
                "ref:csioz": 1180316,
                "name": "Apteka Zdrowit",
                "addr:street": "ks. kard. Stefana Wyszyńskiego",
                "addr:housenumber": "99",
                "addr:city": "Łódź",
                "addr:postcode": "94-050",
                "amenity": "pharmacy"
            },
            "geometry": {
                "type": "Point",
                "coordinates": [
                    19.386422725788215,
                    51.743279849682935
                ]
            }
        },
        {
            "type": "Feature",
            "properties": {
                "ref:csioz": 1180342,
                "name": "Super-Pharm Apteka",
                "addr:street": "Armii Krajowej",
                "addr:housenumber": "37",
                "addr:city": "Łódź",
                "addr:postcode": "94-046",
                "amenity": "pharmacy"
            },
            "geometry": {
                "type": "Point",
                "coordinates": [
                    19.399239699386825,
                    51.74541772310422
                ]
            }
        },
        {
            "type": "Feature",
            "properties": {
                "ref:csioz": 1191329,
                "name": "\"Niepubliczny Zakład Opieki Zdrowotnej \"\"Contact-Med\"\" Spółka Z Ograniczoną Odpowiedzialnością\"",
                "addr:street": "Wspólna",
                "addr:housenumber": "6",
                "addr:city": "Łódź",
                "addr:postcode": "91-464",
                "amenity": "pharmacy"
            },
            "geometry": {
                "type": "Point",
                "coordinates": [
                    19.448682440971705,
                    51.7953448694515
                ]
            }
        },
        {
            "type": "Feature",
            "properties": {
                "ref:csioz": 1192843,
                "name": "Dr. Max",
                "addr:street": "Bratysławska",
                "addr:housenumber": "5",
                "addr:city": "Łódź",
                "addr:postcode": "94-032",
                "amenity": "pharmacy"
            },
            "geometry": {
                "type": "Point",
                "coordinates": [
                    19.42257287746689,
                    51.749355531312005
                ]
            }
        },
        {
            "type": "Feature",
            "properties": {
                "ref:csioz": 1196087,
                "name": "\"Apteka Cef@Rm 36,6\"",
                "addr:street": "Politechniki",
                "addr:housenumber": "1",
                "addr:flats": "\"0,07\"",
                "addr:city": "Łódź",
                "addr:postcode": "93-590",
                "amenity": "pharmacy"
            },
            "geometry": {
                "type": "Point",
                "coordinates": [
                    19.44925056023585,
                    51.74998385102468
                ]
            }
        },
        {
            "type": "Feature",
            "properties": {
                "ref:csioz": 1197335,
                "name": "Samodzielny Publiczny Zakład Opieki Zdrowotnej Uniwersytecki Szpital Kliniczny Im. Wojskowej Akademii Medycznej Uniwersytetu Medycznego W Łodzi - Centralny Szpital Weteranów",
                "addr:street": "Stefana Żeromskiego",
                "addr:housenumber": "113",
                "addr:city": "Łódź",
                "addr:postcode": "90-549",
                "amenity": "pharmacy"
            },
            "geometry": {
                "type": "Point",
                "coordinates": [
                    19.4476758300929,
                    51.75947462459591
                ]
            }
        },
        {
            "type": "Feature",
            "properties": {
                "ref:csioz": 1198429,
                "name": "Centrum Medyczne Księży Młyn",
                "addr:street": "Przędzalniana",
                "addr:housenumber": "66",
                "addr:city": "Łódź",
                "addr:postcode": "90-338",
                "amenity": "pharmacy"
            },
            "geometry": {
                "type": "Point",
                "coordinates": [
                    19.482891887760754,
                    51.75618843898405
                ]
            }
        },
        {
            "type": "Feature",
            "properties": {
                "ref:csioz": 1198432,
                "name": "Niepubliczny Zakład Opieki Zdrowotnej Mikomed Chirurgia Jednego Dnia",
                "addr:street": "Pługowa",
                "addr:housenumber": "51/53",
                "addr:city": "Łódź",
                "addr:postcode": "94-238",
                "amenity": "pharmacy"
            },
            "geometry": {
                "type": "Point",
                "coordinates": [
                    19.392362000000134,
                    51.78461700001514
                ]
            }
        },
        {
            "type": "Feature",
            "properties": {
                "ref:csioz": 1198464,
                "name": "Med-Gastr-Szpital",
                "addr:street": "Mokra",
                "addr:housenumber": "4",
                "addr:city": "Łódź",
                "addr:postcode": "91-034",
                "amenity": "pharmacy"
            },
            "geometry": {
                "type": "Point",
                "coordinates": [
                    19.42526116872533,
                    51.79060088523134
                ]
            }
        },
        {
            "type": "Feature",
            "properties": {
                "ref:csioz": 1198714,
                "addr:street": "gen. Jarosława Dąbrowskiego",
                "addr:housenumber": "87",
                "addr:city": "Łódź",
                "addr:postcode": "93-271",
                "amenity": "pharmacy"
            },
            "geometry": {
                "type": "Point",
                "coordinates": [
                    19.49281562433461,
                    51.73679653174797
                ]
            }
        },
        {
            "type": "Feature",
            "properties": {
                "ref:csioz": 1200486,
                "name": "Apteka-Sieciowa",
                "addr:street": "Kongresowa",
                "addr:housenumber": "34",
                "addr:city": "Łódź",
                "addr:postcode": "93-376",
                "amenity": "pharmacy"
            },
            "geometry": {
                "type": "Point",
                "coordinates": [
                    19.476516879067617,
                    51.72109641167493
                ]
            }
        },
        {
            "type": "Feature",
            "properties": {
                "ref:csioz": 1201583,
                "name": "Apteka Melissa",
                "addr:street": "Świtezianki",
                "addr:housenumber": "16",
                "addr:city": "Łódź",
                "addr:postcode": "91-496",
                "amenity": "pharmacy"
            },
            "geometry": {
                "type": "Point",
                "coordinates": [
                    19.43551375494652,
                    51.82391921971185
                ]
            }
        },
        {
            "type": "Feature",
            "properties": {
                "ref:csioz": 1212034,
                "name": "\"'Forte'\"",
                "addr:street": "ks. kard. Stefana Wyszyńskiego",
                "addr:housenumber": "61",
                "addr:city": "Łódź",
                "addr:postcode": "94-047",
                "amenity": "pharmacy"
            },
            "geometry": {
                "type": "Point",
                "coordinates": [
                    19.390578604091456,
                    51.744565172123075
                ]
            }
        },
        {
            "type": "Feature",
            "properties": {
                "ref:csioz": 1213719,
                "name": "Apteka Czerwona",
                "addr:street": "Nowomiejska",
                "addr:housenumber": "11",
                "addr:city": "Łódź",
                "addr:postcode": "91-414",
                "amenity": "pharmacy"
            },
            "geometry": {
                "type": "Point",
                "coordinates": [
                    19.45456235758299,
                    51.77849337981335
                ]
            }
        },
        {
            "type": "Feature",
            "properties": {
                "ref:csioz": 1218216,
                "addr:street": "Szparagowa",
                "addr:housenumber": "10",
                "addr:city": "Łódź",
                "addr:postcode": "91-211",
                "amenity": "pharmacy"
            },
            "geometry": {
                "type": "Point",
                "coordinates": [
                    19.37812323188102,
                    51.80440645916591
                ]
            }
        },
        {
            "type": "Feature",
            "properties": {
                "ref:csioz": 1222938,
                "addr:street": "Józefa Ignacego Kraszewskiego",
                "addr:housenumber": "1/5",
                "addr:city": "Łódź",
                "addr:postcode": "93-161",
                "amenity": "pharmacy"
            },
            "geometry": {
                "type": "Point",
                "coordinates": [
                    19.481576828158342,
                    51.73689113310122
                ]
            }
        },
        {
            "type": "Feature",
            "properties": {
                "ref:csioz": 1223978,
                "name": "Apteka Zdrowit",
                "addr:street": "Tylna",
                "addr:housenumber": "5",
                "addr:city": "Łódź",
                "addr:postcode": "90-248",
                "amenity": "pharmacy"
            },
            "geometry": {
                "type": "Point",
                "coordinates": [
                    19.469690405771644,
                    51.75276752244489
                ]
            }
        },
        {
            "type": "Feature",
            "properties": {
                "ref:csioz": 1021615,
                "name": "Apteka Mgr Farm. Jakub Wąsikowski",
                "addr:street": "Heleny Radlińskiej",
                "addr:housenumber": "2",
                "addr:city": "Łódź",
                "addr:postcode": "91-848",
                "amenity": "pharmacy"
            },
            "geometry": {
                "type": "Point",
                "coordinates": [
                    19.475328122307218,
                    51.79890424464829
                ]
            }
        },
        {
            "type": "Feature",
            "properties": {
                "ref:csioz": 1009505,
                "name": "Pod Słońcem",
                "addr:street": "Prezydenta Gabriela Narutowicza",
                "addr:housenumber": "6",
                "addr:city": "Łódź",
                "addr:postcode": "90-135",
                "amenity": "pharmacy"
            },
            "geometry": {
                "type": "Point",
                "coordinates": [
                    19.457122207681454,
                    51.770794350672226
                ]
            }
        },
        {
            "type": "Feature",
            "properties": {
                "ref:csioz": 1009981,
                "addr:street": "Łanowa",
                "addr:housenumber": "83",
                "addr:city": "Łódź",
                "addr:postcode": "91-110",
                "amenity": "pharmacy"
            },
            "geometry": {
                "type": "Point",
                "coordinates": [
                    19.403717172736933,
                    51.7936670989028
                ]
            }
        },
        {
            "type": "Feature",
            "properties": {
                "ref:csioz": 1009997,
                "name": "Apteka Zdrowit",
                "addr:street": "gen. Jarosława Dąbrowskiego",
                "addr:housenumber": "89",
                "addr:city": "Łódź",
                "addr:postcode": "93-271",
                "amenity": "pharmacy"
            },
            "geometry": {
                "type": "Point",
                "coordinates": [
                    19.493961734012572,
                    51.73668722010432
                ]
            }
        },
        {
            "type": "Feature",
            "properties": {
                "ref:csioz": 1010229,
                "name": "Radicula",
                "addr:street": "Rojna",
                "addr:housenumber": "25",
                "addr:city": "Łódź",
                "addr:postcode": "91-134",
                "amenity": "pharmacy"
            },
            "geometry": {
                "type": "Point",
                "coordinates": [
                    19.381746911656833,
                    51.79416045441264
                ]
            }
        },
        {
            "type": "Feature",
            "properties": {
                "ref:csioz": 1012215,
                "name": "Apteka Dbam O Zdrowie",
                "addr:street": "Stanisława Przybyszewskiego",
                "addr:housenumber": "86",
                "addr:city": "Łódź",
                "addr:postcode": "93-110",
                "amenity": "pharmacy"
            },
            "geometry": {
                "type": "Point",
                "coordinates": [
                    19.485655877202827,
                    51.74734192811633
                ]
            }
        },
        {
            "type": "Feature",
            "properties": {
                "ref:csioz": 1012357,
                "name": "Apteka Medest Agks Gierula I Wspólnicy Spółka Jawna",
                "addr:street": "Bojowników Getta Warszawskiego",
                "addr:housenumber": "6",
                "addr:city": "Łódź",
                "addr:postcode": "91-438",
                "amenity": "pharmacy"
            },
            "geometry": {
                "type": "Point",
                "coordinates": [
                    19.45579782861138,
                    51.78239435333891
                ]
            }
        },
        {
            "type": "Feature",
            "properties": {
                "ref:csioz": 1012478,
                "name": "Dr. Max",
                "addr:street": "Ujście",
                "addr:housenumber": "4",
                "addr:city": "Łódź",
                "addr:postcode": "93-490",
                "amenity": "pharmacy"
            },
            "geometry": {
                "type": "Point",
                "coordinates": [
                    19.427254645131136,
                    51.71121808403353
                ]
            }
        },
        {
            "type": "Feature",
            "properties": {
                "ref:csioz": 1012606,
                "name": "Apteka Dbam O Zdrowie",
                "addr:street": "Piotrkowska",
                "addr:housenumber": "193",
                "addr:city": "Łódź",
                "addr:postcode": "90-447",
                "amenity": "pharmacy"
            },
            "geometry": {
                "type": "Point",
                "coordinates": [
                    19.458973728395037,
                    51.75610450297259
                ]
            }
        },
        {
            "type": "Feature",
            "properties": {
                "ref:csioz": 1013038,
                "name": "Apteka Dbam O Zdrowie",
                "addr:street": "Strażacka",
                "addr:housenumber": "11",
                "addr:city": "Łódź",
                "addr:postcode": "93-318",
                "amenity": "pharmacy"
            },
            "geometry": {
                "type": "Point",
                "coordinates": [
                    19.47948266282442,
                    51.71858069626305
                ]
            }
        },
        {
            "type": "Feature",
            "properties": {
                "ref:csioz": 1015209,
                "name": "Doz Apteka. Dbam O Zdrowie. Ad Astra",
                "addr:street": "Kolumny",
                "addr:housenumber": "36",
                "addr:city": "Łódź",
                "addr:postcode": "93-342",
                "amenity": "pharmacy"
            },
            "geometry": {
                "type": "Point",
                "coordinates": [
                    19.49177700000016,
                    51.71009900001502
                ]
            }
        },
        {
            "type": "Feature",
            "properties": {
                "ref:csioz": 1016282,
                "name": "Apteka Dbam O Zdrowie",
                "addr:street": "Kosynierów Gdyńskich",
                "addr:housenumber": "32",
                "addr:city": "Łódź",
                "addr:postcode": "93-357",
                "amenity": "pharmacy"
            },
            "geometry": {
                "type": "Point",
                "coordinates": [
                    19.475807626106594,
                    51.71523152431967
                ]
            }
        },
        {
            "type": "Feature",
            "properties": {
                "ref:csioz": 1016447,
                "name": "\"Spectrum - Katarzyna Rogowska I Wspólnicy Spółka Jawna - Oddział'\"",
                "addr:street": "Kostki Napierskiego",
                "addr:housenumber": "1",
                "addr:city": "Łódź",
                "addr:postcode": "94-056",
                "amenity": "pharmacy"
            },
            "geometry": {
                "type": "Point",
                "coordinates": [
                    19.398683458868692,
                    51.74799989189103
                ]
            }
        },
        {
            "type": "Feature",
            "properties": {
                "ref:csioz": 1018052,
                "name": "Dr. Max",
                "addr:street": "ks. kard. Stefana Wyszyńskiego",
                "addr:housenumber": "107",
                "addr:city": "Łódź",
                "addr:postcode": "94-050",
                "amenity": "pharmacy"
            },
            "geometry": {
                "type": "Point",
                "coordinates": [
                    19.385616133868606,
                    51.74296117284066
                ]
            }
        },
        {
            "type": "Feature",
            "properties": {
                "ref:csioz": 1018492,
                "name": "Dr. Max",
                "addr:street": "Lutomierska",
                "addr:housenumber": "1",
                "addr:city": "Łódź",
                "addr:postcode": "91-058",
                "amenity": "pharmacy"
            },
            "geometry": {
                "type": "Point",
                "coordinates": [
                    19.452898290141913,
                    51.78327483831384
                ]
            }
        },
        {
            "type": "Feature",
            "properties": {
                "ref:csioz": 1019305,
                "name": "Serdeczna",
                "addr:street": "Okoniowa",
                "addr:housenumber": "4",
                "addr:city": "Łódź",
                "addr:postcode": "91-498",
                "amenity": "pharmacy"
            },
            "geometry": {
                "type": "Point",
                "coordinates": [
                    19.432114261266634,
                    51.82079061337064
                ]
            }
        },
        {
            "type": "Feature",
            "properties": {
                "ref:csioz": 1019508,
                "name": "Olimpijska",
                "addr:street": "ks. kard. Stefana Wyszyńskiego",
                "addr:housenumber": "61 BL.391",
                "addr:city": "Łódź",
                "addr:postcode": "94-074",
                "amenity": "pharmacy"
            },
            "geometry": {
                "type": "Point",
                "coordinates": [
                    19.390743000000132,
                    51.74456800001508
                ]
            }
        },
        {
            "type": "Feature",
            "properties": {
                "ref:csioz": 1019796,
                "name": "Olimpijska",
                "addr:street": "ks. kard. Stefana Wyszyńskiego",
                "addr:housenumber": "12",
                "addr:city": "Łódź",
                "addr:postcode": "94-042",
                "amenity": "pharmacy"
            },
            "geometry": {
                "type": "Point",
                "coordinates": [
                    19.412626944985305,
                    51.747102659524785
                ]
            }
        },
        {
            "type": "Feature",
            "properties": {
                "ref:csioz": 1020011,
                "name": "Gwiazda 2",
                "addr:street": "Władysława Broniewskiego",
                "addr:housenumber": "38/40",
                "addr:city": "Łódź",
                "addr:postcode": "93-142",
                "amenity": "pharmacy"
            },
            "geometry": {
                "type": "Point",
                "coordinates": [
                    19.487037187080738,
                    51.732865757483076
                ]
            }
        },
        {
            "type": "Feature",
            "properties": {
                "ref:csioz": 1020371,
                "name": "Uncja",
                "addr:street": "Pomorska",
                "addr:housenumber": "4",
                "addr:city": "Łódź",
                "addr:postcode": "91-416",
                "amenity": "pharmacy"
            },
            "geometry": {
                "type": "Point",
                "coordinates": [
                    19.45611722645599,
                    51.7769877854133
                ]
            }
        },
        {
            "type": "Feature",
            "properties": {
                "ref:csioz": 1021333,
                "name": "Herba",
                "addr:street": "Pługowa",
                "addr:housenumber": "51/53",
                "addr:city": "Łódź",
                "addr:postcode": "94-238",
                "amenity": "pharmacy"
            },
            "geometry": {
                "type": "Point",
                "coordinates": [
                    19.392362000000134,
                    51.78461700001514
                ]
            }
        },
        {
            "type": "Feature",
            "properties": {
                "ref:csioz": 1022015,
                "name": "Apteka Zdrowit",
                "addr:street": "Maratońska",
                "addr:housenumber": "24/32",
                "addr:city": "Łódź",
                "addr:postcode": "94-102",
                "amenity": "pharmacy"
            },
            "geometry": {
                "type": "Point",
                "coordinates": [
                    19.40527558471182,
                    51.74073673005956
                ]
            }
        },
        {
            "type": "Feature",
            "properties": {
                "ref:csioz": 1024141,
                "name": "Melissa",
                "addr:street": "Wólczańska",
                "addr:housenumber": "247",
                "addr:city": "Łódź",
                "addr:postcode": "93-035",
                "amenity": "pharmacy"
            },
            "geometry": {
                "type": "Point",
                "coordinates": [
                    19.45774304684127,
                    51.73986651768577
                ]
            }
        },
        {
            "type": "Feature",
            "properties": {
                "ref:csioz": 1026003,
                "name": "Apteka Zdrowie",
                "addr:street": "Wojska Polskiego",
                "addr:housenumber": "68",
                "addr:city": "Łódź-Bałuty",
                "addr:postcode": "91-809",
                "amenity": "pharmacy"
            },
            "geometry": {
                "type": "Point",
                "coordinates": [
                    19.46545573672506,
                    51.78597002659031
                ]
            }
        },
        {
            "type": "Feature",
            "properties": {
                "ref:csioz": 1026034,
                "name": "\"'Apteka - Apteki Dar Zdrowia'\"",
                "addr:street": "Rzgowska",
                "addr:housenumber": "51",
                "addr:city": "Łódź",
                "addr:postcode": "93-008",
                "amenity": "pharmacy"
            },
            "geometry": {
                "type": "Point",
                "coordinates": [
                    19.47163285925193,
                    51.7336501053263
                ]
            }
        },
        {
            "type": "Feature",
            "properties": {
                "ref:csioz": 1118411,
                "name": "Dr. Max",
                "addr:street": "Marszałka Józefa Piłsudskiego",
                "addr:housenumber": "14",
                "addr:city": "Łódź",
                "addr:postcode": "90-051",
                "amenity": "pharmacy"
            },
            "geometry": {
                "type": "Point",
                "coordinates": [
                    19.461974963791356,
                    51.76016543000025
                ]
            }
        },
        {
            "type": "Feature",
            "properties": {
                "ref:csioz": 1121113,
                "name": "Apteka U Kasi",
                "addr:street": "Lipiec Reymontowskich",
                "addr:housenumber": "9",
                "addr:city": "Łódź",
                "addr:postcode": "91-104",
                "amenity": "pharmacy"
            },
            "geometry": {
                "type": "Point",
                "coordinates": [
                    19.40419086926931,
                    51.79426307607963
                ]
            }
        },
        {
            "type": "Feature",
            "properties": {
                "ref:csioz": 1164351,
                "name": "Apteka Melissa",
                "addr:street": "Andrzeja Struga",
                "addr:housenumber": "16",
                "addr:city": "Łódź",
                "addr:postcode": "90-513",
                "amenity": "pharmacy"
            },
            "geometry": {
                "type": "Point",
                "coordinates": [
                    19.453106452730246,
                    51.76493958381982
                ]
            }
        },
        {
            "type": "Feature",
            "properties": {
                "ref:csioz": 1171848,
                "name": "\"Apteka Cef@Rm 36,6\"",
                "addr:street": "Jana Kilińskiego",
                "addr:housenumber": "296",
                "addr:city": "Łódź",
                "addr:postcode": "93-160",
                "amenity": "pharmacy"
            },
            "geometry": {
                "type": "Point",
                "coordinates": [
                    19.479776550351392,
                    51.73621581052922
                ]
            }
        },
        {
            "type": "Feature",
            "properties": {
                "ref:csioz": 1171812,
                "name": "\"Apteka \"\"Kwiaty Polskie\"\"\"",
                "addr:street": "Armii Krajowej",
                "addr:housenumber": "33",
                "addr:city": "Łódź",
                "addr:postcode": "94-046",
                "amenity": "pharmacy"
            },
            "geometry": {
                "type": "Point",
                "coordinates": [
                    19.400557865857078,
                    51.744204316883256
                ]
            }
        },
        {
            "type": "Feature",
            "properties": {
                "ref:csioz": 1177778,
                "name": "Apteka - Apteki Dar Zdrowia",
                "addr:street": "Marii Skłodowskiej-Curie",
                "addr:housenumber": "15/17",
                "addr:city": "Łódź",
                "addr:postcode": "90-570",
                "amenity": "pharmacy"
            },
            "geometry": {
                "type": "Point",
                "coordinates": [
                    19.445254904161736,
                    51.76291362044829
                ]
            }
        },
        {
            "type": "Feature",
            "properties": {
                "ref:csioz": 1182004,
                "name": "Apteka-Sieciowa",
                "addr:street": "Kurczaki",
                "addr:housenumber": "50",
                "addr:city": "Łódź",
                "addr:postcode": "93-331",
                "amenity": "pharmacy"
            },
            "geometry": {
                "type": "Point",
                "coordinates": [
                    19.495772483066762,
                    51.71955848915608
                ]
            }
        },
        {
            "type": "Feature",
            "properties": {
                "ref:csioz": 1184654,
                "name": "Wapteka.Pl",
                "addr:street": "Obywatelska",
                "addr:housenumber": "128/152",
                "addr:city": "Łódź",
                "addr:postcode": "94-104",
                "amenity": "pharmacy"
            },
            "geometry": {
                "type": "Point",
                "coordinates": [
                    19.424920000000146,
                    51.73757000001505
                ]
            }
        },
        {
            "type": "Feature",
            "properties": {
                "ref:csioz": 1186071,
                "name": "Dr. Max",
                "addr:street": "11 Listopada",
                "addr:housenumber": "20",
                "addr:city": "Łódź",
                "addr:postcode": "91-370",
                "amenity": "pharmacy"
            },
            "geometry": {
                "type": "Point",
                "coordinates": [
                    19.42189335327083,
                    51.815899964010136
                ]
            }
        },
        {
            "type": "Feature",
            "properties": {
                "ref:csioz": 1187077,
                "name": "Olmed",
                "addr:street": "Milionowa",
                "addr:housenumber": "37",
                "addr:city": "Łódź",
                "addr:postcode": "92-334",
                "amenity": "pharmacy"
            },
            "geometry": {
                "type": "Point",
                "coordinates": [
                    19.48223812554898,
                    51.75059915310117
                ]
            }
        },
        {
            "type": "Feature",
            "properties": {
                "ref:csioz": 1189658,
                "name": "Apteka 7 Dni",
                "addr:street": "Zarzewska",
                "addr:housenumber": "51/53",
                "addr:city": "Łódź",
                "addr:postcode": "93-129",
                "amenity": "pharmacy"
            },
            "geometry": {
                "type": "Point",
                "coordinates": [
                    19.474405000000157,
                    51.74274800001507
                ]
            }
        },
        {
            "type": "Feature",
            "properties": {
                "ref:csioz": 1191355,
                "name": "Wojewódzkie Wielospecjalistyczne Centrum Onkologii I Traumatologii Im. M. Kopernika W Łodzi",
                "addr:street": "Pabianicka",
                "addr:housenumber": "62",
                "addr:city": "Łódź",
                "addr:postcode": "93-513",
                "amenity": "pharmacy"
            },
            "geometry": {
                "type": "Point",
                "coordinates": [
                    19.455601568397096,
                    51.732068415131934
                ]
            }
        },
        {
            "type": "Feature",
            "properties": {
                "ref:csioz": 1191479,
                "name": "Instytut Medycyny Pracy Im. Prof. Dr Med. Jerzego Nofera",
                "addr:street": "św. Teresy od Dzieciątka Jezus",
                "addr:housenumber": "8",
                "addr:city": "Łódź",
                "addr:postcode": "91-348",
                "amenity": "pharmacy"
            },
            "geometry": {
                "type": "Point",
                "coordinates": [
                    19.43653930945876,
                    51.80194637780553
                ]
            }
        },
        {
            "type": "Feature",
            "properties": {
                "ref:csioz": 1192107,
                "name": "Rosa",
                "addr:street": "gen. Jarosława Dąbrowskiego",
                "addr:housenumber": "91A",
                "addr:city": "Łódź",
                "addr:postcode": "93-201",
                "amenity": "pharmacy"
            },
            "geometry": {
                "type": "Point",
                "coordinates": [
                    19.49497590558919,
                    51.7361819840865
                ]
            }
        },
        {
            "type": "Feature",
            "properties": {
                "ref:csioz": 1192511,
                "name": "Apteka Zawiszy Czarnego",
                "addr:street": "Złotnicza",
                "addr:housenumber": "3",
                "addr:city": "Łódź",
                "addr:postcode": "91-804",
                "amenity": "pharmacy"
            },
            "geometry": {
                "type": "Point",
                "coordinates": [
                    19.464072807416553,
                    51.78939231674341
                ]
            }
        },
        {
            "type": "Feature",
            "properties": {
                "ref:csioz": 1193461,
                "name": "A Jak Apteka",
                "addr:street": "Jana Długosza",
                "addr:housenumber": "26",
                "addr:flats": "3",
                "addr:city": "Łódź",
                "addr:postcode": "91-083",
                "amenity": "pharmacy"
            },
            "geometry": {
                "type": "Point",
                "coordinates": [
                    19.425759984336377,
                    51.77646218253013
                ]
            }
        },
        {
            "type": "Feature",
            "properties": {
                "ref:csioz": 1194663,
                "name": "Apteka Kwiaty Polskie",
                "addr:street": "Tadeusza Kościuszki",
                "addr:housenumber": "41",
                "addr:city": "Łódź",
                "addr:postcode": "90-418",
                "amenity": "pharmacy"
            },
            "geometry": {
                "type": "Point",
                "coordinates": [
                    19.453986921197313,
                    51.765623012926554
                ]
            }
        },
        {
            "type": "Feature",
            "properties": {
                "ref:csioz": 1197324,
                "addr:street": "Wólczańska",
                "addr:housenumber": "191/195",
                "addr:city": "Łódź",
                "addr:postcode": "90-531",
                "amenity": "pharmacy"
            },
            "geometry": {
                "type": "Point",
                "coordinates": [
                    19.45530951916926,
                    51.75164090706855
                ]
            }
        },
        {
            "type": "Feature",
            "properties": {
                "ref:csioz": 1197207,
                "addr:street": "gen. Karola Kniaziewicza",
                "addr:housenumber": "1/5",
                "addr:city": "Łódź",
                "addr:postcode": "91-347",
                "amenity": "pharmacy"
            },
            "geometry": {
                "type": "Point",
                "coordinates": [
                    19.439250148183927,
                    51.80003307995746
                ]
            }
        },
        {
            "type": "Feature",
            "properties": {
                "ref:csioz": 1197241,
                "name": "Apteka Szpitalna Samodzielny Publiczny Zakład Opieki Zdrowotnej",
                "addr:street": "Czechosłowacka",
                "addr:housenumber": "8/10",
                "addr:city": "Łódź",
                "addr:postcode": "92-216",
                "amenity": "pharmacy"
            },
            "geometry": {
                "type": "Point",
                "coordinates": [
                    19.49963972590409,
                    51.734971041723355
                ]
            }
        },
        {
            "type": "Feature",
            "properties": {
                "ref:csioz": 1197278,
                "name": "Szpital Zakonu Bonifratrów W Łodzi",
                "addr:street": "Kosynierów Gdyńskich",
                "addr:housenumber": "61",
                "addr:city": "Łódź",
                "addr:postcode": "93-357",
                "amenity": "pharmacy"
            },
            "geometry": {
                "type": "Point",
                "coordinates": [
                    19.470465766204164,
                    51.7177855422933
                ]
            }
        },
        {
            "type": "Feature",
            "properties": {
                "ref:csioz": 1197286,
                "name": "Wojewódzka Stacja Ratownictwa Medycznego W Łodzi",
                "addr:street": "Henryka Sienkiewicza",
                "addr:housenumber": "137/141",
                "addr:city": "Łódź",
                "addr:postcode": "90-302",
                "amenity": "pharmacy"
            },
            "geometry": {
                "type": "Point",
                "coordinates": [
                    19.463620135552812,
                    51.75478223109448
                ]
            }
        },
        {
            "type": "Feature",
            "properties": {
                "ref:csioz": 1197293,
                "name": "\"Instytut 'Centrum Zdrowia Matki Polki'\"",
                "addr:street": "Rzgowska",
                "addr:housenumber": "281/289",
                "addr:city": "Łódź",
                "addr:postcode": "93-338",
                "amenity": "pharmacy"
            },
            "geometry": {
                "type": "Point",
                "coordinates": [
                    19.482968685930384,
                    51.707474556304746
                ]
            }
        },
        {
            "type": "Feature",
            "properties": {
                "ref:csioz": 1197362,
                "addr:street": "Milionowa",
                "addr:housenumber": "14",
                "addr:city": "Łódź",
                "addr:postcode": "93-113",
                "amenity": "pharmacy"
            },
            "geometry": {
                "type": "Point",
                "coordinates": [
                    19.483826860994583,
                    51.75120429875999
                ]
            }
        },
        {
            "type": "Feature",
            "properties": {
                "ref:csioz": 1197381,
                "name": "Zakład Opieki Zdrowotnej Msw W Łodzi",
                "addr:street": "Północna",
                "addr:housenumber": "42",
                "addr:city": "Łódź",
                "addr:postcode": "91-425",
                "amenity": "pharmacy"
            },
            "geometry": {
                "type": "Point",
                "coordinates": [
                    19.47444835346621,
                    51.78086746892421
                ]
            }
        },
        {
            "type": "Feature",
            "properties": {
                "ref:csioz": 1212858,
                "name": "Katarzynka",
                "addr:street": "marsz. Józefa Piłsudskiego",
                "addr:housenumber": "71",
                "addr:city": "Łódź",
                "addr:postcode": "90-329",
                "amenity": "pharmacy"
            },
            "geometry": {
                "type": "Point",
                "coordinates": [
                    19.484297658560234,
                    51.76117260310243
                ]
            }
        },
        {
            "type": "Feature",
            "properties": {
                "ref:csioz": 1198407,
                "name": "Magodent - Endoterapia Szpital Łódź",
                "addr:street": "Mikołaja Kopernika",
                "addr:housenumber": "38",
                "addr:city": "Łódź",
                "addr:postcode": "90-552",
                "amenity": "pharmacy"
            },
            "geometry": {
                "type": "Point",
                "coordinates": [
                    19.444122254338907,
                    51.76048646697341
                ]
            }
        },
        {
            "type": "Feature",
            "properties": {
                "ref:csioz": 1198569,
                "name": "Zespół Nieszpitalnej Opieki Stacjonarnej",
                "addr:street": "Jana Kilińskiego",
                "addr:housenumber": "232",
                "addr:city": "Łódź",
                "addr:postcode": "93-133",
                "amenity": "pharmacy"
            },
            "geometry": {
                "type": "Point",
                "coordinates": [
                    19.477394205782115,
                    51.743384789901725
                ]
            }
        },
        {
            "type": "Feature",
            "properties": {
                "ref:csioz": 1198723,
                "addr:street": "Mikołaja Kopernika",
                "addr:housenumber": "38",
                "addr:city": "Łódź",
                "addr:postcode": "90-552",
                "amenity": "pharmacy"
            },
            "geometry": {
                "type": "Point",
                "coordinates": [
                    19.444122254338907,
                    51.76048646697341
                ]
            }
        },
        {
            "type": "Feature",
            "properties": {
                "ref:csioz": 1198852,
                "name": "Apteka Melissa",
                "addr:street": "Pomorska",
                "addr:housenumber": "77",
                "addr:city": "Łódź",
                "addr:postcode": "90-224",
                "amenity": "pharmacy"
            },
            "geometry": {
                "type": "Point",
                "coordinates": [
                    19.47247891298702,
                    51.77732178036364
                ]
            }
        },
        {
            "type": "Feature",
            "properties": {
                "ref:csioz": 1198901,
                "name": "Dr. Max",
                "addr:street": "Zachodnia",
                "addr:housenumber": "81/83",
                "addr:city": "Łódź",
                "addr:postcode": "90-402",
                "amenity": "pharmacy"
            },
            "geometry": {
                "type": "Point",
                "coordinates": [
                    19.45227200000015,
                    51.77473000001512
                ]
            }
        },
        {
            "type": "Feature",
            "properties": {
                "ref:csioz": 1199776,
                "name": "Apteka Dary Natury",
                "addr:street": "gen. Stefana Grota-Roweckiego",
                "addr:housenumber": "4",
                "addr:city": "Łódź",
                "addr:postcode": "93-217",
                "amenity": "pharmacy"
            },
            "geometry": {
                "type": "Point",
                "coordinates": [
                    19.496561127149906,
                    51.743859767154824
                ]
            }
        },
        {
            "type": "Feature",
            "properties": {
                "ref:csioz": 1200714,
                "name": "Apteka Melissa",
                "addr:street": "Rzgowska",
                "addr:housenumber": "76",
                "addr:city": "Łódź",
                "addr:postcode": "93-160",
                "amenity": "pharmacy"
            },
            "geometry": {
                "type": "Point",
                "coordinates": [
                    19.47437417589746,
                    51.73138337339073
                ]
            }
        },
        {
            "type": "Feature",
            "properties": {
                "ref:csioz": 1202412,
                "name": "Dr. Max",
                "addr:street": "Maratońska",
                "addr:housenumber": "109A",
                "addr:city": "Łódź",
                "addr:postcode": "94-007",
                "amenity": "pharmacy"
            },
            "geometry": {
                "type": "Point",
                "coordinates": [
                    19.384630248924175,
                    51.73722284853913
                ]
            }
        },
        {
            "type": "Feature",
            "properties": {
                "ref:csioz": 1203651,
                "name": "Farm-Med 4",
                "addr:street": "Zagłębie",
                "addr:housenumber": "4",
                "addr:city": "Łódź",
                "addr:postcode": "93-485",
                "amenity": "pharmacy"
            },
            "geometry": {
                "type": "Point",
                "coordinates": [
                    19.440693703453867,
                    51.72314606725654
                ]
            }
        },
        {
            "type": "Feature",
            "properties": {
                "ref:csioz": 1203898,
                "name": "Złota Apteka",
                "addr:street": "Piotrkowska",
                "addr:housenumber": "192",
                "addr:city": "Łódź",
                "addr:postcode": "90-368",
                "amenity": "pharmacy"
            },
            "geometry": {
                "type": "Point",
                "coordinates": [
                    19.459474006202733,
                    51.756477001686406
                ]
            }
        },
        {
            "type": "Feature",
            "properties": {
                "ref:csioz": 1204175,
                "name": "Apteka Szlachetna",
                "addr:street": "Stanisława Przybyszewskiego",
                "addr:housenumber": "57/59",
                "addr:city": "Łódź",
                "addr:postcode": "93-188",
                "amenity": "pharmacy"
            },
            "geometry": {
                "type": "Point",
                "coordinates": [
                    19.471859008842078,
                    51.74449977677165
                ]
            }
        },
        {
            "type": "Feature",
            "properties": {
                "ref:csioz": 1207634,
                "name": "Medeor Szpital Wielospecjalistyczny",
                "addr:street": "Ciesielska",
                "addr:housenumber": "8",
                "addr:city": "Łódź",
                "addr:postcode": "91-308",
                "amenity": "pharmacy"
            },
            "geometry": {
                "type": "Point",
                "coordinates": [
                    19.447030407575685,
                    51.78800938988644
                ]
            }
        },
        {
            "type": "Feature",
            "properties": {
                "ref:csioz": 1208409,
                "name": "Apteka Paracelsus",
                "addr:street": "Henryka Sienkiewicza",
                "addr:housenumber": "100",
                "addr:city": "Łódź",
                "addr:postcode": "90-357",
                "amenity": "pharmacy"
            },
            "geometry": {
                "type": "Point",
                "coordinates": [
                    19.464384968548945,
                    51.75452954736551
                ]
            }
        },
        {
            "type": "Feature",
            "properties": {
                "ref:csioz": 1210576,
                "name": "Apteka Dla Zdrowia",
                "addr:street": "ks. kard. Stefana  Wyszyńskiego",
                "addr:housenumber": "7A",
                "addr:city": "Łódź-Polesie",
                "addr:postcode": "94-042",
                "amenity": "pharmacy"
            },
            "geometry": {
                "type": "Point",
                "coordinates": [
                    19.41280770996054,
                    51.748032114583
                ]
            }
        },
        {
            "type": "Feature",
            "properties": {
                "ref:csioz": 1216324,
                "name": "Zielone Wzgórze",
                "addr:street": "Rzgowska",
                "addr:housenumber": "50A",
                "addr:city": "Łódź",
                "addr:postcode": "93-172",
                "amenity": "pharmacy"
            },
            "geometry": {
                "type": "Point",
                "coordinates": [
                    19.47012118417381,
                    51.73613142546931
                ]
            }
        },
        {
            "type": "Feature",
            "properties": {
                "ref:csioz": 1213310,
                "name": "Apteka Im. Mikołaja Kopernika",
                "addr:street": "Ignacego Paderewskiego",
                "addr:housenumber": "11B",
                "addr:city": "Łódź",
                "addr:postcode": "93-530",
                "amenity": "pharmacy"
            },
            "geometry": {
                "type": "Point",
                "coordinates": [
                    19.45644837545832,
                    51.72909842631353
                ]
            }
        },
        {
            "type": "Feature",
            "properties": {
                "ref:csioz": 1213332,
                "name": "A Jak Apteka",
                "addr:street": "Konspiracyjnego Wojska Polskiego",
                "addr:housenumber": "2",
                "addr:flats": "U1",
                "addr:city": "Łódź",
                "addr:postcode": "93-236",
                "amenity": "pharmacy"
            },
            "geometry": {
                "type": "Point",
                "coordinates": [
                    19.49726367900391,
                    51.73161646732992
                ]
            }
        },
        {
            "type": "Feature",
            "properties": {
                "ref:csioz": 1214051,
                "name": "Zioła Polskie",
                "addr:street": "Władysława Łokietka",
                "addr:housenumber": "6",
                "addr:city": "Łódź",
                "addr:postcode": "93-335",
                "amenity": "pharmacy"
            },
            "geometry": {
                "type": "Point",
                "coordinates": [
                    19.493890802028606,
                    51.7171891471593
                ]
            }
        },
        {
            "type": "Feature",
            "properties": {
                "ref:csioz": 1214177,
                "name": "\"'Apteka - Apteki Dar Zdrowia'\"",
                "addr:street": "Alojzego Felińskiego",
                "addr:housenumber": "7",
                "addr:city": "Łódź",
                "addr:postcode": "93-252",
                "amenity": "pharmacy"
            },
            "geometry": {
                "type": "Point",
                "coordinates": [
                    19.497855642349297,
                    51.73214243121143
                ]
            }
        },
        {
            "type": "Feature",
            "properties": {
                "ref:csioz": 1216475,
                "name": "Zielone Wzgórze",
                "addr:street": "Łagiewnicka",
                "addr:housenumber": "49/53",
                "addr:city": "Łódź",
                "addr:postcode": "91-839",
                "amenity": "pharmacy"
            },
            "geometry": {
                "type": "Point",
                "coordinates": [
                    19.455772000000156,
                    51.79156700001514
                ]
            }
        },
        {
            "type": "Feature",
            "properties": {
                "ref:csioz": 1216794,
                "name": "Rosa",
                "addr:street": "Tatrzańska",
                "addr:housenumber": "124B",
                "addr:city": "Łódź",
                "addr:postcode": "93-239",
                "amenity": "pharmacy"
            },
            "geometry": {
                "type": "Point",
                "coordinates": [
                    19.49580321811199,
                    51.73824813391538
                ]
            }
        },
        {
            "type": "Feature",
            "properties": {
                "ref:csioz": 1218453,
                "name": "Apteka Dla Ciebie",
                "addr:street": "Nastrojowa",
                "addr:housenumber": "57",
                "addr:city": "Łódź",
                "addr:postcode": "91-496",
                "amenity": "pharmacy"
            },
            "geometry": {
                "type": "Point",
                "coordinates": [
                    19.442106732416523,
                    51.819925821590815
                ]
            }
        },
        {
            "type": "Feature",
            "properties": {
                "ref:csioz": 1218572,
                "name": "Apteka Czerwona",
                "addr:street": "Marcina Kasprzaka",
                "addr:housenumber": "14",
                "addr:city": "Łódź",
                "addr:postcode": "91-078",
                "amenity": "pharmacy"
            },
            "geometry": {
                "type": "Point",
                "coordinates": [
                    19.427044264404344,
                    51.77453175045448
                ]
            }
        },
        {
            "type": "Feature",
            "properties": {
                "ref:csioz": 1221683,
                "name": "Apteka Zdrowit",
                "addr:street": "gen. Jarosława Dąbrowskiego",
                "addr:housenumber": "63",
                "addr:city": "Łódź",
                "addr:postcode": "93-271",
                "amenity": "pharmacy"
            },
            "geometry": {
                "type": "Point",
                "coordinates": [
                    19.488331969604417,
                    51.73741648978826
                ]
            }
        },
        {
            "type": "Feature",
            "properties": {
                "ref:csioz": 1222301,
                "name": "Doz Apteka Dbam O Zdrowie",
                "addr:street": "Rzgowska",
                "addr:housenumber": "281/289 BUD.A",
                "addr:city": "Łódź",
                "addr:postcode": "93-338",
                "amenity": "pharmacy"
            },
            "geometry": {
                "type": "Point",
                "coordinates": [
                    19.49204200000017,
                    51.71102800001501
                ]
            }
        },
        {
            "type": "Feature",
            "properties": {
                "ref:csioz": 1222642,
                "name": "Apteka Przy Medyceuszu",
                "addr:street": "Bolesława Limanowskiego",
                "addr:housenumber": "47",
                "addr:city": "Łódź",
                "addr:postcode": "91-309",
                "amenity": "pharmacy"
            },
            "geometry": {
                "type": "Point",
                "coordinates": [
                    19.44379444201436,
                    51.78796216345553
                ]
            }
        },
        {
            "type": "Feature",
            "properties": {
                "ref:csioz": 1223243,
                "name": "Apteka U Dominika",
                "addr:street": "Stefana Żeromskiego",
                "addr:housenumber": "113",
                "addr:city": "Łódź",
                "addr:postcode": "90-549",
                "amenity": "pharmacy"
            },
            "geometry": {
                "type": "Point",
                "coordinates": [
                    19.4476758300929,
                    51.75947462459591
                ]
            }
        },
        {
            "type": "Feature",
            "properties": {
                "ref:csioz": 1228949,
                "addr:street": "Franciszkańska",
                "addr:housenumber": "17/25",
                "addr:city": "Łódź",
                "addr:postcode": "91-433",
                "amenity": "pharmacy"
            },
            "geometry": {
                "type": "Point",
                "coordinates": [
                    19.461245132604837,
                    51.78220325501107
                ]
            }
        },
        {
            "type": "Feature",
            "properties": {
                "ref:csioz": 1229713,
                "addr:street": "Pomorska",
                "addr:housenumber": "251",
                "addr:city": "Łódź",
                "addr:postcode": "92-213",
                "amenity": "pharmacy"
            },
            "geometry": {
                "type": "Point",
                "coordinates": [
                    19.5070609136662,
                    51.77538949239127
                ]
            }
        },
        {
            "type": "Feature",
            "properties": {
                "ref:csioz": 1191465,
                "name": "Salve Zespół Opieki Zdrowotnej Spółka Z Ograniczoną Odpowiedzialnością",
                "addr:street": "Szparagowa",
                "addr:housenumber": "10",
                "addr:city": "Łódź",
                "addr:postcode": "91-211",
                "amenity": "pharmacy"
            },
            "geometry": {
                "type": "Point",
                "coordinates": [
                    19.37812323188102,
                    51.80440645916591
                ]
            }
        },
        {
            "type": "Feature",
            "properties": {
                "ref:csioz": 1229919,
                "addr:street": "3 Maja",
                "addr:housenumber": "46",
                "addr:city": "Łódź",
                "addr:postcode": "93-408",
                "amenity": "pharmacy"
            },
            "geometry": {
                "type": "Point",
                "coordinates": [
                    19.449916759272455,
                    51.716625396625226
                ]
            }
        },
        {
            "type": "Feature",
            "properties": {
                "ref:csioz": 1177741,
                "name": "Katarzynka",
                "addr:street": "Pabianicka",
                "addr:housenumber": "62",
                "addr:city": "Łódź",
                "addr:postcode": "93-513",
                "amenity": "pharmacy"
            },
            "geometry": {
                "type": "Point",
                "coordinates": [
                    19.455601568397096,
                    51.732068415131934
                ]
            }
        },
        {
            "type": "Feature",
            "properties": {
                "ref:csioz": 1018459,
                "name": "\"Apteka \"\"Una\"\" Sp.Z O.O.\"",
                "addr:street": "Przędzalniana",
                "addr:housenumber": "124",
                "addr:city": "Łódź",
                "addr:postcode": "93-286",
                "amenity": "pharmacy"
            },
            "geometry": {
                "type": "Point",
                "coordinates": [
                    19.488334764289682,
                    51.743758214849926
                ]
            }
        },
        {
            "type": "Feature",
            "properties": {
                "ref:csioz": 1198606,
                "name": "\"Apteka \"\"W Ulach\"\"\"",
                "addr:street": "Władysława Broniewskiego",
                "addr:housenumber": "2",
                "addr:flats": "paw. 17",
                "addr:city": "Łódź",
                "addr:postcode": "93-162",
                "amenity": "pharmacy"
            },
            "geometry": {
                "type": "Point",
                "coordinates": [
                    19.46563377752466,
                    51.71380510742703
                ]
            }
        },
        {
            "type": "Feature",
            "properties": {
                "ref:csioz": 1186790,
                "name": "Doz Apteka. Dbam O Zdrowie. Szymonowica",
                "addr:street": "Szymona Szymonowicza",
                "addr:housenumber": "22",
                "addr:city": "Łódź",
                "addr:postcode": "93-018",
                "amenity": "pharmacy"
            },
            "geometry": {
                "type": "Point",
                "coordinates": [
                    19.36488919794294,
                    51.77276698058108
                ]
            }
        },
        {
            "type": "Feature",
            "properties": {
                "ref:csioz": 1197308,
                "name": "Specjalistyczny Psychiatryczny Zespół Opieki Zdrowotnej W Łodzi Szpital Im. Dr J.Babińskiego",
                "addr:street": "Aleksandrowska",
                "addr:housenumber": "159",
                "addr:city": "Łódź",
                "addr:postcode": "91-229",
                "amenity": "pharmacy"
            },
            "geometry": {
                "type": "Point",
                "coordinates": [
                    19.35526632767285,
                    51.80609248760523
                ]
            }
        }
    ]
}