{
    "type": "FeatureCollection",
    "name": "JPT_KOD_JE_3208",
    "features": [
        {
            "type": "Feature",
            "properties": {
                "ref:csioz": 1125204,
                "name": "Na Słowińców",
                "addr:street": "Słowińców",
                "addr:housenumber": "8",
                "addr:flats": "1",
                "addr:city": "Kołobrzeg",
                "addr:postcode": "78-100",
                "amenity": "pharmacy"
            },
            "geometry": {
                "type": "Point",
                "coordinates": [
                    15.581898956840211,
                    54.1758351477945
                ]
            }
        },
        {
            "type": "Feature",
            "properties": {
                "ref:csioz": 1125938,
                "name": "Eliasz",
                "addr:street": "Osiedlowa",
                "addr:housenumber": "2",
                "addr:city": "Ustronie Morskie",
                "addr:postcode": "78-111",
                "amenity": "pharmacy"
            },
            "geometry": {
                "type": "Point",
                "coordinates": [
                    15.752011835238594,
                    54.21234588490867
                ]
            }
        },
        {
            "type": "Feature",
            "properties": {
                "ref:csioz": 1136498,
                "name": "\"Apteka \"\"Evita\"\"\"",
                "addr:street": "Szkolna",
                "addr:housenumber": "2a",
                "addr:city": "Grzybowo",
                "addr:postcode": "78-132",
                "amenity": "pharmacy"
            },
            "geometry": {
                "type": "Point",
                "coordinates": [
                    15.492127314057502,
                    54.158629640341516
                ]
            }
        },
        {
            "type": "Feature",
            "properties": {
                "ref:csioz": 1138619,
                "name": "Centrum",
                "addr:street": "Okopowa",
                "addr:housenumber": "10a",
                "addr:flats": "1",
                "addr:city": "Kołobrzeg",
                "addr:postcode": "78-100",
                "amenity": "pharmacy"
            },
            "geometry": {
                "type": "Point",
                "coordinates": [
                    15.5783677329113,
                    54.18102192157011
                ]
            }
        },
        {
            "type": "Feature",
            "properties": {
                "ref:csioz": 1138624,
                "name": "Apteka Na Młyńskiej",
                "addr:street": "Młyńska",
                "addr:housenumber": "12",
                "addr:city": "Kołobrzeg",
                "addr:postcode": "78-100",
                "amenity": "pharmacy"
            },
            "geometry": {
                "type": "Point",
                "coordinates": [
                    15.573533010673279,
                    54.17240274630478
                ]
            }
        },
        {
            "type": "Feature",
            "properties": {
                "ref:csioz": 1139795,
                "name": "Medi-Farm",
                "addr:housenumber": "59b",
                "addr:city": "Drzonowo",
                "addr:postcode": "78-133",
                "amenity": "pharmacy"
            },
            "geometry": {
                "type": "Point",
                "coordinates": [
                    15.432083812654543,
                    54.0939397243398
                ]
            }
        },
        {
            "type": "Feature",
            "properties": {
                "ref:csioz": 1147728,
                "addr:street": "Kolejowa",
                "addr:housenumber": "2",
                "addr:city": "Dygowo",
                "addr:postcode": "78-113",
                "amenity": "pharmacy"
            },
            "geometry": {
                "type": "Point",
                "coordinates": [
                    15.724629525755779,
                    54.13266747378563
                ]
            }
        },
        {
            "type": "Feature",
            "properties": {
                "ref:csioz": 1147881,
                "name": "Magnum I",
                "addr:street": "Rodziewiczówny",
                "addr:housenumber": "13a",
                "addr:city": "Kołobrzeg",
                "addr:postcode": "78-100",
                "amenity": "pharmacy"
            },
            "geometry": {
                "type": "Point",
                "coordinates": [
                    15.562991919800854,
                    54.1848567880362
                ]
            }
        },
        {
            "type": "Feature",
            "properties": {
                "ref:csioz": 1152659,
                "name": "Centrum",
                "addr:street": "Wyzwolenia",
                "addr:housenumber": "9",
                "addr:city": "Dźwirzyno",
                "addr:postcode": "78-131",
                "amenity": "pharmacy"
            },
            "geometry": {
                "type": "Point",
                "coordinates": [
                    15.4048868900919,
                    54.15977521427396
                ]
            }
        },
        {
            "type": "Feature",
            "properties": {
                "ref:csioz": 1164309,
                "name": "Centrum Rehabilitacji Rolników Kasy Roliczego Ubezpieczenia Społecznego Niwa",
                "addr:street": "NORWIDA",
                "addr:housenumber": "3",
                "addr:city": "KOŁOBRZEG",
                "addr:postcode": "78-100",
                "amenity": "pharmacy"
            },
            "geometry": {
                "type": "Point",
                "coordinates": [
                    15.575242947465002,
                    54.183318626671806
                ]
            }
        },
        {
            "type": "Feature",
            "properties": {
                "ref:csioz": 1165009,
                "name": "Verano",
                "addr:street": "Sikorskiego",
                "addr:housenumber": "8",
                "addr:city": "Kołobrzeg",
                "addr:postcode": "78-100",
                "amenity": "pharmacy"
            },
            "geometry": {
                "type": "Point",
                "coordinates": [
                    15.584967764925059,
                    54.18562507646792
                ]
            }
        },
        {
            "type": "Feature",
            "properties": {
                "ref:csioz": 1165832,
                "name": "Centrum Zdrowia - 24H",
                "addr:street": "Waryńskiego",
                "addr:housenumber": "2",
                "addr:city": "Kołobrzeg",
                "addr:postcode": "78-100",
                "amenity": "pharmacy"
            },
            "geometry": {
                "type": "Point",
                "coordinates": [
                    15.572671620422879,
                    54.18014116143188
                ]
            }
        },
        {
            "type": "Feature",
            "properties": {
                "ref:csioz": 1216531,
                "name": "Dr. Max",
                "addr:street": "Koszalińska",
                "addr:housenumber": "36",
                "addr:city": "Kołobrzeg",
                "addr:postcode": "78-100",
                "amenity": "pharmacy"
            },
            "geometry": {
                "type": "Point",
                "coordinates": [
                    15.595423324694188,
                    54.17646809335256
                ]
            }
        },
        {
            "type": "Feature",
            "properties": {
                "ref:csioz": 1223194,
                "name": "Całodniowa",
                "addr:street": "Mariacka",
                "addr:housenumber": "14",
                "addr:city": "Kołobrzeg",
                "addr:postcode": "78-100",
                "amenity": "pharmacy"
            },
            "geometry": {
                "type": "Point",
                "coordinates": [
                    15.573736999975289,
                    54.17599000001947
                ]
            }
        },
        {
            "type": "Feature",
            "properties": {
                "ref:csioz": 1125094,
                "name": "Apteka Rodzinna",
                "addr:street": "Kupiecka",
                "addr:housenumber": "3c",
                "addr:city": "Kołobrzeg",
                "addr:postcode": "78-100",
                "amenity": "pharmacy"
            },
            "geometry": {
                "type": "Point",
                "coordinates": [
                    15.584682192599887,
                    54.17770850192656
                ]
            }
        },
        {
            "type": "Feature",
            "properties": {
                "ref:csioz": 1125110,
                "name": "Staromiejska",
                "addr:street": "Ratuszowa",
                "addr:housenumber": "3",
                "addr:city": "Kołobrzeg",
                "addr:postcode": "78-100",
                "amenity": "pharmacy"
            },
            "geometry": {
                "type": "Point",
                "coordinates": [
                    15.576932708510975,
                    54.176812824306396
                ]
            }
        },
        {
            "type": "Feature",
            "properties": {
                "ref:csioz": 1126379,
                "name": "Zachodnia",
                "addr:street": "Wylotowa",
                "addr:housenumber": "12a",
                "addr:city": "Kołobrzeg",
                "addr:postcode": "78-100",
                "amenity": "pharmacy"
            },
            "geometry": {
                "type": "Point",
                "coordinates": [
                    15.54716274683095,
                    54.17583260802096
                ]
            }
        },
        {
            "type": "Feature",
            "properties": {
                "ref:csioz": 1138154,
                "name": "Pigułka",
                "addr:housenumber": "54a",
                "addr:city": "Wrzosowo",
                "addr:postcode": "78-114",
                "amenity": "pharmacy"
            },
            "geometry": {
                "type": "Point",
                "coordinates": [
                    15.831585999982517,
                    54.11607900001917
                ]
            }
        },
        {
            "type": "Feature",
            "properties": {
                "ref:csioz": 1138111,
                "name": "Apteka Na Kołobrzeskiej",
                "addr:street": "Kołobrzeska",
                "addr:housenumber": "12",
                "addr:city": "Siemyśl",
                "addr:postcode": "78-123",
                "amenity": "pharmacy"
            },
            "geometry": {
                "type": "Point",
                "coordinates": [
                    15.538731131952847,
                    54.03035919045062
                ]
            }
        },
        {
            "type": "Feature",
            "properties": {
                "ref:csioz": 1139818,
                "name": "Pod Eskulapem",
                "addr:street": "Zwycięzców",
                "addr:housenumber": "1",
                "addr:city": "Kołobrzeg",
                "addr:postcode": "78-100",
                "amenity": "pharmacy"
            },
            "geometry": {
                "type": "Point",
                "coordinates": [
                    15.569407120060792,
                    54.18012432872791
                ]
            }
        },
        {
            "type": "Feature",
            "properties": {
                "ref:csioz": 1147808,
                "name": "Dbam O Zdrowie",
                "addr:street": "Łopuskiego",
                "addr:housenumber": "31",
                "addr:city": "Kołobrzeg",
                "addr:postcode": "78-100",
                "amenity": "pharmacy"
            },
            "geometry": {
                "type": "Point",
                "coordinates": [
                    15.567646999975084,
                    54.17464100001948
                ]
            }
        },
        {
            "type": "Feature",
            "properties": {
                "ref:csioz": 1151338,
                "addr:street": "Łopuskiego",
                "addr:housenumber": "33",
                "addr:city": "Kołobrzeg",
                "addr:postcode": "78-100",
                "amenity": "pharmacy"
            },
            "geometry": {
                "type": "Point",
                "coordinates": [
                    15.56773999997508,
                    54.174664000019476
                ]
            }
        },
        {
            "type": "Feature",
            "properties": {
                "ref:csioz": 1151367,
                "addr:street": "Ks. Piotra Ściegiennego",
                "addr:housenumber": "1",
                "addr:city": "Kołobrzeg",
                "addr:postcode": "78-100",
                "amenity": "pharmacy"
            },
            "geometry": {
                "type": "Point",
                "coordinates": [
                    15.571995999975245,
                    54.18295600001949
                ]
            }
        },
        {
            "type": "Feature",
            "properties": {
                "ref:csioz": 1152684,
                "name": "Słoneczna",
                "addr:street": "IV Dywizji Wojska Polskiego",
                "addr:housenumber": "20",
                "addr:city": "Gościno",
                "addr:postcode": "78-120",
                "amenity": "pharmacy"
            },
            "geometry": {
                "type": "Point",
                "coordinates": [
                    15.651479480371306,
                    54.05232134482997
                ]
            }
        },
        {
            "type": "Feature",
            "properties": {
                "ref:csioz": 1152692,
                "name": "Lawendowa",
                "addr:street": "Koszalińska",
                "addr:housenumber": "16a",
                "addr:flats": "1",
                "addr:city": "Rymań",
                "addr:postcode": "78-125",
                "amenity": "pharmacy"
            },
            "geometry": {
                "type": "Point",
                "coordinates": [
                    15.528423307297622,
                    53.943867793728174
                ]
            }
        },
        {
            "type": "Feature",
            "properties": {
                "ref:csioz": 1166611,
                "name": "Apteka Dbam O Zdrowie",
                "addr:street": "Dworcowa",
                "addr:housenumber": "1",
                "addr:city": "Kołobrzeg",
                "addr:postcode": "78-100",
                "amenity": "pharmacy"
            },
            "geometry": {
                "type": "Point",
                "coordinates": [
                    15.570034364582972,
                    54.18089101436644
                ]
            }
        },
        {
            "type": "Feature",
            "properties": {
                "ref:csioz": 1172062,
                "name": "Prima",
                "addr:street": "Ratuszowy",
                "addr:housenumber": "5a",
                "addr:flats": "2",
                "addr:city": "Kołobrzeg",
                "addr:postcode": "78-100",
                "amenity": "pharmacy"
            },
            "geometry": {
                "type": "Point",
                "coordinates": [
                    15.576977843377142,
                    54.17561655621652
                ]
            }
        },
        {
            "type": "Feature",
            "properties": {
                "ref:csioz": 1185499,
                "name": "Apteka Cosmedica",
                "addr:street": "Armii Krajowej",
                "addr:housenumber": "10",
                "addr:city": "Kołobrzeg",
                "addr:postcode": "78-100",
                "amenity": "pharmacy"
            },
            "geometry": {
                "type": "Point",
                "coordinates": [
                    15.574098496042648,
                    54.176734359988906
                ]
            }
        },
        {
            "type": "Feature",
            "properties": {
                "ref:csioz": 1188195,
                "name": "Apteka Aptecom",
                "addr:street": "Starynowska",
                "addr:housenumber": "36",
                "addr:city": "Kołobrzeg",
                "addr:postcode": "78-100",
                "amenity": "pharmacy"
            },
            "geometry": {
                "type": "Point",
                "coordinates": [
                    15.543248437092068,
                    54.15592907578764
                ]
            }
        },
        {
            "type": "Feature",
            "properties": {
                "ref:csioz": 1188331,
                "name": "Apteka Dbam O Zdrowie",
                "addr:street": "Wschodnia",
                "addr:housenumber": "3",
                "addr:city": "Kołobrzeg",
                "addr:postcode": "78-100",
                "amenity": "pharmacy"
            },
            "geometry": {
                "type": "Point",
                "coordinates": [
                    15.6006841684776,
                    54.17719552185273
                ]
            }
        },
        {
            "type": "Feature",
            "properties": {
                "ref:csioz": 1194601,
                "name": "Gemini",
                "addr:street": "Armii Krajowej",
                "addr:housenumber": "20a",
                "addr:city": "Kołobrzeg",
                "addr:postcode": "78-100",
                "amenity": "pharmacy"
            },
            "geometry": {
                "type": "Point",
                "coordinates": [
                    15.572993045108669,
                    54.1773919824481
                ]
            }
        },
        {
            "type": "Feature",
            "properties": {
                "ref:csioz": 1206740,
                "name": "Apteka Morska",
                "addr:street": "Portowa",
                "addr:housenumber": "28",
                "addr:flats": "5",
                "addr:city": "Kołobrzeg",
                "addr:postcode": "78-100",
                "amenity": "pharmacy"
            },
            "geometry": {
                "type": "Point",
                "coordinates": [
                    15.543013702594159,
                    54.160263799495276
                ]
            }
        },
        {
            "type": "Feature",
            "properties": {
                "ref:csioz": 1206765,
                "name": "\"Apteka Cef@Rm 36,6\"",
                "addr:street": "Słowińców",
                "addr:housenumber": "9",
                "addr:flats": "37",
                "addr:city": "Kołobrzeg",
                "addr:postcode": "78-100",
                "amenity": "pharmacy"
            },
            "geometry": {
                "type": "Point",
                "coordinates": [
                    15.581248722591662,
                    54.17585526266902
                ]
            }
        },
        {
            "type": "Feature",
            "properties": {
                "ref:csioz": 1221223,
                "name": "Dr. Max",
                "addr:street": "Młyńska",
                "addr:housenumber": "9",
                "addr:city": "Kołobrzeg",
                "addr:postcode": "78-100",
                "amenity": "pharmacy"
            },
            "geometry": {
                "type": "Point",
                "coordinates": [
                    15.573712448285033,
                    54.17171834253452
                ]
            }
        },
        {
            "type": "Feature",
            "properties": {
                "ref:csioz": 1226607,
                "addr:street": "Radomska",
                "addr:housenumber": "10a",
                "addr:city": "Kołobrzeg",
                "addr:postcode": "78-100",
                "amenity": "pharmacy"
            },
            "geometry": {
                "type": "Point",
                "coordinates": [
                    15.56952180149746,
                    54.173275122992045
                ]
            }
        },
        {
            "type": "Feature",
            "properties": {
                "ref:csioz": 1152707,
                "name": "\"Apteka \"\"Pod Lwem\"\" Mgr Farm. Jacek Załoga\"",
                "addr:street": "Orłowskiego",
                "addr:housenumber": "48",
                "addr:city": "Kołobrzeg",
                "addr:postcode": "78-100",
                "amenity": "pharmacy"
            },
            "geometry": {
                "type": "Point",
                "coordinates": [
                    15.545299867752826,
                    54.15669334040356
                ]
            }
        }
    ]
}