{
    "type": "FeatureCollection",
    "name": "JPT_KOD_JE_2215",
    "features": [
        {
            "type": "Feature",
            "properties": {
                "ref:csioz": 1027864,
                "name": "Myśliwska",
                "addr:street": "Długa",
                "addr:housenumber": "71",
                "addr:city": "Linia",
                "addr:postcode": "84-223",
                "amenity": "pharmacy"
            },
            "geometry": {
                "type": "Point",
                "coordinates": [
                    17.926192435821218,
                    54.45186345495635
                ]
            }
        },
        {
            "type": "Feature",
            "properties": {
                "ref:csioz": 1029833,
                "name": "Remedium",
                "addr:street": "Pierwszych Osadników",
                "addr:housenumber": "37A",
                "addr:city": "Choczewo",
                "addr:postcode": "84-200",
                "amenity": "pharmacy"
            },
            "geometry": {
                "type": "Point",
                "coordinates": [
                    17.889764206320624,
                    54.738875702636356
                ]
            }
        },
        {
            "type": "Feature",
            "properties": {
                "ref:csioz": 1030909,
                "name": "Panaceum",
                "addr:street": "Nowa",
                "addr:housenumber": "4",
                "addr:city": "Gniewino",
                "addr:postcode": "84-250",
                "amenity": "pharmacy"
            },
            "geometry": {
                "type": "Point",
                "coordinates": [
                    18.02185812247555,
                    54.71612655906975
                ]
            }
        },
        {
            "type": "Feature",
            "properties": {
                "ref:csioz": 1031535,
                "name": "Starowiejska",
                "addr:street": "Ofiar Stutthofu",
                "addr:housenumber": "8",
                "addr:city": "Luzino",
                "addr:postcode": "84-242",
                "amenity": "pharmacy"
            },
            "geometry": {
                "type": "Point",
                "coordinates": [
                    18.103700689397495,
                    54.5665503324057
                ]
            }
        },
        {
            "type": "Feature",
            "properties": {
                "ref:csioz": 1032898,
                "name": "Wracam Do Zdrowia",
                "addr:street": "Młyńska",
                "addr:housenumber": "5A",
                "addr:city": "Luzino",
                "addr:postcode": "84-242",
                "amenity": "pharmacy"
            },
            "geometry": {
                "type": "Point",
                "coordinates": [
                    18.105712507532466,
                    54.565972813800315
                ]
            }
        },
        {
            "type": "Feature",
            "properties": {
                "ref:csioz": 1033599,
                "name": "Apteka Lipowa",
                "addr:street": "ks. Józefa Rotty",
                "addr:housenumber": "9",
                "addr:city": "Strzepcz",
                "addr:postcode": "84-223",
                "amenity": "pharmacy"
            },
            "geometry": {
                "type": "Point",
                "coordinates": [
                    18.024677242665163,
                    54.45537961077415
                ]
            }
        },
        {
            "type": "Feature",
            "properties": {
                "ref:csioz": 1120830,
                "name": "Apteka Starowiejska",
                "addr:street": "Wejherowska",
                "addr:housenumber": "33",
                "addr:city": "Strzebielino",
                "addr:postcode": "84-220",
                "amenity": "pharmacy"
            },
            "geometry": {
                "type": "Point",
                "coordinates": [
                    18.042901040315478,
                    54.56845148683014
                ]
            }
        },
        {
            "type": "Feature",
            "properties": {
                "ref:csioz": 1027768,
                "name": "Vita",
                "addr:street": "Długa",
                "addr:housenumber": "15B",
                "addr:city": "Łęczyce",
                "addr:postcode": "84-218",
                "amenity": "pharmacy"
            },
            "geometry": {
                "type": "Point",
                "coordinates": [
                    17.863901389558293,
                    54.58426046597952
                ]
            }
        },
        {
            "type": "Feature",
            "properties": {
                "ref:csioz": 1028618,
                "name": "Apteka Św.Wawrzyńca",
                "addr:street": "Kościelna",
                "addr:housenumber": "4",
                "addr:city": "Luzino",
                "addr:postcode": "84-242",
                "amenity": "pharmacy"
            },
            "geometry": {
                "type": "Point",
                "coordinates": [
                    18.105734092169335,
                    54.56082239033759
                ]
            }
        },
        {
            "type": "Feature",
            "properties": {
                "ref:csioz": 1185929,
                "name": "Przystanek Apteka",
                "addr:street": "Młyńska",
                "addr:housenumber": "1",
                "addr:city": "Luzino",
                "addr:postcode": "84-242",
                "amenity": "pharmacy"
            },
            "geometry": {
                "type": "Point",
                "coordinates": [
                    18.10430016324607,
                    54.566096921202565
                ]
            }
        },
        {
            "type": "Feature",
            "properties": {
                "ref:csioz": 1198231,
                "name": "Nowa Apteka",
                "addr:street": "Długa",
                "addr:housenumber": "42 B",
                "addr:city": "Łęczyce",
                "addr:postcode": "84-218",
                "amenity": "pharmacy"
            },
            "geometry": {
                "type": "Point",
                "coordinates": [
                    17.86228323203456,
                    54.59017281607289
                ]
            }
        },
        {
            "type": "Feature",
            "properties": {
                "ref:csioz": 1228304,
                "name": "Apteka Farma Leków",
                "addr:street": "Perłowa",
                "addr:housenumber": "2",
                "addr:city": "Kębłowo",
                "addr:postcode": "84-242",
                "amenity": "pharmacy"
            },
            "geometry": {
                "type": "Point",
                "coordinates": [
                    18.097875606740867,
                    54.59420355197299
                ]
            }
        },
        {
            "type": "Feature",
            "properties": {
                "ref:csioz": 1230796,
                "name": "Twoja Apteka",
                "addr:street": "Pomorska",
                "addr:housenumber": "19",
                "addr:city": "Gniewino",
                "addr:postcode": "84-250",
                "amenity": "pharmacy"
            },
            "geometry": {
                "type": "Point",
                "coordinates": [
                    18.013983522640345,
                    54.717181489233575
                ]
            }
        },
        {
            "type": "Feature",
            "properties": {
                "ref:csioz": 1026331,
                "name": "Łąkowa",
                "addr:street": "Łąkowa",
                "addr:housenumber": "1",
                "addr:city": "Reda",
                "addr:postcode": "84-240",
                "amenity": "pharmacy"
            },
            "geometry": {
                "type": "Point",
                "coordinates": [
                    18.35042112570541,
                    54.603468484677855
                ]
            }
        },
        {
            "type": "Feature",
            "properties": {
                "ref:csioz": 1026377,
                "addr:street": "Starowiejska",
                "addr:housenumber": "4A",
                "addr:city": "Rumia",
                "addr:postcode": "84-230",
                "amenity": "pharmacy"
            },
            "geometry": {
                "type": "Point",
                "coordinates": [
                    18.39162282889754,
                    54.56913601262337
                ]
            }
        },
        {
            "type": "Feature",
            "properties": {
                "ref:csioz": 1026793,
                "name": "Vita",
                "addr:street": "Okrzei",
                "addr:housenumber": "37A",
                "addr:city": "Rumia",
                "addr:postcode": "84-230",
                "amenity": "pharmacy"
            },
            "geometry": {
                "type": "Point",
                "coordinates": [
                    18.390748094555978,
                    54.58593845514828
                ]
            }
        },
        {
            "type": "Feature",
            "properties": {
                "ref:csioz": 1027713,
                "name": "Flos",
                "addr:street": "Derdowskiego",
                "addr:housenumber": "23A",
                "addr:city": "Rumia",
                "addr:postcode": "84-230",
                "amenity": "pharmacy"
            },
            "geometry": {
                "type": "Point",
                "coordinates": [
                    18.400218151780244,
                    54.573610479783596
                ]
            }
        },
        {
            "type": "Feature",
            "properties": {
                "ref:csioz": 1027807,
                "name": "W Pastorówce",
                "addr:street": "Jana III Sobieskiego",
                "addr:housenumber": "237",
                "addr:city": "Wejherowo",
                "addr:postcode": "84-200",
                "amenity": "pharmacy"
            },
            "geometry": {
                "type": "Point",
                "coordinates": [
                    18.23332305419885,
                    54.60246628196527
                ]
            }
        },
        {
            "type": "Feature",
            "properties": {
                "ref:csioz": 1028036,
                "name": "Geranium",
                "addr:street": "Wejherowska",
                "addr:housenumber": "35",
                "addr:city": "Szemud",
                "addr:postcode": "84-217",
                "amenity": "pharmacy"
            },
            "geometry": {
                "type": "Point",
                "coordinates": [
                    18.22353625482192,
                    54.48677952779179
                ]
            }
        },
        {
            "type": "Feature",
            "properties": {
                "ref:csioz": 1028770,
                "name": "Apteka Dbam O Zdrowie",
                "addr:street": "Starowiejska",
                "addr:housenumber": "9",
                "addr:city": "Rumia",
                "addr:postcode": "84-230",
                "amenity": "pharmacy"
            },
            "geometry": {
                "type": "Point",
                "coordinates": [
                    18.390311524310135,
                    54.568792298188974
                ]
            }
        },
        {
            "type": "Feature",
            "properties": {
                "ref:csioz": 1030476,
                "name": "Doz Apteka Dbam O Zdrowie",
                "addr:street": "Derdowskiego",
                "addr:housenumber": "18 / 1",
                "addr:city": "Rumia",
                "addr:postcode": "84-230",
                "amenity": "pharmacy"
            },
            "geometry": {
                "type": "Point",
                "coordinates": [
                    18.39933299999971,
                    54.572020000019734
                ]
            }
        },
        {
            "type": "Feature",
            "properties": {
                "ref:csioz": 1032158,
                "name": "Wracam Do Zdrowia",
                "addr:street": "Gdańska",
                "addr:housenumber": "7",
                "addr:city": "Reda",
                "addr:postcode": "84-240",
                "amenity": "pharmacy"
            },
            "geometry": {
                "type": "Point",
                "coordinates": [
                    18.349885402713582,
                    54.603084707009636
                ]
            }
        },
        {
            "type": "Feature",
            "properties": {
                "ref:csioz": 1033659,
                "name": "Rodzinna",
                "addr:street": "Wejherowska",
                "addr:housenumber": "16",
                "addr:city": "Koleczkowo",
                "addr:postcode": "84-207",
                "amenity": "pharmacy"
            },
            "geometry": {
                "type": "Point",
                "coordinates": [
                    18.341566223580973,
                    54.48816354005538
                ]
            }
        },
        {
            "type": "Feature",
            "properties": {
                "ref:csioz": 1032726,
                "name": "W Kielnie",
                "addr:street": "Szkolna",
                "addr:housenumber": "1",
                "addr:city": "Kielno",
                "addr:postcode": "84-208",
                "amenity": "pharmacy"
            },
            "geometry": {
                "type": "Point",
                "coordinates": [
                    18.334851700366578,
                    54.453901511670814
                ]
            }
        },
        {
            "type": "Feature",
            "properties": {
                "ref:csioz": 1033027,
                "name": "Apteka Starowiejska",
                "addr:street": "Dąbrowskiego",
                "addr:housenumber": "50",
                "addr:flats": "2",
                "addr:city": "Rumia",
                "addr:postcode": "84-230",
                "amenity": "pharmacy"
            },
            "geometry": {
                "type": "Point",
                "coordinates": [
                    18.40763292022675,
                    54.56435750214876
                ]
            }
        },
        {
            "type": "Feature",
            "properties": {
                "ref:csioz": 1033271,
                "name": "Apteka Starowiejska",
                "addr:street": "Zamostna",
                "addr:housenumber": "3C",
                "addr:city": "Bolszewo",
                "addr:postcode": "84-239",
                "amenity": "pharmacy"
            },
            "geometry": {
                "type": "Point",
                "coordinates": [
                    18.177114741864795,
                    54.61322490929403
                ]
            }
        },
        {
            "type": "Feature",
            "properties": {
                "ref:csioz": 1033353,
                "name": "Doz Apteka. Dbam O Zdrowie. Arnika",
                "addr:street": "Zamostna",
                "addr:housenumber": "3A",
                "addr:city": "Bolszewo",
                "addr:postcode": "84-239",
                "amenity": "pharmacy"
            },
            "geometry": {
                "type": "Point",
                "coordinates": [
                    18.17738670797064,
                    54.61351132951065
                ]
            }
        },
        {
            "type": "Feature",
            "properties": {
                "ref:csioz": 1033536,
                "name": "Apteka W Szemudzie",
                "addr:street": "Szkolna",
                "addr:housenumber": "2",
                "addr:city": "Szemud",
                "addr:postcode": "84-217",
                "amenity": "pharmacy"
            },
            "geometry": {
                "type": "Point",
                "coordinates": [
                    18.22072496381216,
                    54.48725029651352
                ]
            }
        },
        {
            "type": "Feature",
            "properties": {
                "ref:csioz": 1033987,
                "name": "Na Zdrowie",
                "addr:street": "Leśna",
                "addr:housenumber": "6",
                "addr:city": "Kielno",
                "addr:postcode": "84-208",
                "amenity": "pharmacy"
            },
            "geometry": {
                "type": "Point",
                "coordinates": [
                    18.33147216792263,
                    54.45297331533378
                ]
            }
        },
        {
            "type": "Feature",
            "properties": {
                "ref:csioz": 1113723,
                "name": "Dział Farmacji Szpitalnej W Med-Oral Niepublicznym Zakładzie Opieki Zdrowotnej W Rumi",
                "addr:street": "Żołnierzy I Dywizji Wojska Polskiego",
                "addr:housenumber": "29A",
                "addr:city": "Rumia",
                "addr:postcode": "84-230",
                "amenity": "pharmacy"
            },
            "geometry": {
                "type": "Point",
                "coordinates": [
                    18.39903676123719,
                    54.58410313572854
                ]
            }
        },
        {
            "type": "Feature",
            "properties": {
                "ref:csioz": 1117206,
                "name": "Nowa Apteka",
                "addr:street": "Józefa Wybickiego",
                "addr:housenumber": "40",
                "addr:city": "Bojano",
                "addr:postcode": "84-207",
                "amenity": "pharmacy"
            },
            "geometry": {
                "type": "Point",
                "coordinates": [
                    18.376993221173805,
                    54.47523858122153
                ]
            }
        },
        {
            "type": "Feature",
            "properties": {
                "ref:csioz": 1122245,
                "name": "Lipowa",
                "addr:street": "Jana Pawła II",
                "addr:housenumber": "6 A",
                "addr:city": "Reda",
                "addr:postcode": "84-240",
                "amenity": "pharmacy"
            },
            "geometry": {
                "type": "Point",
                "coordinates": [
                    18.35212499999969,
                    54.60242700001977
                ]
            }
        },
        {
            "type": "Feature",
            "properties": {
                "ref:csioz": 1174074,
                "name": "Apteka Premium",
                "addr:street": "Wejherowska",
                "addr:housenumber": "26",
                "addr:city": "Szemud",
                "addr:postcode": "84-217",
                "amenity": "pharmacy"
            },
            "geometry": {
                "type": "Point",
                "coordinates": [
                    18.21847282653326,
                    54.48653194508102
                ]
            }
        },
        {
            "type": "Feature",
            "properties": {
                "ref:csioz": 1188027,
                "name": "Apteka Starowiejska",
                "addr:street": "Franciszka Fenikowskiego",
                "addr:housenumber": "14/2",
                "addr:city": "Reda",
                "addr:postcode": "84-240",
                "amenity": "pharmacy"
            },
            "geometry": {
                "type": "Point",
                "coordinates": [
                    18.35512699999968,
                    54.595917000019774
                ]
            }
        },
        {
            "type": "Feature",
            "properties": {
                "ref:csioz": 1203879,
                "name": "Apteka Bojano",
                "addr:street": "Józefa Wybickiego",
                "addr:housenumber": "18",
                "addr:city": "Bojano",
                "addr:postcode": "84-207",
                "amenity": "pharmacy"
            },
            "geometry": {
                "type": "Point",
                "coordinates": [
                    18.384303618869726,
                    54.471621678345365
                ]
            }
        },
        {
            "type": "Feature",
            "properties": {
                "ref:csioz": 1027552,
                "name": "Apteka Dbam O Zdrowie",
                "addr:street": "Jakuba Wejhera",
                "addr:housenumber": "3",
                "addr:city": "Wejherowo",
                "addr:postcode": "84-200",
                "amenity": "pharmacy"
            },
            "geometry": {
                "type": "Point",
                "coordinates": [
                    18.240383058016903,
                    54.60148464001207
                ]
            }
        },
        {
            "type": "Feature",
            "properties": {
                "ref:csioz": 1028652,
                "name": "Mgr Farm. Marzena Tylicka Apteka Nr 1",
                "addr:street": "Henryka Dąbrowskiego",
                "addr:housenumber": "12A",
                "addr:city": "Rumia",
                "addr:postcode": "84-230",
                "amenity": "pharmacy"
            },
            "geometry": {
                "type": "Point",
                "coordinates": [
                    18.39326957395353,
                    54.56901323738435
                ]
            }
        },
        {
            "type": "Feature",
            "properties": {
                "ref:csioz": 1029068,
                "name": "Apteka Gemini",
                "addr:street": "Dworcowa",
                "addr:housenumber": "3",
                "addr:flats": "lok. 1",
                "addr:city": "Wejherowo",
                "addr:postcode": "84-200",
                "amenity": "pharmacy"
            },
            "geometry": {
                "type": "Point",
                "coordinates": [
                    18.22801741972042,
                    54.60372086226373
                ]
            }
        },
        {
            "type": "Feature",
            "properties": {
                "ref:csioz": 1029442,
                "name": "Alfa",
                "addr:street": "Pomorska",
                "addr:housenumber": "11A",
                "addr:city": "Rumia",
                "addr:postcode": "84-230",
                "amenity": "pharmacy"
            },
            "geometry": {
                "type": "Point",
                "coordinates": [
                    18.416925999999712,
                    54.565680000019725
                ]
            }
        },
        {
            "type": "Feature",
            "properties": {
                "ref:csioz": 1030132,
                "name": "Dr. Max",
                "addr:street": "Staromłyńska",
                "addr:housenumber": "2A",
                "addr:city": "Wejherowo",
                "addr:postcode": "84-200",
                "amenity": "pharmacy"
            },
            "geometry": {
                "type": "Point",
                "coordinates": [
                    18.247363131753094,
                    54.60935705452207
                ]
            }
        },
        {
            "type": "Feature",
            "properties": {
                "ref:csioz": 1030587,
                "name": "Apteka Rodzinna",
                "addr:street": "Obwodowa",
                "addr:housenumber": "35E",
                "addr:flats": "\"A/14,15\"",
                "addr:city": "Reda",
                "addr:postcode": "84-240",
                "amenity": "pharmacy"
            },
            "geometry": {
                "type": "Point",
                "coordinates": [
                    18.35767336364579,
                    54.59408379832272
                ]
            }
        },
        {
            "type": "Feature",
            "properties": {
                "ref:csioz": 1030753,
                "name": "Centrum",
                "addr:street": "I Brygady Pancernej Wojska Polskiego",
                "addr:housenumber": "28",
                "addr:city": "Wejherowo",
                "addr:postcode": "84-200",
                "amenity": "pharmacy"
            },
            "geometry": {
                "type": "Point",
                "coordinates": [
                    18.252231862936732,
                    54.60419794047064
                ]
            }
        },
        {
            "type": "Feature",
            "properties": {
                "ref:csioz": 1030790,
                "name": "Apteka Dbam O Zdrowie",
                "addr:street": "Sobieskiego",
                "addr:housenumber": "10A",
                "addr:city": "Rumia",
                "addr:postcode": "84-230",
                "amenity": "pharmacy"
            },
            "geometry": {
                "type": "Point",
                "coordinates": [
                    18.390137177698605,
                    54.56478877841923
                ]
            }
        },
        {
            "type": "Feature",
            "properties": {
                "ref:csioz": 1031161,
                "name": "Bursztynowa",
                "addr:street": "Pucka",
                "addr:housenumber": "20",
                "addr:city": "Wejherowo",
                "addr:postcode": "84-200",
                "amenity": "pharmacy"
            },
            "geometry": {
                "type": "Point",
                "coordinates": [
                    18.242150032265677,
                    54.60393190604902
                ]
            }
        },
        {
            "type": "Feature",
            "properties": {
                "ref:csioz": 1031173,
                "name": "Gdańska",
                "addr:street": "Kociewska",
                "addr:housenumber": "10",
                "addr:city": "Wejherowo",
                "addr:postcode": "84-200",
                "amenity": "pharmacy"
            },
            "geometry": {
                "type": "Point",
                "coordinates": [
                    18.2533275731404,
                    54.60511774141439
                ]
            }
        },
        {
            "type": "Feature",
            "properties": {
                "ref:csioz": 1031360,
                "name": "Polska",
                "addr:street": "Derdowskiego",
                "addr:housenumber": "21",
                "addr:city": "Rumia",
                "addr:postcode": "84-230",
                "amenity": "pharmacy"
            },
            "geometry": {
                "type": "Point",
                "coordinates": [
                    18.399876277219867,
                    54.573239607779485
                ]
            }
        },
        {
            "type": "Feature",
            "properties": {
                "ref:csioz": 1031581,
                "name": "Gemini",
                "addr:street": "Kaszubska",
                "addr:housenumber": "4CDE",
                "addr:city": "Wejherowo",
                "addr:postcode": "84-200",
                "amenity": "pharmacy"
            },
            "geometry": {
                "type": "Point",
                "coordinates": [
                    18.253693999999626,
                    54.60468400001978
                ]
            }
        },
        {
            "type": "Feature",
            "properties": {
                "ref:csioz": 1031632,
                "name": "Nova",
                "addr:street": "dr. Alojzego Jagalskiego",
                "addr:housenumber": "10",
                "addr:city": "Wejherowo",
                "addr:postcode": "84-200",
                "amenity": "pharmacy"
            },
            "geometry": {
                "type": "Point",
                "coordinates": [
                    18.244385999999626,
                    54.613991000019816
                ]
            }
        },
        {
            "type": "Feature",
            "properties": {
                "ref:csioz": 1031641,
                "name": "Starowiejska",
                "addr:street": "Grunwaldzka",
                "addr:housenumber": "108",
                "addr:city": "Rumia",
                "addr:postcode": "84-230",
                "amenity": "pharmacy"
            },
            "geometry": {
                "type": "Point",
                "coordinates": [
                    18.371825982242036,
                    54.58624634597124
                ]
            }
        },
        {
            "type": "Feature",
            "properties": {
                "ref:csioz": 1032442,
                "name": "Lawendowa",
                "addr:street": "Sobieskiego",
                "addr:housenumber": "14A",
                "addr:city": "Rumia",
                "addr:postcode": "84-230",
                "amenity": "pharmacy"
            },
            "geometry": {
                "type": "Point",
                "coordinates": [
                    18.391504882114262,
                    54.563903429649294
                ]
            }
        },
        {
            "type": "Feature",
            "properties": {
                "ref:csioz": 1032528,
                "name": "Apteka Zdrowia",
                "addr:street": "Gdańska",
                "addr:housenumber": "24",
                "addr:city": "Rumia",
                "addr:postcode": "84-230",
                "amenity": "pharmacy"
            },
            "geometry": {
                "type": "Point",
                "coordinates": [
                    18.413228551600415,
                    54.56661646565833
                ]
            }
        },
        {
            "type": "Feature",
            "properties": {
                "ref:csioz": 1032531,
                "name": "Family-Pharma",
                "addr:street": "Stoczniowców",
                "addr:housenumber": "7B",
                "addr:city": "Rumia",
                "addr:postcode": "84-230",
                "amenity": "pharmacy"
            },
            "geometry": {
                "type": "Point",
                "coordinates": [
                    18.413053999999715,
                    54.56065800001971
                ]
            }
        },
        {
            "type": "Feature",
            "properties": {
                "ref:csioz": 1172591,
                "name": "Apteka Starowiejska",
                "addr:street": "Gdańska",
                "addr:housenumber": "25",
                "addr:city": "Rumia",
                "addr:postcode": "84-230",
                "amenity": "pharmacy"
            },
            "geometry": {
                "type": "Point",
                "coordinates": [
                    18.41044229617307,
                    54.564860461721636
                ]
            }
        },
        {
            "type": "Feature",
            "properties": {
                "ref:csioz": 1184070,
                "name": "Ekozdrowie",
                "addr:street": "Dębogórska",
                "addr:housenumber": "132",
                "addr:city": "Rumia",
                "addr:postcode": "84-230",
                "amenity": "pharmacy"
            },
            "geometry": {
                "type": "Point",
                "coordinates": [
                    18.418260116747696,
                    54.572966325672255
                ]
            }
        },
        {
            "type": "Feature",
            "properties": {
                "ref:csioz": 1187975,
                "name": "Apteka Słoneczna",
                "addr:street": "Słoneczna",
                "addr:housenumber": "5",
                "addr:city": "Wejherowo",
                "addr:postcode": "84-200",
                "amenity": "pharmacy"
            },
            "geometry": {
                "type": "Point",
                "coordinates": [
                    18.235966032414417,
                    54.60739607796051
                ]
            }
        },
        {
            "type": "Feature",
            "properties": {
                "ref:csioz": 1212294,
                "name": "Apteka Starowiejska",
                "addr:street": "Pomorska",
                "addr:housenumber": "4",
                "addr:city": "Rumia",
                "addr:postcode": "84-230",
                "amenity": "pharmacy"
            },
            "geometry": {
                "type": "Point",
                "coordinates": [
                    18.421684426626488,
                    54.56524723852238
                ]
            }
        },
        {
            "type": "Feature",
            "properties": {
                "ref:csioz": 1190351,
                "name": "Prima",
                "addr:street": "Marszałka Józefa Piłsudskiego",
                "addr:housenumber": "48 A",
                "addr:city": "Rumia",
                "addr:postcode": "84-230",
                "amenity": "pharmacy"
            },
            "geometry": {
                "type": "Point",
                "coordinates": [
                    18.400148454339046,
                    54.5689414820376
                ]
            }
        },
        {
            "type": "Feature",
            "properties": {
                "ref:csioz": 1206453,
                "name": "Apteka Starowiejska",
                "addr:street": "Starowiejska",
                "addr:housenumber": "13",
                "addr:city": "Rumia",
                "addr:postcode": "84-230",
                "amenity": "pharmacy"
            },
            "geometry": {
                "type": "Point",
                "coordinates": [
                    18.390619238345664,
                    54.569333770581856
                ]
            }
        },
        {
            "type": "Feature",
            "properties": {
                "ref:csioz": 1212239,
                "name": "Apteka Dyżurna",
                "addr:street": "Dworcowa",
                "addr:housenumber": "16",
                "addr:city": "Wejherowo",
                "addr:postcode": "84-200",
                "amenity": "pharmacy"
            },
            "geometry": {
                "type": "Point",
                "coordinates": [
                    18.229489354734575,
                    54.605266715977486
                ]
            }
        },
        {
            "type": "Feature",
            "properties": {
                "ref:csioz": 1218779,
                "name": "Supernova",
                "addr:street": "Dębogórska",
                "addr:housenumber": "7B",
                "addr:city": "Rumia",
                "addr:postcode": "84-230",
                "amenity": "pharmacy"
            },
            "geometry": {
                "type": "Point",
                "coordinates": [
                    18.40244644351361,
                    54.57783919516711
                ]
            }
        },
        {
            "type": "Feature",
            "properties": {
                "ref:csioz": 1220077,
                "name": "Apteka Wejherpark",
                "addr:street": "I Brygady Pancernej Wojska Polskiego",
                "addr:housenumber": "10",
                "addr:city": "Wejherowo",
                "addr:postcode": "84-200",
                "amenity": "pharmacy"
            },
            "geometry": {
                "type": "Point",
                "coordinates": [
                    18.258056937563094,
                    54.60394745778015
                ]
            }
        },
        {
            "type": "Feature",
            "properties": {
                "ref:csioz": 1225069,
                "name": "Apteka Gemini",
                "addr:street": "Bukowa",
                "addr:housenumber": "2 B",
                "addr:city": "Wejherowo",
                "addr:postcode": "84-200",
                "amenity": "pharmacy"
            },
            "geometry": {
                "type": "Point",
                "coordinates": [
                    18.225577879465405,
                    54.602435944155246
                ]
            }
        },
        {
            "type": "Feature",
            "properties": {
                "ref:csioz": 1225218,
                "name": "Apteka Gemini",
                "addr:street": "Henryka Dąbrowskiego",
                "addr:housenumber": "20",
                "addr:city": "Rumia",
                "addr:postcode": "84-230",
                "amenity": "pharmacy"
            },
            "geometry": {
                "type": "Point",
                "coordinates": [
                    18.396214666856416,
                    54.56817210097621
                ]
            }
        },
        {
            "type": "Feature",
            "properties": {
                "ref:csioz": 1226409,
                "name": "Dział Farmacji Szpitalnej W Zakładie Leczniczym: Niepubliczny Zakład Opieki Zdrowotnej Nr 1 - Chirurgia Jednego Dnia",
                "addr:street": "Czesława Miłosza",
                "addr:housenumber": "3",
                "addr:city": "Rumia",
                "addr:postcode": "84-230",
                "amenity": "pharmacy"
            },
            "geometry": {
                "type": "Point",
                "coordinates": [
                    18.401343933707796,
                    54.57294293025085
                ]
            }
        },
        {
            "type": "Feature",
            "properties": {
                "ref:csioz": 1228606,
                "name": "Apteka Szpitalna W Szpitalu Specjalistycznym Im. F. Ceynowy",
                "addr:street": "dr. Alojzego Jagalskiego",
                "addr:housenumber": "10",
                "addr:city": "Wejherowo",
                "addr:postcode": "84-200",
                "amenity": "pharmacy"
            },
            "geometry": {
                "type": "Point",
                "coordinates": [
                    18.244385999999626,
                    54.613991000019816
                ]
            }
        }
    ]
}