{
    "type": "FeatureCollection",
    "name": "JPT_KOD_JE_1417",
    "features": [
        {
            "type": "Feature",
            "properties": {
                "ref:csioz": 1088170,
                "addr:street": "św. Kazimierza",
                "addr:housenumber": "37A",
                "addr:city": "Celestynów",
                "addr:postcode": "05-430",
                "amenity": "pharmacy"
            },
            "geometry": {
                "type": "Point",
                "coordinates": [
                    21.386893901363127,
                    52.05888592754327
                ]
            }
        },
        {
            "type": "Feature",
            "properties": {
                "ref:csioz": 1089565,
                "name": "Przy Przychodni",
                "addr:street": "Szkolna",
                "addr:housenumber": "3A",
                "addr:city": "Kołbiel",
                "addr:postcode": "05-340",
                "amenity": "pharmacy"
            },
            "geometry": {
                "type": "Point",
                "coordinates": [
                    21.484286952189674,
                    52.06330332763292
                ]
            }
        },
        {
            "type": "Feature",
            "properties": {
                "ref:csioz": 1115345,
                "name": "Przy Kościele",
                "addr:street": "Rynek",
                "addr:housenumber": "18",
                "addr:city": "Kołbiel",
                "addr:postcode": "05-340",
                "amenity": "pharmacy"
            },
            "geometry": {
                "type": "Point",
                "coordinates": [
                    21.479713186125167,
                    52.062226515357814
                ]
            }
        },
        {
            "type": "Feature",
            "properties": {
                "ref:csioz": 1088162,
                "name": "Paracelsus",
                "addr:street": "św. Kazimierza",
                "addr:housenumber": "14",
                "addr:city": "Celestynów",
                "addr:postcode": "05-430",
                "amenity": "pharmacy"
            },
            "geometry": {
                "type": "Point",
                "coordinates": [
                    21.389884653461454,
                    52.058517893504174
                ]
            }
        },
        {
            "type": "Feature",
            "properties": {
                "ref:csioz": 1088269,
                "addr:street": "Rynek",
                "addr:housenumber": "24",
                "addr:city": "Osieck",
                "addr:postcode": "08-445",
                "amenity": "pharmacy"
            },
            "geometry": {
                "type": "Point",
                "coordinates": [
                    21.42023363115251,
                    51.96577481356716
                ]
            }
        },
        {
            "type": "Feature",
            "properties": {
                "ref:csioz": 1192155,
                "name": "Centrum",
                "addr:street": "Rynek",
                "addr:housenumber": "13",
                "addr:city": "Osieck",
                "addr:postcode": "08-445",
                "amenity": "pharmacy"
            },
            "geometry": {
                "type": "Point",
                "coordinates": [
                    21.422329557837152,
                    51.96587400808096
                ]
            }
        },
        {
            "type": "Feature",
            "properties": {
                "ref:csioz": 1194428,
                "name": "Św. Wawrzyńca",
                "addr:street": "Napoleońska",
                "addr:housenumber": "46C",
                "addr:city": "Glinianka",
                "addr:postcode": "05-408",
                "amenity": "pharmacy"
            },
            "geometry": {
                "type": "Point",
                "coordinates": [
                    21.416597000006355,
                    52.13139200001572
                ]
            }
        },
        {
            "type": "Feature",
            "properties": {
                "ref:csioz": 1216898,
                "name": "Mgr Farm. Jolanta Jagodzińska",
                "addr:street": "Obrońców Pokoju",
                "addr:housenumber": "2",
                "addr:city": "Celestynów",
                "addr:postcode": "05-430",
                "amenity": "pharmacy"
            },
            "geometry": {
                "type": "Point",
                "coordinates": [
                    21.393438341632564,
                    52.0590444999594
                ]
            }
        },
        {
            "type": "Feature",
            "properties": {
                "ref:csioz": 1089616,
                "name": "Na Kresach",
                "addr:street": "Józefa Ignacego Kraszewskiego",
                "addr:housenumber": "52",
                "addr:city": "Otwock",
                "addr:postcode": "05-400",
                "amenity": "pharmacy"
            },
            "geometry": {
                "type": "Point",
                "coordinates": [
                    21.234647030978575,
                    52.10617019236427
                ]
            }
        },
        {
            "type": "Feature",
            "properties": {
                "ref:csioz": 1198202,
                "name": "Aptefarm",
                "addr:street": "Świderska",
                "addr:housenumber": "29",
                "addr:city": "Karczew",
                "addr:postcode": "05-480",
                "amenity": "pharmacy"
            },
            "geometry": {
                "type": "Point",
                "coordinates": [
                    21.23998107967876,
                    52.08166647459754
                ]
            }
        },
        {
            "type": "Feature",
            "properties": {
                "ref:csioz": 1200410,
                "name": "Doz Apteka Dbam O Zdrowie Dr N. Farm. Anna Kujawa",
                "addr:street": "3 Maja",
                "addr:housenumber": "148",
                "addr:city": "Józefów",
                "addr:postcode": "05-420",
                "amenity": "pharmacy"
            },
            "geometry": {
                "type": "Point",
                "coordinates": [
                    21.234067116311206,
                    52.126343092181
                ]
            }
        },
        {
            "type": "Feature",
            "properties": {
                "ref:csioz": 1204433,
                "name": "Aronia",
                "addr:street": "Polna",
                "addr:housenumber": "2",
                "addr:city": "Józefów",
                "addr:postcode": "05-420",
                "amenity": "pharmacy"
            },
            "geometry": {
                "type": "Point",
                "coordinates": [
                    21.233774155036603,
                    52.13755312312773
                ]
            }
        },
        {
            "type": "Feature",
            "properties": {
                "ref:csioz": 1088242,
                "addr:street": "Rynek Zygmunta Starego",
                "addr:housenumber": "9",
                "addr:city": "Karczew",
                "addr:postcode": "05-480",
                "amenity": "pharmacy"
            },
            "geometry": {
                "type": "Point",
                "coordinates": [
                    21.247578271716502,
                    52.07510621630685
                ]
            }
        },
        {
            "type": "Feature",
            "properties": {
                "ref:csioz": 1088250,
                "name": "Doz Apteka Dbam O Zdrowie Dr N. Farm. Anna Kujawa",
                "addr:street": "Warszawska",
                "addr:housenumber": "1",
                "addr:city": "Karczew",
                "addr:postcode": "05-480",
                "amenity": "pharmacy"
            },
            "geometry": {
                "type": "Point",
                "coordinates": [
                    21.24707429974109,
                    52.076677415563715
                ]
            }
        },
        {
            "type": "Feature",
            "properties": {
                "ref:csioz": 1088384,
                "name": "Pharmamed",
                "addr:street": "Ludwika Zamenhofa",
                "addr:housenumber": "25",
                "addr:city": "Otwock",
                "addr:postcode": "05-400",
                "amenity": "pharmacy"
            },
            "geometry": {
                "type": "Point",
                "coordinates": [
                    21.297018293814453,
                    52.10343503221655
                ]
            }
        },
        {
            "type": "Feature",
            "properties": {
                "ref:csioz": 1088415,
                "name": "Apteka-Mgr Farm. Aldona Pielak",
                "addr:street": "Tysiąclecia",
                "addr:housenumber": "2",
                "addr:city": "Sobienie-Jeziory",
                "addr:postcode": "08-443",
                "amenity": "pharmacy"
            },
            "geometry": {
                "type": "Point",
                "coordinates": [
                    21.306026324933804,
                    51.93378565752181
                ]
            }
        },
        {
            "type": "Feature",
            "properties": {
                "ref:csioz": 1088428,
                "addr:street": "Wiślana",
                "addr:housenumber": "2",
                "addr:city": "Sobienie-Jeziory",
                "addr:postcode": "08-443",
                "amenity": "pharmacy"
            },
            "geometry": {
                "type": "Point",
                "coordinates": [
                    21.3007535353102,
                    51.93570667535635
                ]
            }
        },
        {
            "type": "Feature",
            "properties": {
                "ref:csioz": 1090654,
                "addr:housenumber": "27A",
                "addr:city": "Sobiekursk",
                "addr:postcode": "05-480",
                "amenity": "pharmacy"
            },
            "geometry": {
                "type": "Point",
                "coordinates": [
                    21.287772235271955,
                    52.02308181092803
                ]
            }
        },
        {
            "type": "Feature",
            "properties": {
                "ref:csioz": 1121357,
                "name": "Ziko",
                "addr:street": "Jana Matejki",
                "addr:housenumber": "1",
                "addr:flats": "1B",
                "addr:city": "Otwock",
                "addr:postcode": "05-400",
                "amenity": "pharmacy"
            },
            "geometry": {
                "type": "Point",
                "coordinates": [
                    21.268184876800177,
                    52.09817921101231
                ]
            }
        },
        {
            "type": "Feature",
            "properties": {
                "ref:csioz": 1124356,
                "name": "Zakłady Opiekuńczo-Lecznicze",
                "addr:street": "Anielin",
                "addr:housenumber": "2",
                "addr:city": "Karczew",
                "addr:postcode": "05-480",
                "amenity": "pharmacy"
            },
            "geometry": {
                "type": "Point",
                "coordinates": [
                    21.27954572023346,
                    52.085064657699434
                ]
            }
        },
        {
            "type": "Feature",
            "properties": {
                "ref:csioz": 1225315,
                "name": "Zakład Opiekuńczo-Leczniczy Dla Przewlekle Chorych Sióstr Orionistek",
                "addr:street": "Ludwika Zamenhofa",
                "addr:housenumber": "22",
                "addr:city": "Otwock",
                "addr:postcode": "05-400",
                "amenity": "pharmacy"
            },
            "geometry": {
                "type": "Point",
                "coordinates": [
                    21.29515052496455,
                    52.102961434765305
                ]
            }
        },
        {
            "type": "Feature",
            "properties": {
                "ref:csioz": 1088300,
                "name": "\"Cef@Rm 36,6\"",
                "addr:street": "Stefana Batorego",
                "addr:housenumber": "34",
                "addr:city": "Otwock",
                "addr:postcode": "05-400",
                "amenity": "pharmacy"
            },
            "geometry": {
                "type": "Point",
                "coordinates": [
                    21.25749070119217,
                    52.099655063835904
                ]
            }
        },
        {
            "type": "Feature",
            "properties": {
                "ref:csioz": 1088359,
                "name": "\"Cef@Rm 36,6\"",
                "addr:street": "Jana Matejki",
                "addr:housenumber": "9",
                "addr:city": "Otwock",
                "addr:postcode": "05-400",
                "amenity": "pharmacy"
            },
            "geometry": {
                "type": "Point",
                "coordinates": [
                    21.26596210886283,
                    52.09794350869429
                ]
            }
        },
        {
            "type": "Feature",
            "properties": {
                "ref:csioz": 1090192,
                "name": "Na Ługach",
                "addr:street": "Lecha",
                "addr:housenumber": "2",
                "addr:city": "Otwock",
                "addr:postcode": "05-400",
                "amenity": "pharmacy"
            },
            "geometry": {
                "type": "Point",
                "coordinates": [
                    21.253032185587536,
                    52.08916497742818
                ]
            }
        },
        {
            "type": "Feature",
            "properties": {
                "ref:csioz": 1153175,
                "name": "Apteka Szpitalna",
                "addr:street": "Stefana Batorego",
                "addr:housenumber": "44",
                "addr:city": "Otwock",
                "addr:postcode": "05-400",
                "amenity": "pharmacy"
            },
            "geometry": {
                "type": "Point",
                "coordinates": [
                    21.262779733953863,
                    52.09800819535588
                ]
            }
        },
        {
            "type": "Feature",
            "properties": {
                "ref:csioz": 1186897,
                "name": "Apteka Pod Dębem",
                "addr:street": "Otwocka",
                "addr:housenumber": "28",
                "addr:city": "Karczew",
                "addr:postcode": "05-480",
                "amenity": "pharmacy"
            },
            "geometry": {
                "type": "Point",
                "coordinates": [
                    21.250429187933378,
                    52.08248761825864
                ]
            }
        },
        {
            "type": "Feature",
            "properties": {
                "ref:csioz": 1229222,
                "name": "Centrum Origin Otwock",
                "addr:street": "Bernardyńska",
                "addr:housenumber": "13",
                "addr:city": "Otwock",
                "addr:postcode": "05-400",
                "amenity": "pharmacy"
            },
            "geometry": {
                "type": "Point",
                "coordinates": [
                    21.30411952378742,
                    52.09461447400519
                ]
            }
        },
        {
            "type": "Feature",
            "properties": {
                "ref:csioz": 1088444,
                "name": "Multifarma",
                "addr:street": "Lubelska",
                "addr:housenumber": "57B",
                "addr:city": "Wiązowna",
                "addr:postcode": "05-462",
                "amenity": "pharmacy"
            },
            "geometry": {
                "type": "Point",
                "coordinates": [
                    21.290217002074705,
                    52.17439002061357
                ]
            }
        },
        {
            "type": "Feature",
            "properties": {
                "ref:csioz": 1088197,
                "addr:street": "Graniczna",
                "addr:housenumber": "21B",
                "addr:city": "Józefów",
                "addr:postcode": "05-410",
                "amenity": "pharmacy"
            },
            "geometry": {
                "type": "Point",
                "coordinates": [
                    21.21683641920114,
                    52.145242549416224
                ]
            }
        },
        {
            "type": "Feature",
            "properties": {
                "ref:csioz": 1088203,
                "addr:street": "Kardynała Stefana Wyszyńskiego",
                "addr:housenumber": "52A",
                "addr:city": "Józefów",
                "addr:postcode": "05-420",
                "amenity": "pharmacy"
            },
            "geometry": {
                "type": "Point",
                "coordinates": [
                    21.22253966478329,
                    52.13018694336666
                ]
            }
        },
        {
            "type": "Feature",
            "properties": {
                "ref:csioz": 1088216,
                "name": "\"Cef@Rm 36,6\"",
                "addr:street": "Marszałka Piłsudskiego",
                "addr:housenumber": "106",
                "addr:city": "Józefów",
                "addr:postcode": "05-420",
                "amenity": "pharmacy"
            },
            "geometry": {
                "type": "Point",
                "coordinates": [
                    21.234389278416916,
                    52.13762203758802
                ]
            }
        },
        {
            "type": "Feature",
            "properties": {
                "ref:csioz": 1088227,
                "name": "Apteka Przy Skłodowskiej",
                "addr:street": "Skłodowskiej-Curie",
                "addr:housenumber": "14",
                "addr:city": "Józefów",
                "addr:postcode": "05-420",
                "amenity": "pharmacy"
            },
            "geometry": {
                "type": "Point",
                "coordinates": [
                    21.22945894923624,
                    52.15285415564167
                ]
            }
        },
        {
            "type": "Feature",
            "properties": {
                "ref:csioz": 1088392,
                "addr:street": "Grunwaldzka",
                "addr:housenumber": "13",
                "addr:city": "Otwock",
                "addr:postcode": "05-402",
                "amenity": "pharmacy"
            },
            "geometry": {
                "type": "Point",
                "coordinates": [
                    21.257734574179743,
                    52.12147059656365
                ]
            }
        },
        {
            "type": "Feature",
            "properties": {
                "ref:csioz": 1089766,
                "name": "Bliska",
                "addr:street": "Generała Sikorskiego",
                "addr:housenumber": "37",
                "addr:city": "Józefów",
                "addr:postcode": "05-410",
                "amenity": "pharmacy"
            },
            "geometry": {
                "type": "Point",
                "coordinates": [
                    21.22581762565717,
                    52.14775857422324
                ]
            }
        },
        {
            "type": "Feature",
            "properties": {
                "ref:csioz": 1124370,
                "name": "Europejskie Centrum Zdrowia Otwock Szpital Im. F. Chopina",
                "addr:street": "Borowa",
                "addr:housenumber": "14/18",
                "addr:city": "Otwock",
                "addr:postcode": "05-400",
                "amenity": "pharmacy"
            },
            "geometry": {
                "type": "Point",
                "coordinates": [
                    21.30176448555609,
                    52.122204523268344
                ]
            }
        },
        {
            "type": "Feature",
            "properties": {
                "ref:csioz": 1175900,
                "name": "Centrum Kardiologii Szpital W Józefowie",
                "addr:street": "Nadwiślańska",
                "addr:housenumber": "37",
                "addr:city": "Józefów",
                "addr:postcode": "05-410",
                "amenity": "pharmacy"
            },
            "geometry": {
                "type": "Point",
                "coordinates": [
                    21.190993404196124,
                    52.14356825489359
                ]
            }
        },
        {
            "type": "Feature",
            "properties": {
                "ref:csioz": 1179763,
                "name": "Hebeapteka",
                "addr:street": "Hugona Kołłątaja",
                "addr:housenumber": "61",
                "addr:city": "Otwock",
                "addr:postcode": "05-402",
                "amenity": "pharmacy"
            },
            "geometry": {
                "type": "Point",
                "coordinates": [
                    21.247743074011318,
                    52.118493856810204
                ]
            }
        },
        {
            "type": "Feature",
            "properties": {
                "ref:csioz": 1225906,
                "name": "Mazowieckie Centrum Leczenia Chorób Płuc I Gruźlicy",
                "addr:street": "Władysława Stanisława Reymonta",
                "addr:housenumber": "83/91",
                "addr:city": "Otwock",
                "addr:postcode": "05-400",
                "amenity": "pharmacy"
            },
            "geometry": {
                "type": "Point",
                "coordinates": [
                    21.29671725163039,
                    52.11148646855877
                ]
            }
        },
        {
            "type": "Feature",
            "properties": {
                "ref:csioz": 1088181,
                "name": "Doz Apteka. Dbam O Zdrowie. Mgr M. Pruszkowska",
                "addr:street": "Generała Sikorskiego",
                "addr:housenumber": "7B",
                "addr:city": "Józefów",
                "addr:postcode": "05-410",
                "amenity": "pharmacy"
            },
            "geometry": {
                "type": "Point",
                "coordinates": [
                    21.221686209698568,
                    52.152128813197606
                ]
            }
        },
        {
            "type": "Feature",
            "properties": {
                "ref:csioz": 1088313,
                "name": "\"Cef@Rm 36,6\"",
                "addr:street": "Władysława Czaplickiego",
                "addr:housenumber": "9",
                "addr:city": "Otwock",
                "addr:postcode": "05-400",
                "amenity": "pharmacy"
            },
            "geometry": {
                "type": "Point",
                "coordinates": [
                    21.266570461663626,
                    52.11198545664447
                ]
            }
        },
        {
            "type": "Feature",
            "properties": {
                "ref:csioz": 1088368,
                "name": "\"Cef@Rm 36,6\"",
                "addr:street": "Orla",
                "addr:housenumber": "5",
                "addr:city": "Otwock",
                "addr:postcode": "05-400",
                "amenity": "pharmacy"
            },
            "geometry": {
                "type": "Point",
                "coordinates": [
                    21.263841774763513,
                    52.10741844162756
                ]
            }
        },
        {
            "type": "Feature",
            "properties": {
                "ref:csioz": 1088376,
                "addr:street": "Warszawska",
                "addr:housenumber": "32",
                "addr:city": "Otwock",
                "addr:postcode": "05-400",
                "amenity": "pharmacy"
            },
            "geometry": {
                "type": "Point",
                "coordinates": [
                    21.266657177993114,
                    52.10685790438328
                ]
            }
        },
        {
            "type": "Feature",
            "properties": {
                "ref:csioz": 1089951,
                "name": "Główna",
                "addr:street": "Michała Andriollego",
                "addr:housenumber": "34",
                "addr:city": "Otwock",
                "addr:postcode": "05-400",
                "amenity": "pharmacy"
            },
            "geometry": {
                "type": "Point",
                "coordinates": [
                    21.26395431910204,
                    52.104683526100715
                ]
            }
        },
        {
            "type": "Feature",
            "properties": {
                "ref:csioz": 1098409,
                "name": "Apteka Szpitalna",
                "addr:street": "ks. Stanisława Konarskiego",
                "addr:housenumber": "13",
                "addr:city": "Otwock",
                "addr:postcode": "05-400",
                "amenity": "pharmacy"
            },
            "geometry": {
                "type": "Point",
                "coordinates": [
                    21.275474456701822,
                    52.120793567656776
                ]
            }
        },
        {
            "type": "Feature",
            "properties": {
                "ref:csioz": 1098597,
                "name": "Szpital Psychiatryczno-Neurorehabilitacyjny",
                "addr:street": "3 Maja",
                "addr:housenumber": "127",
                "addr:city": "Józefów",
                "addr:postcode": "05-420",
                "amenity": "pharmacy"
            },
            "geometry": {
                "type": "Point",
                "coordinates": [
                    21.234726913913217,
                    52.127204694298065
                ]
            }
        },
        {
            "type": "Feature",
            "properties": {
                "ref:csioz": 1114744,
                "name": "Mgr Farm. Jolanta Jagodzińska",
                "addr:street": "Graniczna",
                "addr:housenumber": "10",
                "addr:city": "Józefów",
                "addr:postcode": "05-410",
                "amenity": "pharmacy"
            },
            "geometry": {
                "type": "Point",
                "coordinates": [
                    21.219767022366103,
                    52.14598853192054
                ]
            }
        },
        {
            "type": "Feature",
            "properties": {
                "ref:csioz": 1171971,
                "name": "Ziko",
                "addr:street": "Powstańców Warszawy",
                "addr:housenumber": "13",
                "addr:city": "Otwock",
                "addr:postcode": "05-400",
                "amenity": "pharmacy"
            },
            "geometry": {
                "type": "Point",
                "coordinates": [
                    21.26385174916807,
                    52.1058126393674
                ]
            }
        },
        {
            "type": "Feature",
            "properties": {
                "ref:csioz": 1176031,
                "name": "Centrum",
                "addr:street": "Michała Andriollego",
                "addr:housenumber": "20",
                "addr:flats": "10",
                "addr:city": "Otwock",
                "addr:postcode": "05-400",
                "amenity": "pharmacy"
            },
            "geometry": {
                "type": "Point",
                "coordinates": [
                    21.262060687226654,
                    52.10664831730686
                ]
            }
        },
        {
            "type": "Feature",
            "properties": {
                "ref:csioz": 1177906,
                "name": "Rodzinne Centrum Zdrowia Szpital Jednodniowy",
                "addr:street": "Grunwaldzka",
                "addr:housenumber": "13",
                "addr:city": "Otwock",
                "addr:postcode": "05-402",
                "amenity": "pharmacy"
            },
            "geometry": {
                "type": "Point",
                "coordinates": [
                    21.257734574179743,
                    52.12147059656365
                ]
            }
        },
        {
            "type": "Feature",
            "properties": {
                "ref:csioz": 1177965,
                "name": "Marianna Oddziały Rehabilitacyjne",
                "addr:street": "Trasa Lubelska",
                "addr:housenumber": "13",
                "addr:city": "Majdan",
                "addr:postcode": "05-462",
                "amenity": "pharmacy"
            },
            "geometry": {
                "type": "Point",
                "coordinates": [
                    21.27345864989378,
                    52.19375207466329
                ]
            }
        },
        {
            "type": "Feature",
            "properties": {
                "ref:csioz": 1183136,
                "name": "Auto Aptefarm",
                "addr:street": "Władysława Stanisława Reymonta",
                "addr:housenumber": "47",
                "addr:city": "Otwock",
                "addr:postcode": "05-400",
                "amenity": "pharmacy"
            },
            "geometry": {
                "type": "Point",
                "coordinates": [
                    21.276114351954355,
                    52.10964632291896
                ]
            }
        },
        {
            "type": "Feature",
            "properties": {
                "ref:csioz": 1215977,
                "name": "Główna Ii",
                "addr:street": "Kupiecka",
                "addr:housenumber": "1",
                "addr:flats": "6",
                "addr:city": "Otwock",
                "addr:postcode": "05-400",
                "amenity": "pharmacy"
            },
            "geometry": {
                "type": "Point",
                "coordinates": [
                    21.260467003013414,
                    52.10772049135911
                ]
            }
        },
        {
            "type": "Feature",
            "properties": {
                "ref:csioz": 1216752,
                "name": "Szpital Specjalistyczny",
                "addr:street": "Bolesława Prusa",
                "addr:housenumber": "1/3",
                "addr:city": "Otwock",
                "addr:postcode": "05-400",
                "amenity": "pharmacy"
            },
            "geometry": {
                "type": "Point",
                "coordinates": [
                    21.277242597289973,
                    52.10523725944173
                ]
            }
        },
        {
            "type": "Feature",
            "properties": {
                "ref:csioz": 1221341,
                "name": "Miętowa",
                "addr:street": "Marszałka Piłsudskiego",
                "addr:housenumber": "20A",
                "addr:flats": "1",
                "addr:city": "Józefów",
                "addr:postcode": "05-410",
                "amenity": "pharmacy"
            },
            "geometry": {
                "type": "Point",
                "coordinates": [
                    21.222213494692816,
                    52.14985583629879
                ]
            }
        },
        {
            "type": "Feature",
            "properties": {
                "ref:csioz": 1228043,
                "name": "Malinowa",
                "addr:street": "Nadwiślańska",
                "addr:housenumber": "29B",
                "addr:city": "Józefów",
                "addr:postcode": "05-410",
                "amenity": "pharmacy"
            },
            "geometry": {
                "type": "Point",
                "coordinates": [
                    21.190399223375092,
                    52.14494524466321
                ]
            }
        }
    ]
}