{
    "type": "FeatureCollection",
    "name": "JPT_KOD_JE_0203",
    "crs": {
        "type": "name",
        "properties": {
            "name": "urn:ogc:def:crs:EPSG::4326"
        }
    },
    "features": [
        {
            "type": "Feature",
            "properties": {
                "ref:csioz": 1132594,
                "name": "Apteka Dbam O Zdrowie",
                "addr:street": "Marii Skłodowskiej Curie",
                "addr:housenumber": "11",
                "addr:city": "Głogów",
                "addr:postcode": "67-200",
                "amenity": "pharmacy"
            },
            "geometry": {
                "type": "Point",
                "coordinates": [
                    16.075175094776743,
                    51.66681910695252
                ]
            }
        },
        {
            "type": "Feature",
            "properties": {
                "ref:csioz": 1132636,
                "name": "Apteka Prima",
                "addr:street": "Adama Mickiewicza",
                "addr:housenumber": "46",
                "addr:city": "Głogów",
                "addr:postcode": "67-200",
                "amenity": "pharmacy"
            },
            "geometry": {
                "type": "Point",
                "coordinates": [
                    16.071884169517567,
                    51.667611709760656
                ]
            }
        },
        {
            "type": "Feature",
            "properties": {
                "ref:csioz": 1132620,
                "name": "Dbam O Zdrowie",
                "addr:street": "Kazimierza Sprawiedliwego",
                "addr:housenumber": "4",
                "addr:city": "Głogów",
                "addr:postcode": "67-200",
                "amenity": "pharmacy"
            },
            "geometry": {
                "type": "Point",
                "coordinates": [
                    16.110447684447212,
                    51.64640593267345
                ]
            }
        },
        {
            "type": "Feature",
            "properties": {
                "ref:csioz": 1132864,
                "name": "Dr. Max",
                "addr:street": "Księcia Józefa Poniatowskiego",
                "addr:housenumber": "12",
                "addr:city": "Ruszowice",
                "addr:postcode": "67-200",
                "amenity": "pharmacy"
            },
            "geometry": {
                "type": "Point",
                "coordinates": [
                    16.095751004589737,
                    51.64559491157203
                ]
            }
        },
        {
            "type": "Feature",
            "properties": {
                "ref:csioz": 1133018,
                "name": "Stylowa",
                "addr:street": "Wolności",
                "addr:housenumber": "12e",
                "addr:city": "Głogów",
                "addr:postcode": "67-200",
                "amenity": "pharmacy"
            },
            "geometry": {
                "type": "Point",
                "coordinates": [
                    16.08514850371406,
                    51.66543715728158
                ]
            }
        },
        {
            "type": "Feature",
            "properties": {
                "ref:csioz": 1134834,
                "addr:street": "Pęcław",
                "addr:housenumber": "1C",
                "addr:city": "Pęcław",
                "addr:postcode": "67-221",
                "amenity": "pharmacy"
            },
            "geometry": {
                "type": "Point",
                "coordinates": [
                    16.242524875292833,
                    51.64483214733035
                ]
            }
        },
        {
            "type": "Feature",
            "properties": {
                "ref:csioz": 1135904,
                "name": "Przy Zielonym Rynku",
                "addr:street": "Jedności Robotniczej",
                "addr:housenumber": "16e",
                "addr:city": "Głogów",
                "addr:postcode": "67-200",
                "amenity": "pharmacy"
            },
            "geometry": {
                "type": "Point",
                "coordinates": [
                    16.079326425765014,
                    51.66288750432686
                ]
            }
        },
        {
            "type": "Feature",
            "properties": {
                "ref:csioz": 1159445,
                "name": "Apteka Gemini",
                "addr:street": "1000 lecia",
                "addr:housenumber": "7",
                "addr:city": "Głogów",
                "addr:postcode": "67-200",
                "amenity": "pharmacy"
            },
            "geometry": {
                "type": "Point",
                "coordinates": [
                    16.077456999983845,
                    51.66740900001507
                ]
            }
        },
        {
            "type": "Feature",
            "properties": {
                "ref:csioz": 1159459,
                "name": "Mediq Apteka Piastowska",
                "addr:street": "Rycerska",
                "addr:housenumber": "21a",
                "addr:city": "Głogów",
                "addr:postcode": "67-200",
                "amenity": "pharmacy"
            },
            "geometry": {
                "type": "Point",
                "coordinates": [
                    16.100042854299865,
                    51.650618644330365
                ]
            }
        },
        {
            "type": "Feature",
            "properties": {
                "ref:csioz": 1159468,
                "name": "Herbowa",
                "addr:street": "Budowlanych",
                "addr:housenumber": "16A",
                "addr:city": "Głogów",
                "addr:postcode": "67-200",
                "amenity": "pharmacy"
            },
            "geometry": {
                "type": "Point",
                "coordinates": [
                    16.08689489833168,
                    51.65616821232453
                ]
            }
        },
        {
            "type": "Feature",
            "properties": {
                "ref:csioz": 1159835,
                "name": "Vita",
                "addr:street": "Nielubia",
                "addr:housenumber": "51",
                "addr:city": "Nielubia",
                "addr:postcode": "67-224",
                "amenity": "pharmacy"
            },
            "geometry": {
                "type": "Point",
                "coordinates": [
                    15.991946999981344,
                    51.63477500001506
                ]
            }
        },
        {
            "type": "Feature",
            "properties": {
                "ref:csioz": 1171337,
                "name": "Prima",
                "addr:street": "Perseusza",
                "addr:housenumber": "1",
                "addr:city": "Głogów",
                "addr:postcode": "67-200",
                "amenity": "pharmacy"
            },
            "geometry": {
                "type": "Point",
                "coordinates": [
                    16.061429699115084,
                    51.65467658139725
                ]
            }
        },
        {
            "type": "Feature",
            "properties": {
                "ref:csioz": 1198304,
                "name": "\"Apteka \"\"Dom Zdrowia\"\"\"",
                "addr:street": "Sportowa",
                "addr:housenumber": "1B",
                "addr:city": "Głogów",
                "addr:postcode": "67-200",
                "amenity": "pharmacy"
            },
            "geometry": {
                "type": "Point",
                "coordinates": [
                    16.098855593967013,
                    51.65386123153496
                ]
            }
        },
        {
            "type": "Feature",
            "properties": {
                "ref:csioz": 1132287,
                "name": "Nova",
                "addr:street": "Tadeusza Kościuszki",
                "addr:housenumber": "16a",
                "addr:city": "Głogów",
                "addr:postcode": "67-200",
                "amenity": "pharmacy"
            },
            "geometry": {
                "type": "Point",
                "coordinates": [
                    16.081133363728895,
                    51.65532915882803
                ]
            }
        },
        {
            "type": "Feature",
            "properties": {
                "ref:csioz": 1132463,
                "name": "Apteka Dbam O Zdrowie",
                "addr:street": "Plutona",
                "addr:housenumber": "1",
                "addr:city": "Głogów",
                "addr:postcode": "67-200",
                "amenity": "pharmacy"
            },
            "geometry": {
                "type": "Point",
                "coordinates": [
                    16.065098211555636,
                    51.65253237814423
                ]
            }
        },
        {
            "type": "Feature",
            "properties": {
                "ref:csioz": 1132482,
                "name": "Herba",
                "addr:street": "Gwiaździsta",
                "addr:housenumber": "17",
                "addr:city": "Głogów",
                "addr:postcode": "67-200",
                "amenity": "pharmacy"
            },
            "geometry": {
                "type": "Point",
                "coordinates": [
                    16.072837607825868,
                    51.65129620596611
                ]
            }
        },
        {
            "type": "Feature",
            "properties": {
                "ref:csioz": 1132685,
                "name": "Mediq Apteka Julia",
                "addr:street": "Obiszowska",
                "addr:housenumber": "11a",
                "addr:city": "Jerzmanowa",
                "addr:postcode": "67-222",
                "amenity": "pharmacy"
            },
            "geometry": {
                "type": "Point",
                "coordinates": [
                    16.049483355390834,
                    51.59430056537361
                ]
            }
        },
        {
            "type": "Feature",
            "properties": {
                "ref:csioz": 1132908,
                "name": "Rodzinna",
                "addr:street": "Moniuszki",
                "addr:housenumber": "12",
                "addr:city": "Głogów",
                "addr:postcode": "67-200",
                "amenity": "pharmacy"
            },
            "geometry": {
                "type": "Point",
                "coordinates": [
                    16.08641418771221,
                    51.65559309614659
                ]
            }
        },
        {
            "type": "Feature",
            "properties": {
                "ref:csioz": 1132699,
                "name": "Dr. Max",
                "addr:street": "Jedności Robotniczej",
                "addr:housenumber": "2",
                "addr:city": "Głogów",
                "addr:postcode": "67-200",
                "amenity": "pharmacy"
            },
            "geometry": {
                "type": "Point",
                "coordinates": [
                    16.082542649438782,
                    51.66753534243154
                ]
            }
        },
        {
            "type": "Feature",
            "properties": {
                "ref:csioz": 1133330,
                "name": "Apteka Kopernik",
                "addr:street": "Gwiaździsta",
                "addr:housenumber": "25",
                "addr:city": "Głogów",
                "addr:postcode": "67-200",
                "amenity": "pharmacy"
            },
            "geometry": {
                "type": "Point",
                "coordinates": [
                    16.073875660450085,
                    51.65083710760717
                ]
            }
        },
        {
            "type": "Feature",
            "properties": {
                "ref:csioz": 1136626,
                "name": "Centrum Zdrowia 24H",
                "addr:street": "Wolności",
                "addr:housenumber": "34",
                "addr:city": "Głogów",
                "addr:postcode": "567-200",
                "amenity": "pharmacy"
            },
            "geometry": {
                "type": "Point",
                "coordinates": [
                    16.081046142906615,
                    51.66643871605974
                ]
            }
        },
        {
            "type": "Feature",
            "properties": {
                "ref:csioz": 1137379,
                "name": "Stylowa 2",
                "addr:street": "Saturna",
                "addr:housenumber": "19-21",
                "addr:city": "Głogów",
                "addr:postcode": "67-200",
                "amenity": "pharmacy"
            },
            "geometry": {
                "type": "Point",
                "coordinates": [
                    16.071135718539683,
                    51.654406975352025
                ]
            }
        },
        {
            "type": "Feature",
            "properties": {
                "ref:csioz": 1159753,
                "name": "Farmako",
                "addr:street": "Tadeusza Kościuszki",
                "addr:housenumber": "15F",
                "addr:city": "Głogów",
                "addr:postcode": "67-200",
                "amenity": "pharmacy"
            },
            "geometry": {
                "type": "Point",
                "coordinates": [
                    16.075890502520256,
                    51.656330271518904
                ]
            }
        },
        {
            "type": "Feature",
            "properties": {
                "ref:csioz": 1159642,
                "name": "Mediq Apteka Głogowska",
                "addr:street": "Gustawa Morcinka",
                "addr:housenumber": "8",
                "addr:city": "Głogów",
                "addr:postcode": "67-200",
                "amenity": "pharmacy"
            },
            "geometry": {
                "type": "Point",
                "coordinates": [
                    16.078759363106258,
                    51.659316077392795
                ]
            }
        },
        {
            "type": "Feature",
            "properties": {
                "ref:csioz": 1181957,
                "name": "Głogowski Szpital Powiatowy W Głogowie",
                "addr:street": "Tadeusza Kościuszki",
                "addr:housenumber": "15",
                "addr:city": "Głogów",
                "addr:postcode": "67-200",
                "amenity": "pharmacy"
            },
            "geometry": {
                "type": "Point",
                "coordinates": [
                    16.077327427275346,
                    51.65575456197416
                ]
            }
        },
        {
            "type": "Feature",
            "properties": {
                "ref:csioz": 1182188,
                "name": "Apteka Konwalia",
                "addr:street": "Marszałka Józefa Piłsudskiego",
                "addr:housenumber": "1",
                "addr:city": "Głogów",
                "addr:postcode": "67-200",
                "amenity": "pharmacy"
            },
            "geometry": {
                "type": "Point",
                "coordinates": [
                    16.100351714343052,
                    51.65312680112711
                ]
            }
        },
        {
            "type": "Feature",
            "properties": {
                "ref:csioz": 1205338,
                "name": "Ziko Apteka",
                "addr:street": "Marszałka Józefa Piłsudskiego",
                "addr:housenumber": "19",
                "addr:flats": "lokal 0.01",
                "addr:city": "Głogów",
                "addr:postcode": "67-200",
                "amenity": "pharmacy"
            },
            "geometry": {
                "type": "Point",
                "coordinates": [
                    16.056586999983228,
                    51.64937900001508
                ]
            }
        },
        {
            "type": "Feature",
            "properties": {
                "ref:csioz": 1216158,
                "name": "Apteka Gemini",
                "addr:street": "ul. Gwiaździsta",
                "addr:housenumber": "1A",
                "addr:city": "Głogów",
                "addr:postcode": "67-200",
                "amenity": "pharmacy"
            },
            "geometry": {
                "type": "Point",
                "coordinates": [
                    16.069226107321036,
                    51.65376806758308
                ]
            }
        },
        {
            "type": "Feature",
            "properties": {
                "ref:csioz": 1224595,
                "name": "Dział Farmacji Szpitalnej Klinika Okulistyczna Vita-Med Spółka Z Ograniczoną Odpowiedzialnością",
                "addr:street": "Legnicka",
                "addr:housenumber": "5",
                "addr:city": "Głogów",
                "addr:postcode": "67-200",
                "amenity": "pharmacy"
            },
            "geometry": {
                "type": "Point",
                "coordinates": [
                    16.080544276462682,
                    51.64955179386773
                ]
            }
        },
        {
            "type": "Feature",
            "properties": {
                "ref:csioz": 1189086,
                "name": "Medi",
                "addr:street": "Krzycka",
                "addr:housenumber": "2",
                "addr:city": "Kotla",
                "addr:postcode": "67-240",
                "amenity": "pharmacy"
            },
            "geometry": {
                "type": "Point",
                "coordinates": [
                    16.047082615326953,
                    51.74107115906632
                ]
            }
        }
    ]
}