{
    "type": "FeatureCollection",
    "name": "JPT_KOD_JE_0210",
    "features": [
        {
            "type": "Feature",
            "properties": {
                "ref:csioz": 1130983,
                "name": "Ascapteka",
                "addr:street": "Ratuszowa",
                "addr:housenumber": "18",
                "addr:city": "Lubań",
                "addr:postcode": "59-800",
                "amenity": "pharmacy"
            },
            "geometry": {
                "type": "Point",
                "coordinates": [
                    15.288124962523185,
                    51.12054786443282
                ]
            }
        },
        {
            "type": "Feature",
            "properties": {
                "ref:csioz": 1131599,
                "name": "Słoneczna",
                "addr:street": "Rynek",
                "addr:housenumber": "8",
                "addr:city": "Leśna",
                "addr:postcode": "59-820",
                "amenity": "pharmacy"
            },
            "geometry": {
                "type": "Point",
                "coordinates": [
                    15.263373362127778,
                    51.02245158365854
                ]
            }
        },
        {
            "type": "Feature",
            "properties": {
                "ref:csioz": 1131600,
                "name": "Salve",
                "addr:street": "Kazimierza Wielkiego",
                "addr:housenumber": "2",
                "addr:city": "Lubań",
                "addr:postcode": "59-800",
                "amenity": "pharmacy"
            },
            "geometry": {
                "type": "Point",
                "coordinates": [
                    15.274718409634408,
                    51.119642821496
                ]
            }
        },
        {
            "type": "Feature",
            "properties": {
                "ref:csioz": 1131858,
                "name": "Apteka Dbam O Zdrowie",
                "addr:street": "7 Dywizji",
                "addr:housenumber": "3",
                "addr:city": "Lubań",
                "addr:postcode": "59-800",
                "amenity": "pharmacy"
            },
            "geometry": {
                "type": "Point",
                "coordinates": [
                    15.28929622405673,
                    51.11743423521788
                ]
            }
        },
        {
            "type": "Feature",
            "properties": {
                "ref:csioz": 1132072,
                "name": "Pro Vita",
                "addr:street": "Zdrojowa",
                "addr:housenumber": "13a",
                "addr:city": "Świeradów Zdrój",
                "addr:postcode": "59-850",
                "amenity": "pharmacy"
            },
            "geometry": {
                "type": "Point",
                "coordinates": [
                    15.331927999945488,
                    50.9094030000145
                ]
            }
        },
        {
            "type": "Feature",
            "properties": {
                "ref:csioz": 1135590,
                "addr:street": "Kardynała Stefana Wyszyńskiego",
                "addr:housenumber": "2",
                "addr:city": "Zaręba",
                "addr:postcode": "59-800",
                "amenity": "pharmacy"
            },
            "geometry": {
                "type": "Point",
                "coordinates": [
                    15.237344999939586,
                    51.10529400001494
                ]
            }
        },
        {
            "type": "Feature",
            "properties": {
                "ref:csioz": 1136085,
                "name": "Apteka Nowa",
                "addr:street": "Zgorzelecka",
                "addr:housenumber": "43",
                "addr:city": "Lubań",
                "addr:postcode": "59-800",
                "amenity": "pharmacy"
            },
            "geometry": {
                "type": "Point",
                "coordinates": [
                    15.288200123891057,
                    51.1242023936688
                ]
            }
        },
        {
            "type": "Feature",
            "properties": {
                "ref:csioz": 1131830,
                "name": "Vita",
                "addr:street": "Rynek-Sukiennice",
                "addr:housenumber": "28",
                "addr:city": "Lubań",
                "addr:postcode": "59-800",
                "amenity": "pharmacy"
            },
            "geometry": {
                "type": "Point",
                "coordinates": [
                    15.289880387722484,
                    51.12025931346501
                ]
            }
        },
        {
            "type": "Feature",
            "properties": {
                "ref:csioz": 1131027,
                "name": "-",
                "addr:street": "Lubańska",
                "addr:housenumber": "1",
                "addr:city": "Leśna",
                "addr:postcode": "59-820",
                "amenity": "pharmacy"
            },
            "geometry": {
                "type": "Point",
                "coordinates": [
                    15.263633460819872,
                    51.023492595176656
                ]
            }
        },
        {
            "type": "Feature",
            "properties": {
                "ref:csioz": 1131042,
                "name": "\"\"\"Pod Siedmioma Planetami\"\"\"",
                "addr:street": "Mikołaja",
                "addr:housenumber": "24",
                "addr:city": "Lubań",
                "addr:postcode": "59-800",
                "amenity": "pharmacy"
            },
            "geometry": {
                "type": "Point",
                "coordinates": [
                    15.291024972978901,
                    51.12014232207347
                ]
            }
        },
        {
            "type": "Feature",
            "properties": {
                "ref:csioz": 1131138,
                "name": "\"Apteka Cef@Rm 36,6\"",
                "addr:street": "Wolności",
                "addr:housenumber": "24a",
                "addr:city": "Olszyna",
                "addr:postcode": "59-530",
                "amenity": "pharmacy"
            },
            "geometry": {
                "type": "Point",
                "coordinates": [
                    15.374841882441224,
                    51.06662230108505
                ]
            }
        },
        {
            "type": "Feature",
            "properties": {
                "ref:csioz": 1131302,
                "name": "\"Apteka Cef@Rm 36,6\"",
                "addr:street": "Nad Potokiem",
                "addr:housenumber": "1",
                "addr:flats": "1",
                "addr:city": "Świeradów-Zdrój",
                "addr:postcode": "59-850",
                "amenity": "pharmacy"
            },
            "geometry": {
                "type": "Point",
                "coordinates": [
                    15.331458104785014,
                    50.9102092254916
                ]
            }
        },
        {
            "type": "Feature",
            "properties": {
                "ref:csioz": 1131573,
                "name": "Doz Apteka Dbam O Zdrowie",
                "addr:street": "Zawidowska",
                "addr:housenumber": "4",
                "addr:city": "Lubań",
                "addr:postcode": "59-800",
                "amenity": "pharmacy"
            },
            "geometry": {
                "type": "Point",
                "coordinates": [
                    15.272202277741364,
                    51.116559715509084
                ]
            }
        },
        {
            "type": "Feature",
            "properties": {
                "ref:csioz": 1131896,
                "name": "Apteka Dla Każdego",
                "addr:street": "Wolności",
                "addr:housenumber": "30",
                "addr:city": "Olszyna",
                "addr:postcode": "59-830",
                "amenity": "pharmacy"
            },
            "geometry": {
                "type": "Point",
                "coordinates": [
                    15.373579360855635,
                    51.066501360780144
                ]
            }
        },
        {
            "type": "Feature",
            "properties": {
                "ref:csioz": 1134774,
                "name": "\"Punkt Apteczny 'Melisana'\"",
                "addr:street": "Nowomiejska",
                "addr:housenumber": "29",
                "addr:city": "Pobiedna",
                "addr:postcode": "59-814",
                "amenity": "pharmacy"
            },
            "geometry": {
                "type": "Point",
                "coordinates": [
                    15.295241604207519,
                    50.93720434823053
                ]
            }
        },
        {
            "type": "Feature",
            "properties": {
                "ref:csioz": 1134763,
                "name": "\"Nzoz Centrum Rehbilitacji I Reumatologii \"\"Goplana\"\"\"",
                "addr:street": "Piłsudskiego",
                "addr:housenumber": "33",
                "addr:city": "Świeradów Zdrój",
                "addr:postcode": "59-850",
                "amenity": "pharmacy"
            },
            "geometry": {
                "type": "Point",
                "coordinates": [
                    15.337031999945848,
                    50.90619200001449
                ]
            }
        },
        {
            "type": "Feature",
            "properties": {
                "ref:csioz": 1161245,
                "name": "Łużyckie Centrum Medyczne Szpital Wielospecjalistyczny",
                "addr:street": "Zawidowska",
                "addr:housenumber": "4",
                "addr:city": "Lubań",
                "addr:postcode": "59-800",
                "amenity": "pharmacy"
            },
            "geometry": {
                "type": "Point",
                "coordinates": [
                    15.272202277741364,
                    51.116559715509084
                ]
            }
        },
        {
            "type": "Feature",
            "properties": {
                "ref:csioz": 1179717,
                "name": "Eko Apteka",
                "addr:street": "Tkacka",
                "addr:housenumber": "4B-4C",
                "addr:city": "Lubań",
                "addr:postcode": "59-800",
                "amenity": "pharmacy"
            },
            "geometry": {
                "type": "Point",
                "coordinates": [
                    15.290789049690684,
                    51.11954415444996
                ]
            }
        },
        {
            "type": "Feature",
            "properties": {
                "ref:csioz": 1187053,
                "name": "Apteka Ekopremium",
                "addr:street": "Spółdzielcza",
                "addr:housenumber": "9",
                "addr:city": "Lubań",
                "addr:postcode": "59-800",
                "amenity": "pharmacy"
            },
            "geometry": {
                "type": "Point",
                "coordinates": [
                    15.288350950429901,
                    51.11902343299879
                ]
            }
        },
        {
            "type": "Feature",
            "properties": {
                "ref:csioz": 1217432,
                "name": "Apteka Społeczna Na Spółdzielczej Grupa Nowa Farmacja",
                "addr:street": "ul. Spółdzielcza",
                "addr:housenumber": "11",
                "addr:city": "Lubań",
                "addr:postcode": "59-800",
                "amenity": "pharmacy"
            },
            "geometry": {
                "type": "Point",
                "coordinates": [
                    15.288082735690992,
                    51.118783118494505
                ]
            }
        },
        {
            "type": "Feature",
            "properties": {
                "ref:csioz": 1187395,
                "name": "Retro",
                "addr:street": "11 Listopada",
                "addr:housenumber": "26",
                "addr:city": "Świeradów-Zdrój",
                "addr:postcode": "59-850",
                "amenity": "pharmacy"
            },
            "geometry": {
                "type": "Point",
                "coordinates": [
                    15.34074435890079,
                    50.911381255453676
                ]
            }
        }
    ]
}