{
    "type": "FeatureCollection",
    "name": "JPT_KOD_JE_1603",
    "crs": {
        "type": "name",
        "properties": {
            "name": "urn:ogc:def:crs:EPSG::4326"
        }
    },
    "features": [
        {
            "type": "Feature",
            "properties": {
                "ref:csioz": 1107339,
                "addr:street": "Chrobrego",
                "addr:housenumber": "8",
                "addr:city": "Kędzierzyn-Koźle",
                "addr:postcode": "47-200",
                "amenity": "pharmacy"
            },
            "geometry": {
                "type": "Point",
                "coordinates": [
                    18.13765756232006,
                    50.33873219033805
                ]
            }
        },
        {
            "type": "Feature",
            "properties": {
                "ref:csioz": 1107347,
                "addr:street": "Plac Jana Surzyckiego",
                "addr:housenumber": "5A",
                "addr:city": "Kędzierzyn-Koźle",
                "addr:postcode": "47-224",
                "amenity": "pharmacy"
            },
            "geometry": {
                "type": "Point",
                "coordinates": [
                    18.204183719403517,
                    50.33783162920178
                ]
            }
        },
        {
            "type": "Feature",
            "properties": {
                "ref:csioz": 1107409,
                "name": "Apteka Dbam O Zdrowie",
                "addr:street": "Kozielska",
                "addr:housenumber": "20",
                "addr:city": "Kędzierzyn-Koźle",
                "addr:postcode": "47-200",
                "amenity": "pharmacy"
            },
            "geometry": {
                "type": "Point",
                "coordinates": [
                    18.194076651203527,
                    50.34148937522093
                ]
            }
        },
        {
            "type": "Feature",
            "properties": {
                "ref:csioz": 1107446,
                "name": "Apteka Gemini",
                "addr:street": "Marii Skłodowskiej-Curie",
                "addr:housenumber": "13",
                "addr:city": "Kędzierzyn-Koźle",
                "addr:postcode": "47-200",
                "amenity": "pharmacy"
            },
            "geometry": {
                "type": "Point",
                "coordinates": [
                    18.14697858808674,
                    50.332216388787785
                ]
            }
        },
        {
            "type": "Feature",
            "properties": {
                "ref:csioz": 1107508,
                "name": "\"Apteka \"\"Na Zdrowie\"\"\"",
                "addr:street": "Powstańców",
                "addr:housenumber": "8",
                "addr:flats": "1",
                "addr:city": "Kędzierzyn-Koźle",
                "addr:postcode": "47-220",
                "amenity": "pharmacy"
            },
            "geometry": {
                "type": "Point",
                "coordinates": [
                    18.21223226655532,
                    50.34370061179845
                ]
            }
        },
        {
            "type": "Feature",
            "properties": {
                "ref:csioz": 1107352,
                "name": "Dr. Max",
                "addr:street": "Harcerska",
                "addr:housenumber": "9",
                "addr:city": "Kędzierzyn-Koźle",
                "addr:postcode": "47-200",
                "amenity": "pharmacy"
            },
            "geometry": {
                "type": "Point",
                "coordinates": [
                    18.21923516324876,
                    50.344173876613716
                ]
            }
        },
        {
            "type": "Feature",
            "properties": {
                "ref:csioz": 1107519,
                "name": "Apteka Słoneczna",
                "addr:street": "Rynek",
                "addr:housenumber": "1",
                "addr:city": "Kędzierzyn-Koźle",
                "addr:postcode": "47-200",
                "amenity": "pharmacy"
            },
            "geometry": {
                "type": "Point",
                "coordinates": [
                    18.145846775130146,
                    50.33312288825672
                ]
            }
        },
        {
            "type": "Feature",
            "properties": {
                "ref:csioz": 1107543,
                "name": "Apteka Pod Lwem",
                "addr:street": "Wojska Polskiego",
                "addr:housenumber": "5",
                "addr:city": "Kędzierzyn-Koźle",
                "addr:postcode": "47-220",
                "amenity": "pharmacy"
            },
            "geometry": {
                "type": "Point",
                "coordinates": [
                    18.218655542782766,
                    50.34690917754565
                ]
            }
        },
        {
            "type": "Feature",
            "properties": {
                "ref:csioz": 1109126,
                "addr:street": "Magnoliowa",
                "addr:housenumber": "14",
                "addr:city": "Pawłowiczki",
                "addr:postcode": "47-280",
                "amenity": "pharmacy"
            },
            "geometry": {
                "type": "Point",
                "coordinates": [
                    18.044918203586935,
                    50.24221894442089
                ]
            }
        },
        {
            "type": "Feature",
            "properties": {
                "ref:csioz": 1109838,
                "addr:street": "Szkolna",
                "addr:housenumber": "2",
                "addr:city": "Gościęcin",
                "addr:postcode": "47-270",
                "amenity": "pharmacy"
            },
            "geometry": {
                "type": "Point",
                "coordinates": [
                    18.003083327424804,
                    50.28288386097418
                ]
            }
        },
        {
            "type": "Feature",
            "properties": {
                "ref:csioz": 1109932,
                "name": "\"Punkt Ateczny \"\"Vademecum\"\"\"",
                "addr:street": "Główna",
                "addr:housenumber": "96B",
                "addr:city": "Łany",
                "addr:postcode": "47-253",
                "amenity": "pharmacy"
            },
            "geometry": {
                "type": "Point",
                "coordinates": [
                    18.194210832834145,
                    50.2131318951477
                ]
            }
        },
        {
            "type": "Feature",
            "properties": {
                "ref:csioz": 1110054,
                "name": "Punkt Apteczny Strama Natalia",
                "addr:housenumber": "74",
                "addr:city": "Reńska Wieś",
                "addr:postcode": "48-314",
                "amenity": "pharmacy"
            },
            "geometry": {
                "type": "Point",
                "coordinates": [
                    18.132890251159544,
                    50.30726873399881
                ]
            }
        },
        {
            "type": "Feature",
            "properties": {
                "ref:csioz": 1110259,
                "name": "\"Dział Farmacji Szpitalnej Polsko-Amerykańskich Klinik Serca Iv Oddziału Kardiologii Inwazyjnej, Elektrostymulacji I Angiologii W Kędzierzynie-Koźlu\"",
                "addr:street": "Roosevelta",
                "addr:housenumber": "2",
                "addr:city": "Kędzierzyn-Koźle",
                "addr:postcode": "47-200",
                "amenity": "pharmacy"
            },
            "geometry": {
                "type": "Point",
                "coordinates": [
                    18.151337547610698,
                    50.33243584358583
                ]
            }
        },
        {
            "type": "Feature",
            "properties": {
                "ref:csioz": 1121277,
                "name": "Apteka Urtica",
                "addr:street": "Królowej Jadwigi",
                "addr:housenumber": "12",
                "addr:city": "Kędzierzyn-Koźle",
                "addr:postcode": "47-232",
                "amenity": "pharmacy"
            },
            "geometry": {
                "type": "Point",
                "coordinates": [
                    18.238093630501982,
                    50.347009952408584
                ]
            }
        },
        {
            "type": "Feature",
            "properties": {
                "ref:csioz": 1121289,
                "name": "Apteka Pod Lwem",
                "addr:street": "Gazowa",
                "addr:housenumber": "2B",
                "addr:city": "Kędzierzyn-Koźle",
                "addr:postcode": "47-200",
                "amenity": "pharmacy"
            },
            "geometry": {
                "type": "Point",
                "coordinates": [
                    18.14087819416163,
                    50.33979105011609
                ]
            }
        },
        {
            "type": "Feature",
            "properties": {
                "ref:csioz": 1177034,
                "name": "Punkt Apteczny W Reńskiej Wsi",
                "addr:street": "Polna",
                "addr:housenumber": "1a",
                "addr:city": "Reńska Wieś",
                "addr:postcode": "47-208",
                "amenity": "pharmacy"
            },
            "geometry": {
                "type": "Point",
                "coordinates": [
                    18.126080457232945,
                    50.31519980329423
                ]
            }
        },
        {
            "type": "Feature",
            "properties": {
                "ref:csioz": 1188786,
                "name": "Rodzinna",
                "addr:street": "Ligonia",
                "addr:housenumber": "4",
                "addr:city": "Polska Cerekiew",
                "addr:postcode": "47-260",
                "amenity": "pharmacy"
            },
            "geometry": {
                "type": "Point",
                "coordinates": [
                    18.121384691622854,
                    50.22834463215085
                ]
            }
        },
        {
            "type": "Feature",
            "properties": {
                "ref:csioz": 1107284,
                "addr:street": "Jana Pawła II",
                "addr:housenumber": "3",
                "addr:city": "Kędzierzyn-Koźle",
                "addr:postcode": "47-220",
                "amenity": "pharmacy"
            },
            "geometry": {
                "type": "Point",
                "coordinates": [
                    18.2076090118764,
                    50.34445520480625
                ]
            }
        },
        {
            "type": "Feature",
            "properties": {
                "ref:csioz": 1107292,
                "name": "Apteka Dbam O Zdrowie",
                "addr:street": "Jana Pawła II",
                "addr:housenumber": "30",
                "addr:city": "Kędzierzyn-Koźle",
                "addr:postcode": "47-220",
                "amenity": "pharmacy"
            },
            "geometry": {
                "type": "Point",
                "coordinates": [
                    18.21579174500754,
                    50.346749668463715
                ]
            }
        },
        {
            "type": "Feature",
            "properties": {
                "ref:csioz": 1107318,
                "addr:street": "Arki Bożka",
                "addr:housenumber": "2",
                "addr:city": "Kędzierzyn-Koźle",
                "addr:postcode": "47-224",
                "amenity": "pharmacy"
            },
            "geometry": {
                "type": "Point",
                "coordinates": [
                    18.199439085556374,
                    50.338811615120946
                ]
            }
        },
        {
            "type": "Feature",
            "properties": {
                "ref:csioz": 1107326,
                "name": "Salus Bis",
                "addr:street": "Mostowa",
                "addr:housenumber": "31",
                "addr:city": "Kędzierzyn-Koźle",
                "addr:postcode": "47-223",
                "amenity": "pharmacy"
            },
            "geometry": {
                "type": "Point",
                "coordinates": [
                    18.2454280033474,
                    50.31196555263057
                ]
            }
        },
        {
            "type": "Feature",
            "properties": {
                "ref:csioz": 1122360,
                "name": "Klinika Nova Sp. Z O.O. Szpital",
                "addr:street": "Kłosowa",
                "addr:housenumber": "7",
                "addr:city": "Kędzierzyn-Koźle",
                "addr:postcode": "47-206",
                "amenity": "pharmacy"
            },
            "geometry": {
                "type": "Point",
                "coordinates": [
                    18.163039999999732,
                    50.35119600001301
                ]
            }
        },
        {
            "type": "Feature",
            "properties": {
                "ref:csioz": 1177075,
                "name": "Prima",
                "addr:street": "Franklina Delano Roosevelta",
                "addr:housenumber": "4",
                "addr:city": "Kędzierzyn-Koźle",
                "addr:postcode": "47-200",
                "amenity": "pharmacy"
            },
            "geometry": {
                "type": "Point",
                "coordinates": [
                    18.152387210953492,
                    50.333112626958055
                ]
            }
        },
        {
            "type": "Feature",
            "properties": {
                "ref:csioz": 1177167,
                "name": "Punkt Apteczny W Poborszowie",
                "addr:street": "Krapkowicka",
                "addr:housenumber": "25a",
                "addr:city": "Poborszów",
                "addr:postcode": "47-214",
                "amenity": "pharmacy"
            },
            "geometry": {
                "type": "Point",
                "coordinates": [
                    18.084103987142722,
                    50.3759582320382
                ]
            }
        },
        {
            "type": "Feature",
            "properties": {
                "ref:csioz": 1177172,
                "name": "Punkt Apteczny W Długomiłowicach",
                "addr:street": "Główna",
                "addr:housenumber": "36",
                "addr:city": "Długomiłowice",
                "addr:postcode": "47-208",
                "amenity": "pharmacy"
            },
            "geometry": {
                "type": "Point",
                "coordinates": [
                    18.146882789830116,
                    50.28750092569162
                ]
            }
        },
        {
            "type": "Feature",
            "properties": {
                "ref:csioz": 1177138,
                "name": "Apteka Gemini",
                "addr:street": "Mikołaja Reja",
                "addr:housenumber": "2",
                "addr:city": "Kędzierzyn-Koźle",
                "addr:postcode": "47-224",
                "amenity": "pharmacy"
            },
            "geometry": {
                "type": "Point",
                "coordinates": [
                    18.204605225979613,
                    50.34299548634213
                ]
            }
        },
        {
            "type": "Feature",
            "properties": {
                "ref:csioz": 1182762,
                "name": "Ziko Apteka",
                "addr:street": "Armii Krajowej",
                "addr:housenumber": "38",
                "addr:flats": "040",
                "addr:city": "Kędzierzyn-Koźle",
                "addr:postcode": "47-220",
                "amenity": "pharmacy"
            },
            "geometry": {
                "type": "Point",
                "coordinates": [
                    18.2649511803301,
                    50.37758590642823
                ]
            }
        },
        {
            "type": "Feature",
            "properties": {
                "ref:csioz": 1194078,
                "name": "Dr. Max",
                "addr:street": "Kozielska",
                "addr:housenumber": "36",
                "addr:city": "Kędzierzyn-Koźle",
                "addr:postcode": "47-224",
                "amenity": "pharmacy"
            },
            "geometry": {
                "type": "Point",
                "coordinates": [
                    18.190643384574432,
                    50.34004369502096
                ]
            }
        },
        {
            "type": "Feature",
            "properties": {
                "ref:csioz": 1195825,
                "name": "Ziko Apteka",
                "addr:street": "Wojska Polskiego",
                "addr:housenumber": "7",
                "addr:city": "Kędzierzyn-Koźle",
                "addr:postcode": "47-220",
                "amenity": "pharmacy"
            },
            "geometry": {
                "type": "Point",
                "coordinates": [
                    18.218905962355343,
                    50.34670439433183
                ]
            }
        },
        {
            "type": "Feature",
            "properties": {
                "ref:csioz": 1202727,
                "name": "Punkt Apteczny Wioleta Restel",
                "addr:street": "Wojska Polskiego",
                "addr:housenumber": "12",
                "addr:city": "Bierawa",
                "addr:postcode": "47-240",
                "amenity": "pharmacy"
            },
            "geometry": {
                "type": "Point",
                "coordinates": [
                    18.243775487120033,
                    50.28195483780078
                ]
            }
        },
        {
            "type": "Feature",
            "properties": {
                "ref:csioz": 1223592,
                "name": "Na Dobre I Na Złe",
                "addr:street": "Piastowska",
                "addr:housenumber": "40",
                "addr:city": "Kędzierzyn-Koźle",
                "addr:postcode": "47-200",
                "amenity": "pharmacy"
            },
            "geometry": {
                "type": "Point",
                "coordinates": [
                    18.136646129555054,
                    50.341889443136765
                ]
            }
        },
        {
            "type": "Feature",
            "properties": {
                "ref:csioz": 1228441,
                "name": "Apteka Szpitalna Sp Zoz W Kędzierzynie-Koźlu",
                "addr:street": "Franklina Delano Roosevelta",
                "addr:housenumber": "2",
                "addr:city": "Kędzierzyn-Koźle",
                "addr:postcode": "47-200",
                "amenity": "pharmacy"
            },
            "geometry": {
                "type": "Point",
                "coordinates": [
                    18.151337547610698,
                    50.33243584358583
                ]
            }
        },
        {
            "type": "Feature",
            "properties": {
                "ref:csioz": 1229463,
                "name": "Punkt Apteczny Stokrotka Joanna Motyka",
                "addr:street": "Kozielska",
                "addr:housenumber": "9",
                "addr:city": "Dziergowice",
                "addr:postcode": "47-244",
                "amenity": "pharmacy"
            },
            "geometry": {
                "type": "Point",
                "coordinates": [
                    18.285670762988115,
                    50.240079854368915
                ]
            }
        },
        {
            "type": "Feature",
            "properties": {
                "ref:csioz": 1229474,
                "addr:street": "Głubczycka",
                "addr:housenumber": "19",
                "addr:city": "Wronin",
                "addr:postcode": "47-260",
                "amenity": "pharmacy"
            },
            "geometry": {
                "type": "Point",
                "coordinates": [
                    18.10225739508745,
                    50.19023268766428
                ]
            }
        },
        {
            "type": "Feature",
            "properties": {
                "ref:csioz": 1202615,
                "name": "Apteka Gemini",
                "addr:street": "Harcerska",
                "addr:housenumber": "13",
                "addr:city": "Kędzierzyn-Koźle",
                "addr:postcode": "47-220",
                "amenity": "pharmacy"
            },
            "geometry": {
                "type": "Point",
                "coordinates": [
                    18.221172814319228,
                    50.34523460176588
                ]
            }
        }
    ]
}