{
    "type": "FeatureCollection",
    "name": "JPT_KOD_JE_1422",
    "crs": {
        "type": "name",
        "properties": {
            "name": "urn:ogc:def:crs:EPSG::4326"
        }
    },
    "features": [
        {
            "type": "Feature",
            "properties": {
                "ref:csioz": 1091131,
                "addr:street": "Wincentego Witosa",
                "addr:housenumber": "7",
                "addr:city": "Chorzele",
                "addr:postcode": "06-330",
                "amenity": "pharmacy"
            },
            "geometry": {
                "type": "Point",
                "coordinates": [
                    20.89922476676346,
                    53.26030125257712
                ]
            }
        },
        {
            "type": "Feature",
            "properties": {
                "ref:csioz": 1091144,
                "name": "Doz Apteka. Dbam O Zdrowie. Elixir",
                "addr:street": "Jasna",
                "addr:housenumber": "1",
                "addr:city": "Jednorożec",
                "addr:postcode": "06-323",
                "amenity": "pharmacy"
            },
            "geometry": {
                "type": "Point",
                "coordinates": [
                    21.0466232267234,
                    53.139944230250926
                ]
            }
        },
        {
            "type": "Feature",
            "properties": {
                "ref:csioz": 1091153,
                "addr:street": "Mikołaja Kopernika",
                "addr:housenumber": "3",
                "addr:city": "Krasne",
                "addr:postcode": "06-408",
                "amenity": "pharmacy"
            },
            "geometry": {
                "type": "Point",
                "coordinates": [
                    20.967711625062677,
                    52.92022399131059
                ]
            }
        },
        {
            "type": "Feature",
            "properties": {
                "ref:csioz": 1091166,
                "name": "Doz Apteka. Dbam O Zdrowie. Elixir",
                "addr:street": "Rynek",
                "addr:housenumber": "19",
                "addr:city": "Przasnysz",
                "addr:postcode": "06-300",
                "amenity": "pharmacy"
            },
            "geometry": {
                "type": "Point",
                "coordinates": [
                    20.883791890932457,
                    53.02092386398666
                ]
            }
        },
        {
            "type": "Feature",
            "properties": {
                "ref:csioz": 1091189,
                "name": "Doz Apteka. Dbam O Zdrowie. Elixir",
                "addr:street": "Orlika",
                "addr:housenumber": "42",
                "addr:city": "Przasnysz",
                "addr:postcode": "06-300",
                "amenity": "pharmacy"
            },
            "geometry": {
                "type": "Point",
                "coordinates": [
                    20.888392522116956,
                    53.02392352668004
                ]
            }
        },
        {
            "type": "Feature",
            "properties": {
                "ref:csioz": 1091759,
                "name": "Mgr Farm. Anna Andrzejewska",
                "addr:housenumber": "41A",
                "addr:city": "Żelazna Rządowa",
                "addr:postcode": "06-323",
                "amenity": "pharmacy"
            },
            "geometry": {
                "type": "Point",
                "coordinates": [
                    21.144848075512485,
                    53.22991989081346
                ]
            }
        },
        {
            "type": "Feature",
            "properties": {
                "ref:csioz": 1116366,
                "name": "Arnica",
                "addr:street": "Przechodnia",
                "addr:housenumber": "3",
                "addr:city": "Przasnysz",
                "addr:postcode": "06-300",
                "amenity": "pharmacy"
            },
            "geometry": {
                "type": "Point",
                "coordinates": [
                    20.88674452637366,
                    53.02195565727138
                ]
            }
        },
        {
            "type": "Feature",
            "properties": {
                "ref:csioz": 1116389,
                "name": "Adonidis",
                "addr:street": "Leszno",
                "addr:housenumber": "4AB",
                "addr:city": "Przasnysz",
                "addr:postcode": "06-300",
                "amenity": "pharmacy"
            },
            "geometry": {
                "type": "Point",
                "coordinates": [
                    20.884468000002162,
                    53.01768800001712
                ]
            }
        },
        {
            "type": "Feature",
            "properties": {
                "ref:csioz": 1091128,
                "name": "Centrum",
                "addr:street": "Plac Tadeusza Kościuszki",
                "addr:housenumber": "22",
                "addr:city": "Chorzele",
                "addr:postcode": "06-330",
                "amenity": "pharmacy"
            },
            "geometry": {
                "type": "Point",
                "coordinates": [
                    20.896517763949756,
                    53.258450631168635
                ]
            }
        },
        {
            "type": "Feature",
            "properties": {
                "ref:csioz": 1091190,
                "name": "Panaceum",
                "addr:street": "Żwirki i Wigury",
                "addr:housenumber": "5",
                "addr:city": "Przasnysz",
                "addr:postcode": "06-300",
                "amenity": "pharmacy"
            },
            "geometry": {
                "type": "Point",
                "coordinates": [
                    20.89574854582351,
                    53.020476567081325
                ]
            }
        },
        {
            "type": "Feature",
            "properties": {
                "ref:csioz": 1091342,
                "name": "Doz Apteka. Dbam O Zdrowie. Elixir",
                "addr:street": "Orlika",
                "addr:housenumber": "18",
                "addr:city": "Przasnysz",
                "addr:postcode": "06-300",
                "amenity": "pharmacy"
            },
            "geometry": {
                "type": "Point",
                "coordinates": [
                    20.884383268419498,
                    53.024545082050864
                ]
            }
        },
        {
            "type": "Feature",
            "properties": {
                "ref:csioz": 1091425,
                "addr:street": "Grunwaldzka",
                "addr:housenumber": "50",
                "addr:city": "Chorzele",
                "addr:postcode": "06-330",
                "amenity": "pharmacy"
            },
            "geometry": {
                "type": "Point",
                "coordinates": [
                    20.897825034385527,
                    53.26257993952859
                ]
            }
        },
        {
            "type": "Feature",
            "properties": {
                "ref:csioz": 1091583,
                "addr:street": "Orlika",
                "addr:housenumber": "15",
                "addr:city": "Przasnysz",
                "addr:postcode": "06-300",
                "amenity": "pharmacy"
            },
            "geometry": {
                "type": "Point",
                "coordinates": [
                    20.887519359014426,
                    53.024413013125816
                ]
            }
        },
        {
            "type": "Feature",
            "properties": {
                "ref:csioz": 1091810,
                "addr:street": "Przasnyska",
                "addr:housenumber": "1",
                "addr:city": "Krzynowłoga Mała",
                "addr:postcode": "06-316",
                "amenity": "pharmacy"
            },
            "geometry": {
                "type": "Point",
                "coordinates": [
                    20.788344928946213,
                    53.152988611074946
                ]
            }
        },
        {
            "type": "Feature",
            "properties": {
                "ref:csioz": 1153223,
                "name": "Apteka Szpitalna",
                "addr:street": "Sadowa",
                "addr:housenumber": "9",
                "addr:city": "Przasnysz",
                "addr:postcode": "06-300",
                "amenity": "pharmacy"
            },
            "geometry": {
                "type": "Point",
                "coordinates": [
                    20.895377512585327,
                    53.02794789348502
                ]
            }
        },
        {
            "type": "Feature",
            "properties": {
                "ref:csioz": 1174584,
                "name": "Zakład Opiekuńczo-Leczniczy",
                "addr:street": "Świerczewo",
                "addr:housenumber": "9",
                "addr:city": "Przasnysz",
                "addr:postcode": "06-300",
                "amenity": "pharmacy"
            },
            "geometry": {
                "type": "Point",
                "coordinates": [
                    20.882489582885185,
                    53.02361146550899
                ]
            }
        },
        {
            "type": "Feature",
            "properties": {
                "ref:csioz": 1183915,
                "name": "Sokrates",
                "addr:street": "Leszno",
                "addr:housenumber": "1",
                "addr:flats": "1",
                "addr:city": "Przasnysz",
                "addr:postcode": "06-300",
                "amenity": "pharmacy"
            },
            "geometry": {
                "type": "Point",
                "coordinates": [
                    20.88503256591649,
                    53.0184270522451
                ]
            }
        },
        {
            "type": "Feature",
            "properties": {
                "ref:csioz": 1197623,
                "name": "Adonidis",
                "addr:street": "Rynek",
                "addr:housenumber": "8",
                "addr:city": "Przasnysz",
                "addr:postcode": "06-300",
                "amenity": "pharmacy"
            },
            "geometry": {
                "type": "Point",
                "coordinates": [
                    20.882109109324748,
                    53.02114575585004
                ]
            }
        },
        {
            "type": "Feature",
            "properties": {
                "ref:csioz": 1230637,
                "name": "\"Punkt Apteczny, Klewki 15\"",
                "addr:housenumber": "15",
                "addr:city": "Klewki",
                "addr:postcode": "10-687",
                "amenity": "pharmacy"
            },
            "geometry": {
                "type": "Point",
                "coordinates": [
                    20.84172672105565,
                    53.02220692056849
                ]
            }
        }
    ]
}