{
    "type": "FeatureCollection",
    "name": "JPT_KOD_JE_1203",
    "crs": {
        "type": "name",
        "properties": {
            "name": "urn:ogc:def:crs:EPSG::4326"
        }
    },
    "features": [
        {
            "type": "Feature",
            "properties": {
                "ref:csioz": 1034586,
                "addr:street": "Matejki",
                "addr:housenumber": "39",
                "addr:city": "Trzebinia",
                "addr:postcode": "32-541",
                "amenity": "pharmacy"
            },
            "geometry": {
                "type": "Point",
                "coordinates": [
                    19.443655000000113,
                    50.20171600001279
                ]
            }
        },
        {
            "type": "Feature",
            "properties": {
                "ref:csioz": 1034969,
                "addr:street": "Topolowa",
                "addr:housenumber": "2",
                "addr:city": "Bolęcin",
                "addr:postcode": "32-540",
                "amenity": "pharmacy"
            },
            "geometry": {
                "type": "Point",
                "coordinates": [
                    19.478233418592055,
                    50.114631249154534
                ]
            }
        },
        {
            "type": "Feature",
            "properties": {
                "ref:csioz": 1035233,
                "name": "Apteka Rodzinna",
                "addr:street": "Kościuszki",
                "addr:housenumber": "47",
                "addr:flats": "5",
                "addr:city": "Trzebinia",
                "addr:postcode": "32-540",
                "amenity": "pharmacy"
            },
            "geometry": {
                "type": "Point",
                "coordinates": [
                    19.459412444516435,
                    50.15705736377019
                ]
            }
        },
        {
            "type": "Feature",
            "properties": {
                "ref:csioz": 1056724,
                "name": "Apteka Dbam O Zdrowie",
                "addr:street": "Mieszka I",
                "addr:housenumber": "9B",
                "addr:city": "Chrzanów",
                "addr:postcode": "32-500",
                "amenity": "pharmacy"
            },
            "geometry": {
                "type": "Point",
                "coordinates": [
                    19.409319190882545,
                    50.14732987210625
                ]
            }
        },
        {
            "type": "Feature",
            "properties": {
                "ref:csioz": 1074710,
                "name": "Apteka Rodzinna",
                "addr:street": "kard. Wyszyńskiego",
                "addr:housenumber": "17A",
                "addr:city": "Chrzanów",
                "addr:postcode": "32-500",
                "amenity": "pharmacy"
            },
            "geometry": {
                "type": "Point",
                "coordinates": [
                    19.418479683304184,
                    50.143014462249845
                ]
            }
        },
        {
            "type": "Feature",
            "properties": {
                "ref:csioz": 1074764,
                "name": "Diafar",
                "addr:street": "Kościuszki",
                "addr:housenumber": "18",
                "addr:city": "Chrzanów",
                "addr:postcode": "32-500",
                "amenity": "pharmacy"
            },
            "geometry": {
                "type": "Point",
                "coordinates": [
                    19.398678481340923,
                    50.1408503471933
                ]
            }
        },
        {
            "type": "Feature",
            "properties": {
                "ref:csioz": 1077360,
                "name": "Centrum - Centrum Tanich Leków",
                "addr:street": "Rynek",
                "addr:housenumber": "11",
                "addr:city": "Chrzanów",
                "addr:postcode": "32-500",
                "amenity": "pharmacy"
            },
            "geometry": {
                "type": "Point",
                "coordinates": [
                    19.40585946753846,
                    50.14201417486732
                ]
            }
        },
        {
            "type": "Feature",
            "properties": {
                "ref:csioz": 1114141,
                "name": "Nowoczesne Centrum Medyczne Okoklinik",
                "addr:street": "Topolowa",
                "addr:housenumber": "16",
                "addr:city": "Chrzanów",
                "addr:postcode": "32-500",
                "amenity": "pharmacy"
            },
            "geometry": {
                "type": "Point",
                "coordinates": [
                    19.42853620627529,
                    50.137122565869504
                ]
            }
        },
        {
            "type": "Feature",
            "properties": {
                "ref:csioz": 1114285,
                "name": "Zakład Opiekuńczo-Leczniczy Dla Przewlekle Chorych Prowadzony Przez Zgromadzenie Sióstr Służebniczek Najświętszej Maryi Panny Niepokalanie Poczętej",
                "addr:street": "Śląska",
                "addr:housenumber": "62 a",
                "addr:city": "Chrzanów",
                "addr:postcode": "32-500",
                "amenity": "pharmacy"
            },
            "geometry": {
                "type": "Point",
                "coordinates": [
                    19.384667448731054,
                    50.14660889527157
                ]
            }
        },
        {
            "type": "Feature",
            "properties": {
                "ref:csioz": 1117713,
                "name": "Pod Złotą Gwiazdą",
                "addr:street": "Topolowa",
                "addr:housenumber": "16",
                "addr:flats": "20",
                "addr:city": "Chrzanów",
                "addr:postcode": "32-500",
                "amenity": "pharmacy"
            },
            "geometry": {
                "type": "Point",
                "coordinates": [
                    19.42853620627529,
                    50.137122565869504
                ]
            }
        },
        {
            "type": "Feature",
            "properties": {
                "ref:csioz": 1119207,
                "name": "Apteka Max Chrzanowskie Centrum Tanich Leków",
                "addr:street": "Trzebińska",
                "addr:housenumber": "35",
                "addr:city": "Chrzanów",
                "addr:postcode": "32-500",
                "amenity": "pharmacy"
            },
            "geometry": {
                "type": "Point",
                "coordinates": [
                    19.415761163656285,
                    50.14395277602979
                ]
            }
        },
        {
            "type": "Feature",
            "properties": {
                "ref:csioz": 1119566,
                "name": "Apteka Max Trzebińskie Centrum Tanich Leków",
                "addr:street": "Rynek",
                "addr:housenumber": "21",
                "addr:city": "Trzebinia",
                "addr:postcode": "32-540",
                "amenity": "pharmacy"
            },
            "geometry": {
                "type": "Point",
                "coordinates": [
                    19.471660568291522,
                    50.16002208884157
                ]
            }
        },
        {
            "type": "Feature",
            "properties": {
                "ref:csioz": 1121019,
                "name": "Apteka 4 Pory Roku",
                "addr:street": "Rynek",
                "addr:housenumber": "2",
                "addr:city": "Chrzanów",
                "addr:postcode": "32-500",
                "amenity": "pharmacy"
            },
            "geometry": {
                "type": "Point",
                "coordinates": [
                    19.405236063591236,
                    50.14275251209462
                ]
            }
        },
        {
            "type": "Feature",
            "properties": {
                "ref:csioz": 1185270,
                "name": "Apteka Słoneczna",
                "addr:street": "Aleja Henryka",
                "addr:housenumber": "21",
                "addr:city": "Chrzanów",
                "addr:postcode": "32-500",
                "amenity": "pharmacy"
            },
            "geometry": {
                "type": "Point",
                "coordinates": [
                    19.402223480941583,
                    50.14161193917117
                ]
            }
        },
        {
            "type": "Feature",
            "properties": {
                "ref:csioz": 1196276,
                "name": "\"Punkt Apteczny \"\"Młoszowa\"\"\"",
                "addr:street": "Krakowska",
                "addr:housenumber": "123",
                "addr:city": "Młoszowa",
                "addr:postcode": "32-546",
                "amenity": "pharmacy"
            },
            "geometry": {
                "type": "Point",
                "coordinates": [
                    19.490221421871908,
                    50.150770976580525
                ]
            }
        },
        {
            "type": "Feature",
            "properties": {
                "ref:csioz": 1218032,
                "name": "Pod Orłem – Na Sokoła",
                "addr:street": "Sokoła",
                "addr:housenumber": "19",
                "addr:city": "Chrzanów",
                "addr:postcode": "35-500",
                "amenity": "pharmacy"
            },
            "geometry": {
                "type": "Point",
                "coordinates": [
                    19.39943947689857,
                    50.13873472441145
                ]
            }
        },
        {
            "type": "Feature",
            "properties": {
                "ref:csioz": 1223160,
                "name": "\"Punkt Apteczny \"\"Myślachowice\"\"\"",
                "addr:street": "Trzebińska",
                "addr:housenumber": "7",
                "addr:city": "Myślachowice",
                "addr:postcode": "32-543",
                "amenity": "pharmacy"
            },
            "geometry": {
                "type": "Point",
                "coordinates": [
                    19.47836089715581,
                    50.183533806683336
                ]
            }
        },
        {
            "type": "Feature",
            "properties": {
                "ref:csioz": 1226543,
                "name": "Pod Orłem",
                "addr:street": "Wspólna",
                "addr:housenumber": "6",
                "addr:city": "Psary",
                "addr:postcode": "32-545",
                "amenity": "pharmacy"
            },
            "geometry": {
                "type": "Point",
                "coordinates": [
                    19.522074108556502,
                    50.1696505684195
                ]
            }
        },
        {
            "type": "Feature",
            "properties": {
                "ref:csioz": 1035784,
                "name": "Galen",
                "addr:street": "Adama Mickiewicza",
                "addr:housenumber": "15a",
                "addr:city": "Alwernia",
                "addr:postcode": "32-566",
                "amenity": "pharmacy"
            },
            "geometry": {
                "type": "Point",
                "coordinates": [
                    19.539539228665326,
                    50.05951815318897
                ]
            }
        },
        {
            "type": "Feature",
            "properties": {
                "ref:csioz": 1036184,
                "name": "Nova",
                "addr:street": "Juliana Niemcewicza",
                "addr:housenumber": "2",
                "addr:city": "Balin",
                "addr:postcode": "32-500",
                "amenity": "pharmacy"
            },
            "geometry": {
                "type": "Point",
                "coordinates": [
                    19.390093789374937,
                    50.165269475334526
                ]
            }
        },
        {
            "type": "Feature",
            "properties": {
                "ref:csioz": 1036665,
                "name": "Apteka Pod Orłem",
                "addr:street": "Piastowska",
                "addr:housenumber": "15",
                "addr:city": "Chrzanów",
                "addr:postcode": "32-500",
                "amenity": "pharmacy"
            },
            "geometry": {
                "type": "Point",
                "coordinates": [
                    19.40671952597205,
                    50.14436893615978
                ]
            }
        },
        {
            "type": "Feature",
            "properties": {
                "ref:csioz": 1037143,
                "name": "Nadzieja",
                "addr:street": "dr. Jana Gołąba",
                "addr:housenumber": "1",
                "addr:city": "Babice",
                "addr:postcode": "32-551",
                "amenity": "pharmacy"
            },
            "geometry": {
                "type": "Point",
                "coordinates": [
                    19.450494835244836,
                    50.07073037189358
                ]
            }
        },
        {
            "type": "Feature",
            "properties": {
                "ref:csioz": 1042272,
                "addr:street": "Mały Rynek",
                "addr:housenumber": "17",
                "addr:city": "Trzebinia",
                "addr:postcode": "32-540",
                "amenity": "pharmacy"
            },
            "geometry": {
                "type": "Point",
                "coordinates": [
                    19.467136308900496,
                    50.15984846150816
                ]
            }
        },
        {
            "type": "Feature",
            "properties": {
                "ref:csioz": 1042341,
                "addr:street": "Janusza Korczaka",
                "addr:housenumber": "2",
                "addr:city": "Płaza",
                "addr:postcode": "32-552",
                "amenity": "pharmacy"
            },
            "geometry": {
                "type": "Point",
                "coordinates": [
                    19.458743732499414,
                    50.1015307111629
                ]
            }
        },
        {
            "type": "Feature",
            "properties": {
                "ref:csioz": 1115706,
                "name": "Centrum - Centrum Tanich Leków",
                "addr:street": "Aleja Henryka",
                "addr:housenumber": "35",
                "addr:city": "Chrzanów",
                "addr:postcode": "32-500",
                "amenity": "pharmacy"
            },
            "geometry": {
                "type": "Point",
                "coordinates": [
                    19.401585253318004,
                    50.140171575056115
                ]
            }
        },
        {
            "type": "Feature",
            "properties": {
                "ref:csioz": 1120599,
                "name": "Hygieia Centrum Tanich Leków",
                "addr:street": "Władysława Sikorskiego",
                "addr:housenumber": "1D",
                "addr:city": "Chrzanów",
                "addr:postcode": "32-500",
                "amenity": "pharmacy"
            },
            "geometry": {
                "type": "Point",
                "coordinates": [
                    19.41431261394068,
                    50.14398622561896
                ]
            }
        },
        {
            "type": "Feature",
            "properties": {
                "ref:csioz": 1123234,
                "name": "„Centrum Dla Zdrowia”",
                "addr:street": "Zbigniewa Gęsikowskiego",
                "addr:housenumber": "16",
                "addr:city": "Alwernia",
                "addr:postcode": "32-566",
                "amenity": "pharmacy"
            },
            "geometry": {
                "type": "Point",
                "coordinates": [
                    19.54188733428548,
                    50.06660967658805
                ]
            }
        },
        {
            "type": "Feature",
            "properties": {
                "ref:csioz": 1166591,
                "name": "Apteka Rodzinna",
                "addr:street": "Jana Pęckowskiego",
                "addr:housenumber": "3",
                "addr:city": "Chrzanów",
                "addr:postcode": "32-500",
                "amenity": "pharmacy"
            },
            "geometry": {
                "type": "Point",
                "coordinates": [
                    19.411650587966616,
                    50.129813259433114
                ]
            }
        },
        {
            "type": "Feature",
            "properties": {
                "ref:csioz": 1181638,
                "addr:street": "Osiedle Widokowe",
                "addr:housenumber": "19",
                "addr:city": "Trzebinia",
                "addr:postcode": "32-540",
                "amenity": "pharmacy"
            },
            "geometry": {
                "type": "Point",
                "coordinates": [
                    19.475632781484414,
                    50.15918413696267
                ]
            }
        },
        {
            "type": "Feature",
            "properties": {
                "ref:csioz": 1185340,
                "name": "Raj-Med Spółka Z Ograniczoną Odpowiedzialnością Niepubliczny Zakład Opekuńczo-Leczniczy",
                "addr:street": "Generała Sikorskiego",
                "addr:housenumber": "71",
                "addr:city": "Trzebinia",
                "addr:postcode": "32-541",
                "amenity": "pharmacy"
            },
            "geometry": {
                "type": "Point",
                "coordinates": [
                    19.43365300000012,
                    50.16746000001274
                ]
            }
        },
        {
            "type": "Feature",
            "properties": {
                "ref:csioz": 1193851,
                "name": "Szpital Specjalistyczny",
                "addr:street": "Topolowa",
                "addr:housenumber": "16",
                "addr:city": "Chrzanów",
                "addr:postcode": "32-500",
                "amenity": "pharmacy"
            },
            "geometry": {
                "type": "Point",
                "coordinates": [
                    19.42853620627529,
                    50.137122565869504
                ]
            }
        },
        {
            "type": "Feature",
            "properties": {
                "ref:csioz": 1195965,
                "name": "Apteka Rodzinna",
                "addr:street": "Marii Skłodowskiej-Curie",
                "addr:housenumber": "6A",
                "addr:city": "Alwernia",
                "addr:postcode": "32-566",
                "amenity": "pharmacy"
            },
            "geometry": {
                "type": "Point",
                "coordinates": [
                    19.543112229510957,
                    50.06411106542842
                ]
            }
        },
        {
            "type": "Feature",
            "properties": {
                "ref:csioz": 1197403,
                "name": "Małopolskie Centrum Sercowo-Naczyniowe Paks - Chrzanów",
                "addr:street": "Topolowa",
                "addr:housenumber": "16",
                "addr:city": "Chrzanów",
                "addr:postcode": "32-500",
                "amenity": "pharmacy"
            },
            "geometry": {
                "type": "Point",
                "coordinates": [
                    19.42853620627529,
                    50.137122565869504
                ]
            }
        },
        {
            "type": "Feature",
            "properties": {
                "ref:csioz": 1200320,
                "name": "Apteka Rodzinna",
                "addr:street": "Wiśniowa",
                "addr:housenumber": "14",
                "addr:city": "Trzebinia",
                "addr:postcode": "32-540",
                "amenity": "pharmacy"
            },
            "geometry": {
                "type": "Point",
                "coordinates": [
                    19.47728021634916,
                    50.15894980750782
                ]
            }
        },
        {
            "type": "Feature",
            "properties": {
                "ref:csioz": 1206489,
                "name": "Hygieia",
                "addr:street": "Harcerska",
                "addr:housenumber": "13",
                "addr:city": "Trzebinia",
                "addr:postcode": "32-540",
                "amenity": "pharmacy"
            },
            "geometry": {
                "type": "Point",
                "coordinates": [
                    19.459495336193733,
                    50.15950602865996
                ]
            }
        },
        {
            "type": "Feature",
            "properties": {
                "ref:csioz": 1219728,
                "name": "Apteka Codzienna",
                "addr:street": "Śląska",
                "addr:housenumber": "9",
                "addr:city": "Chrzanów",
                "addr:postcode": "32-500",
                "amenity": "pharmacy"
            },
            "geometry": {
                "type": "Point",
                "coordinates": [
                    19.404042630302598,
                    50.14377446667863
                ]
            }
        },
        {
            "type": "Feature",
            "properties": {
                "ref:csioz": 1220323,
                "name": "Hygieia",
                "addr:street": "Kościuszki",
                "addr:housenumber": "43A",
                "addr:city": "Trzebinia",
                "addr:postcode": "32-540",
                "amenity": "pharmacy"
            },
            "geometry": {
                "type": "Point",
                "coordinates": [
                    19.461594136773968,
                    50.1571067840396
                ]
            }
        },
        {
            "type": "Feature",
            "properties": {
                "ref:csioz": 1226087,
                "name": "Punkt Apteczny Zagórze",
                "addr:street": "Marszałka Józefa Piłsudskiego",
                "addr:housenumber": "198A",
                "addr:city": "Zagórze",
                "addr:postcode": "32-555",
                "amenity": "pharmacy"
            },
            "geometry": {
                "type": "Point",
                "coordinates": [
                    19.40164460991701,
                    50.09363641810189
                ]
            }
        },
        {
            "type": "Feature",
            "properties": {
                "ref:csioz": 1113228,
                "name": "Pod Złotą Gwiazdą",
                "addr:street": "Narutowicza",
                "addr:housenumber": "8",
                "addr:city": "Trzebinia",
                "addr:postcode": "32-540",
                "amenity": "pharmacy"
            },
            "geometry": {
                "type": "Point",
                "coordinates": [
                    19.46982609505735,
                    50.159984340223524
                ]
            }
        },
        {
            "type": "Feature",
            "properties": {
                "ref:csioz": 1196796,
                "name": "\"Apteka \"\"Nowa\"\"\"",
                "addr:street": "Orkana",
                "addr:housenumber": "21 D",
                "addr:city": "Chrzanów",
                "addr:postcode": "32-500",
                "amenity": "pharmacy"
            },
            "geometry": {
                "type": "Point",
                "coordinates": [
                    19.40541340340512,
                    50.12807470150125
                ]
            }
        },
        {
            "type": "Feature",
            "properties": {
                "ref:csioz": 1110827,
                "addr:housenumber": "6",
                "addr:city": "Okleśna",
                "addr:postcode": "32-567",
                "amenity": "pharmacy"
            },
            "geometry": {
                "type": "Point",
                "coordinates": [
                    19.534017050967805,
                    50.0269204742104
                ]
            }
        },
        {
            "type": "Feature",
            "properties": {
                "ref:csioz": 1196213,
                "name": "Zdrowie Sp. Z O.O.",
                "addr:street": "Nadwiślańska",
                "addr:housenumber": "43",
                "addr:city": "Mętków",
                "addr:postcode": "32-551",
                "amenity": "pharmacy"
            },
            "geometry": {
                "type": "Point",
                "coordinates": [
                    19.3725970401771,
                    50.04934074747713
                ]
            }
        },
        {
            "type": "Feature",
            "properties": {
                "ref:csioz": 1209315,
                "addr:street": "Jana Pawła II",
                "addr:housenumber": "16",
                "addr:city": "Jankowice",
                "addr:postcode": "32-551",
                "amenity": "pharmacy"
            },
            "geometry": {
                "type": "Point",
                "coordinates": [
                    19.440076248243116,
                    50.04604183317849
                ]
            }
        },
        {
            "type": "Feature",
            "properties": {
                "ref:csioz": 1038734,
                "addr:street": "Bartosza Głowackiego",
                "addr:housenumber": "8",
                "addr:city": "Libiąż",
                "addr:postcode": "32-590",
                "amenity": "pharmacy"
            },
            "geometry": {
                "type": "Point",
                "coordinates": [
                    19.329292498095295,
                    50.10492348028824
                ]
            }
        },
        {
            "type": "Feature",
            "properties": {
                "ref:csioz": 1074573,
                "addr:street": "Oleńki",
                "addr:housenumber": "1",
                "addr:city": "Żarki",
                "addr:postcode": "32-593",
                "amenity": "pharmacy"
            },
            "geometry": {
                "type": "Point",
                "coordinates": [
                    19.35241411084749,
                    50.08216414384078
                ]
            }
        },
        {
            "type": "Feature",
            "properties": {
                "ref:csioz": 1115960,
                "name": "Pod Złotą Gwiazdą",
                "addr:street": "Górnicza",
                "addr:housenumber": "5",
                "addr:city": "Libiąż",
                "addr:postcode": "32-590",
                "amenity": "pharmacy"
            },
            "geometry": {
                "type": "Point",
                "coordinates": [
                    19.330010572541905,
                    50.098900291449894
                ]
            }
        },
        {
            "type": "Feature",
            "properties": {
                "ref:csioz": 1076474,
                "name": "Doz Apteka. Dbam O Zdrowie.",
                "addr:street": "9 Maja",
                "addr:housenumber": "2",
                "addr:city": "Libiąż",
                "addr:postcode": "32-590",
                "amenity": "pharmacy"
            },
            "geometry": {
                "type": "Point",
                "coordinates": [
                    19.328755499743515,
                    50.10459980175671
                ]
            }
        },
        {
            "type": "Feature",
            "properties": {
                "ref:csioz": 1186396,
                "name": "Apteka Pod Orłem",
                "addr:street": "1 Maja",
                "addr:housenumber": "7",
                "addr:flats": "2",
                "addr:city": "Libiąż",
                "addr:postcode": "32-590",
                "amenity": "pharmacy"
            },
            "geometry": {
                "type": "Point",
                "coordinates": [
                    19.330251392745968,
                    50.105540111436575
                ]
            }
        },
        {
            "type": "Feature",
            "properties": {
                "ref:csioz": 1194477,
                "name": "Hygieia",
                "addr:street": "Ignacego Paderewskiego",
                "addr:housenumber": "1",
                "addr:city": "Libiąż",
                "addr:postcode": "32-590",
                "amenity": "pharmacy"
            },
            "geometry": {
                "type": "Point",
                "coordinates": [
                    19.323230414002218,
                    50.10291996631594
                ]
            }
        },
        {
            "type": "Feature",
            "properties": {
                "ref:csioz": 1194489,
                "name": "Hygieia",
                "addr:street": "Oświęcimska",
                "addr:housenumber": "50",
                "addr:city": "Libiąż",
                "addr:postcode": "32-590",
                "amenity": "pharmacy"
            },
            "geometry": {
                "type": "Point",
                "coordinates": [
                    19.31357848168797,
                    50.10330781196548
                ]
            }
        }
    ]
}