{
    "type": "FeatureCollection",
    "name": "JPT_KOD_JE_3207",
    "crs": {
        "type": "name",
        "properties": {
            "name": "urn:ogc:def:crs:EPSG::4326"
        }
    },
    "features": [
        {
            "type": "Feature",
            "properties": {
                "ref:csioz": 1168838,
                "addr:housenumber": "73",
                "addr:city": "Świerzno",
                "addr:postcode": "72-405",
                "amenity": "pharmacy"
            },
            "geometry": {
                "type": "Point",
                "coordinates": [
                    14.965291248586158,
                    53.964931870077685
                ]
            }
        },
        {
            "type": "Feature",
            "properties": {
                "ref:csioz": 1219018,
                "name": "Efekt",
                "addr:street": "Zwycięstwa",
                "addr:housenumber": "42C",
                "addr:city": "Golczewo",
                "addr:postcode": "72-410",
                "amenity": "pharmacy"
            },
            "geometry": {
                "type": "Point",
                "coordinates": [
                    14.974200670992504,
                    53.822265884732815
                ]
            }
        },
        {
            "type": "Feature",
            "properties": {
                "ref:csioz": 1220066,
                "name": "Apteka Sw. Piotra",
                "addr:street": "Zwycięstwa",
                "addr:housenumber": "24",
                "addr:city": "Golczewo",
                "addr:postcode": "72-410",
                "amenity": "pharmacy"
            },
            "geometry": {
                "type": "Point",
                "coordinates": [
                    14.976520869921112,
                    53.82297210256925
                ]
            }
        },
        {
            "type": "Feature",
            "properties": {
                "ref:csioz": 1125870,
                "name": "\"Szpital Uzdrowiskowy \"\"Mieszko\"\"\"",
                "addr:street": "Wojska Polskiego",
                "addr:housenumber": "2",
                "addr:city": "Kamień Pomorski",
                "addr:postcode": "72-400",
                "amenity": "pharmacy"
            },
            "geometry": {
                "type": "Point",
                "coordinates": [
                    14.774752900163769,
                    53.97010091373814
                ]
            }
        },
        {
            "type": "Feature",
            "properties": {
                "ref:csioz": 1126256,
                "name": "Vitaminka",
                "addr:street": "Zwycięstwa",
                "addr:housenumber": "3A",
                "addr:city": "Kołczewo",
                "addr:postcode": "72-514",
                "amenity": "pharmacy"
            },
            "geometry": {
                "type": "Point",
                "coordinates": [
                    14.617704954241214,
                    53.96848783101599
                ]
            }
        },
        {
            "type": "Feature",
            "properties": {
                "ref:csioz": 1152151,
                "name": "Bursztynowa",
                "addr:street": "Kochanowskiego",
                "addr:housenumber": "3",
                "addr:city": "Dziwnów",
                "addr:postcode": "72-420",
                "amenity": "pharmacy"
            },
            "geometry": {
                "type": "Point",
                "coordinates": [
                    14.748505714834133,
                    54.02406958815418
                ]
            }
        },
        {
            "type": "Feature",
            "properties": {
                "ref:csioz": 1152377,
                "name": "Morska",
                "addr:street": "Ignacego Krasickiego",
                "addr:housenumber": "10b",
                "addr:city": "Międzyzdroje",
                "addr:postcode": "72-500",
                "amenity": "pharmacy"
            },
            "geometry": {
                "type": "Point",
                "coordinates": [
                    14.450906999906119,
                    53.93084600002223
                ]
            }
        },
        {
            "type": "Feature",
            "properties": {
                "ref:csioz": 1152470,
                "name": "Pastylka",
                "addr:street": "Mikołaja Kopernika",
                "addr:housenumber": "28",
                "addr:city": "Kamień Pomorski",
                "addr:postcode": "72-400",
                "amenity": "pharmacy"
            },
            "geometry": {
                "type": "Point",
                "coordinates": [
                    14.765626233698468,
                    53.97003321716485
                ]
            }
        },
        {
            "type": "Feature",
            "properties": {
                "ref:csioz": 1168644,
                "name": "Apteka Na Zamkowej",
                "addr:street": "Zamkowa",
                "addr:housenumber": "17",
                "addr:city": "Wolin",
                "addr:postcode": "72-510",
                "amenity": "pharmacy"
            },
            "geometry": {
                "type": "Point",
                "coordinates": [
                    14.61464780273854,
                    53.84517246753334
                ]
            }
        },
        {
            "type": "Feature",
            "properties": {
                "ref:csioz": 1168689,
                "name": "Euro-Apteka",
                "addr:street": "Gryfa Pomorskiego",
                "addr:housenumber": "25",
                "addr:city": "Międzyzdroje",
                "addr:postcode": "72-500",
                "amenity": "pharmacy"
            },
            "geometry": {
                "type": "Point",
                "coordinates": [
                    14.446271605274204,
                    53.928011054668545
                ]
            }
        },
        {
            "type": "Feature",
            "properties": {
                "ref:csioz": 1214908,
                "name": "Doz Apteka. Dbam O Zdrowie. Śródmiejska",
                "addr:street": "Adama Mickiewicza",
                "addr:housenumber": "22",
                "addr:city": "Kamień Pomorski",
                "addr:postcode": "72-400",
                "amenity": "pharmacy"
            },
            "geometry": {
                "type": "Point",
                "coordinates": [
                    14.773507801524369,
                    53.9714842309429
                ]
            }
        },
        {
            "type": "Feature",
            "properties": {
                "ref:csioz": 1126354,
                "addr:street": "Bałtycka",
                "addr:housenumber": "2",
                "addr:city": "Międzywodzie",
                "addr:postcode": "72-415",
                "amenity": "pharmacy"
            },
            "geometry": {
                "type": "Point",
                "coordinates": [
                    14.695855197119052,
                    54.00644274910301
                ]
            }
        },
        {
            "type": "Feature",
            "properties": {
                "ref:csioz": 1138988,
                "name": "Szpital Św. Jerzego W Kamieniu Pomorskim",
                "addr:street": "Szpitalna",
                "addr:housenumber": "10",
                "addr:city": "Kamień Pomorski",
                "addr:postcode": "72-400",
                "amenity": "pharmacy"
            },
            "geometry": {
                "type": "Point",
                "coordinates": [
                    14.777815535252554,
                    53.969262226893804
                ]
            }
        },
        {
            "type": "Feature",
            "properties": {
                "ref:csioz": 1151426,
                "name": "\"Apteka Cef@Rm 36,6\"",
                "addr:street": "Dziwnowska",
                "addr:housenumber": "1A",
                "addr:city": "Kamień Pomorski",
                "addr:postcode": "72-400",
                "amenity": "pharmacy"
            },
            "geometry": {
                "type": "Point",
                "coordinates": [
                    14.773708090774866,
                    53.96836688988888
                ]
            }
        },
        {
            "type": "Feature",
            "properties": {
                "ref:csioz": 1168521,
                "name": "Weronika Ii",
                "addr:street": "Słowiańska",
                "addr:housenumber": "1C",
                "addr:city": "Wolin",
                "addr:postcode": "72-510",
                "amenity": "pharmacy"
            },
            "geometry": {
                "type": "Point",
                "coordinates": [
                    14.61248405769567,
                    53.84505857503302
                ]
            }
        },
        {
            "type": "Feature",
            "properties": {
                "ref:csioz": 1168964,
                "name": "Avena",
                "addr:street": "Adama Mickiewicza",
                "addr:housenumber": "39a",
                "addr:city": "Kamień Pomorski",
                "addr:postcode": "72-400",
                "amenity": "pharmacy"
            },
            "geometry": {
                "type": "Point",
                "coordinates": [
                    14.773939097313777,
                    53.971567088998555
                ]
            }
        },
        {
            "type": "Feature",
            "properties": {
                "ref:csioz": 1187217,
                "name": "Apteka Malwa",
                "addr:street": "Gryfa Pomorskiego",
                "addr:housenumber": "7",
                "addr:city": "Międzyzdroje",
                "addr:postcode": "72-500",
                "amenity": "pharmacy"
            },
            "geometry": {
                "type": "Point",
                "coordinates": [
                    14.448700376328517,
                    53.92851043194724
                ]
            }
        },
        {
            "type": "Feature",
            "properties": {
                "ref:csioz": 1191440,
                "name": "Doz Apteka. Dbam O Zdrowie. Staromiejska",
                "addr:street": "Bałtycka",
                "addr:housenumber": "1",
                "addr:city": "Kamień Pomorski",
                "addr:postcode": "72-400",
                "amenity": "pharmacy"
            },
            "geometry": {
                "type": "Point",
                "coordinates": [
                    14.768153526811753,
                    53.97237187399074
                ]
            }
        },
        {
            "type": "Feature",
            "properties": {
                "ref:csioz": 1214810,
                "name": "Dr.Max",
                "addr:street": "Szpitalna",
                "addr:housenumber": "10",
                "addr:city": "Kamień Pomorski",
                "addr:postcode": "72-400",
                "amenity": "pharmacy"
            },
            "geometry": {
                "type": "Point",
                "coordinates": [
                    14.777815535252554,
                    53.969262226893804
                ]
            }
        },
        {
            "type": "Feature",
            "properties": {
                "ref:csioz": 1218477,
                "name": "Doz Apteka. Dbam O Zdrowie. Staromiejska",
                "addr:street": "Gryfitów",
                "addr:housenumber": "2A",
                "addr:city": "Wolin",
                "addr:postcode": "72-510",
                "amenity": "pharmacy"
            },
            "geometry": {
                "type": "Point",
                "coordinates": [
                    14.612712448451486,
                    53.84575982088812
                ]
            }
        },
        {
            "type": "Feature",
            "properties": {
                "ref:csioz": 1219132,
                "name": "Vitaminka",
                "addr:street": "Armii Krajowej",
                "addr:housenumber": "2D",
                "addr:city": "Międzywodzie",
                "addr:postcode": "72-515",
                "amenity": "pharmacy"
            },
            "geometry": {
                "type": "Point",
                "coordinates": [
                    14.698918566726844,
                    54.00538405160885
                ]
            }
        },
        {
            "type": "Feature",
            "properties": {
                "ref:csioz": 1220532,
                "name": "Apteka Centrum Zdrowia Miętowa",
                "addr:street": "Adama Mickiewicza",
                "addr:housenumber": "2a",
                "addr:city": "Wolin",
                "addr:postcode": "72-510",
                "amenity": "pharmacy"
            },
            "geometry": {
                "type": "Point",
                "coordinates": [
                    14.611800532874883,
                    53.846666250415616
                ]
            }
        }
    ]
}