{
    "type": "FeatureCollection",
    "name": "JPT_KOD_JE_1611",
    "features": [
        {
            "type": "Feature",
            "properties": {
                "ref:csioz": 1107891,
                "addr:street": "Narutowicza",
                "addr:housenumber": "2",
                "addr:city": "Leśnica",
                "addr:postcode": "47-150",
                "amenity": "pharmacy"
            },
            "geometry": {
                "type": "Point",
                "coordinates": [
                    18.188090737832283,
                    50.43020485064746
                ]
            }
        },
        {
            "type": "Feature",
            "properties": {
                "ref:csioz": 1109387,
                "name": "Vita",
                "addr:street": "Jordanowska",
                "addr:housenumber": "1a",
                "addr:city": "Strzelce Opolskie",
                "addr:postcode": "47-100",
                "amenity": "pharmacy"
            },
            "geometry": {
                "type": "Point",
                "coordinates": [
                    18.303653841709938,
                    50.512654225010465
                ]
            }
        },
        {
            "type": "Feature",
            "properties": {
                "ref:csioz": 1109412,
                "name": "Doz Apteka.Dbam O Zdrowie",
                "addr:street": "Marka Prawego",
                "addr:housenumber": "7",
                "addr:flats": "1E",
                "addr:city": "Strzelce Opolskie",
                "addr:postcode": "47-100",
                "amenity": "pharmacy"
            },
            "geometry": {
                "type": "Point",
                "coordinates": [
                    18.304739309508317,
                    50.50998519511669
                ]
            }
        },
        {
            "type": "Feature",
            "properties": {
                "ref:csioz": 1109420,
                "name": "Apteka Gemini",
                "addr:street": "Opolska",
                "addr:housenumber": "6",
                "addr:city": "Strzelce Opolskie",
                "addr:postcode": "47-100",
                "amenity": "pharmacy"
            },
            "geometry": {
                "type": "Point",
                "coordinates": [
                    18.2982438416004,
                    50.51158519523237
                ]
            }
        },
        {
            "type": "Feature",
            "properties": {
                "ref:csioz": 1110065,
                "addr:street": "Kościelna",
                "addr:housenumber": "2",
                "addr:city": "Rozmierz",
                "addr:postcode": "47-171",
                "amenity": "pharmacy"
            },
            "geometry": {
                "type": "Point",
                "coordinates": [
                    18.240500204652538,
                    50.55908739473494
                ]
            }
        },
        {
            "type": "Feature",
            "properties": {
                "ref:csioz": 1124957,
                "name": "Pro-Pharma Sp. Z O.O.",
                "addr:street": "Stanisława Moniuszki",
                "addr:housenumber": "16",
                "addr:city": "Strzelce Opolskie",
                "addr:postcode": "47-100",
                "amenity": "pharmacy"
            },
            "geometry": {
                "type": "Point",
                "coordinates": [
                    18.310903227296432,
                    50.51088149827629
                ]
            }
        },
        {
            "type": "Feature",
            "properties": {
                "ref:csioz": 1182127,
                "name": "Apteka Słoneczna",
                "addr:street": "Rynek",
                "addr:housenumber": "4",
                "addr:flats": "2",
                "addr:city": "Strzelce Opolskie",
                "addr:postcode": "47-100",
                "amenity": "pharmacy"
            },
            "geometry": {
                "type": "Point",
                "coordinates": [
                    18.299960440918184,
                    50.51071579525148
                ]
            }
        },
        {
            "type": "Feature",
            "properties": {
                "ref:csioz": 1215953,
                "name": "Libra",
                "addr:street": "os. Piastów Śląskich",
                "addr:housenumber": "21",
                "addr:city": "Strzelce Opolskie",
                "addr:postcode": "47-100",
                "amenity": "pharmacy"
            },
            "geometry": {
                "type": "Point",
                "coordinates": [
                    18.288614522891308,
                    50.50687835457691
                ]
            }
        },
        {
            "type": "Feature",
            "properties": {
                "ref:csioz": 1107221,
                "name": "Vademecum",
                "addr:street": "Powstańców Śląskich",
                "addr:housenumber": "12",
                "addr:city": "Izbicko",
                "addr:postcode": "47-180",
                "amenity": "pharmacy"
            },
            "geometry": {
                "type": "Point",
                "coordinates": [
                    18.15566047429198,
                    50.57273782878427
                ]
            }
        },
        {
            "type": "Feature",
            "properties": {
                "ref:csioz": 1110200,
                "name": "Apteka Szpitalna Szpitala Powiatowego Im. Prałata J. Glowatzkiego W Strzelcach Opolskich",
                "addr:street": "Opolska",
                "addr:housenumber": "36A",
                "addr:city": "Strzelce Opolskie",
                "addr:postcode": "47-100",
                "amenity": "pharmacy"
            },
            "geometry": {
                "type": "Point",
                "coordinates": [
                    18.291457919156514,
                    50.51521440073692
                ]
            }
        },
        {
            "type": "Feature",
            "properties": {
                "ref:csioz": 1199560,
                "name": "Multifarm Opolskie Apteki",
                "addr:street": "Juliusza Ligonia",
                "addr:housenumber": "1A",
                "addr:city": "Strzelce Opolskie",
                "addr:postcode": "47-100",
                "amenity": "pharmacy"
            },
            "geometry": {
                "type": "Point",
                "coordinates": [
                    18.296760265620172,
                    50.511891720710175
                ]
            }
        },
        {
            "type": "Feature",
            "properties": {
                "ref:csioz": 1228137,
                "addr:street": "Młyńska",
                "addr:housenumber": "2",
                "addr:city": "Kadłub",
                "addr:postcode": "47-175",
                "amenity": "pharmacy"
            },
            "geometry": {
                "type": "Point",
                "coordinates": [
                    18.26445145459975,
                    50.61077008896958
                ]
            }
        },
        {
            "type": "Feature",
            "properties": {
                "ref:csioz": 1109448,
                "name": "Dr. Max",
                "addr:street": "Piastów Śląskich",
                "addr:housenumber": "15",
                "addr:city": "Strzelce Opolskie",
                "addr:postcode": "47-100",
                "amenity": "pharmacy"
            },
            "geometry": {
                "type": "Point",
                "coordinates": [
                    18.286801245481975,
                    50.506560613879586
                ]
            }
        },
        {
            "type": "Feature",
            "properties": {
                "ref:csioz": 1109461,
                "name": "Apteka Śląska",
                "addr:street": "Stefana Żeromskiego",
                "addr:housenumber": "9",
                "addr:city": "Strzelce Opolskie",
                "addr:postcode": "47-100",
                "amenity": "pharmacy"
            },
            "geometry": {
                "type": "Point",
                "coordinates": [
                    18.303643521718403,
                    50.51142096132082
                ]
            }
        },
        {
            "type": "Feature",
            "properties": {
                "ref:csioz": 1230773,
                "name": "Punkt Apteczny – Maria Przygodzka",
                "addr:street": "Szkolna",
                "addr:housenumber": "3",
                "addr:city": "Leśnica",
                "addr:postcode": "34-406",
                "amenity": "pharmacy"
            },
            "geometry": {
                "type": "Point",
                "coordinates": [
                    18.179295780015224,
                    50.42838443095625
                ]
            }
        },
        {
            "type": "Feature",
            "properties": {
                "ref:csioz": 1177456,
                "name": "Dobra Apteka",
                "addr:street": "Opolska",
                "addr:housenumber": "55",
                "addr:flats": "2",
                "addr:city": "Zawadzkie",
                "addr:postcode": "47-120",
                "amenity": "pharmacy"
            },
            "geometry": {
                "type": "Point",
                "coordinates": [
                    18.486384594838473,
                    50.60385651234651
                ]
            }
        },
        {
            "type": "Feature",
            "properties": {
                "ref:csioz": 1109602,
                "name": "\"Apteka Cef@Rm 36,6\"",
                "addr:street": "Dworcowa",
                "addr:housenumber": "6",
                "addr:city": "Zawadzkie",
                "addr:postcode": "47-120",
                "amenity": "pharmacy"
            },
            "geometry": {
                "type": "Point",
                "coordinates": [
                    18.475260471038798,
                    50.6092782655975
                ]
            }
        },
        {
            "type": "Feature",
            "properties": {
                "ref:csioz": 1109628,
                "name": "\"\"\"Apteka Gemini\"\"\"",
                "addr:street": "Opolska",
                "addr:housenumber": "34",
                "addr:city": "Zawadzkie",
                "addr:postcode": "47-120",
                "amenity": "pharmacy"
            },
            "geometry": {
                "type": "Point",
                "coordinates": [
                    18.479363424451968,
                    50.607764559895315
                ]
            }
        },
        {
            "type": "Feature",
            "properties": {
                "ref:csioz": 1109631,
                "name": "Apteka Nowa",
                "addr:street": "Opolska",
                "addr:housenumber": "70",
                "addr:city": "Zawadzkie",
                "addr:postcode": "47-120",
                "amenity": "pharmacy"
            },
            "geometry": {
                "type": "Point",
                "coordinates": [
                    18.4863373617206,
                    50.60276391850754
                ]
            }
        },
        {
            "type": "Feature",
            "properties": {
                "ref:csioz": 1109742,
                "name": "Grzybek",
                "addr:street": "Centawska",
                "addr:housenumber": "2",
                "addr:city": "Błotnica Strzelecka",
                "addr:postcode": "47-100",
                "amenity": "pharmacy"
            },
            "geometry": {
                "type": "Point",
                "coordinates": [
                    18.408911803834595,
                    50.48996173194197
                ]
            }
        },
        {
            "type": "Feature",
            "properties": {
                "ref:csioz": 1166455,
                "name": "Apteka Prima Robert Buszman",
                "addr:street": "Stara Kolonia",
                "addr:housenumber": "16",
                "addr:city": "Jemielnica",
                "addr:postcode": "47-133",
                "amenity": "pharmacy"
            },
            "geometry": {
                "type": "Point",
                "coordinates": [
                    18.38104572712033,
                    50.54232056153913
                ]
            }
        },
        {
            "type": "Feature",
            "properties": {
                "ref:csioz": 1177205,
                "name": "Apteka Goździkowej",
                "addr:street": "1 Maja",
                "addr:housenumber": "13B",
                "addr:flats": "2",
                "addr:city": "Ujazd",
                "addr:postcode": "47-143",
                "amenity": "pharmacy"
            },
            "geometry": {
                "type": "Point",
                "coordinates": [
                    18.349970999999805,
                    50.38926200001305
                ]
            }
        },
        {
            "type": "Feature",
            "properties": {
                "ref:csioz": 1228542,
                "name": "Lekostrefa",
                "addr:street": "Opolska",
                "addr:housenumber": "32",
                "addr:city": "Kielcza",
                "addr:postcode": "47-126",
                "amenity": "pharmacy"
            },
            "geometry": {
                "type": "Point",
                "coordinates": [
                    18.539224951084755,
                    50.56696556769318
                ]
            }
        },
        {
            "type": "Feature",
            "properties": {
                "ref:csioz": 1109513,
                "name": "\"Apteka \"\"Pod Witrażem\"\"\"",
                "addr:street": "1 Maja",
                "addr:housenumber": "9",
                "addr:city": "Ujazd",
                "addr:postcode": "47-143",
                "amenity": "pharmacy"
            },
            "geometry": {
                "type": "Point",
                "coordinates": [
                    18.350305173631636,
                    50.38965306465467
                ]
            }
        },
        {
            "type": "Feature",
            "properties": {
                "ref:csioz": 1109615,
                "name": "\"Apteka \"\"Na Schodkach\"\"\"",
                "addr:street": "Opolska",
                "addr:housenumber": "18",
                "addr:flats": "14",
                "addr:city": "Zawadzkie",
                "addr:postcode": "47-120",
                "amenity": "pharmacy"
            },
            "geometry": {
                "type": "Point",
                "coordinates": [
                    18.474509147831554,
                    50.610667307043265
                ]
            }
        },
        {
            "type": "Feature",
            "properties": {
                "ref:csioz": 1107245,
                "name": "\"Apteka Rodzinna \"\"Ewa\"\"\"",
                "addr:street": "Nowa Kolonia",
                "addr:housenumber": "14c",
                "addr:flats": "1",
                "addr:city": "Jemielnica",
                "addr:postcode": "47-133",
                "amenity": "pharmacy"
            },
            "geometry": {
                "type": "Point",
                "coordinates": [
                    18.379801112942445,
                    50.5436686844821
                ]
            }
        },
        {
            "type": "Feature",
            "properties": {
                "ref:csioz": 1107730,
                "name": "\"\"\"Apteka Gemini\"\"\"",
                "addr:street": "Leśna",
                "addr:housenumber": "6",
                "addr:city": "Kolonowskie",
                "addr:postcode": "47-110",
                "amenity": "pharmacy"
            },
            "geometry": {
                "type": "Point",
                "coordinates": [
                    18.38541739815768,
                    50.654211749675184
                ]
            }
        }
    ]
}