{
    "type": "FeatureCollection",
    "name": "JPT_KOD_JE_0205",
    "crs": {
        "type": "name",
        "properties": {
            "name": "urn:ogc:def:crs:EPSG::4326"
        }
    },
    "features": [
        {
            "type": "Feature",
            "properties": {
                "ref:csioz": 1159862,
                "name": "\"'Apteka Zamkowa'\"",
                "addr:street": "Rycerska",
                "addr:housenumber": "19",
                "addr:city": "Bolków",
                "addr:postcode": "58-575",
                "amenity": "pharmacy"
            },
            "geometry": {
                "type": "Point",
                "coordinates": [
                    16.099909892062175,
                    50.92071961597314
                ]
            }
        },
        {
            "type": "Feature",
            "properties": {
                "ref:csioz": 1159870,
                "name": "Arnika",
                "addr:street": "Piastowska",
                "addr:housenumber": "5",
                "addr:city": "Bolków",
                "addr:postcode": "59-420",
                "amenity": "pharmacy"
            },
            "geometry": {
                "type": "Point",
                "coordinates": [
                    16.10195007952647,
                    50.919729093777306
                ]
            }
        },
        {
            "type": "Feature",
            "properties": {
                "ref:csioz": 1220230,
                "name": "Apteka Zamkowa",
                "addr:street": "Sienkiewicza",
                "addr:housenumber": "5-5a",
                "addr:city": "Bolków",
                "addr:postcode": "59-420",
                "amenity": "pharmacy"
            },
            "geometry": {
                "type": "Point",
                "coordinates": [
                    16.10369519392434,
                    50.92416579256721
                ]
            }
        },
        {
            "type": "Feature",
            "properties": {
                "ref:csioz": 1132279,
                "name": "Pod Jaworem",
                "addr:street": "Mściwojów",
                "addr:housenumber": "5a",
                "addr:city": "Mściwojów",
                "addr:postcode": "59-407",
                "amenity": "pharmacy"
            },
            "geometry": {
                "type": "Point",
                "coordinates": [
                    16.277957999987755,
                    51.04432200001407
                ]
            }
        },
        {
            "type": "Feature",
            "properties": {
                "ref:csioz": 1132430,
                "name": "Pod Miłorzębem",
                "addr:street": "Romana Dmowskiego",
                "addr:housenumber": "9",
                "addr:city": "Jawor",
                "addr:postcode": "59-400",
                "amenity": "pharmacy"
            },
            "geometry": {
                "type": "Point",
                "coordinates": [
                    16.18282168053822,
                    51.05896943564253
                ]
            }
        },
        {
            "type": "Feature",
            "properties": {
                "ref:csioz": 1132612,
                "name": "Apteka Dbam O Zdrowie",
                "addr:street": "Piłsudskiego",
                "addr:housenumber": "10",
                "addr:city": "Jawor",
                "addr:postcode": "59-400",
                "amenity": "pharmacy"
            },
            "geometry": {
                "type": "Point",
                "coordinates": [
                    16.199185777040018,
                    51.05001319241873
                ]
            }
        },
        {
            "type": "Feature",
            "properties": {
                "ref:csioz": 1134888,
                "name": "\"Punkt Apteczny \"\"Melisa\"\"\"",
                "addr:housenumber": "166A",
                "addr:city": "Wądroże Wielkie",
                "addr:postcode": "59-430",
                "amenity": "pharmacy"
            },
            "geometry": {
                "type": "Point",
                "coordinates": [
                    16.32934994853516,
                    51.112240683699966
                ]
            }
        },
        {
            "type": "Feature",
            "properties": {
                "ref:csioz": 1135898,
                "name": "\"Apteka \"\"Szpitalna\"\"\"",
                "addr:street": "Szpitalna",
                "addr:housenumber": "3 B",
                "addr:city": "Jawor",
                "addr:postcode": "59-400",
                "amenity": "pharmacy"
            },
            "geometry": {
                "type": "Point",
                "coordinates": [
                    16.198799053697275,
                    51.04739234980805
                ]
            }
        },
        {
            "type": "Feature",
            "properties": {
                "ref:csioz": 1159587,
                "name": "Moniuszki 10",
                "addr:street": "Stanisława Moniuszki",
                "addr:housenumber": "10",
                "addr:city": "Jawor",
                "addr:postcode": "59-400",
                "amenity": "pharmacy"
            },
            "geometry": {
                "type": "Point",
                "coordinates": [
                    16.188115992078142,
                    51.057253773423234
                ]
            }
        },
        {
            "type": "Feature",
            "properties": {
                "ref:csioz": 1159598,
                "name": "Pod Arkadami",
                "addr:street": "Rynek",
                "addr:housenumber": "9",
                "addr:city": "Jawor",
                "addr:postcode": "59-400",
                "amenity": "pharmacy"
            },
            "geometry": {
                "type": "Point",
                "coordinates": [
                    16.192705753192136,
                    51.050520966844054
                ]
            }
        },
        {
            "type": "Feature",
            "properties": {
                "ref:csioz": 1159603,
                "name": "Pod Złotym Wężem",
                "addr:street": "Piastowska",
                "addr:housenumber": "16",
                "addr:city": "Jawor",
                "addr:postcode": "59-400",
                "amenity": "pharmacy"
            },
            "geometry": {
                "type": "Point",
                "coordinates": [
                    16.19877264508999,
                    51.048581728926926
                ]
            }
        },
        {
            "type": "Feature",
            "properties": {
                "ref:csioz": 1159616,
                "name": "Galen",
                "addr:street": "Wojciecha Korfantego",
                "addr:housenumber": "6",
                "addr:flats": "2",
                "addr:city": "Jawor",
                "addr:postcode": "59-400",
                "amenity": "pharmacy"
            },
            "geometry": {
                "type": "Point",
                "coordinates": [
                    16.178388441270446,
                    51.05805050741711
                ]
            }
        },
        {
            "type": "Feature",
            "properties": {
                "ref:csioz": 1161326,
                "name": "Jaworskie Centrum Medyczne Sp. Z O.O.",
                "addr:street": "Szpitalna",
                "addr:housenumber": "3",
                "addr:city": "Jawor",
                "addr:postcode": "59-400",
                "amenity": "pharmacy"
            },
            "geometry": {
                "type": "Point",
                "coordinates": [
                    16.199186719170726,
                    51.04695089965793
                ]
            }
        },
        {
            "type": "Feature",
            "properties": {
                "ref:csioz": 1132547,
                "name": "Grunwaldzka",
                "addr:street": "Grunwaldzka",
                "addr:housenumber": "9",
                "addr:city": "Jawor",
                "addr:postcode": "59-400",
                "amenity": "pharmacy"
            },
            "geometry": {
                "type": "Point",
                "coordinates": [
                    16.19199090587378,
                    51.05150033818235
                ]
            }
        },
        {
            "type": "Feature",
            "properties": {
                "ref:csioz": 1159777,
                "name": "Vademecum",
                "addr:street": "Szpitalna",
                "addr:housenumber": "7e",
                "addr:city": "Jawor",
                "addr:postcode": "59-400",
                "amenity": "pharmacy"
            },
            "geometry": {
                "type": "Point",
                "coordinates": [
                    16.202057069135943,
                    51.045280459859576
                ]
            }
        },
        {
            "type": "Feature",
            "properties": {
                "ref:csioz": 1207437,
                "name": "Apteka Witosa",
                "addr:street": "Wincentego Witosa",
                "addr:housenumber": "20",
                "addr:city": "Jawor",
                "addr:postcode": "59-400",
                "amenity": "pharmacy"
            },
            "geometry": {
                "type": "Point",
                "coordinates": [
                    16.18304735242583,
                    51.0583067281955
                ]
            }
        },
        {
            "type": "Feature",
            "properties": {
                "ref:csioz": 1210387,
                "name": "Expresspharm Xx",
                "addr:street": "ul. Juliusza Słowackiego",
                "addr:housenumber": "1",
                "addr:city": "Jawor",
                "addr:postcode": "59-400",
                "amenity": "pharmacy"
            },
            "geometry": {
                "type": "Point",
                "coordinates": [
                    16.19711202569619,
                    51.057494005536014
                ]
            }
        },
        {
            "type": "Feature",
            "properties": {
                "ref:csioz": 1230801,
                "name": "Punkt Apteczny Impuls",
                "addr:housenumber": "260",
                "addr:city": "Paszowice",
                "addr:postcode": "59-411",
                "amenity": "pharmacy"
            },
            "geometry": {
                "type": "Point",
                "coordinates": [
                    16.16642621405737,
                    51.01926086636375
                ]
            }
        }
    ]
}