{
    "type": "FeatureCollection",
    "name": "JPT_KOD_JE_2602",
    "features": [
        {
            "type": "Feature",
            "properties": {
                "ref:csioz": 1000249,
                "addr:street": "Na Skarpie",
                "addr:housenumber": "17",
                "addr:city": "Sędziszów",
                "addr:postcode": "28-340",
                "amenity": "pharmacy"
            },
            "geometry": {
                "type": "Point",
                "coordinates": [
                    20.05278745015858,
                    50.56242381266223
                ]
            }
        },
        {
            "type": "Feature",
            "properties": {
                "ref:csioz": 1000555,
                "addr:street": "Leśna",
                "addr:housenumber": "7",
                "addr:city": "Sędziszów",
                "addr:postcode": "28-340",
                "amenity": "pharmacy"
            },
            "geometry": {
                "type": "Point",
                "coordinates": [
                    20.051109772729795,
                    50.562052878699305
                ]
            }
        },
        {
            "type": "Feature",
            "properties": {
                "ref:csioz": 1000578,
                "addr:street": "Jana Pawła II",
                "addr:housenumber": "36",
                "addr:city": "Jędrzejów",
                "addr:postcode": "28-300",
                "amenity": "pharmacy"
            },
            "geometry": {
                "type": "Point",
                "coordinates": [
                    20.302973903814117,
                    50.64401626656476
                ]
            }
        },
        {
            "type": "Feature",
            "properties": {
                "ref:csioz": 1000837,
                "name": "\"Apteka Cef@Rm 36,6\"",
                "addr:street": "Ariańska",
                "addr:housenumber": "14",
                "addr:city": "Wodzisław",
                "addr:postcode": "28-330",
                "amenity": "pharmacy"
            },
            "geometry": {
                "type": "Point",
                "coordinates": [
                    20.18819300000051,
                    50.52142900001325
                ]
            }
        },
        {
            "type": "Feature",
            "properties": {
                "ref:csioz": 1000892,
                "name": "\"Apteka Cef@Rm 36,6\"",
                "addr:street": "Bolesława Chrobrego",
                "addr:housenumber": "4",
                "addr:city": "Jędrzejów",
                "addr:postcode": "28-300",
                "amenity": "pharmacy"
            },
            "geometry": {
                "type": "Point",
                "coordinates": [
                    20.285848542089298,
                    50.6422476224692
                ]
            }
        },
        {
            "type": "Feature",
            "properties": {
                "ref:csioz": 1002330,
                "addr:street": "Bartosza Głowackiego",
                "addr:housenumber": "8A",
                "addr:city": "Jędrzejów",
                "addr:postcode": "28-300",
                "amenity": "pharmacy"
            },
            "geometry": {
                "type": "Point",
                "coordinates": [
                    20.305606554914835,
                    50.63818964701282
                ]
            }
        },
        {
            "type": "Feature",
            "properties": {
                "ref:csioz": 1003436,
                "name": "Apteka Plus",
                "addr:street": "Małogoska",
                "addr:housenumber": "25",
                "addr:city": "Jędrzejów",
                "addr:postcode": "28-300",
                "amenity": "pharmacy"
            },
            "geometry": {
                "type": "Point",
                "coordinates": [
                    20.301992099222964,
                    50.64860062237617
                ]
            }
        },
        {
            "type": "Feature",
            "properties": {
                "ref:csioz": 1003716,
                "addr:street": "Na Skarpie",
                "addr:housenumber": "19",
                "addr:flats": "15",
                "addr:city": "Sędziszów",
                "addr:postcode": "28-340",
                "amenity": "pharmacy"
            },
            "geometry": {
                "type": "Point",
                "coordinates": [
                    20.052334097252352,
                    50.56209901038745
                ]
            }
        },
        {
            "type": "Feature",
            "properties": {
                "ref:csioz": 1003846,
                "name": "Dobre Apteki",
                "addr:housenumber": "1",
                "addr:city": "Wodzisław",
                "addr:postcode": "28-330",
                "amenity": "pharmacy"
            },
            "geometry": {
                "type": "Point",
                "coordinates": [
                    20.19197099118584,
                    50.52023172985124
                ]
            }
        },
        {
            "type": "Feature",
            "properties": {
                "ref:csioz": 1004754,
                "addr:street": "Mikołaja Reja",
                "addr:housenumber": "13a",
                "addr:city": "Nagłowice",
                "addr:postcode": "28-362",
                "amenity": "pharmacy"
            },
            "geometry": {
                "type": "Point",
                "coordinates": [
                    20.10647758235284,
                    50.67998783787446
                ]
            }
        },
        {
            "type": "Feature",
            "properties": {
                "ref:csioz": 1004952,
                "name": "Nova-Sędziszów",
                "addr:housenumber": "102",
                "addr:city": "Słupia",
                "addr:postcode": "28-350",
                "amenity": "pharmacy"
            },
            "geometry": {
                "type": "Point",
                "coordinates": [
                    19.971898224545658,
                    50.601984688375495
                ]
            }
        },
        {
            "type": "Feature",
            "properties": {
                "ref:csioz": 1119672,
                "name": "Niezapominajka Dla Całej Rodziny",
                "addr:street": "11 Listopada",
                "addr:housenumber": "24",
                "addr:city": "Jędrzejów",
                "addr:postcode": "28-300",
                "amenity": "pharmacy"
            },
            "geometry": {
                "type": "Point",
                "coordinates": [
                    20.30129753261035,
                    50.64141453224358
                ]
            }
        },
        {
            "type": "Feature",
            "properties": {
                "ref:csioz": 1171947,
                "name": "Słoneczna",
                "addr:street": "Mieszka I",
                "addr:housenumber": "10A",
                "addr:city": "Jędrzejów",
                "addr:postcode": "28-300",
                "amenity": "pharmacy"
            },
            "geometry": {
                "type": "Point",
                "coordinates": [
                    20.283695580817955,
                    50.6430684701642
                ]
            }
        },
        {
            "type": "Feature",
            "properties": {
                "ref:csioz": 1190991,
                "name": "Niezapominajka Dla Całej Rodziny",
                "addr:street": "Jaszowskiego",
                "addr:housenumber": "2",
                "addr:city": "Małogoszcz",
                "addr:postcode": "28-366",
                "amenity": "pharmacy"
            },
            "geometry": {
                "type": "Point",
                "coordinates": [
                    20.263673970128014,
                    50.8120937524949
                ]
            }
        },
        {
            "type": "Feature",
            "properties": {
                "ref:csioz": 1196104,
                "name": "Kolorowa Apteka",
                "addr:street": "Dworcowa",
                "addr:housenumber": "23",
                "addr:city": "Sędziszów",
                "addr:postcode": "28-340",
                "amenity": "pharmacy"
            },
            "geometry": {
                "type": "Point",
                "coordinates": [
                    20.054196867890525,
                    50.564471833368025
                ]
            }
        },
        {
            "type": "Feature",
            "properties": {
                "ref:csioz": 1001877,
                "name": "\"Apteka \"\"Codzienna\"\"\"",
                "addr:street": "pl. Tadeusza Kościuszki",
                "addr:housenumber": "20",
                "addr:city": "Jędrzejów",
                "addr:postcode": "28-300",
                "amenity": "pharmacy"
            },
            "geometry": {
                "type": "Point",
                "coordinates": [
                    20.305027220170587,
                    50.63975580209778
                ]
            }
        },
        {
            "type": "Feature",
            "properties": {
                "ref:csioz": 1002789,
                "addr:housenumber": "37A",
                "addr:city": "Raków",
                "addr:postcode": "28-300",
                "amenity": "pharmacy"
            },
            "geometry": {
                "type": "Point",
                "coordinates": [
                    20.376912927699575,
                    50.640401282740044
                ]
            }
        },
        {
            "type": "Feature",
            "properties": {
                "ref:csioz": 1003387,
                "name": "Zdrowie",
                "addr:street": "Jaszowskiego",
                "addr:housenumber": "1",
                "addr:city": "Małogoszcz",
                "addr:postcode": "28-366",
                "amenity": "pharmacy"
            },
            "geometry": {
                "type": "Point",
                "coordinates": [
                    20.263486138465247,
                    50.81200186048765
                ]
            }
        },
        {
            "type": "Feature",
            "properties": {
                "ref:csioz": 1004055,
                "name": "Apteka Świętokrzyska",
                "addr:street": "Targowa",
                "addr:housenumber": "1",
                "addr:city": "Sobków",
                "addr:postcode": "28-305",
                "amenity": "pharmacy"
            },
            "geometry": {
                "type": "Point",
                "coordinates": [
                    20.454903722431148,
                    50.69888513007267
                ]
            }
        },
        {
            "type": "Feature",
            "properties": {
                "ref:csioz": 1004064,
                "name": "Apteka Auris Spółka Jawna",
                "addr:street": "Bolesława Chrobrego",
                "addr:housenumber": "2",
                "addr:city": "Jędrzejów",
                "addr:postcode": "28-300",
                "amenity": "pharmacy"
            },
            "geometry": {
                "type": "Point",
                "coordinates": [
                    20.285694391227164,
                    50.64185317607519
                ]
            }
        },
        {
            "type": "Feature",
            "properties": {
                "ref:csioz": 1004269,
                "name": "Nova-Sędziszów",
                "addr:street": "Przemysłowa",
                "addr:housenumber": "1",
                "addr:city": "Sędziszów",
                "addr:postcode": "28-340",
                "amenity": "pharmacy"
            },
            "geometry": {
                "type": "Point",
                "coordinates": [
                    20.04039953592161,
                    50.55972721499739
                ]
            }
        },
        {
            "type": "Feature",
            "properties": {
                "ref:csioz": 1137872,
                "name": "Apteka Szpitalna",
                "addr:street": "Małogoska",
                "addr:housenumber": "25",
                "addr:city": "Jędrzejów",
                "addr:postcode": "28-300",
                "amenity": "pharmacy"
            },
            "geometry": {
                "type": "Point",
                "coordinates": [
                    20.301992099222964,
                    50.64860062237617
                ]
            }
        },
        {
            "type": "Feature",
            "properties": {
                "ref:csioz": 1171754,
                "name": "Rh Plus Apteka Sobków W Rynku",
                "addr:street": "Kielecka",
                "addr:housenumber": "31",
                "addr:city": "Sobków",
                "addr:postcode": "28-305",
                "amenity": "pharmacy"
            },
            "geometry": {
                "type": "Point",
                "coordinates": [
                    20.45318666698695,
                    50.69972871630006
                ]
            }
        },
        {
            "type": "Feature",
            "properties": {
                "ref:csioz": 1207261,
                "addr:housenumber": "3",
                "addr:city": "Osowa",
                "addr:postcode": "28-305",
                "amenity": "pharmacy"
            },
            "geometry": {
                "type": "Point",
                "coordinates": [
                    20.38171876431855,
                    50.71386636493494
                ]
            }
        },
        {
            "type": "Feature",
            "properties": {
                "ref:csioz": 1219603,
                "name": "Punkt Apteczny Imielno",
                "addr:street": "Cmentarna",
                "addr:housenumber": "2",
                "addr:city": "Imielno",
                "addr:postcode": "28-313",
                "amenity": "pharmacy"
            },
            "geometry": {
                "type": "Point",
                "coordinates": [
                    20.446595697300562,
                    50.58496324963632
                ]
            }
        },
        {
            "type": "Feature",
            "properties": {
                "ref:csioz": 1226200,
                "name": "Twój Punkt Apteczny",
                "addr:street": "Strażacka",
                "addr:housenumber": "7",
                "addr:city": "Oksa",
                "addr:postcode": "28-363",
                "amenity": "pharmacy"
            },
            "geometry": {
                "type": "Point",
                "coordinates": [
                    20.097323733613543,
                    50.72644811349495
                ]
            }
        },
        {
            "type": "Feature",
            "properties": {
                "ref:csioz": 1004696,
                "name": "Lubcza",
                "addr:housenumber": "107",
                "addr:city": "Lubcza",
                "addr:postcode": "28-330",
                "amenity": "pharmacy"
            },
            "geometry": {
                "type": "Point",
                "coordinates": [
                    20.33040081861636,
                    50.48000928815525
                ]
            }
        }
    ]
}