{
    "type": "FeatureCollection",
    "name": "JPT_KOD_JE_2012",
    "features": [
        {
            "type": "Feature",
            "properties": {
                "ref:csioz": 1014448,
                "addr:street": "Osiedle Północ",
                "addr:housenumber": "4",
                "addr:city": "Bakałarzewo",
                "addr:postcode": "16-423",
                "amenity": "pharmacy"
            },
            "geometry": {
                "type": "Point",
                "coordinates": [
                    22.65685007673556,
                    54.09655475964464
                ]
            }
        },
        {
            "type": "Feature",
            "properties": {
                "ref:csioz": 1014592,
                "addr:street": "Wólczańska",
                "addr:housenumber": "4",
                "addr:city": "Filipów",
                "addr:postcode": "16-424",
                "amenity": "pharmacy"
            },
            "geometry": {
                "type": "Point",
                "coordinates": [
                    22.620897125565254,
                    54.18097424383838
                ]
            }
        },
        {
            "type": "Feature",
            "properties": {
                "ref:csioz": 1025143,
                "addr:street": "Suwalska",
                "addr:housenumber": "21",
                "addr:city": "Szypliszki",
                "addr:postcode": "16-411",
                "amenity": "pharmacy"
            },
            "geometry": {
                "type": "Point",
                "coordinates": [
                    23.074369156133244,
                    54.251937552486346
                ]
            }
        },
        {
            "type": "Feature",
            "properties": {
                "ref:csioz": 1025162,
                "addr:street": "Sejneńska",
                "addr:housenumber": "14",
                "addr:city": "Wiżajny",
                "addr:postcode": "16-407",
                "amenity": "pharmacy"
            },
            "geometry": {
                "type": "Point",
                "coordinates": [
                    22.868291701935988,
                    54.36352492286243
                ]
            }
        },
        {
            "type": "Feature",
            "properties": {
                "ref:csioz": 1216614,
                "name": "Apteka Ewa - Marta Sienkiewicz",
                "addr:street": "Rynek",
                "addr:housenumber": "26",
                "addr:city": "Przerośl",
                "addr:postcode": "16-427",
                "amenity": "pharmacy"
            },
            "geometry": {
                "type": "Point",
                "coordinates": [
                    22.655860875496987,
                    54.25084126321366
                ]
            }
        },
        {
            "type": "Feature",
            "properties": {
                "ref:csioz": 1227760,
                "addr:street": "Leśna",
                "addr:housenumber": "1",
                "addr:city": "Rutka-Tartak",
                "addr:postcode": "16-406",
                "amenity": "pharmacy"
            },
            "geometry": {
                "type": "Point",
                "coordinates": [
                    22.97094581320437,
                    54.32140133199677
                ]
            }
        },
        {
            "type": "Feature",
            "properties": {
                "ref:csioz": 1227771,
                "addr:street": "Sportowa",
                "addr:housenumber": "2",
                "addr:city": "Jeleniewo",
                "addr:postcode": "16-404",
                "amenity": "pharmacy"
            },
            "geometry": {
                "type": "Point",
                "coordinates": [
                    22.912808914519783,
                    54.20561297302559
                ]
            }
        },
        {
            "type": "Feature",
            "properties": {
                "ref:csioz": 1023795,
                "addr:street": "Plac Kościuszki",
                "addr:housenumber": "28",
                "addr:city": "Raczki",
                "addr:postcode": "16-420",
                "amenity": "pharmacy"
            },
            "geometry": {
                "type": "Point",
                "coordinates": [
                    22.781318690599463,
                    53.988738052450266
                ]
            }
        }
    ]
}