{
    "type": "FeatureCollection",
    "name": "JPT_KOD_JE_3026",
    "crs": {
        "type": "name",
        "properties": {
            "name": "urn:ogc:def:crs:EPSG::4326"
        }
    },
    "features": [
        {
            "type": "Feature",
            "properties": {
                "ref:csioz": 1050617,
                "name": "Na Skraju",
                "addr:street": "ŚREMSKIE PRZEDMIEŚCIE",
                "addr:housenumber": "6",
                "addr:city": "DOLSK",
                "addr:postcode": "63-140",
                "amenity": "pharmacy"
            },
            "geometry": {
                "type": "Point",
                "coordinates": [
                    17.066687055465156,
                    51.99015479922773
                ]
            }
        },
        {
            "type": "Feature",
            "properties": {
                "ref:csioz": 1044883,
                "addr:street": "Wyzwolenia",
                "addr:housenumber": "20",
                "addr:city": "Dolsk",
                "addr:postcode": "63-140",
                "amenity": "pharmacy"
            },
            "geometry": {
                "type": "Point",
                "coordinates": [
                    17.065531438052684,
                    51.98628183229045
                ]
            }
        },
        {
            "type": "Feature",
            "properties": {
                "ref:csioz": 1046132,
                "name": "Św.Łukasz",
                "addr:street": "Kosynierów",
                "addr:housenumber": "16",
                "addr:city": "Książ Wielkopolski",
                "addr:postcode": "63-130",
                "amenity": "pharmacy"
            },
            "geometry": {
                "type": "Point",
                "coordinates": [
                    17.240354686841496,
                    52.06057177866125
                ]
            }
        },
        {
            "type": "Feature",
            "properties": {
                "ref:csioz": 1046790,
                "name": "Św.Damiana",
                "addr:street": "Wiosny Ludów",
                "addr:housenumber": "22A",
                "addr:city": "Książ Wielkopolski",
                "addr:postcode": "63-130",
                "amenity": "pharmacy"
            },
            "geometry": {
                "type": "Point",
                "coordinates": [
                    17.23186832249329,
                    52.06145312085447
                ]
            }
        },
        {
            "type": "Feature",
            "properties": {
                "ref:csioz": 1192212,
                "name": "Gracja",
                "addr:housenumber": "41",
                "addr:city": "Mchy",
                "addr:postcode": "63-130",
                "amenity": "pharmacy"
            },
            "geometry": {
                "type": "Point",
                "coordinates": [
                    17.23705687387153,
                    52.018001229417585
                ]
            }
        },
        {
            "type": "Feature",
            "properties": {
                "ref:csioz": 1193978,
                "name": "Przy Biedronce",
                "addr:housenumber": "22",
                "addr:city": "Radoszkowo Drugie",
                "addr:postcode": "63-130",
                "amenity": "pharmacy"
            },
            "geometry": {
                "type": "Point",
                "coordinates": [
                    17.2616765169114,
                    52.05664460105743
                ]
            }
        },
        {
            "type": "Feature",
            "properties": {
                "ref:csioz": 1044503,
                "name": "Wielkopolski Ośrodek Reumatologiczny Samodzielny Publiczny Specjalistyczny Zespół Opieki Zdrowotnej W Śremie",
                "addr:street": "Adama Mickiewicza",
                "addr:housenumber": "95",
                "addr:city": "ŚREM",
                "addr:postcode": "63-100",
                "amenity": "pharmacy"
            },
            "geometry": {
                "type": "Point",
                "coordinates": [
                    17.025379260639767,
                    52.08447969281607
                ]
            }
        },
        {
            "type": "Feature",
            "properties": {
                "ref:csioz": 1045602,
                "name": "Nad Wartą",
                "addr:street": "ks. Jerzego Popiełuszki",
                "addr:housenumber": "2",
                "addr:city": "ŚREM",
                "addr:postcode": "63-100",
                "amenity": "pharmacy"
            },
            "geometry": {
                "type": "Point",
                "coordinates": [
                    17.018994834173657,
                    52.09303168228289
                ]
            }
        },
        {
            "type": "Feature",
            "properties": {
                "ref:csioz": 1045615,
                "name": "Pod Białym Orłem",
                "addr:street": "20 PAŹDZIERNIKA",
                "addr:housenumber": "3 i 5",
                "addr:city": "ŚREM",
                "addr:postcode": "63-100",
                "amenity": "pharmacy"
            },
            "geometry": {
                "type": "Point",
                "coordinates": [
                    17.020382999997278,
                    52.09527800001562
                ]
            }
        },
        {
            "type": "Feature",
            "properties": {
                "ref:csioz": 1047165,
                "name": "Profilaktyka V",
                "addr:street": "Fryderyka Chopina",
                "addr:housenumber": "1C",
                "addr:city": "Śrem",
                "addr:postcode": "63-100",
                "amenity": "pharmacy"
            },
            "geometry": {
                "type": "Point",
                "coordinates": [
                    17.007501999997203,
                    52.081829000015595
                ]
            }
        },
        {
            "type": "Feature",
            "properties": {
                "ref:csioz": 1051151,
                "name": "Profilaktyka",
                "addr:street": "REYMONTA",
                "addr:housenumber": "2A",
                "addr:city": "ŚREM",
                "addr:postcode": "63-100",
                "amenity": "pharmacy"
            },
            "geometry": {
                "type": "Point",
                "coordinates": [
                    17.013908200447553,
                    52.082370380867836
                ]
            }
        },
        {
            "type": "Feature",
            "properties": {
                "ref:csioz": 1197695,
                "name": "\"Centrum Medyczne \"\"Małgorzata\"\" Sp. Z O.O. \"",
                "addr:street": "Józefa Chełmońskiego",
                "addr:housenumber": "1",
                "addr:city": "Śrem",
                "addr:postcode": "63-100",
                "amenity": "pharmacy"
            },
            "geometry": {
                "type": "Point",
                "coordinates": [
                    17.00629342924304,
                    52.089395582687004
                ]
            }
        },
        {
            "type": "Feature",
            "properties": {
                "ref:csioz": 1044493,
                "name": "Szpital Powiatowy Im. Tadeusza Malińskiego W Śremie Sp. Z O.O.",
                "addr:street": "CHEŁMOŃSKIEGO",
                "addr:housenumber": "1",
                "addr:city": "ŚREM",
                "addr:postcode": "63-100",
                "amenity": "pharmacy"
            },
            "geometry": {
                "type": "Point",
                "coordinates": [
                    17.00629342924304,
                    52.089395582687004
                ]
            }
        },
        {
            "type": "Feature",
            "properties": {
                "ref:csioz": 1044805,
                "name": "Helenki",
                "addr:street": "Ignacego Paderewskiego",
                "addr:housenumber": "1",
                "addr:city": "Śrem",
                "addr:postcode": "63-100",
                "amenity": "pharmacy"
            },
            "geometry": {
                "type": "Point",
                "coordinates": [
                    17.004779743509957,
                    52.08326614600438
                ]
            }
        },
        {
            "type": "Feature",
            "properties": {
                "ref:csioz": 1047837,
                "addr:street": "Dezyderego Chłapowskiego",
                "addr:housenumber": "5",
                "addr:city": "Śrem",
                "addr:postcode": "63-100",
                "amenity": "pharmacy"
            },
            "geometry": {
                "type": "Point",
                "coordinates": [
                    17.01390605086609,
                    52.07635447366952
                ]
            }
        },
        {
            "type": "Feature",
            "properties": {
                "ref:csioz": 1050415,
                "name": "Odlewnik",
                "addr:street": "Stanisława Staszica",
                "addr:housenumber": "1",
                "addr:city": "Śrem",
                "addr:postcode": "63-100",
                "amenity": "pharmacy"
            },
            "geometry": {
                "type": "Point",
                "coordinates": [
                    17.02367989494631,
                    52.07680632950356
                ]
            }
        },
        {
            "type": "Feature",
            "properties": {
                "ref:csioz": 1051205,
                "name": "Centrum",
                "addr:street": "1 Maja",
                "addr:housenumber": "23",
                "addr:city": "Śrem",
                "addr:postcode": "63-100",
                "amenity": "pharmacy"
            },
            "geometry": {
                "type": "Point",
                "coordinates": [
                    17.01316220745833,
                    52.077552585708936
                ]
            }
        },
        {
            "type": "Feature",
            "properties": {
                "ref:csioz": 1055232,
                "name": "Arnika",
                "addr:street": "Powstańców Wielkopolskich",
                "addr:housenumber": "5",
                "addr:city": "Śrem",
                "addr:postcode": "63-100",
                "amenity": "pharmacy"
            },
            "geometry": {
                "type": "Point",
                "coordinates": [
                    17.018422618186545,
                    52.08770818888823
                ]
            }
        },
        {
            "type": "Feature",
            "properties": {
                "ref:csioz": 1055811,
                "name": "Apteka Dbam O Zdrowie",
                "addr:street": "Adama Mickiewicza",
                "addr:housenumber": "6",
                "addr:city": "Śrem",
                "addr:postcode": "63-100",
                "amenity": "pharmacy"
            },
            "geometry": {
                "type": "Point",
                "coordinates": [
                    17.017252115940234,
                    52.09005672518811
                ]
            }
        },
        {
            "type": "Feature",
            "properties": {
                "ref:csioz": 1124130,
                "name": "Profilaktyka W Galerii",
                "addr:street": "1 MAJA",
                "addr:housenumber": "21",
                "addr:flats": "4 i 8",
                "addr:city": "ŚREM",
                "addr:postcode": "63-100",
                "amenity": "pharmacy"
            },
            "geometry": {
                "type": "Point",
                "coordinates": [
                    17.014047754887116,
                    52.07771476978697
                ]
            }
        },
        {
            "type": "Feature",
            "properties": {
                "ref:csioz": 1124013,
                "name": "Verbena",
                "addr:street": "Gostyńska",
                "addr:housenumber": "17",
                "addr:city": "Śrem",
                "addr:postcode": "63-100",
                "amenity": "pharmacy"
            },
            "geometry": {
                "type": "Point",
                "coordinates": [
                    17.026758005305172,
                    52.082816749169
                ]
            }
        },
        {
            "type": "Feature",
            "properties": {
                "ref:csioz": 1176975,
                "name": "Przyjazna",
                "addr:street": "Grunwaldzka",
                "addr:housenumber": "8C",
                "addr:city": "Śrem",
                "addr:postcode": "63-100",
                "amenity": "pharmacy"
            },
            "geometry": {
                "type": "Point",
                "coordinates": [
                    17.010405957779906,
                    52.080859318175904
                ]
            }
        },
        {
            "type": "Feature",
            "properties": {
                "ref:csioz": 1192141,
                "name": "Natura",
                "addr:street": "Solidarności",
                "addr:housenumber": "2",
                "addr:city": "Śrem",
                "addr:postcode": "63-100",
                "amenity": "pharmacy"
            },
            "geometry": {
                "type": "Point",
                "coordinates": [
                    17.005838863645135,
                    52.09198336249992
                ]
            }
        },
        {
            "type": "Feature",
            "properties": {
                "ref:csioz": 1196758,
                "name": "Centrum Zdrowia",
                "addr:street": "Grunwaldzka",
                "addr:housenumber": "1",
                "addr:city": "Śrem",
                "addr:postcode": "63-100",
                "amenity": "pharmacy"
            },
            "geometry": {
                "type": "Point",
                "coordinates": [
                    17.01119389745102,
                    52.081996183925575
                ]
            }
        },
        {
            "type": "Feature",
            "properties": {
                "ref:csioz": 1205426,
                "name": "Prima",
                "addr:street": "Kolejowa",
                "addr:housenumber": "1A",
                "addr:city": "Śrem",
                "addr:postcode": "63-100",
                "amenity": "pharmacy"
            },
            "geometry": {
                "type": "Point",
                "coordinates": [
                    17.015538257978413,
                    52.09090545392048
                ]
            }
        },
        {
            "type": "Feature",
            "properties": {
                "ref:csioz": 1207299,
                "name": "Apteka Zielona",
                "addr:street": "JÓZEFA PIŁSUDSKIEGO",
                "addr:housenumber": "2D",
                "addr:city": "Śrem",
                "addr:postcode": "63-100",
                "amenity": "pharmacy"
            },
            "geometry": {
                "type": "Point",
                "coordinates": [
                    17.004736955550726,
                    52.09299275956171
                ]
            }
        },
        {
            "type": "Feature",
            "properties": {
                "ref:csioz": 1229375,
                "addr:street": "Promenada",
                "addr:housenumber": "7",
                "addr:city": "Śrem",
                "addr:postcode": "63-100",
                "amenity": "pharmacy"
            },
            "geometry": {
                "type": "Point",
                "coordinates": [
                    17.02636968170904,
                    52.08516636468334
                ]
            }
        },
        {
            "type": "Feature",
            "properties": {
                "ref:csioz": 1229604,
                "addr:street": "Józefa Chełmońskiego",
                "addr:housenumber": "1",
                "addr:city": "Śrem",
                "addr:postcode": "63-100",
                "amenity": "pharmacy"
            },
            "geometry": {
                "type": "Point",
                "coordinates": [
                    17.00629342924304,
                    52.089395582687004
                ]
            }
        }
    ]
}