{
    "type": "FeatureCollection",
    "name": "JPT_KOD_JE_2002",
    "crs": {
        "type": "name",
        "properties": {
            "name": "urn:ogc:def:crs:EPSG::4326"
        }
    },
    "features": [
        {
            "type": "Feature",
            "properties": {
                "ref:csioz": 1016969,
                "name": "Apteka Słoneczna",
                "addr:street": "Żurawia",
                "addr:housenumber": "15",
                "addr:city": "Wasilków",
                "addr:postcode": "16-010",
                "amenity": "pharmacy"
            },
            "geometry": {
                "type": "Point",
                "coordinates": [
                    23.200874460594953,
                    53.20632625132906
                ]
            }
        },
        {
            "type": "Feature",
            "properties": {
                "ref:csioz": 1016988,
                "name": "\"Apteka \"\"Na Starym Rynku\"\"\"",
                "addr:street": "Choroszczańska",
                "addr:housenumber": "1",
                "addr:city": "Tykocin",
                "addr:postcode": "16-080",
                "amenity": "pharmacy"
            },
            "geometry": {
                "type": "Point",
                "coordinates": [
                    22.76886589345787,
                    53.206171751214946
                ]
            }
        },
        {
            "type": "Feature",
            "properties": {
                "ref:csioz": 1017109,
                "name": "Apteka Rodzinna",
                "addr:street": "Żwirki i Wigury",
                "addr:housenumber": "25",
                "addr:city": "Łapy",
                "addr:postcode": "18-100",
                "amenity": "pharmacy"
            },
            "geometry": {
                "type": "Point",
                "coordinates": [
                    22.89213090746286,
                    52.98288946382029
                ]
            }
        },
        {
            "type": "Feature",
            "properties": {
                "ref:csioz": 1019054,
                "name": "Doz Apteka Dbam O Zdrowie",
                "addr:street": "Cieliczańska",
                "addr:housenumber": "2",
                "addr:city": "Supraśl",
                "addr:postcode": "16-030",
                "amenity": "pharmacy"
            },
            "geometry": {
                "type": "Point",
                "coordinates": [
                    23.343550486163515,
                    53.205909207067
                ]
            }
        },
        {
            "type": "Feature",
            "properties": {
                "ref:csioz": 1020701,
                "name": "Apteka Słoneczna",
                "addr:street": "Polna",
                "addr:housenumber": "2",
                "addr:flats": "3",
                "addr:city": "Wasilków",
                "addr:postcode": "16-010",
                "amenity": "pharmacy"
            },
            "geometry": {
                "type": "Point",
                "coordinates": [
                    23.2075770000755,
                    53.205164000019444
                ]
            }
        },
        {
            "type": "Feature",
            "properties": {
                "ref:csioz": 1021568,
                "name": "Apteka Centrum Medyczne Agnieszka Geresz",
                "addr:street": "Białostocka",
                "addr:housenumber": "2",
                "addr:city": "Juchnowiec Górny",
                "addr:postcode": "16-061",
                "amenity": "pharmacy"
            },
            "geometry": {
                "type": "Point",
                "coordinates": [
                    23.138336050764053,
                    53.01607507865009
                ]
            }
        },
        {
            "type": "Feature",
            "properties": {
                "ref:csioz": 1021644,
                "addr:street": "Wojciecha Kossaka",
                "addr:housenumber": "18",
                "addr:city": "Łapy",
                "addr:postcode": "18-100",
                "amenity": "pharmacy"
            },
            "geometry": {
                "type": "Point",
                "coordinates": [
                    22.867469854733297,
                    52.9892383837106
                ]
            }
        },
        {
            "type": "Feature",
            "properties": {
                "ref:csioz": 1023407,
                "name": "Doz Apteka. Dbam O Zdrowie",
                "addr:street": "Główna",
                "addr:housenumber": "21",
                "addr:city": "Łapy",
                "addr:postcode": "18-100",
                "amenity": "pharmacy"
            },
            "geometry": {
                "type": "Point",
                "coordinates": [
                    22.87956405665835,
                    52.991010716056834
                ]
            }
        },
        {
            "type": "Feature",
            "properties": {
                "ref:csioz": 1023542,
                "name": "Doz Apteka. Dbam O Zdrowie. Apteka Nova",
                "addr:street": "Gródecka",
                "addr:housenumber": "11",
                "addr:city": "Michałowo",
                "addr:postcode": "16-060",
                "amenity": "pharmacy"
            },
            "geometry": {
                "type": "Point",
                "coordinates": [
                    23.606609499751478,
                    53.03783336770871
                ]
            }
        },
        {
            "type": "Feature",
            "properties": {
                "ref:csioz": 1023654,
                "name": "Tas",
                "addr:street": "Powstania Styczniowego",
                "addr:housenumber": "6D",
                "addr:city": "Choroszcz",
                "addr:postcode": "16-070",
                "amenity": "pharmacy"
            },
            "geometry": {
                "type": "Point",
                "coordinates": [
                    22.990768121109305,
                    53.14623187586941
                ]
            }
        },
        {
            "type": "Feature",
            "properties": {
                "ref:csioz": 1024522,
                "name": "Super Apteka",
                "addr:street": "Grodzieńska",
                "addr:housenumber": "33",
                "addr:city": "Wasilków",
                "addr:postcode": "16-010",
                "amenity": "pharmacy"
            },
            "geometry": {
                "type": "Point",
                "coordinates": [
                    23.208314376541313,
                    53.202716010106826
                ]
            }
        },
        {
            "type": "Feature",
            "properties": {
                "ref:csioz": 1024688,
                "name": "Twoja Apteka W Turośni Kościelnej",
                "addr:street": "Białostocka",
                "addr:housenumber": "7",
                "addr:city": "Turośń Kościelna",
                "addr:postcode": "18-106",
                "amenity": "pharmacy"
            },
            "geometry": {
                "type": "Point",
                "coordinates": [
                    23.0552430873853,
                    53.01322492394444
                ]
            }
        },
        {
            "type": "Feature",
            "properties": {
                "ref:csioz": 1024728,
                "name": "Apteka Św. Brunona",
                "addr:street": "Sikorskiego gen. Władysława",
                "addr:housenumber": "13C",
                "addr:city": "Łapy",
                "addr:postcode": "18-100",
                "amenity": "pharmacy"
            },
            "geometry": {
                "type": "Point",
                "coordinates": [
                    22.883505253815784,
                    52.99036872053948
                ]
            }
        },
        {
            "type": "Feature",
            "properties": {
                "ref:csioz": 1138697,
                "addr:street": "im. dr. Zygmunta Brodowicza",
                "addr:housenumber": "1",
                "addr:city": "Choroszcz",
                "addr:postcode": "16-070",
                "amenity": "pharmacy"
            },
            "geometry": {
                "type": "Point",
                "coordinates": [
                    22.98466400005885,
                    53.15169400001867
                ]
            }
        },
        {
            "type": "Feature",
            "properties": {
                "ref:csioz": 1174823,
                "name": "\"Punkt Apteczny \"\"Natura\"\"\"",
                "addr:street": "Kościelna",
                "addr:housenumber": "8A",
                "addr:city": "Uhowo",
                "addr:postcode": "18-100",
                "amenity": "pharmacy"
            },
            "geometry": {
                "type": "Point",
                "coordinates": [
                    22.91286507150253,
                    53.001553183749216
                ]
            }
        },
        {
            "type": "Feature",
            "properties": {
                "ref:csioz": 1183782,
                "addr:street": "Baranowicka",
                "addr:housenumber": "80",
                "addr:city": "Sobolewo",
                "addr:postcode": "15-509",
                "amenity": "pharmacy"
            },
            "geometry": {
                "type": "Point",
                "coordinates": [
                    23.257429060916774,
                    53.12502412656178
                ]
            }
        },
        {
            "type": "Feature",
            "properties": {
                "ref:csioz": 1213188,
                "name": "Doz Apteka. Dbam O Zdrowie",
                "addr:street": "Zambrowska",
                "addr:housenumber": "14",
                "addr:city": "Kleosin",
                "addr:postcode": "16-001",
                "amenity": "pharmacy"
            },
            "geometry": {
                "type": "Point",
                "coordinates": [
                    23.125958057494888,
                    53.097634945439786
                ]
            }
        },
        {
            "type": "Feature",
            "properties": {
                "ref:csioz": 1215931,
                "name": "Apteka Bliska Samoobsługowa",
                "addr:street": "Zambrowska",
                "addr:housenumber": "18",
                "addr:city": "Kleosin",
                "addr:postcode": "16-001",
                "amenity": "pharmacy"
            },
            "geometry": {
                "type": "Point",
                "coordinates": [
                    23.12435276897391,
                    53.09685841750018
                ]
            }
        },
        {
            "type": "Feature",
            "properties": {
                "ref:csioz": 1224926,
                "addr:street": "Uroczysko Pustelnia",
                "addr:housenumber": "1",
                "addr:city": "Supraśl",
                "addr:postcode": "16-030",
                "amenity": "pharmacy"
            },
            "geometry": {
                "type": "Point",
                "coordinates": [
                    23.326535860002593,
                    53.22019400348339
                ]
            }
        },
        {
            "type": "Feature",
            "properties": {
                "ref:csioz": 1019749,
                "name": "Apotheca",
                "addr:street": "Grzegorza Chodkiewicza",
                "addr:housenumber": "3",
                "addr:city": "Zabłudów",
                "addr:postcode": "16-060",
                "amenity": "pharmacy"
            },
            "geometry": {
                "type": "Point",
                "coordinates": [
                    23.339038195719063,
                    53.015674905431744
                ]
            }
        },
        {
            "type": "Feature",
            "properties": {
                "ref:csioz": 1020326,
                "name": "Omega",
                "addr:street": "Aleksandra i Grzegorza Chodkiewiczów",
                "addr:housenumber": "10",
                "addr:city": "Gródek",
                "addr:postcode": "16-040",
                "amenity": "pharmacy"
            },
            "geometry": {
                "type": "Point",
                "coordinates": [
                    23.672473470590074,
                    53.09410838863624
                ]
            }
        },
        {
            "type": "Feature",
            "properties": {
                "ref:csioz": 1022564,
                "name": "\"Apteka Cef@Rm 36,6\"",
                "addr:street": "Dolna",
                "addr:housenumber": "19",
                "addr:city": "Supraśl",
                "addr:postcode": "16-030",
                "amenity": "pharmacy"
            },
            "geometry": {
                "type": "Point",
                "coordinates": [
                    23.333940338260106,
                    53.20598824289024
                ]
            }
        },
        {
            "type": "Feature",
            "properties": {
                "ref:csioz": 1022586,
                "name": "\"Apteka Cef@Rm 36,6\"",
                "addr:street": "Henryka Sienkiewicza",
                "addr:housenumber": "5",
                "addr:city": "Czarna Białostocka",
                "addr:postcode": "16-020",
                "amenity": "pharmacy"
            },
            "geometry": {
                "type": "Point",
                "coordinates": [
                    23.286197327823963,
                    53.29843872844544
                ]
            }
        },
        {
            "type": "Feature",
            "properties": {
                "ref:csioz": 1022608,
                "name": "\"Apteka Cef@Rm 36,6\"",
                "addr:street": "Grodzieńska",
                "addr:housenumber": "1A",
                "addr:city": "Wasilków",
                "addr:postcode": "16-010",
                "amenity": "pharmacy"
            },
            "geometry": {
                "type": "Point",
                "coordinates": [
                    23.207889900230008,
                    53.200686988887135
                ]
            }
        },
        {
            "type": "Feature",
            "properties": {
                "ref:csioz": 1022761,
                "name": "\"Apteka Cef@Rm 36,6\"",
                "addr:street": "Mikołaja Kopernika",
                "addr:housenumber": "2A",
                "addr:city": "Łapy",
                "addr:postcode": "18-100",
                "amenity": "pharmacy"
            },
            "geometry": {
                "type": "Point",
                "coordinates": [
                    22.881606000053328,
                    52.99234300001818
                ]
            }
        },
        {
            "type": "Feature",
            "properties": {
                "ref:csioz": 1022785,
                "name": "\"Apteka Cef@Rm 36,6\"",
                "addr:street": "Aleksandra i Grzegorza Chodkiewiczów",
                "addr:housenumber": "32",
                "addr:city": "Gródek",
                "addr:postcode": "16-040",
                "amenity": "pharmacy"
            },
            "geometry": {
                "type": "Point",
                "coordinates": [
                    23.67600730273421,
                    53.0930459293296
                ]
            }
        },
        {
            "type": "Feature",
            "properties": {
                "ref:csioz": 1023121,
                "name": "Anna",
                "addr:street": "Kryńska",
                "addr:housenumber": "32",
                "addr:city": "Wasilków",
                "addr:postcode": "16-010",
                "amenity": "pharmacy"
            },
            "geometry": {
                "type": "Point",
                "coordinates": [
                    23.210455877419047,
                    53.20176496442434
                ]
            }
        },
        {
            "type": "Feature",
            "properties": {
                "ref:csioz": 1024349,
                "addr:street": "Cmentarna",
                "addr:housenumber": "6",
                "addr:city": "Łapy",
                "addr:postcode": "18-100",
                "amenity": "pharmacy"
            },
            "geometry": {
                "type": "Point",
                "coordinates": [
                    22.88735487985853,
                    52.98912063482293
                ]
            }
        },
        {
            "type": "Feature",
            "properties": {
                "ref:csioz": 1117855,
                "name": "Apteka Bliska Samoobsługowa",
                "addr:street": "gen. Władysława Sikorskiego",
                "addr:housenumber": "54",
                "addr:city": "Łapy",
                "addr:postcode": "18-100",
                "amenity": "pharmacy"
            },
            "geometry": {
                "type": "Point",
                "coordinates": [
                    22.883558986010804,
                    52.99108380288349
                ]
            }
        },
        {
            "type": "Feature",
            "properties": {
                "ref:csioz": 1138704,
                "addr:street": "Janusza Korczaka",
                "addr:housenumber": "23",
                "addr:city": "Łapy",
                "addr:postcode": "18-100",
                "amenity": "pharmacy"
            },
            "geometry": {
                "type": "Point",
                "coordinates": [
                    22.86699819337817,
                    52.98835307342763
                ]
            }
        },
        {
            "type": "Feature",
            "properties": {
                "ref:csioz": 1180463,
                "name": "Punkt Apteczny Zdrowie",
                "addr:street": "Tadeusza Kościuszki",
                "addr:housenumber": "3",
                "addr:city": "Niewodnica Korycka",
                "addr:postcode": "18-106",
                "amenity": "pharmacy"
            },
            "geometry": {
                "type": "Point",
                "coordinates": [
                    23.08144378812909,
                    53.06932622375924
                ]
            }
        },
        {
            "type": "Feature",
            "properties": {
                "ref:csioz": 1184826,
                "addr:street": "Królewska",
                "addr:housenumber": "3",
                "addr:city": "Dobrzyniewo Fabryczne",
                "addr:postcode": "16-002",
                "amenity": "pharmacy"
            },
            "geometry": {
                "type": "Point",
                "coordinates": [
                    23.06434299373265,
                    53.18164965104519
                ]
            }
        },
        {
            "type": "Feature",
            "properties": {
                "ref:csioz": 1192363,
                "name": "Apteka Małgorzata Lipińska",
                "addr:housenumber": "11",
                "addr:city": "Poświętne",
                "addr:postcode": "18-112",
                "amenity": "pharmacy"
            },
            "geometry": {
                "type": "Point",
                "coordinates": [
                    22.83284569608925,
                    52.921497514140185
                ]
            }
        },
        {
            "type": "Feature",
            "properties": {
                "ref:csioz": 1198958,
                "name": "Apteka Bliska Samoobsługowa",
                "addr:street": "Torowa",
                "addr:housenumber": "3",
                "addr:city": "Czarna Białostocka",
                "addr:postcode": "16-020",
                "amenity": "pharmacy"
            },
            "geometry": {
                "type": "Point",
                "coordinates": [
                    23.287113423014514,
                    53.301458344139036
                ]
            }
        },
        {
            "type": "Feature",
            "properties": {
                "ref:csioz": 1199810,
                "name": "Apteka Zdrowie",
                "addr:street": "Henryka Sienkiewicza",
                "addr:housenumber": "28",
                "addr:city": "Choroszcz",
                "addr:postcode": "16-070",
                "amenity": "pharmacy"
            },
            "geometry": {
                "type": "Point",
                "coordinates": [
                    22.986885095243736,
                    53.14929257705797
                ]
            }
        },
        {
            "type": "Feature",
            "properties": {
                "ref:csioz": 1201648,
                "name": "Apteka Rodzinna",
                "addr:street": "Cmentarna",
                "addr:housenumber": "28",
                "addr:city": "Łapy",
                "addr:postcode": "18-100",
                "amenity": "pharmacy"
            },
            "geometry": {
                "type": "Point",
                "coordinates": [
                    22.887597299489524,
                    52.986488909120844
                ]
            }
        },
        {
            "type": "Feature",
            "properties": {
                "ref:csioz": 1205821,
                "name": "Doz Apteka. Dbam O Zdrowie.",
                "addr:street": "Główna",
                "addr:housenumber": "53a",
                "addr:flats": "6",
                "addr:city": "Łapy",
                "addr:postcode": "18-100",
                "amenity": "pharmacy"
            },
            "geometry": {
                "type": "Point",
                "coordinates": [
                    22.876522144838358,
                    52.9905248660695
                ]
            }
        },
        {
            "type": "Feature",
            "properties": {
                "ref:csioz": 1211761,
                "addr:housenumber": "9",
                "addr:city": "Kozińce",
                "addr:postcode": "16-002",
                "amenity": "pharmacy"
            },
            "geometry": {
                "type": "Point",
                "coordinates": [
                    22.993456675101463,
                    53.245181944063376
                ]
            }
        },
        {
            "type": "Feature",
            "properties": {
                "ref:csioz": 1219005,
                "name": "Apteka Melissa",
                "addr:street": "Choroszczańska",
                "addr:housenumber": "5",
                "addr:flats": "1",
                "addr:city": "Tykocin",
                "addr:postcode": "16-080",
                "amenity": "pharmacy"
            },
            "geometry": {
                "type": "Point",
                "coordinates": [
                    22.76954229505625,
                    53.206174928910386
                ]
            }
        },
        {
            "type": "Feature",
            "properties": {
                "ref:csioz": 1221057,
                "name": "Apteka Na Zdrowie",
                "addr:street": "11 Listopada",
                "addr:housenumber": "16",
                "addr:city": "Suraż",
                "addr:postcode": "18-105",
                "amenity": "pharmacy"
            },
            "geometry": {
                "type": "Point",
                "coordinates": [
                    22.95556618066875,
                    52.951628946991384
                ]
            }
        },
        {
            "type": "Feature",
            "properties": {
                "ref:csioz": 1224216,
                "name": "Apteka Dolina Cisów",
                "addr:street": "Białostocka",
                "addr:housenumber": "104",
                "addr:flats": "\"U3,U4,U5\"",
                "addr:city": "Wasilków",
                "addr:postcode": "16-010",
                "amenity": "pharmacy"
            },
            "geometry": {
                "type": "Point",
                "coordinates": [
                    23.186735692151686,
                    53.1821355393113
                ]
            }
        },
        {
            "type": "Feature",
            "properties": {
                "ref:csioz": 1228289,
                "name": "Punkt Apteczny Nova",
                "addr:housenumber": "57",
                "addr:city": "Szymki",
                "addr:postcode": "16-050",
                "amenity": "pharmacy"
            },
            "geometry": {
                "type": "Point",
                "coordinates": [
                    23.843914742585568,
                    52.96676062003043
                ]
            }
        },
        {
            "type": "Feature",
            "properties": {
                "ref:csioz": 1228290,
                "name": "Punkt Apteczny Nova",
                "addr:housenumber": "1",
                "addr:city": "Bondary",
                "addr:postcode": "16-050",
                "amenity": "pharmacy"
            },
            "geometry": {
                "type": "Point",
                "coordinates": [
                    23.740533473895574,
                    52.94429723730652
                ]
            }
        },
        {
            "type": "Feature",
            "properties": {
                "ref:csioz": 1229661,
                "name": "Twój Punkt Apteczny W Zawadach",
                "addr:street": "Sienkiewicza",
                "addr:housenumber": "7",
                "addr:city": "Zawady",
                "addr:postcode": "16-075",
                "amenity": "pharmacy"
            },
            "geometry": {
                "type": "Point",
                "coordinates": [
                    22.665654998291195,
                    53.153847004269885
                ]
            }
        },
        {
            "type": "Feature",
            "properties": {
                "ref:csioz": 1176800,
                "name": "\"Apteka \"\"Nasze Zdrowie\"\"\"",
                "addr:street": "Piaskowa",
                "addr:housenumber": "7",
                "addr:city": "Łapy",
                "addr:postcode": "18-100",
                "amenity": "pharmacy"
            },
            "geometry": {
                "type": "Point",
                "coordinates": [
                    22.877537406576362,
                    52.99348278529214
                ]
            }
        },
        {
            "type": "Feature",
            "properties": {
                "ref:csioz": 1230645,
                "name": "Punkt Apteczny Zdrowie 2",
                "addr:street": "Białostocka",
                "addr:housenumber": "23",
                "addr:city": "Dobrzyniewo Duże",
                "addr:postcode": "16-002",
                "amenity": "pharmacy"
            },
            "geometry": {
                "type": "Point",
                "coordinates": [
                    23.020436779270547,
                    53.198384720192536
                ]
            }
        }
    ]
}