{
    "type": "FeatureCollection",
    "name": "JPT_KOD_JE_0219",
    "crs": {
        "type": "name",
        "properties": {
            "name": "urn:ogc:def:crs:EPSG::4326"
        }
    },
    "features": [
        {
            "type": "Feature",
            "properties": {
                "ref:csioz": 1133396,
                "name": "Apteka Remedium",
                "addr:street": "Kard. Stefana Wyszyńskiego",
                "addr:housenumber": "13",
                "addr:city": "Świdnica",
                "addr:postcode": "58-100",
                "amenity": "pharmacy"
            },
            "geometry": {
                "type": "Point",
                "coordinates": [
                    16.46671532110312,
                    50.84809448864243
                ]
            }
        },
        {
            "type": "Feature",
            "properties": {
                "ref:csioz": 1133445,
                "name": "Apteka Viscum",
                "addr:street": "Wałbrzyska",
                "addr:housenumber": "8",
                "addr:city": "Świdnica",
                "addr:postcode": "58-100",
                "amenity": "pharmacy"
            },
            "geometry": {
                "type": "Point",
                "coordinates": [
                    16.48217730144703,
                    50.83977291094672
                ]
            }
        },
        {
            "type": "Feature",
            "properties": {
                "ref:csioz": 1133468,
                "name": "Królewska",
                "addr:street": "Armii Krajowej",
                "addr:housenumber": "44",
                "addr:city": "Żarów",
                "addr:postcode": "58-130",
                "amenity": "pharmacy"
            },
            "geometry": {
                "type": "Point",
                "coordinates": [
                    16.494240021333788,
                    50.94133803083593
                ]
            }
        },
        {
            "type": "Feature",
            "properties": {
                "ref:csioz": 1133642,
                "name": "Hibiscus",
                "addr:street": "Wrocławska",
                "addr:housenumber": "10",
                "addr:city": "Pszenno",
                "addr:postcode": "58-125",
                "amenity": "pharmacy"
            },
            "geometry": {
                "type": "Point",
                "coordinates": [
                    16.541214398361596,
                    50.855986585019984
                ]
            }
        },
        {
            "type": "Feature",
            "properties": {
                "ref:csioz": 1133824,
                "name": "Euro Apteka",
                "addr:street": "Strzegomska",
                "addr:housenumber": "2",
                "addr:city": "Świdnica",
                "addr:postcode": "58-100",
                "amenity": "pharmacy"
            },
            "geometry": {
                "type": "Point",
                "coordinates": [
                    16.475121209595194,
                    50.85180567836012
                ]
            }
        },
        {
            "type": "Feature",
            "properties": {
                "ref:csioz": 1133862,
                "name": "Staromiejska",
                "addr:street": "Długa",
                "addr:housenumber": "34",
                "addr:city": "Świdnica",
                "addr:postcode": "58-100",
                "amenity": "pharmacy"
            },
            "geometry": {
                "type": "Point",
                "coordinates": [
                    16.489706614929656,
                    50.84132973458513
                ]
            }
        },
        {
            "type": "Feature",
            "properties": {
                "ref:csioz": 1134451,
                "name": "Słoneczna",
                "addr:street": "Kazimierza Wielkiego",
                "addr:housenumber": "1A",
                "addr:city": "Świdnica",
                "addr:postcode": "58-100",
                "amenity": "pharmacy"
            },
            "geometry": {
                "type": "Point",
                "coordinates": [
                    16.488906999991517,
                    50.85748200001377
                ]
            }
        },
        {
            "type": "Feature",
            "properties": {
                "ref:csioz": 1134467,
                "name": "Prima",
                "addr:street": "Strzegomska",
                "addr:housenumber": "13A",
                "addr:city": "Świebodzice",
                "addr:postcode": "58-160",
                "amenity": "pharmacy"
            },
            "geometry": {
                "type": "Point",
                "coordinates": [
                    16.32296144093527,
                    50.86141576711837
                ]
            }
        },
        {
            "type": "Feature",
            "properties": {
                "ref:csioz": 1134519,
                "name": "Świerkowa",
                "addr:street": "Bartosza Głowackiego",
                "addr:housenumber": "28",
                "addr:city": "Świdnica",
                "addr:postcode": "58-100",
                "amenity": "pharmacy"
            },
            "geometry": {
                "type": "Point",
                "coordinates": [
                    16.472696359252616,
                    50.83934284218091
                ]
            }
        },
        {
            "type": "Feature",
            "properties": {
                "ref:csioz": 1134570,
                "name": "Apteka W Pafalu",
                "addr:street": "Gdyńska",
                "addr:housenumber": "25",
                "addr:flats": "1",
                "addr:city": "Świdnica",
                "addr:postcode": "58-100",
                "amenity": "pharmacy"
            },
            "geometry": {
                "type": "Point",
                "coordinates": [
                    16.487472995038683,
                    50.849435068671845
                ]
            }
        },
        {
            "type": "Feature",
            "properties": {
                "ref:csioz": 1134508,
                "name": "Słoneczna",
                "addr:street": "Sienkiewicza",
                "addr:housenumber": "27-29",
                "addr:city": "Świebodzice",
                "addr:postcode": "58-160",
                "amenity": "pharmacy"
            },
            "geometry": {
                "type": "Point",
                "coordinates": [
                    16.316967018847617,
                    50.85990717712708
                ]
            }
        },
        {
            "type": "Feature",
            "properties": {
                "ref:csioz": 1134966,
                "addr:street": "Wolności",
                "addr:housenumber": "6",
                "addr:city": "Dobromierz",
                "addr:postcode": "58-170",
                "amenity": "pharmacy"
            },
            "geometry": {
                "type": "Point",
                "coordinates": [
                    16.238555469095562,
                    50.911538618864036
                ]
            }
        },
        {
            "type": "Feature",
            "properties": {
                "ref:csioz": 1135101,
                "name": "Dział Farmacji Szpitalnej",
                "addr:street": "Marii Skłodowskiej-Curie",
                "addr:housenumber": "3-7",
                "addr:city": "Świebodzice",
                "addr:postcode": "58-160",
                "amenity": "pharmacy"
            },
            "geometry": {
                "type": "Point",
                "coordinates": [
                    16.32181078040272,
                    50.85419777767827
                ]
            }
        },
        {
            "type": "Feature",
            "properties": {
                "ref:csioz": 1137281,
                "name": "Apteka Centrum",
                "addr:street": "Witosa",
                "addr:housenumber": "5",
                "addr:city": "Strzegom",
                "addr:postcode": "58-150",
                "amenity": "pharmacy"
            },
            "geometry": {
                "type": "Point",
                "coordinates": [
                    16.344206027228655,
                    50.96642046960326
                ]
            }
        },
        {
            "type": "Feature",
            "properties": {
                "ref:csioz": 1137521,
                "name": "Stylowa",
                "addr:street": "Rynek",
                "addr:housenumber": "27",
                "addr:city": "Świdnica",
                "addr:postcode": "58-100",
                "amenity": "pharmacy"
            },
            "geometry": {
                "type": "Point",
                "coordinates": [
                    16.48625967949231,
                    50.842252061037435
                ]
            }
        },
        {
            "type": "Feature",
            "properties": {
                "ref:csioz": 1160374,
                "name": "\"Apteka \"\"Śląska\"\"\"",
                "addr:street": "Jarosława Dąbrowskiego",
                "addr:housenumber": "2",
                "addr:city": "Strzegom",
                "addr:postcode": "58-150",
                "amenity": "pharmacy"
            },
            "geometry": {
                "type": "Point",
                "coordinates": [
                    16.34733682455536,
                    50.95970216479351
                ]
            }
        },
        {
            "type": "Feature",
            "properties": {
                "ref:csioz": 1160459,
                "name": "Pod Bykami",
                "addr:street": "Długa",
                "addr:housenumber": "45",
                "addr:city": "Świdnica",
                "addr:postcode": "58-100",
                "amenity": "pharmacy"
            },
            "geometry": {
                "type": "Point",
                "coordinates": [
                    16.49258727015436,
                    50.84198149853348
                ]
            }
        },
        {
            "type": "Feature",
            "properties": {
                "ref:csioz": 1160484,
                "name": "Apteka Franciszkańska",
                "addr:street": "Rynek",
                "addr:housenumber": "1/1a",
                "addr:city": "Świdnica",
                "addr:postcode": "58-100",
                "amenity": "pharmacy"
            },
            "geometry": {
                "type": "Point",
                "coordinates": [
                    16.48667499999147,
                    50.84343200001376
                ]
            }
        },
        {
            "type": "Feature",
            "properties": {
                "ref:csioz": 1160492,
                "name": "Arnica",
                "addr:street": "Lutomia Dolna",
                "addr:housenumber": "9",
                "addr:city": "Lutomia Dolna",
                "addr:postcode": "58-100",
                "amenity": "pharmacy"
            },
            "geometry": {
                "type": "Point",
                "coordinates": [
                    16.530121999992076,
                    50.754502000013616
                ]
            }
        },
        {
            "type": "Feature",
            "properties": {
                "ref:csioz": 1160522,
                "name": "Galen",
                "addr:street": "Karola Marcinkowskiego",
                "addr:housenumber": "14",
                "addr:city": "Świdnica",
                "addr:postcode": "58-105",
                "amenity": "pharmacy"
            },
            "geometry": {
                "type": "Point",
                "coordinates": [
                    16.46308373897382,
                    50.84467481258961
                ]
            }
        },
        {
            "type": "Feature",
            "properties": {
                "ref:csioz": 1160533,
                "name": "-",
                "addr:street": "Henryka Probusa",
                "addr:housenumber": "20/22",
                "addr:city": "Świebodzice",
                "addr:postcode": "58-160",
                "amenity": "pharmacy"
            },
            "geometry": {
                "type": "Point",
                "coordinates": [
                    16.310895999988244,
                    50.86492500001381
                ]
            }
        },
        {
            "type": "Feature",
            "properties": {
                "ref:csioz": 1176892,
                "name": "Apteka Z Plusem",
                "addr:street": "Wolności",
                "addr:housenumber": "29",
                "addr:city": "Świebodzice",
                "addr:postcode": "58-160",
                "amenity": "pharmacy"
            },
            "geometry": {
                "type": "Point",
                "coordinates": [
                    16.326718205264385,
                    50.85858212835853
                ]
            }
        },
        {
            "type": "Feature",
            "properties": {
                "ref:csioz": 1180855,
                "name": "Centrum Zdrowia",
                "addr:street": "Stefana Żeromskiego",
                "addr:housenumber": "11",
                "addr:city": "Świdnica",
                "addr:postcode": "58-100",
                "amenity": "pharmacy"
            },
            "geometry": {
                "type": "Point",
                "coordinates": [
                    16.482751028170874,
                    50.84203364193267
                ]
            }
        },
        {
            "type": "Feature",
            "properties": {
                "ref:csioz": 1194722,
                "name": "Dr. Max",
                "addr:street": "Kotlarska",
                "addr:housenumber": "24-28",
                "addr:city": "Świdnica",
                "addr:postcode": "58-100",
                "amenity": "pharmacy"
            },
            "geometry": {
                "type": "Point",
                "coordinates": [
                    16.484132080136217,
                    50.84303218352034
                ]
            }
        },
        {
            "type": "Feature",
            "properties": {
                "ref:csioz": 1195114,
                "name": "Medica",
                "addr:street": "Marii Konopnickiej",
                "addr:housenumber": "4",
                "addr:city": "Świdnica",
                "addr:postcode": "58-100",
                "amenity": "pharmacy"
            },
            "geometry": {
                "type": "Point",
                "coordinates": [
                    16.485641318800727,
                    50.844564098223636
                ]
            }
        },
        {
            "type": "Feature",
            "properties": {
                "ref:csioz": 1205106,
                "name": "Prima",
                "addr:street": "Rolnicza",
                "addr:housenumber": "1",
                "addr:flats": "lokal 22",
                "addr:city": "Świdnica",
                "addr:postcode": "58-100",
                "amenity": "pharmacy"
            },
            "geometry": {
                "type": "Point",
                "coordinates": [
                    16.507232058269153,
                    50.8417732748331
                ]
            }
        },
        {
            "type": "Feature",
            "properties": {
                "ref:csioz": 1223537,
                "name": "Apteka Dr.Optima",
                "addr:street": "Stefana Żeromskiego",
                "addr:housenumber": "25",
                "addr:city": "Świebodzice",
                "addr:postcode": "58-160",
                "amenity": "pharmacy"
            },
            "geometry": {
                "type": "Point",
                "coordinates": [
                    16.321848905300417,
                    50.85975942909479
                ]
            }
        },
        {
            "type": "Feature",
            "properties": {
                "ref:csioz": 1133506,
                "name": "Salus",
                "addr:street": "Leopolda Staffa",
                "addr:housenumber": "1a",
                "addr:flats": "1",
                "addr:city": "Marcinowice",
                "addr:postcode": "58-124",
                "amenity": "pharmacy"
            },
            "geometry": {
                "type": "Point",
                "coordinates": [
                    16.582092846022267,
                    50.88000330675718
                ]
            }
        },
        {
            "type": "Feature",
            "properties": {
                "ref:csioz": 1133579,
                "name": "Pod Lipami",
                "addr:street": "Stefana Żeromskiego",
                "addr:housenumber": "7/9",
                "addr:city": "Świebodzice",
                "addr:postcode": "58-160",
                "amenity": "pharmacy"
            },
            "geometry": {
                "type": "Point",
                "coordinates": [
                    16.320884999988444,
                    50.860035000013795
                ]
            }
        },
        {
            "type": "Feature",
            "properties": {
                "ref:csioz": 1133587,
                "name": "Pod Lipami",
                "addr:street": "Wolności",
                "addr:housenumber": "20",
                "addr:city": "Świebodzice",
                "addr:postcode": "58-160",
                "amenity": "pharmacy"
            },
            "geometry": {
                "type": "Point",
                "coordinates": [
                    16.325042244885697,
                    50.859211680280865
                ]
            }
        },
        {
            "type": "Feature",
            "properties": {
                "ref:csioz": 1133476,
                "name": "Apteka Gemini",
                "addr:street": "Ludwika Zamenhofa",
                "addr:housenumber": "46",
                "addr:city": "Świdnica",
                "addr:postcode": "58-100",
                "amenity": "pharmacy"
            },
            "geometry": {
                "type": "Point",
                "coordinates": [
                    16.47111365919658,
                    50.845329761752176
                ]
            }
        },
        {
            "type": "Feature",
            "properties": {
                "ref:csioz": 1133870,
                "name": "Dr. Max",
                "addr:street": "Zamenhofa",
                "addr:housenumber": "47",
                "addr:city": "Świdnica",
                "addr:postcode": "58-105",
                "amenity": "pharmacy"
            },
            "geometry": {
                "type": "Point",
                "coordinates": [
                    16.47265170598012,
                    50.84627242559618
                ]
            }
        },
        {
            "type": "Feature",
            "properties": {
                "ref:csioz": 1133881,
                "name": "Grunwaldzka",
                "addr:street": "Grunwaldzki",
                "addr:housenumber": "11",
                "addr:city": "Świdnica",
                "addr:postcode": "58-100",
                "amenity": "pharmacy"
            },
            "geometry": {
                "type": "Point",
                "coordinates": [
                    16.484256202031045,
                    50.841220467522085
                ]
            }
        },
        {
            "type": "Feature",
            "properties": {
                "ref:csioz": 1133909,
                "name": "Pod Sokołem",
                "addr:street": "Armii Krajowej",
                "addr:housenumber": "56",
                "addr:city": "Żarów",
                "addr:postcode": "58-130",
                "amenity": "pharmacy"
            },
            "geometry": {
                "type": "Point",
                "coordinates": [
                    16.493320478127465,
                    50.94281720862573
                ]
            }
        },
        {
            "type": "Feature",
            "properties": {
                "ref:csioz": 1134112,
                "name": "Apteka Vademecum",
                "addr:street": "Rynek",
                "addr:housenumber": "44",
                "addr:city": "Strzegom",
                "addr:postcode": "58-150",
                "amenity": "pharmacy"
            },
            "geometry": {
                "type": "Point",
                "coordinates": [
                    16.34601524431119,
                    50.959819594421006
                ]
            }
        },
        {
            "type": "Feature",
            "properties": {
                "ref:csioz": 1134120,
                "name": "\"\"\"Avena\"\"\"",
                "addr:street": "Rynek",
                "addr:housenumber": "32-36",
                "addr:city": "Strzegom",
                "addr:postcode": "58-150",
                "amenity": "pharmacy"
            },
            "geometry": {
                "type": "Point",
                "coordinates": [
                    16.345677999989054,
                    50.959482000013956
                ]
            }
        },
        {
            "type": "Feature",
            "properties": {
                "ref:csioz": 1134148,
                "name": "Dobra Apteka",
                "addr:street": "Kościelna",
                "addr:housenumber": "6",
                "addr:city": "Strzegom",
                "addr:postcode": "58-150",
                "amenity": "pharmacy"
            },
            "geometry": {
                "type": "Point",
                "coordinates": [
                    16.348003329906902,
                    50.96026950377068
                ]
            }
        },
        {
            "type": "Feature",
            "properties": {
                "ref:csioz": 1134157,
                "name": "Medyk",
                "addr:street": "Gdyńska",
                "addr:housenumber": "21",
                "addr:city": "Świdnica",
                "addr:postcode": "58-100",
                "amenity": "pharmacy"
            },
            "geometry": {
                "type": "Point",
                "coordinates": [
                    16.488583492995765,
                    50.84961132418475
                ]
            }
        },
        {
            "type": "Feature",
            "properties": {
                "ref:csioz": 1134185,
                "name": "Apteka Prima",
                "addr:street": "Łokietka",
                "addr:housenumber": "17ab",
                "addr:city": "Żarów",
                "addr:postcode": "58-130",
                "amenity": "pharmacy"
            },
            "geometry": {
                "type": "Point",
                "coordinates": [
                    16.492198867556798,
                    50.936434919947146
                ]
            }
        },
        {
            "type": "Feature",
            "properties": {
                "ref:csioz": 1134318,
                "name": "Euro Apteka",
                "addr:street": "Wróblewskiego",
                "addr:housenumber": "1A",
                "addr:city": "Świdnica",
                "addr:postcode": "58-105",
                "amenity": "pharmacy"
            },
            "geometry": {
                "type": "Point",
                "coordinates": [
                    16.46967663702969,
                    50.84509649840549
                ]
            }
        },
        {
            "type": "Feature",
            "properties": {
                "ref:csioz": 1134371,
                "name": "Vanilia",
                "addr:street": "Krasińskiego",
                "addr:housenumber": "12",
                "addr:city": "Żarów",
                "addr:postcode": "58-130",
                "amenity": "pharmacy"
            },
            "geometry": {
                "type": "Point",
                "coordinates": [
                    16.4970019890668,
                    50.94351894269169
                ]
            }
        },
        {
            "type": "Feature",
            "properties": {
                "ref:csioz": 1134610,
                "name": "Apteka Cytrynowa",
                "addr:street": "Świdnicka",
                "addr:housenumber": "4",
                "addr:city": "Jaworzyna Śląska",
                "addr:postcode": "58-140",
                "amenity": "pharmacy"
            },
            "geometry": {
                "type": "Point",
                "coordinates": [
                    16.432828014114452,
                    50.912340207264755
                ]
            }
        },
        {
            "type": "Feature",
            "properties": {
                "ref:csioz": 1134641,
                "name": "W Galerii",
                "addr:street": "Westerplatte",
                "addr:housenumber": "29",
                "addr:city": "Świdnica",
                "addr:postcode": "58-100",
                "amenity": "pharmacy"
            },
            "geometry": {
                "type": "Point",
                "coordinates": [
                    16.497382087549347,
                    50.839625246241745
                ]
            }
        },
        {
            "type": "Feature",
            "properties": {
                "ref:csioz": 1134655,
                "name": "Św. Małgorzaty",
                "addr:street": "Św. Małgorzaty",
                "addr:housenumber": "19-20",
                "addr:city": "Świdnica",
                "addr:postcode": "58-100",
                "amenity": "pharmacy"
            },
            "geometry": {
                "type": "Point",
                "coordinates": [
                    16.486035239210807,
                    50.84500680598481
                ]
            }
        },
        {
            "type": "Feature",
            "properties": {
                "ref:csioz": 1134678,
                "name": "Medicus",
                "addr:street": "Królowej Elżbiety",
                "addr:housenumber": "84",
                "addr:city": "Świebodzice",
                "addr:postcode": "58-160",
                "amenity": "pharmacy"
            },
            "geometry": {
                "type": "Point",
                "coordinates": [
                    16.316615479320234,
                    50.86797300967791
                ]
            }
        },
        {
            "type": "Feature",
            "properties": {
                "ref:csioz": 1134717,
                "name": "\"\"\"Vita\"\"\"",
                "addr:street": "Witosa Wincentego",
                "addr:housenumber": "7",
                "addr:city": "Strzegom",
                "addr:postcode": "58-150",
                "amenity": "pharmacy"
            },
            "geometry": {
                "type": "Point",
                "coordinates": [
                    16.344166156090676,
                    50.966559204186744
                ]
            }
        },
        {
            "type": "Feature",
            "properties": {
                "ref:csioz": 1134686,
                "name": "Apteka Słoneczna",
                "addr:street": "Osiedle Sudeckie",
                "addr:housenumber": "10",
                "addr:city": "Świebodzice",
                "addr:postcode": "58-160",
                "amenity": "pharmacy"
            },
            "geometry": {
                "type": "Point",
                "coordinates": [
                    16.33326005504821,
                    50.85722438028552
                ]
            }
        },
        {
            "type": "Feature",
            "properties": {
                "ref:csioz": 1160094,
                "name": "Pod Złotym Wężem",
                "addr:street": "Wolności",
                "addr:housenumber": "5",
                "addr:city": "Jaworzyna Śląska",
                "addr:postcode": "58-140",
                "amenity": "pharmacy"
            },
            "geometry": {
                "type": "Point",
                "coordinates": [
                    16.431921686218956,
                    50.914420626933676
                ]
            }
        },
        {
            "type": "Feature",
            "properties": {
                "ref:csioz": 1160382,
                "name": "Królewska",
                "addr:street": "Wojska Polskiego",
                "addr:housenumber": "2",
                "addr:city": "Strzegom",
                "addr:postcode": "58-150",
                "amenity": "pharmacy"
            },
            "geometry": {
                "type": "Point",
                "coordinates": [
                    16.350989146648185,
                    50.96069871133716
                ]
            }
        },
        {
            "type": "Feature",
            "properties": {
                "ref:csioz": 1160400,
                "name": "Królewska",
                "addr:street": "Legnicka",
                "addr:housenumber": "14W",
                "addr:city": "Strzegom",
                "addr:postcode": "58-150",
                "amenity": "pharmacy"
            },
            "geometry": {
                "type": "Point",
                "coordinates": [
                    16.345816981601395,
                    50.965979718563375
                ]
            }
        },
        {
            "type": "Feature",
            "properties": {
                "ref:csioz": 1160445,
                "name": "Świdnicka",
                "addr:street": "Komunardów",
                "addr:housenumber": "4",
                "addr:city": "Świdnica",
                "addr:postcode": "58-100",
                "amenity": "pharmacy"
            },
            "geometry": {
                "type": "Point",
                "coordinates": [
                    16.483932540505496,
                    50.84471395675758
                ]
            }
        },
        {
            "type": "Feature",
            "properties": {
                "ref:csioz": 1160808,
                "name": "Nova",
                "addr:street": "Piastowska",
                "addr:housenumber": "3",
                "addr:city": "Żarów",
                "addr:postcode": "58-130",
                "amenity": "pharmacy"
            },
            "geometry": {
                "type": "Point",
                "coordinates": [
                    16.492456053637447,
                    50.93586753795935
                ]
            }
        },
        {
            "type": "Feature",
            "properties": {
                "ref:csioz": 1161423,
                "name": "Samodzielny Publiczny Zespół Opieki Zdrowotnej W Świdnicy-Szpital",
                "addr:street": "Leśna",
                "addr:housenumber": "27-29",
                "addr:city": "Świdnica",
                "addr:postcode": "58-100",
                "amenity": "pharmacy"
            },
            "geometry": {
                "type": "Point",
                "coordinates": [
                    16.468067748437758,
                    50.83181323869653
                ]
            }
        },
        {
            "type": "Feature",
            "properties": {
                "ref:csioz": 1198176,
                "name": "Apteka Victoria",
                "addr:street": "Ceglana",
                "addr:housenumber": "2",
                "addr:flats": "09.14",
                "addr:city": "Świdnica",
                "addr:postcode": "58-100",
                "amenity": "pharmacy"
            },
            "geometry": {
                "type": "Point",
                "coordinates": [
                    16.461137997974625,
                    50.842078215350625
                ]
            }
        },
        {
            "type": "Feature",
            "properties": {
                "ref:csioz": 1199594,
                "name": "Salus",
                "addr:street": "Mikołaja Kopernika",
                "addr:housenumber": "19E",
                "addr:city": "Świdnica",
                "addr:postcode": "58-100",
                "amenity": "pharmacy"
            },
            "geometry": {
                "type": "Point",
                "coordinates": [
                    16.511142151245338,
                    50.840789397491264
                ]
            }
        },
        {
            "type": "Feature",
            "properties": {
                "ref:csioz": 1211736,
                "name": "\"Apteka 'Vitrum'\"",
                "addr:street": "ul. Aleja Wojska Polskiego",
                "addr:housenumber": "80D",
                "addr:flats": "lokal 7",
                "addr:city": "Strzegom",
                "addr:postcode": "58-150",
                "amenity": "pharmacy"
            },
            "geometry": {
                "type": "Point",
                "coordinates": [
                    16.363235312776737,
                    50.97550487899327
                ]
            }
        },
        {
            "type": "Feature",
            "properties": {
                "ref:csioz": 1217168,
                "name": "Nzoz Stacja Opieki Caritas Diecezji Świdnickiej - Świdnickie Hospicjum I Zakład Opieki Leczniczej Ojca Pio W Świdnicy",
                "addr:street": "Przyjaźni",
                "addr:housenumber": "2",
                "addr:city": "Świdnica",
                "addr:postcode": "58-100",
                "amenity": "pharmacy"
            },
            "geometry": {
                "type": "Point",
                "coordinates": [
                    16.486466696911656,
                    50.8268039021989
                ]
            }
        },
        {
            "type": "Feature",
            "properties": {
                "ref:csioz": 1220541,
                "name": "Dobra Apteka",
                "addr:street": "Jana Pawła II",
                "addr:housenumber": "3",
                "addr:city": "Jaworzyna Śląska",
                "addr:postcode": "58-140",
                "amenity": "pharmacy"
            },
            "geometry": {
                "type": "Point",
                "coordinates": [
                    16.428796534301732,
                    50.91123815633228
                ]
            }
        },
        {
            "type": "Feature",
            "properties": {
                "ref:csioz": 1220555,
                "name": "Apteka Gemini",
                "addr:street": "Grodzka",
                "addr:housenumber": "1",
                "addr:city": "Świdnica",
                "addr:postcode": "58-100",
                "amenity": "pharmacy"
            },
            "geometry": {
                "type": "Point",
                "coordinates": [
                    16.48640030848425,
                    50.843357443291936
                ]
            }
        },
        {
            "type": "Feature",
            "properties": {
                "ref:csioz": 1134098,
                "name": "Pod Koroną",
                "addr:street": "Westerplatte",
                "addr:housenumber": "19",
                "addr:flats": "2",
                "addr:city": "Świdnica",
                "addr:postcode": "58-100",
                "amenity": "pharmacy"
            },
            "geometry": {
                "type": "Point",
                "coordinates": [
                    16.495435676656566,
                    50.840467353433176
                ]
            }
        },
        {
            "type": "Feature",
            "properties": {
                "ref:csioz": 1134629,
                "name": "Apteka Lawenda",
                "addr:street": "Mieszka I",
                "addr:housenumber": "4",
                "addr:city": "Świebodzice",
                "addr:postcode": "58-160",
                "amenity": "pharmacy"
            },
            "geometry": {
                "type": "Point",
                "coordinates": [
                    16.31847628579514,
                    50.863869605933296
                ]
            }
        }
    ]
}