{
    "type": "FeatureCollection",
    "name": "JPT_KOD_JE_0604",
    "crs": {
        "type": "name",
        "properties": {
            "name": "urn:ogc:def:crs:EPSG::4326"
        }
    },
    "features": [
        {
            "type": "Feature",
            "properties": {
                "ref:csioz": 1106539,
                "addr:housenumber": "37",
                "addr:city": "Turkowice",
                "addr:postcode": "22-546",
                "amenity": "pharmacy"
            },
            "geometry": {
                "type": "Point",
                "coordinates": [
                    23.737154634561396,
                    50.667496492149716
                ]
            }
        },
        {
            "type": "Feature",
            "properties": {
                "ref:csioz": 1106474,
                "addr:housenumber": "258",
                "addr:city": "Nieledew",
                "addr:postcode": "22-554",
                "amenity": "pharmacy"
            },
            "geometry": {
                "type": "Point",
                "coordinates": [
                    23.780009983383756,
                    50.83659915316663
                ]
            }
        },
        {
            "type": "Feature",
            "properties": {
                "ref:csioz": 1106526,
                "addr:housenumber": "28",
                "addr:city": "Teratyn",
                "addr:postcode": "22-510",
                "amenity": "pharmacy"
            },
            "geometry": {
                "type": "Point",
                "coordinates": [
                    23.756441474205648,
                    50.899739751073035
                ]
            }
        },
        {
            "type": "Feature",
            "properties": {
                "ref:csioz": 1106458,
                "addr:street": "Hrubieszowska",
                "addr:housenumber": "43",
                "addr:city": "Kryłów",
                "addr:postcode": "22-530",
                "amenity": "pharmacy"
            },
            "geometry": {
                "type": "Point",
                "coordinates": [
                    24.053132306700473,
                    50.685610269942885
                ]
            }
        },
        {
            "type": "Feature",
            "properties": {
                "ref:csioz": 1153853,
                "addr:street": "Mickiewicza",
                "addr:housenumber": "8",
                "addr:city": "Hrubieszów",
                "addr:postcode": "22-500",
                "amenity": "pharmacy"
            },
            "geometry": {
                "type": "Point",
                "coordinates": [
                    23.89565943444419,
                    50.802211785634256
                ]
            }
        },
        {
            "type": "Feature",
            "properties": {
                "ref:csioz": 1154449,
                "addr:street": "Piłsudskiego",
                "addr:housenumber": "38",
                "addr:city": "Horodło",
                "addr:postcode": "22-523",
                "amenity": "pharmacy"
            },
            "geometry": {
                "type": "Point",
                "coordinates": [
                    24.042099152040905,
                    50.894221889568485
                ]
            }
        },
        {
            "type": "Feature",
            "properties": {
                "ref:csioz": 1154657,
                "name": "Apteka Od Serca",
                "addr:street": "Piłsudskiego",
                "addr:housenumber": "1",
                "addr:city": "Werbkowice",
                "addr:postcode": "22-550",
                "amenity": "pharmacy"
            },
            "geometry": {
                "type": "Point",
                "coordinates": [
                    23.764183714777847,
                    50.75332021398282
                ]
            }
        },
        {
            "type": "Feature",
            "properties": {
                "ref:csioz": 1154661,
                "name": "Apteka Od Serca",
                "addr:street": "Targowa",
                "addr:housenumber": "20",
                "addr:city": "Hrubieszów",
                "addr:postcode": "22-500",
                "amenity": "pharmacy"
            },
            "geometry": {
                "type": "Point",
                "coordinates": [
                    23.894624903779842,
                    50.80588138529973
                ]
            }
        },
        {
            "type": "Feature",
            "properties": {
                "ref:csioz": 1154908,
                "addr:street": "Dwernickiego",
                "addr:housenumber": "92",
                "addr:city": "Hrubieszów",
                "addr:postcode": "22-500",
                "amenity": "pharmacy"
            },
            "geometry": {
                "type": "Point",
                "coordinates": [
                    23.88452400023975,
                    50.81417900001976
                ]
            }
        },
        {
            "type": "Feature",
            "properties": {
                "ref:csioz": 1154935,
                "addr:street": "Mickiewicza",
                "addr:housenumber": "1A",
                "addr:flats": "1",
                "addr:city": "Hrubieszów",
                "addr:postcode": "22-500",
                "amenity": "pharmacy"
            },
            "geometry": {
                "type": "Point",
                "coordinates": [
                    23.89617863082926,
                    50.80290378687106
                ]
            }
        },
        {
            "type": "Feature",
            "properties": {
                "ref:csioz": 1153968,
                "addr:street": "Mickiewicza",
                "addr:housenumber": "1B",
                "addr:flats": "4-5",
                "addr:city": "Hrubieszów",
                "addr:postcode": "22-500",
                "amenity": "pharmacy"
            },
            "geometry": {
                "type": "Point",
                "coordinates": [
                    23.896382315326097,
                    50.80288818449066
                ]
            }
        },
        {
            "type": "Feature",
            "properties": {
                "ref:csioz": 1153937,
                "addr:street": "Piłsudskiego",
                "addr:housenumber": "46",
                "addr:city": "Hrubieszów",
                "addr:postcode": "22-500",
                "amenity": "pharmacy"
            },
            "geometry": {
                "type": "Point",
                "coordinates": [
                    23.895315329726674,
                    50.80332269306458
                ]
            }
        },
        {
            "type": "Feature",
            "properties": {
                "ref:csioz": 1154350,
                "addr:street": "Rynek",
                "addr:housenumber": "1",
                "addr:city": "Uchanie",
                "addr:postcode": "22-510",
                "amenity": "pharmacy"
            },
            "geometry": {
                "type": "Point",
                "coordinates": [
                    23.646533035410254,
                    50.90742369133723
                ]
            }
        },
        {
            "type": "Feature",
            "properties": {
                "ref:csioz": 1154388,
                "name": "Apteka Płaneta Anna",
                "addr:street": "Kryłowska",
                "addr:housenumber": "41",
                "addr:city": "Mircze",
                "addr:postcode": "22-530",
                "amenity": "pharmacy"
            },
            "geometry": {
                "type": "Point",
                "coordinates": [
                    23.901126880251255,
                    50.6515565164863
                ]
            }
        },
        {
            "type": "Feature",
            "properties": {
                "ref:csioz": 1154604,
                "addr:housenumber": "146",
                "addr:city": "Trzeszczany",
                "addr:postcode": "22-554",
                "amenity": "pharmacy"
            },
            "geometry": {
                "type": "Point",
                "coordinates": [
                    23.731971000203384,
                    50.81762400001843
                ]
            }
        },
        {
            "type": "Feature",
            "properties": {
                "ref:csioz": 1154855,
                "addr:street": "Zamojska",
                "addr:housenumber": "12",
                "addr:city": "Hrubieszów",
                "addr:postcode": "22-500",
                "amenity": "pharmacy"
            },
            "geometry": {
                "type": "Point",
                "coordinates": [
                    23.891114243343313,
                    50.80043131653128
                ]
            }
        },
        {
            "type": "Feature",
            "properties": {
                "ref:csioz": 1154864,
                "addr:street": "3 Maja",
                "addr:housenumber": "2",
                "addr:city": "Hrubieszów",
                "addr:postcode": "22-500",
                "amenity": "pharmacy"
            },
            "geometry": {
                "type": "Point",
                "coordinates": [
                    23.890745000241697,
                    50.80533500001982
                ]
            }
        },
        {
            "type": "Feature",
            "properties": {
                "ref:csioz": 1155098,
                "addr:housenumber": "134",
                "addr:city": "Dziekanów",
                "addr:postcode": "22-500",
                "amenity": "pharmacy"
            },
            "geometry": {
                "type": "Point",
                "coordinates": [
                    23.918229734446246,
                    50.84513347184223
                ]
            }
        },
        {
            "type": "Feature",
            "properties": {
                "ref:csioz": 1155199,
                "name": "Apteka Przy Rynku",
                "addr:street": "Marii Konopnickiej",
                "addr:housenumber": "3A",
                "addr:city": "Werbkowice",
                "addr:postcode": "22-550",
                "amenity": "pharmacy"
            },
            "geometry": {
                "type": "Point",
                "coordinates": [
                    23.765064000213048,
                    50.75330600001859
                ]
            }
        },
        {
            "type": "Feature",
            "properties": {
                "ref:csioz": 1155237,
                "addr:street": "Narutowicza",
                "addr:housenumber": "25",
                "addr:city": "Hrubieszów",
                "addr:postcode": "22-500",
                "amenity": "pharmacy"
            },
            "geometry": {
                "type": "Point",
                "coordinates": [
                    23.88916610085921,
                    50.805937200284184
                ]
            }
        },
        {
            "type": "Feature",
            "properties": {
                "ref:csioz": 1155326,
                "addr:street": "Mickiewicza",
                "addr:housenumber": "2",
                "addr:city": "Hrubieszów",
                "addr:postcode": "22-500",
                "amenity": "pharmacy"
            },
            "geometry": {
                "type": "Point",
                "coordinates": [
                    23.895468737498664,
                    50.802828154936485
                ]
            }
        },
        {
            "type": "Feature",
            "properties": {
                "ref:csioz": 1203566,
                "name": "-",
                "addr:street": "Jagiellońska",
                "addr:housenumber": "21",
                "addr:city": "Strzyżów",
                "addr:postcode": "22-523",
                "amenity": "pharmacy"
            },
            "geometry": {
                "type": "Point",
                "coordinates": [
                    24.02318096097071,
                    50.84359257643332
                ]
            }
        },
        {
            "type": "Feature",
            "properties": {
                "ref:csioz": 1182209,
                "name": "Twoja Apteka",
                "addr:street": "Szkolna",
                "addr:housenumber": "2a",
                "addr:city": "Dołhobyczów",
                "addr:postcode": "22-540",
                "amenity": "pharmacy"
            },
            "geometry": {
                "type": "Point",
                "coordinates": [
                    24.036046867095997,
                    50.58669295738357
                ]
            }
        },
        {
            "type": "Feature",
            "properties": {
                "ref:csioz": 1190015,
                "name": "Apteka Szpitalna",
                "addr:street": "Józefa Piłsudskiego",
                "addr:housenumber": "11",
                "addr:city": "Hrubieszów",
                "addr:postcode": "21-500",
                "amenity": "pharmacy"
            },
            "geometry": {
                "type": "Point",
                "coordinates": [
                    23.892409527972944,
                    50.80269894940491
                ]
            }
        },
        {
            "type": "Feature",
            "properties": {
                "ref:csioz": 1194124,
                "name": "Apteka Prima Monika Oleszek",
                "addr:street": "Mikołaja Kopernika",
                "addr:housenumber": "33A",
                "addr:city": "Werbkowice",
                "addr:postcode": "22-550",
                "amenity": "pharmacy"
            },
            "geometry": {
                "type": "Point",
                "coordinates": [
                    23.76990722723699,
                    50.74934536032481
                ]
            }
        },
        {
            "type": "Feature",
            "properties": {
                "ref:csioz": 1202644,
                "name": "-",
                "addr:street": "Szewska",
                "addr:housenumber": "3",
                "addr:city": "Hrubieszów",
                "addr:postcode": "22-500",
                "amenity": "pharmacy"
            },
            "geometry": {
                "type": "Point",
                "coordinates": [
                    23.893030889911195,
                    50.80608945567866
                ]
            }
        },
        {
            "type": "Feature",
            "properties": {
                "ref:csioz": 1200698,
                "name": "Apteka Premium-Lek",
                "addr:street": "Partyzantów",
                "addr:housenumber": "12",
                "addr:city": "Hrubieszów",
                "addr:postcode": "22-500",
                "amenity": "pharmacy"
            },
            "geometry": {
                "type": "Point",
                "coordinates": [
                    23.89096025707991,
                    50.8069695023833
                ]
            }
        },
        {
            "type": "Feature",
            "properties": {
                "ref:csioz": 1207642,
                "name": "Apteka Prywatna Mgr Farm. Halina Tokarczyk",
                "addr:street": "Lipowa",
                "addr:housenumber": "3c",
                "addr:city": "Mircze",
                "addr:postcode": "22-530",
                "amenity": "pharmacy"
            },
            "geometry": {
                "type": "Point",
                "coordinates": [
                    23.90130404895446,
                    50.64804361331602
                ]
            }
        },
        {
            "type": "Feature",
            "properties": {
                "ref:csioz": 1219587,
                "name": "Ziko Apteka",
                "addr:street": "\"Basaja \"\"Rysia\"\"\"",
                "addr:housenumber": "4",
                "addr:city": "Hrubieszów",
                "addr:postcode": "22-500",
                "amenity": "pharmacy"
            },
            "geometry": {
                "type": "Point",
                "coordinates": [
                    23.89099400024218,
                    50.79485800001978
                ]
            }
        },
        {
            "type": "Feature",
            "properties": {
                "ref:csioz": 1222325,
                "name": "Apteka Premium-Lek",
                "addr:street": "Sokalska",
                "addr:housenumber": "10",
                "addr:city": "Hrubieszów",
                "addr:postcode": "22-500",
                "amenity": "pharmacy"
            },
            "geometry": {
                "type": "Point",
                "coordinates": [
                    23.894833956028904,
                    50.80233051429496
                ]
            }
        }
    ]
}