{
    "type": "FeatureCollection",
    "name": "JPT_KOD_JE_0416",
    "features": [
        {
            "type": "Feature",
            "properties": {
                "ref:csioz": 1099998,
                "name": "Apteka Przy Bydgoskiej",
                "addr:street": "Bydgoska",
                "addr:housenumber": "17",
                "addr:city": "Gostycyn",
                "addr:postcode": "89-520",
                "amenity": "pharmacy"
            },
            "geometry": {
                "type": "Point",
                "coordinates": [
                    17.809312999999367,
                    53.48744500001787
                ]
            }
        },
        {
            "type": "Feature",
            "properties": {
                "ref:csioz": 1117505,
                "name": "Lewkonia",
                "addr:street": "Główna",
                "addr:housenumber": "17",
                "addr:city": "Kęsowo",
                "addr:postcode": "89-506",
                "amenity": "pharmacy"
            },
            "geometry": {
                "type": "Point",
                "coordinates": [
                    17.715079531888644,
                    53.55787004779885
                ]
            }
        },
        {
            "type": "Feature",
            "properties": {
                "ref:csioz": 1099801,
                "addr:street": "Pocztowa",
                "addr:housenumber": "1",
                "addr:city": "Tuchola",
                "addr:postcode": "89-500",
                "amenity": "pharmacy"
            },
            "geometry": {
                "type": "Point",
                "coordinates": [
                    17.862979293406426,
                    53.58673305961194
                ]
            }
        },
        {
            "type": "Feature",
            "properties": {
                "ref:csioz": 1101790,
                "name": "Wracam Do Zdrowia",
                "addr:street": "Warszawska",
                "addr:housenumber": "15",
                "addr:city": "Tuchola",
                "addr:postcode": "89-500",
                "amenity": "pharmacy"
            },
            "geometry": {
                "type": "Point",
                "coordinates": [
                    17.870903761374223,
                    53.58739622204169
                ]
            }
        },
        {
            "type": "Feature",
            "properties": {
                "ref:csioz": 1110519,
                "name": "Apteka Pharma-Land Kraina Niskich Cen",
                "addr:street": "Wolności",
                "addr:housenumber": "33",
                "addr:city": "Tuchola",
                "addr:postcode": "89-500",
                "amenity": "pharmacy"
            },
            "geometry": {
                "type": "Point",
                "coordinates": [
                    17.85811899904386,
                    53.58797295174583
                ]
            }
        },
        {
            "type": "Feature",
            "properties": {
                "ref:csioz": 1099114,
                "name": "Pod Widłakiem",
                "addr:street": "Szkolna",
                "addr:housenumber": "7a",
                "addr:city": "Śliwice",
                "addr:postcode": "89-530",
                "amenity": "pharmacy"
            },
            "geometry": {
                "type": "Point",
                "coordinates": [
                    18.177296145820552,
                    53.70791307105405
                ]
            }
        },
        {
            "type": "Feature",
            "properties": {
                "ref:csioz": 1099979,
                "name": "Millennium",
                "addr:street": "Świecka",
                "addr:housenumber": "31",
                "addr:city": "Tuchola",
                "addr:postcode": "89-500",
                "amenity": "pharmacy"
            },
            "geometry": {
                "type": "Point",
                "coordinates": [
                    17.863260941258982,
                    53.58554064102374
                ]
            }
        },
        {
            "type": "Feature",
            "properties": {
                "ref:csioz": 1101382,
                "name": "Apteka Dbam O Zdrowie",
                "addr:street": "ks. ppłk. Józefa Wryczy",
                "addr:housenumber": "22",
                "addr:city": "Tuchola",
                "addr:postcode": "89-500",
                "amenity": "pharmacy"
            },
            "geometry": {
                "type": "Point",
                "coordinates": [
                    17.860742354454523,
                    53.58691607221672
                ]
            }
        },
        {
            "type": "Feature",
            "properties": {
                "ref:csioz": 1101634,
                "name": "Tucholska",
                "addr:street": "Ligi Ochrony Przyrody",
                "addr:housenumber": "10a",
                "addr:city": "Tuchola",
                "addr:postcode": "89-501",
                "amenity": "pharmacy"
            },
            "geometry": {
                "type": "Point",
                "coordinates": [
                    17.872038291011815,
                    53.584825782528455
                ]
            }
        },
        {
            "type": "Feature",
            "properties": {
                "ref:csioz": 1113253,
                "name": "Asklepios",
                "addr:street": "Dworcowa",
                "addr:housenumber": "25",
                "addr:city": "Cekcyn",
                "addr:postcode": "89-511",
                "amenity": "pharmacy"
            },
            "geometry": {
                "type": "Point",
                "coordinates": [
                    18.016594362258854,
                    53.5763031088666
                ]
            }
        },
        {
            "type": "Feature",
            "properties": {
                "ref:csioz": 1173080,
                "name": "„Szpital Tucholski” Spółka Z O.O. Nzoz Szpital Powiatowy W Tucholi",
                "addr:street": "Nowodworskiego",
                "addr:housenumber": "14-18",
                "addr:city": "Tuchola",
                "addr:postcode": "89-500",
                "amenity": "pharmacy"
            },
            "geometry": {
                "type": "Point",
                "coordinates": [
                    17.86273262881974,
                    53.58949801878115
                ]
            }
        },
        {
            "type": "Feature",
            "properties": {
                "ref:csioz": 1099987,
                "name": "Arkana",
                "addr:street": "Główna",
                "addr:housenumber": "8A",
                "addr:city": "Bysław",
                "addr:postcode": "89-510",
                "amenity": "pharmacy"
            },
            "geometry": {
                "type": "Point",
                "coordinates": [
                    18.00527204654211,
                    53.505284490088215
                ]
            }
        },
        {
            "type": "Feature",
            "properties": {
                "ref:csioz": 1121805,
                "name": "Libra",
                "addr:street": "Wojska Polskiego",
                "addr:housenumber": "43",
                "addr:city": "Lubiewo",
                "addr:postcode": "89-526",
                "amenity": "pharmacy"
            },
            "geometry": {
                "type": "Point",
                "coordinates": [
                    18.024356720339746,
                    53.46661459306089
                ]
            }
        }
    ]
}