{
    "type": "FeatureCollection",
    "name": "JPT_KOD_JE_3013",
    "crs": {
        "type": "name",
        "properties": {
            "name": "urn:ogc:def:crs:EPSG::4326"
        }
    },
    "features": [
        {
            "type": "Feature",
            "properties": {
                "ref:csioz": 1054292,
                "name": "Nowa",
                "addr:street": "21 Października",
                "addr:housenumber": "7",
                "addr:city": "Włoszakowice",
                "addr:postcode": "64-140",
                "amenity": "pharmacy"
            },
            "geometry": {
                "type": "Point",
                "coordinates": [
                    16.362405891728617,
                    51.927165799376624
                ]
            }
        },
        {
            "type": "Feature",
            "properties": {
                "ref:csioz": 1054701,
                "name": "Nova",
                "addr:street": "RYNEK",
                "addr:housenumber": "24",
                "addr:city": "RYDZYNA",
                "addr:postcode": "64-130",
                "amenity": "pharmacy"
            },
            "geometry": {
                "type": "Point",
                "coordinates": [
                    16.667047340147928,
                    51.785978727080376
                ]
            }
        },
        {
            "type": "Feature",
            "properties": {
                "ref:csioz": 1054717,
                "name": "Elixir",
                "addr:street": "DWORCOWA",
                "addr:housenumber": "29A",
                "addr:city": "KRZEMIENIEWO",
                "addr:postcode": "64-120",
                "amenity": "pharmacy"
            },
            "geometry": {
                "type": "Point",
                "coordinates": [
                    16.842441382673414,
                    51.85992624432435
                ]
            }
        },
        {
            "type": "Feature",
            "properties": {
                "ref:csioz": 1054749,
                "name": "Wijewska",
                "addr:street": "25-GO MAJA",
                "addr:housenumber": "5A",
                "addr:city": "WIJEWO",
                "addr:postcode": "64-150",
                "amenity": "pharmacy"
            },
            "geometry": {
                "type": "Point",
                "coordinates": [
                    16.18569899998686,
                    51.91862800001543
                ]
            }
        },
        {
            "type": "Feature",
            "properties": {
                "ref:csioz": 1054774,
                "name": "Różana",
                "addr:street": "Zalesie",
                "addr:housenumber": "11C",
                "addr:city": "Włoszakowice",
                "addr:postcode": "64-140",
                "amenity": "pharmacy"
            },
            "geometry": {
                "type": "Point",
                "coordinates": [
                    16.3596028687764,
                    51.9312934626419
                ]
            }
        },
        {
            "type": "Feature",
            "properties": {
                "ref:csioz": 1054990,
                "name": "Słoneczna",
                "addr:street": "RYDZYŃSKA",
                "addr:housenumber": "5",
                "addr:city": "KĄKOLEWO",
                "addr:postcode": "64-113",
                "amenity": "pharmacy"
            },
            "geometry": {
                "type": "Point",
                "coordinates": [
                    16.692898266521887,
                    51.86186540105585
                ]
            }
        },
        {
            "type": "Feature",
            "properties": {
                "ref:csioz": 1055084,
                "name": "Osiecka",
                "addr:street": "RYNEK",
                "addr:housenumber": "5",
                "addr:city": "OSIECZNA",
                "addr:postcode": "64-113",
                "amenity": "pharmacy"
            },
            "geometry": {
                "type": "Point",
                "coordinates": [
                    16.675596707499082,
                    51.903345960347025
                ]
            }
        },
        {
            "type": "Feature",
            "properties": {
                "ref:csioz": 1158983,
                "addr:housenumber": "9",
                "addr:city": "Strzyżewice",
                "addr:postcode": "23-107",
                "amenity": "pharmacy"
            },
            "geometry": {
                "type": "Point",
                "coordinates": [
                    16.535866810975943,
                    51.83040634261015
                ]
            }
        },
        {
            "type": "Feature",
            "properties": {
                "ref:csioz": 1227125,
                "addr:housenumber": "63",
                "addr:city": "Górzno",
                "addr:postcode": "64-120",
                "amenity": "pharmacy"
            },
            "geometry": {
                "type": "Point",
                "coordinates": [
                    16.785411473440345,
                    51.89728806468996
                ]
            }
        },
        {
            "type": "Feature",
            "properties": {
                "ref:csioz": 1043758,
                "addr:housenumber": "14",
                "addr:city": "Boszkowo",
                "addr:postcode": "64-140",
                "amenity": "pharmacy"
            },
            "geometry": {
                "type": "Point",
                "coordinates": [
                    16.32279722045294,
                    51.965116439859344
                ]
            }
        },
        {
            "type": "Feature",
            "properties": {
                "ref:csioz": 1043763,
                "name": "Arnika",
                "addr:street": "Okrężna",
                "addr:housenumber": "18A",
                "addr:city": "Brenno",
                "addr:postcode": "64-150",
                "amenity": "pharmacy"
            },
            "geometry": {
                "type": "Point",
                "coordinates": [
                    16.21301980131178,
                    51.92255105945335
                ]
            }
        },
        {
            "type": "Feature",
            "properties": {
                "ref:csioz": 1054467,
                "name": "Pod Złotą Podkową",
                "addr:street": "MIELŻYŃSKICH",
                "addr:housenumber": "27",
                "addr:city": "PAWŁOWICE",
                "addr:postcode": "64-120",
                "amenity": "pharmacy"
            },
            "geometry": {
                "type": "Point",
                "coordinates": [
                    16.752863499293117,
                    51.82697115322567
                ]
            }
        },
        {
            "type": "Feature",
            "properties": {
                "ref:csioz": 1054480,
                "name": "Arnika",
                "addr:street": "STRZELECKA",
                "addr:housenumber": "6",
                "addr:city": "ŚWIĘCIECHOWA",
                "addr:postcode": "64-115",
                "amenity": "pharmacy"
            },
            "geometry": {
                "type": "Point",
                "coordinates": [
                    16.505558882070204,
                    51.85627132017472
                ]
            }
        },
        {
            "type": "Feature",
            "properties": {
                "ref:csioz": 1054570,
                "name": "Lawenda",
                "addr:street": "Prymasa Andrzeja Krzyckiego",
                "addr:housenumber": "13",
                "addr:city": "Krzycko Wielkie",
                "addr:postcode": "64-117",
                "amenity": "pharmacy"
            },
            "geometry": {
                "type": "Point",
                "coordinates": [
                    16.44811638499068,
                    51.90240558826959
                ]
            }
        },
        {
            "type": "Feature",
            "properties": {
                "ref:csioz": 1054664,
                "name": "Św. Anny",
                "addr:street": "Konstytucji 3 Maja",
                "addr:housenumber": "6",
                "addr:city": "RYDZYNA",
                "addr:postcode": "64-130",
                "amenity": "pharmacy"
            },
            "geometry": {
                "type": "Point",
                "coordinates": [
                    16.667216855102108,
                    51.78549365184164
                ]
            }
        },
        {
            "type": "Feature",
            "properties": {
                "ref:csioz": 1054827,
                "name": "Św. Pawła",
                "addr:street": "KOPERNIKA",
                "addr:housenumber": "8",
                "addr:city": "OSIECZNA",
                "addr:postcode": "64-113",
                "amenity": "pharmacy"
            },
            "geometry": {
                "type": "Point",
                "coordinates": [
                    16.682356567077665,
                    51.904954872735566
                ]
            }
        },
        {
            "type": "Feature",
            "properties": {
                "ref:csioz": 1054902,
                "name": "Nasza",
                "addr:street": "ZIELONA",
                "addr:housenumber": "10",
                "addr:city": "KRZEMIENIEWO",
                "addr:postcode": "64-120",
                "amenity": "pharmacy"
            },
            "geometry": {
                "type": "Point",
                "coordinates": [
                    16.834493871001847,
                    51.86013509660761
                ]
            }
        },
        {
            "type": "Feature",
            "properties": {
                "ref:csioz": 1124898,
                "name": "Centrum Rehabilitacji Im. Prof. Mieczysława Walczaka W Osiecznej",
                "addr:street": "ZAMKOWA",
                "addr:housenumber": "3",
                "addr:city": "OSIECZNA",
                "addr:postcode": "64-113",
                "amenity": "pharmacy"
            },
            "geometry": {
                "type": "Point",
                "coordinates": [
                    16.675332243575472,
                    51.90262114095815
                ]
            }
        },
        {
            "type": "Feature",
            "properties": {
                "ref:csioz": 1189402,
                "name": "Waniliowa",
                "addr:street": "Wolności",
                "addr:housenumber": "22",
                "addr:city": "Święciechowa",
                "addr:postcode": "64-115",
                "amenity": "pharmacy"
            },
            "geometry": {
                "type": "Point",
                "coordinates": [
                    16.501706029963,
                    51.855291260730446
                ]
            }
        },
        {
            "type": "Feature",
            "properties": {
                "ref:csioz": 1189514,
                "name": "Aronia",
                "addr:street": "Powstańców Wielkopolskich",
                "addr:housenumber": "8",
                "addr:city": "Lipno",
                "addr:postcode": "64-111",
                "amenity": "pharmacy"
            },
            "geometry": {
                "type": "Point",
                "coordinates": [
                    16.56550773831195,
                    51.91768088273872
                ]
            }
        },
        {
            "type": "Feature",
            "properties": {
                "ref:csioz": 1208245,
                "addr:housenumber": "25",
                "addr:city": "Dąbcze",
                "addr:postcode": "64-130",
                "amenity": "pharmacy"
            },
            "geometry": {
                "type": "Point",
                "coordinates": [
                    16.652551305412004,
                    51.817778064712094
                ]
            }
        },
        {
            "type": "Feature",
            "properties": {
                "ref:csioz": 1225091,
                "name": "Włoszakowicka",
                "addr:street": "Klonowa",
                "addr:housenumber": "1",
                "addr:city": "Włoszakowice",
                "addr:postcode": "64-140",
                "amenity": "pharmacy"
            },
            "geometry": {
                "type": "Point",
                "coordinates": [
                    16.373895663853425,
                    51.93567066278422
                ]
            }
        }
    ]
}