{
    "type": "FeatureCollection",
    "name": "JPT_KOD_JE_2414",
    "crs": {
        "type": "name",
        "properties": {
            "name": "urn:ogc:def:crs:EPSG::4326"
        }
    },
    "features": [
        {
            "type": "Feature",
            "properties": {
                "ref:csioz": 1065261,
                "name": "Melisa",
                "addr:street": "Hołdunowska",
                "addr:housenumber": "11A",
                "addr:city": "Lędziny",
                "addr:postcode": "43-143",
                "amenity": "pharmacy"
            },
            "geometry": {
                "type": "Point",
                "coordinates": [
                    19.13059527025768,
                    50.142533966406425
                ]
            }
        },
        {
            "type": "Feature",
            "properties": {
                "ref:csioz": 1065273,
                "name": "Dziesiątka",
                "addr:street": "LĘDZIŃSKA",
                "addr:housenumber": "1",
                "addr:city": "LĘDZINY",
                "addr:postcode": "43-143",
                "amenity": "pharmacy"
            },
            "geometry": {
                "type": "Point",
                "coordinates": [
                    19.126209738608097,
                    50.14087398304015
                ]
            }
        },
        {
            "type": "Feature",
            "properties": {
                "ref:csioz": 1065285,
                "name": "Marta",
                "addr:street": "LĘDZIŃSKA",
                "addr:housenumber": "149",
                "addr:city": "LĘDZINY",
                "addr:postcode": "43-140",
                "amenity": "pharmacy"
            },
            "geometry": {
                "type": "Point",
                "coordinates": [
                    19.107920373124085,
                    50.129225105364284
                ]
            }
        },
        {
            "type": "Feature",
            "properties": {
                "ref:csioz": 1065299,
                "name": "Centrum",
                "addr:street": "Łanowa",
                "addr:housenumber": "5",
                "addr:city": "Lędziny",
                "addr:postcode": "43-140",
                "amenity": "pharmacy"
            },
            "geometry": {
                "type": "Point",
                "coordinates": [
                    19.107099034867176,
                    50.13072868384493
                ]
            }
        },
        {
            "type": "Feature",
            "properties": {
                "ref:csioz": 1065301,
                "name": "Pod Szybem",
                "addr:street": "POKOJU",
                "addr:housenumber": "17",
                "addr:city": "LĘDZINY",
                "addr:postcode": "43-143",
                "amenity": "pharmacy"
            },
            "geometry": {
                "type": "Point",
                "coordinates": [
                    19.12502573024211,
                    50.12177980545967
                ]
            }
        },
        {
            "type": "Feature",
            "properties": {
                "ref:csioz": 1190529,
                "name": "Apteka Tęczowa - Bieruń",
                "addr:street": "Macieja",
                "addr:housenumber": "24",
                "addr:city": "Bieruń",
                "addr:postcode": "43-150",
                "amenity": "pharmacy"
            },
            "geometry": {
                "type": "Point",
                "coordinates": [
                    19.09051000000003,
                    50.09567600001264
                ]
            }
        },
        {
            "type": "Feature",
            "properties": {
                "ref:csioz": 1202461,
                "name": "Apteka Tęczowa Spectra",
                "addr:street": "Chemików",
                "addr:housenumber": "3",
                "addr:flats": "5",
                "addr:city": "Bieruń",
                "addr:postcode": "43-150",
                "amenity": "pharmacy"
            },
            "geometry": {
                "type": "Point",
                "coordinates": [
                    19.091655008648008,
                    50.08941249297235
                ]
            }
        },
        {
            "type": "Feature",
            "properties": {
                "ref:csioz": 1058460,
                "name": "Witaminka",
                "addr:street": "Granitowa",
                "addr:housenumber": "20",
                "addr:city": "Bieruń",
                "addr:postcode": "43-155",
                "amenity": "pharmacy"
            },
            "geometry": {
                "type": "Point",
                "coordinates": [
                    19.16151317754793,
                    50.08214967847416
                ]
            }
        },
        {
            "type": "Feature",
            "properties": {
                "ref:csioz": 1058471,
                "name": "Gwarek",
                "addr:street": "Granitowa",
                "addr:housenumber": "22",
                "addr:city": "Bieruń",
                "addr:postcode": "43-155",
                "amenity": "pharmacy"
            },
            "geometry": {
                "type": "Point",
                "coordinates": [
                    19.16157950342141,
                    50.078275060696626
                ]
            }
        },
        {
            "type": "Feature",
            "properties": {
                "ref:csioz": 1058494,
                "name": "Apteka Św. Walentego",
                "addr:street": "Rynek",
                "addr:housenumber": "1",
                "addr:city": "Bieruń",
                "addr:postcode": "43-150",
                "amenity": "pharmacy"
            },
            "geometry": {
                "type": "Point",
                "coordinates": [
                    19.09227934241426,
                    50.093471026496424
                ]
            }
        },
        {
            "type": "Feature",
            "properties": {
                "ref:csioz": 1065248,
                "name": "Magnolia",
                "addr:street": "BETONOWA",
                "addr:housenumber": "6",
                "addr:city": "LĘDZINY",
                "addr:postcode": "43-143",
                "amenity": "pharmacy"
            },
            "geometry": {
                "type": "Point",
                "coordinates": [
                    19.136234324225626,
                    50.14878901868831
                ]
            }
        },
        {
            "type": "Feature",
            "properties": {
                "ref:csioz": 1065257,
                "name": "Apteka Evita",
                "addr:street": "Ekonomiczna",
                "addr:housenumber": "7",
                "addr:city": "Lędziny",
                "addr:postcode": "43-143",
                "amenity": "pharmacy"
            },
            "geometry": {
                "type": "Point",
                "coordinates": [
                    19.140532509989754,
                    50.143732733901096
                ]
            }
        },
        {
            "type": "Feature",
            "properties": {
                "ref:csioz": 1170589,
                "name": "Apteka Blisko Ciebie",
                "addr:street": "Francuska",
                "addr:housenumber": "4",
                "addr:city": "Imielin",
                "addr:postcode": "41-407",
                "amenity": "pharmacy"
            },
            "geometry": {
                "type": "Point",
                "coordinates": [
                    19.184181069528417,
                    50.14747583718226
                ]
            }
        },
        {
            "type": "Feature",
            "properties": {
                "ref:csioz": 1178843,
                "name": "Apteka Evita",
                "addr:street": "Śląska",
                "addr:housenumber": "98",
                "addr:city": "Chełm Śląski",
                "addr:postcode": "41-403",
                "amenity": "pharmacy"
            },
            "geometry": {
                "type": "Point",
                "coordinates": [
                    19.194801331137956,
                    50.10795453249724
                ]
            }
        },
        {
            "type": "Feature",
            "properties": {
                "ref:csioz": 1200385,
                "name": "Apteka Św. Stanisława",
                "addr:street": "Jerzego",
                "addr:housenumber": "4",
                "addr:city": "Bieruń",
                "addr:postcode": "43-150",
                "amenity": "pharmacy"
            },
            "geometry": {
                "type": "Point",
                "coordinates": [
                    19.090414074401732,
                    50.092374197663226
                ]
            }
        },
        {
            "type": "Feature",
            "properties": {
                "ref:csioz": 1208268,
                "name": "Apteka Blisko Ciebie",
                "addr:street": "Śląska",
                "addr:housenumber": "66",
                "addr:city": "Chełm Śląski",
                "addr:postcode": "41-403",
                "amenity": "pharmacy"
            },
            "geometry": {
                "type": "Point",
                "coordinates": [
                    19.19599600000006,
                    50.109039000012665
                ]
            }
        },
        {
            "type": "Feature",
            "properties": {
                "ref:csioz": 1221422,
                "addr:street": "Jerzego",
                "addr:housenumber": "6",
                "addr:city": "Bieruń",
                "addr:postcode": "43-150",
                "amenity": "pharmacy"
            },
            "geometry": {
                "type": "Point",
                "coordinates": [
                    19.09044764293086,
                    50.09210171362449
                ]
            }
        },
        {
            "type": "Feature",
            "properties": {
                "ref:csioz": 1058507,
                "name": "Hipokrates",
                "addr:street": "Wawelska",
                "addr:housenumber": "40",
                "addr:city": "Bieruń",
                "addr:postcode": "43-155",
                "amenity": "pharmacy"
            },
            "geometry": {
                "type": "Point",
                "coordinates": [
                    19.181385260897237,
                    50.07583649904386
                ]
            }
        },
        {
            "type": "Feature",
            "properties": {
                "ref:csioz": 1058510,
                "name": "Brak Nazwy",
                "addr:street": "Węglowa",
                "addr:housenumber": "14",
                "addr:city": "Bieruń",
                "addr:postcode": "43-155",
                "amenity": "pharmacy"
            },
            "geometry": {
                "type": "Point",
                "coordinates": [
                    19.172517000000045,
                    50.0761220000126
                ]
            }
        },
        {
            "type": "Feature",
            "properties": {
                "ref:csioz": 1058564,
                "name": "Evita",
                "addr:street": "Książęca",
                "addr:housenumber": "4",
                "addr:city": "Bojszowy",
                "addr:postcode": "43-220",
                "amenity": "pharmacy"
            },
            "geometry": {
                "type": "Point",
                "coordinates": [
                    19.096627522222715,
                    50.0568905163522
                ]
            }
        },
        {
            "type": "Feature",
            "properties": {
                "ref:csioz": 1202448,
                "name": "Hipokrates",
                "addr:street": "Świętego Jana",
                "addr:housenumber": "74",
                "addr:city": "Bojszowy",
                "addr:postcode": "43-220",
                "amenity": "pharmacy"
            },
            "geometry": {
                "type": "Point",
                "coordinates": [
                    19.089737460213584,
                    50.059427754484624
                ]
            }
        }
    ]
}