{
    "type": "FeatureCollection",
    "name": "JPT_KOD_JE_2462",
    "features": [
        {
            "type": "Feature",
            "properties": {
                "ref:csioz": 1115658,
                "name": "Apteka Pomarańczowa",
                "addr:street": "Plac Akademicki",
                "addr:housenumber": "3A",
                "addr:flats": "1",
                "addr:city": "Bytom",
                "addr:postcode": "41-902",
                "amenity": "pharmacy"
            },
            "geometry": {
                "type": "Point",
                "coordinates": [
                    18.925366437342703,
                    50.352014368057596
                ]
            }
        },
        {
            "type": "Feature",
            "properties": {
                "ref:csioz": 1117401,
                "name": "Zakład Opiekuńczo-Leczniczy Dla Przewlekle Chorych Zgromadzenia Służebnic Najświętszego Serca Jezusa",
                "addr:street": "Piekarska",
                "addr:housenumber": "59",
                "addr:city": "Bytom",
                "addr:postcode": "41-902",
                "amenity": "pharmacy"
            },
            "geometry": {
                "type": "Point",
                "coordinates": [
                    18.91904227938778,
                    50.352219161918185
                ]
            }
        },
        {
            "type": "Feature",
            "properties": {
                "ref:csioz": 1183632,
                "name": "Zdrowita Apteka Sieciowa",
                "addr:street": "św. Cyryla i Metodego",
                "addr:housenumber": "44",
                "addr:city": "Bytom",
                "addr:postcode": "41-909",
                "amenity": "pharmacy"
            },
            "geometry": {
                "type": "Point",
                "coordinates": [
                    18.930817999999974,
                    50.32452400001296
                ]
            }
        },
        {
            "type": "Feature",
            "properties": {
                "ref:csioz": 1058748,
                "name": "Im. I. Łukasiewicza",
                "addr:street": "Ignacego Chrzanowskiego",
                "addr:housenumber": "5",
                "addr:city": "Bytom",
                "addr:postcode": "41-902",
                "amenity": "pharmacy"
            },
            "geometry": {
                "type": "Point",
                "coordinates": [
                    18.910643146119956,
                    50.347546780870864
                ]
            }
        },
        {
            "type": "Feature",
            "properties": {
                "ref:csioz": 1058799,
                "name": "\"Apteka Cef@Rm 36,6\"",
                "addr:street": "Alojzego Felińskiego",
                "addr:housenumber": "63",
                "addr:flats": "A",
                "addr:city": "Bytom",
                "addr:postcode": "41-908",
                "amenity": "pharmacy"
            },
            "geometry": {
                "type": "Point",
                "coordinates": [
                    18.843117955807934,
                    50.365886608637865
                ]
            }
        },
        {
            "type": "Feature",
            "properties": {
                "ref:csioz": 1058800,
                "name": "Apteka Zdrowit",
                "addr:street": "Felińskiego Alojzego",
                "addr:housenumber": "63 F",
                "addr:city": "Bytom",
                "addr:postcode": "41-908",
                "amenity": "pharmacy"
            },
            "geometry": {
                "type": "Point",
                "coordinates": [
                    18.84401766316072,
                    50.36560612547428
                ]
            }
        },
        {
            "type": "Feature",
            "properties": {
                "ref:csioz": 1058927,
                "name": "Apteka Rodzinna",
                "addr:street": "Adama Mickiewicza",
                "addr:housenumber": "20",
                "addr:city": "Bytom",
                "addr:postcode": "41-902",
                "amenity": "pharmacy"
            },
            "geometry": {
                "type": "Point",
                "coordinates": [
                    18.92790556807077,
                    50.3546096637745
                ]
            }
        },
        {
            "type": "Feature",
            "properties": {
                "ref:csioz": 1058969,
                "name": "Olimpijska",
                "addr:street": "Olimpijska",
                "addr:housenumber": "1",
                "addr:city": "Bytom",
                "addr:postcode": "41-902",
                "amenity": "pharmacy"
            },
            "geometry": {
                "type": "Point",
                "coordinates": [
                    18.901329749225457,
                    50.35571421206859
                ]
            }
        },
        {
            "type": "Feature",
            "properties": {
                "ref:csioz": 1059024,
                "name": "Apteka Radosna",
                "addr:street": "Piekarska",
                "addr:housenumber": "5",
                "addr:city": "Bytom",
                "addr:postcode": "41-902",
                "amenity": "pharmacy"
            },
            "geometry": {
                "type": "Point",
                "coordinates": [
                    18.917998046271666,
                    50.34854836719126
                ]
            }
        },
        {
            "type": "Feature",
            "properties": {
                "ref:csioz": 1074069,
                "name": "Szpital Specjalityczny Nr 2 W Bytomiu",
                "addr:street": "BATOREGO",
                "addr:housenumber": "15",
                "addr:city": "BYTOM",
                "addr:postcode": "41-902",
                "amenity": "pharmacy"
            },
            "geometry": {
                "type": "Point",
                "coordinates": [
                    18.909776664554897,
                    50.347740247495246
                ]
            }
        },
        {
            "type": "Feature",
            "properties": {
                "ref:csioz": 1122562,
                "name": "Zakład Opiekuńczo-Leczniczy",
                "addr:street": "Krakowska",
                "addr:housenumber": "30",
                "addr:city": "Bytom",
                "addr:postcode": "41-902",
                "amenity": "pharmacy"
            },
            "geometry": {
                "type": "Point",
                "coordinates": [
                    18.92786415081241,
                    50.3458479173772
                ]
            }
        },
        {
            "type": "Feature",
            "properties": {
                "ref:csioz": 1174297,
                "name": "Ziko Apteka",
                "addr:street": "Kolejowa",
                "addr:housenumber": "18",
                "addr:city": "Bytom",
                "addr:postcode": "41-902",
                "amenity": "pharmacy"
            },
            "geometry": {
                "type": "Point",
                "coordinates": [
                    18.911788588879297,
                    50.34485437791307
                ]
            }
        },
        {
            "type": "Feature",
            "properties": {
                "ref:csioz": 1223513,
                "addr:street": "Bolesława Prusa",
                "addr:housenumber": "48",
                "addr:city": "Bytom",
                "addr:postcode": "41-902",
                "amenity": "pharmacy"
            },
            "geometry": {
                "type": "Point",
                "coordinates": [
                    18.921537713326305,
                    50.35439079826594
                ]
            }
        },
        {
            "type": "Feature",
            "properties": {
                "ref:csioz": 1122161,
                "name": "\"Katolicki Ośrodek Rehabilitacyjno-Wychowawczy Dla Dzieci I Młodzieży \"\"Dom Nadziei\"\"\"",
                "addr:street": "Konstytucji",
                "addr:housenumber": "9",
                "addr:city": "Bytom",
                "addr:postcode": "41-905",
                "amenity": "pharmacy"
            },
            "geometry": {
                "type": "Point",
                "coordinates": [
                    18.86839509546456,
                    50.334534554509645
                ]
            }
        },
        {
            "type": "Feature",
            "properties": {
                "ref:csioz": 1206124,
                "name": "Dla Ciebie",
                "addr:street": "Konstytucji",
                "addr:housenumber": "49",
                "addr:city": "Bytom",
                "addr:postcode": "41-905",
                "amenity": "pharmacy"
            },
            "geometry": {
                "type": "Point",
                "coordinates": [
                    18.869326852207184,
                    50.33919876055898
                ]
            }
        },
        {
            "type": "Feature",
            "properties": {
                "ref:csioz": 1058697,
                "name": "Apteka Medialis Pharm",
                "addr:street": "Nowaka-Jeziorańskiego Jana",
                "addr:housenumber": "25",
                "addr:city": "Bytom",
                "addr:postcode": "41-923",
                "amenity": "pharmacy"
            },
            "geometry": {
                "type": "Point",
                "coordinates": [
                    18.850045343906906,
                    50.345972885993035
                ]
            }
        },
        {
            "type": "Feature",
            "properties": {
                "ref:csioz": 1058704,
                "name": "Apteka Dbam O Zdrowie",
                "addr:street": "Stefana Batorego",
                "addr:housenumber": "20",
                "addr:city": "Bytom",
                "addr:postcode": "41-902",
                "amenity": "pharmacy"
            },
            "geometry": {
                "type": "Point",
                "coordinates": [
                    18.90993526392485,
                    50.34802888890613
                ]
            }
        },
        {
            "type": "Feature",
            "properties": {
                "ref:csioz": 1058720,
                "name": "Gallena",
                "addr:street": "Chorzowska",
                "addr:housenumber": "14",
                "addr:city": "Bytom",
                "addr:postcode": "41-910",
                "amenity": "pharmacy"
            },
            "geometry": {
                "type": "Point",
                "coordinates": [
                    18.932732681318377,
                    50.34070375762607
                ]
            }
        },
        {
            "type": "Feature",
            "properties": {
                "ref:csioz": 1058821,
                "name": "Apteka Zdrowit",
                "addr:street": "Józefa Jainty",
                "addr:housenumber": "20",
                "addr:city": "Bytom",
                "addr:postcode": "41-902",
                "amenity": "pharmacy"
            },
            "geometry": {
                "type": "Point",
                "coordinates": [
                    18.920786533069556,
                    50.347820757413224
                ]
            }
        },
        {
            "type": "Feature",
            "properties": {
                "ref:csioz": 1058868,
                "name": "Dla Ciebie",
                "addr:street": "Konstytucji",
                "addr:housenumber": "91 A",
                "addr:city": "Bytom",
                "addr:postcode": "41-906",
                "amenity": "pharmacy"
            },
            "geometry": {
                "type": "Point",
                "coordinates": [
                    18.87601458837496,
                    50.34830069160333
                ]
            }
        },
        {
            "type": "Feature",
            "properties": {
                "ref:csioz": 1058876,
                "name": "Dbam O Zdrowie",
                "addr:street": "Kościelna",
                "addr:housenumber": "10 B",
                "addr:city": "Bytom",
                "addr:postcode": "41-902",
                "amenity": "pharmacy"
            },
            "geometry": {
                "type": "Point",
                "coordinates": [
                    18.924047200531042,
                    50.34776189780813
                ]
            }
        },
        {
            "type": "Feature",
            "properties": {
                "ref:csioz": 1058884,
                "name": "Saturn",
                "addr:street": "Łużycka",
                "addr:housenumber": "12",
                "addr:city": "Bytom",
                "addr:postcode": "41-902",
                "amenity": "pharmacy"
            },
            "geometry": {
                "type": "Point",
                "coordinates": [
                    18.897541238912623,
                    50.352305260007554
                ]
            }
        },
        {
            "type": "Feature",
            "properties": {
                "ref:csioz": 1058892,
                "name": "Gallena",
                "addr:street": "Łużycka",
                "addr:housenumber": "7",
                "addr:city": "Bytom",
                "addr:postcode": "41-902",
                "amenity": "pharmacy"
            },
            "geometry": {
                "type": "Point",
                "coordinates": [
                    18.894507999999963,
                    50.352214000013
                ]
            }
        },
        {
            "type": "Feature",
            "properties": {
                "ref:csioz": 1058903,
                "name": "Apteka Przyjazna Zdrowiu",
                "addr:street": "Maurycego Mochnackiego",
                "addr:housenumber": "68",
                "addr:city": "Bytom",
                "addr:postcode": "41-907",
                "amenity": "pharmacy"
            },
            "geometry": {
                "type": "Point",
                "coordinates": [
                    18.896549459938253,
                    50.34010280267138
                ]
            }
        },
        {
            "type": "Feature",
            "properties": {
                "ref:csioz": 1058916,
                "name": "Nasza",
                "addr:street": "Mazurska",
                "addr:housenumber": "3",
                "addr:city": "Bytom",
                "addr:postcode": "41-907",
                "amenity": "pharmacy"
            },
            "geometry": {
                "type": "Point",
                "coordinates": [
                    18.89231413561204,
                    50.3393940054271
                ]
            }
        },
        {
            "type": "Feature",
            "properties": {
                "ref:csioz": 1059035,
                "name": "Twoja",
                "addr:street": "Marszałka Józefa Piłsudskiego",
                "addr:housenumber": "72",
                "addr:city": "Bytom",
                "addr:postcode": "41-902",
                "amenity": "pharmacy"
            },
            "geometry": {
                "type": "Point",
                "coordinates": [
                    18.925494540860218,
                    50.34862373832577
                ]
            }
        },
        {
            "type": "Feature",
            "properties": {
                "ref:csioz": 1059062,
                "name": "Super-Pharm Apteka",
                "addr:street": "Tadeusza Kościuszki",
                "addr:housenumber": "1",
                "addr:flats": "005",
                "addr:city": "Bytom",
                "addr:postcode": "41-902",
                "amenity": "pharmacy"
            },
            "geometry": {
                "type": "Point",
                "coordinates": [
                    18.919394565471965,
                    50.347540369581644
                ]
            }
        },
        {
            "type": "Feature",
            "properties": {
                "ref:csioz": 1059097,
                "name": "Dr. Max",
                "addr:street": "Rynek",
                "addr:housenumber": "6",
                "addr:city": "Bytom",
                "addr:postcode": "41-902",
                "amenity": "pharmacy"
            },
            "geometry": {
                "type": "Point",
                "coordinates": [
                    18.923620555819365,
                    50.34732485310193
                ]
            }
        },
        {
            "type": "Feature",
            "properties": {
                "ref:csioz": 1059145,
                "name": "Na Rogu",
                "addr:street": "Strzelców Bytomskich",
                "addr:housenumber": "33",
                "addr:flats": "A",
                "addr:city": "Bytom",
                "addr:postcode": "41-902",
                "amenity": "pharmacy"
            },
            "geometry": {
                "type": "Point",
                "coordinates": [
                    18.90975914135207,
                    50.354551598343924
                ]
            }
        },
        {
            "type": "Feature",
            "properties": {
                "ref:csioz": 1059202,
                "name": "Apteka Rodzinna",
                "addr:street": "Tatrzańska",
                "addr:housenumber": "2",
                "addr:city": "Bytom",
                "addr:postcode": "41-907",
                "amenity": "pharmacy"
            },
            "geometry": {
                "type": "Point",
                "coordinates": [
                    18.891744283223872,
                    50.338070711298656
                ]
            }
        },
        {
            "type": "Feature",
            "properties": {
                "ref:csioz": 1059266,
                "name": "Super Apteka",
                "addr:street": "Wrocławska",
                "addr:housenumber": "78",
                "addr:city": "Bytom",
                "addr:postcode": "41-902",
                "amenity": "pharmacy"
            },
            "geometry": {
                "type": "Point",
                "coordinates": [
                    18.897042602065454,
                    50.35043438990785
                ]
            }
        },
        {
            "type": "Feature",
            "properties": {
                "ref:csioz": 1073704,
                "name": "Zakład Opieki Zdrowotnej Aresztu Śledczego W Bytomiu",
                "addr:street": "WROCŁAWSKA",
                "addr:housenumber": "4",
                "addr:city": "BYTOM",
                "addr:postcode": "41-902",
                "amenity": "pharmacy"
            },
            "geometry": {
                "type": "Point",
                "coordinates": [
                    18.91596748690302,
                    50.34817680272616
                ]
            }
        },
        {
            "type": "Feature",
            "properties": {
                "ref:csioz": 1173350,
                "name": "Apteka Zdrowit",
                "addr:street": "Michała Wolskiego",
                "addr:housenumber": "1",
                "addr:city": "Bytom",
                "addr:postcode": "41-902",
                "amenity": "pharmacy"
            },
            "geometry": {
                "type": "Point",
                "coordinates": [
                    18.91520161051324,
                    50.34343847549623
                ]
            }
        },
        {
            "type": "Feature",
            "properties": {
                "ref:csioz": 1185461,
                "name": "Apteka Rodzinna",
                "addr:street": "Piastów Bytomskich",
                "addr:housenumber": "3-5",
                "addr:city": "Bytom",
                "addr:postcode": "41-902",
                "amenity": "pharmacy"
            },
            "geometry": {
                "type": "Point",
                "coordinates": [
                    18.921164315634208,
                    50.34604705947674
                ]
            }
        },
        {
            "type": "Feature",
            "properties": {
                "ref:csioz": 1218696,
                "name": "Apteka Słoneczna",
                "addr:street": "Dworcowa",
                "addr:housenumber": "22",
                "addr:city": "Bytom",
                "addr:postcode": "41-902",
                "amenity": "pharmacy"
            },
            "geometry": {
                "type": "Point",
                "coordinates": [
                    18.91685854332834,
                    50.345096071067935
                ]
            }
        },
        {
            "type": "Feature",
            "properties": {
                "ref:csioz": 1058785,
                "name": "Apteka Blisko Ciebie Centrum Tanich Leków",
                "addr:street": "Dworcowa",
                "addr:housenumber": "24",
                "addr:city": "Bytom",
                "addr:postcode": "41-902",
                "amenity": "pharmacy"
            },
            "geometry": {
                "type": "Point",
                "coordinates": [
                    18.916702492550034,
                    50.344914509278574
                ]
            }
        },
        {
            "type": "Feature",
            "properties": {
                "ref:csioz": 1058942,
                "name": "Brak Nazwy",
                "addr:street": "Stanisława Moniuszki",
                "addr:housenumber": "4",
                "addr:city": "Bytom",
                "addr:postcode": "41-902",
                "amenity": "pharmacy"
            },
            "geometry": {
                "type": "Point",
                "coordinates": [
                    18.915697441635217,
                    50.34538585080795
                ]
            }
        },
        {
            "type": "Feature",
            "properties": {
                "ref:csioz": 1058975,
                "name": "Dr. Max",
                "addr:street": "Orzegowska",
                "addr:housenumber": "32",
                "addr:city": "Bytom",
                "addr:postcode": "41-907",
                "amenity": "pharmacy"
            },
            "geometry": {
                "type": "Point",
                "coordinates": [
                    18.887500061293633,
                    50.33497302774623
                ]
            }
        },
        {
            "type": "Feature",
            "properties": {
                "ref:csioz": 1058988,
                "name": "Apteka Słoneczna",
                "addr:street": "Orzegowska",
                "addr:housenumber": "52 A",
                "addr:city": "Bytom",
                "addr:postcode": "41-907",
                "amenity": "pharmacy"
            },
            "geometry": {
                "type": "Point",
                "coordinates": [
                    18.886163464640866,
                    50.333587108172566
                ]
            }
        },
        {
            "type": "Feature",
            "properties": {
                "ref:csioz": 1059019,
                "name": "Apteka Radosna",
                "addr:street": "Piekarska",
                "addr:housenumber": "17",
                "addr:city": "Bytom",
                "addr:postcode": "41-902",
                "amenity": "pharmacy"
            },
            "geometry": {
                "type": "Point",
                "coordinates": [
                    18.91831689603119,
                    50.34932298460347
                ]
            }
        },
        {
            "type": "Feature",
            "properties": {
                "ref:csioz": 1074050,
                "name": "S.P.Z.O.Z. Wojewódzki Szpital Specjalistyczny Nr 4 W Bytomiu",
                "addr:street": "ALEJA LEGIONÓW",
                "addr:housenumber": "10",
                "addr:city": "BYTOM",
                "addr:postcode": "41-902",
                "amenity": "pharmacy"
            },
            "geometry": {
                "type": "Point",
                "coordinates": [
                    18.912465949634377,
                    50.35449174980868
                ]
            }
        },
        {
            "type": "Feature",
            "properties": {
                "ref:csioz": 1170614,
                "name": "Apteka Lawenda",
                "addr:street": "Chorzowska",
                "addr:housenumber": "59B",
                "addr:city": "Bytom",
                "addr:postcode": "41-902",
                "amenity": "pharmacy"
            },
            "geometry": {
                "type": "Point",
                "coordinates": [
                    18.940415766657,
                    50.33316267771782
                ]
            }
        },
        {
            "type": "Feature",
            "properties": {
                "ref:csioz": 1195390,
                "name": "Apteka Radosna",
                "addr:street": "Józefa Jainty",
                "addr:housenumber": "24",
                "addr:city": "Bytom",
                "addr:postcode": "41-902",
                "amenity": "pharmacy"
            },
            "geometry": {
                "type": "Point",
                "coordinates": [
                    18.920184108826778,
                    50.3479635895374
                ]
            }
        },
        {
            "type": "Feature",
            "properties": {
                "ref:csioz": 1211934,
                "name": "Apteka Rodzinna",
                "addr:street": "Pomorska",
                "addr:housenumber": "2A",
                "addr:city": "Bytom",
                "addr:postcode": "41-907",
                "amenity": "pharmacy"
            },
            "geometry": {
                "type": "Point",
                "coordinates": [
                    18.901401940527226,
                    50.34025289548105
                ]
            }
        },
        {
            "type": "Feature",
            "properties": {
                "ref:csioz": 1059056,
                "name": "Citrus",
                "addr:street": "Stefana Żeromskiego",
                "addr:housenumber": "1",
                "addr:city": "Bytom",
                "addr:postcode": "41-914",
                "amenity": "pharmacy"
            },
            "geometry": {
                "type": "Point",
                "coordinates": [
                    18.880302720461007,
                    50.38745282218515
                ]
            }
        },
        {
            "type": "Feature",
            "properties": {
                "ref:csioz": 1059113,
                "name": "\"Apteka Cef@Rm 36,6\"",
                "addr:street": "Stolarzowicka",
                "addr:housenumber": "106",
                "addr:city": "Bytom",
                "addr:postcode": "41-908",
                "amenity": "pharmacy"
            },
            "geometry": {
                "type": "Point",
                "coordinates": [
                    18.84749475586901,
                    50.37065851377551
                ]
            }
        },
        {
            "type": "Feature",
            "properties": {
                "ref:csioz": 1059121,
                "name": "\"Apteka Cef@Rm 36,6\"",
                "addr:street": "Stolarzowicka",
                "addr:housenumber": "44",
                "addr:city": "Bytom",
                "addr:postcode": "41-908",
                "amenity": "pharmacy"
            },
            "geometry": {
                "type": "Point",
                "coordinates": [
                    18.850027127486044,
                    50.368693903870934
                ]
            }
        },
        {
            "type": "Feature",
            "properties": {
                "ref:csioz": 1059159,
                "name": "Apteka Dbam O Zdrowie",
                "addr:street": "Strzelców Bytomskich",
                "addr:housenumber": "96",
                "addr:city": "Bytom",
                "addr:postcode": "41-914",
                "amenity": "pharmacy"
            },
            "geometry": {
                "type": "Point",
                "coordinates": [
                    18.890599999999964,
                    50.38016400001305
                ]
            }
        },
        {
            "type": "Feature",
            "properties": {
                "ref:csioz": 1059176,
                "name": "Apteka Z Sercem",
                "addr:street": "Szymały",
                "addr:housenumber": "140 A",
                "addr:city": "Bytom",
                "addr:postcode": "41-933",
                "amenity": "pharmacy"
            },
            "geometry": {
                "type": "Point",
                "coordinates": [
                    18.883231999999968,
                    50.394013000013075
                ]
            }
        },
        {
            "type": "Feature",
            "properties": {
                "ref:csioz": 1074075,
                "name": "Szpital Specjalistyczny Nr 1 W Bytomiu",
                "addr:street": "ŻEROMSKIEGO",
                "addr:housenumber": "7",
                "addr:city": "BYTOM",
                "addr:postcode": "41-902",
                "amenity": "pharmacy"
            },
            "geometry": {
                "type": "Point",
                "coordinates": [
                    18.87924637302133,
                    50.38831721349725
                ]
            }
        },
        {
            "type": "Feature",
            "properties": {
                "ref:csioz": 1059244,
                "name": "Dr. Max",
                "addr:street": "Stanisława Wojciechowskiego",
                "addr:housenumber": "8",
                "addr:city": "Bytom",
                "addr:postcode": "41-902",
                "amenity": "pharmacy"
            },
            "geometry": {
                "type": "Point",
                "coordinates": [
                    18.87176764958218,
                    50.39476475420371
                ]
            }
        },
        {
            "type": "Feature",
            "properties": {
                "ref:csioz": 1179409,
                "name": "Apteka Zdrowit",
                "addr:street": "Strzelców Bytomskich",
                "addr:housenumber": "250E",
                "addr:city": "Bytom",
                "addr:postcode": "41-933",
                "amenity": "pharmacy"
            },
            "geometry": {
                "type": "Point",
                "coordinates": [
                    18.879405888828924,
                    50.396086476477045
                ]
            }
        },
        {
            "type": "Feature",
            "properties": {
                "ref:csioz": 1226570,
                "name": "Dział Farmacji Szpitalnej",
                "addr:street": "Stolarzowicka",
                "addr:housenumber": "38",
                "addr:city": "Bytom",
                "addr:postcode": "41-923",
                "amenity": "pharmacy"
            },
            "geometry": {
                "type": "Point",
                "coordinates": [
                    18.85022979074667,
                    50.36839597923761
                ]
            }
        },
        {
            "type": "Feature",
            "properties": {
                "ref:csioz": 1058736,
                "name": "Dbam O Zdrowie",
                "addr:street": "Chorzowska",
                "addr:housenumber": "86",
                "addr:city": "Bytom",
                "addr:postcode": "41-900",
                "amenity": "pharmacy"
            },
            "geometry": {
                "type": "Point",
                "coordinates": [
                    18.94263598220272,
                    50.321473166863996
                ]
            }
        }
    ]
}