{
    "type": "FeatureCollection",
    "name": "JPT_KOD_JE_1216",
    "crs": {
        "type": "name",
        "properties": {
            "name": "urn:ogc:def:crs:EPSG::4326"
        }
    },
    "features": [
        {
            "type": "Feature",
            "properties": {
                "ref:csioz": 1078904,
                "name": "Apteka Centrum",
                "addr:street": "Niedomicka",
                "addr:housenumber": "48",
                "addr:city": "Niedomice",
                "addr:postcode": "33-132",
                "amenity": "pharmacy"
            },
            "geometry": {
                "type": "Point",
                "coordinates": [
                    20.89609800000251,
                    50.10676800001266
                ]
            }
        },
        {
            "type": "Feature",
            "properties": {
                "ref:csioz": 1078936,
                "name": "Apteka Arnika Mgr Farm. Anna Fidowicz",
                "addr:housenumber": "458",
                "addr:city": "Pleśna",
                "addr:postcode": "33-171",
                "amenity": "pharmacy"
            },
            "geometry": {
                "type": "Point",
                "coordinates": [
                    20.944039576924432,
                    49.92285298429344
                ]
            }
        },
        {
            "type": "Feature",
            "properties": {
                "ref:csioz": 1078961,
                "name": "Zdrowe Ceny",
                "addr:street": "Brzeska",
                "addr:housenumber": "2",
                "addr:city": "Radłów",
                "addr:postcode": "33-130",
                "amenity": "pharmacy"
            },
            "geometry": {
                "type": "Point",
                "coordinates": [
                    20.848208916610197,
                    50.0844949191294
                ]
            }
        },
        {
            "type": "Feature",
            "properties": {
                "ref:csioz": 1078985,
                "addr:street": "Rynek",
                "addr:housenumber": "28",
                "addr:city": "Ryglice",
                "addr:postcode": "33-160",
                "amenity": "pharmacy"
            },
            "geometry": {
                "type": "Point",
                "coordinates": [
                    21.13723083084322,
                    49.87840168934687
                ]
            }
        },
        {
            "type": "Feature",
            "properties": {
                "ref:csioz": 1079001,
                "addr:housenumber": "645",
                "addr:city": "Skrzyszów",
                "addr:postcode": "33-156",
                "amenity": "pharmacy"
            },
            "geometry": {
                "type": "Point",
                "coordinates": [
                    21.05510854135595,
                    49.996613073968646
                ]
            }
        },
        {
            "type": "Feature",
            "properties": {
                "ref:csioz": 1079030,
                "addr:housenumber": "10",
                "addr:city": "Szynwałd",
                "addr:postcode": "33-158",
                "amenity": "pharmacy"
            },
            "geometry": {
                "type": "Point",
                "coordinates": [
                    21.114771310256582,
                    49.97347934851012
                ]
            }
        },
        {
            "type": "Feature",
            "properties": {
                "ref:csioz": 1079058,
                "name": "Apteka Różana",
                "addr:street": "Adama Mickiewicza",
                "addr:housenumber": "22",
                "addr:city": "Tuchów",
                "addr:postcode": "33-170",
                "amenity": "pharmacy"
            },
            "geometry": {
                "type": "Point",
                "coordinates": [
                    21.05365266591236,
                    49.893590144574574
                ]
            }
        },
        {
            "type": "Feature",
            "properties": {
                "ref:csioz": 1079063,
                "name": "Apteka Prolek",
                "addr:street": "Adama  Mickiewicza",
                "addr:housenumber": "48",
                "addr:city": "Tuchów",
                "addr:postcode": "33-170",
                "amenity": "pharmacy"
            },
            "geometry": {
                "type": "Point",
                "coordinates": [
                    21.052908430568422,
                    49.88959338384343
                ]
            }
        },
        {
            "type": "Feature",
            "properties": {
                "ref:csioz": 1079105,
                "name": "Apteka Centrum",
                "addr:housenumber": "809",
                "addr:city": "Wierzchosławice",
                "addr:postcode": "33-122",
                "amenity": "pharmacy"
            },
            "geometry": {
                "type": "Point",
                "coordinates": [
                    20.853672242958215,
                    50.01983673128963
                ]
            }
        },
        {
            "type": "Feature",
            "properties": {
                "ref:csioz": 1079118,
                "name": "Apteka Prywatna Bł. Karoliny",
                "addr:street": "Bł. Karoliny Kózkówny",
                "addr:housenumber": "85",
                "addr:city": "Zabawa",
                "addr:postcode": "33-133",
                "amenity": "pharmacy"
            },
            "geometry": {
                "type": "Point",
                "coordinates": [
                    20.821124637146813,
                    50.119952654717075
                ]
            }
        },
        {
            "type": "Feature",
            "properties": {
                "ref:csioz": 1079126,
                "addr:housenumber": "2",
                "addr:city": "Wietrzychowice",
                "addr:postcode": "33-270",
                "amenity": "pharmacy"
            },
            "geometry": {
                "type": "Point",
                "coordinates": [
                    20.754817256975063,
                    50.19006510089368
                ]
            }
        },
        {
            "type": "Feature",
            "properties": {
                "ref:csioz": 1079139,
                "addr:street": "Rynek",
                "addr:housenumber": "10",
                "addr:city": "Wojnicz",
                "addr:postcode": "32-830",
                "amenity": "pharmacy"
            },
            "geometry": {
                "type": "Point",
                "coordinates": [
                    20.837323338933402,
                    49.95792286525933
                ]
            }
        },
        {
            "type": "Feature",
            "properties": {
                "ref:csioz": 1079224,
                "name": "Apteka Pod Sową",
                "addr:street": "Krakowska",
                "addr:housenumber": "26",
                "addr:city": "Zgłobice",
                "addr:postcode": "33-113",
                "amenity": "pharmacy"
            },
            "geometry": {
                "type": "Point",
                "coordinates": [
                    20.903792308435346,
                    49.978764215896476
                ]
            }
        },
        {
            "type": "Feature",
            "properties": {
                "ref:csioz": 1079256,
                "name": "Apteka Verbena",
                "addr:street": "Rynek",
                "addr:housenumber": "18",
                "addr:city": "Żabno",
                "addr:postcode": "33-240",
                "amenity": "pharmacy"
            },
            "geometry": {
                "type": "Point",
                "coordinates": [
                    20.8847389901769,
                    50.13238522839487
                ]
            }
        },
        {
            "type": "Feature",
            "properties": {
                "ref:csioz": 1079262,
                "name": "\"'Apteka' Dziekanowska I S-Ka Spółka Jawna\"",
                "addr:street": "Kilińskiego",
                "addr:housenumber": "4",
                "addr:city": "Żabno",
                "addr:postcode": "33-240",
                "amenity": "pharmacy"
            },
            "geometry": {
                "type": "Point",
                "coordinates": [
                    20.88419139044055,
                    50.13341129966359
                ]
            }
        },
        {
            "type": "Feature",
            "properties": {
                "ref:csioz": 1079147,
                "name": "\"Apteka \"\"Im. J. Pazdirka\"\" Mgr Farm. Zofia Kurek\"",
                "addr:street": "Rynek",
                "addr:housenumber": "32",
                "addr:city": "Wojnicz",
                "addr:postcode": "32-830",
                "amenity": "pharmacy"
            },
            "geometry": {
                "type": "Point",
                "coordinates": [
                    20.839331074065733,
                    49.95799991144577
                ]
            }
        },
        {
            "type": "Feature",
            "properties": {
                "ref:csioz": 1079568,
                "addr:street": "Główna",
                "addr:housenumber": "29",
                "addr:city": "Koszyce Małe",
                "addr:postcode": "33-111",
                "amenity": "pharmacy"
            },
            "geometry": {
                "type": "Point",
                "coordinates": [
                    20.946905942062305,
                    49.96895811677104
                ]
            }
        },
        {
            "type": "Feature",
            "properties": {
                "ref:csioz": 1079653,
                "name": "Punkt Apteczny Apteki Im. I. Łukasiewicza",
                "addr:housenumber": "124b",
                "addr:city": "Stare Żukowice",
                "addr:postcode": "33-151",
                "amenity": "pharmacy"
            },
            "geometry": {
                "type": "Point",
                "coordinates": [
                    21.10288614487376,
                    50.087104083630265
                ]
            }
        },
        {
            "type": "Feature",
            "properties": {
                "ref:csioz": 1113575,
                "name": "Atena",
                "addr:street": "Rynek",
                "addr:housenumber": "10",
                "addr:city": "Ryglice",
                "addr:postcode": "33-160",
                "amenity": "pharmacy"
            },
            "geometry": {
                "type": "Point",
                "coordinates": [
                    21.13876107542806,
                    49.87822417398055
                ]
            }
        },
        {
            "type": "Feature",
            "properties": {
                "ref:csioz": 1116987,
                "name": "Apteka Centrum",
                "addr:housenumber": "457A",
                "addr:city": "Wola Rzędzińska",
                "addr:postcode": "33-150",
                "amenity": "pharmacy"
            },
            "geometry": {
                "type": "Point",
                "coordinates": [
                    21.057401067772407,
                    50.03425217190784
                ]
            }
        },
        {
            "type": "Feature",
            "properties": {
                "ref:csioz": 1172121,
                "addr:housenumber": "453",
                "addr:city": "Rzuchowa",
                "addr:postcode": "33-114",
                "amenity": "pharmacy"
            },
            "geometry": {
                "type": "Point",
                "coordinates": [
                    20.930237506834555,
                    49.95170706339424
                ]
            }
        },
        {
            "type": "Feature",
            "properties": {
                "ref:csioz": 1174851,
                "name": "Dobra Apteka",
                "addr:street": "Tarnowska",
                "addr:housenumber": "121",
                "addr:flats": "2",
                "addr:city": "Żabno",
                "addr:postcode": "33-240",
                "amenity": "pharmacy"
            },
            "geometry": {
                "type": "Point",
                "coordinates": [
                    20.891344366077245,
                    50.12123125782941
                ]
            }
        },
        {
            "type": "Feature",
            "properties": {
                "ref:csioz": 1189124,
                "addr:street": "Rolnicza",
                "addr:housenumber": "3",
                "addr:city": "Wojnicz",
                "addr:postcode": "32-830",
                "amenity": "pharmacy"
            },
            "geometry": {
                "type": "Point",
                "coordinates": [
                    20.837598537858312,
                    49.953193676861275
                ]
            }
        },
        {
            "type": "Feature",
            "properties": {
                "ref:csioz": 1192967,
                "name": "Apteka Mniszek",
                "addr:street": "Rzemieślnicza",
                "addr:housenumber": "4",
                "addr:city": "Zgłobice",
                "addr:postcode": "33-113",
                "amenity": "pharmacy"
            },
            "geometry": {
                "type": "Point",
                "coordinates": [
                    20.905429437411133,
                    49.97663481510384
                ]
            }
        },
        {
            "type": "Feature",
            "properties": {
                "ref:csioz": 1199713,
                "name": "Apteka Omega",
                "addr:street": "Aleja Piłsudskiego",
                "addr:housenumber": "1",
                "addr:city": "Żabno",
                "addr:postcode": "33-240",
                "amenity": "pharmacy"
            },
            "geometry": {
                "type": "Point",
                "coordinates": [
                    20.888794164385132,
                    50.13269932524739
                ]
            }
        },
        {
            "type": "Feature",
            "properties": {
                "ref:csioz": 1199956,
                "name": "Punkt Apteczny Bliski",
                "addr:housenumber": "348",
                "addr:city": "Biadoliny Radłowskie",
                "addr:postcode": "32-828",
                "amenity": "pharmacy"
            },
            "geometry": {
                "type": "Point",
                "coordinates": [
                    20.76188110240229,
                    49.999281021629585
                ]
            }
        },
        {
            "type": "Feature",
            "properties": {
                "ref:csioz": 1207777,
                "name": "Apteka Słoneczna",
                "addr:street": "Szpitalna",
                "addr:housenumber": "1B",
                "addr:city": "Tuchów",
                "addr:postcode": "33-170",
                "amenity": "pharmacy"
            },
            "geometry": {
                "type": "Point",
                "coordinates": [
                    21.060641000003656,
                    49.89265900001235
                ]
            }
        },
        {
            "type": "Feature",
            "properties": {
                "ref:csioz": 1079499,
                "addr:housenumber": "312",
                "addr:city": "Janowice",
                "addr:postcode": "33-115",
                "amenity": "pharmacy"
            },
            "geometry": {
                "type": "Point",
                "coordinates": [
                    20.86242512540966,
                    49.890878856416094
                ]
            }
        },
        {
            "type": "Feature",
            "properties": {
                "ref:csioz": 1078865,
                "name": "Apteka Prywatna Elżbieta Urbańska-Świątek",
                "addr:street": "1 Maja",
                "addr:housenumber": "1",
                "addr:city": "Lisia Góra",
                "addr:postcode": "33-140",
                "amenity": "pharmacy"
            },
            "geometry": {
                "type": "Point",
                "coordinates": [
                    21.023343743608887,
                    50.08369933188343
                ]
            }
        },
        {
            "type": "Feature",
            "properties": {
                "ref:csioz": 1078879,
                "name": "Apteka Centrum",
                "addr:street": "Henryka Sucharskiego",
                "addr:housenumber": "2",
                "addr:city": "Lisia Góra",
                "addr:postcode": "33-140",
                "amenity": "pharmacy"
            },
            "geometry": {
                "type": "Point",
                "coordinates": [
                    21.025611768195635,
                    50.08275854287599
                ]
            }
        },
        {
            "type": "Feature",
            "properties": {
                "ref:csioz": 1078887,
                "addr:street": "Tarnowska",
                "addr:housenumber": "156",
                "addr:city": "Łęg Tarnowski",
                "addr:postcode": "33-131",
                "amenity": "pharmacy"
            },
            "geometry": {
                "type": "Point",
                "coordinates": [
                    20.920947395434187,
                    50.07434960989856
                ]
            }
        },
        {
            "type": "Feature",
            "properties": {
                "ref:csioz": 1078898,
                "name": "Biomedic",
                "addr:street": "Osiedle",
                "addr:housenumber": "16",
                "addr:city": "Niedomice",
                "addr:postcode": "33-132",
                "amenity": "pharmacy"
            },
            "geometry": {
                "type": "Point",
                "coordinates": [
                    20.894446410386795,
                    50.10646459336624
                ]
            }
        },
        {
            "type": "Feature",
            "properties": {
                "ref:csioz": 1111880,
                "name": "Apteka Pharmax",
                "addr:housenumber": "39B",
                "addr:city": "Wierzchosławice",
                "addr:postcode": "33-122",
                "amenity": "pharmacy"
            },
            "geometry": {
                "type": "Point",
                "coordinates": [
                    20.86304886305395,
                    50.01561753057977
                ]
            }
        },
        {
            "type": "Feature",
            "properties": {
                "ref:csioz": 1111895,
                "name": "Apteka Familijna Mgr Farm. Elżbieta Banach",
                "addr:street": "Karpacka",
                "addr:housenumber": "29",
                "addr:city": "Zalasowa",
                "addr:postcode": "33-159",
                "amenity": "pharmacy"
            },
            "geometry": {
                "type": "Point",
                "coordinates": [
                    21.1280373056881,
                    49.92591579688091
                ]
            }
        },
        {
            "type": "Feature",
            "properties": {
                "ref:csioz": 1179758,
                "addr:street": "Rynek",
                "addr:housenumber": "12",
                "addr:flats": "3",
                "addr:city": "Żabno",
                "addr:postcode": "33-240",
                "amenity": "pharmacy"
            },
            "geometry": {
                "type": "Point",
                "coordinates": [
                    20.88561500217045,
                    50.13221123608097
                ]
            }
        },
        {
            "type": "Feature",
            "properties": {
                "ref:csioz": 1181726,
                "addr:street": "Jana Pawła II",
                "addr:housenumber": "15",
                "addr:city": "Tuchów",
                "addr:postcode": "33-170",
                "amenity": "pharmacy"
            },
            "geometry": {
                "type": "Point",
                "coordinates": [
                    21.056090004010404,
                    49.89461813932608
                ]
            }
        },
        {
            "type": "Feature",
            "properties": {
                "ref:csioz": 1189489,
                "name": "Apteka Bliska",
                "addr:housenumber": "205",
                "addr:city": "Wietrzychowice",
                "addr:postcode": "33-270",
                "amenity": "pharmacy"
            },
            "geometry": {
                "type": "Point",
                "coordinates": [
                    20.755792644779145,
                    50.18951552969781
                ]
            }
        },
        {
            "type": "Feature",
            "properties": {
                "ref:csioz": 1192325,
                "name": "\"Apteka 'Pod Białym Orłem'\"",
                "addr:street": "Rynek",
                "addr:housenumber": "12",
                "addr:flats": "1",
                "addr:city": "Tuchów",
                "addr:postcode": "33-170",
                "amenity": "pharmacy"
            },
            "geometry": {
                "type": "Point",
                "coordinates": [
                    21.052542207125377,
                    49.89550982391361
                ]
            }
        },
        {
            "type": "Feature",
            "properties": {
                "ref:csioz": 1205800,
                "name": "Punkt Apteczny Bliski",
                "addr:housenumber": "259",
                "addr:city": "Otfinów",
                "addr:postcode": "33-250",
                "amenity": "pharmacy"
            },
            "geometry": {
                "type": "Point",
                "coordinates": [
                    20.812147138927546,
                    50.18311555783096
                ]
            }
        },
        {
            "type": "Feature",
            "properties": {
                "ref:csioz": 1205942,
                "name": "\"Apteka 'Centrum Zdrowia'\"",
                "addr:street": "Brzeska",
                "addr:housenumber": "1",
                "addr:city": "Radłów",
                "addr:postcode": "33-130",
                "amenity": "pharmacy"
            },
            "geometry": {
                "type": "Point",
                "coordinates": [
                    20.847646249629424,
                    50.08426992214033
                ]
            }
        },
        {
            "type": "Feature",
            "properties": {
                "ref:csioz": 1220154,
                "name": "Apteka Lafarma",
                "addr:housenumber": "537",
                "addr:flats": "2",
                "addr:city": "Pleśna",
                "addr:postcode": "33-171",
                "amenity": "pharmacy"
            },
            "geometry": {
                "type": "Point",
                "coordinates": [
                    20.944686870124546,
                    49.925118986833816
                ]
            }
        },
        {
            "type": "Feature",
            "properties": {
                "ref:csioz": 1220892,
                "addr:street": "Rynek",
                "addr:housenumber": "5",
                "addr:city": "Wojnicz",
                "addr:postcode": "32-830",
                "amenity": "pharmacy"
            },
            "geometry": {
                "type": "Point",
                "coordinates": [
                    20.838321650760758,
                    49.95783038485527
                ]
            }
        },
        {
            "type": "Feature",
            "properties": {
                "ref:csioz": 1221267,
                "name": "Dział Farmacji Szpitalnej",
                "addr:housenumber": "1",
                "addr:city": "Wał-Ruda",
                "addr:postcode": "33-133",
                "amenity": "pharmacy"
            },
            "geometry": {
                "type": "Point",
                "coordinates": [
                    20.79588285129711,
                    50.11392704030592
                ]
            }
        },
        {
            "type": "Feature",
            "properties": {
                "ref:csioz": 1229935,
                "name": "\"Punkt Apteczny \"\"Centrum\"\"\"",
                "addr:housenumber": "77B",
                "addr:city": "Pogórska Wola",
                "addr:postcode": "33-152",
                "amenity": "pharmacy"
            },
            "geometry": {
                "type": "Point",
                "coordinates": [
                    21.15248025983972,
                    50.01158914104551
                ]
            }
        },
        {
            "type": "Feature",
            "properties": {
                "ref:csioz": 1230027,
                "addr:street": "Szpitalna",
                "addr:housenumber": "1",
                "addr:city": "Tuchów",
                "addr:postcode": "33-170",
                "amenity": "pharmacy"
            },
            "geometry": {
                "type": "Point",
                "coordinates": [
                    21.060383224244838,
                    49.893016830379416
                ]
            }
        },
        {
            "type": "Feature",
            "properties": {
                "ref:csioz": 1227174,
                "name": "\"Apteka \"\"Przy Przychodni\"\"\"",
                "addr:housenumber": "501",
                "addr:flats": "A",
                "addr:city": "Lubcza",
                "addr:postcode": "33-162",
                "amenity": "pharmacy"
            },
            "geometry": {
                "type": "Point",
                "coordinates": [
                    21.225146956933227,
                    49.907192638370375
                ]
            }
        },
        {
            "type": "Feature",
            "properties": {
                "ref:csioz": 1186358,
                "name": "Lekoland",
                "addr:housenumber": "72",
                "addr:flats": "B",
                "addr:city": "Nowodworze",
                "addr:postcode": "33-112",
                "amenity": "pharmacy"
            },
            "geometry": {
                "type": "Point",
                "coordinates": [
                    20.99126857148217,
                    49.97078683549096
                ]
            }
        },
        {
            "type": "Feature",
            "properties": {
                "ref:csioz": 1078999,
                "addr:housenumber": "169",
                "addr:city": "Rzepiennik Strzyżewski",
                "addr:postcode": "33-163",
                "amenity": "pharmacy"
            },
            "geometry": {
                "type": "Point",
                "coordinates": [
                    21.04800976263336,
                    49.800308891945214
                ]
            }
        },
        {
            "type": "Feature",
            "properties": {
                "ref:csioz": 1079485,
                "addr:street": "Krynicka",
                "addr:housenumber": "12",
                "addr:city": "Gromnik",
                "addr:postcode": "33-180",
                "amenity": "pharmacy"
            },
            "geometry": {
                "type": "Point",
                "coordinates": [
                    20.960713246074302,
                    49.83613695964959
                ]
            }
        },
        {
            "type": "Feature",
            "properties": {
                "ref:csioz": 1079194,
                "name": "Centrum",
                "addr:street": "Rynek",
                "addr:housenumber": "35",
                "addr:city": "Zakliczyn",
                "addr:postcode": "32-840",
                "amenity": "pharmacy"
            },
            "geometry": {
                "type": "Point",
                "coordinates": [
                    20.809253566924315,
                    49.856059103177735
                ]
            }
        },
        {
            "type": "Feature",
            "properties": {
                "ref:csioz": 1079592,
                "addr:housenumber": "549",
                "addr:city": "Olszyny",
                "addr:postcode": "33-164",
                "amenity": "pharmacy"
            },
            "geometry": {
                "type": "Point",
                "coordinates": [
                    21.139154673855376,
                    49.809182502454256
                ]
            }
        },
        {
            "type": "Feature",
            "properties": {
                "ref:csioz": 1079602,
                "name": "Herbamed",
                "addr:housenumber": "97",
                "addr:city": "Ołpiny",
                "addr:postcode": "38-247",
                "amenity": "pharmacy"
            },
            "geometry": {
                "type": "Point",
                "coordinates": [
                    21.20352887252137,
                    49.80682226988557
                ]
            }
        },
        {
            "type": "Feature",
            "properties": {
                "ref:csioz": 1170293,
                "name": "Apteka Artfarm",
                "addr:street": "Jacka Malczewskiego",
                "addr:housenumber": "29",
                "addr:city": "Zakliczyn",
                "addr:postcode": "32-840",
                "amenity": "pharmacy"
            },
            "geometry": {
                "type": "Point",
                "coordinates": [
                    20.813018771661035,
                    49.856284593574465
                ]
            }
        },
        {
            "type": "Feature",
            "properties": {
                "ref:csioz": 1078822,
                "name": "\"Apteka 'Centrum' S.C.\"",
                "addr:street": "Rynek",
                "addr:housenumber": "34",
                "addr:city": "Ciężkowice",
                "addr:postcode": "33-190",
                "amenity": "pharmacy"
            },
            "geometry": {
                "type": "Point",
                "coordinates": [
                    20.972960483438772,
                    49.78664942004666
                ]
            }
        },
        {
            "type": "Feature",
            "properties": {
                "ref:csioz": 1078833,
                "name": "Apteka Millenium",
                "addr:street": "św. Floriana",
                "addr:housenumber": "9",
                "addr:city": "Ciężkowice",
                "addr:postcode": "33-190",
                "amenity": "pharmacy"
            },
            "geometry": {
                "type": "Point",
                "coordinates": [
                    20.97342500000303,
                    49.78469600001221
                ]
            }
        },
        {
            "type": "Feature",
            "properties": {
                "ref:csioz": 1078840,
                "name": "Apteka „Na Zdrowej”",
                "addr:street": "Zdrowa",
                "addr:housenumber": "6",
                "addr:city": "Ciężkowice",
                "addr:postcode": "33-190",
                "amenity": "pharmacy"
            },
            "geometry": {
                "type": "Point",
                "coordinates": [
                    20.976320000003053,
                    49.78580800001222
                ]
            }
        },
        {
            "type": "Feature",
            "properties": {
                "ref:csioz": 1078854,
                "name": "Salutis",
                "addr:street": "Królowej Jadwigi",
                "addr:housenumber": "2",
                "addr:city": "Gromnik",
                "addr:postcode": "33-180",
                "amenity": "pharmacy"
            },
            "geometry": {
                "type": "Point",
                "coordinates": [
                    20.954342793606447,
                    49.839826952886305
                ]
            }
        },
        {
            "type": "Feature",
            "properties": {
                "ref:csioz": 1111929,
                "name": "Apteka Dbam O Zdrowie",
                "addr:street": "Rynek",
                "addr:housenumber": "33",
                "addr:city": "Zakliczyn",
                "addr:postcode": "32-840",
                "amenity": "pharmacy"
            },
            "geometry": {
                "type": "Point",
                "coordinates": [
                    20.809202852971367,
                    49.856302412508924
                ]
            }
        },
        {
            "type": "Feature",
            "properties": {
                "ref:csioz": 1115477,
                "name": "Zdrowe Ceny",
                "addr:street": "Jagiellońska",
                "addr:housenumber": "4",
                "addr:city": "Zakliczyn",
                "addr:postcode": "32-840",
                "amenity": "pharmacy"
            },
            "geometry": {
                "type": "Point",
                "coordinates": [
                    20.809259023094818,
                    49.85487117524463
                ]
            }
        },
        {
            "type": "Feature",
            "properties": {
                "ref:csioz": 1174791,
                "name": "\"'Herbamed'\"",
                "addr:housenumber": "296/b",
                "addr:city": "Szerzyny",
                "addr:postcode": "38-246",
                "amenity": "pharmacy"
            },
            "geometry": {
                "type": "Point",
                "coordinates": [
                    21.243322000009936,
                    49.80858100000015
                ]
            }
        },
        {
            "type": "Feature",
            "properties": {
                "ref:csioz": 1181695,
                "addr:housenumber": "180 A",
                "addr:city": "Jastrzębia",
                "addr:postcode": "33-191",
                "amenity": "pharmacy"
            },
            "geometry": {
                "type": "Point",
                "coordinates": [
                    20.898185933686875,
                    49.784666607452635
                ]
            }
        },
        {
            "type": "Feature",
            "properties": {
                "ref:csioz": 1181718,
                "name": "\"Apteka 'Witaminka'\"",
                "addr:housenumber": "670",
                "addr:flats": "A",
                "addr:city": "Szerzyny",
                "addr:postcode": "28-246",
                "amenity": "pharmacy"
            },
            "geometry": {
                "type": "Point",
                "coordinates": [
                    21.249435016706652,
                    49.80657284289793
                ]
            }
        },
        {
            "type": "Feature",
            "properties": {
                "ref:csioz": 1195138,
                "name": "Herbamed Punkt Apteczny Żurowa",
                "addr:housenumber": "7",
                "addr:city": "Żurowa",
                "addr:postcode": "38-247",
                "amenity": "pharmacy"
            },
            "geometry": {
                "type": "Point",
                "coordinates": [
                    21.168582139290784,
                    49.8249727905077
                ]
            }
        },
        {
            "type": "Feature",
            "properties": {
                "ref:csioz": 1203623,
                "name": "Apteka Rynek",
                "addr:street": "Rynek",
                "addr:housenumber": "26",
                "addr:city": "Ciężkowice",
                "addr:postcode": "33-190",
                "amenity": "pharmacy"
            },
            "geometry": {
                "type": "Point",
                "coordinates": [
                    20.972987071605534,
                    49.78590227877878
                ]
            }
        },
        {
            "type": "Feature",
            "properties": {
                "ref:csioz": 1208543,
                "name": "\"Apteka 'Witaminka'\"",
                "addr:housenumber": "639/A",
                "addr:city": "Ołpiny",
                "addr:postcode": "38-247",
                "amenity": "pharmacy"
            },
            "geometry": {
                "type": "Point",
                "coordinates": [
                    21.184111000004798,
                    49.802824000012244
                ]
            }
        }
    ]
}