{
    "type": "FeatureCollection",
    "name": "JPT_KOD_JE_1409",
    "crs": {
        "type": "name",
        "properties": {
            "name": "urn:ogc:def:crs:EPSG::4326"
        }
    },
    "features": [
        {
            "type": "Feature",
            "properties": {
                "ref:csioz": 1094959,
                "addr:street": "Rynek",
                "addr:housenumber": "11",
                "addr:city": "Solec nad Wisłą",
                "addr:postcode": "27-320",
                "amenity": "pharmacy"
            },
            "geometry": {
                "type": "Point",
                "coordinates": [
                    21.76569596792996,
                    51.134614531852435
                ]
            }
        },
        {
            "type": "Feature",
            "properties": {
                "ref:csioz": 1094968,
                "addr:street": "Ostrowiecka",
                "addr:housenumber": "7",
                "addr:city": "Sienno",
                "addr:postcode": "27-350",
                "amenity": "pharmacy"
            },
            "geometry": {
                "type": "Point",
                "coordinates": [
                    21.47317187646092,
                    51.084222707766465
                ]
            }
        },
        {
            "type": "Feature",
            "properties": {
                "ref:csioz": 1096321,
                "addr:street": "Rynek",
                "addr:housenumber": "11A",
                "addr:city": "Grabowiec",
                "addr:postcode": "27-353",
                "amenity": "pharmacy"
            },
            "geometry": {
                "type": "Point",
                "coordinates": [
                    21.39066755105834,
                    51.10121890087873
                ]
            }
        },
        {
            "type": "Feature",
            "properties": {
                "ref:csioz": 1096337,
                "name": "Stara Plebania",
                "addr:housenumber": "68",
                "addr:city": "Pawłowice",
                "addr:postcode": "27-330",
                "amenity": "pharmacy"
            },
            "geometry": {
                "type": "Point",
                "coordinates": [
                    21.745885395021453,
                    51.07109668080255
                ]
            }
        },
        {
            "type": "Feature",
            "properties": {
                "ref:csioz": 1182558,
                "name": "Doz Apteka Dbam O Zdrowie",
                "addr:street": "Jędrzeja Śniadeckiego",
                "addr:housenumber": "2",
                "addr:city": "Lipsko",
                "addr:postcode": "27-300",
                "amenity": "pharmacy"
            },
            "geometry": {
                "type": "Point",
                "coordinates": [
                    21.644467553578252,
                    51.15934363092388
                ]
            }
        },
        {
            "type": "Feature",
            "properties": {
                "ref:csioz": 1094890,
                "addr:street": "Czachowskiego",
                "addr:housenumber": "3",
                "addr:city": "Ciepielów",
                "addr:postcode": "27-310",
                "amenity": "pharmacy"
            },
            "geometry": {
                "type": "Point",
                "coordinates": [
                    21.57394601291308,
                    51.246896829536915
                ]
            }
        },
        {
            "type": "Feature",
            "properties": {
                "ref:csioz": 1094900,
                "name": "\"Cef@Rm 36,6\"",
                "addr:street": "Iłżecka",
                "addr:housenumber": "6A",
                "addr:city": "Lipsko",
                "addr:postcode": "27-300",
                "amenity": "pharmacy"
            },
            "geometry": {
                "type": "Point",
                "coordinates": [
                    21.648178687186437,
                    51.15941200844583
                ]
            }
        },
        {
            "type": "Feature",
            "properties": {
                "ref:csioz": 1094921,
                "name": "Codzienna",
                "addr:street": "Jędrzeja Śniadeckiego",
                "addr:housenumber": "5",
                "addr:city": "Lipsko",
                "addr:postcode": "27-300",
                "amenity": "pharmacy"
            },
            "geometry": {
                "type": "Point",
                "coordinates": [
                    21.656677832852203,
                    51.16031403186006
                ]
            }
        },
        {
            "type": "Feature",
            "properties": {
                "ref:csioz": 1094937,
                "name": "Codzienna",
                "addr:street": "Zwoleńska",
                "addr:housenumber": "9",
                "addr:city": "Lipsko",
                "addr:postcode": "27-300",
                "amenity": "pharmacy"
            },
            "geometry": {
                "type": "Point",
                "coordinates": [
                    21.64946835750501,
                    51.16001925227762
                ]
            }
        },
        {
            "type": "Feature",
            "properties": {
                "ref:csioz": 1107259,
                "addr:housenumber": "63",
                "addr:city": "Kałków",
                "addr:postcode": "48-364",
                "amenity": "pharmacy"
            },
            "geometry": {
                "type": "Point",
                "coordinates": [
                    21.555528865005716,
                    51.23470918203335
                ]
            }
        },
        {
            "type": "Feature",
            "properties": {
                "ref:csioz": 1152933,
                "name": "Apteka Szpitalna",
                "addr:street": "Jędrzeja Śniadeckiego",
                "addr:housenumber": "2",
                "addr:city": "Lipsko",
                "addr:postcode": "27-300",
                "amenity": "pharmacy"
            },
            "geometry": {
                "type": "Point",
                "coordinates": [
                    21.657503023072664,
                    51.16028237099524
                ]
            }
        },
        {
            "type": "Feature",
            "properties": {
                "ref:csioz": 1216397,
                "name": "Bliska",
                "addr:street": "1 Maja",
                "addr:housenumber": "21",
                "addr:city": "Lipsko",
                "addr:postcode": "27-300",
                "amenity": "pharmacy"
            },
            "geometry": {
                "type": "Point",
                "coordinates": [
                    21.65270207321391,
                    51.159681849970255
                ]
            }
        },
        {
            "type": "Feature",
            "properties": {
                "ref:csioz": 1094945,
                "addr:housenumber": "4",
                "addr:city": "Rzeczniówek",
                "addr:postcode": "27-353",
                "amenity": "pharmacy"
            },
            "geometry": {
                "type": "Point",
                "coordinates": [
                    21.426485893417592,
                    51.12700762922328
                ]
            }
        },
        {
            "type": "Feature",
            "properties": {
                "ref:csioz": 1154102,
                "name": "Apteka Od Serca",
                "addr:street": "Kościelna",
                "addr:housenumber": "7",
                "addr:city": "Grabowiec",
                "addr:postcode": "22-425",
                "amenity": "pharmacy"
            },
            "geometry": {
                "type": "Point",
                "coordinates": [
                    21.392983025600795,
                    51.100333762328944
                ]
            }
        }
    ]
}