{
    "type": "FeatureCollection",
    "name": "JPT_KOD_JE_2061",
    "crs": {
        "type": "name",
        "properties": {
            "name": "urn:ogc:def:crs:EPSG::4326"
        }
    },
    "features": [
        {
            "type": "Feature",
            "properties": {
                "ref:csioz": 1020040,
                "name": "Apteka Pod Lwem",
                "addr:street": "Antoniukowska",
                "addr:housenumber": "56",
                "addr:city": "Białystok",
                "addr:postcode": "15-845",
                "amenity": "pharmacy"
            },
            "geometry": {
                "type": "Point",
                "coordinates": [
                    23.131796261067937,
                    53.14484292070771
                ]
            }
        },
        {
            "type": "Feature",
            "properties": {
                "ref:csioz": 1016198,
                "name": "Amica",
                "addr:street": "M. Curie-Skłodowskiej",
                "addr:housenumber": "26",
                "addr:city": "Białystok",
                "addr:postcode": "15-278",
                "amenity": "pharmacy"
            },
            "geometry": {
                "type": "Point",
                "coordinates": [
                    23.16263766563928,
                    53.12502476070425
                ]
            }
        },
        {
            "type": "Feature",
            "properties": {
                "ref:csioz": 1016903,
                "name": "Dr. Max",
                "addr:street": "Fabryczna",
                "addr:housenumber": "22",
                "addr:city": "Białystok",
                "addr:postcode": "15-950",
                "amenity": "pharmacy"
            },
            "geometry": {
                "type": "Point",
                "coordinates": [
                    23.1706170989751,
                    53.14112436686123
                ]
            }
        },
        {
            "type": "Feature",
            "properties": {
                "ref:csioz": 1017377,
                "name": "Apteka Na Leszczynowej Nowa Farmacja",
                "addr:street": "Leszczynowa",
                "addr:housenumber": "31",
                "addr:city": "Białystok",
                "addr:postcode": "15-811",
                "amenity": "pharmacy"
            },
            "geometry": {
                "type": "Point",
                "coordinates": [
                    23.126192914378134,
                    53.151802762767105
                ]
            }
        },
        {
            "type": "Feature",
            "properties": {
                "ref:csioz": 1017443,
                "name": "Apteka Gemini",
                "addr:street": "Gajowa",
                "addr:housenumber": "59C",
                "addr:city": "Białystok",
                "addr:postcode": "15-794",
                "amenity": "pharmacy"
            },
            "geometry": {
                "type": "Point",
                "coordinates": [
                    23.12123971619624,
                    53.1534940796268
                ]
            }
        },
        {
            "type": "Feature",
            "properties": {
                "ref:csioz": 1017621,
                "name": "Apteka Na Stromej Nowa Farmacja",
                "addr:street": "Stroma",
                "addr:housenumber": "26",
                "addr:city": "Białystok",
                "addr:postcode": "15-662",
                "amenity": "pharmacy"
            },
            "geometry": {
                "type": "Point",
                "coordinates": [
                    23.10362554328978,
                    53.13034915898888
                ]
            }
        },
        {
            "type": "Feature",
            "properties": {
                "ref:csioz": 1017645,
                "name": "Apteka Od Serca",
                "addr:street": "Dobra",
                "addr:housenumber": "6",
                "addr:city": "Białystok",
                "addr:postcode": "15-034",
                "amenity": "pharmacy"
            },
            "geometry": {
                "type": "Point",
                "coordinates": [
                    23.18332783789356,
                    53.13642929295006
                ]
            }
        },
        {
            "type": "Feature",
            "properties": {
                "ref:csioz": 1017729,
                "name": "Doz Apteka. Dbam O Zdrowie. Na Zagórnej.",
                "addr:street": "Zagórna",
                "addr:housenumber": "2",
                "addr:city": "Białystok",
                "addr:postcode": "15-820",
                "amenity": "pharmacy"
            },
            "geometry": {
                "type": "Point",
                "coordinates": [
                    23.11548647261035,
                    53.14960486825575
                ]
            }
        },
        {
            "type": "Feature",
            "properties": {
                "ref:csioz": 1017741,
                "name": "Apteka Społeczna Na Sienkiewicza Grupa Nowa Farmacja",
                "addr:street": "Sienkiewicza",
                "addr:housenumber": "55A",
                "addr:city": "Białystok",
                "addr:postcode": "15-002",
                "amenity": "pharmacy"
            },
            "geometry": {
                "type": "Point",
                "coordinates": [
                    23.166685576733737,
                    53.13701009189119
                ]
            }
        },
        {
            "type": "Feature",
            "properties": {
                "ref:csioz": 1019199,
                "name": "Apteka Na Mickiewicza Nowa Farmacja",
                "addr:street": "Adama Mickiewicza",
                "addr:housenumber": "14",
                "addr:city": "Białystok",
                "addr:postcode": "15-222",
                "amenity": "pharmacy"
            },
            "geometry": {
                "type": "Point",
                "coordinates": [
                    23.171079457564726,
                    53.125444284996384
                ]
            }
        },
        {
            "type": "Feature",
            "properties": {
                "ref:csioz": 1019259,
                "name": "\"Apteka \"\"Aqua Vitae\"\" Centrum Homeopatii\"",
                "addr:street": "Adama Mickiewicza",
                "addr:housenumber": "39",
                "addr:flats": "U5",
                "addr:city": "Białystok",
                "addr:postcode": "15-213",
                "amenity": "pharmacy"
            },
            "geometry": {
                "type": "Point",
                "coordinates": [
                    23.17386780112161,
                    53.12193929995749
                ]
            }
        },
        {
            "type": "Feature",
            "properties": {
                "ref:csioz": 1019438,
                "name": "Apteka Dbam O Zdrowie",
                "addr:street": "Wasilkowska",
                "addr:housenumber": "1",
                "addr:city": "Białystok",
                "addr:postcode": "15-117",
                "amenity": "pharmacy"
            },
            "geometry": {
                "type": "Point",
                "coordinates": [
                    23.177862364557583,
                    53.143802639914696
                ]
            }
        },
        {
            "type": "Feature",
            "properties": {
                "ref:csioz": 1019607,
                "name": "Apteka Dbam O Zdrowie",
                "addr:street": "Ignacego Jana Paderewskiego",
                "addr:housenumber": "10",
                "addr:city": "Białystok",
                "addr:postcode": "15-348",
                "amenity": "pharmacy"
            },
            "geometry": {
                "type": "Point",
                "coordinates": [
                    23.116329000069243,
                    53.10649400001896
                ]
            }
        },
        {
            "type": "Feature",
            "properties": {
                "ref:csioz": 1019902,
                "name": "Apteka Provita",
                "addr:street": "Zwycięstwa",
                "addr:housenumber": "25A",
                "addr:city": "Białystok",
                "addr:postcode": "15-703",
                "amenity": "pharmacy"
            },
            "geometry": {
                "type": "Point",
                "coordinates": [
                    23.125571576586175,
                    53.136176076707706
                ]
            }
        },
        {
            "type": "Feature",
            "properties": {
                "ref:csioz": 1019944,
                "name": "Apteka Provita",
                "addr:street": "Mieszka I",
                "addr:housenumber": "14",
                "addr:city": "Białystok",
                "addr:postcode": "15-054",
                "amenity": "pharmacy"
            },
            "geometry": {
                "type": "Point",
                "coordinates": [
                    23.19108329801838,
                    53.13351540345373
                ]
            }
        },
        {
            "type": "Feature",
            "properties": {
                "ref:csioz": 1019966,
                "name": "Apteka Provita",
                "addr:street": "Mieszka I",
                "addr:housenumber": "8C",
                "addr:city": "Białystok",
                "addr:postcode": "15-054",
                "amenity": "pharmacy"
            },
            "geometry": {
                "type": "Point",
                "coordinates": [
                    23.188848113708325,
                    53.13302750376173
                ]
            }
        },
        {
            "type": "Feature",
            "properties": {
                "ref:csioz": 1020148,
                "name": "Apteka Na Zielonych Wzgórzach",
                "addr:street": "Storczykowa",
                "addr:housenumber": "7",
                "addr:city": "Białystok",
                "addr:postcode": "15-644",
                "amenity": "pharmacy"
            },
            "geometry": {
                "type": "Point",
                "coordinates": [
                    23.095016195952102,
                    53.12130376615953
                ]
            }
        },
        {
            "type": "Feature",
            "properties": {
                "ref:csioz": 1020161,
                "name": "Remedium",
                "addr:street": "Bohaterów Monte Cassino",
                "addr:housenumber": "5",
                "addr:city": "Białystok",
                "addr:postcode": "15-873",
                "amenity": "pharmacy"
            },
            "geometry": {
                "type": "Point",
                "coordinates": [
                    23.138510558070237,
                    53.13310800415536
                ]
            }
        },
        {
            "type": "Feature",
            "properties": {
                "ref:csioz": 1020305,
                "name": "Apteka Społeczna Na Lipowej 16 Grupa Nowa Farmacja",
                "addr:street": "Lipowa",
                "addr:housenumber": "16",
                "addr:city": "Białystok",
                "addr:postcode": "15-427",
                "amenity": "pharmacy"
            },
            "geometry": {
                "type": "Point",
                "coordinates": [
                    23.152645103506305,
                    53.13356296120732
                ]
            }
        },
        {
            "type": "Feature",
            "properties": {
                "ref:csioz": 1020725,
                "addr:street": "Hetmańska",
                "addr:housenumber": "16",
                "addr:city": "Białystok",
                "addr:postcode": "15-727",
                "amenity": "pharmacy"
            },
            "geometry": {
                "type": "Point",
                "coordinates": [
                    23.11891724730051,
                    53.13436286166006
                ]
            }
        },
        {
            "type": "Feature",
            "properties": {
                "ref:csioz": 1020782,
                "name": "Apteka Rodzinna",
                "addr:street": "Przejazd",
                "addr:housenumber": "2A",
                "addr:flats": "4",
                "addr:city": "Białystok",
                "addr:postcode": "15-430",
                "amenity": "pharmacy"
            },
            "geometry": {
                "type": "Point",
                "coordinates": [
                    23.14901930412823,
                    53.13489255296575
                ]
            }
        },
        {
            "type": "Feature",
            "properties": {
                "ref:csioz": 1020928,
                "name": "Apteka Uczelniana Fundacji Uniwersytetu Medycznego",
                "addr:street": "Jerzego Waszyngtona",
                "addr:housenumber": "15A",
                "addr:city": "Białystok",
                "addr:postcode": "15-269",
                "amenity": "pharmacy"
            },
            "geometry": {
                "type": "Point",
                "coordinates": [
                    23.15755741061996,
                    53.124544804638184
                ]
            }
        },
        {
            "type": "Feature",
            "properties": {
                "ref:csioz": 1020944,
                "name": "Apteka Akademicka Fundacji Uniwersytetu Medycznego",
                "addr:street": "Jerzego Waszyngtona",
                "addr:housenumber": "17",
                "addr:city": "Białystok",
                "addr:postcode": "15-274",
                "amenity": "pharmacy"
            },
            "geometry": {
                "type": "Point",
                "coordinates": [
                    23.155374511385535,
                    53.12380268244718
                ]
            }
        },
        {
            "type": "Feature",
            "properties": {
                "ref:csioz": 1021262,
                "name": "Super-Pharm",
                "addr:street": "Czesława Miłosza",
                "addr:housenumber": "2",
                "addr:city": "Białystok",
                "addr:postcode": "15-265",
                "amenity": "pharmacy"
            },
            "geometry": {
                "type": "Point",
                "coordinates": [
                    23.178585024531433,
                    53.12228808764116
                ]
            }
        },
        {
            "type": "Feature",
            "properties": {
                "ref:csioz": 1021485,
                "name": "Polonia",
                "addr:street": "Warszawska",
                "addr:housenumber": "81",
                "addr:city": "Białystok",
                "addr:postcode": "15-201",
                "amenity": "pharmacy"
            },
            "geometry": {
                "type": "Point",
                "coordinates": [
                    23.181571459284537,
                    53.12762548162172
                ]
            }
        },
        {
            "type": "Feature",
            "properties": {
                "ref:csioz": 1021500,
                "name": "Apteka Na Witosa",
                "addr:street": "Wincentego Witosa",
                "addr:housenumber": "13",
                "addr:city": "Białystok",
                "addr:postcode": "15-660",
                "amenity": "pharmacy"
            },
            "geometry": {
                "type": "Point",
                "coordinates": [
                    23.105822481111574,
                    53.13215177116327
                ]
            }
        },
        {
            "type": "Feature",
            "properties": {
                "ref:csioz": 1021727,
                "name": "Apteka Pod Gryfem",
                "addr:street": "Legionowa",
                "addr:housenumber": "30",
                "addr:city": "Białystok",
                "addr:postcode": "15-281",
                "amenity": "pharmacy"
            },
            "geometry": {
                "type": "Point",
                "coordinates": [
                    23.152815425574286,
                    53.12840622345532
                ]
            }
        },
        {
            "type": "Feature",
            "properties": {
                "ref:csioz": 1021742,
                "name": "Apteka Pod Lwem",
                "addr:street": "Ogrodowa",
                "addr:housenumber": "19",
                "addr:city": "Białystok",
                "addr:postcode": "15-027",
                "amenity": "pharmacy"
            },
            "geometry": {
                "type": "Point",
                "coordinates": [
                    23.169436051564222,
                    53.13596835196716
                ]
            }
        },
        {
            "type": "Feature",
            "properties": {
                "ref:csioz": 1022122,
                "name": "Św. Kosmy I Damiana",
                "addr:street": "Władysława Raginisa",
                "addr:housenumber": "87",
                "addr:flats": "1",
                "addr:city": "Białystok",
                "addr:postcode": "15-157",
                "amenity": "pharmacy"
            },
            "geometry": {
                "type": "Point",
                "coordinates": [
                    23.2002264134629,
                    53.162345526799164
                ]
            }
        },
        {
            "type": "Feature",
            "properties": {
                "ref:csioz": 1022225,
                "name": "Centrum",
                "addr:street": "Komisji Edukacji Narodowej",
                "addr:housenumber": "50",
                "addr:city": "Białystok",
                "addr:postcode": "15-687",
                "amenity": "pharmacy"
            },
            "geometry": {
                "type": "Point",
                "coordinates": [
                    23.08432839265474,
                    53.15060728200437
                ]
            }
        },
        {
            "type": "Feature",
            "properties": {
                "ref:csioz": 1022249,
                "name": "Apteka Od Serca",
                "addr:street": "Sienkiewicza",
                "addr:housenumber": "49",
                "addr:city": "Białystok",
                "addr:postcode": "15-002",
                "amenity": "pharmacy"
            },
            "geometry": {
                "type": "Point",
                "coordinates": [
                    23.16497501929909,
                    53.136267140058116
                ]
            }
        },
        {
            "type": "Feature",
            "properties": {
                "ref:csioz": 1022447,
                "name": "\"Apteka Cef@Rm 36,6\"",
                "addr:street": "Słonimska",
                "addr:housenumber": "5",
                "addr:city": "Białystok",
                "addr:postcode": "15-028",
                "amenity": "pharmacy"
            },
            "geometry": {
                "type": "Point",
                "coordinates": [
                    23.174126797038912,
                    53.1342539863444
                ]
            }
        },
        {
            "type": "Feature",
            "properties": {
                "ref:csioz": 1023202,
                "name": "Fikus",
                "addr:street": "Adama Mickiewicza",
                "addr:housenumber": "15",
                "addr:city": "Białystok",
                "addr:postcode": "15-213",
                "amenity": "pharmacy"
            },
            "geometry": {
                "type": "Point",
                "coordinates": [
                    23.171601301498757,
                    53.12570852801515
                ]
            }
        },
        {
            "type": "Feature",
            "properties": {
                "ref:csioz": 1023244,
                "name": "Astra",
                "addr:street": "Mikołaja Kopernika",
                "addr:housenumber": "3A",
                "addr:city": "Białystok",
                "addr:postcode": "15-377",
                "amenity": "pharmacy"
            },
            "geometry": {
                "type": "Point",
                "coordinates": [
                    23.14398303223297,
                    53.120502407530374
                ]
            }
        },
        {
            "type": "Feature",
            "properties": {
                "ref:csioz": 1023527,
                "name": "Bellis",
                "addr:street": "Wysoki Stoczek",
                "addr:housenumber": "54",
                "addr:city": "Białystok",
                "addr:postcode": "15-745",
                "amenity": "pharmacy"
            },
            "geometry": {
                "type": "Point",
                "coordinates": [
                    23.106472678654455,
                    53.14336917074844
                ]
            }
        },
        {
            "type": "Feature",
            "properties": {
                "ref:csioz": 1023738,
                "name": "Na Transportowej",
                "addr:street": "Transportowa",
                "addr:housenumber": "4",
                "addr:city": "Białystok",
                "addr:postcode": "15-399",
                "amenity": "pharmacy"
            },
            "geometry": {
                "type": "Point",
                "coordinates": [
                    23.1238610009352,
                    53.112969279524044
                ]
            }
        },
        {
            "type": "Feature",
            "properties": {
                "ref:csioz": 1023818,
                "name": "Viola",
                "addr:street": "Żelazna",
                "addr:housenumber": "9",
                "addr:flats": "14",
                "addr:city": "Białystok",
                "addr:postcode": "15-297",
                "amenity": "pharmacy"
            },
            "geometry": {
                "type": "Point",
                "coordinates": [
                    23.152459403015833,
                    53.12544377078985
                ]
            }
        },
        {
            "type": "Feature",
            "properties": {
                "ref:csioz": 1023894,
                "addr:street": "Żelazna",
                "addr:housenumber": "9",
                "addr:city": "Białystok",
                "addr:postcode": "15-297",
                "amenity": "pharmacy"
            },
            "geometry": {
                "type": "Point",
                "coordinates": [
                    23.152459403015833,
                    53.12544377078985
                ]
            }
        },
        {
            "type": "Feature",
            "properties": {
                "ref:csioz": 1023996,
                "name": "\"Apteka Cef@Rm 36,6\"",
                "addr:street": "Pogodna",
                "addr:housenumber": "11C",
                "addr:city": "Białystok",
                "addr:postcode": "15-354",
                "amenity": "pharmacy"
            },
            "geometry": {
                "type": "Point",
                "coordinates": [
                    23.142940297011883,
                    53.113730849663256
                ]
            }
        },
        {
            "type": "Feature",
            "properties": {
                "ref:csioz": 1024052,
                "name": "Lobelia",
                "addr:street": "Bohaterów Getta",
                "addr:housenumber": "3",
                "addr:city": "Białystok",
                "addr:postcode": "15-450",
                "amenity": "pharmacy"
            },
            "geometry": {
                "type": "Point",
                "coordinates": [
                    23.15182372070127,
                    53.13686274274098
                ]
            }
        },
        {
            "type": "Feature",
            "properties": {
                "ref:csioz": 1024071,
                "name": "Apteka Gemini",
                "addr:street": "Stanisława Dubois",
                "addr:housenumber": "3",
                "addr:flats": "7",
                "addr:city": "Białystok",
                "addr:postcode": "15-349",
                "amenity": "pharmacy"
            },
            "geometry": {
                "type": "Point",
                "coordinates": [
                    23.124304376101932,
                    53.108532147372976
                ]
            }
        },
        {
            "type": "Feature",
            "properties": {
                "ref:csioz": 1024236,
                "name": "Galena",
                "addr:street": "Kardynała Stefana Wyszyńskiego",
                "addr:housenumber": "2",
                "addr:flats": "82",
                "addr:city": "Białystok",
                "addr:postcode": "15-888",
                "amenity": "pharmacy"
            },
            "geometry": {
                "type": "Point",
                "coordinates": [
                    23.1394793647502,
                    53.130897473766424
                ]
            }
        },
        {
            "type": "Feature",
            "properties": {
                "ref:csioz": 1024421,
                "name": "Pod Jodłą",
                "addr:street": "św. Andrzeja Boboli",
                "addr:housenumber": "67",
                "addr:city": "Białystok",
                "addr:postcode": "15-649",
                "amenity": "pharmacy"
            },
            "geometry": {
                "type": "Point",
                "coordinates": [
                    23.084447840589284,
                    53.13009117575817
                ]
            }
        },
        {
            "type": "Feature",
            "properties": {
                "ref:csioz": 1024603,
                "name": "Aqua Vitae",
                "addr:street": "Legionowa",
                "addr:housenumber": "9",
                "addr:flats": "1",
                "addr:city": "Białystok",
                "addr:postcode": "15-281",
                "amenity": "pharmacy"
            },
            "geometry": {
                "type": "Point",
                "coordinates": [
                    23.154358170062626,
                    53.12801279330008
                ]
            }
        },
        {
            "type": "Feature",
            "properties": {
                "ref:csioz": 1024642,
                "addr:street": "M. Curie-Skłodowskiej",
                "addr:housenumber": "14",
                "addr:city": "Białystok",
                "addr:postcode": "15-097",
                "amenity": "pharmacy"
            },
            "geometry": {
                "type": "Point",
                "coordinates": [
                    23.15873170835314,
                    53.128045932246735
                ]
            }
        },
        {
            "type": "Feature",
            "properties": {
                "ref:csioz": 1025477,
                "addr:street": "Fabryczna",
                "addr:housenumber": "39",
                "addr:city": "Białystok",
                "addr:postcode": "15-482",
                "amenity": "pharmacy"
            },
            "geometry": {
                "type": "Point",
                "coordinates": [
                    23.168105798095716,
                    53.14005973302227
                ]
            }
        },
        {
            "type": "Feature",
            "properties": {
                "ref:csioz": 1025523,
                "addr:street": "Parkowa",
                "addr:housenumber": "6",
                "addr:city": "Białystok",
                "addr:postcode": "15-224",
                "amenity": "pharmacy"
            },
            "geometry": {
                "type": "Point",
                "coordinates": [
                    23.169610218774142,
                    53.124393308607814
                ]
            }
        },
        {
            "type": "Feature",
            "properties": {
                "ref:csioz": 1025546,
                "addr:street": "św. Rocha",
                "addr:housenumber": "12A",
                "addr:city": "Białystok",
                "addr:postcode": "15-879",
                "amenity": "pharmacy"
            },
            "geometry": {
                "type": "Point",
                "coordinates": [
                    23.14117488637486,
                    53.13421274285365
                ]
            }
        },
        {
            "type": "Feature",
            "properties": {
                "ref:csioz": 1025567,
                "addr:street": "Sienkiewicza",
                "addr:housenumber": "79",
                "addr:city": "Białystok",
                "addr:postcode": "15-003",
                "amenity": "pharmacy"
            },
            "geometry": {
                "type": "Point",
                "coordinates": [
                    23.17144639245891,
                    53.14037194182819
                ]
            }
        },
        {
            "type": "Feature",
            "properties": {
                "ref:csioz": 1110834,
                "name": "Apteka Rodzinna",
                "addr:street": "Antoniukowska",
                "addr:housenumber": "56",
                "addr:flats": "16 i 17",
                "addr:city": "Białystok",
                "addr:postcode": "15-845",
                "amenity": "pharmacy"
            },
            "geometry": {
                "type": "Point",
                "coordinates": [
                    23.131796261067937,
                    53.14484292070771
                ]
            }
        },
        {
            "type": "Feature",
            "properties": {
                "ref:csioz": 1111208,
                "addr:street": "Bolesława Chrobrego",
                "addr:housenumber": "16A",
                "addr:flats": "2",
                "addr:city": "Białystok",
                "addr:postcode": "15-057",
                "amenity": "pharmacy"
            },
            "geometry": {
                "type": "Point",
                "coordinates": [
                    23.186589565764205,
                    53.13021906734864
                ]
            }
        },
        {
            "type": "Feature",
            "properties": {
                "ref:csioz": 1113441,
                "name": "Apteka Aqua Vitae Na Stołecznej",
                "addr:street": "Stołeczna",
                "addr:housenumber": "7",
                "addr:flats": "5/1",
                "addr:city": "Białystok",
                "addr:postcode": "15-879",
                "amenity": "pharmacy"
            },
            "geometry": {
                "type": "Point",
                "coordinates": [
                    23.145227740713864,
                    53.13244081017579
                ]
            }
        },
        {
            "type": "Feature",
            "properties": {
                "ref:csioz": 1113949,
                "addr:street": "Ludwika Zamenhofa",
                "addr:housenumber": "19",
                "addr:city": "Białystok",
                "addr:postcode": "15-435",
                "amenity": "pharmacy"
            },
            "geometry": {
                "type": "Point",
                "coordinates": [
                    23.1598562419684,
                    53.13428400956405
                ]
            }
        },
        {
            "type": "Feature",
            "properties": {
                "ref:csioz": 1114870,
                "name": "Apteka Na Suraskiej",
                "addr:street": "Suraska",
                "addr:housenumber": "4",
                "addr:flats": "20",
                "addr:city": "Białystok",
                "addr:postcode": "15-422",
                "amenity": "pharmacy"
            },
            "geometry": {
                "type": "Point",
                "coordinates": [
                    23.156624555059583,
                    53.13151378228229
                ]
            }
        },
        {
            "type": "Feature",
            "properties": {
                "ref:csioz": 1115368,
                "name": "Pogodna Apteka",
                "addr:street": "Pogodna",
                "addr:housenumber": "11A",
                "addr:flats": "2",
                "addr:city": "Białystok",
                "addr:postcode": "15-354",
                "amenity": "pharmacy"
            },
            "geometry": {
                "type": "Point",
                "coordinates": [
                    23.143051937926348,
                    53.114463435462625
                ]
            }
        },
        {
            "type": "Feature",
            "properties": {
                "ref:csioz": 1119076,
                "name": "Apteka Uniwersytecka Fundacji Uniwersytetu Medycznego",
                "addr:street": "Żurawia",
                "addr:housenumber": "14",
                "addr:city": "Białystok",
                "addr:postcode": "15-540",
                "amenity": "pharmacy"
            },
            "geometry": {
                "type": "Point",
                "coordinates": [
                    23.19122781986752,
                    53.10874753981935
                ]
            }
        },
        {
            "type": "Feature",
            "properties": {
                "ref:csioz": 1138656,
                "addr:street": "Fabryczna",
                "addr:housenumber": "27",
                "addr:city": "Białystok",
                "addr:postcode": "15-471",
                "amenity": "pharmacy"
            },
            "geometry": {
                "type": "Point",
                "coordinates": [
                    23.166232109571897,
                    53.139012813012585
                ]
            }
        },
        {
            "type": "Feature",
            "properties": {
                "ref:csioz": 1138662,
                "addr:street": "M. Curie-Skłodowskiej",
                "addr:housenumber": "25",
                "addr:city": "Białystok",
                "addr:postcode": "15-950",
                "amenity": "pharmacy"
            },
            "geometry": {
                "type": "Point",
                "coordinates": [
                    23.163312721907687,
                    53.12534358804143
                ]
            }
        },
        {
            "type": "Feature",
            "properties": {
                "ref:csioz": 1175020,
                "name": "\"'Provita'\"",
                "addr:street": "Jana Sobieskiego",
                "addr:housenumber": "13",
                "addr:flats": "lok. 7",
                "addr:city": "Białystok",
                "addr:postcode": "15-013",
                "amenity": "pharmacy"
            },
            "geometry": {
                "type": "Point",
                "coordinates": [
                    23.174892520366917,
                    53.139227165880186
                ]
            }
        },
        {
            "type": "Feature",
            "properties": {
                "ref:csioz": 1181241,
                "name": "Apteka Rodzinna Przejazd",
                "addr:street": "Bolesława Chrobrego",
                "addr:housenumber": "10A",
                "addr:city": "Białystok",
                "addr:postcode": "15-057",
                "amenity": "pharmacy"
            },
            "geometry": {
                "type": "Point",
                "coordinates": [
                    23.184066352367037,
                    53.13047436702074
                ]
            }
        },
        {
            "type": "Feature",
            "properties": {
                "ref:csioz": 1204802,
                "name": "Nowy Świat",
                "addr:street": "Nowy Świat",
                "addr:housenumber": "17",
                "addr:flats": "1",
                "addr:city": "Białystok",
                "addr:postcode": "15-453",
                "amenity": "pharmacy"
            },
            "geometry": {
                "type": "Point",
                "coordinates": [
                    23.156572095828245,
                    53.13570332103198
                ]
            }
        },
        {
            "type": "Feature",
            "properties": {
                "ref:csioz": 1207018,
                "name": "Apteka Bliska",
                "addr:street": "Al. 1000-lecia Państwa Polskiego",
                "addr:housenumber": "10",
                "addr:flats": "4a i 5a",
                "addr:city": "Białystok",
                "addr:postcode": "15-111",
                "amenity": "pharmacy"
            },
            "geometry": {
                "type": "Point",
                "coordinates": [
                    23.155036413846886,
                    53.151395856103804
                ]
            }
        },
        {
            "type": "Feature",
            "properties": {
                "ref:csioz": 1220785,
                "name": "Apteka Socjalna Piasta 16",
                "addr:street": "Piasta",
                "addr:housenumber": "16",
                "addr:city": "Białystok",
                "addr:postcode": "15-044",
                "amenity": "pharmacy"
            },
            "geometry": {
                "type": "Point",
                "coordinates": [
                    23.179077402743456,
                    53.13447118662452
                ]
            }
        },
        {
            "type": "Feature",
            "properties": {
                "ref:csioz": 1019339,
                "name": "Apteka Na Zwierzynieckiej Nowa Farmacja",
                "addr:street": "Zwierzyniecka",
                "addr:housenumber": "11A",
                "addr:city": "Białystok",
                "addr:postcode": "15-312",
                "amenity": "pharmacy"
            },
            "geometry": {
                "type": "Point",
                "coordinates": [
                    23.150507564637753,
                    53.12034226827726
                ]
            }
        },
        {
            "type": "Feature",
            "properties": {
                "ref:csioz": 1019472,
                "name": "Apteka Dbam O Zdrowie",
                "addr:street": "Pałacowa",
                "addr:housenumber": "4",
                "addr:flats": "2L",
                "addr:city": "Białystok",
                "addr:postcode": "15-064",
                "amenity": "pharmacy"
            },
            "geometry": {
                "type": "Point",
                "coordinates": [
                    23.16952271492684,
                    53.13282266321071
                ]
            }
        },
        {
            "type": "Feature",
            "properties": {
                "ref:csioz": 1019641,
                "name": "Apteka Dbam O Zdrowie",
                "addr:street": "gen. Józefa Bema",
                "addr:housenumber": "92",
                "addr:city": "Białystok",
                "addr:postcode": "15-370",
                "amenity": "pharmacy"
            },
            "geometry": {
                "type": "Point",
                "coordinates": [
                    23.139554410374654,
                    53.12192721491008
                ]
            }
        },
        {
            "type": "Feature",
            "properties": {
                "ref:csioz": 1019664,
                "name": "Apteka Dbam O Zdrowie",
                "addr:street": "Kolejowa",
                "addr:housenumber": "16",
                "addr:city": "Białystok",
                "addr:postcode": "15-701",
                "amenity": "pharmacy"
            },
            "geometry": {
                "type": "Point",
                "coordinates": [
                    23.135489450995745,
                    53.13520155552116
                ]
            }
        },
        {
            "type": "Feature",
            "properties": {
                "ref:csioz": 1019763,
                "name": "Apteka Provita",
                "addr:street": "Komisji Edukacji Narodowej",
                "addr:housenumber": "5",
                "addr:flats": "\"lok. 4,5\"",
                "addr:city": "Białystok",
                "addr:postcode": "15-687",
                "amenity": "pharmacy"
            },
            "geometry": {
                "type": "Point",
                "coordinates": [
                    23.085432956885732,
                    53.150163562408174
                ]
            }
        },
        {
            "type": "Feature",
            "properties": {
                "ref:csioz": 1019782,
                "name": "\"Apteka 'Pałacowa' Joanna Żeszczyńska\"",
                "addr:street": "Pałacowa",
                "addr:housenumber": "4",
                "addr:city": "Białystok",
                "addr:postcode": "15-042",
                "amenity": "pharmacy"
            },
            "geometry": {
                "type": "Point",
                "coordinates": [
                    23.16952271492684,
                    53.13282266321071
                ]
            }
        },
        {
            "type": "Feature",
            "properties": {
                "ref:csioz": 1019803,
                "name": "Apteka Provita",
                "addr:street": "Hugo Kołłątaja",
                "addr:housenumber": "67",
                "addr:flats": "lok. 88",
                "addr:city": "Białystok",
                "addr:postcode": "15-774",
                "amenity": "pharmacy"
            },
            "geometry": {
                "type": "Point",
                "coordinates": [
                    23.087793369356838,
                    53.153186880478955
                ]
            }
        },
        {
            "type": "Feature",
            "properties": {
                "ref:csioz": 1019827,
                "addr:street": "Swobodna",
                "addr:housenumber": "27",
                "addr:city": "Białystok",
                "addr:postcode": "15-756",
                "amenity": "pharmacy"
            },
            "geometry": {
                "type": "Point",
                "coordinates": [
                    23.10936597638494,
                    53.14773820741703
                ]
            }
        },
        {
            "type": "Feature",
            "properties": {
                "ref:csioz": 1019869,
                "name": "Twoja Apteka Izyda",
                "addr:street": "Armii Krajowej",
                "addr:housenumber": "1C",
                "addr:city": "Białystok",
                "addr:postcode": "15-661",
                "amenity": "pharmacy"
            },
            "geometry": {
                "type": "Point",
                "coordinates": [
                    23.096950660225005,
                    53.12766419771618
                ]
            }
        },
        {
            "type": "Feature",
            "properties": {
                "ref:csioz": 1020842,
                "name": "Apteka Przy Młynowej",
                "addr:street": "Młynowa",
                "addr:housenumber": "17",
                "addr:city": "Białystok",
                "addr:postcode": "15-404",
                "amenity": "pharmacy"
            },
            "geometry": {
                "type": "Point",
                "coordinates": [
                    23.148584072504367,
                    53.12754999212554
                ]
            }
        },
        {
            "type": "Feature",
            "properties": {
                "ref:csioz": 1021160,
                "addr:street": "Stanisława Dubois",
                "addr:housenumber": "7",
                "addr:city": "Białystok",
                "addr:postcode": "15-349",
                "amenity": "pharmacy"
            },
            "geometry": {
                "type": "Point",
                "coordinates": [
                    23.12587846048526,
                    53.10601864610489
                ]
            }
        },
        {
            "type": "Feature",
            "properties": {
                "ref:csioz": 1021208,
                "addr:street": "Słonimska",
                "addr:housenumber": "15",
                "addr:flats": "1",
                "addr:city": "Białystok",
                "addr:postcode": "15-028",
                "amenity": "pharmacy"
            },
            "geometry": {
                "type": "Point",
                "coordinates": [
                    23.175076401641782,
                    53.13447310207168
                ]
            }
        },
        {
            "type": "Feature",
            "properties": {
                "ref:csioz": 1021306,
                "addr:street": "ks. Stanisława Andrukiewicza",
                "addr:housenumber": "4",
                "addr:flats": "2U",
                "addr:city": "Białystok",
                "addr:postcode": "15-204",
                "amenity": "pharmacy"
            },
            "geometry": {
                "type": "Point",
                "coordinates": [
                    23.198454441039075,
                    53.13344438050972
                ]
            }
        },
        {
            "type": "Feature",
            "properties": {
                "ref:csioz": 1021420,
                "name": "\"Apteka Cef@Rm 36,6\"",
                "addr:street": "Szarych Szeregów",
                "addr:housenumber": "6",
                "addr:city": "Białystok",
                "addr:postcode": "15-666",
                "amenity": "pharmacy"
            },
            "geometry": {
                "type": "Point",
                "coordinates": [
                    23.09029133570455,
                    53.130195995524474
                ]
            }
        },
        {
            "type": "Feature",
            "properties": {
                "ref:csioz": 1021964,
                "name": "Apteka Nowa Farmacja Na Antoniukowskiej",
                "addr:street": "Antoniukowska",
                "addr:housenumber": "11A",
                "addr:city": "Białystok",
                "addr:postcode": "15-740",
                "amenity": "pharmacy"
            },
            "geometry": {
                "type": "Point",
                "coordinates": [
                    23.13649882821112,
                    53.14018152576792
                ]
            }
        },
        {
            "type": "Feature",
            "properties": {
                "ref:csioz": 1021769,
                "name": "\"Apteka \"\"Feniks\"\"\"",
                "addr:street": "Edukacyjna",
                "addr:housenumber": "1A",
                "addr:city": "Białystok",
                "addr:postcode": "15-579",
                "amenity": "pharmacy"
            },
            "geometry": {
                "type": "Point",
                "coordinates": [
                    23.209546352045326,
                    53.096126854827304
                ]
            }
        },
        {
            "type": "Feature",
            "properties": {
                "ref:csioz": 1022309,
                "name": "\"Apteka Cef@Rm 36,6\"",
                "addr:street": "Sienkiewicza",
                "addr:housenumber": "71/73",
                "addr:city": "Białystok",
                "addr:postcode": "15-950",
                "amenity": "pharmacy"
            },
            "geometry": {
                "type": "Point",
                "coordinates": [
                    23.170989826207627,
                    53.139556827470045
                ]
            }
        },
        {
            "type": "Feature",
            "properties": {
                "ref:csioz": 1022346,
                "name": "\"Apteka Cef@Rm 36,6\"",
                "addr:street": "Wesoła",
                "addr:housenumber": "18",
                "addr:city": "Białystok",
                "addr:postcode": "15-306",
                "amenity": "pharmacy"
            },
            "geometry": {
                "type": "Point",
                "coordinates": [
                    23.153015640448405,
                    53.12215952792225
                ]
            }
        },
        {
            "type": "Feature",
            "properties": {
                "ref:csioz": 1022367,
                "name": "\"Apteka Cef@Rm 36,6\"",
                "addr:street": "Suraska",
                "addr:housenumber": "2",
                "addr:city": "Białystok",
                "addr:postcode": "15-422",
                "amenity": "pharmacy"
            },
            "geometry": {
                "type": "Point",
                "coordinates": [
                    23.15720101758411,
                    53.13178845063518
                ]
            }
        },
        {
            "type": "Feature",
            "properties": {
                "ref:csioz": 1022380,
                "name": "\"Apteka Cef@Rm 36,6\"",
                "addr:street": "Icchoka Malmeda",
                "addr:housenumber": "12",
                "addr:city": "Białystok",
                "addr:postcode": "15-440",
                "amenity": "pharmacy"
            },
            "geometry": {
                "type": "Point",
                "coordinates": [
                    23.159465393966688,
                    53.13506200676028
                ]
            }
        },
        {
            "type": "Feature",
            "properties": {
                "ref:csioz": 1022426,
                "name": "\"Apteka Cef@Rm 36,6\"",
                "addr:street": "Adama Mickiewicza",
                "addr:housenumber": "38",
                "addr:city": "Białystok",
                "addr:postcode": "15-213",
                "amenity": "pharmacy"
            },
            "geometry": {
                "type": "Point",
                "coordinates": [
                    23.172038741587613,
                    53.12391281339412
                ]
            }
        },
        {
            "type": "Feature",
            "properties": {
                "ref:csioz": 1022460,
                "name": "\"Apteka Cef@Rm 36,6\"",
                "addr:street": "Warszawska",
                "addr:housenumber": "79",
                "addr:city": "Białystok",
                "addr:postcode": "15-201",
                "amenity": "pharmacy"
            },
            "geometry": {
                "type": "Point",
                "coordinates": [
                    23.180628485731425,
                    53.12805367719525
                ]
            }
        },
        {
            "type": "Feature",
            "properties": {
                "ref:csioz": 1022483,
                "name": "\"Apteka Cef@Rm 36,6\"",
                "addr:street": "Siewna",
                "addr:housenumber": "2",
                "addr:city": "Białystok",
                "addr:postcode": "15-183",
                "amenity": "pharmacy"
            },
            "geometry": {
                "type": "Point",
                "coordinates": [
                    23.191588417449637,
                    53.14461643256835
                ]
            }
        },
        {
            "type": "Feature",
            "properties": {
                "ref:csioz": 1022507,
                "name": "\"Apteka Cef@Rm 36,6\"",
                "addr:street": "Władysława Broniewskiego",
                "addr:housenumber": "4",
                "addr:city": "Białystok",
                "addr:postcode": "15-748",
                "amenity": "pharmacy"
            },
            "geometry": {
                "type": "Point",
                "coordinates": [
                    23.13369203684245,
                    53.14071543304216
                ]
            }
        },
        {
            "type": "Feature",
            "properties": {
                "ref:csioz": 1022529,
                "name": "\"Apteka Cef@Rm 36,6\"",
                "addr:street": "Radzymińska",
                "addr:housenumber": "16",
                "addr:city": "Białystok",
                "addr:postcode": "15-863",
                "amenity": "pharmacy"
            },
            "geometry": {
                "type": "Point",
                "coordinates": [
                    23.15032020443255,
                    53.14499755751181
                ]
            }
        },
        {
            "type": "Feature",
            "properties": {
                "ref:csioz": 1022541,
                "name": "\"Apteka Cef@Rm 36,6\"",
                "addr:street": "Generała Józefa Hallera",
                "addr:housenumber": "8",
                "addr:city": "Białystok",
                "addr:postcode": "15-814",
                "amenity": "pharmacy"
            },
            "geometry": {
                "type": "Point",
                "coordinates": [
                    23.1236793782698,
                    53.150658095220564
                ]
            }
        },
        {
            "type": "Feature",
            "properties": {
                "ref:csioz": 1023266,
                "name": "Na Nowosielskiej",
                "addr:street": "Nowosielska",
                "addr:housenumber": "34",
                "addr:city": "Białystok",
                "addr:postcode": "15-617",
                "amenity": "pharmacy"
            },
            "geometry": {
                "type": "Point",
                "coordinates": [
                    23.078291175980667,
                    53.1265311512053
                ]
            }
        },
        {
            "type": "Feature",
            "properties": {
                "ref:csioz": 1023336,
                "name": "Aqua Vitae",
                "addr:street": "Sienkiewicza",
                "addr:housenumber": "22",
                "addr:city": "Białystok",
                "addr:postcode": "15-092",
                "amenity": "pharmacy"
            },
            "geometry": {
                "type": "Point",
                "coordinates": [
                    23.162506084895444,
                    53.13415206176212
                ]
            }
        },
        {
            "type": "Feature",
            "properties": {
                "ref:csioz": 1023373,
                "name": "Nowy Świat",
                "addr:street": "Nowy Świat",
                "addr:housenumber": "6",
                "addr:city": "Białystok",
                "addr:postcode": "15-453",
                "amenity": "pharmacy"
            },
            "geometry": {
                "type": "Point",
                "coordinates": [
                    23.15449619091894,
                    53.134217762576306
                ]
            }
        },
        {
            "type": "Feature",
            "properties": {
                "ref:csioz": 1024110,
                "addr:street": "Produkcyjna",
                "addr:housenumber": "84",
                "addr:city": "Białystok",
                "addr:postcode": "15-680",
                "amenity": "pharmacy"
            },
            "geometry": {
                "type": "Point",
                "coordinates": [
                    23.098266897514232,
                    53.16078950305383
                ]
            }
        },
        {
            "type": "Feature",
            "properties": {
                "ref:csioz": 1024132,
                "addr:street": "Niedźwiedzia",
                "addr:housenumber": "69",
                "addr:city": "Białystok",
                "addr:postcode": "15-531",
                "amenity": "pharmacy"
            },
            "geometry": {
                "type": "Point",
                "coordinates": [
                    23.200934428803755,
                    53.11244664253082
                ]
            }
        },
        {
            "type": "Feature",
            "properties": {
                "ref:csioz": 1024257,
                "addr:street": "Kazimierza Pułaskiego",
                "addr:housenumber": "69",
                "addr:city": "Białystok",
                "addr:postcode": "15-337",
                "amenity": "pharmacy"
            },
            "geometry": {
                "type": "Point",
                "coordinates": [
                    23.12411354037101,
                    53.10915585534924
                ]
            }
        },
        {
            "type": "Feature",
            "properties": {
                "ref:csioz": 1024273,
                "name": "Primula",
                "addr:street": "Nowosielska",
                "addr:housenumber": "50",
                "addr:city": "Białystok",
                "addr:postcode": "15-617",
                "amenity": "pharmacy"
            },
            "geometry": {
                "type": "Point",
                "coordinates": [
                    23.0772783909378,
                    53.128322974870294
                ]
            }
        },
        {
            "type": "Feature",
            "properties": {
                "ref:csioz": 1024299,
                "name": "Sanitas",
                "addr:street": "Sienkiewicza",
                "addr:housenumber": "79A",
                "addr:flats": "1",
                "addr:city": "Białystok",
                "addr:postcode": "15-003",
                "amenity": "pharmacy"
            },
            "geometry": {
                "type": "Point",
                "coordinates": [
                    23.171855297066923,
                    53.140068343920134
                ]
            }
        },
        {
            "type": "Feature",
            "properties": {
                "ref:csioz": 1024766,
                "addr:street": "Upalna",
                "addr:housenumber": "88",
                "addr:city": "Białystok",
                "addr:postcode": "15-668",
                "amenity": "pharmacy"
            },
            "geometry": {
                "type": "Point",
                "coordinates": [
                    23.100421405175787,
                    53.12772686633324
                ]
            }
        },
        {
            "type": "Feature",
            "properties": {
                "ref:csioz": 1025625,
                "addr:street": "Węglowa",
                "addr:housenumber": "6",
                "addr:city": "Białystok",
                "addr:postcode": "15-121",
                "amenity": "pharmacy"
            },
            "geometry": {
                "type": "Point",
                "coordinates": [
                    23.17333908024138,
                    53.14532726050817
                ]
            }
        },
        {
            "type": "Feature",
            "properties": {
                "ref:csioz": 1116205,
                "name": "Apteka „Malwa”",
                "addr:street": "Pogodna",
                "addr:housenumber": "11D",
                "addr:flats": "1U",
                "addr:city": "Białystok",
                "addr:postcode": "15-354",
                "amenity": "pharmacy"
            },
            "geometry": {
                "type": "Point",
                "coordinates": [
                    23.14266853351246,
                    53.1136674246284
                ]
            }
        },
        {
            "type": "Feature",
            "properties": {
                "ref:csioz": 1117829,
                "name": "Apteka Społeczna Na Lipowej 37 Grupa Nowa Farmacja",
                "addr:street": "Lipowa",
                "addr:housenumber": "37",
                "addr:city": "Białystok",
                "addr:postcode": "15-424",
                "amenity": "pharmacy"
            },
            "geometry": {
                "type": "Point",
                "coordinates": [
                    23.14945818258161,
                    53.13375762593809
                ]
            }
        },
        {
            "type": "Feature",
            "properties": {
                "ref:csioz": 1117832,
                "name": "Hebeapteka",
                "addr:street": "Ryska",
                "addr:housenumber": "1",
                "addr:city": "Białystok",
                "addr:postcode": "15-008",
                "amenity": "pharmacy"
            },
            "geometry": {
                "type": "Point",
                "coordinates": [
                    23.174709529827446,
                    53.14034571516786
                ]
            }
        },
        {
            "type": "Feature",
            "properties": {
                "ref:csioz": 1175116,
                "name": "Bliska 24H",
                "addr:street": "Antoniukowska",
                "addr:housenumber": "22",
                "addr:flats": "1",
                "addr:city": "Białystok",
                "addr:postcode": "15-845",
                "amenity": "pharmacy"
            },
            "geometry": {
                "type": "Point",
                "coordinates": [
                    23.137332000070508,
                    53.1412240000191
                ]
            }
        },
        {
            "type": "Feature",
            "properties": {
                "ref:csioz": 1176077,
                "addr:street": "Piasta",
                "addr:housenumber": "9A",
                "addr:city": "Białystok",
                "addr:postcode": "15-044",
                "amenity": "pharmacy"
            },
            "geometry": {
                "type": "Point",
                "coordinates": [
                    23.180040689507372,
                    53.13470311714911
                ]
            }
        },
        {
            "type": "Feature",
            "properties": {
                "ref:csioz": 1180792,
                "addr:street": "Jana Sobieskiego",
                "addr:housenumber": "1",
                "addr:city": "Białystok",
                "addr:postcode": "15-013",
                "amenity": "pharmacy"
            },
            "geometry": {
                "type": "Point",
                "coordinates": [
                    23.1707609735615,
                    53.13730121981118
                ]
            }
        },
        {
            "type": "Feature",
            "properties": {
                "ref:csioz": 1180807,
                "addr:street": "Jerzego Waszyngtona",
                "addr:housenumber": "15A",
                "addr:city": "Białystok",
                "addr:postcode": "15-276",
                "amenity": "pharmacy"
            },
            "geometry": {
                "type": "Point",
                "coordinates": [
                    23.15755741061996,
                    53.124544804638184
                ]
            }
        },
        {
            "type": "Feature",
            "properties": {
                "ref:csioz": 1180810,
                "addr:street": "Jerzego Waszyngtona",
                "addr:housenumber": "17",
                "addr:city": "Białystok",
                "addr:postcode": "15-274",
                "amenity": "pharmacy"
            },
            "geometry": {
                "type": "Point",
                "coordinates": [
                    23.155374511385535,
                    53.12380268244718
                ]
            }
        },
        {
            "type": "Feature",
            "properties": {
                "ref:csioz": 1180908,
                "addr:street": "Choroszczańska",
                "addr:housenumber": "24",
                "addr:city": "Białystok",
                "addr:postcode": "15-732",
                "amenity": "pharmacy"
            },
            "geometry": {
                "type": "Point",
                "coordinates": [
                    23.133095713960508,
                    53.13770983786913
                ]
            }
        },
        {
            "type": "Feature",
            "properties": {
                "ref:csioz": 1181264,
                "name": "Apteka Pod Lwem",
                "addr:street": "Aleja Józefa Piłsudskiego",
                "addr:housenumber": "8",
                "addr:flats": "1",
                "addr:city": "Białystok",
                "addr:postcode": "15-445",
                "amenity": "pharmacy"
            },
            "geometry": {
                "type": "Point",
                "coordinates": [
                    23.149884044881123,
                    53.1356654660516
                ]
            }
        },
        {
            "type": "Feature",
            "properties": {
                "ref:csioz": 1181502,
                "name": "Apteka Bocian",
                "addr:street": "M. Curie-Skłodowskiej",
                "addr:housenumber": "7",
                "addr:city": "Białystok",
                "addr:postcode": "15-096",
                "amenity": "pharmacy"
            },
            "geometry": {
                "type": "Point",
                "coordinates": [
                    23.159140940335966,
                    53.12836712769501
                ]
            }
        },
        {
            "type": "Feature",
            "properties": {
                "ref:csioz": 1182992,
                "name": "Doz Apteka Dbam O Zdrowie",
                "addr:street": "Świętojańska",
                "addr:housenumber": "15",
                "addr:flats": "H9",
                "addr:city": "Białystok",
                "addr:postcode": "15-277",
                "amenity": "pharmacy"
            },
            "geometry": {
                "type": "Point",
                "coordinates": [
                    23.168659303071042,
                    53.12581113876591
                ]
            }
        },
        {
            "type": "Feature",
            "properties": {
                "ref:csioz": 1186317,
                "addr:street": "Ogrodniczki",
                "addr:housenumber": "51",
                "addr:city": "Białystok",
                "addr:postcode": "15-763",
                "amenity": "pharmacy"
            },
            "geometry": {
                "type": "Point",
                "coordinates": [
                    23.12513710120646,
                    53.144608432323224
                ]
            }
        },
        {
            "type": "Feature",
            "properties": {
                "ref:csioz": 1187015,
                "name": "\"Apteka Cef@Rm 36,6\"",
                "addr:street": "gen. Franciszka Kleeberga",
                "addr:housenumber": "34",
                "addr:city": "Białystok",
                "addr:postcode": "15-691",
                "amenity": "pharmacy"
            },
            "geometry": {
                "type": "Point",
                "coordinates": [
                    23.08924889460309,
                    53.15734560887998
                ]
            }
        },
        {
            "type": "Feature",
            "properties": {
                "ref:csioz": 1192083,
                "name": "Apteka Bliska",
                "addr:street": "św. Andrzeja Boboli",
                "addr:housenumber": "85",
                "addr:city": "Białystok",
                "addr:postcode": "15-649",
                "amenity": "pharmacy"
            },
            "geometry": {
                "type": "Point",
                "coordinates": [
                    23.08428830795419,
                    53.130539011989505
                ]
            }
        },
        {
            "type": "Feature",
            "properties": {
                "ref:csioz": 1193867,
                "name": "\"Apteka Cef@Rm 36,6\"",
                "addr:street": "Konwaliowa",
                "addr:housenumber": "2",
                "addr:city": "Białystok",
                "addr:postcode": "15-674",
                "amenity": "pharmacy"
            },
            "geometry": {
                "type": "Point",
                "coordinates": [
                    23.099845658397083,
                    53.12045923703216
                ]
            }
        },
        {
            "type": "Feature",
            "properties": {
                "ref:csioz": 1195906,
                "name": "Pogodna Apteka",
                "addr:street": "Jana Pawła II",
                "addr:housenumber": "59",
                "addr:flats": "U9",
                "addr:city": "Białystok",
                "addr:postcode": "15-704",
                "amenity": "pharmacy"
            },
            "geometry": {
                "type": "Point",
                "coordinates": [
                    23.10154244971302,
                    53.14062449670428
                ]
            }
        },
        {
            "type": "Feature",
            "properties": {
                "ref:csioz": 1197434,
                "name": "\"Apteka Cef@Rm 36,6\"",
                "addr:street": "Jurowiecka",
                "addr:housenumber": "1",
                "addr:flats": "lok. 0.05",
                "addr:city": "Białystok",
                "addr:postcode": "15-101",
                "amenity": "pharmacy"
            },
            "geometry": {
                "type": "Point",
                "coordinates": [
                    23.16332646807469,
                    53.136542959376754
                ]
            }
        },
        {
            "type": "Feature",
            "properties": {
                "ref:csioz": 1199829,
                "name": "Pogodna Apteka",
                "addr:street": "Wrocławska",
                "addr:housenumber": "9",
                "addr:flats": "1",
                "addr:city": "Białystok",
                "addr:postcode": "15-644",
                "amenity": "pharmacy"
            },
            "geometry": {
                "type": "Point",
                "coordinates": [
                    23.090898038865852,
                    53.12247570548334
                ]
            }
        },
        {
            "type": "Feature",
            "properties": {
                "ref:csioz": 1201636,
                "name": "Apteka Przy Topolance",
                "addr:street": "Wasilkowska",
                "addr:housenumber": "22C",
                "addr:city": "Białystok",
                "addr:postcode": "15-146",
                "amenity": "pharmacy"
            },
            "geometry": {
                "type": "Point",
                "coordinates": [
                    23.182020865864143,
                    53.14543699532165
                ]
            }
        },
        {
            "type": "Feature",
            "properties": {
                "ref:csioz": 1201768,
                "name": "Super-Pharm Apteka",
                "addr:street": "Icchoka Malmeda",
                "addr:housenumber": "1",
                "addr:city": "Białystok",
                "addr:postcode": "15-440",
                "amenity": "pharmacy"
            },
            "geometry": {
                "type": "Point",
                "coordinates": [
                    23.155684712933034,
                    53.133167574873205
                ]
            }
        },
        {
            "type": "Feature",
            "properties": {
                "ref:csioz": 1202584,
                "name": "Apteka Społeczna Na Wiejskiej Grupa Nowa Farmacja",
                "addr:street": "Wiejska",
                "addr:housenumber": "71",
                "addr:flats": "4",
                "addr:city": "Białystok",
                "addr:postcode": "15-351",
                "amenity": "pharmacy"
            },
            "geometry": {
                "type": "Point",
                "coordinates": [
                    23.14730542843271,
                    53.113624699992975
                ]
            }
        },
        {
            "type": "Feature",
            "properties": {
                "ref:csioz": 1209692,
                "name": "Apteka Rodzinna Przejazd",
                "addr:street": "Prezydenta Ryszarda  Kaczorowskiego",
                "addr:housenumber": "7",
                "addr:flats": "8a",
                "addr:city": "Białystok",
                "addr:postcode": "15-375",
                "amenity": "pharmacy"
            },
            "geometry": {
                "type": "Point",
                "coordinates": [
                    23.150167645595673,
                    53.12547362614761
                ]
            }
        },
        {
            "type": "Feature",
            "properties": {
                "ref:csioz": 1210703,
                "name": "Apteka Bliska",
                "addr:street": "Władysława Wysockiego",
                "addr:housenumber": "67",
                "addr:flats": "A5-A6",
                "addr:city": "Białystok",
                "addr:postcode": "15-168",
                "amenity": "pharmacy"
            },
            "geometry": {
                "type": "Point",
                "coordinates": [
                    23.185758900838163,
                    53.16210848255839
                ]
            }
        },
        {
            "type": "Feature",
            "properties": {
                "ref:csioz": 1213984,
                "name": "Hebeapteka",
                "addr:street": "Wrocławska",
                "addr:housenumber": "20",
                "addr:flats": "12/B",
                "addr:city": "Białystok",
                "addr:postcode": "15-660",
                "amenity": "pharmacy"
            },
            "geometry": {
                "type": "Point",
                "coordinates": [
                    23.0975129400264,
                    53.124123947689974
                ]
            }
        },
        {
            "type": "Feature",
            "properties": {
                "ref:csioz": 1214279,
                "name": "Apteka Vita",
                "addr:street": "42 Pułku Piechoty",
                "addr:housenumber": "131",
                "addr:flats": "U1U2",
                "addr:city": "Białystok",
                "addr:postcode": "15-181",
                "amenity": "pharmacy"
            },
            "geometry": {
                "type": "Point",
                "coordinates": [
                    23.221797393256058,
                    53.142289847103214
                ]
            }
        },
        {
            "type": "Feature",
            "properties": {
                "ref:csioz": 1214287,
                "name": "Apteka Centrum",
                "addr:street": "Komisji Edukacji Narodowej",
                "addr:housenumber": "36",
                "addr:city": "Białystok",
                "addr:postcode": "15-687",
                "amenity": "pharmacy"
            },
            "geometry": {
                "type": "Point",
                "coordinates": [
                    23.092157969358993,
                    53.15187143040204
                ]
            }
        },
        {
            "type": "Feature",
            "properties": {
                "ref:csioz": 1216182,
                "name": "Apteka Nowa Farmacja Na Zwycięstwa",
                "addr:street": "Zwycięstwa",
                "addr:housenumber": "10A",
                "addr:city": "Białystok",
                "addr:postcode": "15-703",
                "amenity": "pharmacy"
            },
            "geometry": {
                "type": "Point",
                "coordinates": [
                    23.129775950120184,
                    53.13607234695323
                ]
            }
        },
        {
            "type": "Feature",
            "properties": {
                "ref:csioz": 1217192,
                "name": "Apteka Anika",
                "addr:street": "Sybiraków",
                "addr:housenumber": "4",
                "addr:flats": "U5",
                "addr:city": "Białystok",
                "addr:postcode": "15-204",
                "amenity": "pharmacy"
            },
            "geometry": {
                "type": "Point",
                "coordinates": [
                    23.19702458694158,
                    53.13120041553375
                ]
            }
        },
        {
            "type": "Feature",
            "properties": {
                "ref:csioz": 1217348,
                "name": "\"Apteka 'Na Zdrowie' \"",
                "addr:street": "gen. Władysława Andersa",
                "addr:housenumber": "40",
                "addr:flats": "89",
                "addr:city": "Białystok",
                "addr:postcode": "15-113",
                "amenity": "pharmacy"
            },
            "geometry": {
                "type": "Point",
                "coordinates": [
                    23.164528861144436,
                    53.15439370216706
                ]
            }
        },
        {
            "type": "Feature",
            "properties": {
                "ref:csioz": 1217486,
                "name": "Apteka Na Kawaleryjskiej",
                "addr:street": "Kawaleryjska",
                "addr:housenumber": "52",
                "addr:flats": "1",
                "addr:city": "Białystok",
                "addr:postcode": "15-325",
                "amenity": "pharmacy"
            },
            "geometry": {
                "type": "Point",
                "coordinates": [
                    23.14046100007121,
                    53.10484000001905
                ]
            }
        },
        {
            "type": "Feature",
            "properties": {
                "ref:csioz": 1224490,
                "addr:street": "Elizy Orzeszkowej",
                "addr:housenumber": "17",
                "addr:flats": "46",
                "addr:city": "Białystok",
                "addr:postcode": "15-084",
                "amenity": "pharmacy"
            },
            "geometry": {
                "type": "Point",
                "coordinates": [
                    23.177208807363435,
                    53.12751687115062
                ]
            }
        },
        {
            "type": "Feature",
            "properties": {
                "ref:csioz": 1224523,
                "name": "\"Apteka Cef@Rm 36,6\"",
                "addr:street": "Wincentego Witosa",
                "addr:housenumber": "34",
                "addr:city": "Białystok",
                "addr:postcode": "15-660",
                "amenity": "pharmacy"
            },
            "geometry": {
                "type": "Point",
                "coordinates": [
                    23.102046016436613,
                    53.1329676454418
                ]
            }
        },
        {
            "type": "Feature",
            "properties": {
                "ref:csioz": 1225226,
                "name": "Apteka Provita",
                "addr:street": "Stanisława Dubois",
                "addr:housenumber": "3",
                "addr:flats": "lok. 4",
                "addr:city": "Białystok",
                "addr:postcode": "15-349",
                "amenity": "pharmacy"
            },
            "geometry": {
                "type": "Point",
                "coordinates": [
                    23.124304376101932,
                    53.108532147372976
                ]
            }
        },
        {
            "type": "Feature",
            "properties": {
                "ref:csioz": 1225548,
                "name": "Twoja Apteka Na Sowlańskiej",
                "addr:street": "Sowlańska",
                "addr:housenumber": "3",
                "addr:flats": "U1",
                "addr:city": "Białystok",
                "addr:postcode": "15-560",
                "amenity": "pharmacy"
            },
            "geometry": {
                "type": "Point",
                "coordinates": [
                    23.210561635689217,
                    53.12157348587891
                ]
            }
        },
        {
            "type": "Feature",
            "properties": {
                "ref:csioz": 1226079,
                "name": "Apteka Rodzinna",
                "addr:street": "Fabryczna",
                "addr:housenumber": "4",
                "addr:city": "Białystok",
                "addr:postcode": "15-483",
                "amenity": "pharmacy"
            },
            "geometry": {
                "type": "Point",
                "coordinates": [
                    23.164819847319936,
                    53.13771100473196
                ]
            }
        },
        {
            "type": "Feature",
            "properties": {
                "ref:csioz": 1226394,
                "addr:street": "Warszawska",
                "addr:housenumber": "15",
                "addr:city": "Białystok",
                "addr:postcode": "15-062",
                "amenity": "pharmacy"
            },
            "geometry": {
                "type": "Point",
                "coordinates": [
                    23.168993818351723,
                    53.13417469001875
                ]
            }
        },
        {
            "type": "Feature",
            "properties": {
                "ref:csioz": 1227887,
                "addr:street": "M. Curie-Skłodowskiej",
                "addr:housenumber": "23",
                "addr:city": "Białystok",
                "addr:postcode": "15-950",
                "amenity": "pharmacy"
            },
            "geometry": {
                "type": "Point",
                "coordinates": [
                    23.16261278547848,
                    53.12568222538314
                ]
            }
        },
        {
            "type": "Feature",
            "properties": {
                "ref:csioz": 1228097,
                "name": "\"Apteka \"\" Na Kawaleryjskiej \"\"\"",
                "addr:street": "Grażyny",
                "addr:housenumber": "1A",
                "addr:city": "Białystok",
                "addr:postcode": "15-325",
                "amenity": "pharmacy"
            },
            "geometry": {
                "type": "Point",
                "coordinates": [
                    23.141396019049573,
                    53.10564450623697
                ]
            }
        },
        {
            "type": "Feature",
            "properties": {
                "ref:csioz": 1229673,
                "addr:street": "Fabryczna",
                "addr:housenumber": "4",
                "addr:flats": "2A",
                "addr:city": "Białystok",
                "addr:postcode": "15-483",
                "amenity": "pharmacy"
            },
            "geometry": {
                "type": "Point",
                "coordinates": [
                    23.164819847319936,
                    53.13771100473196
                ]
            }
        },
        {
            "type": "Feature",
            "properties": {
                "ref:csioz": 1184839,
                "name": "\"Apteka \"\"Viola\"\"\"",
                "addr:street": "Generała Józefa Hallera",
                "addr:housenumber": "17B",
                "addr:city": "Białystok",
                "addr:postcode": "15-814",
                "amenity": "pharmacy"
            },
            "geometry": {
                "type": "Point",
                "coordinates": [
                    23.124864493518515,
                    53.15245235506893
                ]
            }
        },
        {
            "type": "Feature",
            "properties": {
                "ref:csioz": 1230167,
                "name": "Apteka Pod Lwem",
                "addr:street": "Łąkowa",
                "addr:housenumber": "3",
                "addr:flats": "U1",
                "addr:city": "Białystok",
                "addr:postcode": "15-017",
                "amenity": "pharmacy"
            },
            "geometry": {
                "type": "Point",
                "coordinates": [
                    23.17632284220244,
                    53.14067357187483
                ]
            }
        },
        {
            "type": "Feature",
            "properties": {
                "ref:csioz": 1226284,
                "name": "\"Apteka \"\"Na Zdrowie\"\"\"",
                "addr:street": "Radzymińska",
                "addr:housenumber": "14",
                "addr:city": "Białystok",
                "addr:postcode": "15-863",
                "amenity": "pharmacy"
            },
            "geometry": {
                "type": "Point",
                "coordinates": [
                    23.151875015107233,
                    53.14563150129134
                ]
            }
        },
        {
            "type": "Feature",
            "properties": {
                "ref:csioz": 1021880,
                "name": "Dr. Max",
                "addr:street": "gen. Józefa Bema",
                "addr:housenumber": "2",
                "addr:city": "Białystok",
                "addr:postcode": "15-369",
                "amenity": "pharmacy"
            },
            "geometry": {
                "type": "Point",
                "coordinates": [
                    23.149109594634698,
                    53.126154982645176
                ]
            }
        },
        {
            "type": "Feature",
            "properties": {
                "ref:csioz": 1201115,
                "name": "Apteka Gemini",
                "addr:street": "Wojskowa",
                "addr:housenumber": "4",
                "addr:city": "Białystok",
                "addr:postcode": "15-270",
                "amenity": "pharmacy"
            },
            "geometry": {
                "type": "Point",
                "coordinates": [
                    23.160237423611324,
                    53.12642162818634
                ]
            }
        }
    ]
}