{
    "type": "FeatureCollection",
    "name": "JPT_KOD_JE_2812",
    "features": [
        {
            "type": "Feature",
            "properties": {
                "ref:csioz": 1014398,
                "name": "Melisa",
                "addr:housenumber": "138",
                "addr:city": "Łąkorz",
                "addr:postcode": "13-334",
                "amenity": "pharmacy"
            },
            "geometry": {
                "type": "Point",
                "coordinates": [
                    19.351602580108292,
                    53.445684599127766
                ]
            }
        },
        {
            "type": "Feature",
            "properties": {
                "ref:csioz": 1014333,
                "name": "Aqua",
                "addr:street": "Rynek",
                "addr:housenumber": "17",
                "addr:city": "Biskupiec",
                "addr:postcode": "13-340",
                "amenity": "pharmacy"
            },
            "geometry": {
                "type": "Point",
                "coordinates": [
                    19.351340000000153,
                    53.5009340000179
                ]
            }
        },
        {
            "type": "Feature",
            "properties": {
                "ref:csioz": 1014727,
                "addr:street": "Mickiewicza",
                "addr:housenumber": "10",
                "addr:city": "NOWE MIASTO LUBAWSKIE",
                "addr:postcode": "13-300",
                "amenity": "pharmacy"
            },
            "geometry": {
                "type": "Point",
                "coordinates": [
                    19.586663823567417,
                    53.42419850673477
                ]
            }
        },
        {
            "type": "Feature",
            "properties": {
                "ref:csioz": 1016351,
                "addr:housenumber": "19",
                "addr:city": "TERESZEWO",
                "addr:postcode": "13-306",
                "amenity": "pharmacy"
            },
            "geometry": {
                "type": "Point",
                "coordinates": [
                    19.468051817862523,
                    53.38687890007406
                ]
            }
        },
        {
            "type": "Feature",
            "properties": {
                "ref:csioz": 1040316,
                "name": "Pod Lipami",
                "addr:street": "Rynek",
                "addr:housenumber": "1",
                "addr:city": "BISKUPIEC",
                "addr:postcode": "13-340",
                "amenity": "pharmacy"
            },
            "geometry": {
                "type": "Point",
                "coordinates": [
                    19.35126338071297,
                    53.5008869819277
                ]
            }
        },
        {
            "type": "Feature",
            "properties": {
                "ref:csioz": 1040841,
                "name": "Doz Apteka. Dbam O Zdrowie. Apteka Jola",
                "addr:street": "19 Stycznia",
                "addr:housenumber": "6",
                "addr:city": "Nowe Miasto Lubawskie",
                "addr:postcode": "13-300",
                "amenity": "pharmacy"
            },
            "geometry": {
                "type": "Point",
                "coordinates": [
                    19.592699865485624,
                    53.42278681080357
                ]
            }
        },
        {
            "type": "Feature",
            "properties": {
                "ref:csioz": 1040855,
                "name": "Malwa",
                "addr:street": "Grunwaldzka",
                "addr:housenumber": "11",
                "addr:city": "NOWE MIASTO LUBAWSKIE",
                "addr:postcode": "13-300",
                "amenity": "pharmacy"
            },
            "geometry": {
                "type": "Point",
                "coordinates": [
                    19.58899986044299,
                    53.42970262043084
                ]
            }
        },
        {
            "type": "Feature",
            "properties": {
                "ref:csioz": 1040878,
                "name": "Pod Orłem Andrzej Garjek",
                "addr:street": "Rynek",
                "addr:housenumber": "12",
                "addr:city": "NOWE MIASTO LUBAWSKIE",
                "addr:postcode": "13-300",
                "amenity": "pharmacy"
            },
            "geometry": {
                "type": "Point",
                "coordinates": [
                    19.592899777695113,
                    53.424270046381245
                ]
            }
        },
        {
            "type": "Feature",
            "properties": {
                "ref:csioz": 1040864,
                "name": "Doz Apteka. Dbam O Zdrowie - Apteka Panaceum",
                "addr:street": "Mickiewicza",
                "addr:housenumber": "11B",
                "addr:city": "Nowe Miasto Lubawskie",
                "addr:postcode": "13-300",
                "amenity": "pharmacy"
            },
            "geometry": {
                "type": "Point",
                "coordinates": [
                    19.587612638486107,
                    53.42435014218692
                ]
            }
        },
        {
            "type": "Feature",
            "properties": {
                "ref:csioz": 1115242,
                "addr:housenumber": "41A",
                "addr:city": "Krotoszyny",
                "addr:postcode": "13-330",
                "amenity": "pharmacy"
            },
            "geometry": {
                "type": "Point",
                "coordinates": [
                    19.392666531526817,
                    53.50099223070746
                ]
            }
        },
        {
            "type": "Feature",
            "properties": {
                "ref:csioz": 1115269,
                "addr:housenumber": "17C",
                "addr:city": "Nowe Grodziczno",
                "addr:postcode": "13-324",
                "amenity": "pharmacy"
            },
            "geometry": {
                "type": "Point",
                "coordinates": [
                    19.756528681392187,
                    53.41290263376918
                ]
            }
        },
        {
            "type": "Feature",
            "properties": {
                "ref:csioz": 1179944,
                "name": "Medicus S.C. Szpital",
                "addr:street": "Długa",
                "addr:housenumber": "5",
                "addr:city": "Mszanowo",
                "addr:postcode": "13-300",
                "amenity": "pharmacy"
            },
            "geometry": {
                "type": "Point",
                "coordinates": [
                    19.60696218311733,
                    53.442979347232914
                ]
            }
        },
        {
            "type": "Feature",
            "properties": {
                "ref:csioz": 1181255,
                "name": "Apteka Pharma - Land",
                "addr:street": "3 Maja",
                "addr:housenumber": "4",
                "addr:city": "Nowe Miasto Lubawskie",
                "addr:postcode": "13-300",
                "amenity": "pharmacy"
            },
            "geometry": {
                "type": "Point",
                "coordinates": [
                    19.59187722606663,
                    53.42453278456104
                ]
            }
        },
        {
            "type": "Feature",
            "properties": {
                "ref:csioz": 1207257,
                "name": "\"Punkt Apteczny Rodzina, Green Cross\"",
                "addr:street": "Henryka Sienkiewicza",
                "addr:housenumber": "3",
                "addr:city": "Kurzętnik",
                "addr:postcode": "13-306",
                "amenity": "pharmacy"
            },
            "geometry": {
                "type": "Point",
                "coordinates": [
                    19.593877193743527,
                    53.40996740884588
                ]
            }
        },
        {
            "type": "Feature",
            "properties": {
                "ref:csioz": 1222616,
                "name": "Apteka Dr. Optima",
                "addr:street": "Łąkowa",
                "addr:housenumber": "12",
                "addr:city": "Kurzętnik",
                "addr:postcode": "13-306",
                "amenity": "pharmacy"
            },
            "geometry": {
                "type": "Point",
                "coordinates": [
                    19.578605000000238,
                    53.39993800001773
                ]
            }
        }
    ]
}