{
    "type": "FeatureCollection",
    "name": "JPT_KOD_JE_1428",
    "crs": {
        "type": "name",
        "properties": {
            "name": "urn:ogc:def:crs:EPSG::4326"
        }
    },
    "features": [
        {
            "type": "Feature",
            "properties": {
                "ref:csioz": 1093450,
                "name": "Apteka Na Podzamczu Sp. J",
                "addr:street": "Romualda Traugutta",
                "addr:housenumber": "3A",
                "addr:city": "Sochaczew",
                "addr:postcode": "96-500",
                "amenity": "pharmacy"
            },
            "geometry": {
                "type": "Point",
                "coordinates": [
                    20.23829656742658,
                    52.228605263835824
                ]
            }
        },
        {
            "type": "Feature",
            "properties": {
                "ref:csioz": 1093638,
                "name": "Serduszko Całodobowe Ceny Hurtowe",
                "addr:street": "Aleja 600-lecia",
                "addr:housenumber": "9",
                "addr:city": "Sochaczew",
                "addr:postcode": "96-500",
                "amenity": "pharmacy"
            },
            "geometry": {
                "type": "Point",
                "coordinates": [
                    20.24557868674951,
                    52.23025393524013
                ]
            }
        },
        {
            "type": "Feature",
            "properties": {
                "ref:csioz": 1093646,
                "name": "Serduszko",
                "addr:street": "Batalionów Chłopskich",
                "addr:housenumber": "3/7",
                "addr:city": "Sochaczew",
                "addr:postcode": "96-500",
                "amenity": "pharmacy"
            },
            "geometry": {
                "type": "Point",
                "coordinates": [
                    20.22668850879698,
                    52.239082960913144
                ]
            }
        },
        {
            "type": "Feature",
            "properties": {
                "ref:csioz": 1094214,
                "addr:street": "Rynek Staromiejski",
                "addr:housenumber": "24",
                "addr:city": "Iłów",
                "addr:postcode": "96-520",
                "amenity": "pharmacy"
            },
            "geometry": {
                "type": "Point",
                "coordinates": [
                    20.026212798135465,
                    52.33953648215061
                ]
            }
        },
        {
            "type": "Feature",
            "properties": {
                "ref:csioz": 1094355,
                "name": "Calendula",
                "addr:street": "Szkolna",
                "addr:housenumber": "19A",
                "addr:city": "Szymanów",
                "addr:postcode": "96-516",
                "amenity": "pharmacy"
            },
            "geometry": {
                "type": "Point",
                "coordinates": [
                    20.379873345096104,
                    52.16126925088799
                ]
            }
        },
        {
            "type": "Feature",
            "properties": {
                "ref:csioz": 1175433,
                "name": "Dr. Max",
                "addr:street": "Szymanowska",
                "addr:housenumber": "17A",
                "addr:city": "Teresin",
                "addr:postcode": "96-515",
                "amenity": "pharmacy"
            },
            "geometry": {
                "type": "Point",
                "coordinates": [
                    20.41821271498544,
                    52.199696301067924
                ]
            }
        },
        {
            "type": "Feature",
            "properties": {
                "ref:csioz": 1093356,
                "name": "Apteka Prima",
                "addr:street": "Długa",
                "addr:housenumber": "8A",
                "addr:city": "Rybno",
                "addr:postcode": "96-514",
                "amenity": "pharmacy"
            },
            "geometry": {
                "type": "Point",
                "coordinates": [
                    20.101985993548226,
                    52.243475929345074
                ]
            }
        },
        {
            "type": "Feature",
            "properties": {
                "ref:csioz": 1093362,
                "name": "Centralna",
                "addr:street": "1 Maja",
                "addr:housenumber": "4",
                "addr:city": "Sochaczew",
                "addr:postcode": "96-500",
                "amenity": "pharmacy"
            },
            "geometry": {
                "type": "Point",
                "coordinates": [
                    20.242598990222234,
                    52.22483502822218
                ]
            }
        },
        {
            "type": "Feature",
            "properties": {
                "ref:csioz": 1093370,
                "name": "Apteka Victoria",
                "addr:street": "Aleja 600-lecia",
                "addr:housenumber": "44/46",
                "addr:city": "Sochaczew",
                "addr:postcode": "96-500",
                "amenity": "pharmacy"
            },
            "geometry": {
                "type": "Point",
                "coordinates": [
                    20.24827900000064,
                    52.23421700001584
                ]
            }
        },
        {
            "type": "Feature",
            "properties": {
                "ref:csioz": 1117807,
                "name": "Centralny",
                "addr:housenumber": "49",
                "addr:city": "Brzozów Stary",
                "addr:postcode": "96-521",
                "amenity": "pharmacy"
            },
            "geometry": {
                "type": "Point",
                "coordinates": [
                    20.03791984697859,
                    52.301187789711804
                ]
            }
        },
        {
            "type": "Feature",
            "properties": {
                "ref:csioz": 1153267,
                "name": "Apteka Szpitalna",
                "addr:street": "Batalionów Chłopskich",
                "addr:housenumber": "3/7",
                "addr:city": "Sochaczew",
                "addr:postcode": "96-500",
                "amenity": "pharmacy"
            },
            "geometry": {
                "type": "Point",
                "coordinates": [
                    20.22668850879698,
                    52.239082960913144
                ]
            }
        },
        {
            "type": "Feature",
            "properties": {
                "ref:csioz": 1230497,
                "addr:housenumber": "122",
                "addr:city": "Brochów",
                "addr:postcode": "05-088",
                "amenity": "pharmacy"
            },
            "geometry": {
                "type": "Point",
                "coordinates": [
                    20.2662807900002,
                    52.32294597585591
                ]
            }
        },
        {
            "type": "Feature",
            "properties": {
                "ref:csioz": 1093488,
                "name": "Dbam O Zdrowie",
                "addr:street": "Rynkowa",
                "addr:housenumber": "1",
                "addr:city": "Teresin",
                "addr:postcode": "96-515",
                "amenity": "pharmacy"
            },
            "geometry": {
                "type": "Point",
                "coordinates": [
                    20.41738000000088,
                    52.19882200001578
                ]
            }
        },
        {
            "type": "Feature",
            "properties": {
                "ref:csioz": 1093491,
                "name": "Apteka Calendula",
                "addr:street": "Szymanowska",
                "addr:housenumber": "2",
                "addr:city": "Teresin",
                "addr:postcode": "96-515",
                "amenity": "pharmacy"
            },
            "geometry": {
                "type": "Point",
                "coordinates": [
                    20.418589209638608,
                    52.20097061407548
                ]
            }
        },
        {
            "type": "Feature",
            "properties": {
                "ref:csioz": 1093667,
                "name": "Dbam O Zdrowie",
                "addr:street": "Aleja 600-lecia",
                "addr:housenumber": "39/41",
                "addr:city": "Sochaczew",
                "addr:postcode": "96-500",
                "amenity": "pharmacy"
            },
            "geometry": {
                "type": "Point",
                "coordinates": [
                    20.247685000000647,
                    52.23693500001585
                ]
            }
        },
        {
            "type": "Feature",
            "properties": {
                "ref:csioz": 1093840,
                "name": "Mgr Farm. Alina Zalewska",
                "addr:street": "Pokoju",
                "addr:housenumber": "7",
                "addr:city": "Sochaczew",
                "addr:postcode": "96-500",
                "amenity": "pharmacy"
            },
            "geometry": {
                "type": "Point",
                "coordinates": [
                    20.243580802954014,
                    52.232691000530195
                ]
            }
        },
        {
            "type": "Feature",
            "properties": {
                "ref:csioz": 1094073,
                "name": "Dr. Optima",
                "addr:street": "Stefana Żeromskiego",
                "addr:housenumber": "41A",
                "addr:city": "Sochaczew",
                "addr:postcode": "96-500",
                "amenity": "pharmacy"
            },
            "geometry": {
                "type": "Point",
                "coordinates": [
                    20.244830297772285,
                    52.23617609353918
                ]
            }
        },
        {
            "type": "Feature",
            "properties": {
                "ref:csioz": 1094223,
                "addr:housenumber": "50A",
                "addr:city": "Nowa Sucha",
                "addr:postcode": "96-513",
                "amenity": "pharmacy"
            },
            "geometry": {
                "type": "Point",
                "coordinates": [
                    20.17574257832761,
                    52.15988585890514
                ]
            }
        },
        {
            "type": "Feature",
            "properties": {
                "ref:csioz": 1094329,
                "addr:street": "Parkowa",
                "addr:housenumber": "1",
                "addr:city": "Młodzieszyn",
                "addr:postcode": "96-512",
                "amenity": "pharmacy"
            },
            "geometry": {
                "type": "Point",
                "coordinates": [
                    20.199671803616198,
                    52.299372413065385
                ]
            }
        },
        {
            "type": "Feature",
            "properties": {
                "ref:csioz": 1116801,
                "addr:street": "Aleja 600-lecia",
                "addr:housenumber": "28",
                "addr:city": "Sochaczew",
                "addr:postcode": "96-500",
                "amenity": "pharmacy"
            },
            "geometry": {
                "type": "Point",
                "coordinates": [
                    20.2464327507005,
                    52.232556614206246
                ]
            }
        },
        {
            "type": "Feature",
            "properties": {
                "ref:csioz": 1093381,
                "name": "Remedium",
                "addr:street": "Chodakowska",
                "addr:housenumber": "23",
                "addr:city": "Sochaczew",
                "addr:postcode": "96-503",
                "amenity": "pharmacy"
            },
            "geometry": {
                "type": "Point",
                "coordinates": [
                    20.27371565285825,
                    52.255873736206276
                ]
            }
        },
        {
            "type": "Feature",
            "properties": {
                "ref:csioz": 1093397,
                "name": "Apteka Na Szóstkę",
                "addr:street": "gen. Jarosława Dąbrowskiego",
                "addr:housenumber": "2",
                "addr:city": "Sochaczew",
                "addr:postcode": "96-500",
                "amenity": "pharmacy"
            },
            "geometry": {
                "type": "Point",
                "coordinates": [
                    20.23782500000063,
                    52.22247900001583
                ]
            }
        },
        {
            "type": "Feature",
            "properties": {
                "ref:csioz": 1093416,
                "name": "Apteka Vita",
                "addr:street": "Gawłowska",
                "addr:housenumber": "3",
                "addr:city": "Sochaczew",
                "addr:postcode": "96-500",
                "amenity": "pharmacy"
            },
            "geometry": {
                "type": "Point",
                "coordinates": [
                    20.22537361831603,
                    52.23143498180461
                ]
            }
        },
        {
            "type": "Feature",
            "properties": {
                "ref:csioz": 1120965,
                "name": "Centralna",
                "addr:street": "Chodakowska",
                "addr:housenumber": "27",
                "addr:city": "Sochaczew",
                "addr:postcode": "96-500",
                "amenity": "pharmacy"
            },
            "geometry": {
                "type": "Point",
                "coordinates": [
                    20.273425986990457,
                    52.25635377920372
                ]
            }
        },
        {
            "type": "Feature",
            "properties": {
                "ref:csioz": 1182454,
                "name": "Centralna",
                "addr:street": "Dywizjonu 303",
                "addr:housenumber": "5",
                "addr:city": "Sochaczew",
                "addr:postcode": "96-500",
                "amenity": "pharmacy"
            },
            "geometry": {
                "type": "Point",
                "coordinates": [
                    20.23404926764781,
                    52.217595725745966
                ]
            }
        },
        {
            "type": "Feature",
            "properties": {
                "ref:csioz": 1182781,
                "name": "Inter Apteka",
                "addr:street": "Warszawska",
                "addr:housenumber": "119",
                "addr:flats": "3/4",
                "addr:city": "Sochaczew",
                "addr:postcode": "96-500",
                "amenity": "pharmacy"
            },
            "geometry": {
                "type": "Point",
                "coordinates": [
                    20.268331447519557,
                    52.227235290651755
                ]
            }
        },
        {
            "type": "Feature",
            "properties": {
                "ref:csioz": 1218804,
                "name": "Centralna",
                "addr:street": "Stefana Żeromskiego",
                "addr:housenumber": "14",
                "addr:city": "Sochaczew",
                "addr:postcode": "96-500",
                "amenity": "pharmacy"
            },
            "geometry": {
                "type": "Point",
                "coordinates": [
                    20.24177565095648,
                    52.231176060789366
                ]
            }
        },
        {
            "type": "Feature",
            "properties": {
                "ref:csioz": 1222819,
                "name": "Gemini",
                "addr:street": "Pokoju",
                "addr:housenumber": "9",
                "addr:city": "Sochaczew",
                "addr:postcode": "96-503",
                "amenity": "pharmacy"
            },
            "geometry": {
                "type": "Point",
                "coordinates": [
                    20.244294442604478,
                    52.23263429366894
                ]
            }
        },
        {
            "type": "Feature",
            "properties": {
                "ref:csioz": 1230783,
                "name": "O. Kolbego 10",
                "addr:street": "Kolbego Ojca Maksymiliana",
                "addr:housenumber": "10",
                "addr:city": "Paprotnia",
                "addr:postcode": "96-515",
                "amenity": "pharmacy"
            },
            "geometry": {
                "type": "Point",
                "coordinates": [
                    20.421101039348066,
                    52.20279291136072
                ]
            }
        },
        {
            "type": "Feature",
            "properties": {
                "ref:csioz": 1199620,
                "name": "\"Prywatna \"\"Vita\"\"\"",
                "addr:street": "15 Sierpnia",
                "addr:housenumber": "119",
                "addr:city": "Sochaczew",
                "addr:postcode": "96-500",
                "amenity": "pharmacy"
            },
            "geometry": {
                "type": "Point",
                "coordinates": [
                    20.21192325815209,
                    52.19962771817542
                ]
            }
        },
        {
            "type": "Feature",
            "properties": {
                "ref:csioz": 1230780,
                "name": "Vita",
                "addr:housenumber": "117",
                "addr:city": "Żuków",
                "addr:postcode": "96-503",
                "amenity": "pharmacy"
            },
            "geometry": {
                "type": "Point",
                "coordinates": [
                    20.26249739629264,
                    52.26558205876614
                ]
            }
        }
    ]
}