{
    "type": "FeatureCollection",
    "name": "JPT_KOD_JE_1017",
    "crs": {
        "type": "name",
        "properties": {
            "name": "urn:ogc:def:crs:EPSG::4326"
        }
    },
    "features": [
        {
            "type": "Feature",
            "properties": {
                "ref:csioz": 1010174,
                "addr:housenumber": "11",
                "addr:city": "Biała-Parcela",
                "addr:postcode": "98-350",
                "amenity": "pharmacy"
            },
            "geometry": {
                "type": "Point",
                "coordinates": [
                    18.44666101866508,
                    51.26690371722309
                ]
            }
        },
        {
            "type": "Feature",
            "properties": {
                "ref:csioz": 1019953,
                "addr:housenumber": "233",
                "addr:city": "Mokrsko",
                "addr:postcode": "98-345",
                "amenity": "pharmacy"
            },
            "geometry": {
                "type": "Point",
                "coordinates": [
                    18.456591959507787,
                    51.17383752298398
                ]
            }
        },
        {
            "type": "Feature",
            "properties": {
                "ref:csioz": 1022494,
                "name": "Magnolia",
                "addr:street": "Targowa",
                "addr:housenumber": "2A",
                "addr:city": "Skomlin",
                "addr:postcode": "98-346",
                "amenity": "pharmacy"
            },
            "geometry": {
                "type": "Point",
                "coordinates": [
                    18.38829202155579,
                    51.16873772030325
                ]
            }
        },
        {
            "type": "Feature",
            "properties": {
                "ref:csioz": 1230805,
                "addr:housenumber": "246",
                "addr:city": "Mokrsko",
                "addr:postcode": "98-345",
                "amenity": "pharmacy"
            },
            "geometry": {
                "type": "Point",
                "coordinates": [
                    18.45578242621053,
                    51.17414696651897
                ]
            }
        },
        {
            "type": "Feature",
            "properties": {
                "ref:csioz": 1012024,
                "addr:street": "18 Stycznia",
                "addr:housenumber": "76",
                "addr:city": "Wieluń",
                "addr:postcode": "98-300",
                "amenity": "pharmacy"
            },
            "geometry": {
                "type": "Point",
                "coordinates": [
                    18.586496979182453,
                    51.21314648510437
                ]
            }
        },
        {
            "type": "Feature",
            "properties": {
                "ref:csioz": 1012746,
                "addr:street": "Sieradzka",
                "addr:housenumber": "56/10",
                "addr:city": "Wieluń",
                "addr:postcode": "98-300",
                "amenity": "pharmacy"
            },
            "geometry": {
                "type": "Point",
                "coordinates": [
                    18.56259199999986,
                    51.22971000001429
                ]
            }
        },
        {
            "type": "Feature",
            "properties": {
                "ref:csioz": 1013327,
                "name": "Apteka Dbam O Zdrowie",
                "addr:street": "Kardynała Stefana Wyszyńskiego",
                "addr:housenumber": "41",
                "addr:city": "Wieluń",
                "addr:postcode": "98-300",
                "amenity": "pharmacy"
            },
            "geometry": {
                "type": "Point",
                "coordinates": [
                    18.58284356769238,
                    51.21611600237713
                ]
            }
        },
        {
            "type": "Feature",
            "properties": {
                "ref:csioz": 1016323,
                "name": "Natura",
                "addr:street": "Szkolna",
                "addr:housenumber": "57",
                "addr:city": "Wierzchlas",
                "addr:postcode": "98-324",
                "amenity": "pharmacy"
            },
            "geometry": {
                "type": "Point",
                "coordinates": [
                    18.668984157972005,
                    51.20807190171325
                ]
            }
        },
        {
            "type": "Feature",
            "properties": {
                "ref:csioz": 1017692,
                "addr:street": "Legionów",
                "addr:housenumber": "6",
                "addr:city": "Wieluń",
                "addr:postcode": "98-300",
                "amenity": "pharmacy"
            },
            "geometry": {
                "type": "Point",
                "coordinates": [
                    18.56961843885642,
                    51.21987765608156
                ]
            }
        },
        {
            "type": "Feature",
            "properties": {
                "ref:csioz": 1018744,
                "addr:housenumber": "191I",
                "addr:city": "Czarnożyły",
                "addr:postcode": "98-310",
                "amenity": "pharmacy"
            },
            "geometry": {
                "type": "Point",
                "coordinates": [
                    18.562918894761808,
                    51.280300437171356
                ]
            }
        },
        {
            "type": "Feature",
            "properties": {
                "ref:csioz": 1019006,
                "name": "\"Apteka \"\"Medyk\"\"\"",
                "addr:street": "Józefa Piłsudskiego",
                "addr:housenumber": "8",
                "addr:city": "Wieluń",
                "addr:postcode": "98-300",
                "amenity": "pharmacy"
            },
            "geometry": {
                "type": "Point",
                "coordinates": [
                    18.57152044554206,
                    51.21792203538214
                ]
            }
        },
        {
            "type": "Feature",
            "properties": {
                "ref:csioz": 1019446,
                "name": "\"Apteki Burchacińscy; Wejdź Po Zdrowie!\"",
                "addr:street": "Śląska",
                "addr:housenumber": "24",
                "addr:city": "Wieluń",
                "addr:postcode": "98-300",
                "amenity": "pharmacy"
            },
            "geometry": {
                "type": "Point",
                "coordinates": [
                    18.568485925687224,
                    51.21812542657833
                ]
            }
        },
        {
            "type": "Feature",
            "properties": {
                "ref:csioz": 1020535,
                "name": "\"Cezary Caban \"\"Apteka Nova\"\"\"",
                "addr:street": "Targowa",
                "addr:housenumber": "4",
                "addr:city": "Wieluń",
                "addr:postcode": "98-300",
                "amenity": "pharmacy"
            },
            "geometry": {
                "type": "Point",
                "coordinates": [
                    18.57553526976932,
                    51.21991866426725
                ]
            }
        },
        {
            "type": "Feature",
            "properties": {
                "ref:csioz": 1022053,
                "name": "\"Apteka \"\"Kwiaty Polskie\"\"\"",
                "addr:street": "Romualda Traugutta",
                "addr:housenumber": "13",
                "addr:city": "Wieluń",
                "addr:postcode": "98-300",
                "amenity": "pharmacy"
            },
            "geometry": {
                "type": "Point",
                "coordinates": [
                    18.5595575776744,
                    51.2260274185393
                ]
            }
        },
        {
            "type": "Feature",
            "properties": {
                "ref:csioz": 1023550,
                "name": "Apteka Mgr Farm. Maria Torchała",
                "addr:street": "Wieluńska",
                "addr:housenumber": "25",
                "addr:city": "Kraszkowice",
                "addr:postcode": "98-300",
                "amenity": "pharmacy"
            },
            "geometry": {
                "type": "Point",
                "coordinates": [
                    18.711113037337416,
                    51.19101218996583
                ]
            }
        },
        {
            "type": "Feature",
            "properties": {
                "ref:csioz": 1025947,
                "name": "Natura",
                "addr:street": "Kolejowa",
                "addr:housenumber": "6",
                "addr:city": "Wieluń",
                "addr:postcode": "98-300",
                "amenity": "pharmacy"
            },
            "geometry": {
                "type": "Point",
                "coordinates": [
                    18.554632459226614,
                    51.238388450585816
                ]
            }
        },
        {
            "type": "Feature",
            "properties": {
                "ref:csioz": 1121464,
                "name": "Apteka Magnolia",
                "addr:street": "Barycz",
                "addr:housenumber": "11",
                "addr:city": "Wieluń",
                "addr:postcode": "98-300",
                "amenity": "pharmacy"
            },
            "geometry": {
                "type": "Point",
                "coordinates": [
                    18.56378612156161,
                    51.20929677994867
                ]
            }
        },
        {
            "type": "Feature",
            "properties": {
                "ref:csioz": 1225755,
                "name": "\"Apteki Burchacińscy; Wejdź Po Zdrowie!\"",
                "addr:street": "Sieradzka",
                "addr:housenumber": "16",
                "addr:city": "Wieluń",
                "addr:postcode": "98-300",
                "amenity": "pharmacy"
            },
            "geometry": {
                "type": "Point",
                "coordinates": [
                    18.56306187308715,
                    51.22368771561508
                ]
            }
        },
        {
            "type": "Feature",
            "properties": {
                "ref:csioz": 1010695,
                "name": "\"Apteki Burchacińscy; Wejdź Po Zdrowie!\"",
                "addr:street": "św. Barbary",
                "addr:housenumber": "4",
                "addr:city": "Wieluń",
                "addr:postcode": "98-300",
                "amenity": "pharmacy"
            },
            "geometry": {
                "type": "Point",
                "coordinates": [
                    18.565793034974384,
                    51.22038124370912
                ]
            }
        },
        {
            "type": "Feature",
            "properties": {
                "ref:csioz": 1019717,
                "name": "\"Apteki Burchacińscy; Wejdź Po Zdrowie!\"",
                "addr:street": "Wojska Polskiego",
                "addr:housenumber": "2",
                "addr:city": "Wieluń",
                "addr:postcode": "98-300",
                "amenity": "pharmacy"
            },
            "geometry": {
                "type": "Point",
                "coordinates": [
                    18.562413443774286,
                    51.22162622732169
                ]
            }
        },
        {
            "type": "Feature",
            "properties": {
                "ref:csioz": 1022418,
                "name": "Rajska",
                "addr:street": "Częstochowska",
                "addr:housenumber": "57",
                "addr:city": "Wieluń",
                "addr:postcode": "98-300",
                "amenity": "pharmacy"
            },
            "geometry": {
                "type": "Point",
                "coordinates": [
                    18.580785670685238,
                    51.21164168593112
                ]
            }
        },
        {
            "type": "Feature",
            "properties": {
                "ref:csioz": 1026069,
                "name": "Apteka Prywatna",
                "addr:street": "Wieluńska",
                "addr:housenumber": "16",
                "addr:city": "Osjaków",
                "addr:postcode": "98-320",
                "amenity": "pharmacy"
            },
            "geometry": {
                "type": "Point",
                "coordinates": [
                    18.78787166513243,
                    51.28708080121157
                ]
            }
        },
        {
            "type": "Feature",
            "properties": {
                "ref:csioz": 1113871,
                "name": "Doz Punkt Apteczny Dbam O Zdrowie",
                "addr:housenumber": "38",
                "addr:city": "Masłowice",
                "addr:postcode": "97-515",
                "amenity": "pharmacy"
            },
            "geometry": {
                "type": "Point",
                "coordinates": [
                    18.646411266722286,
                    51.260463505725255
                ]
            }
        },
        {
            "type": "Feature",
            "properties": {
                "ref:csioz": 1182295,
                "name": "Prima",
                "addr:street": "Stanisława Staszica",
                "addr:housenumber": "46",
                "addr:city": "Wieluń",
                "addr:postcode": "98-300",
                "amenity": "pharmacy"
            },
            "geometry": {
                "type": "Point",
                "coordinates": [
                    18.578423451623266,
                    51.22341367739843
                ]
            }
        },
        {
            "type": "Feature",
            "properties": {
                "ref:csioz": 1186835,
                "name": "Apteka Magnolia",
                "addr:street": "Warszawska",
                "addr:housenumber": "10",
                "addr:city": "Wieluń",
                "addr:postcode": "98-300",
                "amenity": "pharmacy"
            },
            "geometry": {
                "type": "Point",
                "coordinates": [
                    18.57671592147698,
                    51.22335994567901
                ]
            }
        },
        {
            "type": "Feature",
            "properties": {
                "ref:csioz": 1187089,
                "name": "Na Zdrowie",
                "addr:street": "kard. Stefana Wyszyńskiego",
                "addr:housenumber": "40",
                "addr:city": "Wieluń",
                "addr:postcode": "98-300",
                "amenity": "pharmacy"
            },
            "geometry": {
                "type": "Point",
                "coordinates": [
                    18.58290891041452,
                    51.21662395601751
                ]
            }
        },
        {
            "type": "Feature",
            "properties": {
                "ref:csioz": 1189108,
                "name": "Apteka Słoneczna Lekfarm",
                "addr:street": "Romualda Traugutta",
                "addr:housenumber": "4",
                "addr:city": "Wieluń",
                "addr:postcode": "98-300",
                "amenity": "pharmacy"
            },
            "geometry": {
                "type": "Point",
                "coordinates": [
                    18.561961901155925,
                    51.22562879522641
                ]
            }
        },
        {
            "type": "Feature",
            "properties": {
                "ref:csioz": 1194630,
                "name": "\"Apteki Burchacińscy; Wejdź Po Zdrowie !\"",
                "addr:street": "Warszawska",
                "addr:housenumber": "10",
                "addr:city": "Wieluń",
                "addr:postcode": "98-300",
                "amenity": "pharmacy"
            },
            "geometry": {
                "type": "Point",
                "coordinates": [
                    18.57671592147698,
                    51.22335994567901
                ]
            }
        },
        {
            "type": "Feature",
            "properties": {
                "ref:csioz": 1197101,
                "name": "Samodzielny Publiczny Zakład Opieki Zdrowotnej",
                "addr:street": "Szpitalna",
                "addr:housenumber": "16",
                "addr:city": "Wieluń",
                "addr:postcode": "98-300",
                "amenity": "pharmacy"
            },
            "geometry": {
                "type": "Point",
                "coordinates": [
                    18.565502562581326,
                    51.21350188369663
                ]
            }
        },
        {
            "type": "Feature",
            "properties": {
                "ref:csioz": 1207421,
                "name": "Apteka Fitfarm",
                "addr:street": "Joanny Żubr",
                "addr:housenumber": "18",
                "addr:city": "Wieluń",
                "addr:postcode": "98-300",
                "amenity": "pharmacy"
            },
            "geometry": {
                "type": "Point",
                "coordinates": [
                    18.564141804634314,
                    51.21628709291029
                ]
            }
        },
        {
            "type": "Feature",
            "properties": {
                "ref:csioz": 1209218,
                "name": "Aptekasenior.Pl",
                "addr:street": "Wojska Polskiego",
                "addr:housenumber": "4",
                "addr:city": "Wieluń",
                "addr:postcode": "98-300",
                "amenity": "pharmacy"
            },
            "geometry": {
                "type": "Point",
                "coordinates": [
                    18.559387729501562,
                    51.22228600927513
                ]
            }
        },
        {
            "type": "Feature",
            "properties": {
                "ref:csioz": 1230226,
                "addr:street": "Stefana Żeromskiego",
                "addr:housenumber": "2",
                "addr:city": "Wieluń",
                "addr:postcode": "98-300",
                "amenity": "pharmacy"
            },
            "geometry": {
                "type": "Point",
                "coordinates": [
                    18.567925911374594,
                    51.21605130888303
                ]
            }
        },
        {
            "type": "Feature",
            "properties": {
                "ref:csioz": 1015012,
                "name": "\"Mgr Nowak Irena Apteka\"\"\"",
                "addr:street": "Sieradzka",
                "addr:housenumber": "39",
                "addr:city": "Wieluń",
                "addr:postcode": "98-300",
                "amenity": "pharmacy"
            },
            "geometry": {
                "type": "Point",
                "coordinates": [
                    18.5623388804876,
                    51.22610695356585
                ]
            }
        },
        {
            "type": "Feature",
            "properties": {
                "ref:csioz": 1189197,
                "name": "Bomed",
                "addr:street": "Stefana Żeromskiego",
                "addr:housenumber": "2",
                "addr:city": "Wieluń",
                "addr:postcode": "98-300",
                "amenity": "pharmacy"
            },
            "geometry": {
                "type": "Point",
                "coordinates": [
                    18.567925911374594,
                    51.21605130888303
                ]
            }
        },
        {
            "type": "Feature",
            "properties": {
                "ref:csioz": 1014160,
                "addr:housenumber": "115",
                "addr:city": "Ostrówek",
                "addr:postcode": "98-311",
                "amenity": "pharmacy"
            },
            "geometry": {
                "type": "Point",
                "coordinates": [
                    18.62269027761761,
                    51.33607895842756
                ]
            }
        },
        {
            "type": "Feature",
            "properties": {
                "ref:csioz": 1208022,
                "name": "Apteka Terczyńska-Kotarska Urszula Spółka Jawna",
                "addr:street": "Parkowa",
                "addr:housenumber": "2",
                "addr:city": "Konopnica",
                "addr:postcode": "98-313",
                "amenity": "pharmacy"
            },
            "geometry": {
                "type": "Point",
                "coordinates": [
                    18.822354921343734,
                    51.35241517568984
                ]
            }
        },
        {
            "type": "Feature",
            "properties": {
                "ref:csioz": 1230784,
                "addr:housenumber": "48A",
                "addr:city": "Szynkielów",
                "addr:postcode": "98-313",
                "amenity": "pharmacy"
            },
            "geometry": {
                "type": "Point",
                "coordinates": [
                    18.762907750445724,
                    51.344786804058906
                ]
            }
        },
        {
            "type": "Feature",
            "properties": {
                "ref:csioz": 1015762,
                "name": "Pigułka",
                "addr:housenumber": "159A",
                "addr:city": "Mierzyce",
                "addr:postcode": "98-324",
                "amenity": "pharmacy"
            },
            "geometry": {
                "type": "Point",
                "coordinates": [
                    18.698409999999907,
                    51.15087800001417
                ]
            }
        },
        {
            "type": "Feature",
            "properties": {
                "ref:csioz": 1026585,
                "addr:housenumber": "108A",
                "addr:city": "Dzietrzniki",
                "addr:postcode": "98-355",
                "amenity": "pharmacy"
            },
            "geometry": {
                "type": "Point",
                "coordinates": [
                    18.608244791212478,
                    51.11712274427323
                ]
            }
        },
        {
            "type": "Feature",
            "properties": {
                "ref:csioz": 1010434,
                "addr:housenumber": "50A",
                "addr:city": "Pątnów",
                "addr:postcode": "98-335",
                "amenity": "pharmacy"
            },
            "geometry": {
                "type": "Point",
                "coordinates": [
                    18.60992071012882,
                    51.146233872479016
                ]
            }
        }
    ]
}