{
    "type": "FeatureCollection",
    "name": "JPT_KOD_JE_1435",
    "crs": {
        "type": "name",
        "properties": {
            "name": "urn:ogc:def:crs:EPSG::4326"
        }
    },
    "features": [
        {
            "type": "Feature",
            "properties": {
                "ref:csioz": 1091316,
                "name": "Apteka Herba Dryll Spółka Jawna",
                "addr:street": "Stefana Okrzei",
                "addr:housenumber": "81A",
                "addr:city": "Wyszków",
                "addr:postcode": "07-200",
                "amenity": "pharmacy"
            },
            "geometry": {
                "type": "Point",
                "coordinates": [
                    21.447868624534898,
                    52.60003682496035
                ]
            }
        },
        {
            "type": "Feature",
            "properties": {
                "ref:csioz": 1091518,
                "name": "Dr. Max",
                "addr:street": "Generała Józefa Sowińskiego",
                "addr:housenumber": "65",
                "addr:city": "Wyszków",
                "addr:postcode": "07-200",
                "amenity": "pharmacy"
            },
            "geometry": {
                "type": "Point",
                "coordinates": [
                    21.451876277782517,
                    52.59675727134949
                ]
            }
        },
        {
            "type": "Feature",
            "properties": {
                "ref:csioz": 1091547,
                "name": "Z Aniołami",
                "addr:street": "Generała Józefa Sowińskiego",
                "addr:housenumber": "62",
                "addr:city": "Wyszków",
                "addr:postcode": "07-200",
                "amenity": "pharmacy"
            },
            "geometry": {
                "type": "Point",
                "coordinates": [
                    21.45156700000652,
                    52.59519700001645
                ]
            }
        },
        {
            "type": "Feature",
            "properties": {
                "ref:csioz": 1091713,
                "addr:street": "Królowej Jadwigi",
                "addr:housenumber": "26",
                "addr:city": "Długosiodło",
                "addr:postcode": "07-210",
                "amenity": "pharmacy"
            },
            "geometry": {
                "type": "Point",
                "coordinates": [
                    21.591515396547088,
                    52.758873641665694
                ]
            }
        },
        {
            "type": "Feature",
            "properties": {
                "ref:csioz": 1091206,
                "addr:street": "Jana Pawła II",
                "addr:housenumber": "52",
                "addr:city": "Brańszczyk",
                "addr:postcode": "07-221",
                "amenity": "pharmacy"
            },
            "geometry": {
                "type": "Point",
                "coordinates": [
                    21.588505429071027,
                    52.63018787006929
                ]
            }
        },
        {
            "type": "Feature",
            "properties": {
                "ref:csioz": 1091254,
                "addr:street": "Centralna",
                "addr:housenumber": "44",
                "addr:city": "Wyszków",
                "addr:postcode": "07-200",
                "amenity": "pharmacy"
            },
            "geometry": {
                "type": "Point",
                "coordinates": [
                    21.430197719872545,
                    52.5976237698767
                ]
            }
        },
        {
            "type": "Feature",
            "properties": {
                "ref:csioz": 1091265,
                "name": "Alta",
                "addr:street": "Ignacego Daszyńskiego",
                "addr:housenumber": "25",
                "addr:city": "Wyszków",
                "addr:postcode": "07-200",
                "amenity": "pharmacy"
            },
            "geometry": {
                "type": "Point",
                "coordinates": [
                    21.45784962653402,
                    52.59335502035162
                ]
            }
        },
        {
            "type": "Feature",
            "properties": {
                "ref:csioz": 1091287,
                "name": "Dla Ciebie",
                "addr:street": "Prosta",
                "addr:housenumber": "15",
                "addr:city": "Wyszków",
                "addr:postcode": "07-202",
                "amenity": "pharmacy"
            },
            "geometry": {
                "type": "Point",
                "coordinates": [
                    21.44831956537045,
                    52.59956693056264
                ]
            }
        },
        {
            "type": "Feature",
            "properties": {
                "ref:csioz": 1091303,
                "addr:street": "Generała Józefa Sowińskiego",
                "addr:housenumber": "63",
                "addr:city": "Wyszków",
                "addr:postcode": "07-202",
                "amenity": "pharmacy"
            },
            "geometry": {
                "type": "Point",
                "coordinates": [
                    21.451897373151603,
                    52.597238201784144
                ]
            }
        },
        {
            "type": "Feature",
            "properties": {
                "ref:csioz": 1091350,
                "name": "Dr. Max",
                "addr:street": "Prosta",
                "addr:housenumber": "2A",
                "addr:city": "Wyszków",
                "addr:postcode": "07-202",
                "amenity": "pharmacy"
            },
            "geometry": {
                "type": "Point",
                "coordinates": [
                    21.455208843986306,
                    52.60047758620407
                ]
            }
        },
        {
            "type": "Feature",
            "properties": {
                "ref:csioz": 1091369,
                "name": "Dr Max",
                "addr:street": "Centralna",
                "addr:housenumber": "10",
                "addr:city": "Wyszków",
                "addr:postcode": "07-200",
                "amenity": "pharmacy"
            },
            "geometry": {
                "type": "Point",
                "coordinates": [
                    21.436788673212913,
                    52.596730941975515
                ]
            }
        },
        {
            "type": "Feature",
            "properties": {
                "ref:csioz": 1091375,
                "name": "Dr. Optima",
                "addr:street": "Generała Józefa Sowińskiego",
                "addr:housenumber": "28",
                "addr:city": "Wyszków",
                "addr:postcode": "07-200",
                "amenity": "pharmacy"
            },
            "geometry": {
                "type": "Point",
                "coordinates": [
                    21.45035378787864,
                    52.60142327393112
                ]
            }
        },
        {
            "type": "Feature",
            "properties": {
                "ref:csioz": 1112950,
                "name": "Dziewanna",
                "addr:street": "Wyszkowska",
                "addr:housenumber": "48",
                "addr:city": "Rząśnik",
                "addr:postcode": "07-205",
                "amenity": "pharmacy"
            },
            "geometry": {
                "type": "Point",
                "coordinates": [
                    21.367283546234077,
                    52.71428713588057
                ]
            }
        },
        {
            "type": "Feature",
            "properties": {
                "ref:csioz": 1114675,
                "name": "Panacea",
                "addr:street": "gen. Władysława Sikorskiego",
                "addr:housenumber": "30",
                "addr:city": "Wyszków",
                "addr:postcode": "07-200",
                "amenity": "pharmacy"
            },
            "geometry": {
                "type": "Point",
                "coordinates": [
                    21.42531310667113,
                    52.59821732567104
                ]
            }
        },
        {
            "type": "Feature",
            "properties": {
                "ref:csioz": 1116247,
                "name": "\"Cef@Rm 36,6\"",
                "addr:street": "Adama Mickiewicza",
                "addr:housenumber": "12",
                "addr:city": "Długosiodło",
                "addr:postcode": "07-210",
                "amenity": "pharmacy"
            },
            "geometry": {
                "type": "Point",
                "coordinates": [
                    21.59177936758218,
                    52.76100268480096
                ]
            }
        },
        {
            "type": "Feature",
            "properties": {
                "ref:csioz": 1153238,
                "name": "Apteka Szpitalna",
                "addr:street": "Komisji Edukacji Narodowej",
                "addr:housenumber": "1",
                "addr:city": "Wyszków",
                "addr:postcode": "07-200",
                "amenity": "pharmacy"
            },
            "geometry": {
                "type": "Point",
                "coordinates": [
                    21.444838387528264,
                    52.58681947454674
                ]
            }
        },
        {
            "type": "Feature",
            "properties": {
                "ref:csioz": 1181672,
                "name": "Syrenka Przy Szpitalu",
                "addr:street": "Komisji Edukacji Narodowej",
                "addr:housenumber": "1",
                "addr:city": "Wyszków",
                "addr:postcode": "07-200",
                "amenity": "pharmacy"
            },
            "geometry": {
                "type": "Point",
                "coordinates": [
                    21.444838387528264,
                    52.58681947454674
                ]
            }
        },
        {
            "type": "Feature",
            "properties": {
                "ref:csioz": 1206227,
                "name": "Społeczna Na Pułtuskiej Grupa Nowa Farmacja",
                "addr:street": "Pułtuska",
                "addr:housenumber": "24A",
                "addr:city": "Wyszków",
                "addr:postcode": "07-202",
                "amenity": "pharmacy"
            },
            "geometry": {
                "type": "Point",
                "coordinates": [
                    21.453065220761797,
                    52.5957742485025
                ]
            }
        },
        {
            "type": "Feature",
            "properties": {
                "ref:csioz": 1211510,
                "name": "Gin Medicus Spółka Z Ograniczoną Odpowiedzialnością Oddziały Szpitalne",
                "addr:street": "Generała Józefa Sowińskiego",
                "addr:housenumber": "57",
                "addr:city": "Wyszków",
                "addr:postcode": "07-200",
                "amenity": "pharmacy"
            },
            "geometry": {
                "type": "Point",
                "coordinates": [
                    21.451718192874168,
                    52.598678988070134
                ]
            }
        },
        {
            "type": "Feature",
            "properties": {
                "ref:csioz": 1223677,
                "name": "Gemini",
                "addr:street": "Generała Józefa Sowińskiego",
                "addr:housenumber": "73",
                "addr:city": "Wyszków",
                "addr:postcode": "07-200",
                "amenity": "pharmacy"
            },
            "geometry": {
                "type": "Point",
                "coordinates": [
                    21.452377478935016,
                    52.59499147749905
                ]
            }
        },
        {
            "type": "Feature",
            "properties": {
                "ref:csioz": 1225146,
                "addr:housenumber": "8",
                "addr:city": "Poręba Średnia",
                "addr:postcode": "07-308",
                "amenity": "pharmacy"
            },
            "geometry": {
                "type": "Point",
                "coordinates": [
                    21.695244560082106,
                    52.686277123254065
                ]
            }
        },
        {
            "type": "Feature",
            "properties": {
                "ref:csioz": 1230755,
                "name": "Antidotum",
                "addr:housenumber": "14",
                "addr:city": "Wola Mystkowska",
                "addr:postcode": "07-206",
                "amenity": "pharmacy"
            },
            "geometry": {
                "type": "Point",
                "coordinates": [
                    21.319331092623642,
                    52.6238260279127
                ]
            }
        },
        {
            "type": "Feature",
            "properties": {
                "ref:csioz": 1091222,
                "addr:housenumber": "25B",
                "addr:city": "Somianka-Parcele",
                "addr:postcode": "07-203",
                "amenity": "pharmacy"
            },
            "geometry": {
                "type": "Point",
                "coordinates": [
                    21.29339268286991,
                    52.56094408581719
                ]
            }
        },
        {
            "type": "Feature",
            "properties": {
                "ref:csioz": 1116435,
                "name": "Antidotum",
                "addr:street": "Wł. St. Reymonta",
                "addr:housenumber": "14",
                "addr:city": "Zabrodzie",
                "addr:postcode": "07-230",
                "amenity": "pharmacy"
            },
            "geometry": {
                "type": "Point",
                "coordinates": [
                    21.42186344791464,
                    52.50756237876479
                ]
            }
        }
    ]
}