{
    "type": "FeatureCollection",
    "name": "JPT_KOD_JE_1063",
    "crs": {
        "type": "name",
        "properties": {
            "name": "urn:ogc:def:crs:EPSG::4326"
        }
    },
    "features": [
        {
            "type": "Feature",
            "properties": {
                "ref:csioz": 1010117,
                "addr:street": "Strykowska",
                "addr:housenumber": "35",
                "addr:city": "Skierniewice",
                "addr:postcode": "96-100",
                "amenity": "pharmacy"
            },
            "geometry": {
                "type": "Point",
                "coordinates": [
                    20.13777656367252,
                    51.95451173000612
                ]
            }
        },
        {
            "type": "Feature",
            "properties": {
                "ref:csioz": 1011197,
                "name": "\"Apteka \"\"Stylowa\"\"\"",
                "addr:street": "Rynek",
                "addr:housenumber": "30",
                "addr:city": "Skierniewice",
                "addr:postcode": "96-100",
                "amenity": "pharmacy"
            },
            "geometry": {
                "type": "Point",
                "coordinates": [
                    20.14261034473316,
                    51.95718151239163
                ]
            }
        },
        {
            "type": "Feature",
            "properties": {
                "ref:csioz": 1013388,
                "name": "Apteka Dbam O Zdrowie",
                "addr:street": "Cypriana Kamila Norwida",
                "addr:housenumber": "8",
                "addr:city": "Skierniewice",
                "addr:postcode": "96-100",
                "amenity": "pharmacy"
            },
            "geometry": {
                "type": "Point",
                "coordinates": [
                    20.14889219320118,
                    51.978381542076306
                ]
            }
        },
        {
            "type": "Feature",
            "properties": {
                "ref:csioz": 1018616,
                "name": "Apteka Dbam O Zdrowie",
                "addr:street": "ks. kard. Prymasa Stefana Wyszyńskiego",
                "addr:housenumber": "13/15",
                "addr:city": "Skierniewice",
                "addr:postcode": "96-100",
                "amenity": "pharmacy"
            },
            "geometry": {
                "type": "Point",
                "coordinates": [
                    20.144936158314362,
                    51.971605940551285
                ]
            }
        },
        {
            "type": "Feature",
            "properties": {
                "ref:csioz": 1021716,
                "name": "Św. Stanisława-Orkana",
                "addr:street": "Władysława Orkana",
                "addr:housenumber": "4",
                "addr:city": "Skierniewice",
                "addr:postcode": "96-100",
                "amenity": "pharmacy"
            },
            "geometry": {
                "type": "Point",
                "coordinates": [
                    20.145429335218722,
                    51.97623518959287
                ]
            }
        },
        {
            "type": "Feature",
            "properties": {
                "ref:csioz": 1180886,
                "name": "Dr. Max",
                "addr:street": "Władysława Stanisława Reymonta",
                "addr:housenumber": "8A",
                "addr:city": "Skierniewice",
                "addr:postcode": "96-100",
                "amenity": "pharmacy"
            },
            "geometry": {
                "type": "Point",
                "coordinates": [
                    20.148310991197175,
                    51.957409097783405
                ]
            }
        },
        {
            "type": "Feature",
            "properties": {
                "ref:csioz": 1009699,
                "name": "Apteka Reymonta",
                "addr:street": "Władysława Stanisława Reymonta",
                "addr:housenumber": "16",
                "addr:city": "Skierniewice",
                "addr:postcode": "96-100",
                "amenity": "pharmacy"
            },
            "geometry": {
                "type": "Point",
                "coordinates": [
                    20.14815993196869,
                    51.95921740667353
                ]
            }
        },
        {
            "type": "Feature",
            "properties": {
                "ref:csioz": 1012493,
                "name": "Malwa",
                "addr:street": "Melchiora Wańkowicza",
                "addr:housenumber": "7",
                "addr:city": "Skierniewice",
                "addr:postcode": "96-100",
                "amenity": "pharmacy"
            },
            "geometry": {
                "type": "Point",
                "coordinates": [
                    20.146409968058084,
                    51.97441692777932
                ]
            }
        },
        {
            "type": "Feature",
            "properties": {
                "ref:csioz": 1164372,
                "name": "Doz Apteka Dbam O Zdrowie",
                "addr:street": "Ogrodowa",
                "addr:housenumber": "21/23",
                "addr:city": "Skierniewice",
                "addr:postcode": "96-100",
                "amenity": "pharmacy"
            },
            "geometry": {
                "type": "Point",
                "coordinates": [
                    20.14642300000052,
                    51.95603000001541
                ]
            }
        },
        {
            "type": "Feature",
            "properties": {
                "ref:csioz": 1176821,
                "addr:street": "Mszczonowska",
                "addr:housenumber": "58A",
                "addr:city": "Skierniewice",
                "addr:postcode": "96-100",
                "amenity": "pharmacy"
            },
            "geometry": {
                "type": "Point",
                "coordinates": [
                    20.161072312803203,
                    51.953744649071574
                ]
            }
        },
        {
            "type": "Feature",
            "properties": {
                "ref:csioz": 1195344,
                "name": "Apteka Z Uśmiechem",
                "addr:street": "mjr. Henryka Sucharskiego",
                "addr:housenumber": "12",
                "addr:city": "Skierniewice",
                "addr:postcode": "96-100",
                "amenity": "pharmacy"
            },
            "geometry": {
                "type": "Point",
                "coordinates": [
                    20.178826342309005,
                    51.93799819049495
                ]
            }
        },
        {
            "type": "Feature",
            "properties": {
                "ref:csioz": 1218124,
                "name": "Apteka Społeczna Na Rawskiej Grupa Nowa Farmacja",
                "addr:street": "Rawska",
                "addr:housenumber": "2",
                "addr:city": "Skierniewice",
                "addr:postcode": "96-100",
                "amenity": "pharmacy"
            },
            "geometry": {
                "type": "Point",
                "coordinates": [
                    20.144356812415957,
                    51.955762811656356
                ]
            }
        },
        {
            "type": "Feature",
            "properties": {
                "ref:csioz": 1018193,
                "name": "Św. Stanisława",
                "addr:street": "św. Stanisława",
                "addr:housenumber": "4",
                "addr:city": "Skierniewice",
                "addr:postcode": "96-100",
                "amenity": "pharmacy"
            },
            "geometry": {
                "type": "Point",
                "coordinates": [
                    20.144809553005956,
                    51.95438014574999
                ]
            }
        },
        {
            "type": "Feature",
            "properties": {
                "ref:csioz": 1023176,
                "name": "Apteka Wita Mgr Farm. Dorota Kłossowska",
                "addr:street": "Henryka Sienkiewicza",
                "addr:housenumber": "4B",
                "addr:city": "Skierniewice",
                "addr:postcode": "96-100",
                "amenity": "pharmacy"
            },
            "geometry": {
                "type": "Point",
                "coordinates": [
                    20.146774861713872,
                    51.96264085711445
                ]
            }
        },
        {
            "type": "Feature",
            "properties": {
                "ref:csioz": 1026146,
                "name": "Apteka Rawka",
                "addr:street": "Stanisława Domarasiewicza",
                "addr:housenumber": "3/5",
                "addr:city": "Skierniewice",
                "addr:postcode": "96-100",
                "amenity": "pharmacy"
            },
            "geometry": {
                "type": "Point",
                "coordinates": [
                    20.21327243494574,
                    51.98313854101871
                ]
            }
        },
        {
            "type": "Feature",
            "properties": {
                "ref:csioz": 1013014,
                "name": "Apteka Dbam O Zdrowie",
                "addr:street": "Mikołaja Kopernika",
                "addr:housenumber": "5",
                "addr:city": "Skierniewice",
                "addr:postcode": "96-100",
                "amenity": "pharmacy"
            },
            "geometry": {
                "type": "Point",
                "coordinates": [
                    20.152362824533103,
                    51.952939345746096
                ]
            }
        },
        {
            "type": "Feature",
            "properties": {
                "ref:csioz": 1022510,
                "name": "Kopernik",
                "addr:street": "Mikołaja Kopernika",
                "addr:housenumber": "9A",
                "addr:city": "Skierniewice",
                "addr:postcode": "96-100",
                "amenity": "pharmacy"
            },
            "geometry": {
                "type": "Point",
                "coordinates": [
                    20.15257471772635,
                    51.952324409090686
                ]
            }
        },
        {
            "type": "Feature",
            "properties": {
                "ref:csioz": 1022859,
                "name": "Centrum Farmaceutyczne Apteka Słoneczna",
                "addr:street": "Rawska",
                "addr:housenumber": "15",
                "addr:city": "Skierniewice",
                "addr:postcode": "96-100",
                "amenity": "pharmacy"
            },
            "geometry": {
                "type": "Point",
                "coordinates": [
                    20.14490977426814,
                    51.95536583023982
                ]
            }
        },
        {
            "type": "Feature",
            "properties": {
                "ref:csioz": 1023097,
                "addr:street": "Armii Krajowej",
                "addr:housenumber": "33",
                "addr:city": "Skierniewice",
                "addr:postcode": "96-100",
                "amenity": "pharmacy"
            },
            "geometry": {
                "type": "Point",
                "coordinates": [
                    20.156603900173437,
                    51.98151048098309
                ]
            }
        },
        {
            "type": "Feature",
            "properties": {
                "ref:csioz": 1197182,
                "name": "Wojewódzki Szpital Zespolony",
                "addr:street": "Jana III Sobieskiego",
                "addr:housenumber": "4",
                "addr:city": "Skierniewice",
                "addr:postcode": "96-100",
                "amenity": "pharmacy"
            },
            "geometry": {
                "type": "Point",
                "coordinates": [
                    20.15380516214896,
                    51.964243918151574
                ]
            }
        },
        {
            "type": "Feature",
            "properties": {
                "ref:csioz": 1210030,
                "name": "Apteka Natura",
                "addr:street": "Nowobielańska",
                "addr:housenumber": "59A",
                "addr:city": "Skierniewice",
                "addr:postcode": "96-100",
                "amenity": "pharmacy"
            },
            "geometry": {
                "type": "Point",
                "coordinates": [
                    20.15489641848259,
                    51.977831101535806
                ]
            }
        }
    ]
}