{
    "type": "FeatureCollection",
    "name": "JPT_KOD_JE_2401",
    "crs": {
        "type": "name",
        "properties": {
            "name": "urn:ogc:def:crs:EPSG::4326"
        }
    },
    "features": [
        {
            "type": "Feature",
            "properties": {
                "ref:csioz": 1060050,
                "name": "Vita",
                "addr:street": "21 Listopada",
                "addr:housenumber": "12",
                "addr:city": "Czeladź",
                "addr:postcode": "41-250",
                "amenity": "pharmacy"
            },
            "geometry": {
                "type": "Point",
                "coordinates": [
                    19.07105912739908,
                    50.305805690535266
                ]
            }
        },
        {
            "type": "Feature",
            "properties": {
                "ref:csioz": 1071132,
                "name": "Remedium",
                "addr:street": "Jana III Sobieskiego",
                "addr:housenumber": "282",
                "addr:city": "Wojkowice",
                "addr:postcode": "42-580",
                "amenity": "pharmacy"
            },
            "geometry": {
                "type": "Point",
                "coordinates": [
                    19.037540420599356,
                    50.364834838135494
                ]
            }
        },
        {
            "type": "Feature",
            "properties": {
                "ref:csioz": 1065675,
                "name": "Gallena",
                "addr:street": "Wolności",
                "addr:housenumber": "125",
                "addr:city": "Mierzęcice",
                "addr:postcode": "42-460",
                "amenity": "pharmacy"
            },
            "geometry": {
                "type": "Point",
                "coordinates": [
                    19.123437814474702,
                    50.44326850704143
                ]
            }
        },
        {
            "type": "Feature",
            "properties": {
                "ref:csioz": 1066955,
                "name": "Apteka Dobrych Rad",
                "addr:street": "Malinowicka",
                "addr:housenumber": "6",
                "addr:city": "Psary",
                "addr:postcode": "42-512",
                "amenity": "pharmacy"
            },
            "geometry": {
                "type": "Point",
                "coordinates": [
                    19.13565200000004,
                    50.381349000013046
                ]
            }
        },
        {
            "type": "Feature",
            "properties": {
                "ref:csioz": 1073821,
                "name": "Powiatowy Zespół Zakładów Opieki Zdrowotnej",
                "addr:street": "MAŁACHOWSKIEGO",
                "addr:housenumber": "12",
                "addr:city": "BĘDZIN",
                "addr:postcode": "42-500",
                "amenity": "pharmacy"
            },
            "geometry": {
                "type": "Point",
                "coordinates": [
                    19.132734897367747,
                    50.324056948212444
                ]
            }
        },
        {
            "type": "Feature",
            "properties": {
                "ref:csioz": 1170196,
                "name": "Zakład Opiekuńczo Leczniczy Przy Domu Św. Józefa",
                "addr:street": "Stawowa",
                "addr:housenumber": "26",
                "addr:city": "Będzin",
                "addr:postcode": "41-300",
                "amenity": "pharmacy"
            },
            "geometry": {
                "type": "Point",
                "coordinates": [
                    19.15137486384368,
                    50.32416947737473
                ]
            }
        },
        {
            "type": "Feature",
            "properties": {
                "ref:csioz": 1180375,
                "name": "Doz Apteka Dbam O Zdrowie Zdro-Vita",
                "addr:street": "Siemońska",
                "addr:housenumber": "11",
                "addr:city": "Będzin",
                "addr:postcode": "42-500",
                "amenity": "pharmacy"
            },
            "geometry": {
                "type": "Point",
                "coordinates": [
                    19.160655000000045,
                    50.32663300001296
                ]
            }
        },
        {
            "type": "Feature",
            "properties": {
                "ref:csioz": 1182433,
                "name": "Doz Apteka Dbam O Zdrowie",
                "addr:street": "Piłsudskiego",
                "addr:housenumber": "21",
                "addr:city": "Będzin",
                "addr:postcode": "42-500",
                "amenity": "pharmacy"
            },
            "geometry": {
                "type": "Point",
                "coordinates": [
                    19.13136678777374,
                    50.32151553038559
                ]
            }
        },
        {
            "type": "Feature",
            "properties": {
                "ref:csioz": 1185867,
                "name": "Remedium Ii",
                "addr:street": "PCK",
                "addr:housenumber": "1",
                "addr:city": "Wojkowice",
                "addr:postcode": "42-580",
                "amenity": "pharmacy"
            },
            "geometry": {
                "type": "Point",
                "coordinates": [
                    19.042780756351355,
                    50.36182393685658
                ]
            }
        },
        {
            "type": "Feature",
            "properties": {
                "ref:csioz": 1189216,
                "name": "Doz Apteka Dbam O Zdrowie Zdro-Vita",
                "addr:street": "1 Maja",
                "addr:housenumber": "1",
                "addr:city": "Będzin",
                "addr:postcode": "42-500",
                "amenity": "pharmacy"
            },
            "geometry": {
                "type": "Point",
                "coordinates": [
                    19.13729641563956,
                    50.31981513432903
                ]
            }
        },
        {
            "type": "Feature",
            "properties": {
                "ref:csioz": 1191246,
                "name": "\"Centrum Opieki Długoterminowej 'Joanna'\"",
                "addr:street": "Osiedle",
                "addr:housenumber": "76",
                "addr:city": "Mierzęcice",
                "addr:postcode": "42-460",
                "amenity": "pharmacy"
            },
            "geometry": {
                "type": "Point",
                "coordinates": [
                    19.093215273544462,
                    50.45898546244464
                ]
            }
        },
        {
            "type": "Feature",
            "properties": {
                "ref:csioz": 1210183,
                "name": "Apteka Dobrych Rad",
                "addr:street": "Jana III Sobieskiego",
                "addr:housenumber": "294",
                "addr:flats": "a",
                "addr:city": "Wojkowice",
                "addr:postcode": "42-580",
                "amenity": "pharmacy"
            },
            "geometry": {
                "type": "Point",
                "coordinates": [
                    19.03125660502844,
                    50.36662539079717
                ]
            }
        },
        {
            "type": "Feature",
            "properties": {
                "ref:csioz": 1210872,
                "name": "Dr. Max",
                "addr:street": "11 Listopada",
                "addr:housenumber": "10",
                "addr:city": "Będzin",
                "addr:postcode": "42-500",
                "amenity": "pharmacy"
            },
            "geometry": {
                "type": "Point",
                "coordinates": [
                    19.131178489012065,
                    50.32055783490511
                ]
            }
        },
        {
            "type": "Feature",
            "properties": {
                "ref:csioz": 1211991,
                "name": "Apteka Galen",
                "addr:street": "Gabriela Narutowicza",
                "addr:housenumber": "5",
                "addr:city": "Będzin",
                "addr:postcode": "42-500",
                "amenity": "pharmacy"
            },
            "geometry": {
                "type": "Point",
                "coordinates": [
                    19.109907466164366,
                    50.32116840795472
                ]
            }
        },
        {
            "type": "Feature",
            "properties": {
                "ref:csioz": 1217441,
                "name": "Apteka Będzińska",
                "addr:street": "Niepodległości",
                "addr:housenumber": "1",
                "addr:city": "Będzin",
                "addr:postcode": "42-504",
                "amenity": "pharmacy"
            },
            "geometry": {
                "type": "Point",
                "coordinates": [
                    19.135394845287497,
                    50.34751147255776
                ]
            }
        },
        {
            "type": "Feature",
            "properties": {
                "ref:csioz": 1228121,
                "name": "Dział Farmacji Szpitalnej",
                "addr:street": "Szkolna",
                "addr:housenumber": "12",
                "addr:city": "Brudzowice",
                "addr:postcode": "42-470",
                "amenity": "pharmacy"
            },
            "geometry": {
                "type": "Point",
                "coordinates": [
                    19.193396864528907,
                    50.49838293575927
                ]
            }
        },
        {
            "type": "Feature",
            "properties": {
                "ref:csioz": 1228982,
                "addr:street": "Pocztowa",
                "addr:housenumber": "1",
                "addr:city": "Sączów",
                "addr:postcode": "42-595",
                "amenity": "pharmacy"
            },
            "geometry": {
                "type": "Point",
                "coordinates": [
                    19.03599600000001,
                    50.439148000013134
                ]
            }
        },
        {
            "type": "Feature",
            "properties": {
                "ref:csioz": 1230172,
                "name": "Zdrówko",
                "addr:street": "Kościuszki",
                "addr:housenumber": "51",
                "addr:city": "Dobieszowice",
                "addr:postcode": "42-584",
                "amenity": "pharmacy"
            },
            "geometry": {
                "type": "Point",
                "coordinates": [
                    19.005314627316327,
                    50.39495730528018
                ]
            }
        },
        {
            "type": "Feature",
            "properties": {
                "ref:csioz": 1068864,
                "name": "Doz Apteka Dbam O Zdrowie",
                "addr:street": "Rynek",
                "addr:housenumber": "21",
                "addr:city": "Sławków",
                "addr:postcode": "41-260",
                "amenity": "pharmacy"
            },
            "geometry": {
                "type": "Point",
                "coordinates": [
                    19.3875319387755,
                    50.29858115303905
                ]
            }
        },
        {
            "type": "Feature",
            "properties": {
                "ref:csioz": 1068878,
                "name": "Brak Nazwy",
                "addr:street": "Rynek",
                "addr:housenumber": "27",
                "addr:city": "Sławków",
                "addr:postcode": "41-260",
                "amenity": "pharmacy"
            },
            "geometry": {
                "type": "Point",
                "coordinates": [
                    19.38815100000011,
                    50.29896300001293
                ]
            }
        },
        {
            "type": "Feature",
            "properties": {
                "ref:csioz": 1212863,
                "addr:street": "ul. Rynek",
                "addr:housenumber": "33",
                "addr:city": "Sławków",
                "addr:postcode": "41-260",
                "amenity": "pharmacy"
            },
            "geometry": {
                "type": "Point",
                "coordinates": [
                    19.388909620548883,
                    50.29875638912107
                ]
            }
        },
        {
            "type": "Feature",
            "properties": {
                "ref:csioz": 1057457,
                "name": "Pharmakon",
                "addr:street": "rtm. Witolda Pileckiego",
                "addr:housenumber": "15",
                "addr:city": "Będzin",
                "addr:postcode": "42-500",
                "amenity": "pharmacy"
            },
            "geometry": {
                "type": "Point",
                "coordinates": [
                    19.1560544570948,
                    50.31944349680157
                ]
            }
        },
        {
            "type": "Feature",
            "properties": {
                "ref:csioz": 1057461,
                "name": "Brak Nazwy",
                "addr:street": "bp. Adama Śmigielskiego",
                "addr:housenumber": "2",
                "addr:city": "Będzin",
                "addr:postcode": "42-500",
                "amenity": "pharmacy"
            },
            "geometry": {
                "type": "Point",
                "coordinates": [
                    19.116247725816038,
                    50.31965914737573
                ]
            }
        },
        {
            "type": "Feature",
            "properties": {
                "ref:csioz": 1057500,
                "name": "Apteka Dbam O Zdrowie",
                "addr:street": "Stanisława Małachowskiego",
                "addr:housenumber": "40",
                "addr:city": "Będzin",
                "addr:postcode": "42-500",
                "amenity": "pharmacy"
            },
            "geometry": {
                "type": "Point",
                "coordinates": [
                    19.134045602995815,
                    50.321426378905095
                ]
            }
        },
        {
            "type": "Feature",
            "properties": {
                "ref:csioz": 1057521,
                "name": "Apteka Polska",
                "addr:street": "Modrzejowska",
                "addr:housenumber": "27",
                "addr:city": "Będzin",
                "addr:postcode": "42-500",
                "amenity": "pharmacy"
            },
            "geometry": {
                "type": "Point",
                "coordinates": [
                    19.131509000000037,
                    50.32449600001298
                ]
            }
        },
        {
            "type": "Feature",
            "properties": {
                "ref:csioz": 1057568,
                "name": "Doz Apteka Dbam O Zdrowie",
                "addr:street": "Józefa Piłsudskiego",
                "addr:housenumber": "83",
                "addr:city": "Będzin",
                "addr:postcode": "42-500",
                "amenity": "pharmacy"
            },
            "geometry": {
                "type": "Point",
                "coordinates": [
                    19.117894209400152,
                    50.3157915258162
                ]
            }
        },
        {
            "type": "Feature",
            "properties": {
                "ref:csioz": 1057653,
                "name": "Syberka",
                "addr:street": "Zwycięstwa",
                "addr:housenumber": "30",
                "addr:city": "Będzin",
                "addr:postcode": "42-500",
                "amenity": "pharmacy"
            },
            "geometry": {
                "type": "Point",
                "coordinates": [
                    19.120219081493914,
                    50.32344118374727
                ]
            }
        },
        {
            "type": "Feature",
            "properties": {
                "ref:csioz": 1057689,
                "name": "Doz Apteka Dbam O Zdrowie",
                "addr:street": "Żwirki i Wigury",
                "addr:housenumber": "16",
                "addr:city": "Będzin",
                "addr:postcode": "42-500",
                "amenity": "pharmacy"
            },
            "geometry": {
                "type": "Point",
                "coordinates": [
                    19.155480898829687,
                    50.327186538651176
                ]
            }
        },
        {
            "type": "Feature",
            "properties": {
                "ref:csioz": 1174262,
                "name": "Łagisza",
                "addr:street": "Pokoju",
                "addr:housenumber": "32",
                "addr:city": "Będzin",
                "addr:postcode": "42-504",
                "amenity": "pharmacy"
            },
            "geometry": {
                "type": "Point",
                "coordinates": [
                    19.13890834949378,
                    50.35288202937288
                ]
            }
        },
        {
            "type": "Feature",
            "properties": {
                "ref:csioz": 1174838,
                "name": "Apteka Słoneczna",
                "addr:street": "Stanisława Małachowskiego",
                "addr:housenumber": "62",
                "addr:city": "Będzin",
                "addr:postcode": "42-500",
                "amenity": "pharmacy"
            },
            "geometry": {
                "type": "Point",
                "coordinates": [
                    19.13453190042698,
                    50.31987414255219
                ]
            }
        },
        {
            "type": "Feature",
            "properties": {
                "ref:csioz": 1185473,
                "name": "Apteka 4 Pory Roku",
                "addr:street": "Józefa Bema",
                "addr:housenumber": "1A",
                "addr:city": "Będzin",
                "addr:postcode": "42-500",
                "amenity": "pharmacy"
            },
            "geometry": {
                "type": "Point",
                "coordinates": [
                    19.134291324480923,
                    50.31846992435938
                ]
            }
        },
        {
            "type": "Feature",
            "properties": {
                "ref:csioz": 1204913,
                "name": "\"Nzoz 'Pro-Femina' Piotr Piech I In. Spółka Jawna - Chirurgia Krótkoterminowa\"",
                "addr:street": "Krośnieńska",
                "addr:housenumber": "1",
                "addr:city": "Będzin",
                "addr:postcode": "42-500",
                "amenity": "pharmacy"
            },
            "geometry": {
                "type": "Point",
                "coordinates": [
                    19.115016000000026,
                    50.332853000012975
                ]
            }
        },
        {
            "type": "Feature",
            "properties": {
                "ref:csioz": 1057559,
                "name": "Apteka Blisko Ciebie",
                "addr:street": "Józefa Piłsudskiego",
                "addr:housenumber": "25 A",
                "addr:city": "Będzin",
                "addr:postcode": "42-500",
                "amenity": "pharmacy"
            },
            "geometry": {
                "type": "Point",
                "coordinates": [
                    19.13016600000003,
                    50.32118500001295
                ]
            }
        },
        {
            "type": "Feature",
            "properties": {
                "ref:csioz": 1122717,
                "name": "Szpital Inter-Med Spółka Cywilna",
                "addr:street": "Ignacego Krasickiego",
                "addr:housenumber": "14",
                "addr:city": "Będzin",
                "addr:postcode": "42-500",
                "amenity": "pharmacy"
            },
            "geometry": {
                "type": "Point",
                "coordinates": [
                    19.13124330995269,
                    50.31611899247488
                ]
            }
        },
        {
            "type": "Feature",
            "properties": {
                "ref:csioz": 1184698,
                "name": "Apteka Gwiezdna",
                "addr:street": "H. Kołłątaja",
                "addr:housenumber": "104",
                "addr:city": "Będzin",
                "addr:postcode": "42-500",
                "amenity": "pharmacy"
            },
            "geometry": {
                "type": "Point",
                "coordinates": [
                    19.157138115002855,
                    50.32157558787015
                ]
            }
        },
        {
            "type": "Feature",
            "properties": {
                "ref:csioz": 1208966,
                "name": "Apovita",
                "addr:street": "Pokoju",
                "addr:housenumber": "14",
                "addr:city": "Będzin",
                "addr:postcode": "42-504",
                "amenity": "pharmacy"
            },
            "geometry": {
                "type": "Point",
                "coordinates": [
                    19.136990000000047,
                    50.34838800001299
                ]
            }
        },
        {
            "type": "Feature",
            "properties": {
                "ref:csioz": 1228385,
                "name": "Centrum",
                "addr:street": "Stanisława Małachowskiego",
                "addr:housenumber": "9",
                "addr:city": "Będzin",
                "addr:postcode": "42-500",
                "amenity": "pharmacy"
            },
            "geometry": {
                "type": "Point",
                "coordinates": [
                    19.133849190751693,
                    50.322887327328644
                ]
            }
        },
        {
            "type": "Feature",
            "properties": {
                "ref:csioz": 1057615,
                "name": "Kaliska",
                "addr:street": "Wojska Polskiego",
                "addr:housenumber": "6",
                "addr:city": "Będzin",
                "addr:postcode": "42-506",
                "amenity": "pharmacy"
            },
            "geometry": {
                "type": "Point",
                "coordinates": [
                    19.09093940347915,
                    50.34942378713295
                ]
            }
        },
        {
            "type": "Feature",
            "properties": {
                "ref:csioz": 1057628,
                "name": "Arnika",
                "addr:street": "mjr. Bolesława Zagórnego",
                "addr:housenumber": "12",
                "addr:city": "Będzin",
                "addr:postcode": "42-506",
                "amenity": "pharmacy"
            },
            "geometry": {
                "type": "Point",
                "coordinates": [
                    19.086183176460732,
                    50.35061742769124
                ]
            }
        },
        {
            "type": "Feature",
            "properties": {
                "ref:csioz": 1057631,
                "name": "Grodziecka",
                "addr:street": "mjr. Bolesława Zagórnego",
                "addr:housenumber": "21b",
                "addr:city": "BĘDZIN",
                "addr:postcode": "42-506",
                "amenity": "pharmacy"
            },
            "geometry": {
                "type": "Point",
                "coordinates": [
                    19.084431512844592,
                    50.35003197973719
                ]
            }
        },
        {
            "type": "Feature",
            "properties": {
                "ref:csioz": 1060069,
                "name": "Osiedlowa",
                "addr:street": "Niepodległości",
                "addr:housenumber": "1 A",
                "addr:city": "CZELADŹ",
                "addr:postcode": "41-250",
                "amenity": "pharmacy"
            },
            "geometry": {
                "type": "Point",
                "coordinates": [
                    19.063765598611678,
                    50.31798177235507
                ]
            }
        },
        {
            "type": "Feature",
            "properties": {
                "ref:csioz": 1060075,
                "name": "Europejska Ii",
                "addr:street": "Będzińska",
                "addr:housenumber": "80",
                "addr:city": "Czeladź",
                "addr:postcode": "41-250",
                "amenity": "pharmacy"
            },
            "geometry": {
                "type": "Point",
                "coordinates": [
                    19.10372182386258,
                    50.321256358261316
                ]
            }
        },
        {
            "type": "Feature",
            "properties": {
                "ref:csioz": 1060088,
                "name": "Staromiejska",
                "addr:street": "Bytomska",
                "addr:housenumber": "13",
                "addr:city": "Czeladź",
                "addr:postcode": "41-250",
                "amenity": "pharmacy"
            },
            "geometry": {
                "type": "Point",
                "coordinates": [
                    19.0699606086152,
                    50.31905027613999
                ]
            }
        },
        {
            "type": "Feature",
            "properties": {
                "ref:csioz": 1060091,
                "name": "Apteka Vitaminka",
                "addr:street": "Dehnelów",
                "addr:housenumber": "35",
                "addr:city": "Czeladź",
                "addr:postcode": "41-250",
                "amenity": "pharmacy"
            },
            "geometry": {
                "type": "Point",
                "coordinates": [
                    19.066074692553684,
                    50.30685713723974
                ]
            }
        },
        {
            "type": "Feature",
            "properties": {
                "ref:csioz": 1060109,
                "name": "Apteka Dbam O Zdrowie",
                "addr:street": "Rynek",
                "addr:housenumber": "24",
                "addr:city": "Czeladź",
                "addr:postcode": "41-250",
                "amenity": "pharmacy"
            },
            "geometry": {
                "type": "Point",
                "coordinates": [
                    19.074177531876206,
                    50.31866829022592
                ]
            }
        },
        {
            "type": "Feature",
            "properties": {
                "ref:csioz": 1060167,
                "name": "Apteka Blisko Ciebie",
                "addr:street": "Zwycięstwa",
                "addr:housenumber": "38A",
                "addr:city": "Czeladź",
                "addr:postcode": "41-253",
                "amenity": "pharmacy"
            },
            "geometry": {
                "type": "Point",
                "coordinates": [
                    19.09521489613926,
                    50.30487607790776
                ]
            }
        },
        {
            "type": "Feature",
            "properties": {
                "ref:csioz": 1174653,
                "name": "Apteka Zdrowit",
                "addr:street": "Szpitalna",
                "addr:housenumber": "11",
                "addr:city": "Czeladź",
                "addr:postcode": "41-250",
                "amenity": "pharmacy"
            },
            "geometry": {
                "type": "Point",
                "coordinates": [
                    19.070959523903237,
                    50.32174114369897
                ]
            }
        },
        {
            "type": "Feature",
            "properties": {
                "ref:csioz": 1214919,
                "name": "Apteka Blisko Ciebie",
                "addr:street": "Nowopogońska",
                "addr:housenumber": "227i",
                "addr:city": "Czeladź",
                "addr:postcode": "41-253",
                "amenity": "pharmacy"
            },
            "geometry": {
                "type": "Point",
                "coordinates": [
                    19.097351284939993,
                    50.30308436331589
                ]
            }
        },
        {
            "type": "Feature",
            "properties": {
                "ref:csioz": 1060114,
                "name": "Brak Nazwy",
                "addr:street": "Spacerowa",
                "addr:housenumber": "4",
                "addr:city": "Czeladź",
                "addr:postcode": "41-253",
                "amenity": "pharmacy"
            },
            "geometry": {
                "type": "Point",
                "coordinates": [
                    19.10200971726579,
                    50.30161345302578
                ]
            }
        },
        {
            "type": "Feature",
            "properties": {
                "ref:csioz": 1111602,
                "name": "Dr. Max",
                "addr:street": "Szpitalna",
                "addr:housenumber": "7",
                "addr:city": "Czeladź",
                "addr:postcode": "41-250",
                "amenity": "pharmacy"
            },
            "geometry": {
                "type": "Point",
                "coordinates": [
                    19.07006524298921,
                    50.32097025718231
                ]
            }
        },
        {
            "type": "Feature",
            "properties": {
                "ref:csioz": 1223500,
                "name": "Panaceum",
                "addr:street": "Ludwika Waryńskiego",
                "addr:housenumber": "8 A",
                "addr:city": "Czeladź",
                "addr:postcode": "41-250",
                "amenity": "pharmacy"
            },
            "geometry": {
                "type": "Point",
                "coordinates": [
                    19.077166724675887,
                    50.32406183062573
                ]
            }
        },
        {
            "type": "Feature",
            "properties": {
                "ref:csioz": 1058635,
                "name": "Primus",
                "addr:street": "Szkolna",
                "addr:housenumber": "12",
                "addr:city": "Brudzowice",
                "addr:postcode": "42-470",
                "amenity": "pharmacy"
            },
            "geometry": {
                "type": "Point",
                "coordinates": [
                    19.193396864528907,
                    50.49838293575927
                ]
            }
        },
        {
            "type": "Feature",
            "properties": {
                "ref:csioz": 1065688,
                "name": "Apteka Moje Zdrowie",
                "addr:street": "WOLNOŚCI",
                "addr:housenumber": "137",
                "addr:city": "MIERZĘCICE",
                "addr:postcode": "42-460",
                "amenity": "pharmacy"
            },
            "geometry": {
                "type": "Point",
                "coordinates": [
                    19.1195405487111,
                    50.444200687458775
                ]
            }
        },
        {
            "type": "Feature",
            "properties": {
                "ref:csioz": 1068699,
                "name": "Apteka Dobrych Rad",
                "addr:street": "Mikołaja Kopernika",
                "addr:housenumber": "2",
                "addr:city": "Siewierz",
                "addr:postcode": "42-470",
                "amenity": "pharmacy"
            },
            "geometry": {
                "type": "Point",
                "coordinates": [
                    19.237998000000072,
                    50.46906500001316
                ]
            }
        },
        {
            "type": "Feature",
            "properties": {
                "ref:csioz": 1068700,
                "name": "Brak Nazwy",
                "addr:street": "marsz. Józefa Piłsudskiego",
                "addr:housenumber": "4",
                "addr:city": "Siewierz",
                "addr:postcode": "42-470",
                "amenity": "pharmacy"
            },
            "geometry": {
                "type": "Point",
                "coordinates": [
                    19.23651258746543,
                    50.46930569852781
                ]
            }
        },
        {
            "type": "Feature",
            "properties": {
                "ref:csioz": 1072733,
                "name": "Wrzos",
                "addr:street": "Zwycięstwa",
                "addr:housenumber": "2",
                "addr:city": "Gródków",
                "addr:postcode": "42-575",
                "amenity": "pharmacy"
            },
            "geometry": {
                "type": "Point",
                "coordinates": [
                    19.102962338540898,
                    50.372179441717854
                ]
            }
        },
        {
            "type": "Feature",
            "properties": {
                "ref:csioz": 1068713,
                "name": "Farma Vit",
                "addr:street": "Rynek",
                "addr:housenumber": "1",
                "addr:city": "Siewierz",
                "addr:postcode": "42-470",
                "amenity": "pharmacy"
            },
            "geometry": {
                "type": "Point",
                "coordinates": [
                    19.23726001528983,
                    50.46825579567149
                ]
            }
        },
        {
            "type": "Feature",
            "properties": {
                "ref:csioz": 1068721,
                "name": "Medicus",
                "addr:street": "Żwirki i Wigury",
                "addr:housenumber": "16",
                "addr:city": "Siewierz",
                "addr:postcode": "42-470",
                "amenity": "pharmacy"
            },
            "geometry": {
                "type": "Point",
                "coordinates": [
                    19.236893184008725,
                    50.47431393192577
                ]
            }
        },
        {
            "type": "Feature",
            "properties": {
                "ref:csioz": 1214190,
                "name": "Punkt Apteczny Moje Zdrowie",
                "addr:street": "Kościuszki",
                "addr:housenumber": "49A",
                "addr:city": "Siemonia",
                "addr:postcode": "42-595",
                "amenity": "pharmacy"
            },
            "geometry": {
                "type": "Point",
                "coordinates": [
                    19.05867130254639,
                    50.42073816813451
                ]
            }
        },
        {
            "type": "Feature",
            "properties": {
                "ref:csioz": 1220704,
                "name": "Apteka Dobrych Rad",
                "addr:street": "Kościuszki",
                "addr:housenumber": "220B",
                "addr:city": "Rogoźnik",
                "addr:postcode": "42-582",
                "amenity": "pharmacy"
            },
            "geometry": {
                "type": "Point",
                "coordinates": [
                    19.03033582324375,
                    50.39122738644619
                ]
            }
        },
        {
            "type": "Feature",
            "properties": {
                "ref:csioz": 1225561,
                "addr:street": "Zbigniewa Oleśnickiego",
                "addr:housenumber": "21",
                "addr:city": "Siewierz",
                "addr:postcode": "42-470",
                "amenity": "pharmacy"
            },
            "geometry": {
                "type": "Point",
                "coordinates": [
                    19.24003547870479,
                    50.474209104725595
                ]
            }
        }
    ]
}