{
    "type": "FeatureCollection",
    "name": "JPT_KOD_JE_2803",
    "crs": {
        "type": "name",
        "properties": {
            "name": "urn:ogc:def:crs:EPSG::4326"
        }
    },
    "features": [
        {
            "type": "Feature",
            "properties": {
                "ref:csioz": 1014243,
                "name": "Flos",
                "addr:street": "Wolności",
                "addr:housenumber": "2E",
                "addr:city": "Stare Dłutowo",
                "addr:postcode": "13-203",
                "amenity": "pharmacy"
            },
            "geometry": {
                "type": "Point",
                "coordinates": [
                    19.958422379038378,
                    53.18751548974052
                ]
            }
        },
        {
            "type": "Feature",
            "properties": {
                "ref:csioz": 1016619,
                "addr:housenumber": "68",
                "addr:city": "Ruszkowo",
                "addr:postcode": "13-214",
                "amenity": "pharmacy"
            },
            "geometry": {
                "type": "Point",
                "coordinates": [
                    20.123343042261734,
                    53.38374410650256
                ]
            }
        },
        {
            "type": "Feature",
            "properties": {
                "ref:csioz": 1039061,
                "addr:street": "Norwida",
                "addr:housenumber": "21A",
                "addr:city": "Działdowo",
                "addr:postcode": "13-200",
                "amenity": "pharmacy"
            },
            "geometry": {
                "type": "Point",
                "coordinates": [
                    20.180599154397097,
                    53.24034139254118
                ]
            }
        },
        {
            "type": "Feature",
            "properties": {
                "ref:csioz": 1039073,
                "addr:street": "Pocztowa",
                "addr:housenumber": "9A",
                "addr:city": "Działdowo",
                "addr:postcode": "13-200",
                "amenity": "pharmacy"
            },
            "geometry": {
                "type": "Point",
                "coordinates": [
                    20.17589685205729,
                    53.23370013843785
                ]
            }
        },
        {
            "type": "Feature",
            "properties": {
                "ref:csioz": 1039332,
                "addr:street": "Zieluńska",
                "addr:housenumber": "42F",
                "addr:city": "Lidzbark",
                "addr:postcode": "13-230",
                "amenity": "pharmacy"
            },
            "geometry": {
                "type": "Point",
                "coordinates": [
                    19.821576552368054,
                    53.25420064168401
                ]
            }
        },
        {
            "type": "Feature",
            "properties": {
                "ref:csioz": 1039694,
                "addr:street": "Lipowa",
                "addr:housenumber": "2",
                "addr:city": "Płośnica",
                "addr:postcode": "13-206",
                "amenity": "pharmacy"
            },
            "geometry": {
                "type": "Point",
                "coordinates": [
                    20.00886145664123,
                    53.27240296444722
                ]
            }
        },
        {
            "type": "Feature",
            "properties": {
                "ref:csioz": 1039743,
                "name": "Pod Miłorzębem",
                "addr:street": "Zajeziorna",
                "addr:housenumber": "60",
                "addr:city": "Rybno",
                "addr:postcode": "13-220",
                "amenity": "pharmacy"
            },
            "geometry": {
                "type": "Point",
                "coordinates": [
                    19.926219128006938,
                    53.383269524866414
                ]
            }
        },
        {
            "type": "Feature",
            "properties": {
                "ref:csioz": 1041985,
                "addr:street": "Leśna",
                "addr:housenumber": "1",
                "addr:city": "DZIAŁDOWO",
                "addr:postcode": "13-200",
                "amenity": "pharmacy"
            },
            "geometry": {
                "type": "Point",
                "coordinates": [
                    20.19342450310823,
                    53.24184748542687
                ]
            }
        },
        {
            "type": "Feature",
            "properties": {
                "ref:csioz": 1171181,
                "name": "Dla Ciebie",
                "addr:street": "Nowy Rynek",
                "addr:housenumber": "2",
                "addr:city": "Lidzbark",
                "addr:postcode": "13-230",
                "amenity": "pharmacy"
            },
            "geometry": {
                "type": "Point",
                "coordinates": [
                    19.82344248121679,
                    53.261780795382506
                ]
            }
        },
        {
            "type": "Feature",
            "properties": {
                "ref:csioz": 1175386,
                "name": "Apteka Pharma-Land",
                "addr:street": "Władysława Jagiełły",
                "addr:housenumber": "22",
                "addr:city": "Działdowo",
                "addr:postcode": "13-200",
                "amenity": "pharmacy"
            },
            "geometry": {
                "type": "Point",
                "coordinates": [
                    20.176168306023573,
                    53.23441825291416
                ]
            }
        },
        {
            "type": "Feature",
            "properties": {
                "ref:csioz": 1184569,
                "name": "Doz Apteka. Dbam O Zdrowie",
                "addr:street": "Jeleńska",
                "addr:housenumber": "23",
                "addr:city": "Lidzbark",
                "addr:postcode": "13-230",
                "amenity": "pharmacy"
            },
            "geometry": {
                "type": "Point",
                "coordinates": [
                    19.82805570143862,
                    53.26636944264051
                ]
            }
        },
        {
            "type": "Feature",
            "properties": {
                "ref:csioz": 1209353,
                "name": "Dr.Max",
                "addr:street": "Nidzicka",
                "addr:housenumber": "10",
                "addr:city": "Działdowo",
                "addr:postcode": "13-200",
                "amenity": "pharmacy"
            },
            "geometry": {
                "type": "Point",
                "coordinates": [
                    20.18798579049993,
                    53.242246434629806
                ]
            }
        },
        {
            "type": "Feature",
            "properties": {
                "ref:csioz": 1215966,
                "name": "Solaris",
                "addr:street": "Wyzwolenia",
                "addr:housenumber": "4",
                "addr:city": "Iłowo-Osada",
                "addr:postcode": "13-240",
                "amenity": "pharmacy"
            },
            "geometry": {
                "type": "Point",
                "coordinates": [
                    20.29336716429681,
                    53.16783348883009
                ]
            }
        },
        {
            "type": "Feature",
            "properties": {
                "ref:csioz": 1039057,
                "addr:street": "Nidzicka",
                "addr:housenumber": "36",
                "addr:city": "Działdowo",
                "addr:postcode": "13-200",
                "amenity": "pharmacy"
            },
            "geometry": {
                "type": "Point",
                "coordinates": [
                    20.18846632015659,
                    53.24328593376472
                ]
            }
        },
        {
            "type": "Feature",
            "properties": {
                "ref:csioz": 1039012,
                "name": "Manada",
                "addr:street": "ks. kard. Stefana Wyszyńskiego",
                "addr:housenumber": "23",
                "addr:city": "Działdowo",
                "addr:postcode": "13-200",
                "amenity": "pharmacy"
            },
            "geometry": {
                "type": "Point",
                "coordinates": [
                    20.181772891902273,
                    53.23671181694812
                ]
            }
        },
        {
            "type": "Feature",
            "properties": {
                "ref:csioz": 1039020,
                "name": "Moja Apteka",
                "addr:street": "Władysława Jagiełły",
                "addr:housenumber": "26",
                "addr:city": "Działdowo",
                "addr:postcode": "13-200",
                "amenity": "pharmacy"
            },
            "geometry": {
                "type": "Point",
                "coordinates": [
                    20.174924472413647,
                    53.23499853950546
                ]
            }
        },
        {
            "type": "Feature",
            "properties": {
                "ref:csioz": 1039127,
                "addr:street": "Jagiellońska",
                "addr:housenumber": "2",
                "addr:city": "Iłowo-Osada",
                "addr:postcode": "13-240",
                "amenity": "pharmacy"
            },
            "geometry": {
                "type": "Point",
                "coordinates": [
                    20.291541355246835,
                    53.165262754554576
                ]
            }
        },
        {
            "type": "Feature",
            "properties": {
                "ref:csioz": 1039310,
                "name": "\"Staromiejska, Green Cross\"",
                "addr:street": "gen. Józefa Hallera",
                "addr:housenumber": "10",
                "addr:city": "Lidzbark",
                "addr:postcode": "13-230",
                "amenity": "pharmacy"
            },
            "geometry": {
                "type": "Point",
                "coordinates": [
                    19.822515242713713,
                    53.26315781800567
                ]
            }
        },
        {
            "type": "Feature",
            "properties": {
                "ref:csioz": 1039329,
                "addr:street": "Zieluńska",
                "addr:housenumber": "3",
                "addr:city": "Lidzbark",
                "addr:postcode": "13-230",
                "amenity": "pharmacy"
            },
            "geometry": {
                "type": "Point",
                "coordinates": [
                    19.82137942827746,
                    53.25987489467291
                ]
            }
        },
        {
            "type": "Feature",
            "properties": {
                "ref:csioz": 1114650,
                "name": "Manada Ii",
                "addr:street": "Leśna",
                "addr:housenumber": "13D",
                "addr:city": "Działdowo",
                "addr:postcode": "13-200",
                "amenity": "pharmacy"
            },
            "geometry": {
                "type": "Point",
                "coordinates": [
                    20.19955175929945,
                    53.241569318345086
                ]
            }
        },
        {
            "type": "Feature",
            "properties": {
                "ref:csioz": 1176002,
                "name": "Lubczyk",
                "addr:housenumber": "92",
                "addr:city": "Niechłonin",
                "addr:postcode": "13-206",
                "amenity": "pharmacy"
            },
            "geometry": {
                "type": "Point",
                "coordinates": [
                    20.044870058886787,
                    53.177399350314076
                ]
            }
        },
        {
            "type": "Feature",
            "properties": {
                "ref:csioz": 1206787,
                "name": "Apteka Społeczna Na Placu Mickiewicza Grupa Nowa Farmacja",
                "addr:street": "Mickiewicza",
                "addr:housenumber": "34",
                "addr:city": "Działdowo",
                "addr:postcode": "13-200",
                "amenity": "pharmacy"
            },
            "geometry": {
                "type": "Point",
                "coordinates": [
                    20.178878992694564,
                    53.23358898456312
                ]
            }
        },
        {
            "type": "Feature",
            "properties": {
                "ref:csioz": 1208200,
                "name": "Manada Iii",
                "addr:street": "Marii Zientary-Malewskiej",
                "addr:housenumber": "2",
                "addr:city": "Działdowo",
                "addr:postcode": "13-200",
                "amenity": "pharmacy"
            },
            "geometry": {
                "type": "Point",
                "coordinates": [
                    20.189050229223238,
                    53.24317786981507
                ]
            }
        },
        {
            "type": "Feature",
            "properties": {
                "ref:csioz": 1214496,
                "name": "\"Apteka Dobra, Green Cross\"",
                "addr:street": "Brzozowa",
                "addr:housenumber": "21",
                "addr:city": "Lidzbark",
                "addr:postcode": "13-230",
                "amenity": "pharmacy"
            },
            "geometry": {
                "type": "Point",
                "coordinates": [
                    19.81714779155393,
                    53.25921734379149
                ]
            }
        },
        {
            "type": "Feature",
            "properties": {
                "ref:csioz": 1229636,
                "addr:housenumber": "124",
                "addr:city": "Kisiny",
                "addr:postcode": "13-200",
                "amenity": "pharmacy"
            },
            "geometry": {
                "type": "Point",
                "coordinates": [
                    20.206040148383398,
                    53.223120263449424
                ]
            }
        },
        {
            "type": "Feature",
            "properties": {
                "ref:csioz": 1121542,
                "name": "Hebeapteka",
                "addr:street": "Marii Skłodowskiej-Curie",
                "addr:housenumber": "35",
                "addr:city": "Działdowo",
                "addr:postcode": "13-210",
                "amenity": "pharmacy"
            },
            "geometry": {
                "type": "Point",
                "coordinates": [
                    20.171958866719553,
                    53.23370921800754
                ]
            }
        }
    ]
}