{
    "type": "FeatureCollection",
    "name": "JPT_KOD_JE_0403",
    "features": [
        {
            "type": "Feature",
            "properties": {
                "ref:csioz": 1098842,
                "name": "Apteka Żyj-Zdrowo.Com",
                "addr:street": "Porzeczkowa",
                "addr:housenumber": "20",
                "addr:city": "Łochowo",
                "addr:postcode": "86-065",
                "amenity": "pharmacy"
            },
            "geometry": {
                "type": "Point",
                "coordinates": [
                    17.83516559499275,
                    53.128416641985595
                ]
            }
        },
        {
            "type": "Feature",
            "properties": {
                "ref:csioz": 1102313,
                "name": "Hipokrates",
                "addr:street": "Dąbrowiecka",
                "addr:housenumber": "2",
                "addr:city": "Sicienko",
                "addr:postcode": "86-014",
                "amenity": "pharmacy"
            },
            "geometry": {
                "type": "Point",
                "coordinates": [
                    17.80247336559694,
                    53.20296784398262
                ]
            }
        },
        {
            "type": "Feature",
            "properties": {
                "ref:csioz": 1166516,
                "name": "Apteka Łochowska",
                "addr:street": "Grabowa",
                "addr:housenumber": "1",
                "addr:city": "Łochowo",
                "addr:postcode": "86-065",
                "amenity": "pharmacy"
            },
            "geometry": {
                "type": "Point",
                "coordinates": [
                    17.838109999999407,
                    53.122558000017264
                ]
            }
        },
        {
            "type": "Feature",
            "properties": {
                "ref:csioz": 1099172,
                "name": "Centrum",
                "addr:street": "Wierzbowa",
                "addr:housenumber": "1A",
                "addr:city": "Łochowo",
                "addr:postcode": "86-065",
                "amenity": "pharmacy"
            },
            "geometry": {
                "type": "Point",
                "coordinates": [
                    17.839100351842994,
                    53.122117821558696
                ]
            }
        },
        {
            "type": "Feature",
            "properties": {
                "ref:csioz": 1192193,
                "addr:street": "Sępoleńska",
                "addr:housenumber": "2",
                "addr:city": "Mąkowarsko",
                "addr:postcode": "86-013",
                "amenity": "pharmacy"
            },
            "geometry": {
                "type": "Point",
                "coordinates": [
                    17.810493999999363,
                    53.40568600001775
                ]
            }
        },
        {
            "type": "Feature",
            "properties": {
                "ref:csioz": 1099353,
                "name": "Wracam Do Zdrowia",
                "addr:street": "Szosa Gdańska",
                "addr:housenumber": "56",
                "addr:city": "Osielsko",
                "addr:postcode": "86-031",
                "amenity": "pharmacy"
            },
            "geometry": {
                "type": "Point",
                "coordinates": [
                    18.071291879163425,
                    53.186628374099
                ]
            }
        },
        {
            "type": "Feature",
            "properties": {
                "ref:csioz": 1099645,
                "name": "Leśna",
                "addr:street": "Leśna",
                "addr:housenumber": "19",
                "addr:city": "Solec Kujawski",
                "addr:postcode": "86-050",
                "amenity": "pharmacy"
            },
            "geometry": {
                "type": "Point",
                "coordinates": [
                    18.22173495988116,
                    53.076077577585
                ]
            }
        },
        {
            "type": "Feature",
            "properties": {
                "ref:csioz": 1100574,
                "name": "Pod Lwem",
                "addr:street": "Leśna",
                "addr:housenumber": "2",
                "addr:city": "Solec Kujawski",
                "addr:postcode": "86-050",
                "amenity": "pharmacy"
            },
            "geometry": {
                "type": "Point",
                "coordinates": [
                    18.222726348870573,
                    53.07832950948593
                ]
            }
        },
        {
            "type": "Feature",
            "properties": {
                "ref:csioz": 1101132,
                "name": "Doz Apteka. Dbam O Zdrowie. Betula",
                "addr:street": "Łabiszyńska",
                "addr:housenumber": "2A",
                "addr:city": "Brzoza",
                "addr:postcode": "86-061",
                "amenity": "pharmacy"
            },
            "geometry": {
                "type": "Point",
                "coordinates": [
                    18.01677459240998,
                    53.029885694205134
                ]
            }
        },
        {
            "type": "Feature",
            "properties": {
                "ref:csioz": 1101675,
                "name": "Wracam Do Zdrowia",
                "addr:street": "Bydgoska",
                "addr:housenumber": "2",
                "addr:city": "Niemcz",
                "addr:postcode": "86-032",
                "amenity": "pharmacy"
            },
            "geometry": {
                "type": "Point",
                "coordinates": [
                    18.032928951671924,
                    53.17598215906027
                ]
            }
        },
        {
            "type": "Feature",
            "properties": {
                "ref:csioz": 1101688,
                "name": "Wracam Do Zdrowia",
                "addr:street": "Leśna",
                "addr:housenumber": "12",
                "addr:city": "Solec Kujawski",
                "addr:postcode": "86-050",
                "amenity": "pharmacy"
            },
            "geometry": {
                "type": "Point",
                "coordinates": [
                    18.22118009814104,
                    53.07620860161553
                ]
            }
        },
        {
            "type": "Feature",
            "properties": {
                "ref:csioz": 1101923,
                "name": "Doz Apteka. Dbam O Zdrowie. Calendula",
                "addr:street": "Bydgoska",
                "addr:housenumber": "14c",
                "addr:city": "Nowa Wieś Wielka",
                "addr:postcode": "86-060",
                "amenity": "pharmacy"
            },
            "geometry": {
                "type": "Point",
                "coordinates": [
                    18.090926999999613,
                    52.97090400001703
                ]
            }
        },
        {
            "type": "Feature",
            "properties": {
                "ref:csioz": 1110495,
                "name": "Wracam Do Zdrowia",
                "addr:street": "Szubińska",
                "addr:housenumber": "8",
                "addr:city": "Białe Błota",
                "addr:postcode": "86-005",
                "amenity": "pharmacy"
            },
            "geometry": {
                "type": "Point",
                "coordinates": [
                    17.92035760967496,
                    53.099945695985376
                ]
            }
        },
        {
            "type": "Feature",
            "properties": {
                "ref:csioz": 1112230,
                "addr:street": "Bydgoska",
                "addr:housenumber": "34",
                "addr:city": "Dąbrowa Chełmińska",
                "addr:postcode": "86-070",
                "amenity": "pharmacy"
            },
            "geometry": {
                "type": "Point",
                "coordinates": [
                    18.299137953538263,
                    53.177511964134915
                ]
            }
        },
        {
            "type": "Feature",
            "properties": {
                "ref:csioz": 1166486,
                "name": "Apteka Błękitna",
                "addr:street": "Łabiszyńska",
                "addr:housenumber": "1",
                "addr:city": "Brzoza",
                "addr:postcode": "86-061",
                "amenity": "pharmacy"
            },
            "geometry": {
                "type": "Point",
                "coordinates": [
                    18.016787541853354,
                    53.02942312095551
                ]
            }
        },
        {
            "type": "Feature",
            "properties": {
                "ref:csioz": 1194939,
                "addr:street": "Bydgoska",
                "addr:housenumber": "17",
                "addr:city": "Ostromecko",
                "addr:postcode": "86-070",
                "amenity": "pharmacy"
            },
            "geometry": {
                "type": "Point",
                "coordinates": [
                    18.210826921084337,
                    53.14699604678019
                ]
            }
        },
        {
            "type": "Feature",
            "properties": {
                "ref:csioz": 1099377,
                "name": "Pod Złotą Wagą",
                "addr:street": "Barycka",
                "addr:housenumber": "37d",
                "addr:city": "Białe Błota",
                "addr:postcode": "86-005",
                "amenity": "pharmacy"
            },
            "geometry": {
                "type": "Point",
                "coordinates": [
                    17.91167983577449,
                    53.09518026087731
                ]
            }
        },
        {
            "type": "Feature",
            "properties": {
                "ref:csioz": 1099389,
                "name": "Pod Kasztanem",
                "addr:street": "Szubińska",
                "addr:housenumber": "9",
                "addr:city": "Białe Błota",
                "addr:postcode": "86-005",
                "amenity": "pharmacy"
            },
            "geometry": {
                "type": "Point",
                "coordinates": [
                    17.92014298081706,
                    53.09954331644017
                ]
            }
        },
        {
            "type": "Feature",
            "properties": {
                "ref:csioz": 1100150,
                "name": "Dr.Max",
                "addr:street": "Pokoju",
                "addr:housenumber": "5a",
                "addr:city": "Nowa Wieś Wielka",
                "addr:postcode": "86-060",
                "amenity": "pharmacy"
            },
            "geometry": {
                "type": "Point",
                "coordinates": [
                    18.094221154026197,
                    52.97011345875766
                ]
            }
        },
        {
            "type": "Feature",
            "properties": {
                "ref:csioz": 1101018,
                "name": "Pod Orłem",
                "addr:street": "23 Stycznia",
                "addr:housenumber": "12",
                "addr:city": "Solec Kujawski",
                "addr:postcode": "86-050",
                "amenity": "pharmacy"
            },
            "geometry": {
                "type": "Point",
                "coordinates": [
                    18.22571265195485,
                    53.082221212696076
                ]
            }
        },
        {
            "type": "Feature",
            "properties": {
                "ref:csioz": 1120573,
                "name": "Medycyna Specjalistyczna Spółka Z Ograniczoną Odpowiedzialnością",
                "addr:street": "Łochowska",
                "addr:housenumber": "69",
                "addr:city": "Bydgoszcz",
                "addr:postcode": "85-372",
                "amenity": "pharmacy"
            },
            "geometry": {
                "type": "Point",
                "coordinates": [
                    17.899160891909357,
                    53.12292628536689
                ]
            }
        },
        {
            "type": "Feature",
            "properties": {
                "ref:csioz": 1122928,
                "name": "Żyj-Zdrowo.Com",
                "addr:street": "Bydgoska",
                "addr:housenumber": "25",
                "addr:city": "Wtelno",
                "addr:postcode": "86-011",
                "amenity": "pharmacy"
            },
            "geometry": {
                "type": "Point",
                "coordinates": [
                    17.90977244450794,
                    53.23100195284105
                ]
            }
        },
        {
            "type": "Feature",
            "properties": {
                "ref:csioz": 1169877,
                "addr:street": "Powstańców",
                "addr:housenumber": "6",
                "addr:city": "Solec Kujawski",
                "addr:postcode": "85-050",
                "amenity": "pharmacy"
            },
            "geometry": {
                "type": "Point",
                "coordinates": [
                    18.226872432125003,
                    53.06556795099543
                ]
            }
        },
        {
            "type": "Feature",
            "properties": {
                "ref:csioz": 1182605,
                "name": "Apteka Nova",
                "addr:street": "Szosa Gdańska",
                "addr:housenumber": "49",
                "addr:city": "Osielsko",
                "addr:postcode": "86-031",
                "amenity": "pharmacy"
            },
            "geometry": {
                "type": "Point",
                "coordinates": [
                    18.070555668386753,
                    53.18727597025408
                ]
            }
        },
        {
            "type": "Feature",
            "properties": {
                "ref:csioz": 1206514,
                "name": "Imbir",
                "addr:street": "Chełmińska",
                "addr:housenumber": "35",
                "addr:city": "Czarże",
                "addr:postcode": "86-070",
                "amenity": "pharmacy"
            },
            "geometry": {
                "type": "Point",
                "coordinates": [
                    18.27357563326912,
                    53.223228218480116
                ]
            }
        },
        {
            "type": "Feature",
            "properties": {
                "ref:csioz": 1208414,
                "name": "Lawenda 2",
                "addr:street": "Centralna",
                "addr:housenumber": "5a",
                "addr:flats": "1",
                "addr:city": "Osielsko",
                "addr:postcode": "86-031",
                "amenity": "pharmacy"
            },
            "geometry": {
                "type": "Point",
                "coordinates": [
                    18.07404284160302,
                    53.18718772228956
                ]
            }
        },
        {
            "type": "Feature",
            "properties": {
                "ref:csioz": 1210243,
                "name": "Wszystko Dla Zdrowia",
                "addr:street": "Cicha",
                "addr:housenumber": "8",
                "addr:city": "Maksymilianowo",
                "addr:postcode": "86-021",
                "amenity": "pharmacy"
            },
            "geometry": {
                "type": "Point",
                "coordinates": [
                    18.041443015072666,
                    53.216768934910995
                ]
            }
        },
        {
            "type": "Feature",
            "properties": {
                "ref:csioz": 1186691,
                "name": "Doz Dbam O Zdrowie. Apteka W Przychodni",
                "addr:street": "Powstańców",
                "addr:housenumber": "7A",
                "addr:city": "Solec Kujawski",
                "addr:postcode": "86-050",
                "amenity": "pharmacy"
            },
            "geometry": {
                "type": "Point",
                "coordinates": [
                    18.224629770707544,
                    53.0764125907073
                ]
            }
        },
        {
            "type": "Feature",
            "properties": {
                "ref:csioz": 1170623,
                "name": "\"Niepubliczny Zakład Opieki Zdrowotnej Centrum Medyczne \"\"Epimigren\"\"\"",
                "addr:street": "Botaniczna",
                "addr:housenumber": "38",
                "addr:city": "Osielsko",
                "addr:postcode": "86-031",
                "amenity": "pharmacy"
            },
            "geometry": {
                "type": "Point",
                "coordinates": [
                    18.085579610609464,
                    53.18792481314193
                ]
            }
        },
        {
            "type": "Feature",
            "properties": {
                "ref:csioz": 1230750,
                "name": "Szpital Eskulap Centrum Leczenia Chorób Serca I Naczyń",
                "addr:street": "Koperkowa",
                "addr:housenumber": "2",
                "addr:city": "Osielsko",
                "addr:postcode": "86-031",
                "amenity": "pharmacy"
            },
            "geometry": {
                "type": "Point",
                "coordinates": [
                    18.062391563182914,
                    53.17727427765213
                ]
            }
        },
        {
            "type": "Feature",
            "properties": {
                "ref:csioz": 1110610,
                "name": "Słoneczna",
                "addr:street": "Pomianowskiego",
                "addr:housenumber": "3",
                "addr:city": "Koronowo",
                "addr:postcode": "86-010",
                "amenity": "pharmacy"
            },
            "geometry": {
                "type": "Point",
                "coordinates": [
                    17.94141933081631,
                    53.309079884288344
                ]
            }
        },
        {
            "type": "Feature",
            "properties": {
                "ref:csioz": 1116778,
                "name": "Apteka Błękitna",
                "addr:street": "Plac Zwycięstwa",
                "addr:housenumber": "5",
                "addr:city": "Koronowo",
                "addr:postcode": "86-010",
                "amenity": "pharmacy"
            },
            "geometry": {
                "type": "Point",
                "coordinates": [
                    17.937328895245333,
                    53.313693147939844
                ]
            }
        },
        {
            "type": "Feature",
            "properties": {
                "ref:csioz": 1099138,
                "name": "Apteka Żyj-Zdrowo.Com",
                "addr:street": "Garncarska",
                "addr:housenumber": "1",
                "addr:city": "Koronowo",
                "addr:postcode": "86-010",
                "amenity": "pharmacy"
            },
            "geometry": {
                "type": "Point",
                "coordinates": [
                    17.937967314817683,
                    53.314323820714186
                ]
            }
        },
        {
            "type": "Feature",
            "properties": {
                "ref:csioz": 1099146,
                "name": "Aloes",
                "addr:street": "Paderewskiego",
                "addr:housenumber": "37",
                "addr:city": "Koronowo",
                "addr:postcode": "86-010",
                "amenity": "pharmacy"
            },
            "geometry": {
                "type": "Point",
                "coordinates": [
                    17.93999442421433,
                    53.310212374321374
                ]
            }
        },
        {
            "type": "Feature",
            "properties": {
                "ref:csioz": 1099830,
                "name": "Nova",
                "addr:street": "Ogrodowa",
                "addr:housenumber": "2b",
                "addr:city": "Dobrcz",
                "addr:postcode": "89-022",
                "amenity": "pharmacy"
            },
            "geometry": {
                "type": "Point",
                "coordinates": [
                    18.14461992720662,
                    53.265911852459304
                ]
            }
        },
        {
            "type": "Feature",
            "properties": {
                "ref:csioz": 1100454,
                "name": "Alba",
                "addr:street": "Kościuszki",
                "addr:housenumber": "4",
                "addr:city": "Koronowo",
                "addr:postcode": "86-010",
                "amenity": "pharmacy"
            },
            "geometry": {
                "type": "Point",
                "coordinates": [
                    17.93613140201863,
                    53.313549841031325
                ]
            }
        },
        {
            "type": "Feature",
            "properties": {
                "ref:csioz": 1182355,
                "name": "Centrum",
                "addr:street": "Długa",
                "addr:housenumber": "28",
                "addr:city": "Dobrcz",
                "addr:postcode": "86-022",
                "amenity": "pharmacy"
            },
            "geometry": {
                "type": "Point",
                "coordinates": [
                    18.15050723173496,
                    53.26567833833758
                ]
            }
        },
        {
            "type": "Feature",
            "properties": {
                "ref:csioz": 1188315,
                "name": "Punkt Apteczny Kotomierz",
                "addr:street": "Koronowska",
                "addr:housenumber": "4",
                "addr:city": "Kotomierz",
                "addr:postcode": "86-022",
                "amenity": "pharmacy"
            },
            "geometry": {
                "type": "Point",
                "coordinates": [
                    18.12574982042315,
                    53.28627277543634
                ]
            }
        },
        {
            "type": "Feature",
            "properties": {
                "ref:csioz": 1228901,
                "name": "Lawenda",
                "addr:street": "Długa",
                "addr:housenumber": "28",
                "addr:city": "Wudzyn",
                "addr:postcode": "86-022",
                "amenity": "pharmacy"
            },
            "geometry": {
                "type": "Point",
                "coordinates": [
                    18.07915476718821,
                    53.321759503048554
                ]
            }
        },
        {
            "type": "Feature",
            "properties": {
                "ref:csioz": 1230800,
                "name": "Przy Biedronce",
                "addr:street": "Aleja Jana Pawła II",
                "addr:housenumber": "2",
                "addr:city": "Koronowo",
                "addr:postcode": "86-010",
                "amenity": "pharmacy"
            },
            "geometry": {
                "type": "Point",
                "coordinates": [
                    17.974057388702832,
                    53.31256969024934
                ]
            }
        }
    ]
}