{
    "type": "FeatureCollection",
    "name": "JPT_KOD_JE_1609",
    "features": [
        {
            "type": "Feature",
            "properties": {
                "ref:csioz": 1109219,
                "name": "Apteka Prószkowska",
                "addr:street": "Daszyńskiego",
                "addr:housenumber": "1b",
                "addr:city": "Prószków",
                "addr:postcode": "46-060",
                "amenity": "pharmacy"
            },
            "geometry": {
                "type": "Point",
                "coordinates": [
                    17.874032759223002,
                    50.57700776984226
                ]
            }
        },
        {
            "type": "Feature",
            "properties": {
                "ref:csioz": 1109769,
                "addr:street": "Dębskiej Kuźni",
                "addr:housenumber": "12",
                "addr:city": "Daniec",
                "addr:postcode": "46-053",
                "amenity": "pharmacy"
            },
            "geometry": {
                "type": "Point",
                "coordinates": [
                    18.136597573291265,
                    50.62286610039009
                ]
            }
        },
        {
            "type": "Feature",
            "properties": {
                "ref:csioz": 1109941,
                "name": "Multifarm",
                "addr:street": "Przedszkolna",
                "addr:housenumber": "1",
                "addr:city": "Nakło",
                "addr:postcode": "46-050",
                "amenity": "pharmacy"
            },
            "geometry": {
                "type": "Point",
                "coordinates": [
                    18.11537840474967,
                    50.57661564762066
                ]
            }
        },
        {
            "type": "Feature",
            "properties": {
                "ref:csioz": 1116003,
                "addr:street": "Opolska",
                "addr:housenumber": "9",
                "addr:city": "Górki",
                "addr:postcode": "46-060",
                "amenity": "pharmacy"
            },
            "geometry": {
                "type": "Point",
                "coordinates": [
                    17.899505687672594,
                    50.62679132854189
                ]
            }
        },
        {
            "type": "Feature",
            "properties": {
                "ref:csioz": 1121751,
                "addr:street": "Dworcowa",
                "addr:housenumber": "2",
                "addr:city": "Tarnów Opolski",
                "addr:postcode": "46-050",
                "amenity": "pharmacy"
            },
            "geometry": {
                "type": "Point",
                "coordinates": [
                    18.078916857124145,
                    50.57197855484966
                ]
            }
        },
        {
            "type": "Feature",
            "properties": {
                "ref:csioz": 1201350,
                "name": "Punkt Apteczny Tobie Bliski",
                "addr:street": "Szkolna",
                "addr:housenumber": "2A",
                "addr:city": "Zimnice Wielkie",
                "addr:postcode": "46-061",
                "amenity": "pharmacy"
            },
            "geometry": {
                "type": "Point",
                "coordinates": [
                    17.935112396844048,
                    50.55993943296603
                ]
            }
        },
        {
            "type": "Feature",
            "properties": {
                "ref:csioz": 1109500,
                "name": "Medica",
                "addr:street": "Porcelanowa",
                "addr:housenumber": "17A",
                "addr:city": "Tułowice",
                "addr:postcode": "49-130",
                "amenity": "pharmacy"
            },
            "geometry": {
                "type": "Point",
                "coordinates": [
                    17.65215163370105,
                    50.59695100895234
                ]
            }
        },
        {
            "type": "Feature",
            "properties": {
                "ref:csioz": 1109499,
                "addr:street": "Dworcowa",
                "addr:housenumber": "12",
                "addr:city": "Tarnów Opolski",
                "addr:postcode": "46-050",
                "amenity": "pharmacy"
            },
            "geometry": {
                "type": "Point",
                "coordinates": [
                    18.075167710406873,
                    50.5720296687119
                ]
            }
        },
        {
            "type": "Feature",
            "properties": {
                "ref:csioz": 1182134,
                "name": "Galen",
                "addr:street": "Porcelitowa",
                "addr:housenumber": "1",
                "addr:city": "Tułowice",
                "addr:postcode": "49-130",
                "amenity": "pharmacy"
            },
            "geometry": {
                "type": "Point",
                "coordinates": [
                    17.647356325212602,
                    50.599224199913984
                ]
            }
        },
        {
            "type": "Feature",
            "properties": {
                "ref:csioz": 1105982,
                "name": "Vademecum",
                "addr:street": "Korfantego",
                "addr:housenumber": "1A",
                "addr:city": "Chróścice",
                "addr:postcode": "46-080",
                "amenity": "pharmacy"
            },
            "geometry": {
                "type": "Point",
                "coordinates": [
                    17.811933072555316,
                    50.780300187059446
                ]
            }
        },
        {
            "type": "Feature",
            "properties": {
                "ref:csioz": 1106841,
                "addr:street": "Polna",
                "addr:housenumber": "2 B",
                "addr:city": "Chrząstowice",
                "addr:postcode": "46-053",
                "amenity": "pharmacy"
            },
            "geometry": {
                "type": "Point",
                "coordinates": [
                    18.072363947892125,
                    50.66618501775239
                ]
            }
        },
        {
            "type": "Feature",
            "properties": {
                "ref:csioz": 1106919,
                "name": "St. Rochus",
                "addr:street": "Namysłowska",
                "addr:housenumber": "34",
                "addr:city": "Dobrzeń Wielki",
                "addr:postcode": "46-081",
                "amenity": "pharmacy"
            },
            "geometry": {
                "type": "Point",
                "coordinates": [
                    17.84527113312768,
                    50.76423442170751
                ]
            }
        },
        {
            "type": "Feature",
            "properties": {
                "ref:csioz": 1107875,
                "addr:street": "Rynek",
                "addr:housenumber": "4",
                "addr:city": "Kup",
                "addr:postcode": "46-082",
                "amenity": "pharmacy"
            },
            "geometry": {
                "type": "Point",
                "coordinates": [
                    17.884514974347436,
                    50.80646403200408
                ]
            }
        },
        {
            "type": "Feature",
            "properties": {
                "ref:csioz": 1108021,
                "name": "Apteka Pod Lipami",
                "addr:street": "Opolska",
                "addr:housenumber": "70a",
                "addr:city": "Łubniany",
                "addr:postcode": "46-024",
                "amenity": "pharmacy"
            },
            "geometry": {
                "type": "Point",
                "coordinates": [
                    17.999334814810442,
                    50.781997500685655
                ]
            }
        },
        {
            "type": "Feature",
            "properties": {
                "ref:csioz": 1108158,
                "name": "Apteka Dbam O Zdrowie",
                "addr:street": "Opolska",
                "addr:housenumber": "30B",
                "addr:city": "Niemodlin",
                "addr:postcode": "49-100",
                "amenity": "pharmacy"
            },
            "geometry": {
                "type": "Point",
                "coordinates": [
                    17.63119191722267,
                    50.64117906724118
                ]
            }
        },
        {
            "type": "Feature",
            "properties": {
                "ref:csioz": 1108163,
                "addr:street": "Rynek",
                "addr:housenumber": "53",
                "addr:city": "Niemodlin",
                "addr:postcode": "49-100",
                "amenity": "pharmacy"
            },
            "geometry": {
                "type": "Point",
                "coordinates": [
                    17.621162631495373,
                    50.64221099261949
                ]
            }
        },
        {
            "type": "Feature",
            "properties": {
                "ref:csioz": 1109592,
                "name": "Super-Pharm Apteka",
                "addr:street": "Dębowa",
                "addr:housenumber": "1",
                "addr:city": "Zawada",
                "addr:postcode": "46-022",
                "amenity": "pharmacy"
            },
            "geometry": {
                "type": "Point",
                "coordinates": [
                    17.981612187993537,
                    50.686219084116644
                ]
            }
        },
        {
            "type": "Feature",
            "properties": {
                "ref:csioz": 1109775,
                "name": "Punkt Apteczny Kosmy",
                "addr:street": "Ks. Prof. Sztonyka",
                "addr:housenumber": "36a",
                "addr:city": "Dąbrowa",
                "addr:postcode": "49-120",
                "amenity": "pharmacy"
            },
            "geometry": {
                "type": "Point",
                "coordinates": [
                    17.74974699999941,
                    50.68385500001349
                ]
            }
        },
        {
            "type": "Feature",
            "properties": {
                "ref:csioz": 1109867,
                "addr:street": "Główna",
                "addr:housenumber": "4",
                "addr:city": "Kadłub Turawski",
                "addr:postcode": "46-046",
                "amenity": "pharmacy"
            },
            "geometry": {
                "type": "Point",
                "coordinates": [
                    18.200502636077584,
                    50.763640925057686
                ]
            }
        },
        {
            "type": "Feature",
            "properties": {
                "ref:csioz": 1109929,
                "name": "Eurofarm",
                "addr:street": "Opolska",
                "addr:housenumber": "7",
                "addr:city": "Luboszyce",
                "addr:postcode": "46-022",
                "amenity": "pharmacy"
            },
            "geometry": {
                "type": "Point",
                "coordinates": [
                    17.957739206569972,
                    50.728297618969656
                ]
            }
        },
        {
            "type": "Feature",
            "properties": {
                "ref:csioz": 1110136,
                "name": "Punkt Apteczny Eskulap",
                "addr:street": "Opolska",
                "addr:housenumber": "33",
                "addr:city": "Żelazna",
                "addr:postcode": "49-120",
                "amenity": "pharmacy"
            },
            "geometry": {
                "type": "Point",
                "coordinates": [
                    17.851652610183475,
                    50.728844563388364
                ]
            }
        },
        {
            "type": "Feature",
            "properties": {
                "ref:csioz": 1122040,
                "name": "Apteka Vita",
                "addr:street": "Słoneczna",
                "addr:housenumber": "1",
                "addr:city": "Stare Siołkowice",
                "addr:postcode": "46-083",
                "amenity": "pharmacy"
            },
            "geometry": {
                "type": "Point",
                "coordinates": [
                    17.762867496669134,
                    50.80628421448446
                ]
            }
        },
        {
            "type": "Feature",
            "properties": {
                "ref:csioz": 1122054,
                "name": "Apteka Zielona",
                "addr:street": "Kolejowa",
                "addr:housenumber": "2a",
                "addr:city": "Komprachcice",
                "addr:postcode": "46-070",
                "amenity": "pharmacy"
            },
            "geometry": {
                "type": "Point",
                "coordinates": [
                    17.824103259773057,
                    50.634500874539256
                ]
            }
        },
        {
            "type": "Feature",
            "properties": {
                "ref:csioz": 1204406,
                "name": "Na Dobre I Na Złe",
                "addr:street": "Rynek",
                "addr:housenumber": "25-26",
                "addr:city": "Niemodlin",
                "addr:postcode": "49-100",
                "amenity": "pharmacy"
            },
            "geometry": {
                "type": "Point",
                "coordinates": [
                    17.617569090123755,
                    50.64222187858278
                ]
            }
        },
        {
            "type": "Feature",
            "properties": {
                "ref:csioz": 1107237,
                "name": "Apteka Św. Kosmy I Damiana",
                "addr:street": "Wolności",
                "addr:housenumber": "17",
                "addr:city": "Jełowa",
                "addr:postcode": "46-025",
                "amenity": "pharmacy"
            },
            "geometry": {
                "type": "Point",
                "coordinates": [
                    18.0723311867705,
                    50.79948597589201
                ]
            }
        },
        {
            "type": "Feature",
            "properties": {
                "ref:csioz": 1108985,
                "addr:street": "Oleska",
                "addr:housenumber": "4",
                "addr:city": "Osowiec",
                "addr:postcode": "45-023",
                "amenity": "pharmacy"
            },
            "geometry": {
                "type": "Point",
                "coordinates": [
                    18.021449221207988,
                    50.75370270811896
                ]
            }
        },
        {
            "type": "Feature",
            "properties": {
                "ref:csioz": 1109030,
                "addr:street": "Częstochowska",
                "addr:housenumber": "19",
                "addr:city": "Ozimek",
                "addr:postcode": "46-040",
                "amenity": "pharmacy"
            },
            "geometry": {
                "type": "Point",
                "coordinates": [
                    18.21792146963318,
                    50.68011704524795
                ]
            }
        },
        {
            "type": "Feature",
            "properties": {
                "ref:csioz": 1109058,
                "name": "Doz Apteka Dbam O Zdrowie",
                "addr:street": "księdza Kałuży",
                "addr:housenumber": "1",
                "addr:city": "Ozimek",
                "addr:postcode": "46-040",
                "amenity": "pharmacy"
            },
            "geometry": {
                "type": "Point",
                "coordinates": [
                    18.21565344614093,
                    50.67991690531493
                ]
            }
        },
        {
            "type": "Feature",
            "properties": {
                "ref:csioz": 1109063,
                "addr:street": "Opolska",
                "addr:housenumber": "2",
                "addr:city": "Ozimek",
                "addr:postcode": "46-040",
                "amenity": "pharmacy"
            },
            "geometry": {
                "type": "Point",
                "coordinates": [
                    18.213090680145296,
                    50.678462180044434
                ]
            }
        },
        {
            "type": "Feature",
            "properties": {
                "ref:csioz": 1109049,
                "name": "Dr. Max",
                "addr:street": "Częstochowska",
                "addr:housenumber": "31",
                "addr:city": "Ozimek",
                "addr:postcode": "46-040",
                "amenity": "pharmacy"
            },
            "geometry": {
                "type": "Point",
                "coordinates": [
                    18.220527553406058,
                    50.681801898834
                ]
            }
        },
        {
            "type": "Feature",
            "properties": {
                "ref:csioz": 1110292,
                "name": "Dział Farmacji Szpitalnej W Zakładzie Opiekuńczo-Leczniczym Samorządowego Zakładu Opieki Zdrowotnej W Niemodlinie",
                "addr:street": "Zamkowa",
                "addr:housenumber": "4",
                "addr:city": "Niemodlin",
                "addr:postcode": "49-100",
                "amenity": "pharmacy"
            },
            "geometry": {
                "type": "Point",
                "coordinates": [
                    17.624400150133738,
                    50.642877740887045
                ]
            }
        },
        {
            "type": "Feature",
            "properties": {
                "ref:csioz": 1110352,
                "name": "Dział Farmacji Szpitalnej W Szpitalu Specjalistycznym Św. Rocha W Ozimku",
                "addr:street": "Częstochowska",
                "addr:housenumber": "31",
                "addr:city": "Ozimek",
                "addr:postcode": "46-040",
                "amenity": "pharmacy"
            },
            "geometry": {
                "type": "Point",
                "coordinates": [
                    18.220527553406058,
                    50.681801898834
                ]
            }
        },
        {
            "type": "Feature",
            "properties": {
                "ref:csioz": 1122347,
                "name": "Centrum Opieki Paliatywnej Caritas Diecezji Opolskiej",
                "addr:street": "Piastowska",
                "addr:housenumber": "26",
                "addr:city": "Stare Siołkowice",
                "addr:postcode": "46-083",
                "amenity": "pharmacy"
            },
            "geometry": {
                "type": "Point",
                "coordinates": [
                    17.758720851554948,
                    50.810056528246825
                ]
            }
        },
        {
            "type": "Feature",
            "properties": {
                "ref:csioz": 1159204,
                "name": "Apteka Szpitalna Bez Zgody",
                "addr:street": "Miarki",
                "addr:housenumber": "14",
                "addr:city": "Kup",
                "addr:postcode": "46-082",
                "amenity": "pharmacy"
            },
            "geometry": {
                "type": "Point",
                "coordinates": [
                    17.885288522068745,
                    50.80423843674049
                ]
            }
        },
        {
            "type": "Feature",
            "properties": {
                "ref:csioz": 1192400,
                "addr:street": "Opolska",
                "addr:housenumber": "39 c",
                "addr:city": "Turawa",
                "addr:postcode": "46-045",
                "amenity": "pharmacy"
            },
            "geometry": {
                "type": "Point",
                "coordinates": [
                    18.075504213960237,
                    50.73925774470523
                ]
            }
        },
        {
            "type": "Feature",
            "properties": {
                "ref:csioz": 1196816,
                "name": "Apteka Tobie Bliska",
                "addr:street": "Opolska",
                "addr:housenumber": "39A",
                "addr:city": "Turawa",
                "addr:postcode": "46-045",
                "amenity": "pharmacy"
            },
            "geometry": {
                "type": "Point",
                "coordinates": [
                    18.076186341566107,
                    50.73877736587036
                ]
            }
        },
        {
            "type": "Feature",
            "properties": {
                "ref:csioz": 1206663,
                "name": "Apteka Lawendowa",
                "addr:street": "Wolności",
                "addr:housenumber": "14",
                "addr:city": "Popielów",
                "addr:postcode": "46-090",
                "amenity": "pharmacy"
            },
            "geometry": {
                "type": "Point",
                "coordinates": [
                    17.743502874695157,
                    50.825045599201374
                ]
            }
        },
        {
            "type": "Feature",
            "properties": {
                "ref:csioz": 1225435,
                "name": "Apteka Multifarm Opolskie Apteki",
                "addr:street": "Bocianowa",
                "addr:housenumber": "54",
                "addr:city": "Zawada",
                "addr:postcode": "46-022",
                "amenity": "pharmacy"
            },
            "geometry": {
                "type": "Point",
                "coordinates": [
                    18.000872452458633,
                    50.719015802798104
                ]
            }
        },
        {
            "type": "Feature",
            "properties": {
                "ref:csioz": 1177091,
                "name": "Z Uśmiechem",
                "addr:street": "Opolska",
                "addr:housenumber": "6-8",
                "addr:city": "Niemodlin",
                "addr:postcode": "49-100",
                "amenity": "pharmacy"
            },
            "geometry": {
                "type": "Point",
                "coordinates": [
                    17.628013027169317,
                    50.639622581639564
                ]
            }
        },
        {
            "type": "Feature",
            "properties": {
                "ref:csioz": 1181450,
                "name": "Apteka Przyjazna",
                "addr:street": "Namysłowska",
                "addr:housenumber": "40",
                "addr:city": "Dobrzeń Wielki",
                "addr:postcode": "46-081",
                "amenity": "pharmacy"
            },
            "geometry": {
                "type": "Point",
                "coordinates": [
                    17.84634488976232,
                    50.765699173654895
                ]
            }
        },
        {
            "type": "Feature",
            "properties": {
                "ref:csioz": 1107173,
                "name": "Bazaltowa",
                "addr:street": "Bazaltowa",
                "addr:housenumber": "4",
                "addr:city": "Gracze",
                "addr:postcode": "49-156",
                "amenity": "pharmacy"
            },
            "geometry": {
                "type": "Point",
                "coordinates": [
                    17.55754884495616,
                    50.69401576011581
                ]
            }
        },
        {
            "type": "Feature",
            "properties": {
                "ref:csioz": 1108037,
                "addr:street": "Lipowa",
                "addr:housenumber": "40",
                "addr:city": "Murów",
                "addr:postcode": "46-030",
                "amenity": "pharmacy"
            },
            "geometry": {
                "type": "Point",
                "coordinates": [
                    17.945908380816263,
                    50.86203303826522
                ]
            }
        },
        {
            "type": "Feature",
            "properties": {
                "ref:csioz": 1195933,
                "name": "Budkowice Liliana Bielak",
                "addr:street": "Zagwiździańska",
                "addr:housenumber": "16",
                "addr:city": "Stare Budkowice",
                "addr:postcode": "46-030",
                "amenity": "pharmacy"
            },
            "geometry": {
                "type": "Point",
                "coordinates": [
                    18.05614898854888,
                    50.865912734529275
                ]
            }
        },
        {
            "type": "Feature",
            "properties": {
                "ref:csioz": 1107276,
                "name": "\"Apteka \"\"Panaceum\"\"\"",
                "addr:street": "Kolejowa",
                "addr:housenumber": "8",
                "addr:city": "Karłowice",
                "addr:postcode": "46-037",
                "amenity": "pharmacy"
            },
            "geometry": {
                "type": "Point",
                "coordinates": [
                    17.708361010911727,
                    50.8759598200962
                ]
            }
        }
    ]
}