{
    "type": "FeatureCollection",
    "name": "JPT_KOD_JE_1011",
    "features": [
        {
            "type": "Feature",
            "properties": {
                "ref:csioz": 1011617,
                "name": "\"Apteka \"\"Herba\"\"\"",
                "addr:street": "Wschodnia",
                "addr:housenumber": "2",
                "addr:city": "Dalików",
                "addr:postcode": "99-205",
                "amenity": "pharmacy"
            },
            "geometry": {
                "type": "Point",
                "coordinates": [
                    19.102805458252373,
                    51.882813783811365
                ]
            }
        },
        {
            "type": "Feature",
            "properties": {
                "ref:csioz": 1014256,
                "name": "Parkowa",
                "addr:housenumber": "63",
                "addr:city": "Zadzim",
                "addr:postcode": "99-232",
                "amenity": "pharmacy"
            },
            "geometry": {
                "type": "Point",
                "coordinates": [
                    18.84544460455132,
                    51.77781959134791
                ]
            }
        },
        {
            "type": "Feature",
            "properties": {
                "ref:csioz": 1118719,
                "addr:street": "Wspólna",
                "addr:housenumber": "5",
                "addr:city": "Pęczniew",
                "addr:postcode": "99-235",
                "amenity": "pharmacy"
            },
            "geometry": {
                "type": "Point",
                "coordinates": [
                    18.72698443192313,
                    51.80196733200968
                ]
            }
        },
        {
            "type": "Feature",
            "properties": {
                "ref:csioz": 1009810,
                "name": "Apteka Przyjazna 2",
                "addr:street": "Orzechowa",
                "addr:housenumber": "7",
                "addr:city": "Uniejów",
                "addr:postcode": "99-210",
                "amenity": "pharmacy"
            },
            "geometry": {
                "type": "Point",
                "coordinates": [
                    18.793948222347144,
                    51.97671518443128
                ]
            }
        },
        {
            "type": "Feature",
            "properties": {
                "ref:csioz": 1010343,
                "addr:street": "Kościuszki",
                "addr:housenumber": "4",
                "addr:city": "Poddębice",
                "addr:postcode": "99-200",
                "amenity": "pharmacy"
            },
            "geometry": {
                "type": "Point",
                "coordinates": [
                    18.952350091752336,
                    51.89315678217592
                ]
            }
        },
        {
            "type": "Feature",
            "properties": {
                "ref:csioz": 1011093,
                "name": "\"Apteka \"\"Akacja\"\"\"",
                "addr:street": "Orzechowa",
                "addr:housenumber": "6",
                "addr:city": "Uniejów",
                "addr:postcode": "99-210",
                "amenity": "pharmacy"
            },
            "geometry": {
                "type": "Point",
                "coordinates": [
                    18.794386847237263,
                    51.976974879841286
                ]
            }
        },
        {
            "type": "Feature",
            "properties": {
                "ref:csioz": 1011466,
                "addr:street": "Legionów Polskich",
                "addr:housenumber": "1",
                "addr:city": "Wartkowice",
                "addr:postcode": "99-220",
                "amenity": "pharmacy"
            },
            "geometry": {
                "type": "Point",
                "coordinates": [
                    19.003481717122,
                    51.975587698402066
                ]
            }
        },
        {
            "type": "Feature",
            "properties": {
                "ref:csioz": 1013369,
                "name": "Doz Apteka. Dbam O Zdrowie. Apteka Północna",
                "addr:street": "Północna",
                "addr:housenumber": "18A",
                "addr:city": "Poddębice",
                "addr:postcode": "99-200",
                "amenity": "pharmacy"
            },
            "geometry": {
                "type": "Point",
                "coordinates": [
                    18.954704115622395,
                    51.89675901704802
                ]
            }
        },
        {
            "type": "Feature",
            "properties": {
                "ref:csioz": 1024951,
                "name": "Prima",
                "addr:street": "Przejazd",
                "addr:housenumber": "13",
                "addr:city": "Poddębice",
                "addr:postcode": "99-200",
                "amenity": "pharmacy"
            },
            "geometry": {
                "type": "Point",
                "coordinates": [
                    18.955681999999985,
                    51.8910630000153
                ]
            }
        },
        {
            "type": "Feature",
            "properties": {
                "ref:csioz": 1020033,
                "name": "Aloes",
                "addr:street": "Kościuszki",
                "addr:housenumber": "37A",
                "addr:city": "Poddębice",
                "addr:postcode": "99-200",
                "amenity": "pharmacy"
            },
            "geometry": {
                "type": "Point",
                "coordinates": [
                    18.95250731436484,
                    51.892524579963606
                ]
            }
        },
        {
            "type": "Feature",
            "properties": {
                "ref:csioz": 1171787,
                "name": "Apteka Przy Szpitalu",
                "addr:street": "Mickiewicza",
                "addr:housenumber": "12",
                "addr:city": "Poddębice",
                "addr:postcode": "99-200",
                "amenity": "pharmacy"
            },
            "geometry": {
                "type": "Point",
                "coordinates": [
                    18.952944989627564,
                    51.88960868762973
                ]
            }
        },
        {
            "type": "Feature",
            "properties": {
                "ref:csioz": 1197117,
                "name": "Poddębickie Centrum Zdrowia Spółka Z Ograniczoną Odpowiedzialnością",
                "addr:street": "Mickiewicza",
                "addr:housenumber": "16",
                "addr:city": "Poddębice",
                "addr:postcode": "99-200",
                "amenity": "pharmacy"
            },
            "geometry": {
                "type": "Point",
                "coordinates": [
                    18.95387299999999,
                    51.88868800001531
                ]
            }
        },
        {
            "type": "Feature",
            "properties": {
                "ref:csioz": 1203646,
                "name": "\"Apteka 'Przy Łęczyckiej'\"",
                "addr:street": "Łęczycka",
                "addr:housenumber": "17/19",
                "addr:city": "Poddębice",
                "addr:postcode": "99-200",
                "amenity": "pharmacy"
            },
            "geometry": {
                "type": "Point",
                "coordinates": [
                    18.96025699999999,
                    51.89648500001531
                ]
            }
        },
        {
            "type": "Feature",
            "properties": {
                "ref:csioz": 1211892,
                "name": "Przyjazna",
                "addr:street": "Zielona",
                "addr:housenumber": "2A",
                "addr:city": "Poddębice",
                "addr:postcode": "99-200",
                "amenity": "pharmacy"
            },
            "geometry": {
                "type": "Point",
                "coordinates": [
                    18.95800420017972,
                    51.89309076242333
                ]
            }
        },
        {
            "type": "Feature",
            "properties": {
                "ref:csioz": 1212252,
                "name": "\"Apteka 'Centrum'\"",
                "addr:street": "Kościuszki",
                "addr:housenumber": "22A",
                "addr:city": "Poddębice",
                "addr:postcode": "99-200",
                "amenity": "pharmacy"
            },
            "geometry": {
                "type": "Point",
                "coordinates": [
                    18.951524164248482,
                    51.89178146910803
                ]
            }
        },
        {
            "type": "Feature",
            "properties": {
                "ref:csioz": 1214316,
                "name": "Apteka Prima",
                "addr:street": "bł. Bogumiła",
                "addr:housenumber": "41",
                "addr:city": "Uniejów",
                "addr:postcode": "99-210",
                "amenity": "pharmacy"
            },
            "geometry": {
                "type": "Point",
                "coordinates": [
                    18.796240197949622,
                    51.97019954019668
                ]
            }
        },
        {
            "type": "Feature",
            "properties": {
                "ref:csioz": 1216469,
                "name": "Przyjazna",
                "addr:street": "Turecka",
                "addr:housenumber": "3",
                "addr:city": "Uniejów",
                "addr:postcode": "99-210",
                "amenity": "pharmacy"
            },
            "geometry": {
                "type": "Point",
                "coordinates": [
                    18.792953145810994,
                    51.972947143154855
                ]
            }
        },
        {
            "type": "Feature",
            "properties": {
                "ref:csioz": 1120424,
                "name": "\"U \"\"Ani\"\"\"",
                "addr:housenumber": "34",
                "addr:city": "Niemysłów",
                "addr:postcode": "99-200",
                "amenity": "pharmacy"
            },
            "geometry": {
                "type": "Point",
                "coordinates": [
                    18.812568625189414,
                    51.86852062058011
                ]
            }
        }
    ]
}