{
    "type": "FeatureCollection",
    "name": "JPT_KOD_JE_1420",
    "crs": {
        "type": "name",
        "properties": {
            "name": "urn:ogc:def:crs:EPSG::4326"
        }
    },
    "features": [
        {
            "type": "Feature",
            "properties": {
                "ref:csioz": 1092387,
                "name": "Dbam O Zdrowie",
                "addr:street": "Władysława Jagiełły",
                "addr:housenumber": "10",
                "addr:city": "Czerwińsk nad Wisłą",
                "addr:postcode": "09-150",
                "amenity": "pharmacy"
            },
            "geometry": {
                "type": "Point",
                "coordinates": [
                    20.31276530598533,
                    52.401999119602934
                ]
            }
        },
        {
            "type": "Feature",
            "properties": {
                "ref:csioz": 1116645,
                "addr:street": "Płońska",
                "addr:housenumber": "23A",
                "addr:city": "Nacpolsk",
                "addr:postcode": "09-162",
                "amenity": "pharmacy"
            },
            "geometry": {
                "type": "Point",
                "coordinates": [
                    20.25130643013978,
                    52.50704288419638
                ]
            }
        },
        {
            "type": "Feature",
            "properties": {
                "ref:csioz": 1183352,
                "addr:housenumber": "12B/2",
                "addr:city": "Naruszewo",
                "addr:postcode": "09-152",
                "amenity": "pharmacy"
            },
            "geometry": {
                "type": "Point",
                "coordinates": [
                    20.361652000000806,
                    52.52946100001629
                ]
            }
        },
        {
            "type": "Feature",
            "properties": {
                "ref:csioz": 1200113,
                "name": "Z Uśmiechem",
                "addr:street": "Władysława Jagiełły",
                "addr:housenumber": "17C",
                "addr:city": "Czerwińsk nad Wisłą",
                "addr:postcode": "09-150",
                "amenity": "pharmacy"
            },
            "geometry": {
                "type": "Point",
                "coordinates": [
                    20.312928490068508,
                    52.40312807606928
                ]
            }
        },
        {
            "type": "Feature",
            "properties": {
                "ref:csioz": 1092703,
                "addr:housenumber": "59B",
                "addr:city": "Załuski",
                "addr:postcode": "09-142",
                "amenity": "pharmacy"
            },
            "geometry": {
                "type": "Point",
                "coordinates": [
                    20.532527346770348,
                    52.51230201704993
                ]
            }
        },
        {
            "type": "Feature",
            "properties": {
                "ref:csioz": 1081748,
                "name": "Amica",
                "addr:street": "Grunwaldzka",
                "addr:housenumber": "11",
                "addr:city": "Płońsk",
                "addr:postcode": "09-100",
                "amenity": "pharmacy"
            },
            "geometry": {
                "type": "Point",
                "coordinates": [
                    20.375020537730894,
                    52.624828365607584
                ]
            }
        },
        {
            "type": "Feature",
            "properties": {
                "ref:csioz": 1092049,
                "addr:housenumber": "28",
                "addr:city": "Dzierzążnia",
                "addr:postcode": "09-164",
                "amenity": "pharmacy"
            },
            "geometry": {
                "type": "Point",
                "coordinates": [
                    20.231995448506275,
                    52.628285738596595
                ]
            }
        },
        {
            "type": "Feature",
            "properties": {
                "ref:csioz": 1091893,
                "addr:housenumber": "51",
                "addr:city": "Joniec",
                "addr:postcode": "09-131",
                "amenity": "pharmacy"
            },
            "geometry": {
                "type": "Point",
                "coordinates": [
                    20.5776778771738,
                    52.60013738941662
                ]
            }
        },
        {
            "type": "Feature",
            "properties": {
                "ref:csioz": 1092017,
                "addr:street": "Ciechanowska",
                "addr:housenumber": "14",
                "addr:city": "Sochocin",
                "addr:postcode": "09-110",
                "amenity": "pharmacy"
            },
            "geometry": {
                "type": "Point",
                "coordinates": [
                    20.47401546374123,
                    52.68926541020104
                ]
            }
        },
        {
            "type": "Feature",
            "properties": {
                "ref:csioz": 1092473,
                "addr:street": "Szkolna",
                "addr:housenumber": "22",
                "addr:city": "Płońsk",
                "addr:postcode": "09-100",
                "amenity": "pharmacy"
            },
            "geometry": {
                "type": "Point",
                "coordinates": [
                    20.368703812537543,
                    52.62874976576563
                ]
            }
        },
        {
            "type": "Feature",
            "properties": {
                "ref:csioz": 1092485,
                "name": "Rodzinna",
                "addr:street": "Adama Mickiewicza",
                "addr:housenumber": "18",
                "addr:city": "Raciąż",
                "addr:postcode": "09-140",
                "amenity": "pharmacy"
            },
            "geometry": {
                "type": "Point",
                "coordinates": [
                    20.119534000000538,
                    52.78058400001671
                ]
            }
        },
        {
            "type": "Feature",
            "properties": {
                "ref:csioz": 1092499,
                "addr:street": "Adama Mickiewicza",
                "addr:housenumber": "10",
                "addr:city": "Raciąż",
                "addr:postcode": "09-140",
                "amenity": "pharmacy"
            },
            "geometry": {
                "type": "Point",
                "coordinates": [
                    20.118448362648905,
                    52.7814216358127
                ]
            }
        },
        {
            "type": "Feature",
            "properties": {
                "ref:csioz": 1122087,
                "addr:housenumber": "13",
                "addr:city": "Unieck",
                "addr:postcode": "09-140",
                "amenity": "pharmacy"
            },
            "geometry": {
                "type": "Point",
                "coordinates": [
                    20.198510738324536,
                    52.867880177352326
                ]
            }
        },
        {
            "type": "Feature",
            "properties": {
                "ref:csioz": 1124590,
                "name": "Centrum Medyczne Grupa Zdrowie",
                "addr:housenumber": "23A",
                "addr:city": "Kraszewo-Czubaki",
                "addr:postcode": "09-140",
                "amenity": "pharmacy"
            },
            "geometry": {
                "type": "Point",
                "coordinates": [
                    20.04315099190413,
                    52.817247120133295
                ]
            }
        },
        {
            "type": "Feature",
            "properties": {
                "ref:csioz": 1182501,
                "name": "Amica",
                "addr:street": "Warszawska",
                "addr:housenumber": "59",
                "addr:city": "Płońsk",
                "addr:postcode": "09-100",
                "amenity": "pharmacy"
            },
            "geometry": {
                "type": "Point",
                "coordinates": [
                    20.384793781730068,
                    52.61566486633689
                ]
            }
        },
        {
            "type": "Feature",
            "properties": {
                "ref:csioz": 1191127,
                "name": "\"Cef@Rm 36,6\"",
                "addr:street": "Żołnierzy Wyklętych",
                "addr:housenumber": "16",
                "addr:city": "Płońsk",
                "addr:postcode": "09-100",
                "amenity": "pharmacy"
            },
            "geometry": {
                "type": "Point",
                "coordinates": [
                    20.382235000000833,
                    52.62985900001647
                ]
            }
        },
        {
            "type": "Feature",
            "properties": {
                "ref:csioz": 1207731,
                "name": "Gemini",
                "addr:street": "Grunwaldzka",
                "addr:housenumber": "18",
                "addr:city": "Płońsk",
                "addr:postcode": "09-100",
                "amenity": "pharmacy"
            },
            "geometry": {
                "type": "Point",
                "coordinates": [
                    20.375373910790085,
                    52.6249674468061
                ]
            }
        },
        {
            "type": "Feature",
            "properties": {
                "ref:csioz": 1092404,
                "addr:street": "Główny Rynek",
                "addr:housenumber": "12",
                "addr:city": "Nowe Miasto",
                "addr:postcode": "09-120",
                "amenity": "pharmacy"
            },
            "geometry": {
                "type": "Point",
                "coordinates": [
                    20.63135529006067,
                    52.65634951723062
                ]
            }
        },
        {
            "type": "Feature",
            "properties": {
                "ref:csioz": 1092412,
                "addr:street": "Grunwaldzka",
                "addr:housenumber": "11A",
                "addr:city": "Płońsk",
                "addr:postcode": "09-100",
                "amenity": "pharmacy"
            },
            "geometry": {
                "type": "Point",
                "coordinates": [
                    20.375004842615372,
                    52.62416073533073
                ]
            }
        },
        {
            "type": "Feature",
            "properties": {
                "ref:csioz": 1092420,
                "name": "Apteka Słoneczna",
                "addr:street": "ks. Romualda Jaworskiego",
                "addr:housenumber": "2",
                "addr:city": "Płońsk",
                "addr:postcode": "09-100",
                "amenity": "pharmacy"
            },
            "geometry": {
                "type": "Point",
                "coordinates": [
                    20.36851879676946,
                    52.63197127638012
                ]
            }
        },
        {
            "type": "Feature",
            "properties": {
                "ref:csioz": 1092448,
                "addr:street": "Ogrodowa",
                "addr:housenumber": "1A",
                "addr:city": "Płońsk",
                "addr:postcode": "09-100",
                "amenity": "pharmacy"
            },
            "geometry": {
                "type": "Point",
                "coordinates": [
                    20.36737769843594,
                    52.62130436756789
                ]
            }
        },
        {
            "type": "Feature",
            "properties": {
                "ref:csioz": 1092457,
                "addr:street": "Henryka Sienkiewicza",
                "addr:housenumber": "1",
                "addr:city": "Płońsk",
                "addr:postcode": "09-100",
                "amenity": "pharmacy"
            },
            "geometry": {
                "type": "Point",
                "coordinates": [
                    20.37417832520204,
                    52.62909325582153
                ]
            }
        },
        {
            "type": "Feature",
            "properties": {
                "ref:csioz": 1092461,
                "addr:street": "Warszawska",
                "addr:housenumber": "8",
                "addr:city": "Płońsk",
                "addr:postcode": "09-100",
                "amenity": "pharmacy"
            },
            "geometry": {
                "type": "Point",
                "coordinates": [
                    20.375670803780594,
                    52.62237515524806
                ]
            }
        },
        {
            "type": "Feature",
            "properties": {
                "ref:csioz": 1092500,
                "addr:street": "Jana i Antoniego Brodeckich",
                "addr:housenumber": "5",
                "addr:city": "Baboszewo",
                "addr:postcode": "09-130",
                "amenity": "pharmacy"
            },
            "geometry": {
                "type": "Point",
                "coordinates": [
                    20.254039532465374,
                    52.6792070584923
                ]
            }
        },
        {
            "type": "Feature",
            "properties": {
                "ref:csioz": 1092769,
                "name": "Pod Cisem",
                "addr:street": "Błonie",
                "addr:housenumber": "22",
                "addr:city": "Raciąż",
                "addr:postcode": "09-140",
                "amenity": "pharmacy"
            },
            "geometry": {
                "type": "Point",
                "coordinates": [
                    20.11902198899668,
                    52.77939194084479
                ]
            }
        },
        {
            "type": "Feature",
            "properties": {
                "ref:csioz": 1092838,
                "name": "Z Uśmiechem",
                "addr:street": "Grunwaldzka",
                "addr:housenumber": "24B",
                "addr:city": "Płońsk",
                "addr:postcode": "09-100",
                "amenity": "pharmacy"
            },
            "geometry": {
                "type": "Point",
                "coordinates": [
                    20.375938244206598,
                    52.62560569150565
                ]
            }
        },
        {
            "type": "Feature",
            "properties": {
                "ref:csioz": 1092851,
                "name": "Orchidea",
                "addr:street": "Ciechanowska",
                "addr:housenumber": "75B",
                "addr:city": "Nowe Miasto",
                "addr:postcode": "09-120",
                "amenity": "pharmacy"
            },
            "geometry": {
                "type": "Point",
                "coordinates": [
                    20.623665000001314,
                    52.66611200001654
                ]
            }
        },
        {
            "type": "Feature",
            "properties": {
                "ref:csioz": 1098423,
                "name": "Apteka Szpitalna",
                "addr:street": "Henryka Sienkiewicza",
                "addr:housenumber": "7",
                "addr:city": "Płońsk",
                "addr:postcode": "09-100",
                "amenity": "pharmacy"
            },
            "geometry": {
                "type": "Point",
                "coordinates": [
                    20.376824327949333,
                    52.63010409980363
                ]
            }
        },
        {
            "type": "Feature",
            "properties": {
                "ref:csioz": 1124680,
                "name": "Opieka Długoterminowa",
                "addr:housenumber": "51",
                "addr:city": "Joniec",
                "addr:postcode": "09-131",
                "amenity": "pharmacy"
            },
            "geometry": {
                "type": "Point",
                "coordinates": [
                    20.5776778771738,
                    52.60013738941662
                ]
            }
        },
        {
            "type": "Feature",
            "properties": {
                "ref:csioz": 1209435,
                "name": "Z Uśmiechem",
                "addr:street": "Warszawska",
                "addr:housenumber": "28",
                "addr:city": "Płońsk",
                "addr:postcode": "09-100",
                "amenity": "pharmacy"
            },
            "geometry": {
                "type": "Point",
                "coordinates": [
                    20.377017297942476,
                    52.62109355595581
                ]
            }
        },
        {
            "type": "Feature",
            "properties": {
                "ref:csioz": 1230774,
                "addr:street": "Ciechanowska",
                "addr:housenumber": "2",
                "addr:city": "Sochocin",
                "addr:postcode": "09-110",
                "amenity": "pharmacy"
            },
            "geometry": {
                "type": "Point",
                "coordinates": [
                    20.47214000000099,
                    52.68678700001655
                ]
            }
        }
    ]
}