{
    "type": "FeatureCollection",
    "name": "JPT_KOD_JE_0812",
    "features": [
        {
            "type": "Feature",
            "properties": {
                "ref:csioz": 1148796,
                "name": "Mediq Apteka Eskulap",
                "addr:street": "Rynek",
                "addr:housenumber": "11",
                "addr:city": "Szlichtyngowa",
                "addr:postcode": "67-497",
                "amenity": "pharmacy"
            },
            "geometry": {
                "type": "Point",
                "coordinates": [
                    16.243557509953675,
                    51.71380746917424
                ]
            }
        },
        {
            "type": "Feature",
            "properties": {
                "ref:csioz": 1122782,
                "name": "Rumianek",
                "addr:street": "Krzepielów",
                "addr:housenumber": "163",
                "addr:city": "Krzepielów",
                "addr:postcode": "67-410",
                "amenity": "pharmacy"
            },
            "geometry": {
                "type": "Point",
                "coordinates": [
                    16.103384999984716,
                    51.78839400001525
                ]
            }
        },
        {
            "type": "Feature",
            "properties": {
                "ref:csioz": 1149016,
                "name": "Pod Wagą",
                "addr:street": "Cicha",
                "addr:housenumber": "5",
                "addr:city": "Wschowa",
                "addr:postcode": "67-400",
                "amenity": "pharmacy"
            },
            "geometry": {
                "type": "Point",
                "coordinates": [
                    16.31407017559711,
                    51.80876264503818
                ]
            }
        },
        {
            "type": "Feature",
            "properties": {
                "ref:csioz": 1149027,
                "name": "Remedium",
                "addr:street": "Kilińskiego",
                "addr:housenumber": "1",
                "addr:city": "Wschowa",
                "addr:postcode": "67-400",
                "amenity": "pharmacy"
            },
            "geometry": {
                "type": "Point",
                "coordinates": [
                    16.317819766136758,
                    51.80417869646469
                ]
            }
        },
        {
            "type": "Feature",
            "properties": {
                "ref:csioz": 1149034,
                "name": "Apteka Dr. Optima",
                "addr:street": "Moniuszki",
                "addr:housenumber": "8A",
                "addr:city": "Wschowa",
                "addr:postcode": "67-400",
                "amenity": "pharmacy"
            },
            "geometry": {
                "type": "Point",
                "coordinates": [
                    16.319535484723882,
                    51.802271567751724
                ]
            }
        },
        {
            "type": "Feature",
            "properties": {
                "ref:csioz": 1167119,
                "addr:street": "Ks.A. Kostki",
                "addr:housenumber": "33",
                "addr:city": "Wschowa",
                "addr:postcode": "67-400",
                "amenity": "pharmacy"
            },
            "geometry": {
                "type": "Point",
                "coordinates": [
                    16.32305687060133,
                    51.80513615911758
                ]
            }
        },
        {
            "type": "Feature",
            "properties": {
                "ref:csioz": 1181783,
                "name": "Apteka Pod Orłem",
                "addr:street": "Bohaterów Westerplatte",
                "addr:housenumber": "9",
                "addr:city": "Wschowa",
                "addr:postcode": "67-400",
                "amenity": "pharmacy"
            },
            "geometry": {
                "type": "Point",
                "coordinates": [
                    16.31868552481167,
                    51.80576770057348
                ]
            }
        },
        {
            "type": "Feature",
            "properties": {
                "ref:csioz": 1148678,
                "name": "Accuratus",
                "addr:street": "Nowy Rynek",
                "addr:housenumber": "28",
                "addr:city": "Sława",
                "addr:postcode": "67-410",
                "amenity": "pharmacy"
            },
            "geometry": {
                "type": "Point",
                "coordinates": [
                    16.068958201906472,
                    51.87875404758527
                ]
            }
        },
        {
            "type": "Feature",
            "properties": {
                "ref:csioz": 1148686,
                "name": "Remedium",
                "addr:street": "Ogrodowa",
                "addr:housenumber": "2A",
                "addr:city": "Sława",
                "addr:postcode": "67-410",
                "amenity": "pharmacy"
            },
            "geometry": {
                "type": "Point",
                "coordinates": [
                    16.066241688352264,
                    51.8810574535266
                ]
            }
        },
        {
            "type": "Feature",
            "properties": {
                "ref:csioz": 1148693,
                "addr:street": "Rynek",
                "addr:housenumber": "28",
                "addr:city": "Sława",
                "addr:postcode": "67-410",
                "amenity": "pharmacy"
            },
            "geometry": {
                "type": "Point",
                "coordinates": [
                    16.071100480205335,
                    51.877456661928605
                ]
            }
        },
        {
            "type": "Feature",
            "properties": {
                "ref:csioz": 1148701,
                "name": "Słoneczna",
                "addr:street": "Nowy Rynek",
                "addr:housenumber": "32",
                "addr:city": "Sława",
                "addr:postcode": "67-410",
                "amenity": "pharmacy"
            },
            "geometry": {
                "type": "Point",
                "coordinates": [
                    16.069293854459502,
                    51.87865698599472
                ]
            }
        },
        {
            "type": "Feature",
            "properties": {
                "ref:csioz": 1149042,
                "name": "Apteka Pod Waga",
                "addr:street": "Niepodległości",
                "addr:housenumber": "19",
                "addr:city": "Wschowa",
                "addr:postcode": "67-400",
                "amenity": "pharmacy"
            },
            "geometry": {
                "type": "Point",
                "coordinates": [
                    16.317230907044816,
                    51.80708573174586
                ]
            }
        },
        {
            "type": "Feature",
            "properties": {
                "ref:csioz": 1149069,
                "name": "Osiedlowa",
                "addr:street": "Zielona",
                "addr:housenumber": "21",
                "addr:city": "Wschowa",
                "addr:postcode": "67-400",
                "amenity": "pharmacy"
            },
            "geometry": {
                "type": "Point",
                "coordinates": [
                    16.312637296021716,
                    51.80442794568058
                ]
            }
        },
        {
            "type": "Feature",
            "properties": {
                "ref:csioz": 1166478,
                "name": "Apteka Pod Wieżą",
                "addr:street": "Wolsztyńska",
                "addr:housenumber": "18A",
                "addr:city": "Wschowa",
                "addr:postcode": "67-400",
                "amenity": "pharmacy"
            },
            "geometry": {
                "type": "Point",
                "coordinates": [
                    16.308638813333587,
                    51.81423661248532
                ]
            }
        }
    ]
}