{
    "type": "FeatureCollection",
    "name": "JPT_KOD_JE_0801",
    "crs": {
        "type": "name",
        "properties": {
            "name": "urn:ogc:def:crs:EPSG::4326"
        }
    },
    "features": [
        {
            "type": "Feature",
            "properties": {
                "ref:csioz": 1150703,
                "addr:street": "Myśliborska",
                "addr:housenumber": "16",
                "addr:city": "Lubiszyn",
                "addr:postcode": "66-433",
                "amenity": "pharmacy"
            },
            "geometry": {
                "type": "Point",
                "coordinates": [
                    14.944954993041868,
                    52.78097809581289
                ]
            }
        },
        {
            "type": "Feature",
            "properties": {
                "ref:csioz": 1188138,
                "name": "Rumianek",
                "addr:street": "Gorzowska",
                "addr:housenumber": "33A",
                "addr:city": "Kłodawa",
                "addr:postcode": "66-415",
                "amenity": "pharmacy"
            },
            "geometry": {
                "type": "Point",
                "coordinates": [
                    15.21206171578474,
                    52.78810630483036
                ]
            }
        },
        {
            "type": "Feature",
            "properties": {
                "ref:csioz": 1213048,
                "name": "\"'Doz Apteka.Dbam O Zdrowie'\"",
                "addr:street": "Kościelna",
                "addr:housenumber": "19A",
                "addr:flats": "1",
                "addr:city": "Kłodawa",
                "addr:postcode": "66-415",
                "amenity": "pharmacy"
            },
            "geometry": {
                "type": "Point",
                "coordinates": [
                    15.21092327227165,
                    52.78749834486494
                ]
            }
        },
        {
            "type": "Feature",
            "properties": {
                "ref:csioz": 1116536,
                "name": "Apteka Centrum Leków",
                "addr:street": "Pocztowa",
                "addr:housenumber": "2",
                "addr:city": "Witnica",
                "addr:postcode": "66-460",
                "amenity": "pharmacy"
            },
            "geometry": {
                "type": "Point",
                "coordinates": [
                    14.897066999926626,
                    52.67274600001823
                ]
            }
        },
        {
            "type": "Feature",
            "properties": {
                "ref:csioz": 1149366,
                "name": "Bogdanka",
                "addr:street": "Mickiewicza",
                "addr:housenumber": "25",
                "addr:city": "Bogdaniec",
                "addr:postcode": "66-450",
                "amenity": "pharmacy"
            },
            "geometry": {
                "type": "Point",
                "coordinates": [
                    15.06780530403631,
                    52.68799016504727
                ]
            }
        },
        {
            "type": "Feature",
            "properties": {
                "ref:csioz": 1196148,
                "name": "Ziko Apteka",
                "addr:street": "Maszewska",
                "addr:housenumber": "2",
                "addr:city": "Deszczno",
                "addr:postcode": "66-446",
                "amenity": "pharmacy"
            },
            "geometry": {
                "type": "Point",
                "coordinates": [
                    15.309380375079503,
                    52.67191021188207
                ]
            }
        },
        {
            "type": "Feature",
            "properties": {
                "ref:csioz": 1138991,
                "name": "Apteka Linea Vita",
                "addr:street": "Żeglarska",
                "addr:housenumber": "1",
                "addr:city": "Kostrzyn nad Odrą",
                "addr:postcode": "66-470",
                "amenity": "pharmacy"
            },
            "geometry": {
                "type": "Point",
                "coordinates": [
                    14.65346799990151,
                    52.58679900001899
                ]
            }
        },
        {
            "type": "Feature",
            "properties": {
                "ref:csioz": 1149882,
                "name": "Eskulap",
                "addr:street": "Jagiellońska",
                "addr:housenumber": "1",
                "addr:flats": "b",
                "addr:city": "Kostrzyn nad Odrą",
                "addr:postcode": "66-470",
                "amenity": "pharmacy"
            },
            "geometry": {
                "type": "Point",
                "coordinates": [
                    14.643299044680454,
                    52.59329485366498
                ]
            }
        },
        {
            "type": "Feature",
            "properties": {
                "ref:csioz": 1149906,
                "name": "Centrum",
                "addr:street": "Władysława Sikorskiego",
                "addr:housenumber": "35",
                "addr:city": "Kostrzyn nad Odrą",
                "addr:postcode": "66-470",
                "amenity": "pharmacy"
            },
            "geometry": {
                "type": "Point",
                "coordinates": [
                    14.650477999901243,
                    52.58977000001904
                ]
            }
        },
        {
            "type": "Feature",
            "properties": {
                "ref:csioz": 1149911,
                "name": "Nowa",
                "addr:street": "Wodna",
                "addr:housenumber": "6",
                "addr:city": "Kostrzyn nad Odrą",
                "addr:postcode": "66-470",
                "amenity": "pharmacy"
            },
            "geometry": {
                "type": "Point",
                "coordinates": [
                    14.656112252888695,
                    52.588274728765896
                ]
            }
        },
        {
            "type": "Feature",
            "properties": {
                "ref:csioz": 1149922,
                "name": "Corax",
                "addr:street": "Władysława Sikorskiego",
                "addr:housenumber": "12",
                "addr:city": "Kostrzyn nad Odrą",
                "addr:postcode": "66-470",
                "amenity": "pharmacy"
            },
            "geometry": {
                "type": "Point",
                "coordinates": [
                    14.642310998193473,
                    52.580693724150635
                ]
            }
        },
        {
            "type": "Feature",
            "properties": {
                "ref:csioz": 1149933,
                "name": "Corax",
                "addr:street": "Spichrzowa",
                "addr:housenumber": "2",
                "addr:city": "Kostrzyn nad Odrą",
                "addr:postcode": "66-470",
                "amenity": "pharmacy"
            },
            "geometry": {
                "type": "Point",
                "coordinates": [
                    14.638999189332305,
                    52.578909056540226
                ]
            }
        },
        {
            "type": "Feature",
            "properties": {
                "ref:csioz": 1149940,
                "name": "Apteka Corax",
                "addr:street": "Marii Konopnickiej",
                "addr:housenumber": "1",
                "addr:city": "Kostrzyn nad Odrą",
                "addr:postcode": "66-470",
                "amenity": "pharmacy"
            },
            "geometry": {
                "type": "Point",
                "coordinates": [
                    14.660017615516226,
                    52.59005493912457
                ]
            }
        },
        {
            "type": "Feature",
            "properties": {
                "ref:csioz": 1150910,
                "addr:street": "Narutowicza",
                "addr:housenumber": "6",
                "addr:city": "Kostrzyn nad Odrą",
                "addr:postcode": "66-470",
                "amenity": "pharmacy"
            },
            "geometry": {
                "type": "Point",
                "coordinates": [
                    14.641399798603729,
                    52.60812232257851
                ]
            }
        },
        {
            "type": "Feature",
            "properties": {
                "ref:csioz": 1165539,
                "name": "Łupowo",
                "addr:street": "Słowackiego",
                "addr:housenumber": "87",
                "addr:city": "Łupowo",
                "addr:postcode": "66-450",
                "amenity": "pharmacy"
            },
            "geometry": {
                "type": "Point",
                "coordinates": [
                    15.12134361919377,
                    52.70222823080813
                ]
            }
        },
        {
            "type": "Feature",
            "properties": {
                "ref:csioz": 1195218,
                "name": "Ziko Apteka",
                "addr:street": "Gorzowska",
                "addr:housenumber": "153 A",
                "addr:city": "Jenin",
                "addr:postcode": "66-450",
                "amenity": "pharmacy"
            },
            "geometry": {
                "type": "Point",
                "coordinates": [
                    15.120001177598972,
                    52.7014795088532
                ]
            }
        },
        {
            "type": "Feature",
            "properties": {
                "ref:csioz": 1223727,
                "name": "\"Apteka \"\"Dr. Max\"\"\"",
                "addr:street": "Piaskowa",
                "addr:housenumber": "4",
                "addr:city": "Witnica",
                "addr:postcode": "66-460",
                "amenity": "pharmacy"
            },
            "geometry": {
                "type": "Point",
                "coordinates": [
                    14.891343348745895,
                    52.67401417808502
                ]
            }
        }
    ]
}