{
    "type": "FeatureCollection",
    "name": "JPT_KOD_JE_1215",
    "features": [
        {
            "type": "Feature",
            "properties": {
                "ref:csioz": 1036357,
                "addr:housenumber": "82a",
                "addr:city": "Krzeszów",
                "addr:postcode": "32-206",
                "amenity": "pharmacy"
            },
            "geometry": {
                "type": "Point",
                "coordinates": [
                    19.487605492645088,
                    49.758743517068304
                ]
            }
        },
        {
            "type": "Feature",
            "properties": {
                "ref:csioz": 1042487,
                "name": "Sana",
                "addr:street": "Adama Mickiewicza",
                "addr:housenumber": "123",
                "addr:city": "Sucha Beskidzka",
                "addr:postcode": "34-200",
                "amenity": "pharmacy"
            },
            "geometry": {
                "type": "Point",
                "coordinates": [
                    19.5901175036094,
                    49.74131251179727
                ]
            }
        },
        {
            "type": "Feature",
            "properties": {
                "ref:csioz": 1056756,
                "name": "Aspirynka Król Sp. J.",
                "addr:street": "Adama Mickiewicza",
                "addr:housenumber": "91",
                "addr:city": "Sucha Beskidzka",
                "addr:postcode": "34-200",
                "amenity": "pharmacy"
            },
            "geometry": {
                "type": "Point",
                "coordinates": [
                    19.591865915663515,
                    49.74144793618922
                ]
            }
        },
        {
            "type": "Feature",
            "properties": {
                "ref:csioz": 1056828,
                "name": "Apteka Jacek Stopa",
                "addr:street": "Adama Mickiewicza",
                "addr:housenumber": "18",
                "addr:city": "Sucha Beskidzka",
                "addr:postcode": "34-200",
                "amenity": "pharmacy"
            },
            "geometry": {
                "type": "Point",
                "coordinates": [
                    19.598304110746888,
                    49.742305394690234
                ]
            }
        },
        {
            "type": "Feature",
            "properties": {
                "ref:csioz": 1076189,
                "name": "P.H Apteka Św. Franciszka",
                "addr:housenumber": "23",
                "addr:city": "Stryszawa",
                "addr:postcode": "34-205",
                "amenity": "pharmacy"
            },
            "geometry": {
                "type": "Point",
                "coordinates": [
                    19.50661210895944,
                    49.72776221425217
                ]
            }
        },
        {
            "type": "Feature",
            "properties": {
                "ref:csioz": 1077383,
                "name": "Apteka Corda",
                "addr:housenumber": "460",
                "addr:city": "Budzów",
                "addr:postcode": "34-211",
                "amenity": "pharmacy"
            },
            "geometry": {
                "type": "Point",
                "coordinates": [
                    19.67380533405399,
                    49.777255959259996
                ]
            }
        },
        {
            "type": "Feature",
            "properties": {
                "ref:csioz": 1194010,
                "name": "Szpital Rejonowy Im. Dr Jana Gawlika",
                "addr:street": "Szpitalna",
                "addr:housenumber": "22",
                "addr:city": "Sucha Beskidzka",
                "addr:postcode": "34-200",
                "amenity": "pharmacy"
            },
            "geometry": {
                "type": "Point",
                "coordinates": [
                    19.604649000000155,
                    49.73646300001214
                ]
            }
        },
        {
            "type": "Feature",
            "properties": {
                "ref:csioz": 1196259,
                "name": "Zdrowie",
                "addr:housenumber": "721",
                "addr:city": "Sidzina",
                "addr:postcode": "34-236",
                "amenity": "pharmacy"
            },
            "geometry": {
                "type": "Point",
                "coordinates": [
                    19.728106674095468,
                    49.61160535512397
                ]
            }
        },
        {
            "type": "Feature",
            "properties": {
                "ref:csioz": 1203021,
                "name": "Apteka Bądź Zdrów Przy Medyku",
                "addr:street": "Adama Mickiewicza",
                "addr:housenumber": "56",
                "addr:city": "Sucha Beskidzka",
                "addr:postcode": "34-200",
                "amenity": "pharmacy"
            },
            "geometry": {
                "type": "Point",
                "coordinates": [
                    19.58533690735227,
                    49.741463039420566
                ]
            }
        },
        {
            "type": "Feature",
            "properties": {
                "ref:csioz": 1036008,
                "name": "Niezapominajka",
                "addr:street": "Szpitalna",
                "addr:housenumber": "22",
                "addr:city": "Sucha Beskidzka",
                "addr:postcode": "34-200",
                "amenity": "pharmacy"
            },
            "geometry": {
                "type": "Point",
                "coordinates": [
                    19.604649000000155,
                    49.73646300001214
                ]
            }
        },
        {
            "type": "Feature",
            "properties": {
                "ref:csioz": 1038457,
                "name": "Apteka Dbam O Zdrowie",
                "addr:housenumber": "1560",
                "addr:city": "Zawoja",
                "addr:postcode": "34-222",
                "amenity": "pharmacy"
            },
            "geometry": {
                "type": "Point",
                "coordinates": [
                    19.55708316268596,
                    49.659179565717665
                ]
            }
        },
        {
            "type": "Feature",
            "properties": {
                "ref:csioz": 1042295,
                "name": "Apteka Pod Kasztanami G. Mazur Spółka Jawna",
                "addr:housenumber": "541",
                "addr:city": "Zembrzyce",
                "addr:postcode": "34-210",
                "amenity": "pharmacy"
            },
            "geometry": {
                "type": "Point",
                "coordinates": [
                    19.602850174351037,
                    49.77593205180183
                ]
            }
        },
        {
            "type": "Feature",
            "properties": {
                "ref:csioz": 1042307,
                "name": "Apteka Pod Kasztanami G. Mazur Spólka Jawna",
                "addr:street": "Kasztanowa",
                "addr:housenumber": "11",
                "addr:city": "Maków Podhalański",
                "addr:postcode": "34-220",
                "amenity": "pharmacy"
            },
            "geometry": {
                "type": "Point",
                "coordinates": [
                    19.682050286328984,
                    49.72956037081928
                ]
            }
        },
        {
            "type": "Feature",
            "properties": {
                "ref:csioz": 1074659,
                "addr:housenumber": "833",
                "addr:city": "Zawoja",
                "addr:postcode": "34-222",
                "amenity": "pharmacy"
            },
            "geometry": {
                "type": "Point",
                "coordinates": [
                    19.557293815131484,
                    49.660223743099074
                ]
            }
        },
        {
            "type": "Feature",
            "properties": {
                "ref:csioz": 1075852,
                "name": "Apteka Makowska",
                "addr:street": "Szpitalna",
                "addr:housenumber": "6",
                "addr:city": "Maków Podhalański",
                "addr:postcode": "34-220",
                "amenity": "pharmacy"
            },
            "geometry": {
                "type": "Point",
                "coordinates": [
                    19.679304765946736,
                    49.72979002073237
                ]
            }
        },
        {
            "type": "Feature",
            "properties": {
                "ref:csioz": 1076458,
                "name": "Apteka Mgr Farm. Katarzyna Wciślak",
                "addr:street": "Handlowa",
                "addr:housenumber": "3",
                "addr:city": "Sucha Beskidzka",
                "addr:postcode": "34-200",
                "amenity": "pharmacy"
            },
            "geometry": {
                "type": "Point",
                "coordinates": [
                    19.586648988108944,
                    49.74040931889234
                ]
            }
        },
        {
            "type": "Feature",
            "properties": {
                "ref:csioz": 1114349,
                "name": "Centrum Medyczne Promed-Sucha Beskidzka",
                "addr:street": "Szpitalna",
                "addr:housenumber": "22",
                "addr:city": "Sucha Beskidzka",
                "addr:postcode": "34-200",
                "amenity": "pharmacy"
            },
            "geometry": {
                "type": "Point",
                "coordinates": [
                    19.604649000000155,
                    49.73646300001214
                ]
            }
        },
        {
            "type": "Feature",
            "properties": {
                "ref:csioz": 1192299,
                "addr:street": "Adama Mickiewicza",
                "addr:housenumber": "169",
                "addr:city": "Sucha Beskidzka",
                "addr:postcode": "34-200",
                "amenity": "pharmacy"
            },
            "geometry": {
                "type": "Point",
                "coordinates": [
                    19.587757392231325,
                    49.74111663199672
                ]
            }
        },
        {
            "type": "Feature",
            "properties": {
                "ref:csioz": 1192533,
                "name": "Apteka Panaceum",
                "addr:street": "Wolności",
                "addr:housenumber": "2",
                "addr:city": "Maków Podhalański",
                "addr:postcode": "34-220",
                "amenity": "pharmacy"
            },
            "geometry": {
                "type": "Point",
                "coordinates": [
                    19.675917466303527,
                    49.72973536538182
                ]
            }
        },
        {
            "type": "Feature",
            "properties": {
                "ref:csioz": 1195016,
                "addr:housenumber": "410",
                "addr:city": "Bieńkówka",
                "addr:postcode": "34-212",
                "amenity": "pharmacy"
            },
            "geometry": {
                "type": "Point",
                "coordinates": [
                    19.72868769297965,
                    49.764212063502455
                ]
            }
        },
        {
            "type": "Feature",
            "properties": {
                "ref:csioz": 1221582,
                "addr:street": "Adama Mickiewicza",
                "addr:housenumber": "22",
                "addr:city": "Sucha Beskidzka",
                "addr:postcode": "34-200",
                "amenity": "pharmacy"
            },
            "geometry": {
                "type": "Point",
                "coordinates": [
                    19.59637422856567,
                    49.74282147461496
                ]
            }
        },
        {
            "type": "Feature",
            "properties": {
                "ref:csioz": 1228503,
                "addr:housenumber": "448",
                "addr:city": "Skawica",
                "addr:postcode": "34-221",
                "amenity": "pharmacy"
            },
            "geometry": {
                "type": "Point",
                "coordinates": [
                    19.627780247472092,
                    49.67812271086472
                ]
            }
        },
        {
            "type": "Feature",
            "properties": {
                "ref:csioz": 1230075,
                "addr:housenumber": "195 B",
                "addr:city": "Lachowice",
                "addr:postcode": "34-232",
                "amenity": "pharmacy"
            },
            "geometry": {
                "type": "Point",
                "coordinates": [
                    19.472006822469567,
                    49.712541190429704
                ]
            }
        },
        {
            "type": "Feature",
            "properties": {
                "ref:csioz": 1220494,
                "name": "Corda",
                "addr:housenumber": "32A",
                "addr:city": "Stryszawa",
                "addr:postcode": "34-205",
                "amenity": "pharmacy"
            },
            "geometry": {
                "type": "Point",
                "coordinates": [
                    19.508088143926912,
                    49.72767236953779
                ]
            }
        },
        {
            "type": "Feature",
            "properties": {
                "ref:csioz": 1076298,
                "name": "Nova",
                "addr:street": "Adama Mickiewicza",
                "addr:housenumber": "39",
                "addr:city": "Sucha Beskidzka",
                "addr:postcode": "34-200",
                "amenity": "pharmacy"
            },
            "geometry": {
                "type": "Point",
                "coordinates": [
                    19.580019733658,
                    49.739585172485896
                ]
            }
        },
        {
            "type": "Feature",
            "properties": {
                "ref:csioz": 1220507,
                "name": "Corda",
                "addr:street": "Rynek",
                "addr:housenumber": "10",
                "addr:city": "Maków Podhalański",
                "addr:postcode": "34-220",
                "amenity": "pharmacy"
            },
            "geometry": {
                "type": "Point",
                "coordinates": [
                    19.677205406810103,
                    49.72971802623422
                ]
            }
        },
        {
            "type": "Feature",
            "properties": {
                "ref:csioz": 1220483,
                "name": "Corda",
                "addr:housenumber": "542 A",
                "addr:city": "Juszczyn",
                "addr:postcode": "34-231",
                "amenity": "pharmacy"
            },
            "geometry": {
                "type": "Point",
                "coordinates": [
                    19.70793515961066,
                    49.69730401363568
                ]
            }
        },
        {
            "type": "Feature",
            "properties": {
                "ref:csioz": 1038513,
                "name": "Therapia",
                "addr:housenumber": "540",
                "addr:city": "Osielec",
                "addr:postcode": "34-786",
                "amenity": "pharmacy"
            },
            "geometry": {
                "type": "Point",
                "coordinates": [
                    19.757152719254652,
                    49.675454492917034
                ]
            }
        },
        {
            "type": "Feature",
            "properties": {
                "ref:csioz": 1075569,
                "name": "Apteka Bystrzańska",
                "addr:housenumber": "353A",
                "addr:city": "Bystra Podhalańska",
                "addr:postcode": "34-235",
                "amenity": "pharmacy"
            },
            "geometry": {
                "type": "Point",
                "coordinates": [
                    19.776653723155643,
                    49.6410050289563
                ]
            }
        },
        {
            "type": "Feature",
            "properties": {
                "ref:csioz": 1173612,
                "name": "Apteka Jordanowska",
                "addr:street": "Rynek",
                "addr:housenumber": "3",
                "addr:city": "Jordanów",
                "addr:postcode": "34-240",
                "amenity": "pharmacy"
            },
            "geometry": {
                "type": "Point",
                "coordinates": [
                    19.831104000000245,
                    49.64898700001202
                ]
            }
        },
        {
            "type": "Feature",
            "properties": {
                "ref:csioz": 1036215,
                "name": "Zdrowe Ceny",
                "addr:street": "Rynek",
                "addr:housenumber": "19",
                "addr:city": "Jordanów",
                "addr:postcode": "34-240",
                "amenity": "pharmacy"
            },
            "geometry": {
                "type": "Point",
                "coordinates": [
                    19.830544005249152,
                    49.648714414372954
                ]
            }
        },
        {
            "type": "Feature",
            "properties": {
                "ref:csioz": 1076222,
                "addr:housenumber": "477",
                "addr:city": "Naprawa",
                "addr:postcode": "34-785",
                "amenity": "pharmacy"
            },
            "geometry": {
                "type": "Point",
                "coordinates": [
                    19.876123350335916,
                    49.66238234573059
                ]
            }
        },
        {
            "type": "Feature",
            "properties": {
                "ref:csioz": 1076962,
                "addr:street": "Piłsudskiego",
                "addr:housenumber": "1",
                "addr:city": "Jordanów",
                "addr:postcode": "34-240",
                "amenity": "pharmacy"
            },
            "geometry": {
                "type": "Point",
                "coordinates": [
                    19.831522939906158,
                    49.64940067775486
                ]
            }
        },
        {
            "type": "Feature",
            "properties": {
                "ref:csioz": 1210457,
                "addr:street": "Rynek",
                "addr:housenumber": "46",
                "addr:city": "Jordanów",
                "addr:postcode": "34-240",
                "amenity": "pharmacy"
            },
            "geometry": {
                "type": "Point",
                "coordinates": [
                    19.828997000000246,
                    49.649678000012024
                ]
            }
        },
        {
            "type": "Feature",
            "properties": {
                "ref:csioz": 1196245,
                "addr:housenumber": "465",
                "addr:city": "Łętownia",
                "addr:postcode": "34-242",
                "amenity": "pharmacy"
            },
            "geometry": {
                "type": "Point",
                "coordinates": [
                    19.870370057028918,
                    49.69706678254468
                ]
            }
        }
    ]
}