{
    "type": "FeatureCollection",
    "name": "JPT_KOD_JE_2808",
    "features": [
        {
            "type": "Feature",
            "properties": {
                "ref:csioz": 1206649,
                "name": "Apteka Zdrowie",
                "addr:street": "Rynkowy",
                "addr:housenumber": "2",
                "addr:city": "Srokowo",
                "addr:postcode": "11-420",
                "amenity": "pharmacy"
            },
            "geometry": {
                "type": "Point",
                "coordinates": [
                    21.52306660471607,
                    54.2139468829665
                ]
            }
        },
        {
            "type": "Feature",
            "properties": {
                "ref:csioz": 1037983,
                "addr:street": "Floriana Piotrowskiego",
                "addr:housenumber": "4",
                "addr:city": "Barciany",
                "addr:postcode": "11-410",
                "amenity": "pharmacy"
            },
            "geometry": {
                "type": "Point",
                "coordinates": [
                    21.35051573478618,
                    54.22136844907215
                ]
            }
        },
        {
            "type": "Feature",
            "properties": {
                "ref:csioz": 1039272,
                "addr:street": "gen. Władysława Sikorskiego",
                "addr:housenumber": "7",
                "addr:city": "Kętrzyn",
                "addr:postcode": "11-400",
                "amenity": "pharmacy"
            },
            "geometry": {
                "type": "Point",
                "coordinates": [
                    21.374806393908454,
                    54.07722250510333
                ]
            }
        },
        {
            "type": "Feature",
            "properties": {
                "ref:csioz": 1039246,
                "name": "Wracam Do Zdrowia",
                "addr:street": "Urocza",
                "addr:housenumber": "4",
                "addr:city": "Kętrzyn",
                "addr:postcode": "11-400",
                "amenity": "pharmacy"
            },
            "geometry": {
                "type": "Point",
                "coordinates": [
                    21.36694776050787,
                    54.08153913010136
                ]
            }
        },
        {
            "type": "Feature",
            "properties": {
                "ref:csioz": 1039280,
                "name": "Doz Apteka. Dbam O Zdrowie. Bis",
                "addr:street": "Władysława Reymonta",
                "addr:housenumber": "2",
                "addr:city": "Korsze",
                "addr:postcode": "11-430",
                "amenity": "pharmacy"
            },
            "geometry": {
                "type": "Point",
                "coordinates": [
                    21.135098731334562,
                    54.17003295614668
                ]
            }
        },
        {
            "type": "Feature",
            "properties": {
                "ref:csioz": 1039708,
                "name": "Melissa",
                "addr:street": "Kolejowa",
                "addr:housenumber": "3",
                "addr:city": "Reszel",
                "addr:postcode": "11-440",
                "amenity": "pharmacy"
            },
            "geometry": {
                "type": "Point",
                "coordinates": [
                    21.144972749288545,
                    54.05084903870438
                ]
            }
        },
        {
            "type": "Feature",
            "properties": {
                "ref:csioz": 1039724,
                "name": "\"Apteka \"\"Pod Orłem\"\" Nowa Farmacja Katarzyna Jabłońska\"",
                "addr:street": "Rynek",
                "addr:housenumber": "23",
                "addr:city": "Reszel",
                "addr:postcode": "11-440",
                "amenity": "pharmacy"
            },
            "geometry": {
                "type": "Point",
                "coordinates": [
                    21.14585216918861,
                    54.048748551610515
                ]
            }
        },
        {
            "type": "Feature",
            "properties": {
                "ref:csioz": 1042004,
                "addr:street": "Marii Curie-Skłodowskiej",
                "addr:housenumber": "2",
                "addr:city": "Kętrzyn",
                "addr:postcode": "11-400",
                "amenity": "pharmacy"
            },
            "geometry": {
                "type": "Point",
                "coordinates": [
                    21.377401168993522,
                    54.08261412231113
                ]
            }
        },
        {
            "type": "Feature",
            "properties": {
                "ref:csioz": 1039175,
                "name": "Dr.Max",
                "addr:street": "gen. Władysława Sikorskiego",
                "addr:housenumber": "41",
                "addr:city": "Kętrzyn",
                "addr:postcode": "11-400",
                "amenity": "pharmacy"
            },
            "geometry": {
                "type": "Point",
                "coordinates": [
                    21.367311193209886,
                    54.0797387836485
                ]
            }
        },
        {
            "type": "Feature",
            "properties": {
                "ref:csioz": 1039188,
                "name": "Apteka Na Traugutta Nowa Farmacja",
                "addr:street": "Romualda Traugutta",
                "addr:housenumber": "1",
                "addr:city": "Kętrzyn",
                "addr:postcode": "11-400",
                "amenity": "pharmacy"
            },
            "geometry": {
                "type": "Point",
                "coordinates": [
                    21.375484872915006,
                    54.076645772244
                ]
            }
        },
        {
            "type": "Feature",
            "properties": {
                "ref:csioz": 1039191,
                "name": "Panaceum",
                "addr:street": "Ignacego Daszyńskiego",
                "addr:housenumber": "29A",
                "addr:city": "Kętrzyn",
                "addr:postcode": "11-400",
                "amenity": "pharmacy"
            },
            "geometry": {
                "type": "Point",
                "coordinates": [
                    21.36652125939496,
                    54.07838859445149
                ]
            }
        },
        {
            "type": "Feature",
            "properties": {
                "ref:csioz": 1039209,
                "name": "Apteka Piastowska Kętrzyn Komorowska Sp.J.",
                "addr:street": "Władysława Łokietka",
                "addr:housenumber": "29",
                "addr:city": "Kętrzyn",
                "addr:postcode": "11-400",
                "amenity": "pharmacy"
            },
            "geometry": {
                "type": "Point",
                "coordinates": [
                    21.379596376430896,
                    54.09086254084905
                ]
            }
        },
        {
            "type": "Feature",
            "properties": {
                "ref:csioz": 1039295,
                "name": "Pod Koroną",
                "addr:street": "Adama Mickiewicza",
                "addr:housenumber": "6",
                "addr:city": "Korsze",
                "addr:postcode": "11-430",
                "amenity": "pharmacy"
            },
            "geometry": {
                "type": "Point",
                "coordinates": [
                    21.138770237616598,
                    54.16951736300388
                ]
            }
        },
        {
            "type": "Feature",
            "properties": {
                "ref:csioz": 1179519,
                "name": "Zakład Opieki Długoterminowej",
                "addr:street": "Juliusza Słowackiego",
                "addr:housenumber": "3",
                "addr:city": "Reszel",
                "addr:postcode": "11-440",
                "amenity": "pharmacy"
            },
            "geometry": {
                "type": "Point",
                "coordinates": [
                    21.146103887304584,
                    54.04806079832901
                ]
            }
        },
        {
            "type": "Feature",
            "properties": {
                "ref:csioz": 1205066,
                "name": "Apteka Przyjazna",
                "addr:street": "Kołobrzeska",
                "addr:housenumber": "1G",
                "addr:city": "Kętrzyn",
                "addr:postcode": "11-400",
                "amenity": "pharmacy"
            },
            "geometry": {
                "type": "Point",
                "coordinates": [
                    21.369198905953294,
                    54.080528165860315
                ]
            }
        },
        {
            "type": "Feature",
            "properties": {
                "ref:csioz": 1208284,
                "name": "Dr.Max",
                "addr:street": "Miejska",
                "addr:housenumber": "8",
                "addr:city": "Kętrzyn",
                "addr:postcode": "11-400",
                "amenity": "pharmacy"
            },
            "geometry": {
                "type": "Point",
                "coordinates": [
                    21.36895475555484,
                    54.08078768784328
                ]
            }
        },
        {
            "type": "Feature",
            "properties": {
                "ref:csioz": 1212283,
                "name": "Apteka Zamkowa",
                "addr:street": "Henryka Sienkiewicza",
                "addr:housenumber": "1",
                "addr:city": "Reszel",
                "addr:postcode": "11-440",
                "amenity": "pharmacy"
            },
            "geometry": {
                "type": "Point",
                "coordinates": [
                    21.146595000003366,
                    54.048660000018835
                ]
            }
        },
        {
            "type": "Feature",
            "properties": {
                "ref:csioz": 1218269,
                "name": "Samodzielny Publiczny Zakład Pielęgnacyjno-Opiekuńczy",
                "addr:street": "Juliusza Słowackiego",
                "addr:housenumber": "3",
                "addr:city": "Reszel",
                "addr:postcode": "11-440",
                "amenity": "pharmacy"
            },
            "geometry": {
                "type": "Point",
                "coordinates": [
                    21.146103887304584,
                    54.04806079832901
                ]
            }
        },
        {
            "type": "Feature",
            "properties": {
                "ref:csioz": 1218971,
                "name": "Apteka Gemini",
                "addr:street": "Szkolna",
                "addr:housenumber": "1A",
                "addr:city": "Kętrzyn",
                "addr:postcode": "11-400",
                "amenity": "pharmacy"
            },
            "geometry": {
                "type": "Point",
                "coordinates": [
                    21.370190342313528,
                    54.07949533199106
                ]
            }
        },
        {
            "type": "Feature",
            "properties": {
                "ref:csioz": 1219325,
                "name": "Apteka Nowa",
                "addr:street": "Tadeusza Kościuszki",
                "addr:housenumber": "13",
                "addr:city": "Korsze",
                "addr:postcode": "11-430",
                "amenity": "pharmacy"
            },
            "geometry": {
                "type": "Point",
                "coordinates": [
                    21.13535422820966,
                    54.17050040921427
                ]
            }
        },
        {
            "type": "Feature",
            "properties": {
                "ref:csioz": 1223333,
                "name": "Doz Apteka Dbam O Zdrowie",
                "addr:street": "gen. Władysława Sikorskiego",
                "addr:housenumber": "24",
                "addr:city": "Kętrzyn",
                "addr:postcode": "11-400",
                "amenity": "pharmacy"
            },
            "geometry": {
                "type": "Point",
                "coordinates": [
                    21.37429083864629,
                    54.07812730733203
                ]
            }
        },
        {
            "type": "Feature",
            "properties": {
                "ref:csioz": 1039223,
                "name": "\"Apteka \"\"Remedium\"\" Sp. Z O.O.\"",
                "addr:street": "gen. Władysława Sikorskiego",
                "addr:housenumber": "19",
                "addr:city": "Kętrzyn",
                "addr:postcode": "11-400",
                "amenity": "pharmacy"
            },
            "geometry": {
                "type": "Point",
                "coordinates": [
                    21.371585994993957,
                    54.07869863207369
                ]
            }
        },
        {
            "type": "Feature",
            "properties": {
                "ref:csioz": 1208989,
                "name": "Medi-Prof Orthopedic-Clinic",
                "addr:street": "Ignacego Daszyńskiego",
                "addr:housenumber": "30",
                "addr:city": "Kętrzyn",
                "addr:postcode": "11-400",
                "amenity": "pharmacy"
            },
            "geometry": {
                "type": "Point",
                "coordinates": [
                    21.365425433199295,
                    54.07953349710715
                ]
            }
        },
        {
            "type": "Feature",
            "properties": {
                "ref:csioz": 1039214,
                "name": "\"Apteka \"\"Remedium\"\" Sp. Z O.O.\"",
                "addr:street": "Ignacego Daszyńskiego",
                "addr:housenumber": "1",
                "addr:city": "Kętrzyn",
                "addr:postcode": "11-400",
                "amenity": "pharmacy"
            },
            "geometry": {
                "type": "Point",
                "coordinates": [
                    21.374089957295702,
                    54.07529326230454
                ]
            }
        }
    ]
}