{
    "type": "FeatureCollection",
    "name": "JPT_KOD_JE_0615",
    "crs": {
        "type": "name",
        "properties": {
            "name": "urn:ogc:def:crs:EPSG::4326"
        }
    },
    "features": [
        {
            "type": "Feature",
            "properties": {
                "ref:csioz": 1155597,
                "name": "Apteka Vita",
                "addr:street": "Rynek",
                "addr:housenumber": "10 D",
                "addr:city": "Radzyń Podlaski",
                "addr:postcode": "21-300",
                "amenity": "pharmacy"
            },
            "geometry": {
                "type": "Point",
                "coordinates": [
                    22.62042372357667,
                    51.78390966017274
                ]
            }
        },
        {
            "type": "Feature",
            "properties": {
                "ref:csioz": 1155629,
                "name": "Sanus",
                "addr:housenumber": "77",
                "addr:city": "Ulan Majorat",
                "addr:postcode": "21-307",
                "amenity": "pharmacy"
            },
            "geometry": {
                "type": "Point",
                "coordinates": [
                    22.474421000036905,
                    51.81800400001566
                ]
            }
        },
        {
            "type": "Feature",
            "properties": {
                "ref:csioz": 1155678,
                "name": "Remedium",
                "addr:street": "Wyszyńskiego",
                "addr:housenumber": "17",
                "addr:city": "Radzyń Podlaski",
                "addr:postcode": "21-300",
                "amenity": "pharmacy"
            },
            "geometry": {
                "type": "Point",
                "coordinates": [
                    22.610943414589,
                    51.776249616141136
                ]
            }
        },
        {
            "type": "Feature",
            "properties": {
                "ref:csioz": 1155834,
                "name": "Apteka Centrum",
                "addr:street": "Warszawska",
                "addr:housenumber": "17",
                "addr:city": "Radzyń Podlaski",
                "addr:postcode": "21-300",
                "amenity": "pharmacy"
            },
            "geometry": {
                "type": "Point",
                "coordinates": [
                    22.615795906477157,
                    51.782320482731656
                ]
            }
        },
        {
            "type": "Feature",
            "properties": {
                "ref:csioz": 1156101,
                "addr:street": "Sitkowskiego",
                "addr:housenumber": "1",
                "addr:city": "Radzyń Podlaski",
                "addr:postcode": "21-300",
                "amenity": "pharmacy"
            },
            "geometry": {
                "type": "Point",
                "coordinates": [
                    22.625766618546127,
                    51.77933361132557
                ]
            }
        },
        {
            "type": "Feature",
            "properties": {
                "ref:csioz": 1156450,
                "name": "Vita",
                "addr:street": "Plac Wolności",
                "addr:housenumber": "2",
                "addr:city": "Komarówka Podlaska",
                "addr:postcode": "21-311",
                "amenity": "pharmacy"
            },
            "geometry": {
                "type": "Point",
                "coordinates": [
                    22.944110436278493,
                    51.80258825268998
                ]
            }
        },
        {
            "type": "Feature",
            "properties": {
                "ref:csioz": 1162528,
                "addr:street": "Parkowa",
                "addr:housenumber": "10",
                "addr:city": "Wola Osowińska",
                "addr:postcode": "21-147",
                "amenity": "pharmacy"
            },
            "geometry": {
                "type": "Point",
                "coordinates": [
                    22.463971937898027,
                    51.733771531493126
                ]
            }
        },
        {
            "type": "Feature",
            "properties": {
                "ref:csioz": 1164044,
                "name": "Apteka Polak Marzena",
                "addr:street": "Radzyńska",
                "addr:housenumber": "19",
                "addr:city": "Czemierniki",
                "addr:postcode": "21-306",
                "amenity": "pharmacy"
            },
            "geometry": {
                "type": "Point",
                "coordinates": [
                    22.63723568870436,
                    51.67417895138934
                ]
            }
        },
        {
            "type": "Feature",
            "properties": {
                "ref:csioz": 1164122,
                "name": "Apteka Mgr Farm. Ewa Jędrys",
                "addr:street": "Ostrowiecka",
                "addr:housenumber": "38",
                "addr:city": "Radzyń Podlaski",
                "addr:postcode": "21-300",
                "amenity": "pharmacy"
            },
            "geometry": {
                "type": "Point",
                "coordinates": [
                    22.61647530995603,
                    51.78313307499296
                ]
            }
        },
        {
            "type": "Feature",
            "properties": {
                "ref:csioz": 1170854,
                "addr:housenumber": "119C",
                "addr:city": "Brzozowica Duża",
                "addr:postcode": "21-302",
                "amenity": "pharmacy"
            },
            "geometry": {
                "type": "Point",
                "coordinates": [
                    22.60722167798608,
                    51.9492651494149
                ]
            }
        },
        {
            "type": "Feature",
            "properties": {
                "ref:csioz": 1174448,
                "name": "Apteka Lokalna Tomasz Kuna",
                "addr:street": "Wojska Polskiego",
                "addr:housenumber": "11",
                "addr:flats": "1",
                "addr:city": "Komarówka Podlaska",
                "addr:postcode": "21-311",
                "amenity": "pharmacy"
            },
            "geometry": {
                "type": "Point",
                "coordinates": [
                    22.952035099142147,
                    51.805203467555344
                ]
            }
        },
        {
            "type": "Feature",
            "properties": {
                "ref:csioz": 1178540,
                "name": "Apteka Vita W Topazie",
                "addr:street": "Zabielska",
                "addr:housenumber": "110",
                "addr:city": "Radzyń Podlaski",
                "addr:postcode": "21-300",
                "amenity": "pharmacy"
            },
            "geometry": {
                "type": "Point",
                "coordinates": [
                    22.60453600004452,
                    51.77373900001573
                ]
            }
        },
        {
            "type": "Feature",
            "properties": {
                "ref:csioz": 1106067,
                "name": "Apteka Nowa",
                "addr:street": "Średnia",
                "addr:housenumber": "33",
                "addr:city": "Wohyń",
                "addr:postcode": "21-310",
                "amenity": "pharmacy"
            },
            "geometry": {
                "type": "Point",
                "coordinates": [
                    22.78580100005692,
                    51.756721000016
                ]
            }
        },
        {
            "type": "Feature",
            "properties": {
                "ref:csioz": 1161850,
                "addr:housenumber": "56a",
                "addr:city": "Marynin",
                "addr:postcode": "21-030",
                "amenity": "pharmacy"
            },
            "geometry": {
                "type": "Point",
                "coordinates": [
                    22.634365827113587,
                    51.76525171632179
                ]
            }
        },
        {
            "type": "Feature",
            "properties": {
                "ref:csioz": 1118127,
                "name": "Hebeapteka",
                "addr:street": "Lubelska",
                "addr:housenumber": "3a",
                "addr:city": "Radzyń Podlaski",
                "addr:postcode": "21-300",
                "amenity": "pharmacy"
            },
            "geometry": {
                "type": "Point",
                "coordinates": [
                    22.622346599946933,
                    51.77879389583366
                ]
            }
        },
        {
            "type": "Feature",
            "properties": {
                "ref:csioz": 1155701,
                "name": "Apteka Centrum",
                "addr:street": "Wisznicka",
                "addr:housenumber": "111",
                "addr:city": "Radzyń Podlaski",
                "addr:postcode": "21-300",
                "amenity": "pharmacy"
            },
            "geometry": {
                "type": "Point",
                "coordinates": [
                    22.606243655026105,
                    51.77195836638497
                ]
            }
        },
        {
            "type": "Feature",
            "properties": {
                "ref:csioz": 1155725,
                "addr:street": "Chomiczewskiego",
                "addr:housenumber": "23",
                "addr:city": "Radzyń Podlaski",
                "addr:postcode": "21-300",
                "amenity": "pharmacy"
            },
            "geometry": {
                "type": "Point",
                "coordinates": [
                    22.61590901313294,
                    51.77931342110964
                ]
            }
        },
        {
            "type": "Feature",
            "properties": {
                "ref:csioz": 1155953,
                "addr:street": "Lubelska",
                "addr:housenumber": "30",
                "addr:city": "Kąkolewnica",
                "addr:postcode": "21-302",
                "amenity": "pharmacy"
            },
            "geometry": {
                "type": "Point",
                "coordinates": [
                    22.704015871361342,
                    51.901492397120336
                ]
            }
        },
        {
            "type": "Feature",
            "properties": {
                "ref:csioz": 1156362,
                "name": "Apteka Dbam O Zdrowie",
                "addr:street": "Spółdzielcza",
                "addr:housenumber": "1",
                "addr:city": "Radzyń Podlaski",
                "addr:postcode": "21-300",
                "amenity": "pharmacy"
            },
            "geometry": {
                "type": "Point",
                "coordinates": [
                    22.609393641022397,
                    51.77563044960631
                ]
            }
        },
        {
            "type": "Feature",
            "properties": {
                "ref:csioz": 1158007,
                "addr:street": "Spółdzielcza",
                "addr:housenumber": "2",
                "addr:city": "Borki",
                "addr:postcode": "21-345",
                "amenity": "pharmacy"
            },
            "geometry": {
                "type": "Point",
                "coordinates": [
                    22.52383646254736,
                    51.72118769189765
                ]
            }
        },
        {
            "type": "Feature",
            "properties": {
                "ref:csioz": 1189983,
                "name": "Apteka Szpitalna",
                "addr:street": "Wisznicka",
                "addr:housenumber": "111",
                "addr:city": "Radzyń Podlaski",
                "addr:postcode": "21-300",
                "amenity": "pharmacy"
            },
            "geometry": {
                "type": "Point",
                "coordinates": [
                    22.606243655026105,
                    51.77195836638497
                ]
            }
        },
        {
            "type": "Feature",
            "properties": {
                "ref:csioz": 1189994,
                "name": "Dział Farmacji Szpitalnej",
                "addr:housenumber": "48",
                "addr:city": "Kuraszew",
                "addr:postcode": "21-310",
                "amenity": "pharmacy"
            },
            "geometry": {
                "type": "Point",
                "coordinates": [
                    22.727427512212554,
                    51.70402353144345
                ]
            }
        },
        {
            "type": "Feature",
            "properties": {
                "ref:csioz": 1190447,
                "name": "Dział Farmacji Szpitalnej",
                "addr:street": "35",
                "addr:city": "Ustrzesz",
                "amenity": "pharmacy"
            },
            "geometry": {
                "type": "Point",
                "coordinates": [
                    22.69108007325484,
                    51.790649813257545
                ]
            }
        },
        {
            "type": "Feature",
            "properties": {
                "ref:csioz": 1195470,
                "name": "\"'Nasze Apteki'\"",
                "addr:street": "Ostrowiecka",
                "addr:housenumber": "18",
                "addr:city": "Radzyń Podlaski",
                "addr:postcode": "21-300",
                "amenity": "pharmacy"
            },
            "geometry": {
                "type": "Point",
                "coordinates": [
                    22.619597255117377,
                    51.78301930513605
                ]
            }
        },
        {
            "type": "Feature",
            "properties": {
                "ref:csioz": 1200228,
                "name": "Apteka Proxima",
                "addr:street": "Zamkowa",
                "addr:housenumber": "12",
                "addr:city": "Czemierniki",
                "addr:postcode": "21-306",
                "amenity": "pharmacy"
            },
            "geometry": {
                "type": "Point",
                "coordinates": [
                    22.64425258828139,
                    51.675627426851264
                ]
            }
        },
        {
            "type": "Feature",
            "properties": {
                "ref:csioz": 1224836,
                "name": "\"Apteka \"\"Rodzinna\"\"\"",
                "addr:street": "Rynek",
                "addr:housenumber": "10",
                "addr:flats": "J",
                "addr:city": "Radzyń Podlaski",
                "addr:postcode": "21-300",
                "amenity": "pharmacy"
            },
            "geometry": {
                "type": "Point",
                "coordinates": [
                    22.62083077020115,
                    51.78386196026794
                ]
            }
        },
        {
            "type": "Feature",
            "properties": {
                "ref:csioz": 1225585,
                "name": "Punkt Apteczny Rodzinny",
                "addr:housenumber": "131D",
                "addr:city": "Polskowola",
                "addr:postcode": "21-302",
                "amenity": "pharmacy"
            },
            "geometry": {
                "type": "Point",
                "coordinates": [
                    22.656769302433748,
                    51.93251865838609
                ]
            }
        }
    ]
}