{
    "type": "FeatureCollection",
    "name": "JPT_KOD_JE_0411",
    "features": [
        {
            "type": "Feature",
            "properties": {
                "ref:csioz": 1104271,
                "addr:street": "Ks.Kard.Stefana  Wyszyńskiego",
                "addr:housenumber": "22",
                "addr:city": "Osięciny",
                "addr:postcode": "88-220",
                "amenity": "pharmacy"
            },
            "geometry": {
                "type": "Point",
                "coordinates": [
                    18.73015797362801,
                    52.63161809578769
                ]
            }
        },
        {
            "type": "Feature",
            "properties": {
                "ref:csioz": 1104294,
                "name": "Tara",
                "addr:street": "Pl.Boh.Powstania Warszawy",
                "addr:housenumber": "11",
                "addr:city": "Osięciny",
                "addr:postcode": "88-220",
                "amenity": "pharmacy"
            },
            "geometry": {
                "type": "Point",
                "coordinates": [
                    18.72430725556441,
                    52.629157587330205
                ]
            }
        },
        {
            "type": "Feature",
            "properties": {
                "ref:csioz": 1104328,
                "name": "Pharmacon Apteka Prywatna Mgr Farm. Jolanta Sobieska",
                "addr:housenumber": "104",
                "addr:city": "Czołowo",
                "addr:postcode": "88-200",
                "amenity": "pharmacy"
            },
            "geometry": {
                "type": "Point",
                "coordinates": [
                    18.51674427978589,
                    52.61998840998529
                ]
            }
        },
        {
            "type": "Feature",
            "properties": {
                "ref:csioz": 1104283,
                "name": "\"Apteka \"\"Salus\"\" Mgr Farm. Urszula Polińska\"",
                "addr:street": "Plac Bohaterów Powstania Warszawy",
                "addr:housenumber": "6",
                "addr:flats": "3",
                "addr:city": "Osięciny",
                "addr:postcode": "88-220",
                "amenity": "pharmacy"
            },
            "geometry": {
                "type": "Point",
                "coordinates": [
                    18.72351294097333,
                    52.629240043185725
                ]
            }
        },
        {
            "type": "Feature",
            "properties": {
                "ref:csioz": 1104684,
                "name": "Doz Apteka Dbam O Zdrowie Markiewicz",
                "addr:street": "Dolna",
                "addr:housenumber": "22",
                "addr:city": "Radziejów",
                "addr:postcode": "88-200",
                "amenity": "pharmacy"
            },
            "geometry": {
                "type": "Point",
                "coordinates": [
                    18.524585964478113,
                    52.62633997502396
                ]
            }
        },
        {
            "type": "Feature",
            "properties": {
                "ref:csioz": 1187619,
                "name": "Apteka Społeczna Radziejów",
                "addr:street": "Brzeska",
                "addr:housenumber": "25",
                "addr:city": "Radziejów",
                "addr:postcode": "88-200",
                "amenity": "pharmacy"
            },
            "geometry": {
                "type": "Point",
                "coordinates": [
                    18.53162375438997,
                    52.628423874378896
                ]
            }
        },
        {
            "type": "Feature",
            "properties": {
                "ref:csioz": 1104016,
                "name": "Agawa",
                "addr:street": "Fabryczna",
                "addr:housenumber": "1",
                "addr:city": "Dobre",
                "addr:postcode": "88-210",
                "amenity": "pharmacy"
            },
            "geometry": {
                "type": "Point",
                "coordinates": [
                    18.57591332750545,
                    52.682050518706376
                ]
            }
        },
        {
            "type": "Feature",
            "properties": {
                "ref:csioz": 1104793,
                "name": "Doz Apteka Dbam O Zdrowie Przy Dworcu",
                "addr:street": "Brzeska",
                "addr:housenumber": "28",
                "addr:city": "Radziejów",
                "addr:postcode": "88-200",
                "amenity": "pharmacy"
            },
            "geometry": {
                "type": "Point",
                "coordinates": [
                    18.531736793111975,
                    52.62756895363387
                ]
            }
        },
        {
            "type": "Feature",
            "properties": {
                "ref:csioz": 1153517,
                "name": "Apteka Szpitalna Samodzielnego Publicznego Zakładu Opieki Zdrowotnej W Radziejowie",
                "addr:street": "Szpitalna",
                "addr:housenumber": "3",
                "addr:city": "Radziejów",
                "addr:postcode": "88-200",
                "amenity": "pharmacy"
            },
            "geometry": {
                "type": "Point",
                "coordinates": [
                    18.51689700325217,
                    52.619369951944755
                ]
            }
        },
        {
            "type": "Feature",
            "properties": {
                "ref:csioz": 1173699,
                "name": "Apteka Pod Orłem",
                "addr:street": "Kościuszki",
                "addr:housenumber": "25",
                "addr:city": "Radziejów",
                "addr:postcode": "88-200",
                "amenity": "pharmacy"
            },
            "geometry": {
                "type": "Point",
                "coordinates": [
                    18.527602524352698,
                    52.62215077795736
                ]
            }
        },
        {
            "type": "Feature",
            "properties": {
                "ref:csioz": 1185096,
                "name": "Malwa",
                "addr:street": "Lipowa",
                "addr:housenumber": "2",
                "addr:city": "Dobre",
                "addr:postcode": "88-120",
                "amenity": "pharmacy"
            },
            "geometry": {
                "type": "Point",
                "coordinates": [
                    18.572062256154467,
                    52.67671161090798
                ]
            }
        },
        {
            "type": "Feature",
            "properties": {
                "ref:csioz": 1209922,
                "name": "Apteka Magnolia",
                "addr:street": "ul. Objezdna",
                "addr:housenumber": "44",
                "addr:city": "Radziejów",
                "addr:postcode": "88-200",
                "amenity": "pharmacy"
            },
            "geometry": {
                "type": "Point",
                "coordinates": [
                    18.523840630759565,
                    52.624679720247414
                ]
            }
        },
        {
            "type": "Feature",
            "properties": {
                "ref:csioz": 1220950,
                "name": "Apteka Zdrowie I Uroda",
                "addr:street": "Kościuszki",
                "addr:housenumber": "10",
                "addr:city": "Osięciny",
                "addr:postcode": "88-220",
                "amenity": "pharmacy"
            },
            "geometry": {
                "type": "Point",
                "coordinates": [
                    18.7217649999999,
                    52.62843000001647
                ]
            }
        },
        {
            "type": "Feature",
            "properties": {
                "ref:csioz": 1104302,
                "name": "Nowa",
                "addr:street": "1 Maja",
                "addr:housenumber": "18",
                "addr:city": "Piotrków Kujawski",
                "addr:postcode": "88-230",
                "amenity": "pharmacy"
            },
            "geometry": {
                "type": "Point",
                "coordinates": [
                    18.49818383346474,
                    52.550388930265186
                ]
            }
        },
        {
            "type": "Feature",
            "properties": {
                "ref:csioz": 1121795,
                "name": "Twoja Apteka",
                "addr:street": "Plac Sienkiewicza",
                "addr:housenumber": "16",
                "addr:city": "Piotrków Kujawski",
                "addr:postcode": "88-230",
                "amenity": "pharmacy"
            },
            "geometry": {
                "type": "Point",
                "coordinates": [
                    18.496539344194133,
                    52.548099751206806
                ]
            }
        },
        {
            "type": "Feature",
            "properties": {
                "ref:csioz": 1104315,
                "name": "Apteka Pod Magnolią",
                "addr:street": "Poznańska",
                "addr:housenumber": "18",
                "addr:city": "Piotrków Kujawski",
                "addr:postcode": "88-230",
                "amenity": "pharmacy"
            },
            "geometry": {
                "type": "Point",
                "coordinates": [
                    18.49618876768345,
                    52.55037688608671
                ]
            }
        },
        {
            "type": "Feature",
            "properties": {
                "ref:csioz": 1104435,
                "name": "Doz Apteka Dbam O Zdrowie Apteka Przyjazna",
                "addr:housenumber": "120",
                "addr:city": "Topólka",
                "addr:postcode": "87-875",
                "amenity": "pharmacy"
            },
            "geometry": {
                "type": "Point",
                "coordinates": [
                    18.69709657785676,
                    52.50342094374603
                ]
            }
        },
        {
            "type": "Feature",
            "properties": {
                "ref:csioz": 1166464,
                "name": "Doz Apteka Dbam O Zdrowie M. Markiewicz",
                "addr:street": "Strażacka",
                "addr:housenumber": "2",
                "addr:city": "Piotrków Kujawski",
                "addr:postcode": "88-230",
                "amenity": "pharmacy"
            },
            "geometry": {
                "type": "Point",
                "coordinates": [
                    18.495606098247507,
                    52.54772004430266
                ]
            }
        },
        {
            "type": "Feature",
            "properties": {
                "ref:csioz": 1196827,
                "addr:housenumber": "24",
                "addr:city": "Nowa Wieś",
                "addr:postcode": "88-230",
                "amenity": "pharmacy"
            },
            "geometry": {
                "type": "Point",
                "coordinates": [
                    18.442062795884244,
                    52.487860549026045
                ]
            }
        },
        {
            "type": "Feature",
            "properties": {
                "ref:csioz": 1230759,
                "name": "Zdrowie I Uroda",
                "addr:housenumber": "51",
                "addr:city": "Bytoń",
                "addr:postcode": "88-231",
                "amenity": "pharmacy"
            },
            "geometry": {
                "type": "Point",
                "coordinates": [
                    18.595327133938763,
                    52.55706247916093
                ]
            }
        }
    ]
}