{
    "type": "FeatureCollection",
    "name": "JPT_KOD_JE_0810",
    "crs": {
        "type": "name",
        "properties": {
            "name": "urn:ogc:def:crs:EPSG::4326"
        }
    },
    "features": [
        {
            "type": "Feature",
            "properties": {
                "ref:csioz": 1138884,
                "name": "Melisa",
                "addr:street": "Ceramików",
                "addr:housenumber": "24",
                "addr:city": "Gozdnica",
                "addr:postcode": "68-130",
                "amenity": "pharmacy"
            },
            "geometry": {
                "type": "Point",
                "coordinates": [
                    15.096064829903703,
                    51.440117121915044
                ]
            }
        },
        {
            "type": "Feature",
            "properties": {
                "ref:csioz": 1150398,
                "name": "Apteka Dbam O Zdrowie",
                "addr:street": "Bracka",
                "addr:housenumber": "17",
                "addr:city": "Żagań",
                "addr:postcode": "68-100",
                "amenity": "pharmacy"
            },
            "geometry": {
                "type": "Point",
                "coordinates": [
                    15.323772128102334,
                    51.61508909935636
                ]
            }
        },
        {
            "type": "Feature",
            "properties": {
                "ref:csioz": 1150404,
                "addr:street": "Kochanowskiego",
                "addr:housenumber": "10",
                "addr:city": "Żagań",
                "addr:postcode": "68-100",
                "amenity": "pharmacy"
            },
            "geometry": {
                "type": "Point",
                "coordinates": [
                    15.303153098540191,
                    51.6143533674978
                ]
            }
        },
        {
            "type": "Feature",
            "properties": {
                "ref:csioz": 1150412,
                "addr:street": "Kopernika",
                "addr:housenumber": "3a",
                "addr:city": "Żagań",
                "addr:postcode": "68-100",
                "amenity": "pharmacy"
            },
            "geometry": {
                "type": "Point",
                "coordinates": [
                    15.327248929713566,
                    51.61324709890761
                ]
            }
        },
        {
            "type": "Feature",
            "properties": {
                "ref:csioz": 1150420,
                "name": "Europejska",
                "addr:street": "Księżnej Żaganny",
                "addr:housenumber": "23",
                "addr:city": "Żagań",
                "addr:postcode": "68-100",
                "amenity": "pharmacy"
            },
            "geometry": {
                "type": "Point",
                "coordinates": [
                    15.31178051741597,
                    51.61780361946233
                ]
            }
        },
        {
            "type": "Feature",
            "properties": {
                "ref:csioz": 1150436,
                "name": "\"Apteka \"\"Pod Kotwicą\"\" S.C.\"",
                "addr:street": "Pomorska",
                "addr:housenumber": "1",
                "addr:city": "Żagań",
                "addr:postcode": "68-100",
                "amenity": "pharmacy"
            },
            "geometry": {
                "type": "Point",
                "coordinates": [
                    15.322926328238939,
                    51.61685825222847
                ]
            }
        },
        {
            "type": "Feature",
            "properties": {
                "ref:csioz": 1150769,
                "addr:street": "Zielonogórska",
                "addr:housenumber": "24A",
                "addr:city": "Brzeźnica",
                "addr:postcode": "68-113",
                "amenity": "pharmacy"
            },
            "geometry": {
                "type": "Point",
                "coordinates": [
                    15.390659943418061,
                    51.71416980073461
                ]
            }
        },
        {
            "type": "Feature",
            "properties": {
                "ref:csioz": 1166290,
                "name": "Rumianek 2",
                "addr:street": "Kościuszki",
                "addr:housenumber": "9",
                "addr:city": "Małomice",
                "addr:postcode": "67-320",
                "amenity": "pharmacy"
            },
            "geometry": {
                "type": "Point",
                "coordinates": [
                    15.450398402829354,
                    51.556871437941055
                ]
            }
        },
        {
            "type": "Feature",
            "properties": {
                "ref:csioz": 1150448,
                "name": "W Rynku",
                "addr:street": "Rynek",
                "addr:housenumber": "10",
                "addr:city": "Żagań",
                "addr:postcode": "68-100",
                "amenity": "pharmacy"
            },
            "geometry": {
                "type": "Point",
                "coordinates": [
                    15.32007947322937,
                    51.614266352047146
                ]
            }
        },
        {
            "type": "Feature",
            "properties": {
                "ref:csioz": 1150457,
                "name": "Miejska",
                "addr:street": "Rynek",
                "addr:housenumber": "31 -32",
                "addr:city": "Żagań",
                "addr:postcode": "68-100",
                "amenity": "pharmacy"
            },
            "geometry": {
                "type": "Point",
                "coordinates": [
                    15.319934846808929,
                    51.61532462015206
                ]
            }
        },
        {
            "type": "Feature",
            "properties": {
                "ref:csioz": 1148148,
                "name": "Eskulap",
                "addr:street": "Wolności",
                "addr:housenumber": "22",
                "addr:city": "Iłowa",
                "addr:postcode": "68-120",
                "amenity": "pharmacy"
            },
            "geometry": {
                "type": "Point",
                "coordinates": [
                    15.199573432399658,
                    51.50073014529424
                ]
            }
        },
        {
            "type": "Feature",
            "properties": {
                "ref:csioz": 1148157,
                "name": "Dbam O Zdrowie",
                "addr:street": "Kościuszki",
                "addr:housenumber": "12",
                "addr:city": "Iłowa",
                "addr:postcode": "68-120",
                "amenity": "pharmacy"
            },
            "geometry": {
                "type": "Point",
                "coordinates": [
                    15.201832317229682,
                    51.50143192583384
                ]
            }
        },
        {
            "type": "Feature",
            "properties": {
                "ref:csioz": 1148414,
                "addr:housenumber": "169a",
                "addr:city": "Niegosławice",
                "addr:postcode": "67-312",
                "amenity": "pharmacy"
            },
            "geometry": {
                "type": "Point",
                "coordinates": [
                    15.706127510003489,
                    51.60187683966666
                ]
            }
        },
        {
            "type": "Feature",
            "properties": {
                "ref:csioz": 1148803,
                "name": "Eliksir",
                "addr:street": "gen. Władysława Andersa",
                "addr:housenumber": "1",
                "addr:city": "Szprotawa",
                "addr:postcode": "67-300",
                "amenity": "pharmacy"
            },
            "geometry": {
                "type": "Point",
                "coordinates": [
                    15.536629936144749,
                    51.56570855616699
                ]
            }
        },
        {
            "type": "Feature",
            "properties": {
                "ref:csioz": 1148816,
                "name": "Rumianek",
                "addr:street": "gen. Władysława Andersa",
                "addr:housenumber": "13",
                "addr:city": "Szprotawa",
                "addr:postcode": "67-300",
                "amenity": "pharmacy"
            },
            "geometry": {
                "type": "Point",
                "coordinates": [
                    15.536078244510536,
                    51.56550268969545
                ]
            }
        },
        {
            "type": "Feature",
            "properties": {
                "ref:csioz": 1148827,
                "name": "Kalina",
                "addr:street": "Kolejowa",
                "addr:housenumber": "1",
                "addr:city": "Szprotawa",
                "addr:postcode": "67-300",
                "amenity": "pharmacy"
            },
            "geometry": {
                "type": "Point",
                "coordinates": [
                    15.542656550195973,
                    51.56950698337708
                ]
            }
        },
        {
            "type": "Feature",
            "properties": {
                "ref:csioz": 1148834,
                "addr:street": "Odrodzenia",
                "addr:housenumber": "31",
                "addr:city": "Szprotawa",
                "addr:postcode": "67-300",
                "amenity": "pharmacy"
            },
            "geometry": {
                "type": "Point",
                "coordinates": [
                    15.538775630097216,
                    51.56592023560792
                ]
            }
        },
        {
            "type": "Feature",
            "properties": {
                "ref:csioz": 1148842,
                "name": "Planta",
                "addr:street": "Odrodzenia",
                "addr:housenumber": "32",
                "addr:city": "Szprotawa",
                "addr:postcode": "67-300",
                "amenity": "pharmacy"
            },
            "geometry": {
                "type": "Point",
                "coordinates": [
                    15.538363999962552,
                    51.565905000015256
                ]
            }
        },
        {
            "type": "Feature",
            "properties": {
                "ref:csioz": 1148850,
                "name": "Flos",
                "addr:street": "Odrodzonego Wojska Polskiego",
                "addr:housenumber": "12",
                "addr:city": "Szprotawa",
                "addr:postcode": "67-300",
                "amenity": "pharmacy"
            },
            "geometry": {
                "type": "Point",
                "coordinates": [
                    15.527133550744788,
                    51.564344183586535
                ]
            }
        },
        {
            "type": "Feature",
            "properties": {
                "ref:csioz": 1150461,
                "name": "Prima",
                "addr:street": "Szprotawska",
                "addr:housenumber": "43B",
                "addr:city": "Żagań",
                "addr:postcode": "68-100",
                "amenity": "pharmacy"
            },
            "geometry": {
                "type": "Point",
                "coordinates": [
                    15.33086695279903,
                    51.61272339412675
                ]
            }
        },
        {
            "type": "Feature",
            "properties": {
                "ref:csioz": 1150485,
                "name": "Medea",
                "addr:street": "Świerkowa",
                "addr:housenumber": "1",
                "addr:city": "Żagań",
                "addr:postcode": "68-100",
                "amenity": "pharmacy"
            },
            "geometry": {
                "type": "Point",
                "coordinates": [
                    15.302196710317446,
                    51.6197804882219
                ]
            }
        },
        {
            "type": "Feature",
            "properties": {
                "ref:csioz": 1150499,
                "name": "Apteka Dbam O Zdrowie",
                "addr:street": "Reymonta",
                "addr:housenumber": "2",
                "addr:city": "Żagań",
                "addr:postcode": "68-100",
                "amenity": "pharmacy"
            },
            "geometry": {
                "type": "Point",
                "coordinates": [
                    15.309110789031157,
                    51.61692954016078
                ]
            }
        },
        {
            "type": "Feature",
            "properties": {
                "ref:csioz": 1167078,
                "name": "Dział Farmacji Szpitalnej",
                "addr:street": "Henrykowska",
                "addr:housenumber": "1",
                "addr:city": "Szprotawa",
                "addr:postcode": "67-300",
                "amenity": "pharmacy"
            },
            "geometry": {
                "type": "Point",
                "coordinates": [
                    15.553743999963373,
                    51.56713900001523
                ]
            }
        },
        {
            "type": "Feature",
            "properties": {
                "ref:csioz": 1173303,
                "name": "Centrum Zdrowia",
                "addr:street": "Słowiański",
                "addr:housenumber": "14",
                "addr:city": "Żagań",
                "addr:postcode": "68-100",
                "amenity": "pharmacy"
            },
            "geometry": {
                "type": "Point",
                "coordinates": [
                    15.324425057808883,
                    51.61471049187653
                ]
            }
        },
        {
            "type": "Feature",
            "properties": {
                "ref:csioz": 1205447,
                "name": "Centrum Zdrowia",
                "addr:street": "Rynek",
                "addr:housenumber": "34",
                "addr:city": "Szprotawa",
                "addr:postcode": "67-300",
                "amenity": "pharmacy"
            },
            "geometry": {
                "type": "Point",
                "coordinates": [
                    15.537746999962502,
                    51.565707000015266
                ]
            }
        },
        {
            "type": "Feature",
            "properties": {
                "ref:csioz": 1219766,
                "name": "Stylowa",
                "addr:street": "Księżnej Żaganny",
                "addr:housenumber": "19",
                "addr:city": "Żagań",
                "addr:postcode": "68-100",
                "amenity": "pharmacy"
            },
            "geometry": {
                "type": "Point",
                "coordinates": [
                    15.312199196094149,
                    51.61818947828354
                ]
            }
        },
        {
            "type": "Feature",
            "properties": {
                "ref:csioz": 1228738,
                "name": "Punkt Apteczny Centrum Zdrowia",
                "addr:street": "Księcia Witolda",
                "addr:housenumber": "5a",
                "addr:city": "Wymiarki",
                "addr:postcode": "68-131",
                "amenity": "pharmacy"
            },
            "geometry": {
                "type": "Point",
                "coordinates": [
                    15.086259638796687,
                    51.512946256841055
                ]
            }
        }
    ]
}