{
    "type": "FeatureCollection",
    "name": "JPT_KOD_JE_2474",
    "features": [
        {
            "type": "Feature",
            "properties": {
                "ref:csioz": 1068539,
                "name": "Dr.Max",
                "addr:street": "Kościelna",
                "addr:housenumber": "39",
                "addr:city": "Siemianowice Śląskie",
                "addr:postcode": "41-103",
                "amenity": "pharmacy"
            },
            "geometry": {
                "type": "Point",
                "coordinates": [
                    19.001904338384026,
                    50.32265640636852
                ]
            }
        },
        {
            "type": "Feature",
            "properties": {
                "ref:csioz": 1204984,
                "name": "Ziko Apteka",
                "addr:street": "Kościelna",
                "addr:housenumber": "30",
                "addr:city": "Siemianowice Śląskie",
                "addr:postcode": "41-103",
                "amenity": "pharmacy"
            },
            "geometry": {
                "type": "Point",
                "coordinates": [
                    19.00346731402802,
                    50.3230129384711
                ]
            }
        },
        {
            "type": "Feature",
            "properties": {
                "ref:csioz": 1016736,
                "name": "Centrum Leczenia Oparzeń Im. Dr. Stanisława Sakiela W Siemianowicach - Szpital",
                "addr:street": "Jana Pawła II",
                "addr:housenumber": "1",
                "addr:city": "Siemianowice Śląskie",
                "addr:postcode": "41-100",
                "amenity": "pharmacy"
            },
            "geometry": {
                "type": "Point",
                "coordinates": [
                    19.030885806643006,
                    50.30481547518185
                ]
            }
        },
        {
            "type": "Feature",
            "properties": {
                "ref:csioz": 1068474,
                "name": "Na Zdrowie",
                "addr:street": "Jana Pawła II",
                "addr:housenumber": "1",
                "addr:city": "Siemianowice Śląskie",
                "addr:postcode": "41-100",
                "amenity": "pharmacy"
            },
            "geometry": {
                "type": "Point",
                "coordinates": [
                    19.030885806643006,
                    50.30481547518185
                ]
            }
        },
        {
            "type": "Feature",
            "properties": {
                "ref:csioz": 1068482,
                "name": "Dr. Max",
                "addr:street": "Jana Pawła II",
                "addr:housenumber": "13",
                "addr:city": "Siemianowice Śląskie",
                "addr:postcode": "41-100",
                "amenity": "pharmacy"
            },
            "geometry": {
                "type": "Point",
                "coordinates": [
                    19.026230831145874,
                    50.30562837079021
                ]
            }
        },
        {
            "type": "Feature",
            "properties": {
                "ref:csioz": 1068496,
                "name": "Elixir",
                "addr:street": "Jaworowa",
                "addr:housenumber": "2",
                "addr:city": "Siemianowice Śląskie",
                "addr:postcode": "41-100",
                "amenity": "pharmacy"
            },
            "geometry": {
                "type": "Point",
                "coordinates": [
                    19.018920812474068,
                    50.29396974961203
                ]
            }
        },
        {
            "type": "Feature",
            "properties": {
                "ref:csioz": 1068505,
                "name": "Dr. Max",
                "addr:street": "ks. Jana Kapicy",
                "addr:housenumber": "10 A",
                "addr:city": "Siemianowice Śląskie",
                "addr:postcode": "41-103",
                "amenity": "pharmacy"
            },
            "geometry": {
                "type": "Point",
                "coordinates": [
                    19.013584583979462,
                    50.303304098269166
                ]
            }
        },
        {
            "type": "Feature",
            "properties": {
                "ref:csioz": 1068518,
                "name": "Apteka Rodzinna",
                "addr:street": "Wojciecha Korfantego",
                "addr:housenumber": "5",
                "addr:city": "Siemianowice Śląskie",
                "addr:postcode": "41-100",
                "amenity": "pharmacy"
            },
            "geometry": {
                "type": "Point",
                "coordinates": [
                    19.014757926714367,
                    50.29927984972866
                ]
            }
        },
        {
            "type": "Feature",
            "properties": {
                "ref:csioz": 1068547,
                "name": "Doz Apteka Dbam O Zdrowie",
                "addr:street": "Kościelna",
                "addr:housenumber": "61",
                "addr:city": "Siemianowice Śląskie",
                "addr:postcode": "41-103",
                "amenity": "pharmacy"
            },
            "geometry": {
                "type": "Point",
                "coordinates": [
                    19.00303642123282,
                    50.32413239076501
                ]
            }
        },
        {
            "type": "Feature",
            "properties": {
                "ref:csioz": 1068552,
                "name": "Apteka Słoneczna",
                "addr:street": "Władysława Andersa",
                "addr:housenumber": "1A",
                "addr:city": "Siemianowice Śląskie",
                "addr:postcode": "41-103",
                "amenity": "pharmacy"
            },
            "geometry": {
                "type": "Point",
                "coordinates": [
                    19.00202357815139,
                    50.31623199338483
                ]
            }
        },
        {
            "type": "Feature",
            "properties": {
                "ref:csioz": 1068583,
                "name": "Panaceum",
                "addr:street": "Niepodległości",
                "addr:housenumber": "29",
                "addr:city": "Siemianowice Śląskie",
                "addr:postcode": "41-106",
                "amenity": "pharmacy"
            },
            "geometry": {
                "type": "Point",
                "coordinates": [
                    19.0053457255719,
                    50.30414549122184
                ]
            }
        },
        {
            "type": "Feature",
            "properties": {
                "ref:csioz": 1068673,
                "name": "Na Skarpie",
                "addr:street": "Walerego Wróblewskiego",
                "addr:housenumber": "28 A",
                "addr:city": "Siemianowice Śląskie",
                "addr:postcode": "41-100",
                "amenity": "pharmacy"
            },
            "geometry": {
                "type": "Point",
                "coordinates": [
                    19.002777267917526,
                    50.29881915819383
                ]
            }
        },
        {
            "type": "Feature",
            "properties": {
                "ref:csioz": 1068685,
                "name": "Brak",
                "addr:street": "Wyzwolenia",
                "addr:housenumber": "17",
                "addr:city": "Siemianowice Śląskie",
                "addr:postcode": "41-100",
                "amenity": "pharmacy"
            },
            "geometry": {
                "type": "Point",
                "coordinates": [
                    19.010528964058047,
                    50.323206369177115
                ]
            }
        },
        {
            "type": "Feature",
            "properties": {
                "ref:csioz": 1215480,
                "name": "Centrum Zdrowia",
                "addr:street": "ul. Olimpijska",
                "addr:housenumber": "2",
                "addr:city": "Siemianowice Śląskie",
                "addr:postcode": "41-100",
                "amenity": "pharmacy"
            },
            "geometry": {
                "type": "Point",
                "coordinates": [
                    19.01970738800499,
                    50.301957743036226
                ]
            }
        },
        {
            "type": "Feature",
            "properties": {
                "ref:csioz": 1221797,
                "addr:street": "Szpitalna",
                "addr:housenumber": "4",
                "addr:city": "Siemianowice Śląskie",
                "addr:postcode": "41-100",
                "amenity": "pharmacy"
            },
            "geometry": {
                "type": "Point",
                "coordinates": [
                    19.03103235828116,
                    50.3043543741322
                ]
            }
        },
        {
            "type": "Feature",
            "properties": {
                "ref:csioz": 1068571,
                "name": "Apteka Premium-Lek",
                "addr:street": "Niepodległości",
                "addr:housenumber": "23",
                "addr:city": "Siemianowice Śląskie",
                "addr:postcode": "41-106",
                "amenity": "pharmacy"
            },
            "geometry": {
                "type": "Point",
                "coordinates": [
                    19.00614653725658,
                    50.304585319339594
                ]
            }
        },
        {
            "type": "Feature",
            "properties": {
                "ref:csioz": 1068648,
                "name": "Na Bańgowie",
                "addr:street": "Karola Szymanowskiego",
                "addr:housenumber": "6-10",
                "addr:city": "Siemianowice Śląskie",
                "addr:postcode": "41-100",
                "amenity": "pharmacy"
            },
            "geometry": {
                "type": "Point",
                "coordinates": [
                    19.04165059866959,
                    50.32822157086743
                ]
            }
        },
        {
            "type": "Feature",
            "properties": {
                "ref:csioz": 1068657,
                "name": "Apteka Blisko Ciebie",
                "addr:street": "Śląska",
                "addr:housenumber": "13",
                "addr:city": "Siemianowice Śląskie",
                "addr:postcode": "41-100",
                "amenity": "pharmacy"
            },
            "geometry": {
                "type": "Point",
                "coordinates": [
                    19.030539098581734,
                    50.303142045385755
                ]
            }
        },
        {
            "type": "Feature",
            "properties": {
                "ref:csioz": 1068661,
                "name": "Centrum Tanich Leków- Apteka Św. Barbary",
                "addr:street": "Śląska",
                "addr:housenumber": "6",
                "addr:city": "Siemianowice Śląskie",
                "addr:postcode": "41-100",
                "amenity": "pharmacy"
            },
            "geometry": {
                "type": "Point",
                "coordinates": [
                    19.031510077311545,
                    50.30226434286726
                ]
            }
        },
        {
            "type": "Feature",
            "properties": {
                "ref:csioz": 1073969,
                "name": "Szpital Mejski W Siemianowicach Śląskich",
                "addr:street": "1-GO MAJA",
                "addr:housenumber": "9",
                "addr:city": "SIEMIANOWICE ŚLĄSKIE",
                "addr:postcode": "41-100",
                "amenity": "pharmacy"
            },
            "geometry": {
                "type": "Point",
                "coordinates": [
                    19.03325000000001,
                    50.30500100001293
                ]
            }
        },
        {
            "type": "Feature",
            "properties": {
                "ref:csioz": 1122556,
                "name": "Euro Apteka",
                "addr:street": "Władysława Jagiełły",
                "addr:housenumber": "4",
                "addr:city": "Siemianowice Śląskie",
                "addr:postcode": "41-106",
                "amenity": "pharmacy"
            },
            "geometry": {
                "type": "Point",
                "coordinates": [
                    18.999877747455976,
                    50.301251321133314
                ]
            }
        },
        {
            "type": "Feature",
            "properties": {
                "ref:csioz": 1187314,
                "name": "Leczenie Szpitalne",
                "addr:street": "Szpitalna",
                "addr:housenumber": "6",
                "addr:city": "Siemianowice Śląskie",
                "addr:postcode": "41-100",
                "amenity": "pharmacy"
            },
            "geometry": {
                "type": "Point",
                "coordinates": [
                    18.998838178459447,
                    50.32671660821935
                ]
            }
        },
        {
            "type": "Feature",
            "properties": {
                "ref:csioz": 1190656,
                "name": "Apteka Pod Lwem",
                "addr:street": "ks. Jana Kapicy",
                "addr:housenumber": "8",
                "addr:city": "Siemianowice Śląskie",
                "addr:postcode": "41-100",
                "amenity": "pharmacy"
            },
            "geometry": {
                "type": "Point",
                "coordinates": [
                    19.017330245216876,
                    50.30207574988182
                ]
            }
        },
        {
            "type": "Feature",
            "properties": {
                "ref:csioz": 1220748,
                "name": "Apteka Nova Sieciowa",
                "addr:street": "Okrężna",
                "addr:housenumber": "19",
                "addr:flats": "12",
                "addr:city": "Siemianowice Śląskie",
                "addr:postcode": "41-100",
                "amenity": "pharmacy"
            },
            "geometry": {
                "type": "Point",
                "coordinates": [
                    19.020626575389738,
                    50.29610183852137
                ]
            }
        },
        {
            "type": "Feature",
            "properties": {
                "ref:csioz": 1226562,
                "addr:street": "Szpitalna",
                "addr:housenumber": "6",
                "addr:city": "Siemianowice Śląskie",
                "addr:postcode": "41-100",
                "amenity": "pharmacy"
            },
            "geometry": {
                "type": "Point",
                "coordinates": [
                    19.030641730231007,
                    50.304111939827045
                ]
            }
        }
    ]
}