{
    "type": "FeatureCollection",
    "name": "JPT_KOD_JE_3203",
    "crs": {
        "type": "name",
        "properties": {
            "name": "urn:ogc:def:crs:EPSG::4326"
        }
    },
    "features": [
        {
            "type": "Feature",
            "properties": {
                "ref:csioz": 1140357,
                "name": "\"Apteka Cef@Rm 36,6\"",
                "addr:street": "Bednarska",
                "addr:housenumber": "4",
                "addr:city": "Drawsko Pomorskie",
                "addr:postcode": "78-500",
                "amenity": "pharmacy"
            },
            "geometry": {
                "type": "Point",
                "coordinates": [
                    15.81309789896319,
                    53.531591725867166
                ]
            }
        },
        {
            "type": "Feature",
            "properties": {
                "ref:csioz": 1147492,
                "name": "Pod Wagą",
                "addr:street": "Krzywoustego",
                "addr:housenumber": "7",
                "addr:city": "Kalisz Pomorski",
                "addr:postcode": "78-540",
                "amenity": "pharmacy"
            },
            "geometry": {
                "type": "Point",
                "coordinates": [
                    15.905388801483635,
                    53.29886738478238
                ]
            }
        },
        {
            "type": "Feature",
            "properties": {
                "ref:csioz": 1147819,
                "name": "Remedium",
                "addr:street": "Wolności",
                "addr:housenumber": "22a",
                "addr:city": "Kalisz Pomorski",
                "addr:postcode": "78-540",
                "amenity": "pharmacy"
            },
            "geometry": {
                "type": "Point",
                "coordinates": [
                    15.90442266317686,
                    53.29654383872667
                ]
            }
        },
        {
            "type": "Feature",
            "properties": {
                "ref:csioz": 1148040,
                "addr:street": "Chrobrego",
                "addr:housenumber": "4",
                "addr:city": "Drawsko Pomorskie",
                "addr:postcode": "78-500",
                "amenity": "pharmacy"
            },
            "geometry": {
                "type": "Point",
                "coordinates": [
                    15.811006523974592,
                    53.524749282244706
                ]
            }
        },
        {
            "type": "Feature",
            "properties": {
                "ref:csioz": 1152710,
                "name": "Drawska Ii",
                "addr:street": "Obrońców Westerplatte",
                "addr:housenumber": "1a",
                "addr:city": "Drawsko Pomorskie",
                "addr:postcode": "78-500",
                "amenity": "pharmacy"
            },
            "geometry": {
                "type": "Point",
                "coordinates": [
                    15.812466902017748,
                    53.5261146789882
                ]
            }
        },
        {
            "type": "Feature",
            "properties": {
                "ref:csioz": 1211077,
                "name": "Apteka Hipokrates",
                "addr:street": "Plac Konstytucji",
                "addr:housenumber": "13",
                "addr:city": "Drawsko Pomorskie",
                "addr:postcode": "78-500",
                "amenity": "pharmacy"
            },
            "geometry": {
                "type": "Point",
                "coordinates": [
                    15.812906516785372,
                    53.53111678824981
                ]
            }
        },
        {
            "type": "Feature",
            "properties": {
                "ref:csioz": 1214878,
                "name": "Centrum Zdrowia",
                "addr:street": "Obrońców Westerplatte",
                "addr:housenumber": "7",
                "addr:city": "Drawsko Pomorskie",
                "addr:postcode": "78-500",
                "amenity": "pharmacy"
            },
            "geometry": {
                "type": "Point",
                "coordinates": [
                    15.812556481108475,
                    53.527477891550774
                ]
            }
        },
        {
            "type": "Feature",
            "properties": {
                "ref:csioz": 1126030,
                "name": "Pomorska",
                "addr:street": "Wyzwolenia",
                "addr:housenumber": "2",
                "addr:city": "Złocieniec",
                "addr:postcode": "78-520",
                "amenity": "pharmacy"
            },
            "geometry": {
                "type": "Point",
                "coordinates": [
                    16.020485198249006,
                    53.53384642730208
                ]
            }
        },
        {
            "type": "Feature",
            "properties": {
                "ref:csioz": 1126365,
                "name": "Pastylka",
                "addr:street": "Długa",
                "addr:housenumber": "43",
                "addr:city": "Wierzchowo",
                "addr:postcode": "78-530",
                "amenity": "pharmacy"
            },
            "geometry": {
                "type": "Point",
                "coordinates": [
                    16.096210590750644,
                    53.449628024758354
                ]
            }
        },
        {
            "type": "Feature",
            "properties": {
                "ref:csioz": 1140361,
                "name": "\"Apteka Cef@Rm 36,6 \"",
                "addr:street": "Mickiewicza",
                "addr:housenumber": "2-4",
                "addr:city": "Złocieniec",
                "addr:postcode": "78-520",
                "amenity": "pharmacy"
            },
            "geometry": {
                "type": "Point",
                "coordinates": [
                    16.01500007806396,
                    53.52973196859541
                ]
            }
        },
        {
            "type": "Feature",
            "properties": {
                "ref:csioz": 1152668,
                "name": "Vita",
                "addr:street": "Wałecka",
                "addr:housenumber": "56",
                "addr:city": "Czaplinek",
                "addr:postcode": "78-550",
                "amenity": "pharmacy"
            },
            "geometry": {
                "type": "Point",
                "coordinates": [
                    16.239617377355227,
                    53.551859507561566
                ]
            }
        },
        {
            "type": "Feature",
            "properties": {
                "ref:csioz": 1210823,
                "name": "Centrum Zdrowia",
                "addr:street": "Zbożowa",
                "addr:housenumber": "3",
                "addr:city": "Czaplinek",
                "addr:postcode": "78-550",
                "amenity": "pharmacy"
            },
            "geometry": {
                "type": "Point",
                "coordinates": [
                    16.232432594157242,
                    53.55754222899226
                ]
            }
        },
        {
            "type": "Feature",
            "properties": {
                "ref:csioz": 1147856,
                "name": "Hipokrates",
                "addr:street": "650-lecia",
                "addr:housenumber": "1",
                "addr:city": "Złocieniec",
                "addr:postcode": "78-520",
                "amenity": "pharmacy"
            },
            "geometry": {
                "type": "Point",
                "coordinates": [
                    16.019053599931215,
                    53.534821293717066
                ]
            }
        },
        {
            "type": "Feature",
            "properties": {
                "ref:csioz": 1138165,
                "name": "Panaceum",
                "addr:street": "Długa",
                "addr:housenumber": "15-17",
                "addr:city": "Czaplinek",
                "addr:postcode": "78-440",
                "amenity": "pharmacy"
            },
            "geometry": {
                "type": "Point",
                "coordinates": [
                    16.231757999989817,
                    53.55910200001809
                ]
            }
        },
        {
            "type": "Feature",
            "properties": {
                "ref:csioz": 1138439,
                "name": "Deszczowa",
                "addr:street": "Piłsudskiego",
                "addr:housenumber": "11",
                "addr:city": "Złocieniec",
                "addr:postcode": "78-520",
                "amenity": "pharmacy"
            },
            "geometry": {
                "type": "Point",
                "coordinates": [
                    16.01281513653278,
                    53.53381735788822
                ]
            }
        },
        {
            "type": "Feature",
            "properties": {
                "ref:csioz": 1181370,
                "name": "Apteka Puls",
                "addr:street": "Włókiennicza",
                "addr:housenumber": "11d",
                "addr:city": "Złocieniec",
                "addr:postcode": "78-520",
                "amenity": "pharmacy"
            },
            "geometry": {
                "type": "Point",
                "coordinates": [
                    16.01728299998569,
                    53.532052000018105
                ]
            }
        },
        {
            "type": "Feature",
            "properties": {
                "ref:csioz": 1181092,
                "name": "Doz Apteka Dbam O Zdrowie. Centrum",
                "addr:street": "5 Marca",
                "addr:housenumber": "13",
                "addr:city": "Złocieniec",
                "addr:postcode": "78-520",
                "amenity": "pharmacy"
            },
            "geometry": {
                "type": "Point",
                "coordinates": [
                    16.010725449653997,
                    53.53295770624268
                ]
            }
        },
        {
            "type": "Feature",
            "properties": {
                "ref:csioz": 1185513,
                "addr:street": "Kańsko",
                "addr:housenumber": "1",
                "addr:city": "Złocieniec",
                "addr:postcode": "78-520",
                "amenity": "pharmacy"
            },
            "geometry": {
                "type": "Point",
                "coordinates": [
                    15.98659647217765,
                    53.50534016200879
                ]
            }
        },
        {
            "type": "Feature",
            "properties": {
                "ref:csioz": 1212328,
                "name": "Centrum Zdrowia",
                "addr:street": "Połczyńska",
                "addr:housenumber": "10",
                "addr:city": "Złocieniec",
                "addr:postcode": "78-520",
                "amenity": "pharmacy"
            },
            "geometry": {
                "type": "Point",
                "coordinates": [
                    16.014760632867524,
                    53.535763272237745
                ]
            }
        },
        {
            "type": "Feature",
            "properties": {
                "ref:csioz": 1219972,
                "name": "Apteka Hipokrates",
                "addr:street": "Wałecka",
                "addr:housenumber": "56",
                "addr:flats": "4",
                "addr:city": "Czaplinek",
                "addr:postcode": "78-550",
                "amenity": "pharmacy"
            },
            "geometry": {
                "type": "Point",
                "coordinates": [
                    16.239617377355227,
                    53.551859507561566
                ]
            }
        }
    ]
}