{
    "type": "FeatureCollection",
    "name": "JPT_KOD_JE_2062",
    "crs": {
        "type": "name",
        "properties": {
            "name": "urn:ogc:def:crs:EPSG::4326"
        }
    },
    "features": [
        {
            "type": "Feature",
            "properties": {
                "ref:csioz": 1017180,
                "name": "Apteka Eskulap Marta Pruszko",
                "addr:street": "marsz. Józefa Piłsudskiego",
                "addr:housenumber": "82",
                "addr:city": "Łomża",
                "addr:postcode": "18-400",
                "amenity": "pharmacy"
            },
            "geometry": {
                "type": "Point",
                "coordinates": [
                    22.053597000016687,
                    53.16806200001753
                ]
            }
        },
        {
            "type": "Feature",
            "properties": {
                "ref:csioz": 1019098,
                "name": "Primo Vere",
                "addr:street": "gen. Władysława Sikorskiego",
                "addr:housenumber": "126D",
                "addr:city": "Łomża",
                "addr:postcode": "18-400",
                "amenity": "pharmacy"
            },
            "geometry": {
                "type": "Point",
                "coordinates": [
                    22.059081745563496,
                    53.17717623126334
                ]
            }
        },
        {
            "type": "Feature",
            "properties": {
                "ref:csioz": 1019888,
                "name": "Medica",
                "addr:street": "Polowa",
                "addr:housenumber": "53",
                "addr:city": "Łomża",
                "addr:postcode": "18-400",
                "amenity": "pharmacy"
            },
            "geometry": {
                "type": "Point",
                "coordinates": [
                    22.071233192317436,
                    53.178688506428124
                ]
            }
        },
        {
            "type": "Feature",
            "properties": {
                "ref:csioz": 1020508,
                "name": "Acer",
                "addr:street": "marsz. Józefa Piłsudskiego",
                "addr:housenumber": "14A",
                "addr:city": "Łomża",
                "addr:postcode": "18-400",
                "amenity": "pharmacy"
            },
            "geometry": {
                "type": "Point",
                "coordinates": [
                    22.076662000017297,
                    53.16135100001754
                ]
            }
        },
        {
            "type": "Feature",
            "properties": {
                "ref:csioz": 1020664,
                "name": "Acer",
                "addr:street": "ks. kard. Wyszyńskiego",
                "addr:housenumber": "6",
                "addr:flats": "41",
                "addr:city": "Łomża",
                "addr:postcode": "18-400",
                "amenity": "pharmacy"
            },
            "geometry": {
                "type": "Point",
                "coordinates": [
                    22.071893000017166,
                    53.169117000017536
                ]
            }
        },
        {
            "type": "Feature",
            "properties": {
                "ref:csioz": 1020686,
                "name": "Doz Apteka. Dbam O Zdrowie",
                "addr:street": "Dworcowa",
                "addr:housenumber": "1",
                "addr:city": "Łomża",
                "addr:postcode": "14-400",
                "amenity": "pharmacy"
            },
            "geometry": {
                "type": "Point",
                "coordinates": [
                    22.066322192980312,
                    53.17150968844519
                ]
            }
        },
        {
            "type": "Feature",
            "properties": {
                "ref:csioz": 1020749,
                "name": "Dr. Max",
                "addr:street": "marsz. Józefa Piłsudskiego",
                "addr:housenumber": "33",
                "addr:city": "Łomża",
                "addr:postcode": "18-402",
                "amenity": "pharmacy"
            },
            "geometry": {
                "type": "Point",
                "coordinates": [
                    22.076887000017308,
                    53.159363000017535
                ]
            }
        },
        {
            "type": "Feature",
            "properties": {
                "ref:csioz": 1022106,
                "name": "Apteka Flos Mgr Farm. Iwona Ruszczyk",
                "addr:street": "ks. kard. Wyszyńskiego",
                "addr:housenumber": "2",
                "addr:flats": "15-16",
                "addr:city": "Łomża",
                "addr:postcode": "18-400",
                "amenity": "pharmacy"
            },
            "geometry": {
                "type": "Point",
                "coordinates": [
                    22.073129000017186,
                    53.17056400001754
                ]
            }
        },
        {
            "type": "Feature",
            "properties": {
                "ref:csioz": 1022263,
                "name": "Medicines",
                "addr:street": "Kazańska",
                "addr:housenumber": "10",
                "addr:flats": "7",
                "addr:city": "Łomża",
                "addr:postcode": "18-400",
                "amenity": "pharmacy"
            },
            "geometry": {
                "type": "Point",
                "coordinates": [
                    22.081508000017436,
                    53.16048700001755
                ]
            }
        },
        {
            "type": "Feature",
            "properties": {
                "ref:csioz": 1023062,
                "name": "\"Apteka Cef@Rm 36,6\"",
                "addr:street": "Dworna",
                "addr:housenumber": "35",
                "addr:city": "Łomża",
                "addr:postcode": "18-400",
                "amenity": "pharmacy"
            },
            "geometry": {
                "type": "Point",
                "coordinates": [
                    22.081476228296626,
                    53.177713099453946
                ]
            }
        },
        {
            "type": "Feature",
            "properties": {
                "ref:csioz": 1023611,
                "name": "Acer",
                "addr:street": "Kazańska",
                "addr:housenumber": "2",
                "addr:city": "Łomża",
                "addr:postcode": "18-400",
                "amenity": "pharmacy"
            },
            "geometry": {
                "type": "Point",
                "coordinates": [
                    22.081522540814944,
                    53.16049313772244
                ]
            }
        },
        {
            "type": "Feature",
            "properties": {
                "ref:csioz": 1023852,
                "name": "Apteka Gemini",
                "addr:street": "Legionów",
                "addr:housenumber": "40",
                "addr:city": "Łomża",
                "addr:postcode": "18-400",
                "amenity": "pharmacy"
            },
            "geometry": {
                "type": "Point",
                "coordinates": [
                    22.068952267025676,
                    53.17402989247386
                ]
            }
        },
        {
            "type": "Feature",
            "properties": {
                "ref:csioz": 1025269,
                "addr:street": "Wojska Polskiego",
                "addr:housenumber": "161",
                "addr:city": "Łomża",
                "addr:postcode": "18-400",
                "amenity": "pharmacy"
            },
            "geometry": {
                "type": "Point",
                "coordinates": [
                    22.039076944688027,
                    53.17499969805038
                ]
            }
        },
        {
            "type": "Feature",
            "properties": {
                "ref:csioz": 1111147,
                "addr:street": "Rybaki",
                "addr:housenumber": "3",
                "addr:city": "Łomża",
                "addr:postcode": "18-400",
                "amenity": "pharmacy"
            },
            "geometry": {
                "type": "Point",
                "coordinates": [
                    22.084312856332932,
                    53.181293408232335
                ]
            }
        },
        {
            "type": "Feature",
            "properties": {
                "ref:csioz": 1173072,
                "name": "Eko Apteka",
                "addr:street": "Księcia Janusza I",
                "addr:housenumber": "1",
                "addr:city": "Łomża",
                "addr:postcode": "18-400",
                "amenity": "pharmacy"
            },
            "geometry": {
                "type": "Point",
                "coordinates": [
                    22.07704187466859,
                    53.162216415590194
                ]
            }
        },
        {
            "type": "Feature",
            "properties": {
                "ref:csioz": 1195123,
                "name": "Acer",
                "addr:street": "marsz. Józefa Piłsudskiego",
                "addr:housenumber": "6",
                "addr:city": "Łomża",
                "addr:postcode": "18-400",
                "amenity": "pharmacy"
            },
            "geometry": {
                "type": "Point",
                "coordinates": [
                    22.08679900001756,
                    53.16253000001754
                ]
            }
        },
        {
            "type": "Feature",
            "properties": {
                "ref:csioz": 1225896,
                "addr:street": "Rybaki",
                "addr:housenumber": "3",
                "addr:city": "Łomża",
                "addr:postcode": "18-400",
                "amenity": "pharmacy"
            },
            "geometry": {
                "type": "Point",
                "coordinates": [
                    22.084312856332932,
                    53.181293408232335
                ]
            }
        },
        {
            "type": "Feature",
            "properties": {
                "ref:csioz": 1017088,
                "name": "Apteka Społeczna Na Dwornej Grupa Nowa Farmacja",
                "addr:street": "Dworna",
                "addr:housenumber": "8",
                "addr:city": "Łomża",
                "addr:postcode": "18-400",
                "amenity": "pharmacy"
            },
            "geometry": {
                "type": "Point",
                "coordinates": [
                    22.077223294761332,
                    53.17891298653227
                ]
            }
        },
        {
            "type": "Feature",
            "properties": {
                "ref:csioz": 1019629,
                "name": "Apteka Dbam O Zdrowie",
                "addr:street": "gen. Józefa Bema",
                "addr:housenumber": "33",
                "addr:city": "Łomża",
                "addr:postcode": "18-400",
                "amenity": "pharmacy"
            },
            "geometry": {
                "type": "Point",
                "coordinates": [
                    22.053589000016693,
                    53.16808500001752
                ]
            }
        },
        {
            "type": "Feature",
            "properties": {
                "ref:csioz": 1020200,
                "addr:street": "gen. Józefa Bema",
                "addr:housenumber": "3A",
                "addr:city": "Łomża",
                "addr:postcode": "18-400",
                "amenity": "pharmacy"
            },
            "geometry": {
                "type": "Point",
                "coordinates": [
                    22.063881000016956,
                    53.164819000017516
                ]
            }
        },
        {
            "type": "Feature",
            "properties": {
                "ref:csioz": 1021365,
                "name": "Apteka Abc Marta Misiewicz",
                "addr:street": "Stanisława Małachowskiego",
                "addr:housenumber": "6",
                "addr:flats": "50",
                "addr:city": "Łomża",
                "addr:postcode": "18-400",
                "amenity": "pharmacy"
            },
            "geometry": {
                "type": "Point",
                "coordinates": [
                    22.07003100001712,
                    53.15992900001752
                ]
            }
        },
        {
            "type": "Feature",
            "properties": {
                "ref:csioz": 1021788,
                "name": "\"Apteka Spółka Cywilna - Magdalena Dudek, Anna Jarmołowicz, Grzegorz Dudek, Grzegorz Jarmołowicz\"\"\"",
                "addr:street": "Romana Dmowskiego",
                "addr:housenumber": "1C",
                "addr:city": "Łomża",
                "addr:postcode": "18-400",
                "amenity": "pharmacy"
            },
            "geometry": {
                "type": "Point",
                "coordinates": [
                    22.068777679985573,
                    53.17434123052927
                ]
            }
        },
        {
            "type": "Feature",
            "properties": {
                "ref:csioz": 1024325,
                "addr:street": "Księżnej Anny",
                "addr:housenumber": "2",
                "addr:city": "Łomża",
                "addr:postcode": "18-400",
                "amenity": "pharmacy"
            },
            "geometry": {
                "type": "Point",
                "coordinates": [
                    22.077717879289303,
                    53.16589261074179
                ]
            }
        },
        {
            "type": "Feature",
            "properties": {
                "ref:csioz": 1112934,
                "name": "Acer",
                "addr:street": "Zawadzka",
                "addr:housenumber": "38",
                "addr:city": "Łomża",
                "addr:postcode": "18-400",
                "amenity": "pharmacy"
            },
            "geometry": {
                "type": "Point",
                "coordinates": [
                    22.076630578698822,
                    53.16824114686644
                ]
            }
        },
        {
            "type": "Feature",
            "properties": {
                "ref:csioz": 1138720,
                "addr:street": "marsz. Józefa Piłsudskiego",
                "addr:housenumber": "11",
                "addr:city": "Łomża",
                "addr:postcode": "18-404",
                "amenity": "pharmacy"
            },
            "geometry": {
                "type": "Point",
                "coordinates": [
                    22.085567000017537,
                    53.160551000017534
                ]
            }
        },
        {
            "type": "Feature",
            "properties": {
                "ref:csioz": 1173102,
                "name": "Apteka Bliska 24H",
                "addr:street": "Legionów",
                "addr:housenumber": "55",
                "addr:city": "Łomża",
                "addr:postcode": "18-400",
                "amenity": "pharmacy"
            },
            "geometry": {
                "type": "Point",
                "coordinates": [
                    22.06516454119579,
                    53.169391187161494
                ]
            }
        },
        {
            "type": "Feature",
            "properties": {
                "ref:csioz": 1175048,
                "name": "Apteka Rodzinna",
                "addr:street": "Sybiraków",
                "addr:housenumber": "20B",
                "addr:flats": "1A",
                "addr:city": "Łomża",
                "addr:postcode": "18-400",
                "amenity": "pharmacy"
            },
            "geometry": {
                "type": "Point",
                "coordinates": [
                    22.07903569944931,
                    53.155032708709065
                ]
            }
        },
        {
            "type": "Feature",
            "properties": {
                "ref:csioz": 1177377,
                "name": "Nowa Apteka Rodzinna Epidauros",
                "addr:street": "Księżnej Anny",
                "addr:housenumber": "29",
                "addr:flats": "1",
                "addr:city": "Łomża",
                "addr:postcode": "18-400",
                "amenity": "pharmacy"
            },
            "geometry": {
                "type": "Point",
                "coordinates": [
                    22.086538326599026,
                    53.16672920970828
                ]
            }
        },
        {
            "type": "Feature",
            "properties": {
                "ref:csioz": 1198361,
                "name": "Gemini",
                "addr:street": "Leopolda Staffa",
                "addr:housenumber": "24",
                "addr:city": "Łomża",
                "addr:postcode": "18-400",
                "amenity": "pharmacy"
            },
            "geometry": {
                "type": "Point",
                "coordinates": [
                    22.074786933910133,
                    53.16090360553287
                ]
            }
        },
        {
            "type": "Feature",
            "properties": {
                "ref:csioz": 1200569,
                "name": "Apteka Bliska Samoobsługowa",
                "addr:street": "Dworna",
                "addr:housenumber": "1",
                "addr:city": "Łomża",
                "addr:postcode": "18-400",
                "amenity": "pharmacy"
            },
            "geometry": {
                "type": "Point",
                "coordinates": [
                    22.075652281952195,
                    53.17962230388483
                ]
            }
        },
        {
            "type": "Feature",
            "properties": {
                "ref:csioz": 1205736,
                "name": "Apteka Społeczna Na Wyszyńskiego Grupa Nowa Farmacja",
                "addr:street": "ks. kard. Wyszyńskiego",
                "addr:housenumber": "7",
                "addr:city": "Łomża",
                "addr:postcode": "18-400",
                "amenity": "pharmacy"
            },
            "geometry": {
                "type": "Point",
                "coordinates": [
                    22.071962000017162,
                    53.16918300001753
                ]
            }
        },
        {
            "type": "Feature",
            "properties": {
                "ref:csioz": 1210436,
                "name": "Hebeapteka",
                "addr:street": "marsz. Józefa  Piłsudskiego",
                "addr:housenumber": "121A",
                "addr:flats": "4",
                "addr:city": "Łomża",
                "addr:postcode": "18-400",
                "amenity": "pharmacy"
            },
            "geometry": {
                "type": "Point",
                "coordinates": [
                    22.055082759971754,
                    53.16703126490067
                ]
            }
        },
        {
            "type": "Feature",
            "properties": {
                "ref:csioz": 1217654,
                "name": "Apteka W Szpitalu",
                "addr:street": "marsz. Józefa Piłsudskiego",
                "addr:housenumber": "11",
                "addr:city": "Łomża",
                "addr:postcode": "18-404",
                "amenity": "pharmacy"
            },
            "geometry": {
                "type": "Point",
                "coordinates": [
                    22.085567000017537,
                    53.160551000017534
                ]
            }
        },
        {
            "type": "Feature",
            "properties": {
                "ref:csioz": 1223993,
                "name": "Acer",
                "addr:street": "Aleja Legionów",
                "addr:housenumber": "23",
                "addr:city": "Łomża",
                "addr:postcode": "18-400",
                "amenity": "pharmacy"
            },
            "geometry": {
                "type": "Point",
                "coordinates": [
                    22.06799396392827,
                    53.17231906266691
                ]
            }
        }
    ]
}