{
    "type": "FeatureCollection",
    "name": "JPT_KOD_JE_1408",
    "crs": {
        "type": "name",
        "properties": {
            "name": "urn:ogc:def:crs:EPSG::4326"
        }
    },
    "features": [
        {
            "type": "Feature",
            "properties": {
                "ref:csioz": 1087847,
                "name": "\"Cef@Rm 36,6\"",
                "addr:street": "Aleja 3 Maja",
                "addr:housenumber": "59",
                "addr:city": "Legionowo",
                "addr:postcode": "05-120",
                "amenity": "pharmacy"
            },
            "geometry": {
                "type": "Point",
                "coordinates": [
                    20.926120000002413,
                    52.396053000016096
                ]
            }
        },
        {
            "type": "Feature",
            "properties": {
                "ref:csioz": 1087860,
                "addr:street": "Hetmańska",
                "addr:housenumber": "5",
                "addr:city": "Legionowo",
                "addr:postcode": "05-120",
                "amenity": "pharmacy"
            },
            "geometry": {
                "type": "Point",
                "coordinates": [
                    20.91803804024757,
                    52.39214603605922
                ]
            }
        },
        {
            "type": "Feature",
            "properties": {
                "ref:csioz": 1087871,
                "addr:street": "Jagiellońska",
                "addr:housenumber": "9D",
                "addr:flats": "6",
                "addr:city": "Legionowo",
                "addr:postcode": "05-120",
                "amenity": "pharmacy"
            },
            "geometry": {
                "type": "Point",
                "coordinates": [
                    20.933966870838425,
                    52.397970757754464
                ]
            }
        },
        {
            "type": "Feature",
            "properties": {
                "ref:csioz": 1087901,
                "name": "Miejska",
                "addr:street": "marsz. Józefa Piłsudskiego",
                "addr:housenumber": "20",
                "addr:city": "Legionowo",
                "addr:postcode": "05-120",
                "amenity": "pharmacy"
            },
            "geometry": {
                "type": "Point",
                "coordinates": [
                    20.933835825053936,
                    52.397435008402056
                ]
            }
        },
        {
            "type": "Feature",
            "properties": {
                "ref:csioz": 1087917,
                "name": "Doz Apteka. Dbam O Zdrowie",
                "addr:street": "Jerzego Siwińskiego",
                "addr:housenumber": "2",
                "addr:city": "Legionowo",
                "addr:postcode": "05-120",
                "amenity": "pharmacy"
            },
            "geometry": {
                "type": "Point",
                "coordinates": [
                    20.92186381904826,
                    52.39049876627921
                ]
            }
        },
        {
            "type": "Feature",
            "properties": {
                "ref:csioz": 1087949,
                "name": "Apteka Słoneczna",
                "addr:street": "Zwycięstwa",
                "addr:housenumber": "2",
                "addr:city": "Legionowo",
                "addr:postcode": "05-120",
                "amenity": "pharmacy"
            },
            "geometry": {
                "type": "Point",
                "coordinates": [
                    20.92398175226074,
                    52.38861157176628
                ]
            }
        },
        {
            "type": "Feature",
            "properties": {
                "ref:csioz": 1089938,
                "name": "Pogodna Mgr Farm. Agnieszka Malinowska",
                "addr:street": "Partyzantów",
                "addr:housenumber": "9",
                "addr:city": "Chotomów",
                "addr:postcode": "05-123",
                "amenity": "pharmacy"
            },
            "geometry": {
                "type": "Point",
                "coordinates": [
                    20.88664636686257,
                    52.40803184340408
                ]
            }
        },
        {
            "type": "Feature",
            "properties": {
                "ref:csioz": 1090062,
                "addr:street": "Parkowa",
                "addr:housenumber": "1",
                "addr:city": "Jabłonna",
                "addr:postcode": "05-110",
                "amenity": "pharmacy"
            },
            "geometry": {
                "type": "Point",
                "coordinates": [
                    20.92287959435647,
                    52.37440862008641
                ]
            }
        },
        {
            "type": "Feature",
            "properties": {
                "ref:csioz": 1090215,
                "addr:street": "Nowodworska",
                "addr:housenumber": "57A",
                "addr:city": "Skrzeszew",
                "addr:postcode": "05-124",
                "amenity": "pharmacy"
            },
            "geometry": {
                "type": "Point",
                "coordinates": [
                    20.889952809329124,
                    52.453731253741466
                ]
            }
        },
        {
            "type": "Feature",
            "properties": {
                "ref:csioz": 1111436,
                "addr:street": "Strażacka",
                "addr:housenumber": "8",
                "addr:city": "Chotomów",
                "addr:postcode": "05-123",
                "amenity": "pharmacy"
            },
            "geometry": {
                "type": "Point",
                "coordinates": [
                    20.884259100152747,
                    52.41213793604069
                ]
            }
        },
        {
            "type": "Feature",
            "properties": {
                "ref:csioz": 1169976,
                "name": "Super-Pharm",
                "addr:street": "marsz. Józefa Piłsudskiego",
                "addr:housenumber": "33",
                "addr:city": "Legionowo",
                "addr:postcode": "05-120",
                "amenity": "pharmacy"
            },
            "geometry": {
                "type": "Point",
                "coordinates": [
                    20.932408458748974,
                    52.39621724120774
                ]
            }
        },
        {
            "type": "Feature",
            "properties": {
                "ref:csioz": 1173571,
                "name": "Apteka Słoneczna",
                "addr:street": "Zegrzyńska",
                "addr:housenumber": "29A",
                "addr:city": "Legionowo",
                "addr:postcode": "05-119",
                "amenity": "pharmacy"
            },
            "geometry": {
                "type": "Point",
                "coordinates": [
                    20.95071126789849,
                    52.40730589829778
                ]
            }
        },
        {
            "type": "Feature",
            "properties": {
                "ref:csioz": 1180303,
                "name": "Ziko",
                "addr:street": "marsz. Józefa Piłsudskiego",
                "addr:housenumber": "39",
                "addr:flats": "6",
                "addr:city": "Legionowo",
                "addr:postcode": "05-120",
                "amenity": "pharmacy"
            },
            "geometry": {
                "type": "Point",
                "coordinates": [
                    20.9314747003352,
                    52.39568089949565
                ]
            }
        },
        {
            "type": "Feature",
            "properties": {
                "ref:csioz": 1198277,
                "name": "Lawenda",
                "addr:street": "Zegrzyńska",
                "addr:housenumber": "8",
                "addr:city": "Jabłonna",
                "addr:postcode": "05-110",
                "amenity": "pharmacy"
            },
            "geometry": {
                "type": "Point",
                "coordinates": [
                    20.91842442258494,
                    52.379708133943815
                ]
            }
        },
        {
            "type": "Feature",
            "properties": {
                "ref:csioz": 1199287,
                "name": "Amica",
                "addr:street": "Jana III Sobieskiego",
                "addr:housenumber": "6D",
                "addr:city": "Legionowo",
                "addr:postcode": "05-120",
                "amenity": "pharmacy"
            },
            "geometry": {
                "type": "Point",
                "coordinates": [
                    20.923456193385142,
                    52.39241607815657
                ]
            }
        },
        {
            "type": "Feature",
            "properties": {
                "ref:csioz": 1204756,
                "name": "Mediq Nzoz Szpital",
                "addr:street": "marsz. Józefa Piłsudskiego",
                "addr:housenumber": "20",
                "addr:city": "Legionowo",
                "addr:postcode": "05-120",
                "amenity": "pharmacy"
            },
            "geometry": {
                "type": "Point",
                "coordinates": [
                    20.933835825053936,
                    52.397435008402056
                ]
            }
        },
        {
            "type": "Feature",
            "properties": {
                "ref:csioz": 1220380,
                "name": "Z Uśmiechem",
                "addr:street": "marsz. Józefa Piłsudskiego",
                "addr:housenumber": "13",
                "addr:flats": "1",
                "addr:city": "Legionowo",
                "addr:postcode": "05-120",
                "amenity": "pharmacy"
            },
            "geometry": {
                "type": "Point",
                "coordinates": [
                    20.937940053711188,
                    52.399410831155635
                ]
            }
        },
        {
            "type": "Feature",
            "properties": {
                "ref:csioz": 1087958,
                "name": "Apteka Centrum",
                "addr:street": "Cypriana Kamila Norwida",
                "addr:housenumber": "1",
                "addr:city": "Legionowo",
                "addr:postcode": "05-120",
                "amenity": "pharmacy"
            },
            "geometry": {
                "type": "Point",
                "coordinates": [
                    20.932057108634076,
                    52.3937560629138
                ]
            }
        },
        {
            "type": "Feature",
            "properties": {
                "ref:csioz": 1087963,
                "addr:street": "Nowodworska",
                "addr:housenumber": "21B",
                "addr:city": "Michałów-Reginów",
                "addr:postcode": "05-119",
                "amenity": "pharmacy"
            },
            "geometry": {
                "type": "Point",
                "coordinates": [
                    20.9600175135122,
                    52.422274341880616
                ]
            }
        },
        {
            "type": "Feature",
            "properties": {
                "ref:csioz": 1087974,
                "name": "U Basi Barbara Nowak",
                "addr:street": "Jana Kazimierza",
                "addr:housenumber": "106",
                "addr:city": "Nieporęt",
                "addr:postcode": "05-126",
                "amenity": "pharmacy"
            },
            "geometry": {
                "type": "Point",
                "coordinates": [
                    21.03326152903253,
                    52.424609759231124
                ]
            }
        },
        {
            "type": "Feature",
            "properties": {
                "ref:csioz": 1087982,
                "addr:street": "Pionierska",
                "addr:housenumber": "2",
                "addr:city": "Nieporęt",
                "addr:postcode": "05-126",
                "amenity": "pharmacy"
            },
            "geometry": {
                "type": "Point",
                "coordinates": [
                    21.03225567468908,
                    52.424326656496795
                ]
            }
        },
        {
            "type": "Feature",
            "properties": {
                "ref:csioz": 1088010,
                "name": "Afi",
                "addr:street": "Rynek",
                "addr:housenumber": "17",
                "addr:flats": "1U",
                "addr:city": "Serock",
                "addr:postcode": "05-140",
                "amenity": "pharmacy"
            },
            "geometry": {
                "type": "Point",
                "coordinates": [
                    21.07224141128724,
                    52.51324787762566
                ]
            }
        },
        {
            "type": "Feature",
            "properties": {
                "ref:csioz": 1088029,
                "addr:street": "Niepodległości",
                "addr:housenumber": "85",
                "addr:city": "Wieliszew",
                "addr:postcode": "05-135",
                "amenity": "pharmacy"
            },
            "geometry": {
                "type": "Point",
                "coordinates": [
                    20.954238710470495,
                    52.458432952706914
                ]
            }
        },
        {
            "type": "Feature",
            "properties": {
                "ref:csioz": 1089634,
                "name": "Wracam Do Zdrowia",
                "addr:street": "Warszawska",
                "addr:housenumber": "66",
                "addr:city": "Legionowo",
                "addr:postcode": "05-120",
                "amenity": "pharmacy"
            },
            "geometry": {
                "type": "Point",
                "coordinates": [
                    20.93297925785044,
                    52.39152594589111
                ]
            }
        },
        {
            "type": "Feature",
            "properties": {
                "ref:csioz": 1090008,
                "name": "Amica",
                "addr:street": "gen. Józefa Sowińskiego",
                "addr:housenumber": "8A",
                "addr:city": "Legionowo",
                "addr:postcode": "05-120",
                "amenity": "pharmacy"
            },
            "geometry": {
                "type": "Point",
                "coordinates": [
                    20.929015530476192,
                    52.39585164974051
                ]
            }
        },
        {
            "type": "Feature",
            "properties": {
                "ref:csioz": 1090019,
                "name": "Z Uśmiechem",
                "addr:street": "Mikołaja Kopernika",
                "addr:housenumber": "9",
                "addr:city": "Legionowo",
                "addr:postcode": "05-120",
                "amenity": "pharmacy"
            },
            "geometry": {
                "type": "Point",
                "coordinates": [
                    20.93961693620282,
                    52.400235457051075
                ]
            }
        },
        {
            "type": "Feature",
            "properties": {
                "ref:csioz": 1090145,
                "name": "Z Uśmiechem",
                "addr:street": "Suwalna",
                "addr:housenumber": "9B",
                "addr:city": "Legionowo",
                "addr:postcode": "05-120",
                "amenity": "pharmacy"
            },
            "geometry": {
                "type": "Point",
                "coordinates": [
                    20.92643319178147,
                    52.42020910407953
                ]
            }
        },
        {
            "type": "Feature",
            "properties": {
                "ref:csioz": 1113751,
                "name": "Główna",
                "addr:street": "Jagiellońska",
                "addr:housenumber": "11B",
                "addr:city": "Legionowo",
                "addr:postcode": "05-120",
                "amenity": "pharmacy"
            },
            "geometry": {
                "type": "Point",
                "coordinates": [
                    20.932441993858056,
                    52.398961892090696
                ]
            }
        },
        {
            "type": "Feature",
            "properties": {
                "ref:csioz": 1123523,
                "name": "Pogodna",
                "addr:street": "Modlińska",
                "addr:housenumber": "61A",
                "addr:city": "Wieliszew",
                "addr:postcode": "05-135",
                "amenity": "pharmacy"
            },
            "geometry": {
                "type": "Point",
                "coordinates": [
                    20.971306312295344,
                    52.4503237190373
                ]
            }
        },
        {
            "type": "Feature",
            "properties": {
                "ref:csioz": 1173425,
                "name": "Dr. Max",
                "addr:street": "Zegrzyńska",
                "addr:housenumber": "115",
                "addr:city": "Legionowo",
                "addr:postcode": "05-119",
                "amenity": "pharmacy"
            },
            "geometry": {
                "type": "Point",
                "coordinates": [
                    20.9536045714888,
                    52.40858857810075
                ]
            }
        },
        {
            "type": "Feature",
            "properties": {
                "ref:csioz": 1177389,
                "name": "Z Uśmiechem",
                "addr:street": "Kościelna",
                "addr:housenumber": "61",
                "addr:city": "Wieliszew",
                "addr:postcode": "05-135",
                "amenity": "pharmacy"
            },
            "geometry": {
                "type": "Point",
                "coordinates": [
                    20.96249076888903,
                    52.43908094825499
                ]
            }
        },
        {
            "type": "Feature",
            "properties": {
                "ref:csioz": 1185171,
                "name": "Maxfarm",
                "addr:street": "Pułtuska",
                "addr:housenumber": "53D",
                "addr:city": "Serock",
                "addr:postcode": "05-140",
                "amenity": "pharmacy"
            },
            "geometry": {
                "type": "Point",
                "coordinates": [
                    21.069321506239003,
                    52.51979971479277
                ]
            }
        },
        {
            "type": "Feature",
            "properties": {
                "ref:csioz": 1192522,
                "name": "Amica",
                "addr:street": "Zegrzyńska",
                "addr:housenumber": "15",
                "addr:city": "Legionowo",
                "addr:postcode": "05-119",
                "amenity": "pharmacy"
            },
            "geometry": {
                "type": "Point",
                "coordinates": [
                    20.949637922865673,
                    52.40501529021324
                ]
            }
        },
        {
            "type": "Feature",
            "properties": {
                "ref:csioz": 1203092,
                "name": "Bliska",
                "addr:street": "Zygmunta Krasińskiego",
                "addr:housenumber": "72",
                "addr:city": "Legionowo",
                "addr:postcode": "05-120",
                "amenity": "pharmacy"
            },
            "geometry": {
                "type": "Point",
                "coordinates": [
                    20.91941260109094,
                    52.397116489421386
                ]
            }
        },
        {
            "type": "Feature",
            "properties": {
                "ref:csioz": 1204116,
                "addr:street": "Tadeusza Kościuszki",
                "addr:housenumber": "3",
                "addr:city": "Serock",
                "addr:postcode": "05-140",
                "amenity": "pharmacy"
            },
            "geometry": {
                "type": "Point",
                "coordinates": [
                    21.07035109331173,
                    52.512941928236806
                ]
            }
        },
        {
            "type": "Feature",
            "properties": {
                "ref:csioz": 1212599,
                "name": "Ziko",
                "addr:street": "Jerzego Siwińskiego",
                "addr:housenumber": "11",
                "addr:flats": "U2",
                "addr:city": "Legionowo",
                "addr:postcode": "05-120",
                "amenity": "pharmacy"
            },
            "geometry": {
                "type": "Point",
                "coordinates": [
                    20.921260498595757,
                    52.38952843935875
                ]
            }
        },
        {
            "type": "Feature",
            "properties": {
                "ref:csioz": 1214391,
                "name": "Punkt Apteczny Syrenka",
                "addr:street": "Jana Kazimierza",
                "addr:housenumber": "279",
                "addr:flats": "7",
                "addr:city": "Stanisławów Pierwszy",
                "addr:postcode": "05-126",
                "amenity": "pharmacy"
            },
            "geometry": {
                "type": "Point",
                "coordinates": [
                    21.03466034101236,
                    52.395353571060845
                ]
            }
        },
        {
            "type": "Feature",
            "properties": {
                "ref:csioz": 1219843,
                "name": "Syrenka",
                "addr:street": "Pułtuska",
                "addr:housenumber": "27",
                "addr:flats": "2",
                "addr:city": "Serock",
                "addr:postcode": "05-140",
                "amenity": "pharmacy"
            },
            "geometry": {
                "type": "Point",
                "coordinates": [
                    21.06869833159884,
                    52.51327914446178
                ]
            }
        },
        {
            "type": "Feature",
            "properties": {
                "ref:csioz": 1220296,
                "name": "Gemini",
                "addr:street": "marsz. Józefa Piłsudskiego",
                "addr:housenumber": "28",
                "addr:flats": "U4 i U5",
                "addr:city": "Legionowo",
                "addr:postcode": "05-120",
                "amenity": "pharmacy"
            },
            "geometry": {
                "type": "Point",
                "coordinates": [
                    20.929517979258396,
                    52.39483275204395
                ]
            }
        },
        {
            "type": "Feature",
            "properties": {
                "ref:csioz": 1221191,
                "name": "Hebeapteka",
                "addr:street": "marsz. Józefa Piłsudskiego",
                "addr:housenumber": "31C",
                "addr:flats": "7A",
                "addr:city": "Legionowo",
                "addr:postcode": "05-120",
                "amenity": "pharmacy"
            },
            "geometry": {
                "type": "Point",
                "coordinates": [
                    20.93317852699572,
                    52.39659058552364
                ]
            }
        },
        {
            "type": "Feature",
            "properties": {
                "ref:csioz": 1224119,
                "name": "Medyczne Centrum Zabiegowo-Rehabilitacyjne Oddziały Szpitalne",
                "addr:street": "Wenecka",
                "addr:housenumber": "18",
                "addr:city": "Jabłonna",
                "addr:postcode": "05-110",
                "amenity": "pharmacy"
            },
            "geometry": {
                "type": "Point",
                "coordinates": [
                    20.912465424823576,
                    52.385509922599205
                ]
            }
        },
        {
            "type": "Feature",
            "properties": {
                "ref:csioz": 1227427,
                "name": "Apteka Szpitalna",
                "addr:street": "Kościelna",
                "addr:housenumber": "61",
                "addr:city": "Wieliszew",
                "addr:postcode": "05-135",
                "amenity": "pharmacy"
            },
            "geometry": {
                "type": "Point",
                "coordinates": [
                    20.96249076888903,
                    52.43908094825499
                ]
            }
        },
        {
            "type": "Feature",
            "properties": {
                "ref:csioz": 1228852,
                "name": "Złota Jesień Kiełczewski Zakład Opiekuńczy",
                "addr:street": "Nowodworska",
                "addr:housenumber": "99",
                "addr:city": "Łajski",
                "addr:postcode": "05-119",
                "amenity": "pharmacy"
            },
            "geometry": {
                "type": "Point",
                "coordinates": [
                    20.943278325267762,
                    52.43037103685914
                ]
            }
        },
        {
            "type": "Feature",
            "properties": {
                "ref:csioz": 1229841,
                "name": "Apteka Edyta Raczkowska",
                "addr:street": "Akademijna",
                "addr:housenumber": "8",
                "addr:flats": "U1/U2",
                "addr:city": "Jabłonna",
                "addr:postcode": "05-110",
                "amenity": "pharmacy"
            },
            "geometry": {
                "type": "Point",
                "coordinates": [
                    20.934284301286567,
                    52.37637988824743
                ]
            }
        },
        {
            "type": "Feature",
            "properties": {
                "ref:csioz": 1230042,
                "name": "Apteka Przy Rondzie",
                "addr:street": "Stefana Kisielewskiego",
                "addr:housenumber": "11",
                "addr:flats": "3",
                "addr:city": "Chotomów",
                "addr:postcode": "05-123",
                "amenity": "pharmacy"
            },
            "geometry": {
                "type": "Point",
                "coordinates": [
                    20.89625480201762,
                    52.39709300468879
                ]
            }
        },
        {
            "type": "Feature",
            "properties": {
                "ref:csioz": 1177882,
                "name": "\"Niepubliczny Zespół Zakładów Opieki Zdrowotnej \"\"Wigor\"\"\"",
                "addr:street": "Pomorska",
                "addr:housenumber": "26",
                "addr:city": "Legionowo",
                "addr:postcode": "05-120",
                "amenity": "pharmacy"
            },
            "geometry": {
                "type": "Point",
                "coordinates": [
                    20.90358330103748,
                    52.40086912795955
                ]
            }
        },
        {
            "type": "Feature",
            "properties": {
                "ref:csioz": 1230798,
                "name": "\"\"\"Magnolia\"\"\"",
                "addr:street": "Wyzwolenia",
                "addr:housenumber": "23",
                "addr:city": "Serock",
                "addr:postcode": "86-120",
                "amenity": "pharmacy"
            },
            "geometry": {
                "type": "Point",
                "coordinates": [
                    21.069375124422894,
                    52.509301694890816
                ]
            }
        }
    ]
}