{
    "type": "FeatureCollection",
    "name": "JPT_KOD_JE_0861",
    "crs": {
        "type": "name",
        "properties": {
            "name": "urn:ogc:def:crs:EPSG::4326"
        }
    },
    "features": [
        {
            "type": "Feature",
            "properties": {
                "ref:csioz": 1149456,
                "name": "Prywatna",
                "addr:street": "Józefa Chełmońskiego",
                "addr:housenumber": "6",
                "addr:city": "Gorzów Wielkopolski",
                "addr:postcode": "66-400",
                "amenity": "pharmacy"
            },
            "geometry": {
                "type": "Point",
                "coordinates": [
                    15.210000018406868,
                    52.740799837896866
                ]
            }
        },
        {
            "type": "Feature",
            "properties": {
                "ref:csioz": 1149512,
                "name": "Pod Temidą",
                "addr:street": "Mieszka I",
                "addr:housenumber": "45",
                "addr:city": "Gorzów Wielkopolski",
                "addr:postcode": "66-400",
                "amenity": "pharmacy"
            },
            "geometry": {
                "type": "Point",
                "coordinates": [
                    15.230255472992262,
                    52.74266594786578
                ]
            }
        },
        {
            "type": "Feature",
            "properties": {
                "ref:csioz": 1149599,
                "name": "Zawarcie",
                "addr:street": "Towarowa",
                "addr:housenumber": "6A",
                "addr:city": "Gorzów Wielkopolski",
                "addr:postcode": "66-400",
                "amenity": "pharmacy"
            },
            "geometry": {
                "type": "Point",
                "coordinates": [
                    15.232617236462675,
                    52.724086648101846
                ]
            }
        },
        {
            "type": "Feature",
            "properties": {
                "ref:csioz": 1149621,
                "name": "Apteka Dolinki Józef Laskowski Sp. Jawna",
                "addr:street": "Dywizjonu 303",
                "addr:housenumber": "1",
                "addr:city": "Gorzów Wielkopolski",
                "addr:postcode": "66-400",
                "amenity": "pharmacy"
            },
            "geometry": {
                "type": "Point",
                "coordinates": [
                    15.253324868914008,
                    52.740791983038335
                ]
            }
        },
        {
            "type": "Feature",
            "properties": {
                "ref:csioz": 1149668,
                "name": "Dr. Max",
                "addr:street": "Pomorska",
                "addr:housenumber": "71",
                "addr:city": "Gorzów Wielkopolski",
                "addr:postcode": "66-400",
                "amenity": "pharmacy"
            },
            "geometry": {
                "type": "Point",
                "coordinates": [
                    15.254771636067206,
                    52.74189996499778
                ]
            }
        },
        {
            "type": "Feature",
            "properties": {
                "ref:csioz": 1149645,
                "name": "Dr. Max",
                "addr:street": "Górczyńska",
                "addr:housenumber": "19",
                "addr:city": "Gorzów Wielkopolski",
                "addr:postcode": "66-400",
                "amenity": "pharmacy"
            },
            "geometry": {
                "type": "Point",
                "coordinates": [
                    15.253592083010885,
                    52.75759288639617
                ]
            }
        },
        {
            "type": "Feature",
            "properties": {
                "ref:csioz": 1149793,
                "name": "Arnica",
                "addr:street": "30 Stycznia",
                "addr:housenumber": "15",
                "addr:flats": "03",
                "addr:city": "Gorzów Wielkopolski",
                "addr:postcode": "66-400",
                "amenity": "pharmacy"
            },
            "geometry": {
                "type": "Point",
                "coordinates": [
                    15.231920857941404,
                    52.73414832257938
                ]
            }
        },
        {
            "type": "Feature",
            "properties": {
                "ref:csioz": 1149825,
                "name": "\"\"\"Ziko Apteka\"\"\"",
                "addr:street": "Szarych Szeregów",
                "addr:housenumber": "38",
                "addr:city": "Gorzów Wielkopolski",
                "addr:postcode": "66-400",
                "amenity": "pharmacy"
            },
            "geometry": {
                "type": "Point",
                "coordinates": [
                    15.262927991406038,
                    52.76331275701874
                ]
            }
        },
        {
            "type": "Feature",
            "properties": {
                "ref:csioz": 1149830,
                "name": "Ziko Apteka",
                "addr:street": "Karola Marcinkowskiego",
                "addr:housenumber": "90A",
                "addr:city": "Gorzów Wielkopolski",
                "addr:postcode": "66-400",
                "amenity": "pharmacy"
            },
            "geometry": {
                "type": "Point",
                "coordinates": [
                    15.211816563884684,
                    52.73907533951238
                ]
            }
        },
        {
            "type": "Feature",
            "properties": {
                "ref:csioz": 1181912,
                "name": "Ziko Apteka",
                "addr:street": "Pomorska",
                "addr:housenumber": "34",
                "addr:city": "Gorzów Wielkopolski",
                "addr:postcode": "66-400",
                "amenity": "pharmacy"
            },
            "geometry": {
                "type": "Point",
                "coordinates": [
                    15.253416510414542,
                    52.74172049387806
                ]
            }
        },
        {
            "type": "Feature",
            "properties": {
                "ref:csioz": 1184723,
                "name": "Medapteka",
                "addr:street": "gen. Władysława Sikorskiego",
                "addr:housenumber": "118A",
                "addr:city": "Gorzów Wielkopolski",
                "addr:postcode": "66-400",
                "amenity": "pharmacy"
            },
            "geometry": {
                "type": "Point",
                "coordinates": [
                    15.236508560772084,
                    52.73061751246753
                ]
            }
        },
        {
            "type": "Feature",
            "properties": {
                "ref:csioz": 1192819,
                "name": "Dom Leków",
                "addr:street": "gen. Władysława Sikorskiego",
                "addr:housenumber": "126",
                "addr:city": "Gorzów Wielkopolski",
                "addr:postcode": "66-400",
                "amenity": "pharmacy"
            },
            "geometry": {
                "type": "Point",
                "coordinates": [
                    15.238636859617541,
                    52.731767449808075
                ]
            }
        },
        {
            "type": "Feature",
            "properties": {
                "ref:csioz": 1199981,
                "name": "Vita-Pharm",
                "addr:street": "Kombatantów",
                "addr:housenumber": "30",
                "addr:city": "Gorzów Wielkopolski",
                "addr:postcode": "66-400",
                "amenity": "pharmacy"
            },
            "geometry": {
                "type": "Point",
                "coordinates": [
                    15.260410168783842,
                    52.76015751659292
                ]
            }
        },
        {
            "type": "Feature",
            "properties": {
                "ref:csioz": 1223734,
                "name": "\"Apteka \"\"Dr. Max\"\"\"",
                "addr:street": "Karola Marcinkowskiego",
                "addr:housenumber": "8",
                "addr:city": "Gorzów Wielkopolski",
                "addr:postcode": "66-400",
                "amenity": "pharmacy"
            },
            "geometry": {
                "type": "Point",
                "coordinates": [
                    15.211181273700289,
                    52.737635243870535
                ]
            }
        },
        {
            "type": "Feature",
            "properties": {
                "ref:csioz": 1149536,
                "name": "Aspirynka",
                "addr:street": "marsz. Józefa Piłsudskiego",
                "addr:housenumber": "1A",
                "addr:city": "Gorzów Wielkopolski",
                "addr:postcode": "66-400",
                "amenity": "pharmacy"
            },
            "geometry": {
                "type": "Point",
                "coordinates": [
                    15.243506211474935,
                    52.74038429698461
                ]
            }
        },
        {
            "type": "Feature",
            "properties": {
                "ref:csioz": 1149520,
                "name": "\"Sady S.C.\"\"\"",
                "addr:street": "Ignacego Paderewskiego",
                "addr:housenumber": "42A",
                "addr:city": "Gorzów Wielkopolski",
                "addr:postcode": "66-400",
                "amenity": "pharmacy"
            },
            "geometry": {
                "type": "Point",
                "coordinates": [
                    15.248955999953045,
                    52.75407100001754
                ]
            }
        },
        {
            "type": "Feature",
            "properties": {
                "ref:csioz": 1149858,
                "name": "Ziko Apteka",
                "addr:street": "Kazimierza Wielkiego",
                "addr:housenumber": "86",
                "addr:city": "Gorzów Wielkopolski",
                "addr:postcode": "66-400",
                "amenity": "pharmacy"
            },
            "geometry": {
                "type": "Point",
                "coordinates": [
                    15.233023341367232,
                    52.753764226847316
                ]
            }
        },
        {
            "type": "Feature",
            "properties": {
                "ref:csioz": 1150907,
                "addr:street": "Dekerta",
                "addr:housenumber": "1",
                "addr:city": "Gorzów Wielkopolski",
                "addr:postcode": "66-400",
                "amenity": "pharmacy"
            },
            "geometry": {
                "type": "Point",
                "coordinates": [
                    15.235852663233445,
                    52.762241794853296
                ]
            }
        },
        {
            "type": "Feature",
            "properties": {
                "ref:csioz": 1166145,
                "addr:street": "Borowskiego",
                "addr:housenumber": "2A",
                "addr:flats": "3",
                "addr:city": "Gorzów Wielkopolski",
                "addr:postcode": "66-400",
                "amenity": "pharmacy"
            },
            "geometry": {
                "type": "Point",
                "coordinates": [
                    15.236569065247275,
                    52.737135846894965
                ]
            }
        },
        {
            "type": "Feature",
            "properties": {
                "ref:csioz": 1195226,
                "name": "Ziko Apteka",
                "addr:street": "Londyńska",
                "addr:housenumber": "5",
                "addr:city": "Gorzów Wielkopolski",
                "addr:postcode": "66-400",
                "amenity": "pharmacy"
            },
            "geometry": {
                "type": "Point",
                "coordinates": [
                    15.196022999949616,
                    52.73536300001759
                ]
            }
        },
        {
            "type": "Feature",
            "properties": {
                "ref:csioz": 1221209,
                "name": "Apteka Prima",
                "addr:street": "Krzysztofa Kamila Baczyńskiego",
                "addr:housenumber": "4",
                "addr:city": "Gorzów Wielkopolski",
                "addr:postcode": "66-400",
                "amenity": "pharmacy"
            },
            "geometry": {
                "type": "Point",
                "coordinates": [
                    15.21215586761054,
                    52.739382669232
                ]
            }
        },
        {
            "type": "Feature",
            "properties": {
                "ref:csioz": 1149692,
                "name": "Dr. Max",
                "addr:street": "Franciszka Walczaka",
                "addr:housenumber": "23E",
                "addr:city": "Gorzów Wielkopolski",
                "addr:postcode": "66-400",
                "amenity": "pharmacy"
            },
            "geometry": {
                "type": "Point",
                "coordinates": [
                    15.25291453558062,
                    52.745230333904416
                ]
            }
        },
        {
            "type": "Feature",
            "properties": {
                "ref:csioz": 1149755,
                "name": "Dr. Max",
                "addr:street": "Aleja Konstytucji 3 Maja",
                "addr:housenumber": "102",
                "addr:city": "Gorzów Wielkopolski",
                "addr:postcode": "66-400",
                "amenity": "pharmacy"
            },
            "geometry": {
                "type": "Point",
                "coordinates": [
                    15.225326435358642,
                    52.73087185578793
                ]
            }
        },
        {
            "type": "Feature",
            "properties": {
                "ref:csioz": 1116548,
                "name": "Apteka Gemini",
                "addr:street": "Szarych Szeregów",
                "addr:housenumber": "16/16c",
                "addr:city": "Gorzów Wielkopolski",
                "addr:postcode": "66-400",
                "amenity": "pharmacy"
            },
            "geometry": {
                "type": "Point",
                "coordinates": [
                    15.265956999954119,
                    52.76260900001753
                ]
            }
        },
        {
            "type": "Feature",
            "properties": {
                "ref:csioz": 1149481,
                "name": "Dworcowa",
                "addr:street": "Dworcowa",
                "addr:housenumber": "2",
                "addr:flats": "3",
                "addr:city": "Gorzów Wielkopolski",
                "addr:postcode": "66-400",
                "amenity": "pharmacy"
            },
            "geometry": {
                "type": "Point",
                "coordinates": [
                    15.229228155653313,
                    52.72867111083655
                ]
            }
        },
        {
            "type": "Feature",
            "properties": {
                "ref:csioz": 1149504,
                "name": "Ziko Apteka",
                "addr:street": "Łużycka",
                "addr:housenumber": "7",
                "addr:city": "Gorzów Wielkopolski",
                "addr:postcode": "66-400",
                "amenity": "pharmacy"
            },
            "geometry": {
                "type": "Point",
                "coordinates": [
                    15.235866119430629,
                    52.72996378515194
                ]
            }
        },
        {
            "type": "Feature",
            "properties": {
                "ref:csioz": 1149585,
                "name": "Apteka Ogólnodostępna Pogodna",
                "addr:street": "Śląska",
                "addr:housenumber": "13",
                "addr:flats": "1",
                "addr:city": "Gorzów Wielkopolski",
                "addr:postcode": "66-400",
                "amenity": "pharmacy"
            },
            "geometry": {
                "type": "Point",
                "coordinates": [
                    15.234354519070086,
                    52.723203523284226
                ]
            }
        },
        {
            "type": "Feature",
            "properties": {
                "ref:csioz": 1149600,
                "name": "Wełniany Rynek",
                "addr:street": "Wełniany Rynek",
                "addr:housenumber": "3",
                "addr:city": "Gorzów Wielkopolski",
                "addr:postcode": "66-400",
                "amenity": "pharmacy"
            },
            "geometry": {
                "type": "Point",
                "coordinates": [
                    15.239253047645859,
                    52.73210175629166
                ]
            }
        },
        {
            "type": "Feature",
            "properties": {
                "ref:csioz": 1149786,
                "name": "Ziko Apteka",
                "addr:street": "Budowlanych",
                "addr:housenumber": "13",
                "addr:flats": "1A",
                "addr:city": "Gorzów Wielkopolski",
                "addr:postcode": "66-400",
                "amenity": "pharmacy"
            },
            "geometry": {
                "type": "Point",
                "coordinates": [
                    15.229544385517798,
                    52.722901778633336
                ]
            }
        },
        {
            "type": "Feature",
            "properties": {
                "ref:csioz": 1149849,
                "name": "Ziko Apteka",
                "addr:street": "Adama Mickiewicza",
                "addr:housenumber": "7",
                "addr:city": "Gorzów Wielkopolski",
                "addr:postcode": "66-400",
                "amenity": "pharmacy"
            },
            "geometry": {
                "type": "Point",
                "coordinates": [
                    15.23212904548165,
                    52.74089194991382
                ]
            }
        },
        {
            "type": "Feature",
            "properties": {
                "ref:csioz": 1150895,
                "addr:street": "Walczaka",
                "addr:housenumber": "42",
                "addr:city": "Gorzów Wielkopolski",
                "addr:postcode": "66-400",
                "amenity": "pharmacy"
            },
            "geometry": {
                "type": "Point",
                "coordinates": [
                    15.259856489040757,
                    52.75411816625994
                ]
            }
        },
        {
            "type": "Feature",
            "properties": {
                "ref:csioz": 1174814,
                "name": "Centrum Zdrowia",
                "addr:street": "gen. Władysława Sikorskiego",
                "addr:housenumber": "115",
                "addr:city": "Gorzów Wielkopolski",
                "addr:postcode": "66-400",
                "amenity": "pharmacy"
            },
            "geometry": {
                "type": "Point",
                "coordinates": [
                    15.235402004608426,
                    52.730369872532606
                ]
            }
        },
        {
            "type": "Feature",
            "properties": {
                "ref:csioz": 1223742,
                "name": "\"Apteka \"\"Dr. Max\"\"\"",
                "addr:street": "Bolesława Krzywoustego",
                "addr:housenumber": "4a",
                "addr:city": "Gorzów Wielkopolski",
                "addr:postcode": "66-400",
                "amenity": "pharmacy"
            },
            "geometry": {
                "type": "Point",
                "coordinates": [
                    15.234562324745223,
                    52.73607992101567
                ]
            }
        },
        {
            "type": "Feature",
            "properties": {
                "ref:csioz": 1149548,
                "name": "\"\"\"Ziko Apteka\"\"\"",
                "addr:street": "marsz. Józefa Piłsudskiego",
                "addr:housenumber": "46H",
                "addr:city": "Gorzów Wielkopolski",
                "addr:postcode": "66-400",
                "amenity": "pharmacy"
            },
            "geometry": {
                "type": "Point",
                "coordinates": [
                    15.244053505904878,
                    52.75152973099467
                ]
            }
        },
        {
            "type": "Feature",
            "properties": {
                "ref:csioz": 1149659,
                "name": "\"'Apteka Cef@Rm 36,6'\"",
                "addr:street": "Słowiańska",
                "addr:housenumber": "70",
                "addr:city": "Gorzów Wielkopolski",
                "addr:postcode": "66-400",
                "amenity": "pharmacy"
            },
            "geometry": {
                "type": "Point",
                "coordinates": [
                    15.201037610203553,
                    52.73888855629678
                ]
            }
        },
        {
            "type": "Feature",
            "properties": {
                "ref:csioz": 1149707,
                "name": "\"Apteka Cef@Rm 36,6'\"",
                "addr:street": "Górczyńska",
                "addr:housenumber": "23",
                "addr:city": "Gorzów Wielkopolski",
                "addr:postcode": "66-400",
                "amenity": "pharmacy"
            },
            "geometry": {
                "type": "Point",
                "coordinates": [
                    15.251866876380932,
                    52.757796913544304
                ]
            }
        },
        {
            "type": "Feature",
            "properties": {
                "ref:csioz": 1149741,
                "name": "Ziko Apteka",
                "addr:street": "Gwiaździsta",
                "addr:housenumber": "16",
                "addr:city": "Gorzów Wielkopolski",
                "addr:postcode": "66-400",
                "amenity": "pharmacy"
            },
            "geometry": {
                "type": "Point",
                "coordinates": [
                    15.204936999466634,
                    52.72626778662067
                ]
            }
        },
        {
            "type": "Feature",
            "properties": {
                "ref:csioz": 1149764,
                "name": "Apteka Dbam O Zdrowie",
                "addr:street": "Henryka Sienkiewicza",
                "addr:housenumber": "10",
                "addr:flats": "11",
                "addr:city": "Gorzów Wielkopolski",
                "addr:postcode": "66-400",
                "amenity": "pharmacy"
            },
            "geometry": {
                "type": "Point",
                "coordinates": [
                    15.22788281865605,
                    52.737043498050475
                ]
            }
        },
        {
            "type": "Feature",
            "properties": {
                "ref:csioz": 1149863,
                "name": "Super-Pharm Apteka",
                "addr:street": "Przemysłowa",
                "addr:housenumber": "2",
                "addr:city": "Gorzów Wielkopolski",
                "addr:postcode": "66-400",
                "amenity": "pharmacy"
            },
            "geometry": {
                "type": "Point",
                "coordinates": [
                    15.241762845673264,
                    52.72659075613472
                ]
            }
        },
        {
            "type": "Feature",
            "properties": {
                "ref:csioz": 1165316,
                "addr:street": "Stilonowa",
                "addr:housenumber": "21",
                "addr:city": "Gorzów Wielkopolski",
                "addr:postcode": "66-400",
                "amenity": "pharmacy"
            },
            "geometry": {
                "type": "Point",
                "coordinates": [
                    15.250127354587654,
                    52.742199461303635
                ]
            }
        },
        {
            "type": "Feature",
            "properties": {
                "ref:csioz": 1177764,
                "name": "Ziko Apteka",
                "addr:street": "Jana Matejki",
                "addr:housenumber": "45A",
                "addr:city": "Gorzów Wielkopolski",
                "addr:postcode": "66-400",
                "amenity": "pharmacy"
            },
            "geometry": {
                "type": "Point",
                "coordinates": [
                    15.230576831958974,
                    52.7319928192821
                ]
            }
        },
        {
            "type": "Feature",
            "properties": {
                "ref:csioz": 1187187,
                "name": "Dom Leków",
                "addr:street": "Słoneczna",
                "addr:housenumber": "6",
                "addr:flats": "3",
                "addr:city": "Gorzów Wielkopolski",
                "addr:postcode": "66-400",
                "amenity": "pharmacy"
            },
            "geometry": {
                "type": "Point",
                "coordinates": [
                    15.204723122817706,
                    52.7257998224459
                ]
            }
        },
        {
            "type": "Feature",
            "properties": {
                "ref:csioz": 1205988,
                "name": "\"\"\"Ziko Apteka\"\"\"",
                "addr:street": "Na Skarpie",
                "addr:housenumber": "49d",
                "addr:city": "Gorzów Wielkopolski",
                "addr:postcode": "66-400",
                "amenity": "pharmacy"
            },
            "geometry": {
                "type": "Point",
                "coordinates": [
                    15.23920630069017,
                    52.75553558765036
                ]
            }
        },
        {
            "type": "Feature",
            "properties": {
                "ref:csioz": 1214009,
                "name": "Dr. Max",
                "addr:street": "Aleksandra Fredry",
                "addr:housenumber": "10",
                "addr:flats": "A",
                "addr:city": "Gorzów Wielkopolski",
                "addr:postcode": "66-400",
                "amenity": "pharmacy"
            },
            "geometry": {
                "type": "Point",
                "coordinates": [
                    15.218692888146158,
                    52.73902089432897
                ]
            }
        },
        {
            "type": "Feature",
            "properties": {
                "ref:csioz": 1218321,
                "name": "Apteka Hipokrates",
                "addr:street": "Danuty Siedzikówny - Inki",
                "addr:housenumber": "19A",
                "addr:flats": "H4",
                "addr:city": "Gorzów Wielkopolski",
                "addr:postcode": "66-400",
                "amenity": "pharmacy"
            },
            "geometry": {
                "type": "Point",
                "coordinates": [
                    15.2497623752449,
                    52.7514551910429
                ]
            }
        },
        {
            "type": "Feature",
            "properties": {
                "ref:csioz": 1149561,
                "name": "Doz Apteka. Dbam O Zdrowie. Słoneczna",
                "addr:street": "Słoneczna",
                "addr:housenumber": "50-51",
                "addr:city": "Gorzów Wielkopolski",
                "addr:postcode": "66-400",
                "amenity": "pharmacy"
            },
            "geometry": {
                "type": "Point",
                "coordinates": [
                    15.201237300772997,
                    52.72489959862226
                ]
            }
        },
        {
            "type": "Feature",
            "properties": {
                "ref:csioz": 1201657,
                "name": "Gemini",
                "addr:street": "gen. Władysława Sikorskiego",
                "addr:housenumber": "120-121",
                "addr:city": "Gorzów Wielkopolski",
                "addr:postcode": "66-400",
                "amenity": "pharmacy"
            },
            "geometry": {
                "type": "Point",
                "coordinates": [
                    15.236707697841295,
                    52.73092650303915
                ]
            }
        }
    ]
}