{
    "type": "FeatureCollection",
    "name": "JPT_KOD_JE_2801",
    "crs": {
        "type": "name",
        "properties": {
            "name": "urn:ogc:def:crs:EPSG::4326"
        }
    },
    "features": [
        {
            "type": "Feature",
            "properties": {
                "ref:csioz": 1039762,
                "name": "Melissa",
                "addr:street": "Spółdzielczy",
                "addr:housenumber": "6",
                "addr:city": "Sępopol",
                "addr:postcode": "11-210",
                "amenity": "pharmacy"
            },
            "geometry": {
                "type": "Point",
                "coordinates": [
                    21.01404464209433,
                    54.27095233154657
                ]
            }
        },
        {
            "type": "Feature",
            "properties": {
                "ref:csioz": 1220439,
                "name": "Apteka Rumianek",
                "addr:street": "Bolesława Prusa",
                "addr:housenumber": "6A",
                "addr:city": "Sępopol",
                "addr:postcode": "11-210",
                "amenity": "pharmacy"
            },
            "geometry": {
                "type": "Point",
                "coordinates": [
                    21.016904321996822,
                    54.26629503709421
                ]
            }
        },
        {
            "type": "Feature",
            "properties": {
                "ref:csioz": 1228320,
                "name": "Słoneczna",
                "addr:street": "Henryka Sienkiewicza",
                "addr:housenumber": "3A",
                "addr:city": "Bisztynek",
                "addr:postcode": "11-230",
                "amenity": "pharmacy"
            },
            "geometry": {
                "type": "Point",
                "coordinates": [
                    20.90344514112501,
                    54.085376007740976
                ]
            }
        },
        {
            "type": "Feature",
            "properties": {
                "ref:csioz": 1014322,
                "addr:housenumber": "43",
                "addr:city": "WOJCIECHY",
                "addr:postcode": "11-200",
                "amenity": "pharmacy"
            },
            "geometry": {
                "type": "Point",
                "coordinates": [
                    20.667316167963854,
                    54.26428645896882
                ]
            }
        },
        {
            "type": "Feature",
            "properties": {
                "ref:csioz": 1038096,
                "addr:street": "Plac Konstytucji 3 Maja",
                "addr:housenumber": "13",
                "addr:city": "Bartoszyce",
                "addr:postcode": "11-200",
                "amenity": "pharmacy"
            },
            "geometry": {
                "type": "Point",
                "coordinates": [
                    20.810424540063067,
                    54.250772896268074
                ]
            }
        },
        {
            "type": "Feature",
            "properties": {
                "ref:csioz": 1038082,
                "name": "Doz Apteka Dbam O Zdrowie",
                "addr:street": "Starzyńskiego",
                "addr:housenumber": "2B",
                "addr:city": "Bartoszyce",
                "addr:postcode": "11-200",
                "amenity": "pharmacy"
            },
            "geometry": {
                "type": "Point",
                "coordinates": [
                    20.808126982645142,
                    54.250053649618614
                ]
            }
        },
        {
            "type": "Feature",
            "properties": {
                "ref:csioz": 1114110,
                "name": "Apteka Ratuszowa -Tanie Leki",
                "addr:street": "Ratuszowy",
                "addr:housenumber": "12",
                "addr:flats": "1A",
                "addr:city": "Górowo Iławeckie",
                "addr:postcode": "11-220",
                "amenity": "pharmacy"
            },
            "geometry": {
                "type": "Point",
                "coordinates": [
                    20.49392058112508,
                    54.28490690368041
                ]
            }
        },
        {
            "type": "Feature",
            "properties": {
                "ref:csioz": 1014964,
                "addr:housenumber": "18",
                "addr:city": "Bezledy",
                "addr:postcode": "11-200",
                "amenity": "pharmacy"
            },
            "geometry": {
                "type": "Point",
                "coordinates": [
                    20.728030236265933,
                    54.326393930641096
                ]
            }
        },
        {
            "type": "Feature",
            "properties": {
                "ref:csioz": 1016471,
                "addr:housenumber": "9B",
                "addr:city": "Kandyty",
                "addr:postcode": "11-220",
                "amenity": "pharmacy"
            },
            "geometry": {
                "type": "Point",
                "coordinates": [
                    20.369095000000893,
                    54.31676100001929
                ]
            }
        },
        {
            "type": "Feature",
            "properties": {
                "ref:csioz": 1038025,
                "name": "Apteki Polskie",
                "addr:street": "Andrzeja Witolda Wajdy",
                "addr:housenumber": "10",
                "addr:city": "Bartoszyce",
                "addr:postcode": "11-200",
                "amenity": "pharmacy"
            },
            "geometry": {
                "type": "Point",
                "coordinates": [
                    20.810734000001844,
                    54.246403000019164
                ]
            }
        },
        {
            "type": "Feature",
            "properties": {
                "ref:csioz": 1038030,
                "name": "Doz Apteka. Dbam O Zdrowie. Miligedo",
                "addr:street": "Generała Bema",
                "addr:housenumber": "19B",
                "addr:city": "Bartoszyce",
                "addr:postcode": "11-200",
                "amenity": "pharmacy"
            },
            "geometry": {
                "type": "Point",
                "coordinates": [
                    20.808649023977456,
                    54.253157016779525
                ]
            }
        },
        {
            "type": "Feature",
            "properties": {
                "ref:csioz": 1038058,
                "addr:street": "Generała Sikorskiego",
                "addr:housenumber": "27A",
                "addr:city": "Bartoszyce",
                "addr:postcode": "11-200",
                "amenity": "pharmacy"
            },
            "geometry": {
                "type": "Point",
                "coordinates": [
                    20.799235000001808,
                    54.26146700001919
                ]
            }
        },
        {
            "type": "Feature",
            "properties": {
                "ref:csioz": 1038063,
                "name": "Viola",
                "addr:street": "Księcia Poniatowskiego",
                "addr:housenumber": "26",
                "addr:city": "Bartoszyce",
                "addr:postcode": "11-200",
                "amenity": "pharmacy"
            },
            "geometry": {
                "type": "Point",
                "coordinates": [
                    20.80451208881532,
                    54.24957757888374
                ]
            }
        },
        {
            "type": "Feature",
            "properties": {
                "ref:csioz": 1038105,
                "name": "Zdrowie",
                "addr:street": "Kardynała Wyszyńskiego",
                "addr:housenumber": "11",
                "addr:city": "Bartoszyce",
                "addr:postcode": "11-200",
                "amenity": "pharmacy"
            },
            "geometry": {
                "type": "Point",
                "coordinates": [
                    20.791932000001786,
                    54.25886800001918
                ]
            }
        },
        {
            "type": "Feature",
            "properties": {
                "ref:csioz": 1038118,
                "addr:street": "Nowowiejskiego",
                "addr:housenumber": "25",
                "addr:city": "Bartoszyce",
                "addr:postcode": "11-200",
                "amenity": "pharmacy"
            },
            "geometry": {
                "type": "Point",
                "coordinates": [
                    20.81486833327934,
                    54.25884677622676
                ]
            }
        },
        {
            "type": "Feature",
            "properties": {
                "ref:csioz": 1039103,
                "addr:street": "gen. Sikorskiego",
                "addr:housenumber": "3",
                "addr:city": "Górowo Iławeckie",
                "addr:postcode": "11-220",
                "amenity": "pharmacy"
            },
            "geometry": {
                "type": "Point",
                "coordinates": [
                    20.492520109556892,
                    54.285376501674776
                ]
            }
        },
        {
            "type": "Feature",
            "properties": {
                "ref:csioz": 1041961,
                "addr:street": "Wyszyńskiego",
                "addr:housenumber": "11",
                "addr:city": "BARTOSZYCE",
                "addr:postcode": "11-200",
                "amenity": "pharmacy"
            },
            "geometry": {
                "type": "Point",
                "coordinates": [
                    20.79226262881625,
                    54.25891757294874
                ]
            }
        },
        {
            "type": "Feature",
            "properties": {
                "ref:csioz": 1113883,
                "name": "Doz Apteka Dbam O Zdrowie",
                "addr:street": "Kardynała Wyszyńskiego",
                "addr:housenumber": "26",
                "addr:city": "Bartoszyce",
                "addr:postcode": "11-200",
                "amenity": "pharmacy"
            },
            "geometry": {
                "type": "Point",
                "coordinates": [
                    20.794134000001787,
                    54.25955800001918
                ]
            }
        },
        {
            "type": "Feature",
            "properties": {
                "ref:csioz": 1122902,
                "name": "Wojewódzki Szpital Rehabilitacyjny",
                "addr:street": "Armii Krajowej",
                "addr:housenumber": "24",
                "addr:city": "Górowo Iławeckie",
                "addr:postcode": "11-220",
                "amenity": "pharmacy"
            },
            "geometry": {
                "type": "Point",
                "coordinates": [
                    20.497166822863623,
                    54.28480001701239
                ]
            }
        },
        {
            "type": "Feature",
            "properties": {
                "ref:csioz": 1184949,
                "name": "Doz Apteka. Dbam O Zdrowie. Miligedo",
                "addr:street": "Kętrzyńska",
                "addr:housenumber": "10",
                "addr:city": "Bartoszyce",
                "addr:postcode": "11-200",
                "amenity": "pharmacy"
            },
            "geometry": {
                "type": "Point",
                "coordinates": [
                    20.81228169051047,
                    54.2509385624437
                ]
            }
        },
        {
            "type": "Feature",
            "properties": {
                "ref:csioz": 1204671,
                "name": "Apteka Dyżurna",
                "addr:street": "Plac Konstytucji 3 Maja",
                "addr:housenumber": "33-34-35",
                "addr:city": "Bartoszyce",
                "addr:postcode": "11-200",
                "amenity": "pharmacy"
            },
            "geometry": {
                "type": "Point",
                "coordinates": [
                    20.810179543854996,
                    54.251432719312255
                ]
            }
        },
        {
            "type": "Feature",
            "properties": {
                "ref:csioz": 1204959,
                "name": "Apteka Gemini",
                "addr:street": "Kętrzyńska",
                "addr:housenumber": "18",
                "addr:city": "Bartoszyce",
                "addr:postcode": "11-200",
                "amenity": "pharmacy"
            },
            "geometry": {
                "type": "Point",
                "coordinates": [
                    20.81350815197597,
                    54.250681864685546
                ]
            }
        }
    ]
}