{
    "type": "FeatureCollection",
    "name": "JPT_KOD_JE_1206",
    "crs": {
        "type": "name",
        "properties": {
            "name": "urn:ogc:def:crs:EPSG::4326"
        }
    },
    "features": [
        {
            "type": "Feature",
            "properties": {
                "ref:csioz": 1035222,
                "name": "Apteka Rodzinna",
                "addr:street": "Rynek",
                "addr:housenumber": "12",
                "addr:city": "Krzeszowice",
                "addr:postcode": "32-065",
                "amenity": "pharmacy"
            },
            "geometry": {
                "type": "Point",
                "coordinates": [
                    19.6340650359629,
                    50.13663152179914
                ]
            }
        },
        {
            "type": "Feature",
            "properties": {
                "ref:csioz": 1035240,
                "name": "Apteka Rodzinna",
                "addr:street": "Krakowska",
                "addr:housenumber": "16",
                "addr:city": "Krzeszowice",
                "addr:postcode": "32-065",
                "amenity": "pharmacy"
            },
            "geometry": {
                "type": "Point",
                "coordinates": [
                    19.63566994975372,
                    50.135508217231404
                ]
            }
        },
        {
            "type": "Feature",
            "properties": {
                "ref:csioz": 1035388,
                "name": "Przy Urzędzie",
                "addr:street": "Rajska",
                "addr:housenumber": "22",
                "addr:city": "Jerzmanowice",
                "addr:postcode": "32-048",
                "amenity": "pharmacy"
            },
            "geometry": {
                "type": "Point",
                "coordinates": [
                    19.746419587277465,
                    50.21501409014275
                ]
            }
        },
        {
            "type": "Feature",
            "properties": {
                "ref:csioz": 1036542,
                "name": "Hygieia",
                "addr:street": "T. Kościuszki",
                "addr:housenumber": "54",
                "addr:city": "Krzeszowice",
                "addr:postcode": "32-065",
                "amenity": "pharmacy"
            },
            "geometry": {
                "type": "Point",
                "coordinates": [
                    19.640883002485896,
                    50.133050294537185
                ]
            }
        },
        {
            "type": "Feature",
            "properties": {
                "ref:csioz": 1075575,
                "addr:housenumber": "292",
                "addr:city": "Morawica",
                "addr:postcode": "32-084",
                "amenity": "pharmacy"
            },
            "geometry": {
                "type": "Point",
                "coordinates": [
                    19.7484496424937,
                    50.07743891517961
                ]
            }
        },
        {
            "type": "Feature",
            "properties": {
                "ref:csioz": 1076571,
                "name": "Hygieia",
                "addr:street": "Legionów Polskich",
                "addr:housenumber": "30",
                "addr:city": "Krzeszowice",
                "addr:postcode": "32-065",
                "amenity": "pharmacy"
            },
            "geometry": {
                "type": "Point",
                "coordinates": [
                    19.637271197160324,
                    50.13913471129979
                ]
            }
        },
        {
            "type": "Feature",
            "properties": {
                "ref:csioz": 1076981,
                "name": "\"Apteka \"\"Nowa\"\"\"",
                "addr:street": "K. Wyki",
                "addr:housenumber": "12",
                "addr:city": "Krzeszowice",
                "addr:postcode": "32-065",
                "amenity": "pharmacy"
            },
            "geometry": {
                "type": "Point",
                "coordinates": [
                    19.634716731695157,
                    50.13524253965006
                ]
            }
        },
        {
            "type": "Feature",
            "properties": {
                "ref:csioz": 1110816,
                "name": "Apteka Nowa",
                "addr:street": "Legionów Polskich",
                "addr:housenumber": "1",
                "addr:city": "Krzeszowice",
                "addr:postcode": "32-065",
                "amenity": "pharmacy"
            },
            "geometry": {
                "type": "Point",
                "coordinates": [
                    19.63694679194804,
                    50.13553297068268
                ]
            }
        },
        {
            "type": "Feature",
            "properties": {
                "ref:csioz": 1112198,
                "name": "Alma-Medica Chirurgia Jednego Dnia",
                "addr:street": "Śląska",
                "addr:housenumber": "316",
                "addr:city": "Zabierzów",
                "addr:postcode": "32-080",
                "amenity": "pharmacy"
            },
            "geometry": {
                "type": "Point",
                "coordinates": [
                    19.764761973200333,
                    50.1168951951797
                ]
            }
        },
        {
            "type": "Feature",
            "properties": {
                "ref:csioz": 1113622,
                "name": "\"Ośrodek Rehabilitacji Narządu Ruchu \"\"Krzeszowice\"\" Sp Zoz\"",
                "addr:street": "I. Daszyńskiego",
                "addr:housenumber": "1",
                "addr:city": "Krzeszowice",
                "addr:postcode": "32-065",
                "amenity": "pharmacy"
            },
            "geometry": {
                "type": "Point",
                "coordinates": [
                    19.631931141069707,
                    50.13461380268508
                ]
            }
        },
        {
            "type": "Feature",
            "properties": {
                "ref:csioz": 1222413,
                "name": "Apteka Słoneczna",
                "addr:street": "Krakowska",
                "addr:housenumber": "1",
                "addr:city": "Krzeszowice",
                "addr:postcode": "32-065",
                "amenity": "pharmacy"
            },
            "geometry": {
                "type": "Point",
                "coordinates": [
                    19.634263237142317,
                    50.135628094289494
                ]
            }
        },
        {
            "type": "Feature",
            "properties": {
                "ref:csioz": 1036486,
                "name": "Hygieia",
                "addr:housenumber": "425",
                "addr:city": "Nowa Góra",
                "addr:postcode": "32-065",
                "amenity": "pharmacy"
            },
            "geometry": {
                "type": "Point",
                "coordinates": [
                    19.595773214327956,
                    50.172255116028225
                ]
            }
        },
        {
            "type": "Feature",
            "properties": {
                "ref:csioz": 1075290,
                "name": "Prima",
                "addr:street": "Rudawska",
                "addr:housenumber": "4",
                "addr:city": "Rudawa",
                "addr:postcode": "32-064",
                "amenity": "pharmacy"
            },
            "geometry": {
                "type": "Point",
                "coordinates": [
                    19.711823169480116,
                    50.121806032175066
                ]
            }
        },
        {
            "type": "Feature",
            "properties": {
                "ref:csioz": 1075847,
                "addr:housenumber": "116",
                "addr:city": "Przeginia",
                "addr:postcode": "32-300",
                "amenity": "pharmacy"
            },
            "geometry": {
                "type": "Point",
                "coordinates": [
                    19.70087140121116,
                    50.23569848645043
                ]
            }
        },
        {
            "type": "Feature",
            "properties": {
                "ref:csioz": 1076303,
                "name": "Hygieia",
                "addr:street": "K. Wyki",
                "addr:housenumber": "6A",
                "addr:city": "Krzeszowice",
                "addr:postcode": "32-065",
                "amenity": "pharmacy"
            },
            "geometry": {
                "type": "Point",
                "coordinates": [
                    19.633422368777477,
                    50.13515967997517
                ]
            }
        },
        {
            "type": "Feature",
            "properties": {
                "ref:csioz": 1114627,
                "addr:housenumber": "168",
                "addr:city": "Racławice",
                "addr:postcode": "32-222",
                "amenity": "pharmacy"
            },
            "geometry": {
                "type": "Point",
                "coordinates": [
                    19.673977973277292,
                    50.18445262206132
                ]
            }
        },
        {
            "type": "Feature",
            "properties": {
                "ref:csioz": 1190395,
                "addr:street": "ks. P. P. Gawlikowskiego",
                "addr:housenumber": "78",
                "addr:city": "Zalas",
                "addr:postcode": "32-067",
                "amenity": "pharmacy"
            },
            "geometry": {
                "type": "Point",
                "coordinates": [
                    19.628545919372296,
                    50.083102083129006
                ]
            }
        },
        {
            "type": "Feature",
            "properties": {
                "ref:csioz": 1194861,
                "addr:housenumber": "52",
                "addr:city": "Racławice",
                "addr:postcode": "32-049",
                "amenity": "pharmacy"
            },
            "geometry": {
                "type": "Point",
                "coordinates": [
                    19.67793518899501,
                    50.202598040933836
                ]
            }
        },
        {
            "type": "Feature",
            "properties": {
                "ref:csioz": 1215655,
                "name": "Apteka Z Sercem",
                "addr:street": "Centralna",
                "addr:housenumber": "100",
                "addr:city": "Jerzmanowice",
                "addr:postcode": "32-048",
                "amenity": "pharmacy"
            },
            "geometry": {
                "type": "Point",
                "coordinates": [
                    19.74720351745705,
                    50.212413816913866
                ]
            }
        },
        {
            "type": "Feature",
            "properties": {
                "ref:csioz": 1219110,
                "addr:street": "Stolarska",
                "addr:housenumber": "1",
                "addr:city": "Wola Filipowska",
                "addr:postcode": "32-065",
                "amenity": "pharmacy"
            },
            "geometry": {
                "type": "Point",
                "coordinates": [
                    19.58654406034172,
                    50.132987671799235
                ]
            }
        },
        {
            "type": "Feature",
            "properties": {
                "ref:csioz": 1226148,
                "name": "Apteka Agafarmax Krzeszowice",
                "addr:street": "Świętego Floriana",
                "addr:housenumber": "1",
                "addr:city": "Krzeszowice",
                "addr:postcode": "32-065",
                "amenity": "pharmacy"
            },
            "geometry": {
                "type": "Point",
                "coordinates": [
                    19.63655556673382,
                    50.13265087281871
                ]
            }
        },
        {
            "type": "Feature",
            "properties": {
                "ref:csioz": 1035458,
                "addr:housenumber": "275",
                "addr:city": "Jaśkowice",
                "addr:postcode": "32-051",
                "amenity": "pharmacy"
            },
            "geometry": {
                "type": "Point",
                "coordinates": [
                    19.66771525234947,
                    49.960377389912765
                ]
            }
        },
        {
            "type": "Feature",
            "properties": {
                "ref:csioz": 1036871,
                "addr:street": "Usługowa",
                "addr:housenumber": "4",
                "addr:city": "Czernichów",
                "addr:postcode": "32-070",
                "amenity": "pharmacy"
            },
            "geometry": {
                "type": "Point",
                "coordinates": [
                    19.674779751210945,
                    49.98889667647534
                ]
            }
        },
        {
            "type": "Feature",
            "properties": {
                "ref:csioz": 1075373,
                "name": "Apteka W Przychodni",
                "addr:street": "Wiślana",
                "addr:housenumber": "2",
                "addr:city": "Czernichów",
                "addr:postcode": "32-070",
                "amenity": "pharmacy"
            },
            "geometry": {
                "type": "Point",
                "coordinates": [
                    19.674677470716546,
                    49.98664812053861
                ]
            }
        },
        {
            "type": "Feature",
            "properties": {
                "ref:csioz": 1076699,
                "name": "Twoja Apteka",
                "addr:street": "Gminna",
                "addr:housenumber": "2",
                "addr:city": "Czernichów",
                "addr:postcode": "32-070",
                "amenity": "pharmacy"
            },
            "geometry": {
                "type": "Point",
                "coordinates": [
                    19.67645418524946,
                    49.989167947112506
                ]
            }
        },
        {
            "type": "Feature",
            "properties": {
                "ref:csioz": 1176338,
                "addr:housenumber": "102",
                "addr:city": "Wielkie Drogi",
                "addr:postcode": "32-051",
                "amenity": "pharmacy"
            },
            "geometry": {
                "type": "Point",
                "coordinates": [
                    19.68600505049741,
                    49.96025522396926
                ]
            }
        },
        {
            "type": "Feature",
            "properties": {
                "ref:csioz": 1204191,
                "addr:housenumber": "384",
                "addr:city": "Kamień",
                "addr:postcode": "32-071",
                "amenity": "pharmacy"
            },
            "geometry": {
                "type": "Point",
                "coordinates": [
                    19.58602878184998,
                    50.01324835401764
                ]
            }
        },
        {
            "type": "Feature",
            "properties": {
                "ref:csioz": 1223823,
                "addr:housenumber": "259",
                "addr:city": "Zelczyna",
                "addr:postcode": "32-051",
                "amenity": "pharmacy"
            },
            "geometry": {
                "type": "Point",
                "coordinates": [
                    19.734440388797257,
                    49.95867608950937
                ]
            }
        },
        {
            "type": "Feature",
            "properties": {
                "ref:csioz": 1037064,
                "name": "Apteka Magdalena Jarosz",
                "addr:street": "Apteczna",
                "addr:housenumber": "8",
                "addr:city": "Dojazdów",
                "addr:postcode": "32-010",
                "amenity": "pharmacy"
            },
            "geometry": {
                "type": "Point",
                "coordinates": [
                    20.104404173731695,
                    50.128082875100205
                ]
            }
        },
        {
            "type": "Feature",
            "properties": {
                "ref:csioz": 1038322,
                "addr:housenumber": "88",
                "addr:city": "Luborzyca",
                "addr:postcode": "32-010",
                "amenity": "pharmacy"
            },
            "geometry": {
                "type": "Point",
                "coordinates": [
                    20.11211293662897,
                    50.134318049648456
                ]
            }
        },
        {
            "type": "Feature",
            "properties": {
                "ref:csioz": 1075062,
                "name": "Apteka Kocmyrzowska",
                "addr:street": "Plac Niepodległości",
                "addr:housenumber": "1",
                "addr:city": "Kocmyrzów",
                "addr:postcode": "32-010",
                "amenity": "pharmacy"
            },
            "geometry": {
                "type": "Point",
                "coordinates": [
                    20.113896949632792,
                    50.134833482328474
                ]
            }
        },
        {
            "type": "Feature",
            "properties": {
                "ref:csioz": 1077409,
                "addr:housenumber": "16",
                "addr:city": "Igołomia",
                "addr:postcode": "32-126",
                "amenity": "pharmacy"
            },
            "geometry": {
                "type": "Point",
                "coordinates": [
                    20.244508525711925,
                    50.090976125115816
                ]
            }
        },
        {
            "type": "Feature",
            "properties": {
                "ref:csioz": 1230331,
                "name": "Apteka Vita",
                "addr:housenumber": "18",
                "addr:city": "Wola Radziszowska",
                "addr:postcode": "32-053",
                "amenity": "pharmacy"
            },
            "geometry": {
                "type": "Point",
                "coordinates": [
                    19.786868573398163,
                    49.90808245187174
                ]
            }
        },
        {
            "type": "Feature",
            "properties": {
                "ref:csioz": 1038147,
                "name": "Apteka Zdrowie",
                "addr:street": "Krakowska",
                "addr:housenumber": "232",
                "addr:city": "Zabierzów",
                "addr:postcode": "32-080",
                "amenity": "pharmacy"
            },
            "geometry": {
                "type": "Point",
                "coordinates": [
                    19.814145309419274,
                    50.11058023969614
                ]
            }
        },
        {
            "type": "Feature",
            "properties": {
                "ref:csioz": 1042214,
                "name": "\"Apteka \"\"Na Widoku-Zielonki\"\"\"",
                "addr:street": "dr. Feliksa Grochowalskiego",
                "addr:housenumber": "6",
                "addr:city": "Zielonki",
                "addr:postcode": "32-087",
                "amenity": "pharmacy"
            },
            "geometry": {
                "type": "Point",
                "coordinates": [
                    19.922023970690734,
                    50.11834731115366
                ]
            }
        },
        {
            "type": "Feature",
            "properties": {
                "ref:csioz": 1076759,
                "name": "Apteka Kryspinów",
                "addr:housenumber": "97",
                "addr:city": "Kryspinów",
                "addr:postcode": "32-060",
                "amenity": "pharmacy"
            },
            "geometry": {
                "type": "Point",
                "coordinates": [
                    19.79242889802232,
                    50.04360278692446
                ]
            }
        },
        {
            "type": "Feature",
            "properties": {
                "ref:csioz": 1212042,
                "name": "Apteka Rząska",
                "addr:street": "Balicka",
                "addr:housenumber": "49A",
                "addr:city": "Rząska",
                "addr:postcode": "30-199",
                "amenity": "pharmacy"
            },
            "geometry": {
                "type": "Point",
                "coordinates": [
                    19.83014306912672,
                    50.091021594725696
                ]
            }
        },
        {
            "type": "Feature",
            "properties": {
                "ref:csioz": 1042099,
                "name": "\"Apteka Pod Złotym Tygrysem - Zych I Wspólnicy Sp. J,\"",
                "addr:street": "Wiarusa",
                "addr:housenumber": "23",
                "addr:city": "Zielonki",
                "addr:postcode": "32-087",
                "amenity": "pharmacy"
            },
            "geometry": {
                "type": "Point",
                "coordinates": [
                    19.91513225356489,
                    50.101525039623255
                ]
            }
        },
        {
            "type": "Feature",
            "properties": {
                "ref:csioz": 1042150,
                "name": "Twoja Apteka",
                "addr:housenumber": "469",
                "addr:city": "Liszki",
                "addr:postcode": "32-060",
                "amenity": "pharmacy"
            },
            "geometry": {
                "type": "Point",
                "coordinates": [
                    19.783819119982827,
                    50.04145661987724
                ]
            }
        },
        {
            "type": "Feature",
            "properties": {
                "ref:csioz": 1056169,
                "name": "Aptekaeskulap.Pl",
                "addr:street": "Leśna",
                "addr:housenumber": "2A",
                "addr:flats": "5 i 6",
                "addr:city": "Zabierzów",
                "addr:postcode": "32-080",
                "amenity": "pharmacy"
            },
            "geometry": {
                "type": "Point",
                "coordinates": [
                    19.79699185608523,
                    50.11271863934885
                ]
            }
        },
        {
            "type": "Feature",
            "properties": {
                "ref:csioz": 1074858,
                "addr:street": "Kolejowa",
                "addr:housenumber": "8",
                "addr:city": "Zabierzów",
                "addr:postcode": "32-080",
                "amenity": "pharmacy"
            },
            "geometry": {
                "type": "Point",
                "coordinates": [
                    19.79922573716808,
                    50.11511299879021
                ]
            }
        },
        {
            "type": "Feature",
            "properties": {
                "ref:csioz": 1075008,
                "addr:street": "Krakowskie Przedmieście",
                "addr:housenumber": "87",
                "addr:city": "Zielonki",
                "addr:postcode": "32-087",
                "amenity": "pharmacy"
            },
            "geometry": {
                "type": "Point",
                "coordinates": [
                    19.92134195182397,
                    50.11818877664725
                ]
            }
        },
        {
            "type": "Feature",
            "properties": {
                "ref:csioz": 1076829,
                "name": "Super-Pharm Apteka",
                "addr:street": "prof. Adama Rożańskiego",
                "addr:housenumber": "32",
                "addr:flats": "M3",
                "addr:city": "Modlniczka",
                "addr:postcode": "32-085",
                "amenity": "pharmacy"
            },
            "geometry": {
                "type": "Point",
                "coordinates": [
                    19.84680153041144,
                    50.109390304245395
                ]
            }
        },
        {
            "type": "Feature",
            "properties": {
                "ref:csioz": 1113202,
                "addr:street": "Jurajska",
                "addr:housenumber": "23A",
                "addr:city": "Ujazd",
                "addr:postcode": "32-080",
                "amenity": "pharmacy"
            },
            "geometry": {
                "type": "Point",
                "coordinates": [
                    19.820112000000243,
                    50.135721000012694
                ]
            }
        },
        {
            "type": "Feature",
            "properties": {
                "ref:csioz": 1114248,
                "name": "Apteka Prywatna S.C",
                "addr:street": "Jana Matejki",
                "addr:housenumber": "1A",
                "addr:city": "Boleń",
                "addr:postcode": "32-087",
                "amenity": "pharmacy"
            },
            "geometry": {
                "type": "Point",
                "coordinates": [
                    19.96874089579716,
                    50.135833109949964
                ]
            }
        },
        {
            "type": "Feature",
            "properties": {
                "ref:csioz": 1199673,
                "name": "Apteka Vita",
                "addr:street": "Jurajska",
                "addr:housenumber": "5",
                "addr:city": "Modlnica",
                "addr:postcode": "32-085",
                "amenity": "pharmacy"
            },
            "geometry": {
                "type": "Point",
                "coordinates": [
                    19.871406427995815,
                    50.129083662536864
                ]
            }
        },
        {
            "type": "Feature",
            "properties": {
                "ref:csioz": 1206617,
                "name": "Ziko Apteka",
                "addr:street": "Stary Trakt",
                "addr:housenumber": "2A",
                "addr:flats": "0.8",
                "addr:city": "Węgrzce",
                "addr:postcode": "32-086",
                "amenity": "pharmacy"
            },
            "geometry": {
                "type": "Point",
                "coordinates": [
                    19.96826300000032,
                    50.116091000012666
                ]
            }
        },
        {
            "type": "Feature",
            "properties": {
                "ref:csioz": 1208701,
                "name": "Apteka Szyce",
                "addr:street": "Plac Wspólnoty",
                "addr:housenumber": "1",
                "addr:city": "Szyce",
                "addr:postcode": "32-085",
                "amenity": "pharmacy"
            },
            "geometry": {
                "type": "Point",
                "coordinates": [
                    19.862699879560736,
                    50.14035052037373
                ]
            }
        },
        {
            "type": "Feature",
            "properties": {
                "ref:csioz": 1209998,
                "name": "Apteka Zdrowie",
                "addr:housenumber": "463",
                "addr:city": "Kryspinów",
                "addr:postcode": "32-060",
                "amenity": "pharmacy"
            },
            "geometry": {
                "type": "Point",
                "coordinates": [
                    19.791326459838096,
                    50.04279088602372
                ]
            }
        },
        {
            "type": "Feature",
            "properties": {
                "ref:csioz": 1220845,
                "name": "Twoja Apteka",
                "addr:housenumber": "207",
                "addr:city": "Liszki",
                "addr:postcode": "32-060",
                "amenity": "pharmacy"
            },
            "geometry": {
                "type": "Point",
                "coordinates": [
                    19.76771727356103,
                    50.03820412775941
                ]
            }
        },
        {
            "type": "Feature",
            "properties": {
                "ref:csioz": 1227255,
                "addr:street": "Krakowska",
                "addr:housenumber": "317",
                "addr:city": "Zabierzów",
                "addr:postcode": "32-080",
                "amenity": "pharmacy"
            },
            "geometry": {
                "type": "Point",
                "coordinates": [
                    19.833085987780866,
                    50.10902429783664
                ]
            }
        },
        {
            "type": "Feature",
            "properties": {
                "ref:csioz": 1230328,
                "name": "Apteka Jurajska",
                "addr:street": "Zielona",
                "addr:housenumber": "1A",
                "addr:city": "Bolechowice",
                "addr:postcode": "32-082",
                "amenity": "pharmacy"
            },
            "geometry": {
                "type": "Point",
                "coordinates": [
                    19.80658001683701,
                    50.12668514285789
                ]
            }
        },
        {
            "type": "Feature",
            "properties": {
                "ref:csioz": 1212247,
                "name": "\"Zakład Opiekuńczo-Leczniczy \"\"Pasternik\"\" \"",
                "addr:street": "Krakowskie Przedmieście",
                "addr:housenumber": "28",
                "addr:city": "Modlniczka",
                "addr:postcode": "32-085",
                "amenity": "pharmacy"
            },
            "geometry": {
                "type": "Point",
                "coordinates": [
                    19.83459721562855,
                    50.109558210724295
                ]
            }
        },
        {
            "type": "Feature",
            "properties": {
                "ref:csioz": 1075253,
                "name": "Apteka Bliska Tobie",
                "addr:housenumber": "10B",
                "addr:city": "Wawrzeńczyce",
                "addr:postcode": "32-125",
                "amenity": "pharmacy"
            },
            "geometry": {
                "type": "Point",
                "coordinates": [
                    20.294164978717433,
                    50.10670766752358
                ]
            }
        },
        {
            "type": "Feature",
            "properties": {
                "ref:csioz": 1037250,
                "addr:street": "św. Jana Pawła II",
                "addr:housenumber": "1",
                "addr:city": "Słomniki",
                "addr:postcode": "32-090",
                "amenity": "pharmacy"
            },
            "geometry": {
                "type": "Point",
                "coordinates": [
                    20.084899000000405,
                    50.24540100001286
                ]
            }
        },
        {
            "type": "Feature",
            "properties": {
                "ref:csioz": 1038160,
                "addr:street": "Krakowska",
                "addr:housenumber": "209",
                "addr:city": "Michałowice",
                "addr:postcode": "32-091",
                "amenity": "pharmacy"
            },
            "geometry": {
                "type": "Point",
                "coordinates": [
                    19.978720493949083,
                    50.160269049272614
                ]
            }
        },
        {
            "type": "Feature",
            "properties": {
                "ref:csioz": 1042479,
                "addr:street": "Kwiatowa",
                "addr:housenumber": "5",
                "addr:city": "Bębło",
                "addr:postcode": "32-089",
                "amenity": "pharmacy"
            },
            "geometry": {
                "type": "Point",
                "coordinates": [
                    19.795813343031597,
                    50.18697460320298
                ]
            }
        },
        {
            "type": "Feature",
            "properties": {
                "ref:csioz": 1075176,
                "name": "Na Rynku",
                "addr:street": "Rynek",
                "addr:housenumber": "33",
                "addr:city": "Słomniki",
                "addr:postcode": "32-090",
                "amenity": "pharmacy"
            },
            "geometry": {
                "type": "Point",
                "coordinates": [
                    20.081286865285072,
                    50.241127419933484
                ]
            }
        },
        {
            "type": "Feature",
            "properties": {
                "ref:csioz": 1077423,
                "addr:street": "Rynek",
                "addr:housenumber": "8",
                "addr:city": "Skała",
                "addr:postcode": "32-043",
                "amenity": "pharmacy"
            },
            "geometry": {
                "type": "Point",
                "coordinates": [
                    19.853640640139098,
                    50.23015200171965
                ]
            }
        },
        {
            "type": "Feature",
            "properties": {
                "ref:csioz": 1210270,
                "name": "Pszczółka",
                "addr:street": "Krakowska",
                "addr:housenumber": "37",
                "addr:city": "Brzozówka",
                "addr:postcode": "32-088",
                "amenity": "pharmacy"
            },
            "geometry": {
                "type": "Point",
                "coordinates": [
                    19.897795835062936,
                    50.17200266062393
                ]
            }
        },
        {
            "type": "Feature",
            "properties": {
                "ref:csioz": 1227356,
                "name": "Zakład Opiekuńczo-Leczniczy",
                "addr:street": "Kwitnąca",
                "addr:housenumber": "3",
                "addr:city": "Zagórzyce Dworskie",
                "addr:postcode": "32-091",
                "amenity": "pharmacy"
            },
            "geometry": {
                "type": "Point",
                "coordinates": [
                    20.036933553337303,
                    50.17676741833698
                ]
            }
        },
        {
            "type": "Feature",
            "properties": {
                "ref:csioz": 1038297,
                "name": "Twoja Apteka",
                "addr:street": "Tadeusza Kościuszki",
                "addr:housenumber": "58",
                "addr:city": "Słomniki",
                "addr:postcode": "32-090",
                "amenity": "pharmacy"
            },
            "geometry": {
                "type": "Point",
                "coordinates": [
                    20.08382890998001,
                    50.24519586606212
                ]
            }
        },
        {
            "type": "Feature",
            "properties": {
                "ref:csioz": 1038311,
                "name": "Twoja Apteka",
                "addr:street": "Polna",
                "addr:housenumber": "2B",
                "addr:city": "Skała",
                "addr:postcode": "32-043",
                "amenity": "pharmacy"
            },
            "geometry": {
                "type": "Point",
                "coordinates": [
                    19.860572000000268,
                    50.231421000012816
                ]
            }
        },
        {
            "type": "Feature",
            "properties": {
                "ref:csioz": 1042142,
                "name": "Apteka Dbam O Zdrowie",
                "addr:street": "Tadeusza Kościuszki",
                "addr:housenumber": "13",
                "addr:city": "Słomniki",
                "addr:postcode": "32-090",
                "amenity": "pharmacy"
            },
            "geometry": {
                "type": "Point",
                "coordinates": [
                    20.082202138337646,
                    50.24184823508129
                ]
            }
        },
        {
            "type": "Feature",
            "properties": {
                "ref:csioz": 1077199,
                "addr:street": "Polna",
                "addr:housenumber": "17",
                "addr:city": "Skała",
                "addr:postcode": "32-043",
                "amenity": "pharmacy"
            },
            "geometry": {
                "type": "Point",
                "coordinates": [
                    19.859512861070144,
                    50.23202652932222
                ]
            }
        },
        {
            "type": "Feature",
            "properties": {
                "ref:csioz": 1042246,
                "name": "Apteka Monika Prus - Niewiadomska I Wspólnik Sp. J.",
                "addr:housenumber": "99",
                "addr:city": "Iwanowice Włościańskie",
                "addr:postcode": "32-095",
                "amenity": "pharmacy"
            },
            "geometry": {
                "type": "Point",
                "coordinates": [
                    19.96203614780248,
                    50.22541854121001
                ]
            }
        },
        {
            "type": "Feature",
            "properties": {
                "ref:csioz": 1195205,
                "name": "Twoja Apteka",
                "addr:housenumber": "68B",
                "addr:city": "Iwanowice Dworskie",
                "addr:postcode": "32-095",
                "amenity": "pharmacy"
            },
            "geometry": {
                "type": "Point",
                "coordinates": [
                    19.97847300000034,
                    50.21768000001282
                ]
            }
        },
        {
            "type": "Feature",
            "properties": {
                "ref:csioz": 1075043,
                "name": "Amica",
                "addr:street": "Krakowska",
                "addr:housenumber": "154",
                "addr:city": "Michałowice",
                "addr:postcode": "32-091",
                "amenity": "pharmacy"
            },
            "geometry": {
                "type": "Point",
                "coordinates": [
                    19.981926172944384,
                    50.158006431635414
                ]
            }
        },
        {
            "type": "Feature",
            "properties": {
                "ref:csioz": 1034800,
                "name": "Panaceum",
                "addr:street": "Aleksandra Głowackiego",
                "addr:housenumber": "7",
                "addr:city": "Skawina",
                "addr:postcode": "32-050",
                "amenity": "pharmacy"
            },
            "geometry": {
                "type": "Point",
                "coordinates": [
                    19.825995625914015,
                    49.967813628143915
                ]
            }
        },
        {
            "type": "Feature",
            "properties": {
                "ref:csioz": 1056525,
                "addr:street": "Niepodległości",
                "addr:housenumber": "10",
                "addr:city": "Skawina",
                "addr:postcode": "32-050",
                "amenity": "pharmacy"
            },
            "geometry": {
                "type": "Point",
                "coordinates": [
                    19.820800072572858,
                    49.97551437239665
                ]
            }
        },
        {
            "type": "Feature",
            "properties": {
                "ref:csioz": 1074504,
                "name": "Apteka Słoneczna",
                "addr:street": "Ogrody",
                "addr:housenumber": "1B",
                "addr:city": "Skawina",
                "addr:postcode": "32-050",
                "amenity": "pharmacy"
            },
            "geometry": {
                "type": "Point",
                "coordinates": [
                    19.83018089072771,
                    49.97210284917342
                ]
            }
        },
        {
            "type": "Feature",
            "properties": {
                "ref:csioz": 1074786,
                "name": "Pod Gwiazdą",
                "addr:street": "Juliusza Słowackiego",
                "addr:housenumber": "5",
                "addr:city": "Skawina",
                "addr:postcode": "32-050",
                "amenity": "pharmacy"
            },
            "geometry": {
                "type": "Point",
                "coordinates": [
                    19.828056043203876,
                    49.97481761377665
                ]
            }
        },
        {
            "type": "Feature",
            "properties": {
                "ref:csioz": 1076375,
                "name": "\"Apteka Prywatna \"\"Pharmacia\"\" S.C.\"",
                "addr:street": "Kazimierza Bruchnalskiego",
                "addr:housenumber": "33A",
                "addr:city": "Świątniki Górne",
                "addr:postcode": "32-040",
                "amenity": "pharmacy"
            },
            "geometry": {
                "type": "Point",
                "coordinates": [
                    19.945869059129286,
                    49.93410482609594
                ]
            }
        },
        {
            "type": "Feature",
            "properties": {
                "ref:csioz": 1196268,
                "name": "Apteka „Magda”. Świątniki Górne",
                "addr:street": "Franciszka Bielowicza",
                "addr:housenumber": "52",
                "addr:city": "Świątniki Górne",
                "addr:postcode": "32-040",
                "amenity": "pharmacy"
            },
            "geometry": {
                "type": "Point",
                "coordinates": [
                    19.968226116875385,
                    49.93368344271636
                ]
            }
        },
        {
            "type": "Feature",
            "properties": {
                "ref:csioz": 1196891,
                "name": "Apteka Niezapominajka Dla Całej Rodziny",
                "addr:street": "ks. Jerzego Popiełuszki",
                "addr:housenumber": "7",
                "addr:city": "Skawina",
                "addr:postcode": "32-050",
                "amenity": "pharmacy"
            },
            "geometry": {
                "type": "Point",
                "coordinates": [
                    19.82997836445291,
                    49.97289463254934
                ]
            }
        },
        {
            "type": "Feature",
            "properties": {
                "ref:csioz": 1202846,
                "name": "Apteka Nowa Farmacja",
                "addr:street": "Rynek",
                "addr:housenumber": "2A",
                "addr:city": "Mogilany",
                "addr:postcode": "32-031",
                "amenity": "pharmacy"
            },
            "geometry": {
                "type": "Point",
                "coordinates": [
                    19.885155477448226,
                    49.942880688637
                ]
            }
        },
        {
            "type": "Feature",
            "properties": {
                "ref:csioz": 1042085,
                "name": "Apteka Niebieska 24H",
                "addr:street": "Rynek",
                "addr:housenumber": "15",
                "addr:city": "Skawina",
                "addr:postcode": "32-050",
                "amenity": "pharmacy"
            },
            "geometry": {
                "type": "Point",
                "coordinates": [
                    19.82725389303402,
                    49.975258395085746
                ]
            }
        },
        {
            "type": "Feature",
            "properties": {
                "ref:csioz": 1075100,
                "addr:street": "Szkolna",
                "addr:housenumber": "15",
                "addr:city": "Radziszów",
                "addr:postcode": "32-052",
                "amenity": "pharmacy"
            },
            "geometry": {
                "type": "Point",
                "coordinates": [
                    19.815156403313008,
                    49.93907474480289
                ]
            }
        },
        {
            "type": "Feature",
            "properties": {
                "ref:csioz": 1077157,
                "name": "Euro Plus",
                "addr:street": "ks. Jerzego Popiełuszki",
                "addr:housenumber": "13",
                "addr:city": "Skawina",
                "addr:postcode": "32-050",
                "amenity": "pharmacy"
            },
            "geometry": {
                "type": "Point",
                "coordinates": [
                    19.82991907703391,
                    49.97237634876887
                ]
            }
        },
        {
            "type": "Feature",
            "properties": {
                "ref:csioz": 1120443,
                "name": "Apteka W Rynku",
                "addr:street": "Żwirki i Wigury",
                "addr:housenumber": "1",
                "addr:city": "Skawina",
                "addr:postcode": "32-050",
                "amenity": "pharmacy"
            },
            "geometry": {
                "type": "Point",
                "coordinates": [
                    19.825666778193785,
                    49.97460126231428
                ]
            }
        },
        {
            "type": "Feature",
            "properties": {
                "ref:csioz": 1171143,
                "name": "Apteka Vita",
                "addr:street": "Brzegi",
                "addr:housenumber": "6",
                "addr:city": "Radziszów",
                "addr:postcode": "32-052",
                "amenity": "pharmacy"
            },
            "geometry": {
                "type": "Point",
                "coordinates": [
                    19.807983153541365,
                    49.9410600915504
                ]
            }
        },
        {
            "type": "Feature",
            "properties": {
                "ref:csioz": 1173997,
                "addr:street": "29 Listopada",
                "addr:housenumber": "5E",
                "addr:city": "Skawina",
                "addr:postcode": "32-050",
                "amenity": "pharmacy"
            },
            "geometry": {
                "type": "Point",
                "coordinates": [
                    19.82815703609161,
                    49.97321894089722
                ]
            }
        },
        {
            "type": "Feature",
            "properties": {
                "ref:csioz": 1183284,
                "name": "Apteka Niezapominajka Dla Całej Rodziny",
                "addr:street": "Krakowska",
                "addr:housenumber": "19 A",
                "addr:city": "Skawina",
                "addr:postcode": "32-050",
                "amenity": "pharmacy"
            },
            "geometry": {
                "type": "Point",
                "coordinates": [
                    19.832842209548733,
                    49.97735877451149
                ]
            }
        },
        {
            "type": "Feature",
            "properties": {
                "ref:csioz": 1193703,
                "name": "\"Szpital Wielospecjalistyczny Im.Stanley Dudrick'A\"",
                "addr:street": "Tyniecka",
                "addr:housenumber": "15",
                "addr:city": "Skawina",
                "addr:postcode": "32-050",
                "amenity": "pharmacy"
            },
            "geometry": {
                "type": "Point",
                "coordinates": [
                    19.81950920297635,
                    49.97799138372691
                ]
            }
        },
        {
            "type": "Feature",
            "properties": {
                "ref:csioz": 1202986,
                "name": "Apteka Vita",
                "addr:street": "Rynek",
                "addr:housenumber": "4a",
                "addr:city": "Mogilany",
                "addr:postcode": "32-031",
                "amenity": "pharmacy"
            },
            "geometry": {
                "type": "Point",
                "coordinates": [
                    19.884432347874448,
                    49.942666550728745
                ]
            }
        },
        {
            "type": "Feature",
            "properties": {
                "ref:csioz": 1207843,
                "name": "Hygieia",
                "addr:street": "Radziszowska",
                "addr:housenumber": "7",
                "addr:city": "Skawina",
                "addr:postcode": "32-050",
                "amenity": "pharmacy"
            },
            "geometry": {
                "type": "Point",
                "coordinates": [
                    19.81747598161109,
                    49.96303221584297
                ]
            }
        },
        {
            "type": "Feature",
            "properties": {
                "ref:csioz": 1222909,
                "name": "Hygieia",
                "addr:street": "Adama Mickiewicza",
                "addr:housenumber": "19e",
                "addr:city": "Skawina",
                "addr:postcode": "32-050",
                "amenity": "pharmacy"
            },
            "geometry": {
                "type": "Point",
                "coordinates": [
                    19.81860867319045,
                    49.975761203892404
                ]
            }
        },
        {
            "type": "Feature",
            "properties": {
                "ref:csioz": 1223929,
                "name": "Apteka Libertowska",
                "addr:street": "Jana Pawła II",
                "addr:housenumber": "31",
                "addr:city": "Libertów",
                "addr:postcode": "30-444",
                "amenity": "pharmacy"
            },
            "geometry": {
                "type": "Point",
                "coordinates": [
                    19.90341468911916,
                    49.97268351407605
                ]
            }
        },
        {
            "type": "Feature",
            "properties": {
                "ref:csioz": 1228312,
                "name": "Apteka Vita",
                "addr:street": "Korabnicka",
                "addr:housenumber": "7A",
                "addr:city": "Skawina",
                "addr:postcode": "32-050",
                "amenity": "pharmacy"
            },
            "geometry": {
                "type": "Point",
                "coordinates": [
                    19.833297494236202,
                    49.974975991589815
                ]
            }
        }
    ]
}