{
    "type": "FeatureCollection",
    "name": "JPT_KOD_JE_2413",
    "features": [
        {
            "type": "Feature",
            "properties": {
                "ref:csioz": 1063376,
                "name": "Apteka Vita",
                "addr:street": "1 Maja",
                "addr:housenumber": "1",
                "addr:city": "Kalety",
                "addr:postcode": "42-660",
                "amenity": "pharmacy"
            },
            "geometry": {
                "type": "Point",
                "coordinates": [
                    18.88803903372071,
                    50.5638978066291
                ]
            }
        },
        {
            "type": "Feature",
            "properties": {
                "ref:csioz": 1063384,
                "name": "Rodzinna",
                "addr:street": "Księdza Rogowskiego",
                "addr:housenumber": "6 A",
                "addr:city": "Kalety",
                "addr:postcode": "42-660",
                "amenity": "pharmacy"
            },
            "geometry": {
                "type": "Point",
                "coordinates": [
                    18.878608831562133,
                    50.55902332550627
                ]
            }
        },
        {
            "type": "Feature",
            "properties": {
                "ref:csioz": 1067465,
                "name": "Fizjo",
                "addr:street": "MĘCZENNIKÓW OŚWIĘCIMIA",
                "addr:housenumber": "25",
                "addr:city": "RADZIONKÓW",
                "addr:postcode": "41-922",
                "amenity": "pharmacy"
            },
            "geometry": {
                "type": "Point",
                "coordinates": [
                    18.901412229803693,
                    50.39771752732155
                ]
            }
        },
        {
            "type": "Feature",
            "properties": {
                "ref:csioz": 1067487,
                "name": "Pod Mandragorą",
                "addr:street": "Szymały",
                "addr:housenumber": "5A",
                "addr:city": "Radzionków",
                "addr:postcode": "41-922",
                "amenity": "pharmacy"
            },
            "geometry": {
                "type": "Point",
                "coordinates": [
                    18.901496457118764,
                    50.399241616031276
                ]
            }
        },
        {
            "type": "Feature",
            "properties": {
                "ref:csioz": 1067498,
                "name": "Laury",
                "addr:street": "ŚW. WOJCIECHA",
                "addr:housenumber": "21",
                "addr:city": "RADZIONKÓW",
                "addr:postcode": "41-922",
                "amenity": "pharmacy"
            },
            "geometry": {
                "type": "Point",
                "coordinates": [
                    18.905019688067334,
                    50.401901931306746
                ]
            }
        },
        {
            "type": "Feature",
            "properties": {
                "ref:csioz": 1070238,
                "name": "Brak Nazwy",
                "addr:street": "Zwycięstwa",
                "addr:housenumber": "17",
                "addr:city": "Tąpkowice",
                "addr:postcode": "41-962",
                "amenity": "pharmacy"
            },
            "geometry": {
                "type": "Point",
                "coordinates": [
                    19.012249000000004,
                    50.447865000013145
                ]
            }
        },
        {
            "type": "Feature",
            "properties": {
                "ref:csioz": 1073217,
                "name": "Dr. Max",
                "addr:street": "WOLNOŚCI",
                "addr:housenumber": "90",
                "addr:city": "PYRZOWICE",
                "addr:postcode": "41-960",
                "amenity": "pharmacy"
            },
            "geometry": {
                "type": "Point",
                "coordinates": [
                    19.074048270678976,
                    50.46941363758655
                ]
            }
        },
        {
            "type": "Feature",
            "properties": {
                "ref:csioz": 1073510,
                "name": "Brak Nazwy",
                "addr:street": "ZAMKOWA",
                "addr:housenumber": "47",
                "addr:city": "TWORÓG",
                "addr:postcode": "42-690",
                "amenity": "pharmacy"
            },
            "geometry": {
                "type": "Point",
                "coordinates": [
                    18.721778825248276,
                    50.53229085554434
                ]
            }
        },
        {
            "type": "Feature",
            "properties": {
                "ref:csioz": 1073884,
                "name": "Nzoz Szpital Im. Dr B. Hagera W Tarnowskich Górach - Stacjonarne I Całodobowe Świadczenia Szpitalne",
                "addr:street": "PYSKOWICKA",
                "addr:housenumber": "47-51",
                "addr:city": "TARNOWSKIE GÓRY",
                "addr:postcode": "42-612",
                "amenity": "pharmacy"
            },
            "geometry": {
                "type": "Point",
                "coordinates": [
                    18.807379773076683,
                    50.439932426011346
                ]
            }
        },
        {
            "type": "Feature",
            "properties": {
                "ref:csioz": 1179120,
                "name": "Zakład Pulmonologii - Oddział Pulmonologii",
                "addr:street": "Lipowa",
                "addr:housenumber": "3",
                "addr:city": "Tarnowskie Góry",
                "addr:postcode": "42-600",
                "amenity": "pharmacy"
            },
            "geometry": {
                "type": "Point",
                "coordinates": [
                    18.857343643900933,
                    50.43939140922499
                ]
            }
        },
        {
            "type": "Feature",
            "properties": {
                "ref:csioz": 1181936,
                "name": "Apteka Kinga",
                "addr:street": "Jana Kużaja",
                "addr:housenumber": "57",
                "addr:city": "Radzionków",
                "addr:postcode": "41-922",
                "amenity": "pharmacy"
            },
            "geometry": {
                "type": "Point",
                "coordinates": [
                    18.900103332591325,
                    50.3854397923968
                ]
            }
        },
        {
            "type": "Feature",
            "properties": {
                "ref:csioz": 1065634,
                "name": "Apteka Moje Zdrowie",
                "addr:street": "CYNKOWA",
                "addr:housenumber": "6",
                "addr:city": "MIASTECZKO ŚLĄSKIE",
                "addr:postcode": "42-610",
                "amenity": "pharmacy"
            },
            "geometry": {
                "type": "Point",
                "coordinates": [
                    18.92401387488889,
                    50.496243299643076
                ]
            }
        },
        {
            "type": "Feature",
            "properties": {
                "ref:csioz": 1070127,
                "name": "Apteka Radosna",
                "addr:street": "Rynek",
                "addr:housenumber": "13",
                "addr:city": "Tarnowskie Góry",
                "addr:postcode": "42-600",
                "amenity": "pharmacy"
            },
            "geometry": {
                "type": "Point",
                "coordinates": [
                    18.855195554281114,
                    50.444949227412344
                ]
            }
        },
        {
            "type": "Feature",
            "properties": {
                "ref:csioz": 1070134,
                "name": "Pod Aniołem",
                "addr:street": "Rynek",
                "addr:housenumber": "5",
                "addr:city": "Tarnowskie Góry",
                "addr:postcode": "42-600",
                "amenity": "pharmacy"
            },
            "geometry": {
                "type": "Point",
                "coordinates": [
                    18.8560772121239,
                    50.444150570761884
                ]
            }
        },
        {
            "type": "Feature",
            "properties": {
                "ref:csioz": 1070191,
                "name": "Apteka Dbam O Zdrowie",
                "addr:street": "Zagórska",
                "addr:housenumber": "220",
                "addr:city": "Tarnowskie Góry",
                "addr:postcode": "42-600",
                "amenity": "pharmacy"
            },
            "geometry": {
                "type": "Point",
                "coordinates": [
                    18.8323730845309,
                    50.45502656514184
                ]
            }
        },
        {
            "type": "Feature",
            "properties": {
                "ref:csioz": 1070223,
                "name": "Apteka Radosna",
                "addr:street": "Zamkowa",
                "addr:housenumber": "4",
                "addr:city": "Tarnowskie Góry",
                "addr:postcode": "42-600",
                "amenity": "pharmacy"
            },
            "geometry": {
                "type": "Point",
                "coordinates": [
                    18.854774067600182,
                    50.44374322916563
                ]
            }
        },
        {
            "type": "Feature",
            "properties": {
                "ref:csioz": 1074390,
                "name": "S.P.Z.O.Z. Repty Górnośląskie Centrum Rehabilitacji Im. Gen. J. Ziętka",
                "addr:street": "ŚNIADECKIEGO",
                "addr:housenumber": "1",
                "addr:city": "TARNOWSKIE GÓRY",
                "addr:postcode": "42-604",
                "amenity": "pharmacy"
            },
            "geometry": {
                "type": "Point",
                "coordinates": [
                    18.80637784966001,
                    50.43076816016459
                ]
            }
        },
        {
            "type": "Feature",
            "properties": {
                "ref:csioz": 1170577,
                "name": "Apteka Radosna",
                "addr:street": "Krakowska",
                "addr:housenumber": "16",
                "addr:city": "Tarnowskie Góry",
                "addr:postcode": "42-600",
                "amenity": "pharmacy"
            },
            "geometry": {
                "type": "Point",
                "coordinates": [
                    18.859163506940554,
                    50.44421974814753
                ]
            }
        },
        {
            "type": "Feature",
            "properties": {
                "ref:csioz": 1178808,
                "name": "Sąsiedzka",
                "addr:street": "Główna",
                "addr:housenumber": "43",
                "addr:city": "Świerklaniec",
                "addr:postcode": "42-622",
                "amenity": "pharmacy"
            },
            "geometry": {
                "type": "Point",
                "coordinates": [
                    18.93529625525466,
                    50.4405141190761
                ]
            }
        },
        {
            "type": "Feature",
            "properties": {
                "ref:csioz": 1181822,
                "name": "Apteka Leśna",
                "addr:street": "Leśna",
                "addr:housenumber": "23",
                "addr:city": "Tarnowskie Góry",
                "addr:postcode": "42-600",
                "amenity": "pharmacy"
            },
            "geometry": {
                "type": "Point",
                "coordinates": [
                    18.88427015508795,
                    50.45062788004206
                ]
            }
        },
        {
            "type": "Feature",
            "properties": {
                "ref:csioz": 1220736,
                "name": "Doz Apteka Dbam O Zdrowie",
                "addr:street": "Szymały",
                "addr:housenumber": "1a",
                "addr:city": "Radzionków",
                "addr:postcode": "41-922",
                "amenity": "pharmacy"
            },
            "geometry": {
                "type": "Point",
                "coordinates": [
                    18.902056632601063,
                    50.39978979161789
                ]
            }
        },
        {
            "type": "Feature",
            "properties": {
                "ref:csioz": 1229334,
                "addr:street": "Polna",
                "addr:housenumber": "2",
                "addr:city": "Kamieniec",
                "addr:postcode": "42-674",
                "amenity": "pharmacy"
            },
            "geometry": {
                "type": "Point",
                "coordinates": [
                    18.712115375009002,
                    50.40348265732507
                ]
            }
        },
        {
            "type": "Feature",
            "properties": {
                "ref:csioz": 1066262,
                "name": "Maria Victoria",
                "addr:street": "GŁÓWNA",
                "addr:housenumber": "91",
                "addr:city": "NAKŁO ŚLĄSKIE",
                "addr:postcode": "42-620",
                "amenity": "pharmacy"
            },
            "geometry": {
                "type": "Point",
                "coordinates": [
                    18.907747342593048,
                    50.43726652637464
                ]
            }
        },
        {
            "type": "Feature",
            "properties": {
                "ref:csioz": 1070004,
                "name": "Pod Mandragorą",
                "addr:street": "Armii Krajowej",
                "addr:housenumber": "1",
                "addr:city": "Tarnowskie Góry",
                "addr:postcode": "42-609",
                "amenity": "pharmacy"
            },
            "geometry": {
                "type": "Point",
                "coordinates": [
                    18.80201819084585,
                    50.47942910769526
                ]
            }
        },
        {
            "type": "Feature",
            "properties": {
                "ref:csioz": 1070020,
                "name": "Euro Apteka",
                "addr:street": "Tadeusza Kościuszki",
                "addr:housenumber": "5",
                "addr:city": "Tarnowskie Góry",
                "addr:postcode": "42-600",
                "amenity": "pharmacy"
            },
            "geometry": {
                "type": "Point",
                "coordinates": [
                    18.859472999999966,
                    50.449610000013145
                ]
            }
        },
        {
            "type": "Feature",
            "properties": {
                "ref:csioz": 1070061,
                "name": "Św. Mikołaja",
                "addr:street": "Stefana Okrzei",
                "addr:housenumber": "21",
                "addr:city": "Tarnowskie Góry",
                "addr:postcode": "42-600",
                "amenity": "pharmacy"
            },
            "geometry": {
                "type": "Point",
                "coordinates": [
                    18.85437590436107,
                    50.451378139585046
                ]
            }
        },
        {
            "type": "Feature",
            "properties": {
                "ref:csioz": 1070085,
                "name": "Dr. Max",
                "addr:street": "Marszałka Józefa Piłsudskiego",
                "addr:housenumber": "18",
                "addr:city": "Tarnowskie Góry",
                "addr:postcode": "42-600",
                "amenity": "pharmacy"
            },
            "geometry": {
                "type": "Point",
                "coordinates": [
                    18.86227499999997,
                    50.446847000013136
                ]
            }
        },
        {
            "type": "Feature",
            "properties": {
                "ref:csioz": 1070103,
                "name": "Brak Nazwy",
                "addr:street": "Poczdamska",
                "addr:housenumber": "7",
                "addr:city": "Tarnowskie Góry",
                "addr:postcode": "42-612",
                "amenity": "pharmacy"
            },
            "geometry": {
                "type": "Point",
                "coordinates": [
                    18.82385679445626,
                    50.44438433099918
                ]
            }
        },
        {
            "type": "Feature",
            "properties": {
                "ref:csioz": 1070142,
                "name": "Apteka Zdrowit",
                "addr:street": "Henryka Sienkiewicza",
                "addr:housenumber": "1",
                "addr:city": "Tarnowskie Góry",
                "addr:postcode": "42-600",
                "amenity": "pharmacy"
            },
            "geometry": {
                "type": "Point",
                "coordinates": [
                    18.861605658817577,
                    50.44604991777627
                ]
            }
        },
        {
            "type": "Feature",
            "properties": {
                "ref:csioz": 1070169,
                "name": "Św. Kamila",
                "addr:street": "Słoneczników",
                "addr:housenumber": "44",
                "addr:city": "Tarnowskie Góry",
                "addr:postcode": "42-606",
                "amenity": "pharmacy"
            },
            "geometry": {
                "type": "Point",
                "coordinates": [
                    18.868368180598544,
                    50.43382125561046
                ]
            }
        },
        {
            "type": "Feature",
            "properties": {
                "ref:csioz": 1070175,
                "name": "Avicenna",
                "addr:street": "Szwedzka",
                "addr:housenumber": "2",
                "addr:city": "Tarnowskie Góry",
                "addr:postcode": "42-612",
                "amenity": "pharmacy"
            },
            "geometry": {
                "type": "Point",
                "coordinates": [
                    18.828338797794807,
                    50.445997456528765
                ]
            }
        },
        {
            "type": "Feature",
            "properties": {
                "ref:csioz": 1070188,
                "name": "Apteka Lekosfera Dga20",
                "addr:street": "Zagórska",
                "addr:housenumber": "189",
                "addr:city": "Tarnowskie Góry",
                "addr:postcode": "42-680",
                "amenity": "pharmacy"
            },
            "geometry": {
                "type": "Point",
                "coordinates": [
                    18.83833784846564,
                    50.45464608591205
                ]
            }
        },
        {
            "type": "Feature",
            "properties": {
                "ref:csioz": 1116180,
                "name": "Apteka Zdrowit",
                "addr:street": "Fińska",
                "addr:housenumber": "53",
                "addr:city": "Tarnowskie Góry",
                "addr:postcode": "42-600",
                "amenity": "pharmacy"
            },
            "geometry": {
                "type": "Point",
                "coordinates": [
                    18.828930120771926,
                    50.4431955388403
                ]
            }
        },
        {
            "type": "Feature",
            "properties": {
                "ref:csioz": 1170491,
                "name": "Apteka Zdrowit",
                "addr:street": "Opolska",
                "addr:housenumber": "21",
                "addr:city": "Tarnowskie Góry",
                "addr:postcode": "42-600",
                "amenity": "pharmacy"
            },
            "geometry": {
                "type": "Point",
                "coordinates": [
                    18.8510645682624,
                    50.44704144650495
                ]
            }
        },
        {
            "type": "Feature",
            "properties": {
                "ref:csioz": 1172304,
                "name": "Apteka Gemini",
                "addr:street": "Wincentego Janasa",
                "addr:housenumber": "9A",
                "addr:city": "Tarnowskie Góry",
                "addr:postcode": "42-612",
                "amenity": "pharmacy"
            },
            "geometry": {
                "type": "Point",
                "coordinates": [
                    18.818654706460386,
                    50.44162730021852
                ]
            }
        },
        {
            "type": "Feature",
            "properties": {
                "ref:csioz": 1195504,
                "name": "Apteka Słoneczna",
                "addr:street": "Krakowska",
                "addr:housenumber": "10",
                "addr:city": "Tarnowskie Góry",
                "addr:postcode": "42-600",
                "amenity": "pharmacy"
            },
            "geometry": {
                "type": "Point",
                "coordinates": [
                    18.85822627119799,
                    50.444257473136766
                ]
            }
        },
        {
            "type": "Feature",
            "properties": {
                "ref:csioz": 1213724,
                "name": "Apteka Centrum",
                "addr:street": "ul. Adama Mickiewicza",
                "addr:housenumber": "8",
                "addr:city": "Tarnowskie Góry",
                "addr:postcode": "42-600",
                "amenity": "pharmacy"
            },
            "geometry": {
                "type": "Point",
                "coordinates": [
                    18.856037550814737,
                    50.44863299057009
                ]
            }
        },
        {
            "type": "Feature",
            "properties": {
                "ref:csioz": 1210689,
                "name": "Szpital Św. Kamila",
                "addr:street": "Bytomska",
                "addr:housenumber": "22",
                "addr:city": "Tarnowskie Góry",
                "addr:postcode": "42-606",
                "amenity": "pharmacy"
            },
            "geometry": {
                "type": "Point",
                "coordinates": [
                    18.86306288956957,
                    50.4382112476636
                ]
            }
        },
        {
            "type": "Feature",
            "properties": {
                "ref:csioz": 1212965,
                "name": "Hygieia",
                "addr:street": "ul. Unii Europejskiej",
                "addr:housenumber": "1",
                "addr:flats": "3b.2",
                "addr:city": "Radzionków",
                "addr:postcode": "41-922",
                "amenity": "pharmacy"
            },
            "geometry": {
                "type": "Point",
                "coordinates": [
                    18.895252999999972,
                    50.395959000013065
                ]
            }
        },
        {
            "type": "Feature",
            "properties": {
                "ref:csioz": 1224086,
                "addr:street": "Gajdasa",
                "addr:housenumber": "1b",
                "addr:city": "Radzionków",
                "addr:postcode": "41-922",
                "amenity": "pharmacy"
            },
            "geometry": {
                "type": "Point",
                "coordinates": [
                    18.89632099999998,
                    50.39830100001307
                ]
            }
        },
        {
            "type": "Feature",
            "properties": {
                "ref:csioz": 1065650,
                "name": "Apteka Codzienna",
                "addr:street": "Rynek",
                "addr:housenumber": "18",
                "addr:city": "Miasteczko Śląskie",
                "addr:postcode": "42-610",
                "amenity": "pharmacy"
            },
            "geometry": {
                "type": "Point",
                "coordinates": [
                    18.92315617247821,
                    50.49253314748168
                ]
            }
        },
        {
            "type": "Feature",
            "properties": {
                "ref:csioz": 1063431,
                "name": "Brak Nazwy",
                "addr:street": "Tarnogórska",
                "addr:housenumber": "79",
                "addr:city": "Kamieniec",
                "addr:postcode": "42-674",
                "amenity": "pharmacy"
            },
            "geometry": {
                "type": "Point",
                "coordinates": [
                    18.723526911450232,
                    50.40400582681451
                ]
            }
        },
        {
            "type": "Feature",
            "properties": {
                "ref:csioz": 1070853,
                "name": "Apteka Sąsiedzka",
                "addr:street": "Bytomska",
                "addr:housenumber": "113",
                "addr:city": "Wieszowa",
                "addr:postcode": "42-672",
                "amenity": "pharmacy"
            },
            "geometry": {
                "type": "Point",
                "coordinates": [
                    18.764423072599858,
                    50.382538872095346
                ]
            }
        },
        {
            "type": "Feature",
            "properties": {
                "ref:csioz": 1172982,
                "name": "Margofarm",
                "addr:street": "Mikulczycka",
                "addr:housenumber": "9",
                "addr:city": "Ziemięcice",
                "addr:postcode": "42-675",
                "amenity": "pharmacy"
            },
            "geometry": {
                "type": "Point",
                "coordinates": [
                    18.709278829424093,
                    50.36814798101683
                ]
            }
        },
        {
            "type": "Feature",
            "properties": {
                "ref:csioz": 1065132,
                "name": "Apteka Młyńska",
                "addr:street": "Główna",
                "addr:housenumber": "5",
                "addr:city": "Krupski Młyn",
                "addr:postcode": "42-693",
                "amenity": "pharmacy"
            },
            "geometry": {
                "type": "Point",
                "coordinates": [
                    18.61799959826043,
                    50.56995367240473
                ]
            }
        },
        {
            "type": "Feature",
            "properties": {
                "ref:csioz": 1070272,
                "name": "Mariańska",
                "addr:street": "Zamkowa",
                "addr:housenumber": "13",
                "addr:city": "Tworóg",
                "addr:postcode": "42-690",
                "amenity": "pharmacy"
            },
            "geometry": {
                "type": "Point",
                "coordinates": [
                    18.717993565754732,
                    50.53177571886193
                ]
            }
        },
        {
            "type": "Feature",
            "properties": {
                "ref:csioz": 1173009,
                "name": "Zbrosławice",
                "addr:street": "Wolności",
                "addr:housenumber": "103",
                "addr:city": "Zbrosławice",
                "addr:postcode": "42-672",
                "amenity": "pharmacy"
            },
            "geometry": {
                "type": "Point",
                "coordinates": [
                    18.753886420806346,
                    50.41602386990302
                ]
            }
        },
        {
            "type": "Feature",
            "properties": {
                "ref:csioz": 1195830,
                "name": "Margofarm",
                "addr:street": "Wolności",
                "addr:housenumber": "100A",
                "addr:city": "Zbrosławice",
                "addr:postcode": "42-674",
                "amenity": "pharmacy"
            },
            "geometry": {
                "type": "Point",
                "coordinates": [
                    18.755368438811832,
                    50.41552447736335
                ]
            }
        },
        {
            "type": "Feature",
            "properties": {
                "ref:csioz": 1203434,
                "name": "Pod Mandragorą",
                "addr:street": "Zagórska",
                "addr:housenumber": "83",
                "addr:city": "Tarnowskie Góry",
                "addr:postcode": "42-680",
                "amenity": "pharmacy"
            },
            "geometry": {
                "type": "Point",
                "coordinates": [
                    18.798078662132575,
                    50.47541633378804
                ]
            }
        }
    ]
}