{
    "type": "FeatureCollection",
    "name": "JPT_KOD_JE_3008",
    "crs": {
        "type": "name",
        "properties": {
            "name": "urn:ogc:def:crs:EPSG::4326"
        }
    },
    "features": [
        {
            "type": "Feature",
            "properties": {
                "ref:csioz": 1053923,
                "addr:housenumber": "90",
                "addr:city": "PERZÓW",
                "addr:postcode": "63-642",
                "amenity": "pharmacy"
            },
            "geometry": {
                "type": "Point",
                "coordinates": [
                    17.810878457570922,
                    51.27604433678936
                ]
            }
        },
        {
            "type": "Feature",
            "properties": {
                "ref:csioz": 1051874,
                "name": "Na Zdrowie",
                "addr:street": "WARSZAWSKA",
                "addr:housenumber": "30",
                "addr:city": "KĘPNO",
                "addr:postcode": "63-600",
                "amenity": "pharmacy"
            },
            "geometry": {
                "type": "Point",
                "coordinates": [
                    17.989542942979487,
                    51.281163535468885
                ]
            }
        },
        {
            "type": "Feature",
            "properties": {
                "ref:csioz": 1052841,
                "name": "Dr. Max",
                "addr:street": "RYNEK",
                "addr:housenumber": "37",
                "addr:city": "KĘPNO",
                "addr:postcode": "63-600",
                "amenity": "pharmacy"
            },
            "geometry": {
                "type": "Point",
                "coordinates": [
                    17.98637756540476,
                    51.27934465555872
                ]
            }
        },
        {
            "type": "Feature",
            "properties": {
                "ref:csioz": 1053285,
                "name": "Pod Słońcem",
                "addr:street": "WROCŁAWSKA",
                "addr:housenumber": "48",
                "addr:city": "BRALIN",
                "addr:postcode": "63-640",
                "amenity": "pharmacy"
            },
            "geometry": {
                "type": "Point",
                "coordinates": [
                    17.903105736619352,
                    51.28569094339525
                ]
            }
        },
        {
            "type": "Feature",
            "properties": {
                "ref:csioz": 1053616,
                "name": "Nowa",
                "addr:street": "KS. WAWRZYNIAKA",
                "addr:housenumber": "38",
                "addr:city": "KĘPNO",
                "addr:postcode": "63-600",
                "amenity": "pharmacy"
            },
            "geometry": {
                "type": "Point",
                "coordinates": [
                    17.982247993470246,
                    51.278192068630986
                ]
            }
        },
        {
            "type": "Feature",
            "properties": {
                "ref:csioz": 1053642,
                "name": "Doz Apteka. Dbam O Zdrowie. Centrum",
                "addr:street": "BRONIEWSKIEGO",
                "addr:housenumber": "2A",
                "addr:city": "KĘPNO",
                "addr:postcode": "63-600",
                "amenity": "pharmacy"
            },
            "geometry": {
                "type": "Point",
                "coordinates": [
                    17.9854944936198,
                    51.28165964325707
                ]
            }
        },
        {
            "type": "Feature",
            "properties": {
                "ref:csioz": 1053843,
                "addr:street": "SŁONECZNA",
                "addr:housenumber": "4",
                "addr:city": "ŁĘKA OPATOWSKA",
                "addr:postcode": "63-645",
                "amenity": "pharmacy"
            },
            "geometry": {
                "type": "Point",
                "coordinates": [
                    18.102950331445932,
                    51.213679042399235
                ]
            }
        },
        {
            "type": "Feature",
            "properties": {
                "ref:csioz": 1053909,
                "addr:housenumber": "98",
                "addr:city": "MYJOMICE",
                "addr:postcode": "63-600",
                "amenity": "pharmacy"
            },
            "geometry": {
                "type": "Point",
                "coordinates": [
                    18.02435218797141,
                    51.325366731944555
                ]
            }
        },
        {
            "type": "Feature",
            "properties": {
                "ref:csioz": 1118618,
                "name": "Na Zdrowie",
                "addr:street": "RYNEK",
                "addr:housenumber": "41",
                "addr:city": "KĘPNO",
                "addr:postcode": "63-600",
                "amenity": "pharmacy"
            },
            "geometry": {
                "type": "Point",
                "coordinates": [
                    17.986116572283855,
                    51.27885750459465
                ]
            }
        },
        {
            "type": "Feature",
            "properties": {
                "ref:csioz": 1191103,
                "addr:street": "Kępińska",
                "addr:housenumber": "16A",
                "addr:city": "Laski",
                "addr:postcode": "63-620",
                "amenity": "pharmacy"
            },
            "geometry": {
                "type": "Point",
                "coordinates": [
                    18.02478849272651,
                    51.192161953848206
                ]
            }
        },
        {
            "type": "Feature",
            "properties": {
                "ref:csioz": 1052316,
                "name": "Aspirynka",
                "addr:housenumber": "145",
                "addr:city": "MROCZEŃ",
                "addr:postcode": "63-611",
                "amenity": "pharmacy"
            },
            "geometry": {
                "type": "Point",
                "coordinates": [
                    17.987049060679315,
                    51.22537917997225
                ]
            }
        },
        {
            "type": "Feature",
            "properties": {
                "ref:csioz": 1051987,
                "name": "Św. Idziego",
                "addr:housenumber": "55A",
                "addr:city": "MIKORZYN",
                "addr:postcode": "63-600",
                "amenity": "pharmacy"
            },
            "geometry": {
                "type": "Point",
                "coordinates": [
                    18.02889716754654,
                    51.36415254203085
                ]
            }
        },
        {
            "type": "Feature",
            "properties": {
                "ref:csioz": 1052539,
                "name": "Remedium",
                "addr:street": "SZKOLNA",
                "addr:housenumber": "4",
                "addr:city": "TRZCINICA",
                "addr:postcode": "63-620",
                "amenity": "pharmacy"
            },
            "geometry": {
                "type": "Point",
                "coordinates": [
                    18.00012909672831,
                    51.16490482994087
                ]
            }
        },
        {
            "type": "Feature",
            "properties": {
                "ref:csioz": 1052673,
                "addr:street": "RYNEK",
                "addr:housenumber": "7",
                "addr:city": "RYCHTAL",
                "addr:postcode": "63-630",
                "amenity": "pharmacy"
            },
            "geometry": {
                "type": "Point",
                "coordinates": [
                    17.847970597373944,
                    51.14534456009737
                ]
            }
        },
        {
            "type": "Feature",
            "properties": {
                "ref:csioz": 1052919,
                "name": "Na Kopie",
                "addr:street": "KOPA",
                "addr:housenumber": "1",
                "addr:city": "KĘPNO",
                "addr:postcode": "63-600",
                "amenity": "pharmacy"
            },
            "geometry": {
                "type": "Point",
                "coordinates": [
                    17.976344704585582,
                    51.27741074119291
                ]
            }
        },
        {
            "type": "Feature",
            "properties": {
                "ref:csioz": 1052924,
                "name": "Pod Kasztanami",
                "addr:street": "SIENKIEWICZA",
                "addr:housenumber": "48",
                "addr:city": "KĘPNO",
                "addr:postcode": "63-600",
                "amenity": "pharmacy"
            },
            "geometry": {
                "type": "Point",
                "coordinates": [
                    17.98642013725128,
                    51.27332960410871
                ]
            }
        },
        {
            "type": "Feature",
            "properties": {
                "ref:csioz": 1053164,
                "name": "Apteki Burchacińscy",
                "addr:street": "WARSZAWSKA",
                "addr:housenumber": "44",
                "addr:city": "KĘPNO",
                "addr:postcode": "63-600",
                "amenity": "pharmacy"
            },
            "geometry": {
                "type": "Point",
                "coordinates": [
                    17.991164302138035,
                    51.282022561411786
                ]
            }
        },
        {
            "type": "Feature",
            "properties": {
                "ref:csioz": 1053325,
                "name": "Św. Maksymiliana",
                "addr:street": "SOLIDARNOŚCI",
                "addr:housenumber": "18",
                "addr:city": "KĘPNO",
                "addr:postcode": "63-600",
                "amenity": "pharmacy"
            },
            "geometry": {
                "type": "Point",
                "coordinates": [
                    17.99341183880573,
                    51.28685013805491
                ]
            }
        },
        {
            "type": "Feature",
            "properties": {
                "ref:csioz": 1053790,
                "addr:street": "SZEROKA",
                "addr:housenumber": "29A",
                "addr:city": "SŁUPIA POD KĘPNEM",
                "addr:postcode": "63-604",
                "amenity": "pharmacy"
            },
            "geometry": {
                "type": "Point",
                "coordinates": [
                    18.044423823011773,
                    51.245369121931354
                ]
            }
        },
        {
            "type": "Feature",
            "properties": {
                "ref:csioz": 1120793,
                "name": "Św. Marcina",
                "addr:street": "WIOSNY LUDÓW",
                "addr:housenumber": "14",
                "addr:city": "KĘPNO",
                "addr:postcode": "63-600",
                "amenity": "pharmacy"
            },
            "geometry": {
                "type": "Point",
                "coordinates": [
                    17.9861459117758,
                    51.272924889526365
                ]
            }
        },
        {
            "type": "Feature",
            "properties": {
                "ref:csioz": 1174872,
                "name": "Prima",
                "addr:street": "Wrocławska",
                "addr:housenumber": "2",
                "addr:city": "Kępno",
                "addr:postcode": "63-600",
                "amenity": "pharmacy"
            },
            "geometry": {
                "type": "Point",
                "coordinates": [
                    17.980294673308347,
                    51.280396630365225
                ]
            }
        },
        {
            "type": "Feature",
            "properties": {
                "ref:csioz": 1197037,
                "addr:street": "Szpitalna",
                "addr:housenumber": "7",
                "addr:city": "Kępno",
                "addr:postcode": "63-600",
                "amenity": "pharmacy"
            },
            "geometry": {
                "type": "Point",
                "coordinates": [
                    17.98385203854009,
                    51.27680297366627
                ]
            }
        },
        {
            "type": "Feature",
            "properties": {
                "ref:csioz": 1206162,
                "name": "Pod Kasztanami",
                "addr:street": "Jana Pawła II",
                "addr:housenumber": "4E",
                "addr:city": "Baranów",
                "addr:postcode": "63-604",
                "amenity": "pharmacy"
            },
            "geometry": {
                "type": "Point",
                "coordinates": [
                    18.01353587224014,
                    51.28023272430847
                ]
            }
        },
        {
            "type": "Feature",
            "properties": {
                "ref:csioz": 1210322,
                "name": "Na Zdrowie",
                "addr:street": "Poznańska",
                "addr:housenumber": "59",
                "addr:city": "Opatów",
                "addr:postcode": "63-645",
                "amenity": "pharmacy"
            },
            "geometry": {
                "type": "Point",
                "coordinates": [
                    18.143330099579043,
                    51.221340397596045
                ]
            }
        },
        {
            "type": "Feature",
            "properties": {
                "ref:csioz": 1222129,
                "name": "Apteka Przy Szpitalu",
                "addr:street": "ks. Piotra Wawrzyniaka",
                "addr:housenumber": "48A",
                "addr:city": "Kępno",
                "addr:postcode": "63-600",
                "amenity": "pharmacy"
            },
            "geometry": {
                "type": "Point",
                "coordinates": [
                    17.98165679387683,
                    51.27762912783634
                ]
            }
        }
    ]
}