{
    "type": "FeatureCollection",
    "name": "JPT_KOD_JE_0803",
    "features": [
        {
            "type": "Feature",
            "properties": {
                "ref:csioz": 1204582,
                "name": "Antidotum",
                "addr:street": "Kościuszki",
                "addr:housenumber": "1",
                "addr:city": "Trzciel",
                "addr:postcode": "66-320",
                "amenity": "pharmacy"
            },
            "geometry": {
                "type": "Point",
                "coordinates": [
                    15.873584555929881,
                    52.36680561409196
                ]
            }
        },
        {
            "type": "Feature",
            "properties": {
                "ref:csioz": 1139464,
                "name": "Aronia",
                "addr:street": "Zjednoczenia Narodowego",
                "addr:housenumber": "19",
                "addr:city": "Trzciel",
                "addr:postcode": "66-320",
                "amenity": "pharmacy"
            },
            "geometry": {
                "type": "Point",
                "coordinates": [
                    15.873744807126897,
                    52.36548848820719
                ]
            }
        },
        {
            "type": "Feature",
            "properties": {
                "ref:csioz": 1139081,
                "name": "Dbam O Zdrowie",
                "addr:street": "Konstytucji 3 Maja",
                "addr:housenumber": "7",
                "addr:city": "Międzyrzecz",
                "addr:postcode": "66-300",
                "amenity": "pharmacy"
            },
            "geometry": {
                "type": "Point",
                "coordinates": [
                    15.582550427087162,
                    52.4419369395007
                ]
            }
        },
        {
            "type": "Feature",
            "properties": {
                "ref:csioz": 1139097,
                "name": "Grodzka",
                "addr:street": "Zachodnia",
                "addr:housenumber": "8A",
                "addr:city": "Międzyrzecz",
                "addr:postcode": "66-300",
                "amenity": "pharmacy"
            },
            "geometry": {
                "type": "Point",
                "coordinates": [
                    15.56897799723368,
                    52.442935595152356
                ]
            }
        },
        {
            "type": "Feature",
            "properties": {
                "ref:csioz": 1139113,
                "name": "Apteka Dbam O Zdrowie",
                "addr:street": "Konstytucji 3 Maja",
                "addr:housenumber": "2",
                "addr:city": "Międzyrzecz",
                "addr:postcode": "66-300",
                "amenity": "pharmacy"
            },
            "geometry": {
                "type": "Point",
                "coordinates": [
                    15.577564999968455,
                    52.44186700001659
                ]
            }
        },
        {
            "type": "Feature",
            "properties": {
                "ref:csioz": 1150631,
                "name": "Punkt Apteczny Dbam O Zdrowie",
                "addr:street": "Plac Wiosny Ludów",
                "addr:housenumber": "27",
                "addr:city": "Brójce",
                "addr:postcode": "66-304",
                "amenity": "pharmacy"
            },
            "geometry": {
                "type": "Point",
                "coordinates": [
                    15.672271379382707,
                    52.31249842430091
                ]
            }
        },
        {
            "type": "Feature",
            "properties": {
                "ref:csioz": 1171359,
                "addr:street": "Konstytucji 3 Maja",
                "addr:housenumber": "35",
                "addr:city": "Międzyrzecz",
                "addr:postcode": "66-300",
                "amenity": "pharmacy"
            },
            "geometry": {
                "type": "Point",
                "coordinates": [
                    15.58417769868738,
                    52.440359489144306
                ]
            }
        },
        {
            "type": "Feature",
            "properties": {
                "ref:csioz": 1177600,
                "name": "Punkt Apteczny Zdrowie",
                "addr:street": "Rynek",
                "addr:housenumber": "4",
                "addr:city": "Pszczew",
                "addr:postcode": "66-330",
                "amenity": "pharmacy"
            },
            "geometry": {
                "type": "Point",
                "coordinates": [
                    15.779033620569882,
                    52.4749632297022
                ]
            }
        },
        {
            "type": "Feature",
            "properties": {
                "ref:csioz": 1223171,
                "name": "Apteka Pszczewska",
                "addr:street": "Plac Zamielno",
                "addr:housenumber": "4",
                "addr:city": "Pszczew",
                "addr:postcode": "66-330",
                "amenity": "pharmacy"
            },
            "geometry": {
                "type": "Point",
                "coordinates": [
                    15.773896659864983,
                    52.47962665778342
                ]
            }
        },
        {
            "type": "Feature",
            "properties": {
                "ref:csioz": 1139024,
                "name": "Apteka Medyk",
                "addr:street": "Bolesława Chrobrego",
                "addr:housenumber": "23",
                "addr:city": "Międzyrzecz",
                "addr:postcode": "66-300",
                "amenity": "pharmacy"
            },
            "geometry": {
                "type": "Point",
                "coordinates": [
                    15.583738999968762,
                    52.44874300001661
                ]
            }
        },
        {
            "type": "Feature",
            "properties": {
                "ref:csioz": 1139035,
                "name": "Aspirynka",
                "addr:street": "Centrum",
                "addr:housenumber": "3",
                "addr:city": "Międzyrzecz",
                "addr:postcode": "66-300",
                "amenity": "pharmacy"
            },
            "geometry": {
                "type": "Point",
                "coordinates": [
                    15.582537130971156,
                    52.44333552596383
                ]
            }
        },
        {
            "type": "Feature",
            "properties": {
                "ref:csioz": 1139043,
                "addr:street": "30 Stycznia",
                "addr:housenumber": "51",
                "addr:city": "Międzyrzecz",
                "addr:postcode": "66-300",
                "amenity": "pharmacy"
            },
            "geometry": {
                "type": "Point",
                "coordinates": [
                    15.585451069830569,
                    52.44396670878991
                ]
            }
        },
        {
            "type": "Feature",
            "properties": {
                "ref:csioz": 1139056,
                "name": "Apteka Arnika S.C.",
                "addr:street": "30 Stycznia",
                "addr:housenumber": "80",
                "addr:city": "Międzyrzecz",
                "addr:postcode": "66-300",
                "amenity": "pharmacy"
            },
            "geometry": {
                "type": "Point",
                "coordinates": [
                    15.591440598477082,
                    52.44418096528409
                ]
            }
        },
        {
            "type": "Feature",
            "properties": {
                "ref:csioz": 1139159,
                "addr:street": "Główna",
                "addr:housenumber": "1A",
                "addr:city": "Przytoczna",
                "addr:postcode": "66-340",
                "amenity": "pharmacy"
            },
            "geometry": {
                "type": "Point",
                "coordinates": [
                    15.673860445028605,
                    52.576507818444526
                ]
            }
        },
        {
            "type": "Feature",
            "properties": {
                "ref:csioz": 1139215,
                "addr:street": "Rynek",
                "addr:housenumber": "2",
                "addr:city": "Skwierzyna",
                "addr:postcode": "66-440",
                "amenity": "pharmacy"
            },
            "geometry": {
                "type": "Point",
                "coordinates": [
                    15.501212590390034,
                    52.599499392444564
                ]
            }
        },
        {
            "type": "Feature",
            "properties": {
                "ref:csioz": 1139228,
                "name": "Melisa",
                "addr:street": "Jana III Sobieskiego",
                "addr:housenumber": "17A",
                "addr:city": "Skwierzyna",
                "addr:postcode": "66-440",
                "amenity": "pharmacy"
            },
            "geometry": {
                "type": "Point",
                "coordinates": [
                    15.505534819314294,
                    52.593079485030714
                ]
            }
        },
        {
            "type": "Feature",
            "properties": {
                "ref:csioz": 1139231,
                "name": "Apteka Dbam O Zdrowie",
                "addr:street": "Niepodległości",
                "addr:housenumber": "1E",
                "addr:city": "Skwierzyna",
                "addr:postcode": "66-440",
                "amenity": "pharmacy"
            },
            "geometry": {
                "type": "Point",
                "coordinates": [
                    15.50277818317504,
                    52.600621202447805
                ]
            }
        },
        {
            "type": "Feature",
            "properties": {
                "ref:csioz": 1139244,
                "name": "Apteka Rodzinna",
                "addr:street": "2 Lutego",
                "addr:housenumber": "15A",
                "addr:city": "Skwierzyna",
                "addr:postcode": "66-440",
                "amenity": "pharmacy"
            },
            "geometry": {
                "type": "Point",
                "coordinates": [
                    15.493602999965272,
                    52.592857000016934
                ]
            }
        },
        {
            "type": "Feature",
            "properties": {
                "ref:csioz": 1139266,
                "name": "Topfarm",
                "addr:street": "Stefana Batorego",
                "addr:housenumber": "11A",
                "addr:city": "Skwierzyna",
                "addr:postcode": "66-440",
                "amenity": "pharmacy"
            },
            "geometry": {
                "type": "Point",
                "coordinates": [
                    15.50285431134826,
                    52.59694686811913
                ]
            }
        },
        {
            "type": "Feature",
            "properties": {
                "ref:csioz": 1150929,
                "addr:street": "Poznańska",
                "addr:housenumber": "109",
                "addr:city": "Międzyrzecz Obrzyce",
                "addr:postcode": "66-300",
                "amenity": "pharmacy"
            },
            "geometry": {
                "type": "Point",
                "coordinates": [
                    15.617777999970247,
                    52.448875000016564
                ]
            }
        },
        {
            "type": "Feature",
            "properties": {
                "ref:csioz": 1150932,
                "addr:street": "Szpitalna",
                "addr:housenumber": "5",
                "addr:city": "Skwierzyna",
                "addr:postcode": "66-440",
                "amenity": "pharmacy"
            },
            "geometry": {
                "type": "Point",
                "coordinates": [
                    15.506551491137282,
                    52.593960926910306
                ]
            }
        },
        {
            "type": "Feature",
            "properties": {
                "ref:csioz": 1216196,
                "name": "„Rodzinna”",
                "addr:street": "Kasztelańskie",
                "addr:housenumber": "3",
                "addr:city": "Międzyrzecz",
                "addr:postcode": "66-300",
                "amenity": "pharmacy"
            },
            "geometry": {
                "type": "Point",
                "coordinates": [
                    15.567193293309161,
                    52.443072780377584
                ]
            }
        },
        {
            "type": "Feature",
            "properties": {
                "ref:csioz": 1219650,
                "name": "\"Apteka \"\"Przy Szpitalu\"\"\"",
                "addr:street": "Marcinkowskiego",
                "addr:housenumber": "67",
                "addr:city": "Międzyrzecz",
                "addr:postcode": "66-300",
                "amenity": "pharmacy"
            },
            "geometry": {
                "type": "Point",
                "coordinates": [
                    15.58594439886306,
                    52.43996178627859
                ]
            }
        },
        {
            "type": "Feature",
            "properties": {
                "ref:csioz": 1181101,
                "name": "Topfarm",
                "addr:street": "Sportowa",
                "addr:housenumber": "1",
                "addr:city": "Bledzew",
                "addr:postcode": "66-350",
                "amenity": "pharmacy"
            },
            "geometry": {
                "type": "Point",
                "coordinates": [
                    15.415307211974113,
                    52.51757647554533
                ]
            }
        }
    ]
}