{
    "type": "FeatureCollection",
    "name": "JPT_KOD_JE_3012",
    "crs": {
        "type": "name",
        "properties": {
            "name": "urn:ogc:def:crs:EPSG::4326"
        }
    },
    "features": [
        {
            "type": "Feature",
            "properties": {
                "ref:csioz": 1052115,
                "name": "Na Zaciszu",
                "addr:street": "ZACISZE",
                "addr:housenumber": "14",
                "addr:city": "KROTOSZYN",
                "addr:postcode": "63-700",
                "amenity": "pharmacy"
            },
            "geometry": {
                "type": "Point",
                "coordinates": [
                    17.427372151437684,
                    51.69372285835377
                ]
            }
        },
        {
            "type": "Feature",
            "properties": {
                "ref:csioz": 1052449,
                "name": "Alfa",
                "addr:street": "BOLEWSKIEGO",
                "addr:housenumber": "8A",
                "addr:city": "KROTOSZYN",
                "addr:postcode": "63-700",
                "amenity": "pharmacy"
            },
            "geometry": {
                "type": "Point",
                "coordinates": [
                    17.438771155478186,
                    51.688467862769286
                ]
            }
        },
        {
            "type": "Feature",
            "properties": {
                "ref:csioz": 1052620,
                "name": "Łąkowa",
                "addr:street": "Staszica",
                "addr:housenumber": "26B",
                "addr:city": "KROTOSZYN",
                "addr:postcode": "63-700",
                "amenity": "pharmacy"
            },
            "geometry": {
                "type": "Point",
                "coordinates": [
                    17.431842418139556,
                    51.68795504729415
                ]
            }
        },
        {
            "type": "Feature",
            "properties": {
                "ref:csioz": 1052878,
                "name": "Pod Orłem",
                "addr:street": "WOLNOŚCI",
                "addr:housenumber": "7",
                "addr:city": "KOBYLIN",
                "addr:postcode": "63-740",
                "amenity": "pharmacy"
            },
            "geometry": {
                "type": "Point",
                "coordinates": [
                    17.22646976142778,
                    51.71448065797533
                ]
            }
        },
        {
            "type": "Feature",
            "properties": {
                "ref:csioz": 1053026,
                "name": "Esculap",
                "addr:street": "MICKIEWICZA",
                "addr:housenumber": "2A",
                "addr:city": "KROTOSZYN",
                "addr:postcode": "63-700",
                "amenity": "pharmacy"
            },
            "geometry": {
                "type": "Point",
                "coordinates": [
                    17.42818927659947,
                    51.69787020533122
                ]
            }
        },
        {
            "type": "Feature",
            "properties": {
                "ref:csioz": 1053236,
                "name": "Nasza Apteka",
                "addr:street": "RYNEK",
                "addr:housenumber": "23",
                "addr:city": "SULMIERZYCE",
                "addr:postcode": "63-750",
                "amenity": "pharmacy"
            },
            "geometry": {
                "type": "Point",
                "coordinates": [
                    17.527660529390513,
                    51.60673419558869
                ]
            }
        },
        {
            "type": "Feature",
            "properties": {
                "ref:csioz": 1053396,
                "name": "Parcelki",
                "addr:street": "GENERAŁA GRUDZIELSKIEGO",
                "addr:housenumber": "27",
                "addr:city": "KROTOSZYN",
                "addr:postcode": "63-700",
                "amenity": "pharmacy"
            },
            "geometry": {
                "type": "Point",
                "coordinates": [
                    17.41667799999878,
                    51.70708200001503
                ]
            }
        },
        {
            "type": "Feature",
            "properties": {
                "ref:csioz": 1053691,
                "name": "Nowa",
                "addr:street": "MICKIEWICZA",
                "addr:housenumber": "35",
                "addr:city": "KROTOSZYN",
                "addr:postcode": "63-700",
                "amenity": "pharmacy"
            },
            "geometry": {
                "type": "Point",
                "coordinates": [
                    17.43581942454802,
                    51.699830330619434
                ]
            }
        },
        {
            "type": "Feature",
            "properties": {
                "ref:csioz": 1222164,
                "name": "Medica",
                "addr:street": "Stawna",
                "addr:housenumber": "1",
                "addr:flats": "7",
                "addr:city": "Orpiszew",
                "addr:postcode": "63-714",
                "amenity": "pharmacy"
            },
            "geometry": {
                "type": "Point",
                "coordinates": [
                    17.606311353683907,
                    51.718526966147216
                ]
            }
        },
        {
            "type": "Feature",
            "properties": {
                "ref:csioz": 1051933,
                "name": "Stylowa",
                "addr:street": "RYNEK",
                "addr:housenumber": "26",
                "addr:city": "KROTOSZYN",
                "addr:postcode": "63-700",
                "amenity": "pharmacy"
            },
            "geometry": {
                "type": "Point",
                "coordinates": [
                    17.437913977596192,
                    51.69514992105672
                ]
            }
        },
        {
            "type": "Feature",
            "properties": {
                "ref:csioz": 1052166,
                "name": "Bona",
                "addr:street": "GRUNWALDZKA",
                "addr:housenumber": "5A",
                "addr:city": "KOBYLIN",
                "addr:postcode": "63-740",
                "amenity": "pharmacy"
            },
            "geometry": {
                "type": "Point",
                "coordinates": [
                    17.2231256362033,
                    51.71674601855058
                ]
            }
        },
        {
            "type": "Feature",
            "properties": {
                "ref:csioz": 1052334,
                "name": "Sulmierzycka",
                "addr:street": "KRÓTKA",
                "addr:housenumber": "1",
                "addr:city": "SULMIERZYCE",
                "addr:postcode": "63-750",
                "amenity": "pharmacy"
            },
            "geometry": {
                "type": "Point",
                "coordinates": [
                    17.539436697918017,
                    51.60541073314346
                ]
            }
        },
        {
            "type": "Feature",
            "properties": {
                "ref:csioz": 1052401,
                "name": "Pod Koroną",
                "addr:street": "MASŁOWSKIEGO",
                "addr:housenumber": "2A",
                "addr:city": "KROTOSZYN",
                "addr:postcode": "63-700",
                "amenity": "pharmacy"
            },
            "geometry": {
                "type": "Point",
                "coordinates": [
                    17.434501110468954,
                    51.70167562516434
                ]
            }
        },
        {
            "type": "Feature",
            "properties": {
                "ref:csioz": 1053715,
                "name": "Rodzinna",
                "addr:street": "TARTACZNA",
                "addr:housenumber": "7",
                "addr:city": "KROTOSZYN",
                "addr:postcode": "63-700",
                "amenity": "pharmacy"
            },
            "geometry": {
                "type": "Point",
                "coordinates": [
                    17.444719137976943,
                    51.70023995903024
                ]
            }
        },
        {
            "type": "Feature",
            "properties": {
                "ref:csioz": 1053753,
                "addr:street": "RYNEK",
                "addr:housenumber": "19",
                "addr:city": "ZDUNY",
                "addr:postcode": "63-760",
                "amenity": "pharmacy"
            },
            "geometry": {
                "type": "Point",
                "coordinates": [
                    17.378062938292903,
                    51.646069626622044
                ]
            }
        },
        {
            "type": "Feature",
            "properties": {
                "ref:csioz": 1123514,
                "name": "Na Zaciszu 2",
                "addr:street": "KOŹMIŃSKA",
                "addr:housenumber": "57",
                "addr:city": "KROTOSZYN",
                "addr:postcode": "63-700",
                "amenity": "pharmacy"
            },
            "geometry": {
                "type": "Point",
                "coordinates": [
                    17.438310842988788,
                    51.70348376542722
                ]
            }
        },
        {
            "type": "Feature",
            "properties": {
                "ref:csioz": 1176555,
                "name": "Nova 2",
                "addr:street": "Bolewskiego",
                "addr:housenumber": "2",
                "addr:flats": "1",
                "addr:city": "Krotoszyn",
                "addr:postcode": "63-700",
                "amenity": "pharmacy"
            },
            "geometry": {
                "type": "Point",
                "coordinates": [
                    17.438727514157737,
                    51.69007868852355
                ]
            }
        },
        {
            "type": "Feature",
            "properties": {
                "ref:csioz": 1197427,
                "name": "Lokalizacja: Pracownia Leków Cytostatycznych Krotoszyn Ul. Bolewskiego 4-8",
                "addr:street": "Mickiewicza",
                "addr:housenumber": "20",
                "addr:city": "Krotoszyn",
                "addr:postcode": "63-700",
                "amenity": "pharmacy"
            },
            "geometry": {
                "type": "Point",
                "coordinates": [
                    17.432535735236023,
                    51.69810265072543
                ]
            }
        },
        {
            "type": "Feature",
            "properties": {
                "ref:csioz": 1205225,
                "name": "Nova Słoneczna",
                "addr:street": "Kościuszki",
                "addr:housenumber": "3",
                "addr:city": "Krotoszyn",
                "addr:postcode": "63-700",
                "amenity": "pharmacy"
            },
            "geometry": {
                "type": "Point",
                "coordinates": [
                    17.438222458314204,
                    51.694026533246145
                ]
            }
        },
        {
            "type": "Feature",
            "properties": {
                "ref:csioz": 1205230,
                "name": "Centrum Zdrowia",
                "addr:street": "Mickiewicza",
                "addr:housenumber": "13",
                "addr:city": "Krotoszyn",
                "addr:postcode": "63-700",
                "amenity": "pharmacy"
            },
            "geometry": {
                "type": "Point",
                "coordinates": [
                    17.431334650522402,
                    51.6983021077512
                ]
            }
        },
        {
            "type": "Feature",
            "properties": {
                "ref:csioz": 1215749,
                "name": "Apteka Gemini",
                "addr:street": "Kaliska",
                "addr:housenumber": "2",
                "addr:city": "Krotoszyn",
                "addr:postcode": "63-700",
                "amenity": "pharmacy"
            },
            "geometry": {
                "type": "Point",
                "coordinates": [
                    17.438649755397883,
                    51.69571404934009
                ]
            }
        },
        {
            "type": "Feature",
            "properties": {
                "ref:csioz": 1027046,
                "name": "Klasztorna",
                "addr:street": "Klasztorna",
                "addr:housenumber": "13",
                "addr:city": "Koźmin Wielkopolski",
                "addr:postcode": "63-720",
                "amenity": "pharmacy"
            },
            "geometry": {
                "type": "Point",
                "coordinates": [
                    17.45410874904905,
                    51.827707110155636
                ]
            }
        },
        {
            "type": "Feature",
            "properties": {
                "ref:csioz": 1052636,
                "name": "Rynkowa",
                "addr:street": "Stary Rynek",
                "addr:housenumber": "1",
                "addr:city": "Koźmin Wielkopolski",
                "addr:postcode": "63-720",
                "amenity": "pharmacy"
            },
            "geometry": {
                "type": "Point",
                "coordinates": [
                    17.453147313969342,
                    51.82591610618669
                ]
            }
        },
        {
            "type": "Feature",
            "properties": {
                "ref:csioz": 1053248,
                "name": "Prima",
                "addr:street": "KROTOSZYŃSKA",
                "addr:housenumber": "9B",
                "addr:city": "ROZDRAŻEW",
                "addr:postcode": "63-708",
                "amenity": "pharmacy"
            },
            "geometry": {
                "type": "Point",
                "coordinates": [
                    17.505276316070866,
                    51.779442384218534
                ]
            }
        },
        {
            "type": "Feature",
            "properties": {
                "ref:csioz": 1052298,
                "name": "Esculap",
                "addr:housenumber": "17",
                "addr:city": "Koźmin Wielkopolski",
                "addr:postcode": "63-720",
                "amenity": "pharmacy"
            },
            "geometry": {
                "type": "Point",
                "coordinates": [
                    17.454135490154556,
                    51.82800260004381
                ]
            }
        },
        {
            "type": "Feature",
            "properties": {
                "ref:csioz": 1052375,
                "name": "Zamkowa",
                "addr:street": "Krotoszyńska",
                "addr:housenumber": "6",
                "addr:city": "Koźmin Wielkopolski",
                "addr:postcode": "63-720",
                "amenity": "pharmacy"
            },
            "geometry": {
                "type": "Point",
                "coordinates": [
                    17.45407388881418,
                    51.82698637391889
                ]
            }
        },
        {
            "type": "Feature",
            "properties": {
                "ref:csioz": 1178627,
                "name": "Nova",
                "addr:street": "Mikołaja Kopernika",
                "addr:housenumber": "14",
                "addr:city": "Koźmin Wielkopolski",
                "addr:postcode": "63-720",
                "amenity": "pharmacy"
            },
            "geometry": {
                "type": "Point",
                "coordinates": [
                    17.450490495301533,
                    51.832202886350146
                ]
            }
        },
        {
            "type": "Feature",
            "properties": {
                "ref:csioz": 1222702,
                "name": "Medica",
                "addr:street": "Koźmińska",
                "addr:housenumber": "10",
                "addr:city": "Rozdrażew",
                "addr:postcode": "63-708",
                "amenity": "pharmacy"
            },
            "geometry": {
                "type": "Point",
                "coordinates": [
                    17.503130012121908,
                    51.782704753086655
                ]
            }
        }
    ]
}