{
    "type": "FeatureCollection",
    "name": "JPT_KOD_JE_2611",
    "crs": {
        "type": "name",
        "properties": {
            "name": "urn:ogc:def:crs:EPSG::4326"
        }
    },
    "features": [
        {
            "type": "Feature",
            "properties": {
                "ref:csioz": 1000089,
                "addr:housenumber": "57",
                "addr:city": "Pawłów",
                "addr:postcode": "27-225",
                "amenity": "pharmacy"
            },
            "geometry": {
                "type": "Point",
                "coordinates": [
                    21.119505308169106,
                    50.96102201882751
                ]
            }
        },
        {
            "type": "Feature",
            "properties": {
                "ref:csioz": 1004682,
                "name": "Wiktoria",
                "addr:housenumber": "42",
                "addr:city": "Chybice",
                "addr:postcode": "27-225",
                "amenity": "pharmacy"
            },
            "geometry": {
                "type": "Point",
                "coordinates": [
                    21.10416907994136,
                    50.926102189499346
                ]
            }
        },
        {
            "type": "Feature",
            "properties": {
                "ref:csioz": 1211217,
                "name": "Rodzinny Punkt Apteczny",
                "addr:street": "ul. Nadrzeczna",
                "addr:housenumber": "1",
                "addr:city": "Styków",
                "addr:postcode": "27-230",
                "amenity": "pharmacy"
            },
            "geometry": {
                "type": "Point",
                "coordinates": [
                    21.148140000004098,
                    51.005611000013964
                ]
            }
        },
        {
            "type": "Feature",
            "properties": {
                "ref:csioz": 1001329,
                "name": "Zakład Medycyny Paliatywno-Hospicyjnej",
                "addr:housenumber": "84 a",
                "addr:city": "Kałków-Godów",
                "addr:postcode": "27-225",
                "amenity": "pharmacy"
            },
            "geometry": {
                "type": "Point",
                "coordinates": [
                    21.17335849199631,
                    50.96488439354178
                ]
            }
        },
        {
            "type": "Feature",
            "properties": {
                "ref:csioz": 1000263,
                "name": "\"Apteka Cef@Rm 36,6 \"",
                "addr:street": "Rynek",
                "addr:housenumber": "38",
                "addr:city": "Starachowice",
                "addr:postcode": "27-200",
                "amenity": "pharmacy"
            },
            "geometry": {
                "type": "Point",
                "coordinates": [
                    21.08332004407935,
                    51.040995182269604
                ]
            }
        },
        {
            "type": "Feature",
            "properties": {
                "ref:csioz": 1000346,
                "addr:street": "Stefana Żeromskiego",
                "addr:housenumber": "3",
                "addr:city": "Starachowice",
                "addr:postcode": "27-200",
                "amenity": "pharmacy"
            },
            "geometry": {
                "type": "Point",
                "coordinates": [
                    21.090493230294374,
                    51.04499359105235
                ]
            }
        },
        {
            "type": "Feature",
            "properties": {
                "ref:csioz": 1000494,
                "addr:street": "Stanisława Moniuszki",
                "addr:housenumber": "11",
                "addr:city": "Starachowice",
                "addr:postcode": "27-200",
                "amenity": "pharmacy"
            },
            "geometry": {
                "type": "Point",
                "coordinates": [
                    21.05467758842974,
                    51.04198770609779
                ]
            }
        },
        {
            "type": "Feature",
            "properties": {
                "ref:csioz": 1000624,
                "name": "Polskie Apteki",
                "addr:street": "Lipowa",
                "addr:housenumber": "50",
                "addr:city": "Starachowice",
                "addr:postcode": "27-200",
                "amenity": "pharmacy"
            },
            "geometry": {
                "type": "Point",
                "coordinates": [
                    21.081002106621593,
                    51.051728928117946
                ]
            }
        },
        {
            "type": "Feature",
            "properties": {
                "ref:csioz": 1000916,
                "name": "\"Apteka Cef@Rm 36,6\"",
                "addr:street": "Stanisława Staszica",
                "addr:housenumber": "1",
                "addr:city": "Starachowice",
                "addr:postcode": "27-200",
                "amenity": "pharmacy"
            },
            "geometry": {
                "type": "Point",
                "coordinates": [
                    21.076353379205628,
                    51.051977096064164
                ]
            }
        },
        {
            "type": "Feature",
            "properties": {
                "ref:csioz": 1001295,
                "addr:street": "Mirzec Stary",
                "addr:housenumber": "14",
                "addr:city": "MIRZEC",
                "addr:postcode": "27-220",
                "amenity": "pharmacy"
            },
            "geometry": {
                "type": "Point",
                "coordinates": [
                    21.057865000003368,
                    51.13713600001415
                ]
            }
        },
        {
            "type": "Feature",
            "properties": {
                "ref:csioz": 1002071,
                "name": "Doz Apteka Dbam O Zdrowie",
                "addr:street": "Bankowa",
                "addr:housenumber": "1",
                "addr:city": "Starachowice",
                "addr:postcode": "27-200",
                "amenity": "pharmacy"
            },
            "geometry": {
                "type": "Point",
                "coordinates": [
                    21.07212455819248,
                    51.053155782981584
                ]
            }
        },
        {
            "type": "Feature",
            "properties": {
                "ref:csioz": 1002396,
                "addr:street": "Rynek",
                "addr:housenumber": "16",
                "addr:city": "Starachowice",
                "addr:postcode": "27-200",
                "amenity": "pharmacy"
            },
            "geometry": {
                "type": "Point",
                "coordinates": [
                    21.084352897906182,
                    51.041474978294715
                ]
            }
        },
        {
            "type": "Feature",
            "properties": {
                "ref:csioz": 1003001,
                "name": "\"Apteka Cef@Rm 36,6 \"",
                "addr:street": "Zakładowa",
                "addr:housenumber": "10",
                "addr:city": "Starachowice",
                "addr:postcode": "27-200",
                "amenity": "pharmacy"
            },
            "geometry": {
                "type": "Point",
                "coordinates": [
                    21.05906902273258,
                    51.05466926657227
                ]
            }
        },
        {
            "type": "Feature",
            "properties": {
                "ref:csioz": 1003208,
                "name": "Super Apteka",
                "addr:street": "Aleja Świętego Jana Pawła II",
                "addr:housenumber": "1",
                "addr:city": "Starachowice",
                "addr:postcode": "27-200",
                "amenity": "pharmacy"
            },
            "geometry": {
                "type": "Point",
                "coordinates": [
                    21.06599194086478,
                    51.03344918933638
                ]
            }
        },
        {
            "type": "Feature",
            "properties": {
                "ref:csioz": 1003243,
                "name": "Dr. Max",
                "addr:street": "Armii Krajowej",
                "addr:housenumber": "23",
                "addr:city": "Starachowice",
                "addr:postcode": "27-200",
                "amenity": "pharmacy"
            },
            "geometry": {
                "type": "Point",
                "coordinates": [
                    21.07716783060155,
                    51.05027742155479
                ]
            }
        },
        {
            "type": "Feature",
            "properties": {
                "ref:csioz": 1003788,
                "name": "Apteka Słoneczna",
                "addr:street": "Murarska",
                "addr:housenumber": "11",
                "addr:city": "Starachowice",
                "addr:postcode": "27-200",
                "amenity": "pharmacy"
            },
            "geometry": {
                "type": "Point",
                "coordinates": [
                    21.09199266247593,
                    51.049826918521376
                ]
            }
        },
        {
            "type": "Feature",
            "properties": {
                "ref:csioz": 1004674,
                "addr:street": "Wschodnia",
                "addr:housenumber": "2",
                "addr:city": "LUBIENIA",
                "addr:postcode": "27-230",
                "amenity": "pharmacy"
            },
            "geometry": {
                "type": "Point",
                "coordinates": [
                    21.191408518801232,
                    51.052910670027266
                ]
            }
        },
        {
            "type": "Feature",
            "properties": {
                "ref:csioz": 1112002,
                "name": "Super Apteka",
                "addr:street": "Jana Kilińskiego",
                "addr:housenumber": "26",
                "addr:city": "Starachowice",
                "addr:postcode": "27-200",
                "amenity": "pharmacy"
            },
            "geometry": {
                "type": "Point",
                "coordinates": [
                    21.083123971683865,
                    51.04453524071068
                ]
            }
        },
        {
            "type": "Feature",
            "properties": {
                "ref:csioz": 1123227,
                "name": "Apteka Rodzinna",
                "addr:street": "Apteczna",
                "addr:housenumber": "4",
                "addr:city": "Krynki",
                "addr:postcode": "27-230",
                "amenity": "pharmacy"
            },
            "geometry": {
                "type": "Point",
                "coordinates": [
                    21.201951382496905,
                    51.016276559762176
                ]
            }
        },
        {
            "type": "Feature",
            "properties": {
                "ref:csioz": 1138031,
                "name": "Apteka Szpitalna",
                "addr:street": "Radomska",
                "addr:housenumber": "70",
                "addr:city": "Starachowice",
                "addr:postcode": "27-200",
                "amenity": "pharmacy"
            },
            "geometry": {
                "type": "Point",
                "coordinates": [
                    21.072389156344585,
                    51.06420545366051
                ]
            }
        },
        {
            "type": "Feature",
            "properties": {
                "ref:csioz": 1178382,
                "name": "\"Punkt Apteczny \"\"Jagodne\"\"\"",
                "addr:housenumber": "118",
                "addr:city": "Jagodne",
                "addr:postcode": "27-220",
                "amenity": "pharmacy"
            },
            "geometry": {
                "type": "Point",
                "coordinates": [
                    20.97596592133477,
                    51.14586983714911
                ]
            }
        },
        {
            "type": "Feature",
            "properties": {
                "ref:csioz": 1000761,
                "name": "\"Apteka Cef@Rm 36,6 \"",
                "addr:street": "Hutnicza",
                "addr:housenumber": "2A",
                "addr:city": "Starachowice",
                "addr:postcode": "27-200",
                "amenity": "pharmacy"
            },
            "geometry": {
                "type": "Point",
                "coordinates": [
                    21.061652382153245,
                    51.05056303451263
                ]
            }
        },
        {
            "type": "Feature",
            "properties": {
                "ref:csioz": 1001332,
                "name": "Nszoz Centrum Medyczne Visus",
                "addr:street": "Medyczna",
                "addr:housenumber": "3",
                "addr:city": "Starachowice",
                "addr:postcode": "27-200",
                "amenity": "pharmacy"
            },
            "geometry": {
                "type": "Point",
                "coordinates": [
                    21.08170378860847,
                    51.04803967275273
                ]
            }
        },
        {
            "type": "Feature",
            "properties": {
                "ref:csioz": 1002554,
                "name": "Apteka Rodzinna",
                "addr:street": "Murarska",
                "addr:housenumber": "14",
                "addr:city": "Starachowice",
                "addr:postcode": "27-200",
                "amenity": "pharmacy"
            },
            "geometry": {
                "type": "Point",
                "coordinates": [
                    21.091984791760733,
                    51.05031253984772
                ]
            }
        },
        {
            "type": "Feature",
            "properties": {
                "ref:csioz": 1003311,
                "name": "Apteka Dbam O Zdrowie",
                "addr:street": "Armii Krajowej",
                "addr:housenumber": "19",
                "addr:city": "Starachowice",
                "addr:postcode": "27-200",
                "amenity": "pharmacy"
            },
            "geometry": {
                "type": "Point",
                "coordinates": [
                    21.080525845740816,
                    51.049061908534696
                ]
            }
        },
        {
            "type": "Feature",
            "properties": {
                "ref:csioz": 1003576,
                "name": "Apteka Rodzinna",
                "addr:street": "Radomska",
                "addr:housenumber": "35",
                "addr:city": "Starachowice",
                "addr:postcode": "27-200",
                "amenity": "pharmacy"
            },
            "geometry": {
                "type": "Point",
                "coordinates": [
                    21.06716687048046,
                    51.059331127805585
                ]
            }
        },
        {
            "type": "Feature",
            "properties": {
                "ref:csioz": 1004135,
                "addr:street": "Wojska Polskiego",
                "addr:housenumber": "16B",
                "addr:city": "Starachowice",
                "addr:postcode": "27-200",
                "amenity": "pharmacy"
            },
            "geometry": {
                "type": "Point",
                "coordinates": [
                    21.075346190993823,
                    51.046331784771546
                ]
            }
        },
        {
            "type": "Feature",
            "properties": {
                "ref:csioz": 1004313,
                "name": "Apteka Codzienna",
                "addr:street": "Graniczna",
                "addr:housenumber": "18",
                "addr:city": "Starachowice",
                "addr:postcode": "27-200",
                "amenity": "pharmacy"
            },
            "geometry": {
                "type": "Point",
                "coordinates": [
                    21.087171140527847,
                    51.05083007939925
                ]
            }
        },
        {
            "type": "Feature",
            "properties": {
                "ref:csioz": 1111986,
                "name": "Apteka Plus",
                "addr:street": "Batalionów Chłopskich",
                "addr:housenumber": "11",
                "addr:city": "Starachowice",
                "addr:postcode": "27-200",
                "amenity": "pharmacy"
            },
            "geometry": {
                "type": "Point",
                "coordinates": [
                    21.074457736989018,
                    51.06535031533599
                ]
            }
        },
        {
            "type": "Feature",
            "properties": {
                "ref:csioz": 1112089,
                "name": "Apteka Słoneczna",
                "addr:street": "Radomska",
                "addr:housenumber": "70",
                "addr:city": "Starachowice",
                "addr:postcode": "27-200",
                "amenity": "pharmacy"
            },
            "geometry": {
                "type": "Point",
                "coordinates": [
                    21.072389156344585,
                    51.06420545366051
                ]
            }
        },
        {
            "type": "Feature",
            "properties": {
                "ref:csioz": 1120778,
                "name": "\"Apteka Cef@Rm 36,6 \"",
                "addr:housenumber": "20",
                "addr:city": "Wąchock",
                "addr:postcode": "27-215",
                "amenity": "pharmacy"
            },
            "geometry": {
                "type": "Point",
                "coordinates": [
                    21.017027237053405,
                    51.08030813460352
                ]
            }
        },
        {
            "type": "Feature",
            "properties": {
                "ref:csioz": 1120786,
                "name": "\"Apteka Cef@Rm 36,6 \"",
                "addr:street": "dr-a Władysława Borkowskiego",
                "addr:housenumber": "1",
                "addr:city": "Starachowice",
                "addr:postcode": "27-200",
                "amenity": "pharmacy"
            },
            "geometry": {
                "type": "Point",
                "coordinates": [
                    21.068989051489407,
                    51.050357231775756
                ]
            }
        },
        {
            "type": "Feature",
            "properties": {
                "ref:csioz": 1121121,
                "name": "Apteka Dla Ciebie",
                "addr:street": "Aleja Świętego Jana Pawła II",
                "addr:housenumber": "20",
                "addr:city": "Starachowice",
                "addr:postcode": "27-200",
                "amenity": "pharmacy"
            },
            "geometry": {
                "type": "Point",
                "coordinates": [
                    21.06165203575929,
                    51.03649521387002
                ]
            }
        },
        {
            "type": "Feature",
            "properties": {
                "ref:csioz": 1178164,
                "name": "Polskie Apteki",
                "addr:street": "Miodowa",
                "addr:housenumber": "10",
                "addr:city": "Starachowice",
                "addr:postcode": "27-200",
                "amenity": "pharmacy"
            },
            "geometry": {
                "type": "Point",
                "coordinates": [
                    21.067080029081037,
                    51.033771873932196
                ]
            }
        },
        {
            "type": "Feature",
            "properties": {
                "ref:csioz": 1179641,
                "name": "Euro-Apteka",
                "addr:street": "Ks. Kardynała Stefana Wyszyńskiego",
                "addr:housenumber": "14",
                "addr:city": "Starachowice",
                "addr:postcode": "27-200",
                "amenity": "pharmacy"
            },
            "geometry": {
                "type": "Point",
                "coordinates": [
                    21.0872066054551,
                    51.037235859864886
                ]
            }
        },
        {
            "type": "Feature",
            "properties": {
                "ref:csioz": 1190859,
                "addr:street": "Radomska",
                "addr:housenumber": "52",
                "addr:city": "Starachowice",
                "addr:postcode": "27-200",
                "amenity": "pharmacy"
            },
            "geometry": {
                "type": "Point",
                "coordinates": [
                    21.067301540098157,
                    51.057252660979486
                ]
            }
        },
        {
            "type": "Feature",
            "properties": {
                "ref:csioz": 1000785,
                "name": "Apteka Gemini",
                "addr:street": "Ludwika Waryńskiego",
                "addr:housenumber": "6",
                "addr:city": "Starachowice",
                "addr:postcode": "27-200",
                "amenity": "pharmacy"
            },
            "geometry": {
                "type": "Point",
                "coordinates": [
                    21.083670752139152,
                    51.04598641071779
                ]
            }
        }
    ]
}