{
    "type": "FeatureCollection",
    "name": "JPT_KOD_JE_3061",
    "crs": {
        "type": "name",
        "properties": {
            "name": "urn:ogc:def:crs:EPSG::4326"
        }
    },
    "features": [
        {
            "type": "Feature",
            "properties": {
                "ref:csioz": 1052128,
                "name": "Lipowa",
                "addr:street": "LIPOWA",
                "addr:housenumber": "29",
                "addr:city": "KALISZ",
                "addr:postcode": "62-800",
                "amenity": "pharmacy"
            },
            "geometry": {
                "type": "Point",
                "coordinates": [
                    18.082264241392593,
                    51.7531925569436
                ]
            }
        },
        {
            "type": "Feature",
            "properties": {
                "ref:csioz": 1052458,
                "name": "Euro - Apteka",
                "addr:street": "MAJKOWSKA",
                "addr:housenumber": "28",
                "addr:city": "KALISZ",
                "addr:postcode": "62-800",
                "amenity": "pharmacy"
            },
            "geometry": {
                "type": "Point",
                "coordinates": [
                    18.07866616723415,
                    51.769812274581895
                ]
            }
        },
        {
            "type": "Feature",
            "properties": {
                "ref:csioz": 1053400,
                "name": "Wodnik Bis",
                "addr:street": "ŁÓDZKA",
                "addr:housenumber": "32",
                "addr:city": "KALISZ",
                "addr:postcode": "62-800",
                "amenity": "pharmacy"
            },
            "geometry": {
                "type": "Point",
                "coordinates": [
                    18.103685846077735,
                    51.76144248438296
                ]
            }
        },
        {
            "type": "Feature",
            "properties": {
                "ref:csioz": 1053413,
                "name": "Stylowa",
                "addr:street": "Śródmiejska",
                "addr:housenumber": "33",
                "addr:city": "Kalisz",
                "addr:postcode": "62-800",
                "amenity": "pharmacy"
            },
            "geometry": {
                "type": "Point",
                "coordinates": [
                    18.08552596093285,
                    51.759871760892096
                ]
            }
        },
        {
            "type": "Feature",
            "properties": {
                "ref:csioz": 1053688,
                "name": "Aloes",
                "addr:street": "ŚRÓDMIEJSKA",
                "addr:housenumber": "19",
                "addr:city": "KALISZ",
                "addr:postcode": "62-800",
                "amenity": "pharmacy"
            },
            "geometry": {
                "type": "Point",
                "coordinates": [
                    18.087506480352886,
                    51.76186428908294
                ]
            }
        },
        {
            "type": "Feature",
            "properties": {
                "ref:csioz": 1118694,
                "addr:street": "POZNAŃSKA",
                "addr:housenumber": "23",
                "addr:city": "KALISZ",
                "addr:postcode": "62-800",
                "amenity": "pharmacy"
            },
            "geometry": {
                "type": "Point",
                "coordinates": [
                    18.075756641615904,
                    51.760359958220356
                ]
            }
        },
        {
            "type": "Feature",
            "properties": {
                "ref:csioz": 1171368,
                "name": "Stylowa 13",
                "addr:street": "ŁÓDZKA",
                "addr:housenumber": "41",
                "addr:city": "Kalisz",
                "addr:postcode": "62-800",
                "amenity": "pharmacy"
            },
            "geometry": {
                "type": "Point",
                "coordinates": [
                    18.07902923043373,
                    51.71322039113837
                ]
            }
        },
        {
            "type": "Feature",
            "properties": {
                "ref:csioz": 1173792,
                "name": "Super - Pharm Apteka",
                "addr:street": "Górnośląska",
                "addr:housenumber": "82",
                "addr:city": "Kalisz",
                "addr:postcode": "62-800",
                "amenity": "pharmacy"
            },
            "geometry": {
                "type": "Point",
                "coordinates": [
                    18.069416409675906,
                    51.7447815064304
                ]
            }
        },
        {
            "type": "Feature",
            "properties": {
                "ref:csioz": 1201417,
                "name": "Apteka Szpitalna",
                "addr:street": "Poznańska",
                "addr:housenumber": "79",
                "addr:city": "Kalisz",
                "addr:postcode": "62-800",
                "amenity": "pharmacy"
            },
            "geometry": {
                "type": "Point",
                "coordinates": [
                    18.065889055009258,
                    51.76278184296421
                ]
            }
        },
        {
            "type": "Feature",
            "properties": {
                "ref:csioz": 1223545,
                "name": "Dr. Max",
                "addr:street": "3 Maja",
                "addr:housenumber": "1",
                "addr:city": "Kalisz",
                "addr:postcode": "62-800",
                "amenity": "pharmacy"
            },
            "geometry": {
                "type": "Point",
                "coordinates": [
                    18.087443326196393,
                    51.766419326479564
                ]
            }
        },
        {
            "type": "Feature",
            "properties": {
                "ref:csioz": 1026940,
                "name": "Verbena I",
                "addr:street": "GRANICZNA",
                "addr:housenumber": "2",
                "addr:city": "KALISZ",
                "addr:postcode": "62-800",
                "amenity": "pharmacy"
            },
            "geometry": {
                "type": "Point",
                "coordinates": [
                    18.074407018213478,
                    51.75782064279958
                ]
            }
        },
        {
            "type": "Feature",
            "properties": {
                "ref:csioz": 1026922,
                "name": "Stylowa 6",
                "addr:street": "POLNA",
                "addr:housenumber": "14",
                "addr:city": "KALISZ",
                "addr:postcode": "62-800",
                "amenity": "pharmacy"
            },
            "geometry": {
                "type": "Point",
                "coordinates": [
                    18.076797826929837,
                    51.75345361689831
                ]
            }
        },
        {
            "type": "Feature",
            "properties": {
                "ref:csioz": 1026933,
                "name": "Kwiaty Polskie",
                "addr:street": "Prymasa Stefana Wyszyńskiego",
                "addr:housenumber": "7A",
                "addr:city": "KALISZ",
                "addr:postcode": "62-800",
                "amenity": "pharmacy"
            },
            "geometry": {
                "type": "Point",
                "coordinates": [
                    18.057487884196313,
                    51.75149714376414
                ]
            }
        },
        {
            "type": "Feature",
            "properties": {
                "ref:csioz": 1052206,
                "name": "Dbam O Zdrowie",
                "addr:street": "Podmiejska",
                "addr:housenumber": "20",
                "addr:city": "Kalisz",
                "addr:postcode": "62-800",
                "amenity": "pharmacy"
            },
            "geometry": {
                "type": "Point",
                "coordinates": [
                    18.065121692470974,
                    51.746934723261326
                ]
            }
        },
        {
            "type": "Feature",
            "properties": {
                "ref:csioz": 1052350,
                "name": "Aura",
                "addr:street": "RYNEK",
                "addr:housenumber": "16",
                "addr:city": "KALISZ",
                "addr:postcode": "62-800",
                "amenity": "pharmacy"
            },
            "geometry": {
                "type": "Point",
                "coordinates": [
                    18.089322679940235,
                    51.76208949689076
                ]
            }
        },
        {
            "type": "Feature",
            "properties": {
                "ref:csioz": 1052009,
                "name": "Kwiaty Polskie",
                "addr:street": "MARII KONOPNICKIEJ",
                "addr:housenumber": "2-4",
                "addr:city": "KALISZ",
                "addr:postcode": "62-800",
                "amenity": "pharmacy"
            },
            "geometry": {
                "type": "Point",
                "coordinates": [
                    18.07604999999965,
                    51.748980000015095
                ]
            }
        },
        {
            "type": "Feature",
            "properties": {
                "ref:csioz": 1052144,
                "name": "Retiro",
                "addr:street": "ZJAZD",
                "addr:housenumber": "23",
                "addr:city": "KALISZ",
                "addr:postcode": "62-800",
                "amenity": "pharmacy"
            },
            "geometry": {
                "type": "Point",
                "coordinates": [
                    18.08994069528621,
                    51.77445385737983
                ]
            }
        },
        {
            "type": "Feature",
            "properties": {
                "ref:csioz": 1052303,
                "name": "Verbena",
                "addr:street": "TATRZAŃSKA",
                "addr:housenumber": "29",
                "addr:city": "KALISZ",
                "addr:postcode": "62-800",
                "amenity": "pharmacy"
            },
            "geometry": {
                "type": "Point",
                "coordinates": [
                    18.080853860911333,
                    51.74088039472401
                ]
            }
        },
        {
            "type": "Feature",
            "properties": {
                "ref:csioz": 1052369,
                "name": "Pod Lwem",
                "addr:street": "Mieczysława Karłowicza",
                "addr:housenumber": "4",
                "addr:city": "KALISZ",
                "addr:postcode": "62-800",
                "amenity": "pharmacy"
            },
            "geometry": {
                "type": "Point",
                "coordinates": [
                    18.082648465277487,
                    51.775636830559264
                ]
            }
        },
        {
            "type": "Feature",
            "properties": {
                "ref:csioz": 1052388,
                "name": "Rogatka",
                "addr:street": "ŚRÓDMIEJSKA",
                "addr:housenumber": "30",
                "addr:city": "KALISZ",
                "addr:postcode": "62-800",
                "amenity": "pharmacy"
            },
            "geometry": {
                "type": "Point",
                "coordinates": [
                    18.084618589958044,
                    51.75876901585998
                ]
            }
        },
        {
            "type": "Feature",
            "properties": {
                "ref:csioz": 1052505,
                "addr:street": "BABINA",
                "addr:housenumber": "4",
                "addr:city": "KALISZ",
                "addr:postcode": "62-800",
                "amenity": "pharmacy"
            },
            "geometry": {
                "type": "Point",
                "coordinates": [
                    18.09021565930073,
                    51.765476970461
                ]
            }
        },
        {
            "type": "Feature",
            "properties": {
                "ref:csioz": 1052518,
                "name": "Na Dobre I Na Złe",
                "addr:street": "Serbinowska",
                "addr:housenumber": "1A",
                "addr:city": "Kalisz",
                "addr:postcode": "62-800",
                "amenity": "pharmacy"
            },
            "geometry": {
                "type": "Point",
                "coordinates": [
                    18.06477375642927,
                    51.75256264207693
                ]
            }
        },
        {
            "type": "Feature",
            "properties": {
                "ref:csioz": 1052547,
                "name": "Kaliniec",
                "addr:street": "BOGUMIŁA I BARBARY",
                "addr:housenumber": "8",
                "addr:city": "KALISZ",
                "addr:postcode": "62-800",
                "amenity": "pharmacy"
            },
            "geometry": {
                "type": "Point",
                "coordinates": [
                    18.074915924633533,
                    51.75152662353835
                ]
            }
        },
        {
            "type": "Feature",
            "properties": {
                "ref:csioz": 1052560,
                "name": "Zdrowie",
                "addr:street": "NOWY RYNEK",
                "addr:housenumber": "6",
                "addr:city": "KALISZ",
                "addr:postcode": "62-800",
                "amenity": "pharmacy"
            },
            "geometry": {
                "type": "Point",
                "coordinates": [
                    18.085584031406185,
                    51.76621978540667
                ]
            }
        },
        {
            "type": "Feature",
            "properties": {
                "ref:csioz": 1052583,
                "name": "Stylowa 8",
                "addr:street": "MAJKOWSKA",
                "addr:housenumber": "17A",
                "addr:city": "KALISZ",
                "addr:postcode": "62-800",
                "amenity": "pharmacy"
            },
            "geometry": {
                "type": "Point",
                "coordinates": [
                    18.08062440953024,
                    51.769449090742235
                ]
            }
        },
        {
            "type": "Feature",
            "properties": {
                "ref:csioz": 1052661,
                "name": "Arnica",
                "addr:street": "WOJSKA POLSKIEGO",
                "addr:housenumber": "32",
                "addr:city": "KALISZ",
                "addr:postcode": "62-800",
                "amenity": "pharmacy"
            },
            "geometry": {
                "type": "Point",
                "coordinates": [
                    18.05608292153917,
                    51.74604522710972
                ]
            }
        },
        {
            "type": "Feature",
            "properties": {
                "ref:csioz": 1052713,
                "name": "Im. A. Schweitzera",
                "addr:street": "ŚW. JÓZEFA",
                "addr:housenumber": "1",
                "addr:city": "KALISZ",
                "addr:postcode": "62-800",
                "amenity": "pharmacy"
            },
            "geometry": {
                "type": "Point",
                "coordinates": [
                    18.09206299999965,
                    51.762814000015105
                ]
            }
        },
        {
            "type": "Feature",
            "properties": {
                "ref:csioz": 1052721,
                "name": "Stylowa 11",
                "addr:street": "Prymasa Stefana Wyszyńskiego",
                "addr:housenumber": "34A",
                "addr:city": "KALISZ",
                "addr:postcode": "62-800",
                "amenity": "pharmacy"
            },
            "geometry": {
                "type": "Point",
                "coordinates": [
                    18.049230331835076,
                    51.75028023381523
                ]
            }
        },
        {
            "type": "Feature",
            "properties": {
                "ref:csioz": 1052768,
                "name": "Częstochowska",
                "addr:street": "CZĘSTOCHOWSKA",
                "addr:housenumber": "133",
                "addr:city": "KALISZ",
                "addr:postcode": "62-800",
                "amenity": "pharmacy"
            },
            "geometry": {
                "type": "Point",
                "coordinates": [
                    18.09674800390485,
                    51.73802883244049
                ]
            }
        },
        {
            "type": "Feature",
            "properties": {
                "ref:csioz": 1052962,
                "name": "Prima",
                "addr:street": "KANONICKA",
                "addr:housenumber": "6",
                "addr:city": "KALISZ",
                "addr:postcode": "62-800",
                "amenity": "pharmacy"
            },
            "geometry": {
                "type": "Point",
                "coordinates": [
                    18.088539370531183,
                    51.76398917930275
                ]
            }
        },
        {
            "type": "Feature",
            "properties": {
                "ref:csioz": 1053178,
                "name": "Dbam O Zdrowie",
                "addr:street": "GÓRNOŚLĄSKA",
                "addr:housenumber": "69A",
                "addr:city": "KALISZ",
                "addr:postcode": "62-800",
                "amenity": "pharmacy"
            },
            "geometry": {
                "type": "Point",
                "coordinates": [
                    18.071372999999646,
                    51.747280000015074
                ]
            }
        },
        {
            "type": "Feature",
            "properties": {
                "ref:csioz": 1053186,
                "name": "Olmed",
                "addr:street": "PODMIEJSKA",
                "addr:housenumber": "24B",
                "addr:city": "KALISZ",
                "addr:postcode": "62-800",
                "amenity": "pharmacy"
            },
            "geometry": {
                "type": "Point",
                "coordinates": [
                    18.06164392223828,
                    51.75023791625588
                ]
            }
        },
        {
            "type": "Feature",
            "properties": {
                "ref:csioz": 1053330,
                "name": "Śródmiejska",
                "addr:street": "ŚRÓDMIEJSKA",
                "addr:housenumber": "32",
                "addr:city": "KALISZ",
                "addr:postcode": "62-800",
                "amenity": "pharmacy"
            },
            "geometry": {
                "type": "Point",
                "coordinates": [
                    18.084505822635865,
                    51.75864153570269
                ]
            }
        },
        {
            "type": "Feature",
            "properties": {
                "ref:csioz": 1053358,
                "name": "Prima",
                "addr:street": "LEGIONÓW",
                "addr:housenumber": "30-32",
                "addr:city": "KALISZ",
                "addr:postcode": "62-800",
                "amenity": "pharmacy"
            },
            "geometry": {
                "type": "Point",
                "coordinates": [
                    18.082577383896364,
                    51.752459062261934
                ]
            }
        },
        {
            "type": "Feature",
            "properties": {
                "ref:csioz": 1053702,
                "name": "Wodnik",
                "addr:street": "KAZIMIERZA PUŁASKIEGO",
                "addr:housenumber": "39",
                "addr:city": "KALISZ",
                "addr:postcode": "62-800",
                "amenity": "pharmacy"
            },
            "geometry": {
                "type": "Point",
                "coordinates": [
                    18.09102101246438,
                    51.75625181878462
                ]
            }
        },
        {
            "type": "Feature",
            "properties": {
                "ref:csioz": 1053744,
                "name": "Kwiatowa",
                "addr:street": "KWIATOWA",
                "addr:housenumber": "1",
                "addr:city": "KALISZ",
                "addr:postcode": "62-800",
                "amenity": "pharmacy"
            },
            "geometry": {
                "type": "Point",
                "coordinates": [
                    18.09371677562017,
                    51.754168064299265
                ]
            }
        },
        {
            "type": "Feature",
            "properties": {
                "ref:csioz": 1116882,
                "name": "Corax",
                "addr:street": "Prymasa Stefana Wyszyńskiego",
                "addr:housenumber": "42A",
                "addr:city": "KALISZ",
                "addr:postcode": "62-800",
                "amenity": "pharmacy"
            },
            "geometry": {
                "type": "Point",
                "coordinates": [
                    18.050035620459234,
                    51.751650163131394
                ]
            }
        },
        {
            "type": "Feature",
            "properties": {
                "ref:csioz": 1118724,
                "addr:street": "PODKOWIŃSKIEGO",
                "addr:housenumber": "2",
                "addr:city": "KALISZ",
                "addr:postcode": "62-800",
                "amenity": "pharmacy"
            },
            "geometry": {
                "type": "Point",
                "coordinates": [
                    18.094485100307757,
                    51.783327129019575
                ]
            }
        },
        {
            "type": "Feature",
            "properties": {
                "ref:csioz": 1118735,
                "addr:street": "Kwiatowa",
                "addr:housenumber": "1",
                "addr:city": "KALISZ",
                "addr:postcode": "62-800",
                "amenity": "pharmacy"
            },
            "geometry": {
                "type": "Point",
                "coordinates": [
                    18.093957999999652,
                    51.754204000015086
                ]
            }
        },
        {
            "type": "Feature",
            "properties": {
                "ref:csioz": 1118756,
                "addr:street": "ZAGORZYNEK",
                "addr:housenumber": "34",
                "addr:city": "KALISZ",
                "addr:postcode": "62-800",
                "amenity": "pharmacy"
            },
            "geometry": {
                "type": "Point",
                "coordinates": [
                    18.07583616835333,
                    51.737240486641454
                ]
            }
        },
        {
            "type": "Feature",
            "properties": {
                "ref:csioz": 1118762,
                "name": "Okulus",
                "addr:street": "ŚRÓDMIEJSKA",
                "addr:housenumber": "34",
                "addr:city": "KALISZ",
                "addr:postcode": "62-800",
                "amenity": "pharmacy"
            },
            "geometry": {
                "type": "Point",
                "coordinates": [
                    18.084118010804143,
                    51.75821001905987
                ]
            }
        },
        {
            "type": "Feature",
            "properties": {
                "ref:csioz": 1148079,
                "name": "Kalmedica",
                "addr:street": "CZESTOCHOWSKA",
                "addr:housenumber": "71-75",
                "addr:city": "KALISZ",
                "addr:postcode": "62-800",
                "amenity": "pharmacy"
            },
            "geometry": {
                "type": "Point",
                "coordinates": [
                    18.095795126097016,
                    51.74648073295585
                ]
            }
        },
        {
            "type": "Feature",
            "properties": {
                "ref:csioz": 1176282,
                "name": "Niepubliczny Zakład Medycyny Paliatywnej",
                "addr:street": "Mieczysława Karłowicza",
                "addr:housenumber": "4",
                "addr:city": "Kalisz",
                "addr:postcode": "62-800",
                "amenity": "pharmacy"
            },
            "geometry": {
                "type": "Point",
                "coordinates": [
                    18.082648465277487,
                    51.775636830559264
                ]
            }
        },
        {
            "type": "Feature",
            "properties": {
                "ref:csioz": 1188390,
                "name": "Apteka Verbena Ii Tuzikiewicz",
                "addr:street": "Częstochowska",
                "addr:housenumber": "149",
                "addr:city": "Kalisz",
                "addr:postcode": "62-800",
                "amenity": "pharmacy"
            },
            "geometry": {
                "type": "Point",
                "coordinates": [
                    18.096932271489713,
                    51.736289217797605
                ]
            }
        },
        {
            "type": "Feature",
            "properties": {
                "ref:csioz": 1200192,
                "name": "Stylowa 14",
                "addr:street": "Nowy Rynek",
                "addr:housenumber": "10",
                "addr:city": "Kalisz",
                "addr:postcode": "62-800",
                "amenity": "pharmacy"
            },
            "geometry": {
                "type": "Point",
                "coordinates": [
                    18.08738460455845,
                    51.765341792555894
                ]
            }
        },
        {
            "type": "Feature",
            "properties": {
                "ref:csioz": 1206658,
                "name": "Stylowa 3",
                "addr:street": "Prymasa Stefana Wyszyńskiego",
                "addr:housenumber": "1A",
                "addr:city": "Kalisz",
                "addr:postcode": "62-800",
                "amenity": "pharmacy"
            },
            "geometry": {
                "type": "Point",
                "coordinates": [
                    18.059422363262392,
                    51.75173420923281
                ]
            }
        },
        {
            "type": "Feature",
            "properties": {
                "ref:csioz": 1209965,
                "name": "Aloes 2",
                "addr:street": "Częstochowska",
                "addr:housenumber": "71-75",
                "addr:city": "Kalisz",
                "addr:postcode": "62-800",
                "amenity": "pharmacy"
            },
            "geometry": {
                "type": "Point",
                "coordinates": [
                    18.095795126097016,
                    51.74648073295585
                ]
            }
        },
        {
            "type": "Feature",
            "properties": {
                "ref:csioz": 1212167,
                "name": "Apteka Wodnik",
                "addr:street": "Górnośląska",
                "addr:housenumber": "17",
                "addr:city": "Kalisz",
                "addr:postcode": "62-800",
                "amenity": "pharmacy"
            },
            "geometry": {
                "type": "Point",
                "coordinates": [
                    18.08008487156482,
                    51.75485517160839
                ]
            }
        },
        {
            "type": "Feature",
            "properties": {
                "ref:csioz": 1227241,
                "name": "Wodnik",
                "addr:street": "Władysława Podkowińskiego",
                "addr:housenumber": "2",
                "addr:city": "Kalisz",
                "addr:postcode": "62-800",
                "amenity": "pharmacy"
            },
            "geometry": {
                "type": "Point",
                "coordinates": [
                    18.094485100307757,
                    51.783327129019575
                ]
            }
        },
        {
            "type": "Feature",
            "properties": {
                "ref:csioz": 1216427,
                "name": "Apteka Wodnik",
                "addr:street": "Marii Konopnickiej",
                "addr:housenumber": "33",
                "addr:city": "Kalisz",
                "addr:postcode": "62-800",
                "amenity": "pharmacy"
            },
            "geometry": {
                "type": "Point",
                "coordinates": [
                    18.075409718692985,
                    51.74493101701967
                ]
            }
        },
        {
            "type": "Feature",
            "properties": {
                "ref:csioz": 1217137,
                "name": "Dr. Max",
                "addr:street": "Legionów",
                "addr:housenumber": "29 A",
                "addr:city": "Kalisz",
                "addr:postcode": "62-800",
                "amenity": "pharmacy"
            },
            "geometry": {
                "type": "Point",
                "coordinates": [
                    18.079412966298,
                    51.75140184797478
                ]
            }
        },
        {
            "type": "Feature",
            "properties": {
                "ref:csioz": 1218359,
                "name": "Euro-Apteka",
                "addr:street": "Poznańska",
                "addr:housenumber": "121-131",
                "addr:city": "Kalisz",
                "addr:postcode": "62-800",
                "amenity": "pharmacy"
            },
            "geometry": {
                "type": "Point",
                "coordinates": [
                    18.062536657183827,
                    51.76526057552308
                ]
            }
        },
        {
            "type": "Feature",
            "properties": {
                "ref:csioz": 1222540,
                "name": "Kaliniec",
                "addr:street": "Młynarska",
                "addr:housenumber": "131",
                "addr:city": "Kalisz",
                "addr:postcode": "62-800",
                "amenity": "pharmacy"
            },
            "geometry": {
                "type": "Point",
                "coordinates": [
                    18.069504365014474,
                    51.75004031749782
                ]
            }
        },
        {
            "type": "Feature",
            "properties": {
                "ref:csioz": 1228432,
                "addr:street": "Kaszubska",
                "addr:housenumber": "9",
                "addr:city": "Kalisz",
                "addr:postcode": "62-800",
                "amenity": "pharmacy"
            },
            "geometry": {
                "type": "Point",
                "coordinates": [
                    18.102954394644872,
                    51.77009115798702
                ]
            }
        }
    ]
}