{
    "type": "FeatureCollection",
    "name": "JPT_KOD_JE_2473",
    "crs": {
        "type": "name",
        "properties": {
            "name": "urn:ogc:def:crs:EPSG::4326"
        }
    },
    "features": [
        {
            "type": "Feature",
            "properties": {
                "ref:csioz": 1068095,
                "name": "Hetmańska",
                "addr:street": "Górnośląska",
                "addr:housenumber": "140 B",
                "addr:city": "Rybnik",
                "addr:postcode": "44-270",
                "amenity": "pharmacy"
            },
            "geometry": {
                "type": "Point",
                "coordinates": [
                    18.48340236342833,
                    50.05587822430023
                ]
            }
        },
        {
            "type": "Feature",
            "properties": {
                "ref:csioz": 1068189,
                "name": "Farmacja",
                "addr:street": "Ignacego Mościckiego",
                "addr:housenumber": "3",
                "addr:city": "Rybnik",
                "addr:postcode": "44-273",
                "amenity": "pharmacy"
            },
            "geometry": {
                "type": "Point",
                "coordinates": [
                    18.467855816580528,
                    50.062042683981836
                ]
            }
        },
        {
            "type": "Feature",
            "properties": {
                "ref:csioz": 1171572,
                "name": "Galen",
                "addr:street": "Józefa Rymera",
                "addr:housenumber": "8",
                "addr:city": "Rybnik",
                "addr:postcode": "44-270",
                "amenity": "pharmacy"
            },
            "geometry": {
                "type": "Point",
                "coordinates": [
                    18.495323448653394,
                    50.06389613282768
                ]
            }
        },
        {
            "type": "Feature",
            "properties": {
                "ref:csioz": 1068166,
                "name": "Ave",
                "addr:street": "Stanisława Małachowskiego",
                "addr:housenumber": "18",
                "addr:city": "Rybnik",
                "addr:postcode": "44-251",
                "amenity": "pharmacy"
            },
            "geometry": {
                "type": "Point",
                "coordinates": [
                    18.599395748134143,
                    50.06455601294175
                ]
            }
        },
        {
            "type": "Feature",
            "properties": {
                "ref:csioz": 1111615,
                "name": "Apteka Zdrowit",
                "addr:street": "Patriotów",
                "addr:housenumber": "23",
                "addr:city": "Rybnik",
                "addr:postcode": "44-200",
                "amenity": "pharmacy"
            },
            "geometry": {
                "type": "Point",
                "coordinates": [
                    18.60085181824223,
                    50.047952284470135
                ]
            }
        },
        {
            "type": "Feature",
            "properties": {
                "ref:csioz": 1193500,
                "addr:street": "Kupiecka",
                "addr:housenumber": "8",
                "addr:city": "Rybnik",
                "addr:postcode": "44-206",
                "amenity": "pharmacy"
            },
            "geometry": {
                "type": "Point",
                "coordinates": [
                    18.551644982506836,
                    50.06536063927129
                ]
            }
        },
        {
            "type": "Feature",
            "properties": {
                "ref:csioz": 1220697,
                "name": "Topfarm",
                "addr:street": "Patriotów",
                "addr:housenumber": "11",
                "addr:city": "Rybnik",
                "addr:postcode": "44-253",
                "amenity": "pharmacy"
            },
            "geometry": {
                "type": "Point",
                "coordinates": [
                    18.602509505818986,
                    50.04673174579809
                ]
            }
        },
        {
            "type": "Feature",
            "properties": {
                "ref:csioz": 1068051,
                "name": "Apteka Słoneczna",
                "addr:street": "Byłych Więźniów Politycznych",
                "addr:housenumber": "3",
                "addr:city": "Rybnik",
                "addr:postcode": "44-200",
                "amenity": "pharmacy"
            },
            "geometry": {
                "type": "Point",
                "coordinates": [
                    18.552495480019626,
                    50.09852579222807
                ]
            }
        },
        {
            "type": "Feature",
            "properties": {
                "ref:csioz": 1068115,
                "name": "Apteka Św. Anny",
                "addr:street": "kard. Bolesława Kominka",
                "addr:housenumber": "13",
                "addr:city": "Rybnik",
                "addr:postcode": "44-217",
                "amenity": "pharmacy"
            },
            "geometry": {
                "type": "Point",
                "coordinates": [
                    18.522009090658425,
                    50.0982315861631
                ]
            }
        },
        {
            "type": "Feature",
            "properties": {
                "ref:csioz": 1068128,
                "name": "W Golejowie",
                "addr:street": "Komisji Edukacji Narodowej",
                "addr:housenumber": "20",
                "addr:city": "Rybnik",
                "addr:postcode": "44-207",
                "amenity": "pharmacy"
            },
            "geometry": {
                "type": "Point",
                "coordinates": [
                    18.544728538167,
                    50.14453015290777
                ]
            }
        },
        {
            "type": "Feature",
            "properties": {
                "ref:csioz": 1068144,
                "name": "Dbam O Zdrowie",
                "addr:street": "Jana Kotucza",
                "addr:housenumber": "100",
                "addr:city": "Rybnik",
                "addr:postcode": "44-200",
                "amenity": "pharmacy"
            },
            "geometry": {
                "type": "Point",
                "coordinates": [
                    18.52795065381761,
                    50.095347414210586
                ]
            }
        },
        {
            "type": "Feature",
            "properties": {
                "ref:csioz": 1068177,
                "name": "Przy Bazylice",
                "addr:street": "Mikołowska",
                "addr:housenumber": "1",
                "addr:city": "Rybnik",
                "addr:postcode": "44-200",
                "amenity": "pharmacy"
            },
            "geometry": {
                "type": "Point",
                "coordinates": [
                    18.547954760539312,
                    50.09796591212519
                ]
            }
        },
        {
            "type": "Feature",
            "properties": {
                "ref:csioz": 1068298,
                "name": "Apteka Pod Lwem",
                "addr:street": "Jana III Sobieskiego",
                "addr:housenumber": "4",
                "addr:city": "Rybnik",
                "addr:postcode": "44-200",
                "amenity": "pharmacy"
            },
            "geometry": {
                "type": "Point",
                "coordinates": [
                    18.542591075883752,
                    50.09605160288065
                ]
            }
        },
        {
            "type": "Feature",
            "properties": {
                "ref:csioz": 1068334,
                "name": "Wyzwolenia",
                "addr:street": "Wyzwolenia",
                "addr:housenumber": "37",
                "addr:city": "Rybnik",
                "addr:postcode": "44-200",
                "amenity": "pharmacy"
            },
            "geometry": {
                "type": "Point",
                "coordinates": [
                    18.553199250175933,
                    50.10113050723783
                ]
            }
        },
        {
            "type": "Feature",
            "properties": {
                "ref:csioz": 1068342,
                "name": "Dr.Max",
                "addr:street": "Żorska",
                "addr:housenumber": "2",
                "addr:city": "Rybnik",
                "addr:postcode": "44-203",
                "amenity": "pharmacy"
            },
            "geometry": {
                "type": "Point",
                "coordinates": [
                    18.561391014097307,
                    50.09474287990927
                ]
            }
        },
        {
            "type": "Feature",
            "properties": {
                "ref:csioz": 1074344,
                "name": "Samodzielny Publiczny Zakład Opieki Zdrowotnej Państwowy Szpital Dla Nerwowo I Psychicznie Chorych W Rybniku",
                "addr:street": "GLIWICKA",
                "addr:housenumber": "33",
                "addr:city": "RYBNIK",
                "addr:postcode": "44-201",
                "amenity": "pharmacy"
            },
            "geometry": {
                "type": "Point",
                "coordinates": [
                    18.546735642287143,
                    50.10386165985284
                ]
            }
        },
        {
            "type": "Feature",
            "properties": {
                "ref:csioz": 1111448,
                "addr:street": "Wojciecha Korfantego",
                "addr:housenumber": "6",
                "addr:city": "Rybnik",
                "addr:postcode": "44-200",
                "amenity": "pharmacy"
            },
            "geometry": {
                "type": "Point",
                "coordinates": [
                    18.54151807955821,
                    50.09444652735123
                ]
            }
        },
        {
            "type": "Feature",
            "properties": {
                "ref:csioz": 1164338,
                "name": "Słoneczna",
                "addr:street": "Energetyków",
                "addr:housenumber": "46",
                "addr:city": "Rybnik",
                "addr:postcode": "44-200",
                "amenity": "pharmacy"
            },
            "geometry": {
                "type": "Point",
                "coordinates": [
                    18.52225826980063,
                    50.113004863948525
                ]
            }
        },
        {
            "type": "Feature",
            "properties": {
                "ref:csioz": 1177668,
                "name": "Apteka Pod Lwem",
                "addr:street": "Władysława Broniewskiego",
                "addr:housenumber": "23",
                "addr:city": "Rybnik",
                "addr:postcode": "44-217",
                "amenity": "pharmacy"
            },
            "geometry": {
                "type": "Point",
                "coordinates": [
                    18.524484260245053,
                    50.102067768544224
                ]
            }
        },
        {
            "type": "Feature",
            "properties": {
                "ref:csioz": 1181045,
                "name": "\"Apteka Cef@Rm 36,6\"",
                "addr:street": "Gliwicka",
                "addr:housenumber": "45",
                "addr:flats": "06",
                "addr:city": "Rybnik",
                "addr:postcode": "44-200",
                "amenity": "pharmacy"
            },
            "geometry": {
                "type": "Point",
                "coordinates": [
                    18.546237653092156,
                    50.112402096061196
                ]
            }
        },
        {
            "type": "Feature",
            "properties": {
                "ref:csioz": 1205859,
                "name": "Apteka Zdrowit+",
                "addr:street": "ul. Rynek",
                "addr:housenumber": "8",
                "addr:city": "Rybnik",
                "addr:postcode": "44-200",
                "amenity": "pharmacy"
            },
            "geometry": {
                "type": "Point",
                "coordinates": [
                    18.542467868630325,
                    50.095511743674905
                ]
            }
        },
        {
            "type": "Feature",
            "properties": {
                "ref:csioz": 1068023,
                "name": "Chwałowice",
                "addr:street": "1 Maja",
                "addr:housenumber": "93 A",
                "addr:city": "Rybnik",
                "addr:postcode": "44-206",
                "amenity": "pharmacy"
            },
            "geometry": {
                "type": "Point",
                "coordinates": [
                    18.54851999999988,
                    50.0706270000126
                ]
            }
        },
        {
            "type": "Feature",
            "properties": {
                "ref:csioz": 1068206,
                "name": "Na Parkowej",
                "addr:street": "Parkowa",
                "addr:housenumber": "4A",
                "addr:city": "Rybnik",
                "addr:postcode": "44-200",
                "amenity": "pharmacy"
            },
            "geometry": {
                "type": "Point",
                "coordinates": [
                    18.545176999999875,
                    50.08403300001263
                ]
            }
        },
        {
            "type": "Feature",
            "properties": {
                "ref:csioz": 1068233,
                "name": "Apteka Pod Lwem",
                "addr:street": "Wolności",
                "addr:housenumber": "17",
                "addr:city": "Rybnik",
                "addr:postcode": "44-200",
                "amenity": "pharmacy"
            },
            "geometry": {
                "type": "Point",
                "coordinates": [
                    18.543768273885025,
                    50.09580418167969
                ]
            }
        },
        {
            "type": "Feature",
            "properties": {
                "ref:csioz": 1068240,
                "name": "Przy Elektrowni",
                "addr:street": "Podmiejska",
                "addr:housenumber": "48",
                "addr:city": "Rybnik",
                "addr:postcode": "44-207",
                "amenity": "pharmacy"
            },
            "geometry": {
                "type": "Point",
                "coordinates": [
                    18.523192604415378,
                    50.12724927839498
                ]
            }
        },
        {
            "type": "Feature",
            "properties": {
                "ref:csioz": 1068254,
                "name": "Dr Zdrowie",
                "addr:street": "Raciborska",
                "addr:housenumber": "16",
                "addr:city": "Rybnik",
                "addr:postcode": "44-200",
                "amenity": "pharmacy"
            },
            "geometry": {
                "type": "Point",
                "coordinates": [
                    18.537998681437394,
                    50.095672367693446
                ]
            }
        },
        {
            "type": "Feature",
            "properties": {
                "ref:csioz": 1068265,
                "name": "Apteka Damian",
                "addr:street": "Raciborska",
                "addr:housenumber": "3",
                "addr:flats": "1",
                "addr:city": "Rybnik",
                "addr:postcode": "44-200",
                "amenity": "pharmacy"
            },
            "geometry": {
                "type": "Point",
                "coordinates": [
                    18.540906253447453,
                    50.0954339740137
                ]
            }
        },
        {
            "type": "Feature",
            "properties": {
                "ref:csioz": 1068279,
                "name": "Brak Nazwy",
                "addr:street": "Władysława Stanisława Reymonta",
                "addr:housenumber": "60",
                "addr:city": "Rybnik",
                "addr:postcode": "44-200",
                "amenity": "pharmacy"
            },
            "geometry": {
                "type": "Point",
                "coordinates": [
                    18.530446815160687,
                    50.08994777741092
                ]
            }
        },
        {
            "type": "Feature",
            "properties": {
                "ref:csioz": 1068287,
                "name": "Apteka Pod Lwem",
                "addr:street": "Jana III Sobieskiego",
                "addr:housenumber": "11",
                "addr:city": "Rybnik",
                "addr:postcode": "44-200",
                "amenity": "pharmacy"
            },
            "geometry": {
                "type": "Point",
                "coordinates": [
                    18.543060254465818,
                    50.09694588237621
                ]
            }
        },
        {
            "type": "Feature",
            "properties": {
                "ref:csioz": 1074331,
                "name": "S.P.Z.O.Z. Wojewódzki Szpital Specjalistyczny Nr 3 W Rybniku",
                "addr:street": "ENERGETYKÓW",
                "addr:housenumber": "46",
                "addr:city": "RYBNIK",
                "addr:postcode": "44-200",
                "amenity": "pharmacy"
            },
            "geometry": {
                "type": "Point",
                "coordinates": [
                    18.52225826980063,
                    50.113004863948525
                ]
            }
        },
        {
            "type": "Feature",
            "properties": {
                "ref:csioz": 1166215,
                "name": "Apteka Pod Lwem",
                "addr:street": "św. Józefa",
                "addr:housenumber": "16",
                "addr:city": "Rybnik",
                "addr:postcode": "44-200",
                "amenity": "pharmacy"
            },
            "geometry": {
                "type": "Point",
                "coordinates": [
                    18.533766076188822,
                    50.097585188457764
                ]
            }
        },
        {
            "type": "Feature",
            "properties": {
                "ref:csioz": 1175968,
                "name": "Hebeapteka",
                "addr:street": "Wodzisławska",
                "addr:housenumber": "76",
                "addr:city": "Rybnik",
                "addr:postcode": "44-200",
                "amenity": "pharmacy"
            },
            "geometry": {
                "type": "Point",
                "coordinates": [
                    18.530463162159432,
                    50.08704052771773
                ]
            }
        },
        {
            "type": "Feature",
            "properties": {
                "ref:csioz": 1176439,
                "name": "Ziko Apteka",
                "addr:street": "Bolesława Chrobrego",
                "addr:housenumber": "1",
                "addr:city": "Rybnik",
                "addr:postcode": "44-200",
                "amenity": "pharmacy"
            },
            "geometry": {
                "type": "Point",
                "coordinates": [
                    18.54328406587151,
                    50.093918422272296
                ]
            }
        },
        {
            "type": "Feature",
            "properties": {
                "ref:csioz": 1180206,
                "name": "Passiflora",
                "addr:street": "Zofii Nałkowskiej",
                "addr:housenumber": "3",
                "addr:city": "Rybnik",
                "addr:postcode": "44-213",
                "amenity": "pharmacy"
            },
            "geometry": {
                "type": "Point",
                "coordinates": [
                    18.60104513614527,
                    50.14202016634164
                ]
            }
        },
        {
            "type": "Feature",
            "properties": {
                "ref:csioz": 1185872,
                "name": "Apteka Paruszowiec",
                "addr:street": "Mikołowska",
                "addr:housenumber": "65",
                "addr:flats": "67",
                "addr:city": "Rybnik",
                "addr:postcode": "44-200",
                "amenity": "pharmacy"
            },
            "geometry": {
                "type": "Point",
                "coordinates": [
                    18.565834676667613,
                    50.102095857035124
                ]
            }
        },
        {
            "type": "Feature",
            "properties": {
                "ref:csioz": 1191238,
                "name": "Lift-Med Ii - Szpital",
                "addr:street": "Cegielniana",
                "addr:housenumber": "14",
                "addr:city": "Rybnik",
                "addr:postcode": "44-200",
                "amenity": "pharmacy"
            },
            "geometry": {
                "type": "Point",
                "coordinates": [
                    18.542867904987958,
                    50.09991730370205
                ]
            }
        },
        {
            "type": "Feature",
            "properties": {
                "ref:csioz": 1200516,
                "name": "Apteka Doz Dbam O Zdrowie",
                "addr:street": "Zebrzydowicka",
                "addr:housenumber": "1",
                "addr:city": "Rybnik",
                "addr:postcode": "44-200",
                "amenity": "pharmacy"
            },
            "geometry": {
                "type": "Point",
                "coordinates": [
                    18.532510004759423,
                    50.095570832753424
                ]
            }
        },
        {
            "type": "Feature",
            "properties": {
                "ref:csioz": 1204900,
                "name": "Apteka Pod Lwem",
                "addr:street": "Józefa Lompy",
                "addr:housenumber": "10",
                "addr:city": "Rybnik",
                "addr:postcode": "44-253",
                "amenity": "pharmacy"
            },
            "geometry": {
                "type": "Point",
                "coordinates": [
                    18.60492306787107,
                    50.049567052153456
                ]
            }
        },
        {
            "type": "Feature",
            "properties": {
                "ref:csioz": 1206580,
                "name": "Apteka Pod Lwem",
                "addr:street": "Jastrzębska",
                "addr:housenumber": "12",
                "addr:city": "Rybnik",
                "addr:postcode": "44-253",
                "amenity": "pharmacy"
            },
            "geometry": {
                "type": "Point",
                "coordinates": [
                    18.58725795829501,
                    50.04867754996695
                ]
            }
        }
    ]
}