{
    "type": "FeatureCollection",
    "name": "JPT_KOD_JE_3261",
    "features": [
        {
            "type": "Feature",
            "properties": {
                "ref:csioz": 1125186,
                "name": "Melisa",
                "addr:street": "Łużycka",
                "addr:housenumber": "30",
                "addr:city": "Koszalin",
                "addr:postcode": "75-113",
                "amenity": "pharmacy",
                "dispensing": "yes"
            },
            "geometry": {
                "type": "Point",
                "coordinates": [
                    16.17192681828222,
                    54.184039992084195
                ]
            }
        },
        {
            "type": "Feature",
            "properties": {
                "ref:csioz": 1125193,
                "name": "Morska",
                "addr:street": "Franciszkańska",
                "addr:housenumber": "104b",
                "addr:city": "Koszalin",
                "addr:postcode": "75-255",
                "amenity": "pharmacy",
                "dispensing": "yes"
            },
            "geometry": {
                "type": "Point",
                "coordinates": [
                    16.163439716441598,
                    54.2069182349745
                ]
            }
        },
        {
            "type": "Feature",
            "properties": {
                "ref:csioz": 1125212,
                "name": "Apteka Plus",
                "addr:street": "Traugutta",
                "addr:housenumber": "31",
                "addr:city": "Koszalin",
                "addr:postcode": "75-569",
                "amenity": "pharmacy",
                "dispensing": "yes"
            },
            "geometry": {
                "type": "Point",
                "coordinates": [
                    16.21044176726749,
                    54.192900269907426
                ]
            }
        },
        {
            "type": "Feature",
            "properties": {
                "ref:csioz": 1125923,
                "addr:street": "Szpitalna",
                "addr:housenumber": "2",
                "addr:city": "Koszalin",
                "addr:postcode": "75-720",
                "amenity": "pharmacy",
                "dispensing": "yes"
            },
            "geometry": {
                "type": "Point",
                "coordinates": [
                    16.185241956546253,
                    54.1874411521681
                ]
            }
        },
        {
            "type": "Feature",
            "properties": {
                "ref:csioz": 1125946,
                "name": "\"Apteka \"\"Św. Ducha\"\" Maria Mach Małgorzata Telega\"",
                "addr:street": "Staszica",
                "addr:housenumber": "38",
                "addr:city": "Koszalin",
                "addr:postcode": "75-452",
                "amenity": "pharmacy",
                "dispensing": "yes"
            },
            "geometry": {
                "type": "Point",
                "coordinates": [
                    16.19128899355304,
                    54.20611440020732
                ]
            }
        },
        {
            "type": "Feature",
            "properties": {
                "ref:csioz": 1126063,
                "addr:street": "Tytusa Chałubińskiego",
                "addr:housenumber": "7",
                "addr:city": "Koszalin",
                "addr:postcode": "75-644",
                "amenity": "pharmacy",
                "dispensing": "yes"
            },
            "geometry": {
                "type": "Point",
                "coordinates": [
                    16.213864999990246,
                    54.19819500001917
                ]
            }
        },
        {
            "type": "Feature",
            "properties": {
                "ref:csioz": 1135528,
                "name": "Hospicyjny Zakad Opieki Zdrowotnej",
                "addr:street": "ZDOBYWCÓW WAŁU POMORSKIEGO",
                "addr:housenumber": "80",
                "addr:city": "KOSZALIN",
                "addr:postcode": "75-136",
                "amenity": "pharmacy",
                "dispensing": "yes"
            },
            "geometry": {
                "type": "Point",
                "coordinates": [
                    16.22814135739688,
                    54.1951280468608
                ]
            }
        },
        {
            "type": "Feature",
            "properties": {
                "ref:csioz": 1139780,
                "name": "Superapteka",
                "addr:street": "Rynek Staromiejski",
                "addr:housenumber": "5",
                "addr:city": "Koszalin",
                "addr:postcode": "75-007",
                "amenity": "pharmacy",
                "dispensing": "yes"
            },
            "geometry": {
                "type": "Point",
                "coordinates": [
                    16.18255591534362,
                    54.190681103251464
                ]
            }
        },
        {
            "type": "Feature",
            "properties": {
                "ref:csioz": 1139958,
                "name": "Północna",
                "addr:street": "Tatarkiewicza",
                "addr:housenumber": "2",
                "addr:city": "Koszalin",
                "addr:postcode": "75-351",
                "amenity": "pharmacy",
                "dispensing": "yes"
            },
            "geometry": {
                "type": "Point",
                "coordinates": [
                    16.18986590391795,
                    54.20800050192695
                ]
            }
        },
        {
            "type": "Feature",
            "properties": {
                "ref:csioz": 1140008,
                "name": "Verbena",
                "addr:street": "Piłsudskiego",
                "addr:housenumber": "71",
                "addr:city": "Koszalin",
                "addr:postcode": "75-521",
                "amenity": "pharmacy",
                "dispensing": "yes"
            },
            "geometry": {
                "type": "Point",
                "coordinates": [
                    16.204992242502033,
                    54.19638270919925
                ]
            }
        },
        {
            "type": "Feature",
            "properties": {
                "ref:csioz": 1140385,
                "name": "\"Apteka Cef@Rm 36,6 \"",
                "addr:street": "Kaszubska",
                "addr:housenumber": "12",
                "addr:city": "Koszalin",
                "addr:postcode": "75-036",
                "amenity": "pharmacy",
                "dispensing": "yes"
            },
            "geometry": {
                "type": "Point",
                "coordinates": [
                    16.175777168077776,
                    54.18823381430017
                ]
            }
        },
        {
            "type": "Feature",
            "properties": {
                "ref:csioz": 1147445,
                "name": "Przy Wiadukcie",
                "addr:street": "Niepodległości",
                "addr:housenumber": "\"44 , 48\"",
                "addr:city": "Koszalin",
                "addr:postcode": "75-252",
                "amenity": "pharmacy",
                "dispensing": "yes"
            },
            "geometry": {
                "type": "Point",
                "coordinates": [
                    16.175295299330553,
                    54.19546115338422
                ]
            }
        },
        {
            "type": "Feature",
            "properties": {
                "ref:csioz": 1147598,
                "name": "Pod Filarami",
                "addr:street": "Zwycięstwa",
                "addr:housenumber": "\"190 , 192\"",
                "addr:city": "Koszalin",
                "addr:postcode": "75-611",
                "amenity": "pharmacy",
                "dispensing": "yes"
            },
            "geometry": {
                "type": "Point",
                "coordinates": [
                    16.20702843150192,
                    54.19054241903213
                ]
            }
        },
        {
            "type": "Feature",
            "properties": {
                "ref:csioz": 1147642,
                "name": "Zielona",
                "addr:street": "Śniadeckich",
                "addr:housenumber": "\"7a , 7c\"",
                "addr:city": "Koszalin",
                "addr:postcode": "75-453",
                "amenity": "pharmacy",
                "dispensing": "yes"
            },
            "geometry": {
                "type": "Point",
                "coordinates": [
                    16.198046893631247,
                    54.20628717363193
                ]
            }
        },
        {
            "type": "Feature",
            "properties": {
                "ref:csioz": 1152573,
                "name": "Apteka Dbam O Zdrowie",
                "addr:street": "Zwycięstwa",
                "addr:housenumber": "204a",
                "addr:city": "Koszalin",
                "addr:postcode": "75-640",
                "amenity": "pharmacy",
                "dispensing": "yes"
            },
            "geometry": {
                "type": "Point",
                "coordinates": [
                    16.21469757097281,
                    54.190591860179175
                ]
            }
        },
        {
            "type": "Feature",
            "properties": {
                "ref:csioz": 1152676,
                "name": "Apteka Lipowa",
                "addr:street": "Zwycięstwa",
                "addr:housenumber": "250",
                "addr:city": "Koszalin",
                "addr:postcode": "75-668",
                "amenity": "pharmacy",
                "dispensing": "yes"
            },
            "geometry": {
                "type": "Point",
                "coordinates": [
                    16.226398331074133,
                    54.18867134562916
                ]
            }
        },
        {
            "type": "Feature",
            "properties": {
                "ref:csioz": 1152786,
                "name": "Miedziana",
                "addr:street": "Zwycięstwa",
                "addr:housenumber": "119",
                "addr:city": "Koszalin",
                "addr:postcode": "75-601",
                "amenity": "pharmacy",
                "dispensing": "yes"
            },
            "geometry": {
                "type": "Point",
                "coordinates": [
                    16.19224398549025,
                    54.19045018241555
                ]
            }
        },
        {
            "type": "Feature",
            "properties": {
                "ref:csioz": 1165745,
                "name": "Apteka Centralna",
                "addr:street": "Zwycięstwa",
                "addr:housenumber": "152",
                "addr:city": "Koszalin",
                "addr:postcode": "75-011",
                "amenity": "pharmacy",
                "dispensing": "yes"
            },
            "geometry": {
                "type": "Point",
                "coordinates": [
                    16.19934604671305,
                    54.190378230149726
                ]
            }
        },
        {
            "type": "Feature",
            "properties": {
                "ref:csioz": 1172336,
                "addr:street": "Szpitalna",
                "addr:housenumber": "2",
                "addr:city": "Koszalin",
                "addr:postcode": "75-720",
                "amenity": "pharmacy",
                "dispensing": "yes"
            },
            "geometry": {
                "type": "Point",
                "coordinates": [
                    16.185241956546253,
                    54.187411152168096
                ]
            }
        },
        {
            "type": "Feature",
            "properties": {
                "ref:csioz": 1174867,
                "name": "Apteka Wiosenna",
                "addr:street": "Poprzeczna",
                "addr:housenumber": "1A",
                "addr:city": "Koszalin",
                "addr:postcode": "75-841",
                "amenity": "pharmacy",
                "dispensing": "yes"
            },
            "geometry": {
                "type": "Point",
                "coordinates": [
                    16.18318501033979,
                    54.18198290117257
                ]
            }
        },
        {
            "type": "Feature",
            "properties": {
                "ref:csioz": 1183065,
                "name": "\"Apteka Cef@Rm 36,6\"",
                "addr:street": "Zwycięstwa",
                "addr:housenumber": "98A",
                "addr:city": "Koszalin",
                "addr:postcode": "75-011",
                "amenity": "pharmacy",
                "dispensing": "yes"
            },
            "geometry": {
                "type": "Point",
                "coordinates": [
                    16.184692051284067,
                    54.189919484689376
                ]
            }
        },
        {
            "type": "Feature",
            "properties": {
                "ref:csioz": 1188764,
                "name": "Apteka Bursztynowa",
                "addr:street": "Dworcowa",
                "addr:housenumber": "11-15",
                "addr:city": "Koszalin",
                "addr:postcode": "75-201",
                "amenity": "pharmacy",
                "dispensing": "yes"
            },
            "geometry": {
                "type": "Point",
                "coordinates": [
                    16.173097165924915,
                    54.19044501307648
                ]
            }
        },
        {
            "type": "Feature",
            "properties": {
                "ref:csioz": 1192951,
                "name": "\"Apteka Cef@Rm 36,6\"",
                "addr:street": "Świętego Wojciecha",
                "addr:housenumber": "2",
                "addr:city": "Koszalin",
                "addr:postcode": "75-666",
                "amenity": "pharmacy",
                "dispensing": "yes"
            },
            "geometry": {
                "type": "Point",
                "coordinates": [
                    16.224947392845245,
                    54.1878670735237
                ]
            }
        },
        {
            "type": "Feature",
            "properties": {
                "ref:csioz": 1192995,
                "name": "\"Apteka Cef@Rm 36,6\"",
                "addr:street": "Zwycięstwa",
                "addr:housenumber": "154",
                "addr:city": "Koszalin",
                "addr:postcode": "75-011",
                "amenity": "pharmacy",
                "dispensing": "yes"
            },
            "geometry": {
                "type": "Point",
                "coordinates": [
                    16.199681029174506,
                    54.1903866527794
                ]
            }
        },
        {
            "type": "Feature",
            "properties": {
                "ref:csioz": 1199970,
                "name": "Super - Pharm Apteka",
                "addr:street": "Ignacego Jana Paderewskiego",
                "addr:housenumber": "1",
                "addr:city": "Koszalin",
                "addr:postcode": "75-736",
                "amenity": "pharmacy",
                "dispensing": "yes"
            },
            "geometry": {
                "type": "Point",
                "coordinates": [
                    16.204090553788888,
                    54.176962654097046
                ]
            }
        },
        {
            "type": "Feature",
            "properties": {
                "ref:csioz": 1201046,
                "name": "Dr. Max",
                "addr:street": "Jana Pawła II",
                "addr:housenumber": "20",
                "addr:city": "Koszalin",
                "addr:postcode": "75-950",
                "amenity": "pharmacy",
                "dispensing": "yes"
            },
            "geometry": {
                "type": "Point",
                "coordinates": [
                    16.18626093375431,
                    54.20658504320254
                ]
            }
        },
        {
            "type": "Feature",
            "properties": {
                "ref:csioz": 1209180,
                "addr:street": "Sarzyńska",
                "addr:housenumber": "9",
                "addr:city": "Koszalin",
                "addr:postcode": "75-950",
                "amenity": "pharmacy",
                "dispensing": "yes"
            },
            "geometry": {
                "type": "Point",
                "coordinates": [
                    16.188551531141503,
                    54.17143454218559
                ]
            }
        },
        {
            "type": "Feature",
            "properties": {
                "ref:csioz": 1125317,
                "addr:street": "Sikorskiego",
                "addr:housenumber": "\"2 , 4f\"",
                "addr:city": "Koszalin",
                "addr:postcode": "75-360",
                "amenity": "pharmacy",
                "dispensing": "yes"
            },
            "geometry": {
                "type": "Point",
                "coordinates": [
                    16.183795226784977,
                    54.20458863426723
                ]
            }
        },
        {
            "type": "Feature",
            "properties": {
                "ref:csioz": 1125330,
                "name": "Alma",
                "addr:street": "Monte Cassino",
                "addr:housenumber": "13",
                "addr:city": "Koszalin",
                "addr:postcode": "75-414",
                "amenity": "pharmacy",
                "dispensing": "yes"
            },
            "geometry": {
                "type": "Point",
                "coordinates": [
                    16.18678411458198,
                    54.19821853384672
                ]
            }
        },
        {
            "type": "Feature",
            "properties": {
                "ref:csioz": 1126025,
                "name": "Przy Katedrze",
                "addr:street": "Zwycięstwa",
                "addr:housenumber": "46",
                "addr:city": "Koszalin",
                "addr:postcode": "75-038",
                "amenity": "pharmacy",
                "dispensing": "yes"
            },
            "geometry": {
                "type": "Point",
                "coordinates": [
                    16.179516205816814,
                    54.18973221857477
                ]
            }
        },
        {
            "type": "Feature",
            "properties": {
                "ref:csioz": 1137354,
                "name": "\"Apteka Cef@Rm 36,6\"",
                "addr:street": "Lelewela",
                "addr:housenumber": "9",
                "addr:city": "Koszalin",
                "addr:postcode": "75-450",
                "amenity": "pharmacy",
                "dispensing": "yes"
            },
            "geometry": {
                "type": "Point",
                "coordinates": [
                    16.2019854671344,
                    54.20994810823565
                ]
            }
        },
        {
            "type": "Feature",
            "properties": {
                "ref:csioz": 1139847,
                "name": "Apteka Dbam O Zdrowie",
                "addr:street": "1 Maja",
                "addr:housenumber": "2",
                "addr:city": "Koszalin",
                "addr:postcode": "75-800",
                "amenity": "pharmacy",
                "dispensing": "yes"
            },
            "geometry": {
                "type": "Point",
                "coordinates": [
                    16.182375355080097,
                    54.189663370613964
                ]
            }
        },
        {
            "type": "Feature",
            "properties": {
                "ref:csioz": 1139852,
                "name": "Apteka Dbam O Zdrowie",
                "addr:street": "Okulickiego",
                "addr:housenumber": "24a",
                "addr:city": "Koszalin",
                "addr:postcode": "75-443",
                "amenity": "pharmacy",
                "dispensing": "yes"
            },
            "geometry": {
                "type": "Point",
                "coordinates": [
                    16.187810867019106,
                    54.19898546226227
                ]
            }
        },
        {
            "type": "Feature",
            "properties": {
                "ref:csioz": 1140336,
                "name": "\"Apteka Cef@Rm 36,6\"",
                "addr:street": "Kornela Makuszyńskiego",
                "addr:housenumber": "2",
                "addr:city": "Koszalin",
                "addr:postcode": "75-442",
                "amenity": "pharmacy",
                "dispensing": "yes"
            },
            "geometry": {
                "type": "Point",
                "coordinates": [
                    16.19111567411462,
                    54.199025592879046
                ]
            }
        },
        {
            "type": "Feature",
            "properties": {
                "ref:csioz": 1140348,
                "name": "Nr 33-012",
                "addr:street": "Kościuszki",
                "addr:housenumber": "7",
                "addr:city": "Koszalin",
                "addr:postcode": "75-405",
                "amenity": "pharmacy",
                "dispensing": "yes"
            },
            "geometry": {
                "type": "Point",
                "coordinates": [
                    16.19493367232517,
                    54.19313118039871
                ]
            }
        },
        {
            "type": "Feature",
            "properties": {
                "ref:csioz": 1148011,
                "addr:street": "Chałubińskiego",
                "addr:housenumber": "7",
                "addr:city": "Koszalin",
                "addr:postcode": "75-581",
                "amenity": "pharmacy",
                "dispensing": "yes"
            },
            "geometry": {
                "type": "Point",
                "coordinates": [
                    16.21342999999024,
                    54.19790300001916
                ]
            }
        },
        {
            "type": "Feature",
            "properties": {
                "ref:csioz": 1151346,
                "addr:street": "Niepodległości",
                "addr:housenumber": "\"44 , 48\"",
                "addr:city": "Koszalin",
                "addr:postcode": "75-252",
                "amenity": "pharmacy",
                "dispensing": "yes"
            },
            "geometry": {
                "type": "Point",
                "coordinates": [
                    16.175295299330553,
                    54.19543115338422
                ]
            }
        },
        {
            "type": "Feature",
            "properties": {
                "ref:csioz": 1151380,
                "addr:street": "Głowackiego",
                "addr:housenumber": "7",
                "addr:city": "Koszalin",
                "amenity": "pharmacy",
                "dispensing": "yes"
            },
            "geometry": {
                "type": "Point",
                "coordinates": [
                    16.192696850612805,
                    54.19178196271163
                ]
            }
        },
        {
            "type": "Feature",
            "properties": {
                "ref:csioz": 1151395,
                "addr:street": "Armii Krajowej",
                "addr:housenumber": "7",
                "addr:city": "Koszalin",
                "addr:postcode": "75-200",
                "amenity": "pharmacy",
                "dispensing": "yes"
            },
            "geometry": {
                "type": "Point",
                "coordinates": [
                    16.17077562953495,
                    54.191656021626564
                ]
            }
        },
        {
            "type": "Feature",
            "properties": {
                "ref:csioz": 1165810,
                "name": "Euro Apteka",
                "addr:street": "Karłowicza",
                "addr:housenumber": "28",
                "addr:city": "Koszalin",
                "addr:postcode": "75-563",
                "amenity": "pharmacy",
                "dispensing": "yes"
            },
            "geometry": {
                "type": "Point",
                "coordinates": [
                    16.214609426222133,
                    54.19375653448722
                ]
            }
        },
        {
            "type": "Feature",
            "properties": {
                "ref:csioz": 1165051,
                "name": "Apteka Na Dworcu Nowa Farmacja",
                "addr:street": "Armii Krajowej",
                "addr:housenumber": "3",
                "addr:city": "Koszalin",
                "addr:postcode": "75-200",
                "amenity": "pharmacy",
                "dispensing": "yes"
            },
            "geometry": {
                "type": "Point",
                "coordinates": [
                    16.1704343571194,
                    54.19063556988185
                ]
            }
        },
        {
            "type": "Feature",
            "properties": {
                "ref:csioz": 1170985,
                "name": "Apteka Na Śniadeckich",
                "addr:street": "Śniadeckich",
                "addr:housenumber": "29",
                "addr:city": "Koszalin",
                "addr:postcode": "75-453",
                "amenity": "pharmacy",
                "dispensing": "yes"
            },
            "geometry": {
                "type": "Point",
                "coordinates": [
                    16.20250743999504,
                    54.208875711546185
                ]
            }
        },
        {
            "type": "Feature",
            "properties": {
                "ref:csioz": 1175280,
                "name": "Mediq Apteka",
                "addr:street": "Śniadeckich",
                "addr:housenumber": "6",
                "addr:city": "Koszalin",
                "addr:postcode": "75-453",
                "amenity": "pharmacy",
                "dispensing": "yes"
            },
            "geometry": {
                "type": "Point",
                "coordinates": [
                    16.203491496172077,
                    54.20768029994236
                ]
            }
        },
        {
            "type": "Feature",
            "properties": {
                "ref:csioz": 1181362,
                "name": "Apteka Aptecom",
                "addr:street": "Morska",
                "addr:housenumber": "51",
                "addr:city": "Koszalin",
                "addr:postcode": "75-212",
                "amenity": "pharmacy",
                "dispensing": "yes"
            },
            "geometry": {
                "type": "Point",
                "coordinates": [
                    16.160357741686454,
                    54.20205884291022
                ]
            }
        },
        {
            "type": "Feature",
            "properties": {
                "ref:csioz": 1188167,
                "name": "Apteka Piastowska",
                "addr:street": "Michała Drzymały",
                "addr:housenumber": "3A",
                "addr:city": "Koszalin",
                "addr:postcode": "75-074",
                "amenity": "pharmacy",
                "dispensing": "yes"
            },
            "geometry": {
                "type": "Point",
                "coordinates": [
                    16.17826372423835,
                    54.18771389362047
                ]
            }
        },
        {
            "type": "Feature",
            "properties": {
                "ref:csioz": 1196632,
                "name": "\"Apteka 'Pod Lwem'\"",
                "addr:street": "Połtawska",
                "addr:housenumber": "4",
                "addr:city": "Koszalin",
                "addr:postcode": "75-950",
                "amenity": "pharmacy",
                "dispensing": "yes"
            },
            "geometry": {
                "type": "Point",
                "coordinates": [
                    16.176850244132886,
                    54.18916902308602
                ]
            }
        },
        {
            "type": "Feature",
            "properties": {
                "ref:csioz": 1198780,
                "name": "\"Apteka Cef@Rm 36,6\"",
                "addr:street": "Marszałka Józefa Piłsudskiego",
                "addr:housenumber": "74",
                "addr:city": "Koszalin",
                "addr:postcode": "75-339",
                "amenity": "pharmacy",
                "dispensing": "yes"
            },
            "geometry": {
                "type": "Point",
                "coordinates": [
                    16.205942519274142,
                    54.196388675060504
                ]
            }
        },
        {
            "type": "Feature",
            "properties": {
                "ref:csioz": 1202628,
                "name": "\"Apteka Cef@Rm 36,6\"",
                "addr:street": "Tadeusza Kościuszki",
                "addr:housenumber": "5",
                "addr:city": "Koszalin",
                "addr:postcode": "75-404",
                "amenity": "pharmacy",
                "dispensing": "yes"
            },
            "geometry": {
                "type": "Point",
                "coordinates": [
                    16.19542664297015,
                    54.19304913162026
                ]
            }
        },
        {
            "type": "Feature",
            "properties": {
                "ref:csioz": 1203343,
                "name": "\"Apteka Cef@Rm 36,6\"",
                "addr:street": "Tadeusza Kutrzeby",
                "addr:housenumber": "14",
                "addr:city": "Koszalin",
                "addr:postcode": "75-332",
                "amenity": "pharmacy",
                "dispensing": "yes"
            },
            "geometry": {
                "type": "Point",
                "coordinates": [
                    16.18442212384547,
                    54.20160440851437
                ]
            }
        },
        {
            "type": "Feature",
            "properties": {
                "ref:csioz": 1203356,
                "name": "\"Apteka Cef@Rm 36,6\"",
                "addr:street": "Lechicka",
                "addr:housenumber": "23",
                "addr:city": "Koszalin",
                "addr:postcode": "75-837",
                "amenity": "pharmacy",
                "dispensing": "yes"
            },
            "geometry": {
                "type": "Point",
                "coordinates": [
                    16.174567829823424,
                    54.18274708299986
                ]
            }
        },
        {
            "type": "Feature",
            "properties": {
                "ref:csioz": 1207616,
                "name": "\"Apteka Cef@Rm 36,6\"",
                "addr:street": "Rynek Staromiejski",
                "addr:housenumber": "1",
                "addr:city": "Koszalin",
                "addr:postcode": "75-007",
                "amenity": "pharmacy",
                "dispensing": "yes"
            },
            "geometry": {
                "type": "Point",
                "coordinates": [
                    16.182615892548977,
                    54.190230211021735
                ]
            }
        },
        {
            "type": "Feature",
            "properties": {
                "ref:csioz": 1212504,
                "name": "Apteka Centrum Zdrowia",
                "addr:street": "Szpitalna",
                "addr:housenumber": "1a",
                "addr:city": "Koszalin",
                "addr:postcode": "75-720",
                "amenity": "pharmacy",
                "dispensing": "yes"
            },
            "geometry": {
                "type": "Point",
                "coordinates": [
                    16.18410899998977,
                    54.18737400001916
                ]
            }
        },
        {
            "type": "Feature",
            "properties": {
                "ref:csioz": 1216264,
                "name": "Apteka Słoneczna",
                "addr:street": "Poprzeczna",
                "addr:housenumber": "7",
                "addr:city": "Koszalin",
                "addr:postcode": "75-950",
                "amenity": "pharmacy",
                "dispensing": "yes"
            },
            "geometry": {
                "type": "Point",
                "coordinates": [
                    16.179101706229332,
                    54.180731973330126
                ]
            }
        },
        {
            "type": "Feature",
            "properties": {
                "ref:csioz": 1218368,
                "name": "Apteka Gemini",
                "addr:street": "Rynek Staromiejski",
                "addr:housenumber": "9",
                "addr:city": "Koszalin",
                "addr:postcode": "75-007",
                "amenity": "pharmacy",
                "dispensing": "yes"
            },
            "geometry": {
                "type": "Point",
                "coordinates": [
                    16.18088509887547,
                    54.1906486413383
                ]
            }
        },
        {
            "type": "Feature",
            "properties": {
                "ref:csioz": 1218345,
                "name": "Apteka Centrum Zdrowia",
                "addr:street": "Juliana Krzyżanowskiego",
                "addr:housenumber": "26",
                "addr:city": "Koszalin",
                "addr:postcode": "75-950",
                "amenity": "pharmacy",
                "dispensing": "yes"
            },
            "geometry": {
                "type": "Point",
                "coordinates": [
                    16.189388361126117,
                    54.21096401047036
                ]
            }
        },
        {
            "type": "Feature",
            "properties": {
                "ref:csioz": 1196655,
                "name": "\"Apteka \"\"Pod Lwem\"\" \"",
                "addr:street": "gen. Władysława Sikorskiego",
                "addr:housenumber": "4d",
                "addr:city": "Koszalin",
                "addr:postcode": "75-360",
                "amenity": "pharmacy",
                "dispensing": "yes"
            },
            "geometry": {
                "type": "Point",
                "coordinates": [
                    16.182924503082596,
                    54.204578371028916
                ]
            }
        }
    ]
}