{
    "type": "FeatureCollection",
    "name": "JPT_KOD_JE_3024",
    "features": [
        {
            "type": "Feature",
            "properties": {
                "ref:csioz": 1044145,
                "name": "Zielony",
                "addr:housenumber": "10",
                "addr:postcode": "64-550",
                "amenity": "pharmacy",
                "addr:place": "Duszniki",
                "dispensing": "yes"
            },
            "geometry": {
                "type": "Point",
                "coordinates": [
                    16.402542603377213,
                    52.44763428570917
                ]
            }
        },
        {
            "type": "Feature",
            "properties": {
                "ref:csioz": 1046533,
                "name": "Zdrowie",
                "addr:street": "Szamotulska",
                "addr:housenumber": "28",
                "addr:city": "Otorowo",
                "addr:postcode": "64-628",
                "amenity": "pharmacy",
                "dispensing": "yes"
            },
            "geometry": {
                "type": "Point",
                "coordinates": [
                    16.438804434745155,
                    52.56410256183188
                ]
            }
        },
        {
            "type": "Feature",
            "properties": {
                "ref:csioz": 1051260,
                "name": "Apteka Św. Wawrzyńca",
                "addr:street": "ŚW. WAWRZYŃCA",
                "addr:housenumber": "21",
                "addr:city": "PNIEWY",
                "addr:postcode": "62-045",
                "amenity": "pharmacy",
                "dispensing": "yes"
            },
            "geometry": {
                "type": "Point",
                "coordinates": [
                    16.252549517984548,
                    52.508840227641244
                ]
            }
        },
        {
            "type": "Feature",
            "properties": {
                "ref:csioz": 1055491,
                "name": "Śródmiejska",
                "addr:street": "Adama Mickiewicza",
                "addr:housenumber": "16",
                "addr:city": "Pniewy",
                "addr:postcode": "62-045",
                "amenity": "pharmacy",
                "dispensing": "yes"
            },
            "geometry": {
                "type": "Point",
                "coordinates": [
                    16.253259831775644,
                    52.50846680954023
                ]
            }
        },
        {
            "type": "Feature",
            "properties": {
                "ref:csioz": 1198290,
                "name": "Dla Ciebie",
                "addr:street": "Dworcowa",
                "addr:housenumber": "26",
                "addr:city": "Pniewy",
                "addr:postcode": "62-045",
                "amenity": "pharmacy",
                "dispensing": "yes"
            },
            "geometry": {
                "type": "Point",
                "coordinates": [
                    16.2586031921331,
                    52.51405521980799
                ]
            }
        },
        {
            "type": "Feature",
            "properties": {
                "ref:csioz": 1047942,
                "name": "Pharmacon",
                "addr:street": "Targowa",
                "addr:housenumber": "16",
                "addr:city": "Pniewy",
                "addr:postcode": "62-045",
                "amenity": "pharmacy",
                "dispensing": "yes"
            },
            "geometry": {
                "type": "Point",
                "coordinates": [
                    16.257390754364877,
                    52.513433578597166
                ]
            }
        },
        {
            "type": "Feature",
            "properties": {
                "ref:csioz": 1055416,
                "addr:street": "Powstańców Wlkp.",
                "addr:housenumber": "17",
                "addr:city": "Duszniki",
                "addr:postcode": "64-550",
                "amenity": "pharmacy",
                "dispensing": "yes"
            },
            "geometry": {
                "type": "Point",
                "coordinates": [
                    16.40851291393288,
                    52.45056397171353
                ]
            }
        },
        {
            "type": "Feature",
            "properties": {
                "ref:csioz": 1055434,
                "name": "Pod Kasztanami",
                "addr:street": "Wroniecka",
                "addr:housenumber": "15",
                "addr:city": "Ostroróg",
                "addr:postcode": "64-560",
                "amenity": "pharmacy",
                "dispensing": "yes"
            },
            "geometry": {
                "type": "Point",
                "coordinates": [
                    16.445984252897183,
                    52.6280514363474
                ]
            }
        },
        {
            "type": "Feature",
            "properties": {
                "ref:csioz": 1191267,
                "name": "U Złotego Źródła",
                "addr:street": "Międzychodzka",
                "addr:housenumber": "22C",
                "addr:city": "Pniewy",
                "addr:postcode": "62-045",
                "amenity": "pharmacy",
                "dispensing": "yes"
            },
            "geometry": {
                "type": "Point",
                "coordinates": [
                    16.25568216944441,
                    52.5116358761109
                ]
            }
        },
        {
            "type": "Feature",
            "properties": {
                "ref:csioz": 1191770,
                "name": "Moderna 5",
                "addr:street": "Szamotulska",
                "addr:housenumber": "2",
                "addr:city": "Duszniki",
                "addr:postcode": "64-550",
                "amenity": "pharmacy",
                "dispensing": "yes"
            },
            "geometry": {
                "type": "Point",
                "coordinates": [
                    16.402864967322632,
                    52.45114638970089
                ]
            }
        },
        {
            "type": "Feature",
            "properties": {
                "ref:csioz": 1212692,
                "name": "Apteka Tradycji",
                "addr:street": "Stawna",
                "addr:housenumber": "2",
                "addr:city": "Duszniki",
                "addr:postcode": "64-550",
                "amenity": "pharmacy",
                "dispensing": "yes"
            },
            "geometry": {
                "type": "Point",
                "coordinates": [
                    16.403276458898883,
                    52.45261581969232
                ]
            }
        },
        {
            "type": "Feature",
            "properties": {
                "ref:csioz": 1230520,
                "name": "Centrum Zdrowia",
                "addr:street": "Jana Pawła II",
                "addr:housenumber": "15",
                "addr:city": "Duszniki",
                "addr:postcode": "64-550",
                "amenity": "pharmacy",
                "dispensing": "yes"
            },
            "geometry": {
                "type": "Point",
                "coordinates": [
                    16.402921114943695,
                    52.45077435185615
                ]
            }
        },
        {
            "type": "Feature",
            "properties": {
                "ref:csioz": 1044527,
                "addr:street": "SUKIENNICZA",
                "addr:housenumber": "13",
                "addr:city": "SZAMOTUŁY",
                "addr:postcode": "64-500",
                "amenity": "pharmacy",
                "dispensing": "yes"
            },
            "geometry": {
                "type": "Point",
                "coordinates": [
                    16.581229151298935,
                    52.61075272157077
                ]
            }
        },
        {
            "type": "Feature",
            "properties": {
                "ref:csioz": 1046141,
                "name": "Osiedlowa",
                "addr:street": "ŁĄKOWA",
                "addr:housenumber": "9",
                "addr:city": "SZAMOTUŁY",
                "addr:postcode": "64-500",
                "amenity": "pharmacy",
                "dispensing": "yes"
            },
            "geometry": {
                "type": "Point",
                "coordinates": [
                    16.59009168590354,
                    52.60479192720052
                ]
            }
        },
        {
            "type": "Feature",
            "properties": {
                "ref:csioz": 1046579,
                "name": "Przy Kościele",
                "addr:street": "Dworcowa",
                "addr:housenumber": "16A",
                "addr:city": "Szamotuły",
                "addr:postcode": "64-500",
                "amenity": "pharmacy",
                "dispensing": "yes"
            },
            "geometry": {
                "type": "Point",
                "coordinates": [
                    16.581381705152687,
                    52.6078121936361
                ]
            }
        },
        {
            "type": "Feature",
            "properties": {
                "ref:csioz": 1046731,
                "name": "Pod Zegarem",
                "addr:street": "Sportowa",
                "addr:housenumber": "17",
                "addr:city": "Szamotuły",
                "addr:postcode": "64-500",
                "amenity": "pharmacy",
                "dispensing": "yes"
            },
            "geometry": {
                "type": "Point",
                "coordinates": [
                    16.58701581836015,
                    52.605246985289796
                ]
            }
        },
        {
            "type": "Feature",
            "properties": {
                "ref:csioz": 1051114,
                "name": "Apteka Rodzinna",
                "addr:street": "BRACI CZESKICH",
                "addr:housenumber": "15",
                "addr:city": "SZAMOTUŁY",
                "addr:postcode": "64-500",
                "amenity": "pharmacy",
                "dispensing": "yes"
            },
            "geometry": {
                "type": "Point",
                "coordinates": [
                    16.57796930071591,
                    52.6129543024686
                ]
            }
        },
        {
            "type": "Feature",
            "properties": {
                "ref:csioz": 1055308,
                "addr:street": "Mikołaja Kopernika",
                "addr:housenumber": "3",
                "addr:city": "Szamotuły",
                "addr:postcode": "64-500",
                "amenity": "pharmacy",
                "dispensing": "yes"
            },
            "geometry": {
                "type": "Point",
                "coordinates": [
                    16.574366901990953,
                    52.620453213488744
                ]
            }
        },
        {
            "type": "Feature",
            "properties": {
                "ref:csioz": 1190748,
                "name": "Pamiątkowska",
                "addr:street": "Szkolna",
                "addr:housenumber": "16",
                "addr:city": "Pamiątkowo",
                "addr:postcode": "64-514",
                "amenity": "pharmacy",
                "dispensing": "yes"
            },
            "geometry": {
                "type": "Point",
                "coordinates": [
                    16.681558997782275,
                    52.55335798463185
                ]
            }
        },
        {
            "type": "Feature",
            "properties": {
                "ref:csioz": 1044746,
                "name": "Doz Apteka. Dbam O Zdrowie. Panaceum",
                "addr:street": "Kościelna",
                "addr:housenumber": "2",
                "addr:city": "Szamotuły",
                "addr:postcode": "64-500",
                "amenity": "pharmacy",
                "dispensing": "yes"
            },
            "geometry": {
                "type": "Point",
                "coordinates": [
                    16.57726925944725,
                    52.6119714893266
                ]
            }
        },
        {
            "type": "Feature",
            "properties": {
                "ref:csioz": 1046155,
                "name": "Przyjazna",
                "addr:street": "Poznańska",
                "addr:housenumber": "1",
                "addr:city": "Szamotuły",
                "addr:postcode": "64-500",
                "amenity": "pharmacy",
                "dispensing": "yes"
            },
            "geometry": {
                "type": "Point",
                "coordinates": [
                    16.57976542444114,
                    52.61214975290678
                ]
            }
        },
        {
            "type": "Feature",
            "properties": {
                "ref:csioz": 1047892,
                "name": "Eskulap",
                "addr:street": "Elizy Orzeszkowej",
                "addr:housenumber": "4",
                "addr:city": "Kaźmierz",
                "addr:postcode": "64-530",
                "amenity": "pharmacy",
                "dispensing": "yes"
            },
            "geometry": {
                "type": "Point",
                "coordinates": [
                    16.58668069807574,
                    52.515053772809765
                ]
            }
        },
        {
            "type": "Feature",
            "properties": {
                "ref:csioz": 1051180,
                "name": "Panaceum",
                "addr:street": "JANA PAWŁA II",
                "addr:housenumber": "11",
                "addr:city": "KAŹMIERZ",
                "addr:postcode": "64-530",
                "amenity": "pharmacy",
                "dispensing": "yes"
            },
            "geometry": {
                "type": "Point",
                "coordinates": [
                    16.585390748925423,
                    52.51279269748392
                ]
            }
        },
        {
            "type": "Feature",
            "properties": {
                "ref:csioz": 1176471,
                "name": "Apteka Doz Dbam O Zdrowie",
                "addr:street": "Rynek",
                "addr:housenumber": "5",
                "addr:city": "Kaźmierz",
                "addr:postcode": "64-530",
                "amenity": "pharmacy",
                "dispensing": "yes"
            },
            "geometry": {
                "type": "Point",
                "coordinates": [
                    16.58378931026263,
                    52.513467573941405
                ]
            }
        },
        {
            "type": "Feature",
            "properties": {
                "ref:csioz": 1193001,
                "name": "Apteka Przy Szpitalu",
                "addr:street": "Sukiennicza",
                "addr:housenumber": "13",
                "addr:city": "Szamotuły",
                "addr:postcode": "64-500",
                "amenity": "pharmacy",
                "dispensing": "yes"
            },
            "geometry": {
                "type": "Point",
                "coordinates": [
                    16.581229151298935,
                    52.61072272157077
                ]
            }
        },
        {
            "type": "Feature",
            "properties": {
                "ref:csioz": 1198516,
                "name": "Centrum Zdrowia",
                "addr:street": "Rynek",
                "addr:housenumber": "13",
                "addr:city": "Szamotuły",
                "addr:postcode": "64-500",
                "amenity": "pharmacy",
                "dispensing": "yes"
            },
            "geometry": {
                "type": "Point",
                "coordinates": [
                    16.57782087919995,
                    52.611641025610425
                ]
            }
        },
        {
            "type": "Feature",
            "properties": {
                "ref:csioz": 1051668,
                "name": "Pharmacon Ii",
                "addr:street": "Borek",
                "addr:housenumber": "10E",
                "addr:city": "Wronki",
                "addr:postcode": "64-510",
                "amenity": "pharmacy",
                "dispensing": "yes"
            },
            "geometry": {
                "type": "Point",
                "coordinates": [
                    16.39102392542408,
                    52.71140626391053
                ]
            }
        },
        {
            "type": "Feature",
            "properties": {
                "ref:csioz": 1044357,
                "addr:street": "PARTYZANTÓW",
                "addr:housenumber": "1",
                "addr:city": "WRONKI",
                "addr:postcode": "64-510",
                "amenity": "pharmacy",
                "dispensing": "yes"
            },
            "geometry": {
                "type": "Point",
                "coordinates": [
                    16.384805594793065,
                    52.70806011321144
                ]
            }
        },
        {
            "type": "Feature",
            "properties": {
                "ref:csioz": 1044738,
                "name": "Pod Złotym Moździerzem",
                "addr:street": "Kruppika",
                "addr:housenumber": "2",
                "addr:city": "Obrzycko",
                "addr:postcode": "64-520",
                "amenity": "pharmacy",
                "dispensing": "yes"
            },
            "geometry": {
                "type": "Point",
                "coordinates": [
                    16.52743122177303,
                    52.70755965610549
                ]
            }
        },
        {
            "type": "Feature",
            "properties": {
                "ref:csioz": 1045838,
                "name": "U Złotego Źródła",
                "addr:street": "Plac Targowy",
                "addr:housenumber": "3",
                "addr:city": "Wronki",
                "addr:postcode": "64-510",
                "amenity": "pharmacy",
                "dispensing": "yes"
            },
            "geometry": {
                "type": "Point",
                "coordinates": [
                    16.376916863935726,
                    52.707739695524204
                ]
            }
        },
        {
            "type": "Feature",
            "properties": {
                "ref:csioz": 1048050,
                "name": "Słoneczna",
                "addr:street": "Partyzantów",
                "addr:housenumber": "12A",
                "addr:city": "Wronki",
                "addr:postcode": "64-510",
                "amenity": "pharmacy",
                "dispensing": "yes"
            },
            "geometry": {
                "type": "Point",
                "coordinates": [
                    16.383808433399125,
                    52.707860010539044
                ]
            }
        },
        {
            "type": "Feature",
            "properties": {
                "ref:csioz": 1055609,
                "name": "Pod Orłem",
                "addr:street": "Rynek",
                "addr:housenumber": "6",
                "addr:city": "Wronki",
                "addr:postcode": "64-510",
                "amenity": "pharmacy",
                "dispensing": "yes"
            },
            "geometry": {
                "type": "Point",
                "coordinates": [
                    16.374867724519216,
                    52.709896968300704
                ]
            }
        },
        {
            "type": "Feature",
            "properties": {
                "ref:csioz": 1203488,
                "name": "Centrum Zdrowia",
                "addr:street": "Wolności",
                "addr:housenumber": "1",
                "addr:city": "Wronki",
                "addr:postcode": "64-510",
                "amenity": "pharmacy",
                "dispensing": "yes"
            },
            "geometry": {
                "type": "Point",
                "coordinates": [
                    16.374937460747375,
                    52.7083991280576
                ]
            }
        },
        {
            "type": "Feature",
            "properties": {
                "ref:csioz": 1043701,
                "name": "Remedium",
                "addr:street": "Lipowa",
                "addr:housenumber": "4",
                "addr:city": "Grzebienisko",
                "addr:postcode": "64-553",
                "amenity": "pharmacy",
                "dispensing": "yes"
            },
            "geometry": {
                "type": "Point",
                "coordinates": [
                    16.53053744060724,
                    52.43299823921878
                ]
            }
        }
    ]
}