{
    "type": "FeatureCollection",
    "name": "JPT_KOD_JE_3028",
    "features": [
        {
            "type": "Feature",
            "properties": {
                "ref:csioz": 1044024,
                "addr:street": "Podgórna",
                "addr:housenumber": "4B",
                "addr:city": "Łekno",
                "addr:postcode": "62-105",
                "amenity": "pharmacy",
                "dispensing": "yes"
            },
            "geometry": {
                "type": "Point",
                "coordinates": [
                    17.3056381358049,
                    52.84121920572212
                ]
            }
        },
        {
            "type": "Feature",
            "properties": {
                "ref:csioz": 1047785,
                "addr:street": "Kościuszki",
                "addr:housenumber": "7",
                "addr:city": "MIEŚCISKO",
                "addr:postcode": "62-290",
                "amenity": "pharmacy",
                "dispensing": "yes"
            },
            "geometry": {
                "type": "Point",
                "coordinates": [
                    17.33138312024985,
                    52.74551259167342
                ]
            }
        },
        {
            "type": "Feature",
            "properties": {
                "ref:csioz": 1026849,
                "name": "Rodzinna",
                "addr:street": "DŁUGA",
                "addr:housenumber": "1",
                "addr:city": "DAMASŁAWEK",
                "addr:postcode": "62-110",
                "amenity": "pharmacy",
                "dispensing": "yes"
            },
            "geometry": {
                "type": "Point",
                "coordinates": [
                    17.504043893788936,
                    52.838628738492496
                ]
            }
        },
        {
            "type": "Feature",
            "properties": {
                "ref:csioz": 1044569,
                "addr:street": "KOŚCIUSZKI",
                "addr:housenumber": "74",
                "addr:city": "WĄGROWIEC",
                "addr:postcode": "62-100",
                "amenity": "pharmacy",
                "dispensing": "yes"
            },
            "geometry": {
                "type": "Point",
                "coordinates": [
                    17.20444637013796,
                    52.817928516086354
                ]
            }
        },
        {
            "type": "Feature",
            "properties": {
                "ref:csioz": 1042683,
                "name": "Centrum Zdrowia",
                "addr:street": "Reja",
                "addr:housenumber": "59",
                "addr:city": "Wągrowiec",
                "addr:postcode": "62-100",
                "amenity": "pharmacy",
                "dispensing": "yes"
            },
            "geometry": {
                "type": "Point",
                "coordinates": [
                    17.210894072228704,
                    52.81786895748514
                ]
            }
        },
        {
            "type": "Feature",
            "properties": {
                "ref:csioz": 1042694,
                "name": "Apteka 112",
                "addr:street": "Jana Kasprowicza",
                "addr:housenumber": "52",
                "addr:city": "Wągrowiec",
                "addr:postcode": "62-100",
                "amenity": "pharmacy",
                "dispensing": "yes"
            },
            "geometry": {
                "type": "Point",
                "coordinates": [
                    17.208354466041964,
                    52.81328870937572
                ]
            }
        },
        {
            "type": "Feature",
            "properties": {
                "ref:csioz": 1042890,
                "name": "Rodzinna",
                "addr:street": "Rynek",
                "addr:housenumber": "6",
                "addr:city": "Gołańcz",
                "addr:postcode": "62-130",
                "amenity": "pharmacy",
                "dispensing": "yes"
            },
            "geometry": {
                "type": "Point",
                "coordinates": [
                    17.299399963958557,
                    52.94399776626354
                ]
            }
        },
        {
            "type": "Feature",
            "properties": {
                "ref:csioz": 1042921,
                "name": "Osiedlowa",
                "addr:street": "LIBELTA",
                "addr:housenumber": "12",
                "addr:city": "GOŁAŃCZ",
                "addr:postcode": "62-130",
                "amenity": "pharmacy",
                "dispensing": "yes"
            },
            "geometry": {
                "type": "Point",
                "coordinates": [
                    17.302104194408667,
                    52.94012715121962
                ]
            }
        },
        {
            "type": "Feature",
            "properties": {
                "ref:csioz": 1043259,
                "name": "Panaceum",
                "addr:street": "Przemysłowa",
                "addr:housenumber": "38",
                "addr:city": "Wągrowiec",
                "addr:postcode": "62-100",
                "amenity": "pharmacy",
                "dispensing": "yes"
            },
            "geometry": {
                "type": "Point",
                "coordinates": [
                    17.212256482360626,
                    52.81088710458293
                ]
            }
        },
        {
            "type": "Feature",
            "properties": {
                "ref:csioz": 1043326,
                "name": "Farmed",
                "addr:street": "Kościuszki",
                "addr:housenumber": "5",
                "addr:city": "WĄGROWIEC",
                "addr:postcode": "62-100",
                "amenity": "pharmacy",
                "dispensing": "yes"
            },
            "geometry": {
                "type": "Point",
                "coordinates": [
                    17.1986621909919,
                    52.80951897568008
                ]
            }
        },
        {
            "type": "Feature",
            "properties": {
                "ref:csioz": 1043339,
                "addr:street": "Przemysłowa",
                "addr:housenumber": "42",
                "addr:city": "WĄGROWIEC",
                "addr:postcode": "62-100",
                "amenity": "pharmacy",
                "dispensing": "yes"
            },
            "geometry": {
                "type": "Point",
                "coordinates": [
                    17.211821495891165,
                    52.81097691457082
                ]
            }
        },
        {
            "type": "Feature",
            "properties": {
                "ref:csioz": 1043414,
                "addr:street": "Rynek",
                "addr:housenumber": "3",
                "addr:city": "Wągrowiec",
                "addr:postcode": "62-100",
                "amenity": "pharmacy",
                "dispensing": "yes"
            },
            "geometry": {
                "type": "Point",
                "coordinates": [
                    17.199838725382257,
                    52.80618872754204
                ]
            }
        },
        {
            "type": "Feature",
            "properties": {
                "ref:csioz": 1043423,
                "name": "Pod Wagą",
                "addr:street": "Mickiewicza",
                "addr:housenumber": "33",
                "addr:city": "Wągrowiec",
                "addr:postcode": "62-100",
                "amenity": "pharmacy",
                "dispensing": "yes"
            },
            "geometry": {
                "type": "Point",
                "coordinates": [
                    17.20503983976564,
                    52.81607193451634
                ]
            }
        },
        {
            "type": "Feature",
            "properties": {
                "ref:csioz": 1043725,
                "name": "Solanka",
                "addr:street": "Świerczewskiego",
                "addr:housenumber": "6",
                "addr:city": "Wapno",
                "addr:postcode": "62-120",
                "amenity": "pharmacy",
                "dispensing": "yes"
            },
            "geometry": {
                "type": "Point",
                "coordinates": [
                    17.4748829999989,
                    52.90798100001691
                ]
            }
        },
        {
            "type": "Feature",
            "properties": {
                "ref:csioz": 1175708,
                "name": "Arnica",
                "addr:street": "Kcyńska",
                "addr:housenumber": "4",
                "addr:city": "Damasławek",
                "addr:postcode": "62-110",
                "amenity": "pharmacy",
                "dispensing": "yes"
            },
            "geometry": {
                "type": "Point",
                "coordinates": [
                    17.499747774252885,
                    52.84062843132932
                ]
            }
        },
        {
            "type": "Feature",
            "properties": {
                "ref:csioz": 1189227,
                "name": "Doz Apteka Dbam O Zdrowie Kwiaty Polne",
                "addr:street": "11 Listopada",
                "addr:housenumber": "1",
                "addr:city": "Wągrowiec",
                "addr:postcode": "62-100",
                "amenity": "pharmacy",
                "dispensing": "yes"
            },
            "geometry": {
                "type": "Point",
                "coordinates": [
                    17.22960569595546,
                    52.80767827401338
                ]
            }
        },
        {
            "type": "Feature",
            "properties": {
                "ref:csioz": 1217640,
                "name": "Apteka Remedium",
                "addr:street": "ul. Bobrownicka",
                "addr:housenumber": "3",
                "addr:city": "Wągrowiec",
                "addr:postcode": "62-100",
                "amenity": "pharmacy",
                "dispensing": "yes"
            },
            "geometry": {
                "type": "Point",
                "coordinates": [
                    17.18407802252503,
                    52.80862866482106
                ]
            }
        },
        {
            "type": "Feature",
            "properties": {
                "ref:csioz": 1175639,
                "name": "Nasza",
                "addr:street": "Wągrowiecka",
                "addr:housenumber": "4B",
                "addr:city": "Skoki",
                "addr:postcode": "62-085",
                "amenity": "pharmacy",
                "dispensing": "yes"
            },
            "geometry": {
                "type": "Point",
                "coordinates": [
                    17.158445999997987,
                    52.67221100001654
                ]
            }
        },
        {
            "type": "Feature",
            "properties": {
                "ref:csioz": 1175647,
                "name": "Nasza",
                "addr:street": "Wincentego Ciastowicza",
                "addr:housenumber": "13",
                "addr:city": "Skoki",
                "addr:postcode": "62-085",
                "amenity": "pharmacy",
                "dispensing": "yes"
            },
            "geometry": {
                "type": "Point",
                "coordinates": [
                    17.15887874358014,
                    52.67317251020632
                ]
            }
        },
        {
            "type": "Feature",
            "properties": {
                "ref:csioz": 1187712,
                "name": "U Złotego Źródła",
                "addr:street": "Wągrowiecka",
                "addr:housenumber": "3C",
                "addr:city": "Skoki",
                "addr:postcode": "62-085",
                "amenity": "pharmacy",
                "dispensing": "yes"
            },
            "geometry": {
                "type": "Point",
                "coordinates": [
                    17.157751478406613,
                    52.67254128956254
                ]
            }
        },
        {
            "type": "Feature",
            "properties": {
                "ref:csioz": 1044035,
                "name": "Arnika",
                "addr:housenumber": "55",
                "addr:postcode": "62-100",
                "amenity": "pharmacy",
                "addr:place": "Żelice",
                "dispensing": "yes"
            },
            "geometry": {
                "type": "Point",
                "coordinates": [
                    17.07549747822218,
                    52.833374163648166
                ]
            }
        }
    ]
}