{
    "type": "FeatureCollection",
    "name": "JPT_KOD_JE_2261",
    "features": [
        {
            "type": "Feature",
            "properties": {
                "ref:csioz": 1025918,
                "name": "Na Stogach",
                "addr:street": "Hoża",
                "addr:housenumber": "12",
                "addr:city": "Gdańsk",
                "addr:postcode": "80-628",
                "amenity": "pharmacy",
                "dispensing": "yes"
            },
            "geometry": {
                "type": "Point",
                "coordinates": [
                    18.71235487971587,
                    54.3605021746235
                ]
            }
        },
        {
            "type": "Feature",
            "properties": {
                "ref:csioz": 1026390,
                "addr:street": "Podwale Staromiejskie",
                "addr:housenumber": "90",
                "addr:city": "Gdańsk",
                "addr:postcode": "80-844",
                "amenity": "pharmacy",
                "dispensing": "yes"
            },
            "geometry": {
                "type": "Point",
                "coordinates": [
                    18.652765786873452,
                    54.35346226116295
                ]
            }
        },
        {
            "type": "Feature",
            "properties": {
                "ref:csioz": 1026778,
                "addr:street": "Jaskółcza",
                "addr:housenumber": "16",
                "addr:city": "Gdańsk",
                "addr:postcode": "80-767",
                "amenity": "pharmacy",
                "dispensing": "yes"
            },
            "geometry": {
                "type": "Point",
                "coordinates": [
                    18.660381317098466,
                    54.34281001624343
                ]
            }
        },
        {
            "type": "Feature",
            "properties": {
                "ref:csioz": 1027287,
                "name": "Apteka Puls Farm",
                "addr:street": "Wyzwolenia",
                "addr:housenumber": "29",
                "addr:city": "Gdańsk",
                "addr:postcode": "80-537",
                "amenity": "pharmacy",
                "dispensing": "yes"
            },
            "geometry": {
                "type": "Point",
                "coordinates": [
                    18.660746246339116,
                    54.399907523433335
                ]
            }
        },
        {
            "type": "Feature",
            "properties": {
                "ref:csioz": 1027430,
                "name": "Eljax",
                "addr:street": "Kocurki",
                "addr:housenumber": "3",
                "addr:city": "Gdańsk",
                "addr:postcode": "80-822",
                "amenity": "pharmacy",
                "dispensing": "yes"
            },
            "geometry": {
                "type": "Point",
                "coordinates": [
                    18.64942276763491,
                    54.34555266771186
                ]
            }
        },
        {
            "type": "Feature",
            "properties": {
                "ref:csioz": 1027657,
                "name": "Pod Białą Basztą",
                "addr:street": "Łąkowa",
                "addr:housenumber": "16",
                "addr:city": "Gdańsk",
                "addr:postcode": "80-743",
                "amenity": "pharmacy",
                "dispensing": "yes"
            },
            "geometry": {
                "type": "Point",
                "coordinates": [
                    18.661342317890046,
                    54.342477980066924
                ]
            }
        },
        {
            "type": "Feature",
            "properties": {
                "ref:csioz": 1027700,
                "name": "Avena",
                "addr:street": "Teofila Lenartowicza",
                "addr:housenumber": "4A",
                "addr:city": "Gdańsk",
                "addr:postcode": "80-704",
                "amenity": "pharmacy",
                "dispensing": "yes"
            },
            "geometry": {
                "type": "Point",
                "coordinates": [
                    18.684106186051583,
                    54.35696253784798
                ]
            }
        },
        {
            "type": "Feature",
            "properties": {
                "ref:csioz": 1027893,
                "name": "Długie Ogrody",
                "addr:street": "Długie Ogrody",
                "addr:housenumber": "11",
                "addr:city": "Gdańsk",
                "addr:postcode": "80-754",
                "amenity": "pharmacy",
                "dispensing": "yes"
            },
            "geometry": {
                "type": "Point",
                "coordinates": [
                    18.66224675856219,
                    54.34772573856166
                ]
            }
        },
        {
            "type": "Feature",
            "properties": {
                "ref:csioz": 1029811,
                "name": "Dr. Max",
                "addr:street": "Podwale Grodzkie",
                "addr:housenumber": "1",
                "addr:city": "Gdańsk",
                "addr:postcode": "80-895",
                "amenity": "pharmacy",
                "dispensing": "yes"
            },
            "geometry": {
                "type": "Point",
                "coordinates": [
                    18.644600999999835,
                    54.355215000019356
                ]
            }
        },
        {
            "type": "Feature",
            "properties": {
                "ref:csioz": 1030317,
                "name": "Apteka Dbam O Zdrowie",
                "addr:street": "Karmelicka",
                "addr:housenumber": "1",
                "addr:city": "Gdańsk",
                "addr:postcode": "80-851",
                "amenity": "pharmacy",
                "dispensing": "yes"
            },
            "geometry": {
                "type": "Point",
                "coordinates": [
                    18.64650394790553,
                    54.35509972613256
                ]
            }
        },
        {
            "type": "Feature",
            "properties": {
                "ref:csioz": 1031717,
                "name": "Apteka Dbam O Zdrowie",
                "addr:street": "Wałowa",
                "addr:housenumber": "27",
                "addr:city": "Gdańsk",
                "addr:postcode": "80-858",
                "amenity": "pharmacy",
                "dispensing": "yes"
            },
            "geometry": {
                "type": "Point",
                "coordinates": [
                    18.654049628866293,
                    54.35861062322761
                ]
            }
        },
        {
            "type": "Feature",
            "properties": {
                "ref:csioz": 1031730,
                "name": "Apteka Gemini",
                "addr:street": "Łagiewniki",
                "addr:housenumber": "48",
                "addr:city": "Gdańsk",
                "addr:postcode": "80-855",
                "amenity": "pharmacy",
                "dispensing": "yes"
            },
            "geometry": {
                "type": "Point",
                "coordinates": [
                    18.651787889888695,
                    54.3569553938672
                ]
            }
        },
        {
            "type": "Feature",
            "properties": {
                "ref:csioz": 1032021,
                "name": "Apteka Dyżurna",
                "addr:street": "Wilhelma Stryjewskiego",
                "addr:housenumber": "27",
                "addr:city": "Gdańsk",
                "addr:postcode": "80-625",
                "amenity": "pharmacy",
                "dispensing": "yes"
            },
            "geometry": {
                "type": "Point",
                "coordinates": [
                    18.711746899584696,
                    54.36089416935964
                ]
            }
        },
        {
            "type": "Feature",
            "properties": {
                "ref:csioz": 1186374,
                "name": "Apteka Dyżurna",
                "addr:street": "Szafarnia",
                "addr:housenumber": "11",
                "addr:city": "Gdańsk",
                "addr:postcode": "80-755",
                "amenity": "pharmacy",
                "dispensing": "yes"
            },
            "geometry": {
                "type": "Point",
                "coordinates": [
                    18.66067877009246,
                    54.34798150095052
                ]
            }
        },
        {
            "type": "Feature",
            "properties": {
                "ref:csioz": 1027759,
                "name": "Aksamitna",
                "addr:street": "Łagiewniki",
                "addr:housenumber": "52",
                "addr:city": "Gdańsk",
                "addr:postcode": "80-855",
                "amenity": "pharmacy",
                "dispensing": "yes"
            },
            "geometry": {
                "type": "Point",
                "coordinates": [
                    18.65148011987079,
                    54.357210871864055
                ]
            }
        },
        {
            "type": "Feature",
            "properties": {
                "ref:csioz": 1027792,
                "name": "Westerplatte",
                "addr:street": "Oliwska",
                "addr:housenumber": "62",
                "addr:city": "Gdańsk",
                "addr:postcode": "80-563",
                "amenity": "pharmacy",
                "dispensing": "yes"
            },
            "geometry": {
                "type": "Point",
                "coordinates": [
                    18.670727129424037,
                    54.40177727685805
                ]
            }
        },
        {
            "type": "Feature",
            "properties": {
                "ref:csioz": 1027981,
                "name": "Grodzieńska",
                "addr:street": "Podwale Grodzkie",
                "addr:housenumber": "8",
                "addr:city": "Gdańsk",
                "addr:postcode": "80-895",
                "amenity": "pharmacy",
                "dispensing": "yes"
            },
            "geometry": {
                "type": "Point",
                "coordinates": [
                    18.646526255500067,
                    54.355726916406745
                ]
            }
        },
        {
            "type": "Feature",
            "properties": {
                "ref:csioz": 1027997,
                "name": "Elżbietańska",
                "addr:street": "Wilhelma Stryjewskiego",
                "addr:housenumber": "29",
                "addr:city": "Gdańsk",
                "addr:postcode": "80-620",
                "amenity": "pharmacy",
                "dispensing": "yes"
            },
            "geometry": {
                "type": "Point",
                "coordinates": [
                    18.713467999999867,
                    54.36111700001937
                ]
            }
        },
        {
            "type": "Feature",
            "properties": {
                "ref:csioz": 1029680,
                "name": "Na Wyspie",
                "addr:street": "Kolonijna",
                "addr:housenumber": "2",
                "addr:city": "Gdańsk",
                "addr:postcode": "80-680",
                "amenity": "pharmacy",
                "dispensing": "yes"
            },
            "geometry": {
                "type": "Point",
                "coordinates": [
                    18.829305870583916,
                    54.34294219866722
                ]
            }
        },
        {
            "type": "Feature",
            "properties": {
                "ref:csioz": 1029726,
                "name": "Dr. Max",
                "addr:street": "Pańska",
                "addr:housenumber": "6",
                "addr:city": "Gdańsk",
                "addr:postcode": "80-844",
                "amenity": "pharmacy",
                "dispensing": "yes"
            },
            "geometry": {
                "type": "Point",
                "coordinates": [
                    18.651134475558642,
                    54.352259939572654
                ]
            }
        },
        {
            "type": "Feature",
            "properties": {
                "ref:csioz": 1029936,
                "name": "Nad Wisłą",
                "addr:street": "Kryniczna",
                "addr:housenumber": "20",
                "addr:city": "Gdańsk",
                "addr:postcode": "80-708",
                "amenity": "pharmacy",
                "dispensing": "yes"
            },
            "geometry": {
                "type": "Point",
                "coordinates": [
                    18.68359201227002,
                    54.35548468552419
                ]
            }
        },
        {
            "type": "Feature",
            "properties": {
                "ref:csioz": 1030141,
                "name": "Przy Falowcu",
                "addr:street": "Wolności",
                "addr:housenumber": "21 B",
                "addr:city": "Gdańsk",
                "addr:postcode": "80-541",
                "amenity": "pharmacy",
                "dispensing": "yes"
            },
            "geometry": {
                "type": "Point",
                "coordinates": [
                    18.6618931333954,
                    54.40117768603517
                ]
            }
        },
        {
            "type": "Feature",
            "properties": {
                "ref:csioz": 1030178,
                "name": "Rajska",
                "addr:street": "Rajska",
                "addr:housenumber": "10",
                "addr:city": "Gdańsk",
                "addr:postcode": "80-850",
                "amenity": "pharmacy",
                "dispensing": "yes"
            },
            "geometry": {
                "type": "Point",
                "coordinates": [
                    18.64862873093798,
                    54.35626406075105
                ]
            }
        },
        {
            "type": "Feature",
            "properties": {
                "ref:csioz": 1030413,
                "name": "Apteka Dbam O Zdrowie",
                "addr:street": "Szeroka",
                "addr:housenumber": "21",
                "addr:city": "Gdańsk",
                "addr:postcode": "80-835",
                "amenity": "pharmacy",
                "dispensing": "yes"
            },
            "geometry": {
                "type": "Point",
                "coordinates": [
                    18.651819999999827,
                    54.35145000001934
                ]
            }
        },
        {
            "type": "Feature",
            "properties": {
                "ref:csioz": 1031157,
                "name": "Apteka Dyżurna Na Wałach",
                "addr:street": "Wały Jagiellońskie",
                "addr:housenumber": "28",
                "addr:city": "Gdańsk",
                "addr:postcode": "80-853",
                "amenity": "pharmacy",
                "dispensing": "yes"
            },
            "geometry": {
                "type": "Point",
                "coordinates": [
                    18.646438999999837,
                    54.35254100001935
                ]
            }
        },
        {
            "type": "Feature",
            "properties": {
                "ref:csioz": 1033366,
                "name": "Ratuszowa",
                "addr:street": "Długa",
                "addr:housenumber": "54",
                "addr:city": "Gdańsk",
                "addr:postcode": "80-831",
                "amenity": "pharmacy",
                "dispensing": "yes"
            },
            "geometry": {
                "type": "Point",
                "coordinates": [
                    18.65166899999983,
                    54.34905300001933
                ]
            }
        },
        {
            "type": "Feature",
            "properties": {
                "ref:csioz": 1034351,
                "name": "\"Dział Farmacji Szpitalnej W Nzoz 'Invicta' Klinika Zdrowia Kobiety Klinika Leczenia Niepłodności Laboratoria Medyczne\"",
                "addr:street": "Rajska",
                "addr:housenumber": "10",
                "addr:city": "Gdańsk",
                "addr:postcode": "80-850",
                "amenity": "pharmacy",
                "dispensing": "yes"
            },
            "geometry": {
                "type": "Point",
                "coordinates": [
                    18.64862873093798,
                    54.35623406075105
                ]
            }
        },
        {
            "type": "Feature",
            "properties": {
                "ref:csioz": 1188003,
                "name": "Dom Leków",
                "addr:street": "Wilhelma Stryjewskiego",
                "addr:housenumber": "29",
                "addr:city": "Gdańsk",
                "addr:postcode": "80-611",
                "amenity": "pharmacy",
                "dispensing": "yes"
            },
            "geometry": {
                "type": "Point",
                "coordinates": [
                    18.713467999999867,
                    54.36108700001937
                ]
            }
        },
        {
            "type": "Feature",
            "properties": {
                "ref:csioz": 1205418,
                "name": "Cosmedica",
                "addr:street": "Żabi Kruk",
                "addr:housenumber": "10",
                "addr:city": "Gdańsk",
                "addr:postcode": "80-822",
                "amenity": "pharmacy",
                "dispensing": "yes"
            },
            "geometry": {
                "type": "Point",
                "coordinates": [
                    18.648864262136424,
                    54.343847145176596
                ]
            }
        },
        {
            "type": "Feature",
            "properties": {
                "ref:csioz": 1216229,
                "name": "Apteka Gemini",
                "addr:street": "Targ Drzewny",
                "addr:housenumber": "3",
                "addr:city": "Gdańsk",
                "addr:postcode": "80-886",
                "amenity": "pharmacy",
                "dispensing": "yes"
            },
            "geometry": {
                "type": "Point",
                "coordinates": [
                    18.648750999999844,
                    54.35257200001935
                ]
            }
        },
        {
            "type": "Feature",
            "properties": {
                "ref:csioz": 1217202,
                "name": "Pinus-Pharm",
                "addr:street": "Siennicka",
                "addr:housenumber": "9",
                "addr:city": "Gdańsk",
                "addr:postcode": "80-758",
                "amenity": "pharmacy",
                "dispensing": "yes"
            },
            "geometry": {
                "type": "Point",
                "coordinates": [
                    18.681893500963326,
                    54.35673031529373
                ]
            }
        },
        {
            "type": "Feature",
            "properties": {
                "ref:csioz": 1218918,
                "name": "Dział Farmacji Szpitalnej W Zakładzie Leczniczym: Eter-Med 1 Day Clinic",
                "addr:street": "Żabi Kruk",
                "addr:housenumber": "10",
                "addr:city": "Gdańsk",
                "addr:postcode": "80-822",
                "amenity": "pharmacy",
                "dispensing": "yes"
            },
            "geometry": {
                "type": "Point",
                "coordinates": [
                    18.648864262136424,
                    54.343817145176594
                ]
            }
        },
        {
            "type": "Feature",
            "properties": {
                "ref:csioz": 1025899,
                "addr:street": "Dworska",
                "addr:housenumber": "27",
                "addr:city": "Gdańsk",
                "addr:postcode": "80-506",
                "amenity": "pharmacy",
                "dispensing": "yes"
            },
            "geometry": {
                "type": "Point",
                "coordinates": [
                    18.628768488974522,
                    54.404393631677856
                ]
            }
        },
        {
            "type": "Feature",
            "properties": {
                "ref:csioz": 1026294,
                "addr:street": "Kartuska",
                "addr:housenumber": "114",
                "addr:city": "Gdańsk",
                "addr:postcode": "80-104",
                "amenity": "pharmacy",
                "dispensing": "yes"
            },
            "geometry": {
                "type": "Point",
                "coordinates": [
                    18.619783037914022,
                    54.34872179240713
                ]
            }
        },
        {
            "type": "Feature",
            "properties": {
                "ref:csioz": 1026599,
                "name": "Nad Strzyżą",
                "addr:street": "Partyzantów",
                "addr:housenumber": "103A",
                "addr:city": "Gdańsk",
                "addr:postcode": "80-254",
                "amenity": "pharmacy",
                "dispensing": "yes"
            },
            "geometry": {
                "type": "Point",
                "coordinates": [
                    18.58351681854577,
                    54.37867804410026
                ]
            }
        },
        {
            "type": "Feature",
            "properties": {
                "ref:csioz": 1026755,
                "addr:street": "Kaprów",
                "addr:housenumber": "4",
                "addr:city": "Gdańsk",
                "addr:postcode": "80-316",
                "amenity": "pharmacy",
                "dispensing": "yes"
            },
            "geometry": {
                "type": "Point",
                "coordinates": [
                    18.566703927957693,
                    54.40818823851192
                ]
            }
        },
        {
            "type": "Feature",
            "properties": {
                "ref:csioz": 1026764,
                "name": "Apteka Osiedlowa",
                "addr:street": "ks. Bernarda Sychty",
                "addr:housenumber": "10A",
                "addr:city": "Gdańsk",
                "addr:postcode": "80-212",
                "amenity": "pharmacy",
                "dispensing": "yes"
            },
            "geometry": {
                "type": "Point",
                "coordinates": [
                    18.582864339566246,
                    54.38627892381622
                ]
            }
        },
        {
            "type": "Feature",
            "properties": {
                "ref:csioz": 1026801,
                "name": "\"Apteka \"\"Bratek\"\"\"",
                "addr:street": "Jaśkowa Dolina",
                "addr:housenumber": "105",
                "addr:city": "Gdańsk",
                "addr:postcode": "80-826",
                "amenity": "pharmacy",
                "dispensing": "yes"
            },
            "geometry": {
                "type": "Point",
                "coordinates": [
                    18.586218699783608,
                    54.358215351829514
                ]
            }
        },
        {
            "type": "Feature",
            "properties": {
                "ref:csioz": 1027233,
                "addr:street": "Leśna Góra",
                "addr:housenumber": "58",
                "addr:city": "Gdańsk",
                "addr:postcode": "80-281",
                "amenity": "pharmacy",
                "dispensing": "yes"
            },
            "geometry": {
                "type": "Point",
                "coordinates": [
                    18.563779241486664,
                    54.37323875102984
                ]
            }
        },
        {
            "type": "Feature",
            "properties": {
                "ref:csioz": 1027425,
                "name": "Apteka Brzeźno",
                "addr:street": "Konrada Korzeniowskiego",
                "addr:housenumber": "13",
                "addr:city": "Gdańsk",
                "addr:postcode": "80-508",
                "amenity": "pharmacy",
                "dispensing": "yes"
            },
            "geometry": {
                "type": "Point",
                "coordinates": [
                    18.634079186983072,
                    54.40655585853951
                ]
            }
        },
        {
            "type": "Feature",
            "properties": {
                "ref:csioz": 1027924,
                "name": "Ujeścisko",
                "addr:street": "Płocka",
                "addr:housenumber": "5",
                "addr:city": "Gdańsk",
                "addr:postcode": "80-180",
                "amenity": "pharmacy",
                "dispensing": "yes"
            },
            "geometry": {
                "type": "Point",
                "coordinates": [
                    18.595724421878558,
                    54.327207603178266
                ]
            }
        },
        {
            "type": "Feature",
            "properties": {
                "ref:csioz": 1028099,
                "name": "Calamus",
                "addr:street": "Grunwaldzka",
                "addr:housenumber": "52",
                "addr:city": "Gdańsk",
                "addr:postcode": "80-241",
                "amenity": "pharmacy",
                "dispensing": "yes"
            },
            "geometry": {
                "type": "Point",
                "coordinates": [
                    18.612328347372276,
                    54.37625075671955
                ]
            }
        },
        {
            "type": "Feature",
            "properties": {
                "ref:csioz": 1028116,
                "name": "Dr. Max",
                "addr:street": "Marii Skłodowskiej-Curie",
                "addr:housenumber": "5",
                "addr:city": "Gdańsk",
                "addr:postcode": "80-210",
                "amenity": "pharmacy",
                "dispensing": "yes"
            },
            "geometry": {
                "type": "Point",
                "coordinates": [
                    18.627864606261472,
                    54.36645282703171
                ]
            }
        },
        {
            "type": "Feature",
            "properties": {
                "ref:csioz": 1028127,
                "name": "Przy Rynku",
                "addr:street": "Danusi",
                "addr:housenumber": "4A",
                "addr:city": "Gdańsk",
                "addr:postcode": "80-434",
                "amenity": "pharmacy",
                "dispensing": "yes"
            },
            "geometry": {
                "type": "Point",
                "coordinates": [
                    18.61469133130693,
                    54.38094767388114
                ]
            }
        },
        {
            "type": "Feature",
            "properties": {
                "ref:csioz": 1028815,
                "name": "Sanitas",
                "addr:street": "gen. Leopolda Okulickiego",
                "addr:housenumber": "2E",
                "addr:city": "Gdańsk",
                "addr:postcode": "80-041",
                "amenity": "pharmacy",
                "dispensing": "yes"
            },
            "geometry": {
                "type": "Point",
                "coordinates": [
                    18.611473807197083,
                    54.324870788430275
                ]
            }
        },
        {
            "type": "Feature",
            "properties": {
                "ref:csioz": 1028890,
                "name": "Apteka Biwakowa",
                "addr:street": "Biwakowa",
                "addr:housenumber": "3",
                "addr:city": "Gdańsk",
                "addr:postcode": "80-299",
                "amenity": "pharmacy",
                "dispensing": "yes"
            },
            "geometry": {
                "type": "Point",
                "coordinates": [
                    18.47138099014995,
                    54.42594556587341
                ]
            }
        },
        {
            "type": "Feature",
            "properties": {
                "ref:csioz": 1028984,
                "name": "Apteka Recepturowa",
                "addr:street": "Jana Matejki",
                "addr:housenumber": "3",
                "addr:city": "Gdańsk",
                "addr:postcode": "80-232",
                "amenity": "pharmacy",
                "dispensing": "yes"
            },
            "geometry": {
                "type": "Point",
                "coordinates": [
                    18.611817246097996,
                    54.374791551271585
                ]
            }
        },
        {
            "type": "Feature",
            "properties": {
                "ref:csioz": 1029343,
                "name": "Prima",
                "addr:street": "Piecewska",
                "addr:housenumber": "26",
                "addr:city": "Gdańsk",
                "addr:postcode": "80-288",
                "amenity": "pharmacy",
                "dispensing": "yes"
            },
            "geometry": {
                "type": "Point",
                "coordinates": [
                    18.583967903328496,
                    54.359458502547795
                ]
            }
        },
        {
            "type": "Feature",
            "properties": {
                "ref:csioz": 1029362,
                "addr:street": "Gospody",
                "addr:housenumber": "19A",
                "addr:city": "Gdańsk",
                "addr:postcode": "80-340",
                "amenity": "pharmacy",
                "dispensing": "yes"
            },
            "geometry": {
                "type": "Point",
                "coordinates": [
                    18.579818471360525,
                    54.42299288873725
                ]
            }
        },
        {
            "type": "Feature",
            "properties": {
                "ref:csioz": 1029589,
                "name": "Apteka Vii Dwór",
                "addr:street": "Piotra Norblina",
                "addr:housenumber": "28",
                "addr:city": "Gdańsk",
                "addr:postcode": "80-304",
                "amenity": "pharmacy",
                "dispensing": "yes"
            },
            "geometry": {
                "type": "Point",
                "coordinates": [
                    18.56881140785386,
                    54.38948011887795
                ]
            }
        },
        {
            "type": "Feature",
            "properties": {
                "ref:csioz": 1030052,
                "name": "Doz Apteka. Dbam O Zdrowie. Św. Krzysztofa",
                "addr:street": "Grunwaldzka",
                "addr:housenumber": "60",
                "addr:city": "Gdańsk",
                "addr:postcode": "80-241",
                "amenity": "pharmacy",
                "dispensing": "yes"
            },
            "geometry": {
                "type": "Point",
                "coordinates": [
                    18.61131148187366,
                    54.37658977802092
                ]
            }
        },
        {
            "type": "Feature",
            "properties": {
                "ref:csioz": 1030212,
                "name": "Apteka Dyżurna",
                "addr:street": "Kołobrzeska",
                "addr:housenumber": "32",
                "addr:city": "Gdańsk",
                "addr:postcode": "80-390",
                "amenity": "pharmacy",
                "dispensing": "yes"
            },
            "geometry": {
                "type": "Point",
                "coordinates": [
                    18.58776878962569,
                    54.40324264242685
                ]
            }
        },
        {
            "type": "Feature",
            "properties": {
                "ref:csioz": 1030301,
                "name": "Manhattan",
                "addr:street": "Grunwaldzka",
                "addr:housenumber": "82",
                "addr:city": "Gdańsk",
                "addr:postcode": "80-244",
                "amenity": "pharmacy",
                "dispensing": "yes"
            },
            "geometry": {
                "type": "Point",
                "coordinates": [
                    18.60776143970483,
                    54.37751865002049
                ]
            }
        },
        {
            "type": "Feature",
            "properties": {
                "ref:csioz": 1030325,
                "name": "Tradycyjna",
                "addr:street": "Jana Kozietulskiego",
                "addr:housenumber": "1",
                "addr:city": "Gdańsk",
                "addr:postcode": "80-136",
                "amenity": "pharmacy",
                "dispensing": "yes"
            },
            "geometry": {
                "type": "Point",
                "coordinates": [
                    18.629969525058247,
                    54.35641203185323
                ]
            }
        },
        {
            "type": "Feature",
            "properties": {
                "ref:csioz": 1030484,
                "name": "Apteka Dbam O Zdrowie",
                "addr:street": "Ostrołęcka",
                "addr:housenumber": "3",
                "addr:city": "Gdańsk",
                "addr:postcode": "80-180",
                "amenity": "pharmacy",
                "dispensing": "yes"
            },
            "geometry": {
                "type": "Point",
                "coordinates": [
                    18.58667000439788,
                    54.33084843864356
                ]
            }
        },
        {
            "type": "Feature",
            "properties": {
                "ref:csioz": 1030691,
                "name": "Apteka Osowa",
                "addr:street": "Eugeniusza Kwiatkowskiego",
                "addr:housenumber": "11D",
                "addr:city": "Gdańsk",
                "addr:postcode": "80-299",
                "amenity": "pharmacy",
                "dispensing": "yes"
            },
            "geometry": {
                "type": "Point",
                "coordinates": [
                    18.468670090562664,
                    54.431057584475674
                ]
            }
        },
        {
            "type": "Feature",
            "properties": {
                "ref:csioz": 1030862,
                "name": "Doz Apteka. Dbam O Zdrowie. Herba",
                "addr:street": "Adama Mickiewicza",
                "addr:housenumber": "1",
                "addr:city": "Gdańsk",
                "addr:postcode": "80-425",
                "amenity": "pharmacy",
                "dispensing": "yes"
            },
            "geometry": {
                "type": "Point",
                "coordinates": [
                    18.616022999999817,
                    54.3829180000194
                ]
            }
        },
        {
            "type": "Feature",
            "properties": {
                "ref:csioz": 1030870,
                "name": "Antidotum",
                "addr:street": "gen. Józefa Sowińskiego",
                "addr:housenumber": "2",
                "addr:city": "Gdańsk",
                "addr:postcode": "80-143",
                "amenity": "pharmacy",
                "dispensing": "yes"
            },
            "geometry": {
                "type": "Point",
                "coordinates": [
                    18.62911703058839,
                    54.350180317495784
                ]
            }
        },
        {
            "type": "Feature",
            "properties": {
                "ref:csioz": 1031087,
                "name": "Apteka Dbam O Zdrowie",
                "addr:street": "Gdyńska",
                "addr:housenumber": "3A",
                "addr:city": "Gdańsk",
                "addr:postcode": "80-340",
                "amenity": "pharmacy",
                "dispensing": "yes"
            },
            "geometry": {
                "type": "Point",
                "coordinates": [
                    18.577528872090262,
                    54.420853589234376
                ]
            }
        },
        {
            "type": "Feature",
            "properties": {
                "ref:csioz": 1031508,
                "name": "Super-Pharm",
                "addr:street": "Grunwaldzka",
                "addr:housenumber": "141",
                "addr:city": "Gdańsk",
                "addr:postcode": "80-264",
                "amenity": "pharmacy",
                "dispensing": "yes"
            },
            "geometry": {
                "type": "Point",
                "coordinates": [
                    18.60019488997827,
                    54.38192301731682
                ]
            }
        },
        {
            "type": "Feature",
            "properties": {
                "ref:csioz": 1032469,
                "name": "Polska",
                "addr:street": "Jana Pawła II",
                "addr:housenumber": "6D",
                "addr:city": "Gdańsk",
                "addr:postcode": "80-462",
                "amenity": "pharmacy",
                "dispensing": "yes"
            },
            "geometry": {
                "type": "Point",
                "coordinates": [
                    18.599736999999813,
                    54.391606000019415
                ]
            }
        },
        {
            "type": "Feature",
            "properties": {
                "ref:csioz": 1031944,
                "name": "\"Apteka \"\"Polska\"\"\"",
                "addr:street": "Konstantego Ildefonsa Gałczyńskiego",
                "addr:housenumber": "4",
                "addr:city": "Gdańsk",
                "addr:postcode": "80-526",
                "amenity": "pharmacy",
                "dispensing": "yes"
            },
            "geometry": {
                "type": "Point",
                "coordinates": [
                    18.639530459244376,
                    54.40669935132094
                ]
            }
        },
        {
            "type": "Feature",
            "properties": {
                "ref:csioz": 1032255,
                "name": "Źródło Zdrowia",
                "addr:street": "Obrońców Wybrzeża",
                "addr:housenumber": "1",
                "addr:city": "Gdańsk",
                "addr:postcode": "80-398",
                "amenity": "pharmacy",
                "dispensing": "yes"
            },
            "geometry": {
                "type": "Point",
                "coordinates": [
                    18.592292863513062,
                    54.40902214016883
                ]
            }
        },
        {
            "type": "Feature",
            "properties": {
                "ref:csioz": 1032381,
                "name": "Apteka Gemini",
                "addr:street": "Kołobrzeska",
                "addr:housenumber": "63F",
                "addr:city": "Gdańsk",
                "addr:postcode": "80-397",
                "amenity": "pharmacy",
                "dispensing": "yes"
            },
            "geometry": {
                "type": "Point",
                "coordinates": [
                    18.59904214448087,
                    54.40545873036267
                ]
            }
        },
        {
            "type": "Feature",
            "properties": {
                "ref:csioz": 1032590,
                "name": "Apteka Dyżurna",
                "addr:street": "Grunwaldzka",
                "addr:housenumber": "100",
                "addr:city": "Gdańsk",
                "addr:postcode": "80-244",
                "amenity": "pharmacy",
                "dispensing": "yes"
            },
            "geometry": {
                "type": "Point",
                "coordinates": [
                    18.60612565264055,
                    54.37820287486314
                ]
            }
        },
        {
            "type": "Feature",
            "properties": {
                "ref:csioz": 1032614,
                "name": "Morena",
                "addr:street": "Zofii Nałkowskiej",
                "addr:housenumber": "3",
                "addr:city": "Gdańsk",
                "addr:postcode": "80-288",
                "amenity": "pharmacy",
                "dispensing": "yes"
            },
            "geometry": {
                "type": "Point",
                "coordinates": [
                    18.590543107379567,
                    54.35994205246562
                ]
            }
        },
        {
            "type": "Feature",
            "properties": {
                "ref:csioz": 1032833,
                "name": "Apteka Polanki",
                "addr:street": "Polanki",
                "addr:housenumber": "7",
                "addr:city": "Gdańsk",
                "addr:postcode": "80-308",
                "amenity": "pharmacy",
                "dispensing": "yes"
            },
            "geometry": {
                "type": "Point",
                "coordinates": [
                    18.559834575033538,
                    54.40682731022327
                ]
            }
        },
        {
            "type": "Feature",
            "properties": {
                "ref:csioz": 1032961,
                "name": "\"Apteka Cef@Rm 36,6\"",
                "addr:street": "Startowa",
                "addr:housenumber": "6",
                "addr:city": "Gdańsk",
                "addr:postcode": "80-461",
                "amenity": "pharmacy",
                "dispensing": "yes"
            },
            "geometry": {
                "type": "Point",
                "coordinates": [
                    18.595952261125635,
                    54.39723831204483
                ]
            }
        },
        {
            "type": "Feature",
            "properties": {
                "ref:csioz": 1033315,
                "name": "Trzy Żagle",
                "addr:street": "Olsztyńska",
                "addr:housenumber": "3C",
                "addr:city": "Gdańsk",
                "addr:postcode": "80-395",
                "amenity": "pharmacy",
                "dispensing": "yes"
            },
            "geometry": {
                "type": "Point",
                "coordinates": [
                    18.60662824912687,
                    54.40527226183666
                ]
            }
        },
        {
            "type": "Feature",
            "properties": {
                "ref:csioz": 1034133,
                "name": "Apteka Szpitalna W Zakładzie Leczniczym: Uniwersyteckie Centrum Kliniczne - Szpital",
                "addr:street": "Mariana Smoluchowskiego",
                "addr:housenumber": "17",
                "addr:city": "Gdańsk",
                "addr:postcode": "80-214",
                "amenity": "pharmacy",
                "dispensing": "yes"
            },
            "geometry": {
                "type": "Point",
                "coordinates": [
                    18.619541503481045,
                    54.36589349855454
                ]
            }
        },
        {
            "type": "Feature",
            "properties": {
                "ref:csioz": 1111256,
                "name": "Multiapteka",
                "addr:street": "Myśliwska",
                "addr:housenumber": "102",
                "addr:city": "Gdańsk",
                "addr:postcode": "80-283",
                "amenity": "pharmacy",
                "dispensing": "yes"
            },
            "geometry": {
                "type": "Point",
                "coordinates": [
                    18.55624496583984,
                    54.350805983854606
                ]
            }
        },
        {
            "type": "Feature",
            "properties": {
                "ref:csioz": 1112426,
                "name": "Słoneczna",
                "addr:street": "marsz. Ferdynanda Focha",
                "addr:housenumber": "8/7",
                "addr:city": "Gdańsk",
                "addr:postcode": "80-156",
                "amenity": "pharmacy",
                "dispensing": "yes"
            },
            "geometry": {
                "type": "Point",
                "coordinates": [
                    18.62703499999982,
                    54.35862600001938
                ]
            }
        },
        {
            "type": "Feature",
            "properties": {
                "ref:csioz": 1112405,
                "name": "\"Słowiańska S.C.\"\"\"",
                "addr:street": "Piastowska",
                "addr:housenumber": "90E",
                "addr:city": "Gdańsk",
                "addr:postcode": "80-329",
                "amenity": "pharmacy",
                "dispensing": "yes"
            },
            "geometry": {
                "type": "Point",
                "coordinates": [
                    18.59069927109432,
                    54.41667929868187
                ]
            }
        },
        {
            "type": "Feature",
            "properties": {
                "ref:csioz": 1112586,
                "name": "Apteka Dyżurna",
                "addr:street": "Klonowa",
                "addr:housenumber": "4A",
                "addr:city": "Gdańsk",
                "addr:postcode": "80-264",
                "amenity": "pharmacy",
                "dispensing": "yes"
            },
            "geometry": {
                "type": "Point",
                "coordinates": [
                    18.60464967702978,
                    54.38052821402344
                ]
            }
        },
        {
            "type": "Feature",
            "properties": {
                "ref:csioz": 1113399,
                "name": "Gemini",
                "addr:street": "Trzy Lipy",
                "addr:housenumber": "3",
                "addr:city": "Gdańsk",
                "addr:postcode": "80-172",
                "amenity": "pharmacy",
                "dispensing": "yes"
            },
            "geometry": {
                "type": "Point",
                "coordinates": [
                    18.59377851831555,
                    54.35513126263988
                ]
            }
        },
        {
            "type": "Feature",
            "properties": {
                "ref:csioz": 1113385,
                "name": "\"Rodzinna Spółka Cywilna\"\"\"",
                "addr:street": "Koziorożca",
                "addr:housenumber": "2",
                "addr:city": "Gdańsk",
                "addr:postcode": "80-299",
                "amenity": "pharmacy",
                "dispensing": "yes"
            },
            "geometry": {
                "type": "Point",
                "coordinates": [
                    18.473074880174583,
                    54.42541236522005
                ]
            }
        },
        {
            "type": "Feature",
            "properties": {
                "ref:csioz": 1114094,
                "name": "Dział Farmacji Szpitalnej W Centrum Medycyny Specjalistycznej Sanitas",
                "addr:street": "Pilotów",
                "addr:housenumber": "21",
                "addr:city": "Gdańsk",
                "addr:postcode": "80-460",
                "amenity": "pharmacy",
                "dispensing": "yes"
            },
            "geometry": {
                "type": "Point",
                "coordinates": [
                    18.58826303264355,
                    54.39582042244315
                ]
            }
        },
        {
            "type": "Feature",
            "properties": {
                "ref:csioz": 1116390,
                "name": "Dział Farmacji Szpitalnej W Swissmed Szpital",
                "addr:street": "Wileńska",
                "addr:housenumber": "44",
                "addr:city": "Gdańsk",
                "addr:postcode": "80-215",
                "amenity": "pharmacy",
                "dispensing": "yes"
            },
            "geometry": {
                "type": "Point",
                "coordinates": [
                    18.604259898719512,
                    54.361784390844434
                ]
            }
        },
        {
            "type": "Feature",
            "properties": {
                "ref:csioz": 1118563,
                "name": "Nasza",
                "addr:street": "Jana Pawła II",
                "addr:housenumber": "11C",
                "addr:city": "Gdańsk",
                "addr:postcode": "80-462",
                "amenity": "pharmacy",
                "dispensing": "yes"
            },
            "geometry": {
                "type": "Point",
                "coordinates": [
                    18.608564472042065,
                    54.401486754540514
                ]
            }
        },
        {
            "type": "Feature",
            "properties": {
                "ref:csioz": 1125005,
                "name": "Apteka Bałtycka",
                "addr:street": "Myśliwska",
                "addr:housenumber": "72",
                "addr:city": "Gdańsk",
                "addr:postcode": "80-283",
                "amenity": "pharmacy",
                "dispensing": "yes"
            },
            "geometry": {
                "type": "Point",
                "coordinates": [
                    18.56243544377239,
                    54.35087073661783
                ]
            }
        },
        {
            "type": "Feature",
            "properties": {
                "ref:csioz": 1139622,
                "name": "Apteka Szpitalna W Pomorskim Centrum Chorób Zakaźnych I Gruźlicy",
                "addr:street": "Mariana Smoluchowskiego",
                "addr:housenumber": "18",
                "addr:city": "Gdańsk",
                "addr:postcode": "80-214",
                "amenity": "pharmacy",
                "dispensing": "yes"
            },
            "geometry": {
                "type": "Point",
                "coordinates": [
                    18.616617706680106,
                    54.36411971785804
                ]
            }
        },
        {
            "type": "Feature",
            "properties": {
                "ref:csioz": 1139723,
                "name": "Apteka Zakładowa W Zakładzie Leczniczym: Szpital Aresztu Śledczego W Gdańsku",
                "addr:street": "Kurkowa",
                "addr:housenumber": "12",
                "addr:city": "Gdańsk",
                "addr:postcode": "80-803",
                "amenity": "pharmacy",
                "dispensing": "yes"
            },
            "geometry": {
                "type": "Point",
                "coordinates": [
                    18.638754898167917,
                    54.35308008092473
                ]
            }
        },
        {
            "type": "Feature",
            "properties": {
                "ref:csioz": 1218384,
                "name": "Medapteka",
                "addr:street": "Zofii Nałkowskiej",
                "addr:housenumber": "1",
                "addr:city": "Gdańsk",
                "addr:postcode": "80-286",
                "amenity": "pharmacy",
                "dispensing": "yes"
            },
            "geometry": {
                "type": "Point",
                "coordinates": [
                    18.590665722331916,
                    54.360682324209606
                ]
            }
        },
        {
            "type": "Feature",
            "properties": {
                "ref:csioz": 1185058,
                "name": "Apteka Pomorska",
                "addr:street": "Pomorska",
                "addr:housenumber": "92",
                "addr:city": "Gdańsk",
                "addr:postcode": "80-333",
                "amenity": "pharmacy",
                "dispensing": "yes"
            },
            "geometry": {
                "type": "Point",
                "coordinates": [
                    18.578577661850176,
                    54.4179472856389
                ]
            }
        },
        {
            "type": "Feature",
            "properties": {
                "ref:csioz": 1185063,
                "name": "Apteka Dyżurna",
                "addr:street": "Jana Pawła II",
                "addr:housenumber": "50",
                "addr:city": "Gdańsk",
                "addr:postcode": "80-462",
                "amenity": "pharmacy",
                "dispensing": "yes"
            },
            "geometry": {
                "type": "Point",
                "coordinates": [
                    18.61221210303855,
                    54.40312696181491
                ]
            }
        },
        {
            "type": "Feature",
            "properties": {
                "ref:csioz": 1189376,
                "name": "Apteka Szymanowskiego",
                "addr:street": "Karola Szymanowskiego",
                "addr:housenumber": "14",
                "addr:city": "Gdańsk",
                "addr:postcode": "80-280",
                "amenity": "pharmacy",
                "dispensing": "yes"
            },
            "geometry": {
                "type": "Point",
                "coordinates": [
                    18.58860542744984,
                    54.38393098496221
                ]
            }
        },
        {
            "type": "Feature",
            "properties": {
                "ref:csioz": 1199014,
                "name": "Avena",
                "addr:street": "Piekarnicza",
                "addr:housenumber": "3",
                "addr:city": "Gdańsk",
                "addr:postcode": "80-126",
                "amenity": "pharmacy",
                "dispensing": "yes"
            },
            "geometry": {
                "type": "Point",
                "coordinates": [
                    18.586026660665024,
                    54.35079641495828
                ]
            }
        },
        {
            "type": "Feature",
            "properties": {
                "ref:csioz": 1205681,
                "name": "Doz Apteka Dbam O Zdrowie",
                "addr:street": "Rzeczypospolitej",
                "addr:housenumber": "33",
                "addr:city": "Gdańsk",
                "addr:postcode": "80-463",
                "amenity": "pharmacy",
                "dispensing": "yes"
            },
            "geometry": {
                "type": "Point",
                "coordinates": [
                    18.609542903823243,
                    54.38967329176393
                ]
            }
        },
        {
            "type": "Feature",
            "properties": {
                "ref:csioz": 1212408,
                "name": "Apteka W Metropolii",
                "addr:street": "Jana Kilińskiego",
                "addr:housenumber": "1-5",
                "addr:city": "Gdańsk",
                "addr:postcode": "80-452",
                "amenity": "pharmacy",
                "dispensing": "yes"
            },
            "geometry": {
                "type": "Point",
                "coordinates": [
                    18.60695268687614,
                    54.38245499731137
                ]
            }
        },
        {
            "type": "Feature",
            "properties": {
                "ref:csioz": 1213921,
                "name": "Cosmedica",
                "addr:street": "Czerwony Dwór",
                "addr:housenumber": "24",
                "addr:city": "Gdańsk",
                "addr:postcode": "80-376",
                "amenity": "pharmacy",
                "dispensing": "yes"
            },
            "geometry": {
                "type": "Point",
                "coordinates": [
                    18.586687438497876,
                    54.412201637041214
                ]
            }
        },
        {
            "type": "Feature",
            "properties": {
                "ref:csioz": 1216125,
                "name": "Apteka Szpitalna W Zakładzie Leczniczym: Szpital Srebrzysko",
                "addr:street": "Srebrniki",
                "addr:housenumber": "17",
                "addr:city": "Gdańsk",
                "addr:postcode": "80-282",
                "amenity": "pharmacy",
                "dispensing": "yes"
            },
            "geometry": {
                "type": "Point",
                "coordinates": [
                    18.57649841677344,
                    54.37489115061739
                ]
            }
        },
        {
            "type": "Feature",
            "properties": {
                "ref:csioz": 1219789,
                "addr:street": "Piotrkowska",
                "addr:housenumber": "25",
                "addr:city": "Gdańsk",
                "addr:postcode": "80-180",
                "amenity": "pharmacy",
                "dispensing": "yes"
            },
            "geometry": {
                "type": "Point",
                "coordinates": [
                    18.58274101653965,
                    54.3285702766247
                ]
            }
        },
        {
            "type": "Feature",
            "properties": {
                "ref:csioz": 1219790,
                "name": "Cosmedica",
                "addr:street": "Józefa Żylewicza",
                "addr:housenumber": "2",
                "addr:city": "Gdańsk",
                "addr:postcode": "80-288",
                "amenity": "pharmacy",
                "dispensing": "yes"
            },
            "geometry": {
                "type": "Point",
                "coordinates": [
                    18.577447219139792,
                    54.359198410632985
                ]
            }
        },
        {
            "type": "Feature",
            "properties": {
                "ref:csioz": 1225114,
                "name": "Apteka Gemini",
                "addr:street": "Franciszka Rakoczego",
                "addr:housenumber": "\"9, 11\"",
                "addr:city": "Gdańsk",
                "addr:postcode": "80-288",
                "amenity": "pharmacy",
                "dispensing": "yes"
            },
            "geometry": {
                "type": "Point",
                "coordinates": [
                    18.580398258601974,
                    54.358237009234244
                ]
            }
        },
        {
            "type": "Feature",
            "properties": {
                "ref:csioz": 1029416,
                "name": "Natura",
                "addr:street": "Gospody",
                "addr:housenumber": "3B",
                "addr:city": "Gdańsk",
                "addr:postcode": "80-344",
                "amenity": "pharmacy",
                "dispensing": "yes"
            },
            "geometry": {
                "type": "Point",
                "coordinates": [
                    18.583847299303763,
                    54.42074190616766
                ]
            }
        },
        {
            "type": "Feature",
            "properties": {
                "ref:csioz": 1029760,
                "name": "Millennium",
                "addr:street": "Gościnna",
                "addr:housenumber": "3",
                "addr:city": "Gdańsk",
                "addr:postcode": "80-043",
                "amenity": "pharmacy",
                "dispensing": "yes"
            },
            "geometry": {
                "type": "Point",
                "coordinates": [
                    18.631698088970133,
                    54.32274342724163
                ]
            }
        },
        {
            "type": "Feature",
            "properties": {
                "ref:csioz": 1031495,
                "name": "Rodzinna",
                "addr:street": "Wacława Balcerskiego",
                "addr:housenumber": "2",
                "addr:city": "Gdańsk",
                "addr:postcode": "80-299",
                "amenity": "pharmacy",
                "dispensing": "yes"
            },
            "geometry": {
                "type": "Point",
                "coordinates": [
                    18.470571419429916,
                    54.43174172727636
                ]
            }
        },
        {
            "type": "Feature",
            "properties": {
                "ref:csioz": 1026613,
                "addr:street": "Tadeusza Kościuszki",
                "addr:housenumber": "12",
                "addr:city": "Gdańsk",
                "addr:postcode": "80-451",
                "amenity": "pharmacy",
                "dispensing": "yes"
            },
            "geometry": {
                "type": "Point",
                "coordinates": [
                    18.60605760552164,
                    54.38646608465513
                ]
            }
        },
        {
            "type": "Feature",
            "properties": {
                "ref:csioz": 1026659,
                "addr:street": "Szczecińska",
                "addr:housenumber": "23",
                "addr:city": "Gdańsk",
                "addr:postcode": "80-392",
                "amenity": "pharmacy",
                "dispensing": "yes"
            },
            "geometry": {
                "type": "Point",
                "coordinates": [
                    18.581345082052277,
                    54.4030260296235
                ]
            }
        },
        {
            "type": "Feature",
            "properties": {
                "ref:csioz": 1026729,
                "name": "Diamentowa",
                "addr:street": "Diamentowa",
                "addr:housenumber": "3",
                "addr:city": "Gdańsk",
                "addr:postcode": "80-028",
                "amenity": "pharmacy",
                "dispensing": "yes"
            },
            "geometry": {
                "type": "Point",
                "coordinates": [
                    18.631416551677844,
                    54.327021527878046
                ]
            }
        },
        {
            "type": "Feature",
            "properties": {
                "ref:csioz": 1026830,
                "name": "Doz Apteka Dbam O Zdrowie",
                "addr:street": "Kołobrzeska",
                "addr:housenumber": "46",
                "addr:city": "Gdańsk",
                "addr:postcode": "80-391",
                "amenity": "pharmacy",
                "dispensing": "yes"
            },
            "geometry": {
                "type": "Point",
                "coordinates": [
                    18.599520417556246,
                    54.405009555564135
                ]
            }
        },
        {
            "type": "Feature",
            "properties": {
                "ref:csioz": 1027342,
                "name": "Orlik",
                "addr:street": "Władysława Cieszyńskiego",
                "addr:housenumber": "38",
                "addr:city": "Gdańsk",
                "addr:postcode": "80-809",
                "amenity": "pharmacy",
                "dispensing": "yes"
            },
            "geometry": {
                "type": "Point",
                "coordinates": [
                    18.612588388463607,
                    54.33697513732963
                ]
            }
        },
        {
            "type": "Feature",
            "properties": {
                "ref:csioz": 1027350,
                "name": "Słowiańska",
                "addr:street": "Józefa Czyżewskiego",
                "addr:housenumber": "14",
                "addr:city": "Gdańsk",
                "addr:postcode": "80-336",
                "amenity": "pharmacy",
                "dispensing": "yes"
            },
            "geometry": {
                "type": "Point",
                "coordinates": [
                    18.55776680564045,
                    54.41602248423316
                ]
            }
        },
        {
            "type": "Feature",
            "properties": {
                "ref:csioz": 1027474,
                "name": "Salix S.C.",
                "addr:street": "Juliusza Słowackiego",
                "addr:housenumber": "37",
                "addr:city": "Gdańsk",
                "addr:postcode": "80-257",
                "amenity": "pharmacy",
                "dispensing": "yes"
            },
            "geometry": {
                "type": "Point",
                "coordinates": [
                    18.586766969526767,
                    54.38022390592585
                ]
            }
        },
        {
            "type": "Feature",
            "properties": {
                "ref:csioz": 1027482,
                "name": "Damroki",
                "addr:street": "Damroki",
                "addr:housenumber": "1A",
                "addr:city": "Gdańsk",
                "addr:postcode": "80-175",
                "amenity": "pharmacy",
                "dispensing": "yes"
            },
            "geometry": {
                "type": "Point",
                "coordinates": [
                    18.565354999999794,
                    54.339115000019326
                ]
            }
        },
        {
            "type": "Feature",
            "properties": {
                "ref:csioz": 1027496,
                "addr:street": "Dywizjonu 303",
                "addr:housenumber": "23",
                "addr:city": "Gdańsk",
                "addr:postcode": "80-462",
                "amenity": "pharmacy",
                "dispensing": "yes"
            },
            "geometry": {
                "type": "Point",
                "coordinates": [
                    18.603342999999818,
                    54.389546000019415
                ]
            }
        },
        {
            "type": "Feature",
            "properties": {
                "ref:csioz": 1027505,
                "name": "Stare Szkoty",
                "addr:street": "Trakt św. Wojciecha",
                "addr:housenumber": "85",
                "addr:city": "Gdańsk",
                "addr:postcode": "80-043",
                "amenity": "pharmacy",
                "dispensing": "yes"
            },
            "geometry": {
                "type": "Point",
                "coordinates": [
                    18.634338837129633,
                    54.32905704833077
                ]
            }
        },
        {
            "type": "Feature",
            "properties": {
                "ref:csioz": 1027526,
                "addr:street": "Zacisze",
                "addr:housenumber": "11",
                "addr:city": "Gdańsk",
                "addr:postcode": "80-313",
                "amenity": "pharmacy",
                "dispensing": "yes"
            },
            "geometry": {
                "type": "Point",
                "coordinates": [
                    18.56251120686394,
                    54.40434061989259
                ]
            }
        },
        {
            "type": "Feature",
            "properties": {
                "ref:csioz": 1027745,
                "name": "Jesionowa",
                "addr:street": "Jesionowa",
                "addr:housenumber": "2",
                "addr:city": "Gdańsk",
                "addr:postcode": "80-261",
                "amenity": "pharmacy",
                "dispensing": "yes"
            },
            "geometry": {
                "type": "Point",
                "coordinates": [
                    18.5995685803164,
                    54.38056055973092
                ]
            }
        },
        {
            "type": "Feature",
            "properties": {
                "ref:csioz": 1027956,
                "name": "Przy Akademii",
                "addr:street": "Marii Skłodowskiej-Curie",
                "addr:housenumber": "3",
                "addr:city": "Gdańsk",
                "addr:postcode": "80-210",
                "amenity": "pharmacy",
                "dispensing": "yes"
            },
            "geometry": {
                "type": "Point",
                "coordinates": [
                    18.628606891415824,
                    54.36627430256432
                ]
            }
        },
        {
            "type": "Feature",
            "properties": {
                "ref:csioz": 1028626,
                "name": "Apteka Oruńska Ii",
                "addr:street": "Krzemowa",
                "addr:housenumber": "16",
                "addr:city": "Gdańsk",
                "addr:postcode": "80-041",
                "amenity": "pharmacy",
                "dispensing": "yes"
            },
            "geometry": {
                "type": "Point",
                "coordinates": [
                    18.62227314109265,
                    54.32643102500072
                ]
            }
        },
        {
            "type": "Feature",
            "properties": {
                "ref:csioz": 1028639,
                "name": "Medicur",
                "addr:street": "gen. Bora-Komorowskiego",
                "addr:housenumber": "40",
                "addr:city": "Gdańsk",
                "addr:postcode": "80-377",
                "amenity": "pharmacy",
                "dispensing": "yes"
            },
            "geometry": {
                "type": "Point",
                "coordinates": [
                    18.587101140732436,
                    54.409072374599106
                ]
            }
        },
        {
            "type": "Feature",
            "properties": {
                "ref:csioz": 1029491,
                "name": "Doz Apteka. Dbam O Zdrowie. Beethovena 22 A",
                "addr:street": "Ludwika Beethovena",
                "addr:housenumber": "22A",
                "addr:city": "Gdańsk",
                "addr:postcode": "80-171",
                "amenity": "pharmacy",
                "dispensing": "yes"
            },
            "geometry": {
                "type": "Point",
                "coordinates": [
                    18.6134952850947,
                    54.35610300044886
                ]
            }
        },
        {
            "type": "Feature",
            "properties": {
                "ref:csioz": 1029531,
                "addr:street": "Jeleniogórska",
                "addr:housenumber": "5",
                "addr:city": "Gdańsk",
                "addr:postcode": "80-180",
                "amenity": "pharmacy",
                "dispensing": "yes"
            },
            "geometry": {
                "type": "Point",
                "coordinates": [
                    18.585812999999806,
                    54.3280630000193
                ]
            }
        },
        {
            "type": "Feature",
            "properties": {
                "ref:csioz": 1029667,
                "name": "Aptekamini.Pl",
                "addr:street": "Franciszka Schuberta",
                "addr:housenumber": "102A",
                "addr:city": "Gdańsk",
                "addr:postcode": "80-172",
                "amenity": "pharmacy",
                "dispensing": "yes"
            },
            "geometry": {
                "type": "Point",
                "coordinates": [
                    18.59478613028414,
                    54.35148374943134
                ]
            }
        },
        {
            "type": "Feature",
            "properties": {
                "ref:csioz": 1029739,
                "name": "Apteka Od Serca",
                "addr:street": "Grunwaldzka",
                "addr:housenumber": "212",
                "addr:city": "Gdańsk",
                "addr:postcode": "80-244",
                "amenity": "pharmacy",
                "dispensing": "yes"
            },
            "geometry": {
                "type": "Point",
                "coordinates": [
                    18.589499112557665,
                    54.38793536801679
                ]
            }
        },
        {
            "type": "Feature",
            "properties": {
                "ref:csioz": 1029948,
                "name": "Wracam Do Zdrowia",
                "addr:street": "Startowa",
                "addr:housenumber": "1",
                "addr:city": "Gdańsk",
                "addr:postcode": "80-461",
                "amenity": "pharmacy",
                "dispensing": "yes"
            },
            "geometry": {
                "type": "Point",
                "coordinates": [
                    18.59835370691393,
                    54.3932163515728
                ]
            }
        },
        {
            "type": "Feature",
            "properties": {
                "ref:csioz": 1029961,
                "name": "Apteka Dbam O Zdrowie",
                "addr:street": "Grunwaldzka",
                "addr:housenumber": "83",
                "addr:city": "Gdańsk",
                "addr:postcode": "80-244",
                "amenity": "pharmacy",
                "dispensing": "yes"
            },
            "geometry": {
                "type": "Point",
                "coordinates": [
                    18.60793900127889,
                    54.378203012215515
                ]
            }
        },
        {
            "type": "Feature",
            "properties": {
                "ref:csioz": 1030164,
                "name": "Apteka Jasień",
                "addr:street": "Kartuska",
                "addr:housenumber": "404",
                "addr:city": "Gdańsk",
                "addr:postcode": "80-125",
                "amenity": "pharmacy",
                "dispensing": "yes"
            },
            "geometry": {
                "type": "Point",
                "coordinates": [
                    18.55106230347443,
                    54.34219265638232
                ]
            }
        },
        {
            "type": "Feature",
            "properties": {
                "ref:csioz": 1030186,
                "name": "Doz Apteka Dbam O Zdrowie",
                "addr:street": "Zwycięstwa",
                "addr:housenumber": "49",
                "addr:city": "Gdańsk",
                "addr:postcode": "80-207",
                "amenity": "pharmacy",
                "dispensing": "yes"
            },
            "geometry": {
                "type": "Point",
                "coordinates": [
                    18.635536482248668,
                    54.36500011660512
                ]
            }
        },
        {
            "type": "Feature",
            "properties": {
                "ref:csioz": 1030193,
                "name": "Krzemowa",
                "addr:street": "Krzemowa",
                "addr:housenumber": "1",
                "addr:city": "Gdańsk",
                "addr:postcode": "80-041",
                "amenity": "pharmacy",
                "dispensing": "yes"
            },
            "geometry": {
                "type": "Point",
                "coordinates": [
                    18.618179659532704,
                    54.32512583590798
                ]
            }
        },
        {
            "type": "Feature",
            "properties": {
                "ref:csioz": 1030744,
                "name": "Po Zdrowie",
                "addr:street": "Otwarta",
                "addr:housenumber": "4",
                "addr:city": "Gdańsk",
                "addr:postcode": "80-169",
                "amenity": "pharmacy",
                "dispensing": "yes"
            },
            "geometry": {
                "type": "Point",
                "coordinates": [
                    18.606526832415994,
                    54.355215584753225
                ]
            }
        },
        {
            "type": "Feature",
            "properties": {
                "ref:csioz": 1030808,
                "name": "Apteka Dbam O Zdrowie",
                "addr:street": "Konstantego Ildefonsa Gałczyńskiego",
                "addr:housenumber": "2",
                "addr:city": "Gdańsk",
                "addr:postcode": "80-524",
                "amenity": "pharmacy",
                "dispensing": "yes"
            },
            "geometry": {
                "type": "Point",
                "coordinates": [
                    18.63884311091275,
                    54.40650254267878
                ]
            }
        },
        {
            "type": "Feature",
            "properties": {
                "ref:csioz": 1030835,
                "name": "Super-Pharm",
                "addr:street": "Złota Karczma",
                "addr:housenumber": "26",
                "addr:city": "Gdańsk",
                "addr:postcode": "80-298",
                "amenity": "pharmacy",
                "dispensing": "yes"
            },
            "geometry": {
                "type": "Point",
                "coordinates": [
                    18.519016749080887,
                    54.37583862964936
                ]
            }
        },
        {
            "type": "Feature",
            "properties": {
                "ref:csioz": 1031040,
                "name": "Mgr Farm. Marzena Tylicka Apteka Nr 1",
                "addr:street": "Franciszka Rakoczego",
                "addr:housenumber": "17",
                "addr:city": "Gdańsk",
                "addr:postcode": "80-288",
                "amenity": "pharmacy",
                "dispensing": "yes"
            },
            "geometry": {
                "type": "Point",
                "coordinates": [
                    18.585378289418518,
                    54.35796516516927
                ]
            }
        },
        {
            "type": "Feature",
            "properties": {
                "ref:csioz": 1031185,
                "name": "Apteka Dbam O Zdrowie",
                "addr:street": "Gospody",
                "addr:housenumber": "3A",
                "addr:city": "Gdańsk",
                "addr:postcode": "80-344",
                "amenity": "pharmacy",
                "dispensing": "yes"
            },
            "geometry": {
                "type": "Point",
                "coordinates": [
                    18.583168202583106,
                    54.42072245583951
                ]
            }
        },
        {
            "type": "Feature",
            "properties": {
                "ref:csioz": 1031276,
                "name": "Polska",
                "addr:street": "Jakuba Wejhera",
                "addr:housenumber": "25",
                "addr:city": "Gdańsk",
                "addr:postcode": "80-346",
                "amenity": "pharmacy",
                "dispensing": "yes"
            },
            "geometry": {
                "type": "Point",
                "coordinates": [
                    18.584068999999804,
                    54.42136800001946
                ]
            }
        },
        {
            "type": "Feature",
            "properties": {
                "ref:csioz": 1031423,
                "name": "Apteka Dbam O Zdrowie",
                "addr:street": "Tytusa Chałubińskiego",
                "addr:housenumber": "29",
                "addr:city": "Gdańsk",
                "addr:postcode": "80-809",
                "amenity": "pharmacy",
                "dispensing": "yes"
            },
            "geometry": {
                "type": "Point",
                "coordinates": [
                    18.61909036830119,
                    54.340281918348175
                ]
            }
        },
        {
            "type": "Feature",
            "properties": {
                "ref:csioz": 1031438,
                "name": "Apteka Dbam O Zdrowie",
                "addr:street": "Wawelska",
                "addr:housenumber": "23",
                "addr:city": "Gdańsk",
                "addr:postcode": "80-034",
                "amenity": "pharmacy",
                "dispensing": "yes"
            },
            "geometry": {
                "type": "Point",
                "coordinates": [
                    18.607458709166234,
                    54.33023866259581
                ]
            }
        },
        {
            "type": "Feature",
            "properties": {
                "ref:csioz": 1031467,
                "name": "Gemini",
                "addr:street": "Jagiellońska",
                "addr:housenumber": "4",
                "addr:city": "Gdańsk",
                "addr:postcode": "80-371",
                "amenity": "pharmacy",
                "dispensing": "yes"
            },
            "geometry": {
                "type": "Point",
                "coordinates": [
                    18.592894070818666,
                    54.41295469380382
                ]
            }
        },
        {
            "type": "Feature",
            "properties": {
                "ref:csioz": 1031480,
                "name": "Apteka Dbam O Zdrowie",
                "addr:street": "Żwirki i Wigury",
                "addr:housenumber": "12",
                "addr:city": "Gdańsk",
                "addr:postcode": "80-463",
                "amenity": "pharmacy",
                "dispensing": "yes"
            },
            "geometry": {
                "type": "Point",
                "coordinates": [
                    18.60955061152923,
                    54.39252011036331
                ]
            }
        },
        {
            "type": "Feature",
            "properties": {
                "ref:csioz": 1031655,
                "name": "Apteka Dbam O Zdrowie",
                "addr:street": "Kartuska",
                "addr:housenumber": "17",
                "addr:city": "Gdańsk",
                "addr:postcode": "80-103",
                "amenity": "pharmacy",
                "dispensing": "yes"
            },
            "geometry": {
                "type": "Point",
                "coordinates": [
                    18.634294430473968,
                    54.35123272789933
                ]
            }
        },
        {
            "type": "Feature",
            "properties": {
                "ref:csioz": 1031678,
                "name": "Apteka Świętokrzyska",
                "addr:street": "Świętokrzyska",
                "addr:housenumber": "4",
                "addr:city": "Gdańsk",
                "addr:postcode": "80-041",
                "amenity": "pharmacy",
                "dispensing": "yes"
            },
            "geometry": {
                "type": "Point",
                "coordinates": [
                    18.60669061901471,
                    54.32577480297119
                ]
            }
        },
        {
            "type": "Feature",
            "properties": {
                "ref:csioz": 1031686,
                "name": "Apteka Dbam O Zdrowie",
                "addr:street": "Żwirki i Wigury",
                "addr:housenumber": "6",
                "addr:city": "Gdańsk",
                "addr:postcode": "80-463",
                "amenity": "pharmacy",
                "dispensing": "yes"
            },
            "geometry": {
                "type": "Point",
                "coordinates": [
                    18.60963901411025,
                    54.391213394703065
                ]
            }
        },
        {
            "type": "Feature",
            "properties": {
                "ref:csioz": 1031869,
                "name": "Apteka Dbam O Zdrowie",
                "addr:street": "Zbigniewa Burzyńskiego",
                "addr:housenumber": "1",
                "addr:city": "Gdańsk",
                "addr:postcode": "80-462",
                "amenity": "pharmacy",
                "dispensing": "yes"
            },
            "geometry": {
                "type": "Point",
                "coordinates": [
                    18.60759150836626,
                    54.39895342122725
                ]
            }
        },
        {
            "type": "Feature",
            "properties": {
                "ref:csioz": 1031875,
                "name": "Apteka-Centrum Zdrowia",
                "addr:street": "Cienista",
                "addr:housenumber": "30",
                "addr:city": "Gdańsk",
                "addr:postcode": "80-046",
                "amenity": "pharmacy",
                "dispensing": "yes"
            },
            "geometry": {
                "type": "Point",
                "coordinates": [
                    18.62077287869622,
                    54.33712783132131
                ]
            }
        },
        {
            "type": "Feature",
            "properties": {
                "ref:csioz": 1032076,
                "name": "Apteka Kaszubska",
                "addr:street": "Zwycięstwa",
                "addr:housenumber": "35",
                "addr:city": "Gdańsk",
                "addr:postcode": "80-219",
                "amenity": "pharmacy",
                "dispensing": "yes"
            },
            "geometry": {
                "type": "Point",
                "coordinates": [
                    18.62833841452618,
                    54.369369739655106
                ]
            }
        },
        {
            "type": "Feature",
            "properties": {
                "ref:csioz": 1032783,
                "name": "Przyjazna",
                "addr:street": "Pilotów",
                "addr:housenumber": "19L",
                "addr:city": "Gdańsk",
                "addr:postcode": "80-460",
                "amenity": "pharmacy",
                "dispensing": "yes"
            },
            "geometry": {
                "type": "Point",
                "coordinates": [
                    18.59027799999981,
                    54.396271000019425
                ]
            }
        },
        {
            "type": "Feature",
            "properties": {
                "ref:csioz": 1033226,
                "name": "Polska",
                "addr:street": "Marcina Dragana",
                "addr:housenumber": "15D",
                "addr:city": "Gdańsk",
                "addr:postcode": "80-807",
                "amenity": "pharmacy",
                "dispensing": "yes"
            },
            "geometry": {
                "type": "Point",
                "coordinates": [
                    18.61678284113728,
                    54.34132265825203
                ]
            }
        },
        {
            "type": "Feature",
            "properties": {
                "ref:csioz": 1033573,
                "name": "Apteka Uniwersytecka",
                "addr:street": "Mariana Smoluchowskiego",
                "addr:housenumber": "17",
                "addr:city": "Gdańsk",
                "addr:postcode": "80-214",
                "amenity": "pharmacy",
                "dispensing": "yes"
            },
            "geometry": {
                "type": "Point",
                "coordinates": [
                    18.619541503481045,
                    54.36586349855454
                ]
            }
        },
        {
            "type": "Feature",
            "properties": {
                "ref:csioz": 1112452,
                "name": "Farmacja 24",
                "addr:street": "Jaśkowa Dolina",
                "addr:housenumber": "132/1",
                "addr:city": "Gdańsk",
                "addr:postcode": "80-286",
                "amenity": "pharmacy",
                "dispensing": "yes"
            },
            "geometry": {
                "type": "Point",
                "coordinates": [
                    18.58771399999981,
                    54.358361000019364
                ]
            }
        },
        {
            "type": "Feature",
            "properties": {
                "ref:csioz": 1112460,
                "name": "Farmacja 24",
                "addr:street": "Grunwaldzka",
                "addr:housenumber": "471/14",
                "addr:city": "Gdańsk",
                "addr:postcode": "80-309",
                "amenity": "pharmacy",
                "dispensing": "yes"
            },
            "geometry": {
                "type": "Point",
                "coordinates": [
                    18.5744319999998,
                    54.401659000019436
                ]
            }
        },
        {
            "type": "Feature",
            "properties": {
                "ref:csioz": 1112471,
                "name": "Super - Pharm Apteka",
                "addr:street": "Kołobrzeska",
                "addr:housenumber": "41C",
                "addr:city": "Gdańsk",
                "addr:postcode": "80-391",
                "amenity": "pharmacy",
                "dispensing": "yes"
            },
            "geometry": {
                "type": "Point",
                "coordinates": [
                    18.58831254411922,
                    54.40414474076803
                ]
            }
        },
        {
            "type": "Feature",
            "properties": {
                "ref:csioz": 1112578,
                "name": "Dr. Max",
                "addr:street": "Franciszka Rakoczego",
                "addr:housenumber": "13",
                "addr:city": "Gdańsk",
                "addr:postcode": "80-288",
                "amenity": "pharmacy",
                "dispensing": "yes"
            },
            "geometry": {
                "type": "Point",
                "coordinates": [
                    18.583112958486968,
                    54.35828052834815
                ]
            }
        },
        {
            "type": "Feature",
            "properties": {
                "ref:csioz": 1114060,
                "name": "Dział Farmacji Szpitalnej W Niepublicznym Zakładzie Opieki Zdrowotnej Pomorskiego Centrum Toksykologii",
                "addr:street": "Kartuska",
                "addr:housenumber": "4/6",
                "addr:city": "Gdańsk",
                "addr:postcode": "80-104",
                "amenity": "pharmacy",
                "dispensing": "yes"
            },
            "geometry": {
                "type": "Point",
                "coordinates": [
                    18.638276589509324,
                    54.33598232346932
                ]
            }
        },
        {
            "type": "Feature",
            "properties": {
                "ref:csioz": 1120247,
                "name": "Hebeapteka",
                "addr:street": "gen. Józefa Hallera",
                "addr:housenumber": "167",
                "addr:city": "Gdańsk",
                "addr:postcode": "80-416",
                "amenity": "pharmacy",
                "dispensing": "yes"
            },
            "geometry": {
                "type": "Point",
                "coordinates": [
                    18.623025951606078,
                    54.38857538317228
                ]
            }
        },
        {
            "type": "Feature",
            "properties": {
                "ref:csioz": 1123269,
                "name": "Kalina",
                "addr:street": "Kalinowa",
                "addr:housenumber": "4",
                "addr:city": "Gdańsk",
                "addr:postcode": "80-177",
                "amenity": "pharmacy",
                "dispensing": "yes"
            },
            "geometry": {
                "type": "Point",
                "coordinates": [
                    18.513538814843436,
                    54.352337989459805
                ]
            }
        },
        {
            "type": "Feature",
            "properties": {
                "ref:csioz": 1218376,
                "name": "Apteka Gemini",
                "addr:street": "Bysewska",
                "addr:housenumber": "18",
                "addr:city": "Gdańsk",
                "addr:postcode": "80-298",
                "amenity": "pharmacy",
                "dispensing": "yes"
            },
            "geometry": {
                "type": "Point",
                "coordinates": [
                    18.46784858034957,
                    54.36010824423757
                ]
            }
        },
        {
            "type": "Feature",
            "properties": {
                "ref:csioz": 1173211,
                "name": "Apteka Medicover",
                "addr:street": "Grunwaldzka",
                "addr:housenumber": "472 A",
                "addr:city": "Gdańsk",
                "addr:postcode": "80-309",
                "amenity": "pharmacy",
                "dispensing": "yes"
            },
            "geometry": {
                "type": "Point",
                "coordinates": [
                    18.57040778164373,
                    54.40262634755856
                ]
            }
        },
        {
            "type": "Feature",
            "properties": {
                "ref:csioz": 1173222,
                "name": "Hebeapteka",
                "addr:street": "Rzeczypospolitej",
                "addr:housenumber": "33 B",
                "addr:city": "Gdańsk",
                "addr:postcode": "80-463",
                "amenity": "pharmacy",
                "dispensing": "yes"
            },
            "geometry": {
                "type": "Point",
                "coordinates": [
                    18.611455580158268,
                    54.39019011923532
                ]
            }
        },
        {
            "type": "Feature",
            "properties": {
                "ref:csioz": 1179928,
                "name": "Cosmedica",
                "addr:street": "Franciszka Hynka",
                "addr:housenumber": "65",
                "addr:city": "Gdańsk",
                "addr:postcode": "80-465",
                "amenity": "pharmacy",
                "dispensing": "yes"
            },
            "geometry": {
                "type": "Point",
                "coordinates": [
                    18.593103268508713,
                    54.39024167198778
                ]
            }
        },
        {
            "type": "Feature",
            "properties": {
                "ref:csioz": 1181973,
                "name": "Apteka Dbam O Zdrowie",
                "addr:street": "Wajdeloty",
                "addr:housenumber": "12",
                "addr:city": "Gdańsk",
                "addr:postcode": "80-437",
                "amenity": "pharmacy",
                "dispensing": "yes"
            },
            "geometry": {
                "type": "Point",
                "coordinates": [
                    18.609201703157524,
                    54.38187494556544
                ]
            }
        },
        {
            "type": "Feature",
            "properties": {
                "ref:csioz": 1183112,
                "name": "Apteka Szpitalna W Zakładzie Leczniczym: Szpital Im. Mikołaja Kopernika",
                "addr:street": "Powstańców Warszawskich",
                "addr:housenumber": "1/2",
                "addr:city": "Gdańsk",
                "addr:postcode": "80-152",
                "amenity": "pharmacy",
                "dispensing": "yes"
            },
            "geometry": {
                "type": "Point",
                "coordinates": [
                    18.636067909385346,
                    54.352014404341226
                ]
            }
        },
        {
            "type": "Feature",
            "properties": {
                "ref:csioz": 1184100,
                "name": "Cosmedica",
                "addr:street": "Ignacego Paderewskiego",
                "addr:housenumber": "9",
                "addr:city": "Gdańsk",
                "addr:postcode": "80-170",
                "amenity": "pharmacy",
                "dispensing": "yes"
            },
            "geometry": {
                "type": "Point",
                "coordinates": [
                    18.606542727570307,
                    54.35379871596726
                ]
            }
        },
        {
            "type": "Feature",
            "properties": {
                "ref:csioz": 1187934,
                "name": "Dział Farmacji Szpitalnej W Przedsiębiorstwie Perfect Medica",
                "addr:street": "Kołobrzeska",
                "addr:housenumber": "63 D",
                "addr:city": "Gdańsk",
                "addr:postcode": "80-397",
                "amenity": "pharmacy",
                "dispensing": "yes"
            },
            "geometry": {
                "type": "Point",
                "coordinates": [
                    18.59856570459955,
                    54.40536819274328
                ]
            }
        },
        {
            "type": "Feature",
            "properties": {
                "ref:csioz": 1188016,
                "name": "Dom Leków",
                "addr:street": "Kartuska",
                "addr:housenumber": "5",
                "addr:city": "Gdańsk",
                "addr:postcode": "80-103",
                "amenity": "pharmacy",
                "dispensing": "yes"
            },
            "geometry": {
                "type": "Point",
                "coordinates": [
                    18.636499315184775,
                    54.35140521591419
                ]
            }
        },
        {
            "type": "Feature",
            "properties": {
                "ref:csioz": 1188353,
                "name": "Apteka Dyżurna",
                "addr:street": "Kaprów",
                "addr:housenumber": "3",
                "addr:city": "Gdańsk",
                "addr:postcode": "80-316",
                "amenity": "pharmacy",
                "dispensing": "yes"
            },
            "geometry": {
                "type": "Point",
                "coordinates": [
                    18.567357052408088,
                    54.4085397915061
                ]
            }
        },
        {
            "type": "Feature",
            "properties": {
                "ref:csioz": 1189300,
                "name": "Dom Leków",
                "addr:street": "Adama Mickiewicza",
                "addr:housenumber": "27a",
                "addr:city": "Gdańsk",
                "addr:postcode": "80-405",
                "amenity": "pharmacy",
                "dispensing": "yes"
            },
            "geometry": {
                "type": "Point",
                "coordinates": [
                    18.624289642929128,
                    54.38311457172729
                ]
            }
        },
        {
            "type": "Feature",
            "properties": {
                "ref:csioz": 1189392,
                "name": "Apteka Jabłoniowa",
                "addr:street": "Jabłoniowa",
                "addr:housenumber": "29A",
                "addr:city": "Gdańsk",
                "addr:postcode": "80-175",
                "amenity": "pharmacy",
                "dispensing": "yes"
            },
            "geometry": {
                "type": "Point",
                "coordinates": [
                    18.55705645946448,
                    54.33053981609816
                ]
            }
        },
        {
            "type": "Feature",
            "properties": {
                "ref:csioz": 1194275,
                "name": "Cosmedica",
                "addr:street": "Stanisława Worcella",
                "addr:housenumber": "44",
                "addr:city": "Gdańsk",
                "addr:postcode": "80-809",
                "amenity": "pharmacy",
                "dispensing": "yes"
            },
            "geometry": {
                "type": "Point",
                "coordinates": [
                    18.626447634069887,
                    54.33831916528302
                ]
            }
        },
        {
            "type": "Feature",
            "properties": {
                "ref:csioz": 1201131,
                "name": "Gemini",
                "addr:street": "Królowej Jadwigi",
                "addr:housenumber": "137D",
                "addr:city": "Gdańsk",
                "addr:postcode": "80-097",
                "amenity": "pharmacy",
                "dispensing": "yes"
            },
            "geometry": {
                "type": "Point",
                "coordinates": [
                    18.606089554585672,
                    54.3255937279609
                ]
            }
        },
        {
            "type": "Feature",
            "properties": {
                "ref:csioz": 1197912,
                "name": "Dom Leków",
                "addr:street": "Władysława Cieszyńskiego",
                "addr:housenumber": "1 A",
                "addr:city": "Gdańsk",
                "addr:postcode": "80-809",
                "amenity": "pharmacy",
                "dispensing": "yes"
            },
            "geometry": {
                "type": "Point",
                "coordinates": [
                    18.61303549833773,
                    54.33733638647349
                ]
            }
        },
        {
            "type": "Feature",
            "properties": {
                "ref:csioz": 1198137,
                "name": "Gemini",
                "addr:street": "Żwirki i Wigury",
                "addr:housenumber": "8/4",
                "addr:city": "Gdańsk",
                "addr:postcode": "80-463",
                "amenity": "pharmacy",
                "dispensing": "yes"
            },
            "geometry": {
                "type": "Point",
                "coordinates": [
                    18.609707999999817,
                    54.39127400001943
                ]
            }
        },
        {
            "type": "Feature",
            "properties": {
                "ref:csioz": 1199648,
                "name": "Cosmedica",
                "addr:street": "Nieborowska",
                "addr:housenumber": "10",
                "addr:city": "Gdańsk",
                "addr:postcode": "80-034",
                "amenity": "pharmacy",
                "dispensing": "yes"
            },
            "geometry": {
                "type": "Point",
                "coordinates": [
                    18.605075419069188,
                    54.329964474636746
                ]
            }
        },
        {
            "type": "Feature",
            "properties": {
                "ref:csioz": 1201759,
                "name": "Farmacja24",
                "addr:street": "Junony",
                "addr:housenumber": "98",
                "addr:city": "Gdańsk",
                "addr:postcode": "80-299",
                "amenity": "pharmacy",
                "dispensing": "yes"
            },
            "geometry": {
                "type": "Point",
                "coordinates": [
                    18.478292310307083,
                    54.418689308009164
                ]
            }
        },
        {
            "type": "Feature",
            "properties": {
                "ref:csioz": 1201886,
                "name": "Gemini",
                "addr:street": "Pilotów",
                "addr:housenumber": "3",
                "addr:city": "Gdańsk",
                "addr:postcode": "80-460",
                "amenity": "pharmacy",
                "dispensing": "yes"
            },
            "geometry": {
                "type": "Point",
                "coordinates": [
                    18.596346050386618,
                    54.39230599184241
                ]
            }
        },
        {
            "type": "Feature",
            "properties": {
                "ref:csioz": 1203207,
                "name": "Apteka Dyżurna",
                "addr:street": "Grunwaldzka",
                "addr:housenumber": "104",
                "addr:city": "Gdańsk",
                "addr:postcode": "80-244",
                "amenity": "pharmacy",
                "dispensing": "yes"
            },
            "geometry": {
                "type": "Point",
                "coordinates": [
                    18.60561499999982,
                    54.377850000019386
                ]
            }
        },
        {
            "type": "Feature",
            "properties": {
                "ref:csioz": 1205529,
                "name": "Dział Farmacji Szpitalnej W Zakładzie Leczniczym: Szpital Jednodniowy Im. Dr. Michała Pawlaka",
                "addr:street": "Otomińska",
                "addr:housenumber": "15 c",
                "addr:city": "Gdańsk",
                "addr:postcode": "80-178",
                "amenity": "pharmacy",
                "dispensing": "yes"
            },
            "geometry": {
                "type": "Point",
                "coordinates": [
                    18.509978573226906,
                    54.346985593141376
                ]
            }
        },
        {
            "type": "Feature",
            "properties": {
                "ref:csioz": 1205635,
                "name": "Wracam Do Zdrowia",
                "addr:street": "Warszawska",
                "addr:housenumber": "69",
                "addr:city": "Gdańsk",
                "addr:postcode": "80-180",
                "amenity": "pharmacy",
                "dispensing": "yes"
            },
            "geometry": {
                "type": "Point",
                "coordinates": [
                    18.58313690583126,
                    54.332518382742855
                ]
            }
        },
        {
            "type": "Feature",
            "properties": {
                "ref:csioz": 1207301,
                "name": "Apteka Bałtycka",
                "addr:street": "Otomińska",
                "addr:housenumber": "15 C",
                "addr:city": "Gdańsk",
                "addr:postcode": "80-178",
                "amenity": "pharmacy",
                "dispensing": "yes"
            },
            "geometry": {
                "type": "Point",
                "coordinates": [
                    18.509978573226906,
                    54.346955593141374
                ]
            }
        },
        {
            "type": "Feature",
            "properties": {
                "ref:csioz": 1208556,
                "name": "Viktoria",
                "addr:street": "Świętokrzyska",
                "addr:housenumber": "21",
                "addr:city": "Gdańsk",
                "addr:postcode": "80-180",
                "amenity": "pharmacy",
                "dispensing": "yes"
            },
            "geometry": {
                "type": "Point",
                "coordinates": [
                    18.60545522737083,
                    54.322153171298105
                ]
            }
        },
        {
            "type": "Feature",
            "properties": {
                "ref:csioz": 1209075,
                "name": "Apteka Bałtycka",
                "addr:street": "Kalinowa",
                "addr:housenumber": "11",
                "addr:city": "Gdańsk",
                "addr:postcode": "80-177",
                "amenity": "pharmacy",
                "dispensing": "yes"
            },
            "geometry": {
                "type": "Point",
                "coordinates": [
                    18.512904210762095,
                    54.352438440667726
                ]
            }
        },
        {
            "type": "Feature",
            "properties": {
                "ref:csioz": 1209088,
                "name": "7 Szpital Marynarki Wojennej Z Przychodnią Sp Zoz W Gdańsku",
                "addr:street": "Polanki",
                "addr:housenumber": "117",
                "addr:city": "Gdańsk",
                "addr:postcode": "80-305",
                "amenity": "pharmacy",
                "dispensing": "yes"
            },
            "geometry": {
                "type": "Point",
                "coordinates": [
                    18.567254610505014,
                    54.39395205337314
                ]
            }
        },
        {
            "type": "Feature",
            "properties": {
                "ref:csioz": 1209637,
                "name": "Dział Farmacji Szpitalnej W Zakładzie Leczniczym: Hospicjum Im. Ks. Eugeniusza Dutkiewicza Sac",
                "addr:street": "Mikołaja Kopernika",
                "addr:housenumber": "6",
                "addr:city": "Gdańsk",
                "addr:postcode": "80-208",
                "amenity": "pharmacy",
                "dispensing": "yes"
            },
            "geometry": {
                "type": "Point",
                "coordinates": [
                    18.635411733972507,
                    54.36292891447101
                ]
            }
        },
        {
            "type": "Feature",
            "properties": {
                "ref:csioz": 1210910,
                "name": "Dział Farmacji Szpitalnej W Zakładzie Leczniczym: Impladent Mdc Szpital",
                "addr:street": "Kartuska",
                "addr:housenumber": "312",
                "addr:city": "Gdańsk",
                "addr:postcode": "80-125",
                "amenity": "pharmacy",
                "dispensing": "yes"
            },
            "geometry": {
                "type": "Point",
                "coordinates": [
                    18.580456664061682,
                    54.34297632546404
                ]
            }
        },
        {
            "type": "Feature",
            "properties": {
                "ref:csioz": 1211662,
                "name": "Apteka Dla Ciebie",
                "addr:street": "Szczęśliwa",
                "addr:housenumber": "3",
                "addr:city": "Gdańsk",
                "addr:postcode": "80-176",
                "amenity": "pharmacy",
                "dispensing": "yes"
            },
            "geometry": {
                "type": "Point",
                "coordinates": [
                    18.52616079482692,
                    54.35156387130871
                ]
            }
        },
        {
            "type": "Feature",
            "properties": {
                "ref:csioz": 1214539,
                "name": "Apteka Przy Centrum Onkologii",
                "addr:street": "Zwycięstwa",
                "addr:housenumber": "31/32",
                "addr:city": "Gdańsk",
                "addr:postcode": "80-214",
                "amenity": "pharmacy",
                "dispensing": "yes"
            },
            "geometry": {
                "type": "Point",
                "coordinates": [
                    18.627210115505168,
                    54.36999024544625
                ]
            }
        },
        {
            "type": "Feature",
            "properties": {
                "ref:csioz": 1215221,
                "name": "Apteka Gemini",
                "addr:street": "Władysława Cieszyńskiego",
                "addr:housenumber": "48/1",
                "addr:city": "Gdańsk",
                "addr:postcode": "80-809",
                "amenity": "pharmacy",
                "dispensing": "yes"
            },
            "geometry": {
                "type": "Point",
                "coordinates": [
                    18.616602408400116,
                    54.322646549259495
                ]
            }
        },
        {
            "type": "Feature",
            "properties": {
                "ref:csioz": 1216887,
                "name": "Apteka Viktoria",
                "addr:street": "Przywidzka",
                "addr:housenumber": "6",
                "addr:city": "Gdańsk",
                "addr:postcode": "80-174",
                "amenity": "pharmacy",
                "dispensing": "yes"
            },
            "geometry": {
                "type": "Point",
                "coordinates": [
                    18.551183906854696,
                    54.32226819483807
                ]
            }
        },
        {
            "type": "Feature",
            "properties": {
                "ref:csioz": 1217056,
                "name": "Apteka Gemini",
                "addr:street": "Subisława",
                "addr:housenumber": "30",
                "addr:city": "Gdańsk",
                "addr:postcode": "80-354",
                "amenity": "pharmacy",
                "dispensing": "yes"
            },
            "geometry": {
                "type": "Point",
                "coordinates": [
                    18.571596179441528,
                    54.42107461463461
                ]
            }
        },
        {
            "type": "Feature",
            "properties": {
                "ref:csioz": 1217516,
                "name": "Apteka Dyżurna",
                "addr:street": "Jana Pawła II",
                "addr:housenumber": "3B",
                "addr:city": "Gdańsk",
                "addr:postcode": "80-462",
                "amenity": "pharmacy",
                "dispensing": "yes"
            },
            "geometry": {
                "type": "Point",
                "coordinates": [
                    18.604715622076636,
                    54.39781971638903
                ]
            }
        },
        {
            "type": "Feature",
            "properties": {
                "ref:csioz": 1217930,
                "name": "Dział Farmacji Szpitalnej W Zakładzie Leczniczym: Wojewódzki Ośrodek Terapii Uzależnienia Od Alkoholi I Współuzależnienia W Gdańsku Ośrodek Terapii Uzależnień W Smażynie",
                "addr:street": "Srebrniki",
                "addr:housenumber": "9",
                "addr:city": "Gdańsk",
                "addr:postcode": "80-282",
                "amenity": "pharmacy",
                "dispensing": "yes"
            },
            "geometry": {
                "type": "Point",
                "coordinates": [
                    18.578451094496906,
                    54.37569392895565
                ]
            }
        },
        {
            "type": "Feature",
            "properties": {
                "ref:csioz": 1218170,
                "name": "Apteka Szpitalna W Zakładzie Leczniczym: Szpital Samodzielnego Publicznego Zakładu Opieki Zdrowotnej Ministerstwa Spraw Wewnętrznych I Administracji W Gdańsku",
                "addr:street": "Kartuska",
                "addr:housenumber": "4/6",
                "addr:city": "Gdańsk",
                "addr:postcode": "80-104",
                "amenity": "pharmacy",
                "dispensing": "yes"
            },
            "geometry": {
                "type": "Point",
                "coordinates": [
                    18.638276589509324,
                    54.335952323469314
                ]
            }
        },
        {
            "type": "Feature",
            "properties": {
                "ref:csioz": 1218392,
                "name": "Apteka Gemini",
                "addr:street": "Grunwaldzka",
                "addr:housenumber": "102",
                "addr:city": "Gdańsk",
                "addr:postcode": "80-244",
                "amenity": "pharmacy",
                "dispensing": "yes"
            },
            "geometry": {
                "type": "Point",
                "coordinates": [
                    18.605701190057538,
                    54.378392244424134
                ]
            }
        },
        {
            "type": "Feature",
            "properties": {
                "ref:csioz": 1218601,
                "name": "Apteka Szpitalna W Wojewódzkim Centrum Onkologii",
                "addr:street": "Zwycięstwa",
                "addr:housenumber": "31/32",
                "addr:city": "Gdańsk",
                "addr:postcode": "80-219",
                "amenity": "pharmacy",
                "dispensing": "yes"
            },
            "geometry": {
                "type": "Point",
                "coordinates": [
                    18.627210115505168,
                    54.36996024544625
                ]
            }
        },
        {
            "type": "Feature",
            "properties": {
                "ref:csioz": 1219382,
                "name": "Avena",
                "addr:street": "Bitwy Oliwskiej",
                "addr:housenumber": "34",
                "addr:city": "Gdańsk",
                "addr:postcode": "80-339",
                "amenity": "pharmacy",
                "dispensing": "yes"
            },
            "geometry": {
                "type": "Point",
                "coordinates": [
                    18.566537043566864,
                    54.41831602953931
                ]
            }
        },
        {
            "type": "Feature",
            "properties": {
                "ref:csioz": 1220090,
                "name": "Dom Leków",
                "addr:street": "Janusza Meissnera",
                "addr:housenumber": "20",
                "addr:city": "Gdańsk",
                "addr:postcode": "80-462",
                "amenity": "pharmacy",
                "dispensing": "yes"
            },
            "geometry": {
                "type": "Point",
                "coordinates": [
                    18.609998107093052,
                    54.40300815720828
                ]
            }
        },
        {
            "type": "Feature",
            "properties": {
                "ref:csioz": 1221307,
                "name": "Dom Leków",
                "addr:street": "Zygmunta Noskowskiego",
                "addr:housenumber": "1",
                "addr:city": "Gdańsk",
                "addr:postcode": "80-170",
                "amenity": "pharmacy",
                "dispensing": "yes"
            },
            "geometry": {
                "type": "Point",
                "coordinates": [
                    18.61413383693032,
                    54.355578374539434
                ]
            }
        },
        {
            "type": "Feature",
            "properties": {
                "ref:csioz": 1221310,
                "name": "Apteka Szpitalna W Zakładzie Leczniczym: Szpital Dziecięcy Polanki",
                "addr:street": "Polanki",
                "addr:housenumber": "119",
                "addr:city": "Gdańsk",
                "addr:postcode": "80-308",
                "amenity": "pharmacy",
                "dispensing": "yes"
            },
            "geometry": {
                "type": "Point",
                "coordinates": [
                    18.56520302372203,
                    54.395454638149324
                ]
            }
        },
        {
            "type": "Feature",
            "properties": {
                "ref:csioz": 1222468,
                "name": "Dom Leków",
                "addr:street": "Opolska",
                "addr:housenumber": "3",
                "addr:city": "Gdańsk",
                "addr:postcode": "80-325",
                "amenity": "pharmacy",
                "dispensing": "yes"
            },
            "geometry": {
                "type": "Point",
                "coordinates": [
                    18.598636550662462,
                    54.40324281202811
                ]
            }
        },
        {
            "type": "Feature",
            "properties": {
                "ref:csioz": 1225659,
                "name": "Dr. Max",
                "addr:street": "Obrońców Wybrzeża",
                "addr:housenumber": "17",
                "addr:city": "Gdańsk",
                "addr:postcode": "80-398",
                "amenity": "pharmacy",
                "dispensing": "yes"
            },
            "geometry": {
                "type": "Point",
                "coordinates": [
                    18.598338180995558,
                    54.40991397949865
                ]
            }
        },
        {
            "type": "Feature",
            "properties": {
                "ref:csioz": 1225849,
                "name": "Apteka Gemini",
                "addr:street": "Obrońców Wybrzeża",
                "addr:housenumber": "2",
                "addr:city": "Gdańsk",
                "addr:postcode": "80-334",
                "amenity": "pharmacy",
                "dispensing": "yes"
            },
            "geometry": {
                "type": "Point",
                "coordinates": [
                    18.598056794192964,
                    54.40912158809292
                ]
            }
        },
        {
            "type": "Feature",
            "properties": {
                "ref:csioz": 1227515,
                "name": "Dział Farmacji Szpitalnej W Zakładzie Leczniczym: Centrum Krwiodawstwa Gdańsk",
                "addr:street": "Józefa Hoene-Wrońskiego",
                "addr:housenumber": "4",
                "addr:city": "Gdańsk",
                "addr:postcode": "80-210",
                "amenity": "pharmacy",
                "dispensing": "yes"
            },
            "geometry": {
                "type": "Point",
                "coordinates": [
                    18.628974242190115,
                    54.365765835810016
                ]
            }
        },
        {
            "type": "Feature",
            "properties": {
                "ref:csioz": 1229131,
                "name": "Apteka Bałtycka",
                "addr:street": "Niepołomicka",
                "addr:housenumber": "32",
                "addr:city": "Gdańsk",
                "addr:postcode": "80-180",
                "amenity": "pharmacy",
                "dispensing": "yes"
            },
            "geometry": {
                "type": "Point",
                "coordinates": [
                    18.597555143609767,
                    54.31125324087391
                ]
            }
        },
        {
            "type": "Feature",
            "properties": {
                "ref:csioz": 1230782,
                "name": "Apteka Szpitalna W Szpitalu Św. Wojciecha",
                "addr:street": "Jana Pawła II",
                "addr:housenumber": "50",
                "addr:city": "Gdańsk",
                "addr:postcode": "80-462",
                "amenity": "pharmacy",
                "dispensing": "yes"
            },
            "geometry": {
                "type": "Point",
                "coordinates": [
                    18.612215044408188,
                    54.40313826729
                ]
            }
        }
    ]
}