{
    "type": "FeatureCollection",
    "name": "JPT_KOD_JE_1438",
    "features": [
        {
            "type": "Feature",
            "properties": {
                "ref:csioz": 1093528,
                "name": "Apteka Mariańska",
                "addr:street": "Króla Jana Sobieskiego",
                "addr:housenumber": "3",
                "addr:city": "Puszcza Mariańska",
                "addr:postcode": "96-330",
                "amenity": "pharmacy",
                "dispensing": "yes"
            },
            "geometry": {
                "type": "Point",
                "coordinates": [
                    20.35081459583426,
                    51.97843755590497
                ]
            }
        },
        {
            "type": "Feature",
            "properties": {
                "ref:csioz": 1093544,
                "name": "\"Cef@Rm 36,6\"",
                "addr:street": "1 Maja",
                "addr:housenumber": "43",
                "addr:city": "Żyrardów",
                "addr:postcode": "96-300",
                "amenity": "pharmacy",
                "dispensing": "yes"
            },
            "geometry": {
                "type": "Point",
                "coordinates": [
                    20.43751109658329,
                    52.05618756089745
                ]
            }
        },
        {
            "type": "Feature",
            "properties": {
                "ref:csioz": 1093705,
                "name": "Vitaminka",
                "addr:street": "Stefana Okrzei",
                "addr:housenumber": "51B",
                "addr:city": "Żyrardów",
                "addr:postcode": "96-300",
                "amenity": "pharmacy",
                "dispensing": "yes"
            },
            "geometry": {
                "type": "Point",
                "coordinates": [
                    20.43901532792048,
                    52.052596386494514
                ]
            }
        },
        {
            "type": "Feature",
            "properties": {
                "ref:csioz": 1093898,
                "name": "Doz Apteka Dbam O Zdrowie Cerera",
                "addr:street": "Stefana Okrzei",
                "addr:housenumber": "51C",
                "addr:city": "Żyrardów",
                "addr:postcode": "96-300",
                "amenity": "pharmacy",
                "dispensing": "yes"
            },
            "geometry": {
                "type": "Point",
                "coordinates": [
                    20.43834334412777,
                    52.05254541449381
                ]
            }
        },
        {
            "type": "Feature",
            "properties": {
                "ref:csioz": 1116940,
                "addr:street": "Marii Skłodowskiej-Curie",
                "addr:housenumber": "14",
                "addr:city": "Żyrardów",
                "addr:postcode": "96-300",
                "amenity": "pharmacy",
                "dispensing": "yes"
            },
            "geometry": {
                "type": "Point",
                "coordinates": [
                    20.428447040406745,
                    52.050982536470705
                ]
            }
        },
        {
            "type": "Feature",
            "properties": {
                "ref:csioz": 1117784,
                "name": "Mgr Farm. Alina Zalewska",
                "addr:street": "Jana Kilińskiego",
                "addr:housenumber": "9",
                "addr:city": "Żyrardów",
                "addr:postcode": "96-300",
                "amenity": "pharmacy",
                "dispensing": "yes"
            },
            "geometry": {
                "type": "Point",
                "coordinates": [
                    20.444413309382387,
                    52.06380164417452
                ]
            }
        },
        {
            "type": "Feature",
            "properties": {
                "ref:csioz": 1179305,
                "name": "Vitaminka",
                "addr:street": "Filipa de Girarda",
                "addr:housenumber": "5",
                "addr:city": "Żyrardów",
                "addr:postcode": "96-300",
                "amenity": "pharmacy",
                "dispensing": "yes"
            },
            "geometry": {
                "type": "Point",
                "coordinates": [
                    20.42673395691164,
                    52.05452240012916
                ]
            }
        },
        {
            "type": "Feature",
            "properties": {
                "ref:csioz": 1198982,
                "name": "Ziko",
                "addr:street": "1 Maja",
                "addr:housenumber": "40",
                "addr:city": "Żyrardów",
                "addr:postcode": "96-300",
                "amenity": "pharmacy",
                "dispensing": "yes"
            },
            "geometry": {
                "type": "Point",
                "coordinates": [
                    20.43258086529972,
                    52.04768520866468
                ]
            }
        },
        {
            "type": "Feature",
            "properties": {
                "ref:csioz": 1093589,
                "addr:street": "Stefana Okrzei",
                "addr:housenumber": "16",
                "addr:city": "Żyrardów",
                "addr:postcode": "96-300",
                "amenity": "pharmacy",
                "dispensing": "yes"
            },
            "geometry": {
                "type": "Point",
                "coordinates": [
                    20.44303340649831,
                    52.0548186504826
                ]
            }
        },
        {
            "type": "Feature",
            "properties": {
                "ref:csioz": 1093566,
                "name": "Eskulap",
                "addr:street": "Filipa de Girarda",
                "addr:housenumber": "17",
                "addr:city": "Żyrardów",
                "addr:postcode": "96-300",
                "amenity": "pharmacy",
                "dispensing": "yes"
            },
            "geometry": {
                "type": "Point",
                "coordinates": [
                    20.442012816767036,
                    52.06746169845312
                ]
            }
        },
        {
            "type": "Feature",
            "properties": {
                "ref:csioz": 1223457,
                "name": "Doz Punkt Apteczny Dbam O Zdrowie Cerera",
                "addr:street": "Michała Ogińskiego",
                "addr:housenumber": "2",
                "addr:city": "Guzów",
                "addr:postcode": "96-317",
                "amenity": "pharmacy",
                "dispensing": "yes"
            },
            "geometry": {
                "type": "Point",
                "coordinates": [
                    20.338172000000757,
                    52.11529700001566
                ]
            }
        },
        {
            "type": "Feature",
            "properties": {
                "ref:csioz": 1093531,
                "name": "Apteka Św. Rafała",
                "addr:street": "Plac Wolności",
                "addr:housenumber": "26",
                "addr:city": "Wiskitki",
                "addr:postcode": "96-315",
                "amenity": "pharmacy",
                "dispensing": "yes"
            },
            "geometry": {
                "type": "Point",
                "coordinates": [
                    20.383714408542367,
                    52.086831118387366
                ]
            }
        },
        {
            "type": "Feature",
            "properties": {
                "ref:csioz": 1093695,
                "name": "Remedium",
                "addr:street": "Słoneczna",
                "addr:housenumber": "2A",
                "addr:city": "Radziejowice",
                "addr:postcode": "96-325",
                "amenity": "pharmacy",
                "dispensing": "yes"
            },
            "geometry": {
                "type": "Point",
                "coordinates": [
                    20.556842968263283,
                    52.003111689356835
                ]
            }
        },
        {
            "type": "Feature",
            "properties": {
                "ref:csioz": 1094020,
                "name": "Św. Stanisława Mszczonów",
                "addr:street": "Sienkiewicza",
                "addr:housenumber": "9",
                "addr:city": "Mszczonów",
                "addr:postcode": "96-320",
                "amenity": "pharmacy",
                "dispensing": "yes"
            },
            "geometry": {
                "type": "Point",
                "coordinates": [
                    20.51459500000106,
                    51.97331500001544
                ]
            }
        },
        {
            "type": "Feature",
            "properties": {
                "ref:csioz": 1094238,
                "addr:street": "Piekarska",
                "addr:housenumber": "2",
                "addr:city": "Osuchów",
                "addr:postcode": "96-323",
                "amenity": "pharmacy",
                "dispensing": "yes"
            },
            "geometry": {
                "type": "Point",
                "coordinates": [
                    20.5880444243857,
                    51.8982199741366
                ]
            }
        },
        {
            "type": "Feature",
            "properties": {
                "ref:csioz": 1094246,
                "addr:street": "Warszawska",
                "addr:housenumber": "15C",
                "addr:city": "Radziwiłłów",
                "addr:postcode": "96-330",
                "amenity": "pharmacy",
                "dispensing": "yes"
            },
            "geometry": {
                "type": "Point",
                "coordinates": [
                    20.286987521170726,
                    51.99695864458351
                ]
            }
        },
        {
            "type": "Feature",
            "properties": {
                "ref:csioz": 1116933,
                "name": "Apteka Viola",
                "addr:street": "Polskiej Organizacji Wojskowej",
                "addr:housenumber": "20-24",
                "addr:city": "Żyrardów",
                "addr:postcode": "96-300",
                "amenity": "pharmacy",
                "dispensing": "yes"
            },
            "geometry": {
                "type": "Point",
                "coordinates": [
                    20.44423677680567,
                    52.05174538126431
                ]
            }
        },
        {
            "type": "Feature",
            "properties": {
                "ref:csioz": 1117014,
                "name": "Przy Ogrodowej",
                "addr:street": "Ogrodowa",
                "addr:housenumber": "13",
                "addr:city": "Wiskitki",
                "addr:postcode": "96-315",
                "amenity": "pharmacy",
                "dispensing": "yes"
            },
            "geometry": {
                "type": "Point",
                "coordinates": [
                    20.3820569280416,
                    52.086116275203125
                ]
            }
        },
        {
            "type": "Feature",
            "properties": {
                "ref:csioz": 1093553,
                "addr:street": "1 Maja",
                "addr:housenumber": "50",
                "addr:city": "Żyrardów",
                "addr:postcode": "96-300",
                "amenity": "pharmacy",
                "dispensing": "yes"
            },
            "geometry": {
                "type": "Point",
                "coordinates": [
                    20.439148741172563,
                    52.05518382350492
                ]
            }
        },
        {
            "type": "Feature",
            "properties": {
                "ref:csioz": 1093577,
                "addr:street": "ks. Ottona Wittenberga",
                "addr:housenumber": "3",
                "addr:city": "Żyrardów",
                "addr:postcode": "96-300",
                "amenity": "pharmacy",
                "dispensing": "yes"
            },
            "geometry": {
                "type": "Point",
                "coordinates": [
                    20.426707614740675,
                    52.05382970477307
                ]
            }
        },
        {
            "type": "Feature",
            "properties": {
                "ref:csioz": 1093794,
                "name": "Mgr Farm. Alina Zalewska",
                "addr:street": "Bolesława Limanowskiego",
                "addr:housenumber": "51G",
                "addr:city": "Żyrardów",
                "addr:postcode": "96-300",
                "amenity": "pharmacy",
                "dispensing": "yes"
            },
            "geometry": {
                "type": "Point",
                "coordinates": [
                    20.43188114616823,
                    52.0548932685567
                ]
            }
        },
        {
            "type": "Feature",
            "properties": {
                "ref:csioz": 1098508,
                "name": "Apteka Szptalna",
                "addr:street": "Bolesława Limanowskiego",
                "addr:housenumber": "30",
                "addr:city": "Żyrardów",
                "addr:postcode": "96-300",
                "amenity": "pharmacy",
                "dispensing": "yes"
            },
            "geometry": {
                "type": "Point",
                "coordinates": [
                    20.440143254120137,
                    52.05918255074248
                ]
            }
        },
        {
            "type": "Feature",
            "properties": {
                "ref:csioz": 1116825,
                "name": "Apteka Na Północnej",
                "addr:street": "Północna",
                "addr:housenumber": "8A",
                "addr:city": "Mszczonów",
                "addr:postcode": "96-320",
                "amenity": "pharmacy",
                "dispensing": "yes"
            },
            "geometry": {
                "type": "Point",
                "coordinates": [
                    20.524344120496114,
                    51.9764979966994
                ]
            }
        },
        {
            "type": "Feature",
            "properties": {
                "ref:csioz": 1116922,
                "name": "Apteka Prywatna Mgr Farm. Dorota I Jacek Tokarscy S.C",
                "addr:street": "Aleje Partyzantów",
                "addr:housenumber": "11/13",
                "addr:city": "Żyrardów",
                "addr:postcode": "96-300",
                "amenity": "pharmacy",
                "dispensing": "yes"
            },
            "geometry": {
                "type": "Point",
                "coordinates": [
                    20.444634506391974,
                    52.05603337146534
                ]
            }
        },
        {
            "type": "Feature",
            "properties": {
                "ref:csioz": 1117067,
                "name": "Farmacja 24",
                "addr:street": "Bolesława Limanowskiego",
                "addr:housenumber": "30",
                "addr:city": "Żyrardów",
                "addr:postcode": "96-300",
                "amenity": "pharmacy",
                "dispensing": "yes"
            },
            "geometry": {
                "type": "Point",
                "coordinates": [
                    20.440143254120137,
                    52.05918255074248
                ]
            }
        },
        {
            "type": "Feature",
            "properties": {
                "ref:csioz": 1117095,
                "name": "Jesionka",
                "addr:street": "Wspólna",
                "addr:housenumber": "74",
                "addr:city": "Mrozy",
                "addr:postcode": "96-330",
                "amenity": "pharmacy",
                "dispensing": "yes"
            },
            "geometry": {
                "type": "Point",
                "coordinates": [
                    20.366108881067074,
                    52.020379161482325
                ]
            }
        },
        {
            "type": "Feature",
            "properties": {
                "ref:csioz": 1186220,
                "name": "Przy Dworcu",
                "addr:street": "Polskiej Organizacji Wojskowej",
                "addr:housenumber": "2D",
                "addr:city": "Żyrardów",
                "addr:postcode": "96-300",
                "amenity": "pharmacy",
                "dispensing": "yes"
            },
            "geometry": {
                "type": "Point",
                "coordinates": [
                    20.44733028442488,
                    52.05273069700967
                ]
            }
        },
        {
            "type": "Feature",
            "properties": {
                "ref:csioz": 1200159,
                "name": "Apteka Codzienna",
                "addr:street": "Henryka Sienkiewicza",
                "addr:housenumber": "30",
                "addr:city": "Mszczonów",
                "addr:postcode": "96-320",
                "amenity": "pharmacy",
                "dispensing": "yes"
            },
            "geometry": {
                "type": "Point",
                "coordinates": [
                    20.51705065480641,
                    51.972292596073686
                ]
            }
        },
        {
            "type": "Feature",
            "properties": {
                "ref:csioz": 1202404,
                "name": "Mgr Farm. Alina Zalewska",
                "addr:street": "Stefana Okrzei",
                "addr:housenumber": "6",
                "addr:city": "Żyrardów",
                "addr:postcode": "96-300",
                "amenity": "pharmacy",
                "dispensing": "yes"
            },
            "geometry": {
                "type": "Point",
                "coordinates": [
                    20.44579094092342,
                    52.05585116046141
                ]
            }
        },
        {
            "type": "Feature",
            "properties": {
                "ref:csioz": 1205263,
                "name": "Centrum Medycyny I Rehabilitacji Artkinezis Szpital",
                "addr:street": "Wiejska",
                "addr:housenumber": "19/21",
                "addr:city": "Żyrardów",
                "addr:postcode": "96-300",
                "amenity": "pharmacy",
                "dispensing": "yes"
            },
            "geometry": {
                "type": "Point",
                "coordinates": [
                    20.436796844835076,
                    52.060365102654586
                ]
            }
        },
        {
            "type": "Feature",
            "properties": {
                "ref:csioz": 1209331,
                "name": "Centralna",
                "addr:street": "Aleje Partyzantów",
                "addr:housenumber": "15",
                "addr:city": "Żyrardów",
                "addr:postcode": "96-300",
                "amenity": "pharmacy",
                "dispensing": "yes"
            },
            "geometry": {
                "type": "Point",
                "coordinates": [
                    20.444424543436856,
                    52.056326678801305
                ]
            }
        },
        {
            "type": "Feature",
            "properties": {
                "ref:csioz": 1093502,
                "name": "Apteka Zdrowie",
                "addr:street": "Dworcowa",
                "addr:housenumber": "1",
                "addr:city": "Mszczonów",
                "addr:postcode": "96-320",
                "amenity": "pharmacy",
                "dispensing": "yes"
            },
            "geometry": {
                "type": "Point",
                "coordinates": [
                    20.521093839573457,
                    51.973550075188
                ]
            }
        }
    ]
}