{
    "type": "FeatureCollection",
    "name": "JPT_KOD_JE_1811",
    "features": [
        {
            "type": "Feature",
            "properties": {
                "ref:csioz": 1137500,
                "addr:street": "Rożniaty",
                "addr:housenumber": "17A",
                "addr:city": "Padew Narodowa",
                "addr:postcode": "39-340",
                "amenity": "pharmacy"
            },
            "geometry": {
                "type": "Point",
                "coordinates": [
                    21.436861000007635,
                    50.438065000013154
                ]
            }
        },
        {
            "type": "Feature",
            "properties": {
                "ref:csioz": 1144364,
                "addr:street": "Księdza Skargi",
                "addr:housenumber": "4",
                "addr:city": "Mielec",
                "addr:postcode": "39-300",
                "amenity": "pharmacy"
            },
            "geometry": {
                "type": "Point",
                "coordinates": [
                    21.432387284223235,
                    50.29685620693988
                ]
            }
        },
        {
            "type": "Feature",
            "properties": {
                "ref:csioz": 1144238,
                "name": "Centrum",
                "addr:street": "Stefana Batorego",
                "addr:housenumber": "20",
                "addr:city": "Mielec",
                "addr:postcode": "39-300",
                "amenity": "pharmacy"
            },
            "geometry": {
                "type": "Point",
                "coordinates": [
                    21.419839156678158,
                    50.287945515582464
                ]
            }
        },
        {
            "type": "Feature",
            "properties": {
                "ref:csioz": 1144246,
                "name": "Inter Apteka",
                "addr:street": "Biernackiego",
                "addr:housenumber": "2",
                "addr:city": "Mielec",
                "addr:postcode": "39-300",
                "amenity": "pharmacy"
            },
            "geometry": {
                "type": "Point",
                "coordinates": [
                    21.442454433984324,
                    50.297119115356246
                ]
            }
        },
        {
            "type": "Feature",
            "properties": {
                "ref:csioz": 1144251,
                "name": "Remedium",
                "addr:street": "Chałubińskiego",
                "addr:housenumber": "6",
                "addr:city": "Mielec",
                "addr:postcode": "39-300",
                "amenity": "pharmacy"
            },
            "geometry": {
                "type": "Point",
                "coordinates": [
                    21.463879265402063,
                    50.294319908011246
                ]
            }
        },
        {
            "type": "Feature",
            "properties": {
                "ref:csioz": 1144295,
                "name": "Twoje Leki",
                "addr:street": "Kocjana",
                "addr:housenumber": "2",
                "addr:city": "Mielec",
                "addr:postcode": "39-300",
                "amenity": "pharmacy"
            },
            "geometry": {
                "type": "Point",
                "coordinates": [
                    21.423931864613003,
                    50.294120474088864
                ]
            }
        },
        {
            "type": "Feature",
            "properties": {
                "ref:csioz": 1144422,
                "name": "Pod Orłem",
                "addr:street": "Wolności",
                "addr:housenumber": "2A",
                "addr:city": "Mielec",
                "addr:postcode": "39-300",
                "amenity": "pharmacy"
            },
            "geometry": {
                "type": "Point",
                "coordinates": [
                    21.42794022173297,
                    50.28767573840303
                ]
            }
        },
        {
            "type": "Feature",
            "properties": {
                "ref:csioz": 1144433,
                "name": "Centrum",
                "addr:street": "Wolności",
                "addr:housenumber": "27C",
                "addr:city": "Mielec",
                "addr:postcode": "39-300",
                "amenity": "pharmacy"
            },
            "geometry": {
                "type": "Point",
                "coordinates": [
                    21.439630084180383,
                    50.28695295759329
                ]
            }
        },
        {
            "type": "Feature",
            "properties": {
                "ref:csioz": 1144440,
                "addr:street": "Wolności",
                "addr:housenumber": "66A",
                "addr:city": "Mielec",
                "addr:postcode": "39-300",
                "amenity": "pharmacy"
            },
            "geometry": {
                "type": "Point",
                "coordinates": [
                    21.44872949256436,
                    50.2877313458657
                ]
            }
        },
        {
            "type": "Feature",
            "properties": {
                "ref:csioz": 1144479,
                "name": "Gelena",
                "addr:street": "Zygmuntowska",
                "addr:housenumber": "4",
                "addr:city": "Mielec",
                "addr:postcode": "39-300",
                "amenity": "pharmacy"
            },
            "geometry": {
                "type": "Point",
                "coordinates": [
                    21.46891674164227,
                    50.28772658008052
                ]
            }
        },
        {
            "type": "Feature",
            "properties": {
                "ref:csioz": 1144498,
                "name": "Centrum",
                "addr:street": "Żeromskiego",
                "addr:housenumber": "19",
                "addr:city": "Mielec",
                "addr:postcode": "39-300",
                "amenity": "pharmacy"
            },
            "geometry": {
                "type": "Point",
                "coordinates": [
                    21.437019672630605,
                    50.28982266678605
                ]
            }
        },
        {
            "type": "Feature",
            "properties": {
                "ref:csioz": 1144639,
                "name": "Pod Modrzewiami",
                "addr:housenumber": "51B",
                "addr:postcode": "39-332",
                "amenity": "pharmacy",
                "addr:place": "Tuszów Narodowy"
            },
            "geometry": {
                "type": "Point",
                "coordinates": [
                    21.45658437264161,
                    50.370439290443656
                ]
            }
        },
        {
            "type": "Feature",
            "properties": {
                "ref:csioz": 1165425,
                "name": "Doz Apteka Dbam O Zdrowie Foxpharma",
                "addr:street": "Legionów",
                "addr:housenumber": "80a",
                "addr:city": "Mielec",
                "addr:postcode": "39-300",
                "amenity": "pharmacy"
            },
            "geometry": {
                "type": "Point",
                "coordinates": [
                    21.40413200773334,
                    50.28772189031928
                ]
            }
        },
        {
            "type": "Feature",
            "properties": {
                "ref:csioz": 1165417,
                "name": "\"Apteka-Nova \"\"Centrum Taniego Leczenia\"\"\"",
                "addr:street": "Mickiewicza",
                "addr:housenumber": "44",
                "addr:city": "Mielec",
                "addr:postcode": "39-300",
                "amenity": "pharmacy"
            },
            "geometry": {
                "type": "Point",
                "coordinates": [
                    21.42592745248043,
                    50.287463658957854
                ]
            }
        },
        {
            "type": "Feature",
            "properties": {
                "ref:csioz": 1213549,
                "name": "Różana",
                "addr:street": "Aleja Niepodległości",
                "addr:housenumber": "9",
                "addr:city": "Mielec",
                "addr:postcode": "39-300",
                "amenity": "pharmacy"
            },
            "geometry": {
                "type": "Point",
                "coordinates": [
                    21.4410738285655,
                    50.29583276092717
                ]
            }
        },
        {
            "type": "Feature",
            "properties": {
                "ref:csioz": 1221574,
                "name": "Arnika",
                "addr:housenumber": "6D",
                "addr:postcode": "39-307",
                "amenity": "pharmacy",
                "addr:place": "Gawłuszowice"
            },
            "geometry": {
                "type": "Point",
                "coordinates": [
                    21.380108000006842,
                    50.41410300001311
                ]
            }
        },
        {
            "type": "Feature",
            "properties": {
                "ref:csioz": 1125363,
                "addr:street": "Żeromskiego",
                "addr:housenumber": "22",
                "addr:city": "Mielec",
                "addr:postcode": "39-300",
                "amenity": "pharmacy"
            },
            "geometry": {
                "type": "Point",
                "coordinates": [
                    21.436536259311318,
                    50.28882594384343
                ]
            }
        },
        {
            "type": "Feature",
            "properties": {
                "ref:csioz": 1144626,
                "addr:housenumber": "260",
                "addr:postcode": "39-322",
                "amenity": "pharmacy",
                "addr:place": "Rzemień"
            },
            "geometry": {
                "type": "Point",
                "coordinates": [
                    21.509758870309618,
                    50.21565509105982
                ]
            }
        },
        {
            "type": "Feature",
            "properties": {
                "ref:csioz": 1136831,
                "addr:street": "Piotra Skargi",
                "addr:housenumber": "19",
                "addr:city": "Mielec",
                "addr:postcode": "39-300",
                "amenity": "pharmacy"
            },
            "geometry": {
                "type": "Point",
                "coordinates": [
                    21.431844293643596,
                    50.29657465585553
                ]
            }
        },
        {
            "type": "Feature",
            "properties": {
                "ref:csioz": 1138372,
                "addr:street": "Żeromskiego",
                "addr:housenumber": "22",
                "addr:city": "Mielec",
                "addr:postcode": "39-300",
                "amenity": "pharmacy"
            },
            "geometry": {
                "type": "Point",
                "coordinates": [
                    21.436536259311318,
                    50.28882594384343
                ]
            }
        },
        {
            "type": "Feature",
            "properties": {
                "ref:csioz": 1144355,
                "name": "Doz Apteka. Dbam O Zdrowie. Borek",
                "addr:street": "Pisarka",
                "addr:housenumber": "14",
                "addr:city": "Mielec",
                "addr:postcode": "39-300",
                "amenity": "pharmacy"
            },
            "geometry": {
                "type": "Point",
                "coordinates": [
                    21.42202392378943,
                    50.294488087107865
                ]
            }
        },
        {
            "type": "Feature",
            "properties": {
                "ref:csioz": 1144307,
                "name": "Pasaż",
                "addr:street": "Skłodowskiej-Curie",
                "addr:housenumber": "8a",
                "addr:city": "Mielec",
                "addr:postcode": "39-300",
                "amenity": "pharmacy"
            },
            "geometry": {
                "type": "Point",
                "coordinates": [
                    21.444216993488393,
                    50.296271880167055
                ]
            }
        },
        {
            "type": "Feature",
            "properties": {
                "ref:csioz": 1144332,
                "name": "Prolek",
                "addr:street": "Piaskowa",
                "addr:housenumber": "2",
                "addr:city": "Mielec",
                "addr:postcode": "39-300",
                "amenity": "pharmacy"
            },
            "geometry": {
                "type": "Point",
                "coordinates": [
                    21.43618774699224,
                    50.28624184273588
                ]
            }
        },
        {
            "type": "Feature",
            "properties": {
                "ref:csioz": 1144386,
                "addr:street": "Raciborskiego",
                "addr:housenumber": "7",
                "addr:city": "Mielec",
                "addr:postcode": "39-300",
                "amenity": "pharmacy"
            },
            "geometry": {
                "type": "Point",
                "coordinates": [
                    21.465802446878985,
                    50.29570860079188
                ]
            }
        },
        {
            "type": "Feature",
            "properties": {
                "ref:csioz": 1144393,
                "name": "Milenium",
                "addr:street": "Rynek",
                "addr:housenumber": "26",
                "addr:city": "Mielec",
                "addr:postcode": "39-300",
                "amenity": "pharmacy"
            },
            "geometry": {
                "type": "Point",
                "coordinates": [
                    21.419881953679212,
                    50.286534322134514
                ]
            }
        },
        {
            "type": "Feature",
            "properties": {
                "ref:csioz": 1144501,
                "name": "Milenium",
                "addr:street": "Żeromskiego",
                "addr:housenumber": "19A",
                "addr:city": "Mielec",
                "addr:postcode": "39-300",
                "amenity": "pharmacy"
            },
            "geometry": {
                "type": "Point",
                "coordinates": [
                    21.43812400000775,
                    50.29051900001295
                ]
            }
        },
        {
            "type": "Feature",
            "properties": {
                "ref:csioz": 1144517,
                "addr:housenumber": "333A",
                "addr:postcode": "39-305",
                "amenity": "pharmacy",
                "addr:place": "Borowa"
            },
            "geometry": {
                "type": "Point",
                "coordinates": [
                    21.347544233095263,
                    50.38490869902486
                ]
            }
        },
        {
            "type": "Feature",
            "properties": {
                "ref:csioz": 1144549,
                "name": "Arnika",
                "addr:housenumber": "112",
                "addr:postcode": "39-331",
                "amenity": "pharmacy",
                "addr:place": "Chorzelów"
            },
            "geometry": {
                "type": "Point",
                "coordinates": [
                    21.44041687936753,
                    50.3295672260654
                ]
            }
        },
        {
            "type": "Feature",
            "properties": {
                "ref:csioz": 1144558,
                "name": "Twoje Zdrowie",
                "addr:housenumber": "763",
                "addr:postcode": "39-331",
                "amenity": "pharmacy",
                "addr:place": "Chorzelów"
            },
            "geometry": {
                "type": "Point",
                "coordinates": [
                    21.450174212165752,
                    50.34467297607633
                ]
            }
        },
        {
            "type": "Feature",
            "properties": {
                "ref:csioz": 1144563,
                "addr:street": "Ludwiki Uzar-Krysiakowej",
                "addr:housenumber": "24",
                "addr:city": "Padew Narodowa",
                "addr:postcode": "39-340",
                "amenity": "pharmacy"
            },
            "geometry": {
                "type": "Point",
                "coordinates": [
                    21.498994355915244,
                    50.437358802993636
                ]
            }
        },
        {
            "type": "Feature",
            "properties": {
                "ref:csioz": 1144574,
                "addr:street": "Księdza Jana Kica",
                "addr:housenumber": "2",
                "addr:city": "Padew Narodowa",
                "addr:postcode": "39-340",
                "amenity": "pharmacy"
            },
            "geometry": {
                "type": "Point",
                "coordinates": [
                    21.49786715327937,
                    50.43508639874601
                ]
            }
        },
        {
            "type": "Feature",
            "properties": {
                "ref:csioz": 1144596,
                "name": "Witaminka",
                "addr:street": "Rynek",
                "addr:housenumber": "6",
                "addr:city": "Przecław",
                "addr:postcode": "39-320",
                "amenity": "pharmacy"
            },
            "geometry": {
                "type": "Point",
                "coordinates": [
                    21.48123767534196,
                    50.193666055053356
                ]
            }
        },
        {
            "type": "Feature",
            "properties": {
                "ref:csioz": 1166184,
                "name": "Niezapominajka Dla Całej Rodziny",
                "addr:street": "Aleja Niepodległości",
                "addr:housenumber": "1",
                "addr:city": "Mielec",
                "addr:postcode": "39-300",
                "amenity": "pharmacy"
            },
            "geometry": {
                "type": "Point",
                "coordinates": [
                    21.43641942197347,
                    50.29372042886475
                ]
            }
        },
        {
            "type": "Feature",
            "properties": {
                "ref:csioz": 1169992,
                "name": "Różana",
                "addr:street": "Wolności",
                "addr:housenumber": "26",
                "addr:city": "Mielec",
                "addr:postcode": "39-300",
                "amenity": "pharmacy"
            },
            "geometry": {
                "type": "Point",
                "coordinates": [
                    21.433611000724134,
                    50.28668116737848
                ]
            }
        },
        {
            "type": "Feature",
            "properties": {
                "ref:csioz": 1186437,
                "name": "Punkt Apteczny Artfarm",
                "addr:housenumber": "138a",
                "addr:postcode": "39-321",
                "amenity": "pharmacy",
                "addr:place": "Tuszyma"
            },
            "geometry": {
                "type": "Point",
                "coordinates": [
                    21.499989015031645,
                    50.18533811225794
                ]
            }
        },
        {
            "type": "Feature",
            "properties": {
                "ref:csioz": 1187845,
                "name": "Apteka Słoneczna",
                "addr:street": "Aleja Niepodległości",
                "addr:housenumber": "11A",
                "addr:city": "Mielec",
                "addr:postcode": "39-300",
                "amenity": "pharmacy"
            },
            "geometry": {
                "type": "Point",
                "coordinates": [
                    21.443329467381986,
                    50.297518907805916
                ]
            }
        },
        {
            "type": "Feature",
            "properties": {
                "ref:csioz": 1205077,
                "name": "Arnika",
                "addr:housenumber": "421C",
                "addr:postcode": "39-331",
                "amenity": "pharmacy",
                "addr:place": "Chorzelów"
            },
            "geometry": {
                "type": "Point",
                "coordinates": [
                    21.443285507330913,
                    50.335742514974434
                ]
            }
        },
        {
            "type": "Feature",
            "properties": {
                "ref:csioz": 1212470,
                "name": "Cosmedica",
                "addr:street": "Powstańców Warszawy",
                "addr:housenumber": "4",
                "addr:city": "Mielec",
                "addr:postcode": "39-300",
                "amenity": "pharmacy"
            },
            "geometry": {
                "type": "Point",
                "coordinates": [
                    21.46000434456354,
                    50.287669621679385
                ]
            }
        },
        {
            "type": "Feature",
            "properties": {
                "ref:csioz": 1216000,
                "name": "\"Apteka 'Codzienna'\"",
                "addr:street": "Pisarka",
                "addr:housenumber": "1C",
                "addr:city": "Mielec",
                "addr:postcode": "39-302",
                "amenity": "pharmacy"
            },
            "geometry": {
                "type": "Point",
                "coordinates": [
                    21.423614399389518,
                    50.2930966270806
                ]
            }
        },
        {
            "type": "Feature",
            "properties": {
                "ref:csioz": 1144310,
                "name": "Dr.Max",
                "addr:street": "Aleja Niepodległości",
                "addr:housenumber": "9",
                "addr:city": "Mielec",
                "addr:postcode": "39-300",
                "amenity": "pharmacy"
            },
            "geometry": {
                "type": "Point",
                "coordinates": [
                    21.4410738285655,
                    50.29583276092717
                ]
            }
        },
        {
            "type": "Feature",
            "properties": {
                "ref:csioz": 1144525,
                "addr:housenumber": "43",
                "addr:postcode": "39-304",
                "amenity": "pharmacy",
                "addr:place": "Czermin"
            },
            "geometry": {
                "type": "Point",
                "coordinates": [
                    21.33253425615314,
                    50.33928658887233
                ]
            }
        },
        {
            "type": "Feature",
            "properties": {
                "ref:csioz": 1144530,
                "name": "Antidotum",
                "addr:housenumber": "470",
                "addr:postcode": "39-304",
                "amenity": "pharmacy",
                "addr:place": "Czermin"
            },
            "geometry": {
                "type": "Point",
                "coordinates": [
                    21.33110484090695,
                    50.339681196311545
                ]
            }
        },
        {
            "type": "Feature",
            "properties": {
                "ref:csioz": 1144647,
                "addr:housenumber": "136",
                "addr:postcode": "39-308",
                "amenity": "pharmacy",
                "addr:place": "Wadowice Górne"
            },
            "geometry": {
                "type": "Point",
                "coordinates": [
                    21.286467000005743,
                    50.2646940000129
                ]
            }
        },
        {
            "type": "Feature",
            "properties": {
                "ref:csioz": 1144605,
                "name": "Arnika",
                "addr:street": "Rynek",
                "addr:housenumber": "11",
                "addr:city": "Radomyśl Wielki",
                "addr:postcode": "39-310",
                "amenity": "pharmacy"
            },
            "geometry": {
                "type": "Point",
                "coordinates": [
                    21.277865064318956,
                    50.196218594210535
                ]
            }
        },
        {
            "type": "Feature",
            "properties": {
                "ref:csioz": 1144618,
                "name": "Witaminka",
                "addr:street": "Targowa",
                "addr:housenumber": "2",
                "addr:city": "Radomyśl Wielki",
                "addr:postcode": "39-310",
                "amenity": "pharmacy"
            },
            "geometry": {
                "type": "Point",
                "coordinates": [
                    21.278099708205378,
                    50.1958144524738
                ]
            }
        },
        {
            "type": "Feature",
            "properties": {
                "ref:csioz": 1224288,
                "name": "Vita",
                "addr:street": "Armii Krajowej",
                "addr:housenumber": "32",
                "addr:city": "Radomyśl Wielki",
                "addr:postcode": "39-310",
                "amenity": "pharmacy"
            },
            "geometry": {
                "type": "Point",
                "coordinates": [
                    21.281632360031917,
                    50.19694329949668
                ]
            }
        }
    ]
}