{
    "type": "FeatureCollection",
    "name": "JPT_KOD_JE_0406",
    "features": [
        {
            "type": "Feature",
            "properties": {
                "ref:csioz": 1102926,
                "name": "Wrzos",
                "addr:street": "Wrzosowa",
                "addr:housenumber": "4-8",
                "addr:city": "Łasin",
                "addr:postcode": "86-320",
                "amenity": "pharmacy"
            },
            "geometry": {
                "type": "Point",
                "coordinates": [
                    19.0902905227048,
                    53.51775543745162
                ]
            }
        },
        {
            "type": "Feature",
            "properties": {
                "ref:csioz": 1103635,
                "name": "Apteka Św. Jana",
                "addr:housenumber": "288",
                "addr:flats": "-",
                "addr:city": "Gruta",
                "addr:postcode": "86-327",
                "amenity": "pharmacy"
            },
            "geometry": {
                "type": "Point",
                "coordinates": [
                    18.960984335726994,
                    53.454732647225484
                ]
            }
        },
        {
            "type": "Feature",
            "properties": {
                "ref:csioz": 1103662,
                "name": "Radix",
                "addr:street": "Byczak",
                "addr:housenumber": "1",
                "addr:city": "Radzyń Chełmiński",
                "addr:postcode": "87-220",
                "amenity": "pharmacy"
            },
            "geometry": {
                "type": "Point",
                "coordinates": [
                    18.940431468692125,
                    53.383473980016014
                ]
            }
        },
        {
            "type": "Feature",
            "properties": {
                "ref:csioz": 1105277,
                "name": "Im. Jana Pawła Ii",
                "addr:housenumber": "57A",
                "addr:flats": "-",
                "addr:city": "Mełno",
                "addr:postcode": "86-330",
                "amenity": "pharmacy"
            },
            "geometry": {
                "type": "Point",
                "coordinates": [
                    18.940200188174167,
                    53.43637326647965
                ]
            }
        },
        {
            "type": "Feature",
            "properties": {
                "ref:csioz": 1105312,
                "name": "Flos",
                "addr:housenumber": "15",
                "addr:flats": "-",
                "addr:city": "Rogóźno",
                "addr:postcode": "86-318",
                "amenity": "pharmacy"
            },
            "geometry": {
                "type": "Point",
                "coordinates": [
                    18.922694084609734,
                    53.5357530821767
                ]
            }
        },
        {
            "type": "Feature",
            "properties": {
                "ref:csioz": 1105665,
                "name": "Samodzielny Publiczny Zakład Opieki Zdrowotnej Im. Macieja Z Miechowa W Łasinie",
                "addr:street": "Radzyńska",
                "addr:housenumber": "4",
                "addr:city": "Łasin",
                "addr:postcode": "86-320",
                "amenity": "pharmacy"
            },
            "geometry": {
                "type": "Point",
                "coordinates": [
                    19.081302040887312,
                    53.517500346128934
                ]
            }
        },
        {
            "type": "Feature",
            "properties": {
                "ref:csioz": 1102905,
                "name": "Pod Orłem",
                "addr:street": "Rynek",
                "addr:housenumber": "35",
                "addr:flats": "36",
                "addr:city": "Łasin",
                "addr:postcode": "86-320",
                "amenity": "pharmacy"
            },
            "geometry": {
                "type": "Point",
                "coordinates": [
                    19.087024000000035,
                    53.51919700001794
                ]
            }
        },
        {
            "type": "Feature",
            "properties": {
                "ref:csioz": 1102918,
                "name": "Św. Łukasza",
                "addr:street": "Radzyńska",
                "addr:housenumber": "4",
                "addr:city": "Łasin",
                "addr:postcode": "86-320",
                "amenity": "pharmacy"
            },
            "geometry": {
                "type": "Point",
                "coordinates": [
                    19.081302040887312,
                    53.517500346128934
                ]
            }
        },
        {
            "type": "Feature",
            "properties": {
                "ref:csioz": 1103720,
                "name": "Nad Osą",
                "addr:housenumber": "5A",
                "addr:city": "Świecie nad Osą",
                "addr:postcode": "86-341",
                "amenity": "pharmacy"
            },
            "geometry": {
                "type": "Point",
                "coordinates": [
                    19.098550397328356,
                    53.44190107649098
                ]
            }
        },
        {
            "type": "Feature",
            "properties": {
                "ref:csioz": 1170912,
                "addr:housenumber": "69",
                "addr:city": "Lisnowo",
                "addr:postcode": "86-342",
                "amenity": "pharmacy"
            },
            "geometry": {
                "type": "Point",
                "coordinates": [
                    19.16445058285946,
                    53.46633593257074
                ]
            }
        },
        {
            "type": "Feature",
            "properties": {
                "ref:csioz": 1200550,
                "name": "Stokrotka Ii",
                "addr:street": "Tysiąclecia",
                "addr:housenumber": "27",
                "addr:city": "Radzyń Chełmiński",
                "addr:postcode": "87-220",
                "amenity": "pharmacy"
            },
            "geometry": {
                "type": "Point",
                "coordinates": [
                    18.940766803744587,
                    53.38269527822602
                ]
            }
        }
    ]
}