{
    "type": "FeatureCollection",
    "name": "JPT_KOD_JE_2408",
    "features": [
        {
            "type": "Feature",
            "properties": {
                "ref:csioz": 1062535,
                "name": "Brak Nazwy",
                "addr:street": "Pszczyńska",
                "addr:housenumber": "368",
                "addr:city": "Gostyń",
                "addr:postcode": "43-176",
                "amenity": "pharmacy"
            },
            "geometry": {
                "type": "Point",
                "coordinates": [
                    18.882560999999967,
                    50.10357700001264
                ]
            }
        },
        {
            "type": "Feature",
            "properties": {
                "ref:csioz": 1065506,
                "name": "Brak",
                "addr:street": "Centrum",
                "addr:housenumber": "7",
                "addr:city": "Łaziska Górne",
                "addr:postcode": "43-170",
                "amenity": "pharmacy"
            },
            "geometry": {
                "type": "Point",
                "coordinates": [
                    18.84273229977819,
                    50.14889696869966
                ]
            }
        },
        {
            "type": "Feature",
            "properties": {
                "ref:csioz": 1065511,
                "name": "Moja Apteka",
                "addr:street": "STASZICA",
                "addr:housenumber": "2",
                "addr:city": "ŁAZISKA GÓRNE",
                "addr:postcode": "43-170",
                "amenity": "pharmacy"
            },
            "geometry": {
                "type": "Point",
                "coordinates": [
                    18.86523384100817,
                    50.14188752438698
                ]
            }
        },
        {
            "type": "Feature",
            "properties": {
                "ref:csioz": 1065522,
                "name": "Apteka Dbam O Zdrowie",
                "addr:street": "WIEJSKA",
                "addr:housenumber": "1",
                "addr:city": "ŁAZISKA GÓRNE",
                "addr:postcode": "43-170",
                "amenity": "pharmacy"
            },
            "geometry": {
                "type": "Point",
                "coordinates": [
                    18.84036585876586,
                    50.1474432749175
                ]
            }
        },
        {
            "type": "Feature",
            "properties": {
                "ref:csioz": 1071248,
                "name": "Apteka Im.Łukasiewicza",
                "addr:street": "Tysiąclecia",
                "addr:housenumber": "3",
                "addr:city": "Wyry",
                "addr:postcode": "43-175",
                "amenity": "pharmacy"
            },
            "geometry": {
                "type": "Point",
                "coordinates": [
                    18.899568642659634,
                    50.131605970527445
                ]
            }
        },
        {
            "type": "Feature",
            "properties": {
                "ref:csioz": 1114897,
                "name": "Szpital Św. Józefa",
                "addr:street": "Stefana Okrzei",
                "addr:housenumber": "27",
                "addr:city": "Mikołów",
                "addr:postcode": "43-190",
                "amenity": "pharmacy"
            },
            "geometry": {
                "type": "Point",
                "coordinates": [
                    18.90809190081138,
                    50.170123971261425
                ]
            }
        },
        {
            "type": "Feature",
            "properties": {
                "ref:csioz": 1172542,
                "name": "Apteka Mikołowska",
                "addr:street": "Stefana Okrzei",
                "addr:housenumber": "20",
                "addr:city": "Mikołów",
                "addr:postcode": "43-190",
                "amenity": "pharmacy"
            },
            "geometry": {
                "type": "Point",
                "coordinates": [
                    18.9084253161972,
                    50.16985769194969
                ]
            }
        },
        {
            "type": "Feature",
            "properties": {
                "ref:csioz": 1219421,
                "name": "Dr. Max",
                "addr:street": "Ratuszowy",
                "addr:housenumber": "1B",
                "addr:city": "Łaziska Górne",
                "addr:postcode": "43-170",
                "amenity": "pharmacy"
            },
            "geometry": {
                "type": "Point",
                "coordinates": [
                    18.839391116811257,
                    50.150094463861805
                ]
            }
        },
        {
            "type": "Feature",
            "properties": {
                "ref:csioz": 1016859,
                "name": "Szpital Powiatowy",
                "addr:street": "Ludwika Waryńskiego",
                "addr:housenumber": "2",
                "addr:city": "Mikołów",
                "addr:postcode": "43-190",
                "amenity": "pharmacy"
            },
            "geometry": {
                "type": "Point",
                "coordinates": [
                    18.905115648279235,
                    50.17476612727593
                ]
            }
        },
        {
            "type": "Feature",
            "properties": {
                "ref:csioz": 1065715,
                "name": "Apteka Medialis Pharm",
                "addr:street": "Gliwicka",
                "addr:housenumber": "3",
                "addr:city": "Mikołów",
                "addr:postcode": "43-190",
                "amenity": "pharmacy"
            },
            "geometry": {
                "type": "Point",
                "coordinates": [
                    18.886758685787825,
                    50.17923299369736
                ]
            }
        },
        {
            "type": "Feature",
            "properties": {
                "ref:csioz": 1065728,
                "name": "Piastowska",
                "addr:street": "Konstantego Prusa",
                "addr:housenumber": "14",
                "addr:city": "Mikołów",
                "addr:postcode": "43-190",
                "amenity": "pharmacy"
            },
            "geometry": {
                "type": "Point",
                "coordinates": [
                    18.90224199999998,
                    50.17204800001274
                ]
            }
        },
        {
            "type": "Feature",
            "properties": {
                "ref:csioz": 1065744,
                "name": "Apteka Przy Starym Kościele",
                "addr:street": "Stefana Okrzei",
                "addr:housenumber": "17",
                "addr:city": "MIKOŁÓW",
                "addr:postcode": "43-190",
                "amenity": "pharmacy"
            },
            "geometry": {
                "type": "Point",
                "coordinates": [
                    18.90712364373676,
                    50.17040804891709
                ]
            }
        },
        {
            "type": "Feature",
            "properties": {
                "ref:csioz": 1065753,
                "name": "Św. Wojciecha",
                "addr:street": "Stefana Okrzei",
                "addr:housenumber": "28",
                "addr:city": "Mikołów",
                "addr:postcode": "43-190",
                "amenity": "pharmacy"
            },
            "geometry": {
                "type": "Point",
                "coordinates": [
                    18.909761424040457,
                    50.16962567446793
                ]
            }
        },
        {
            "type": "Feature",
            "properties": {
                "ref:csioz": 1065777,
                "name": "Vega2",
                "addr:street": "PRUSA",
                "addr:housenumber": "13",
                "addr:city": "MIKOŁÓW",
                "addr:postcode": "43-190",
                "amenity": "pharmacy"
            },
            "geometry": {
                "type": "Point",
                "coordinates": [
                    18.90221752798432,
                    50.171908959911875
                ]
            }
        },
        {
            "type": "Feature",
            "properties": {
                "ref:csioz": 1065790,
                "name": "Dr. Max",
                "addr:street": "PSZCZYŃSKA",
                "addr:housenumber": "14",
                "addr:city": "MIKOŁÓW",
                "addr:postcode": "43-190",
                "amenity": "pharmacy"
            },
            "geometry": {
                "type": "Point",
                "coordinates": [
                    18.904132768933856,
                    50.167094848492944
                ]
            }
        },
        {
            "type": "Feature",
            "properties": {
                "ref:csioz": 1065808,
                "name": "Stara",
                "addr:street": "RYNEK",
                "addr:housenumber": "5",
                "addr:city": "MIKOŁÓW",
                "addr:postcode": "43-190",
                "amenity": "pharmacy"
            },
            "geometry": {
                "type": "Point",
                "coordinates": [
                    18.90484710397824,
                    50.169074110335515
                ]
            }
        },
        {
            "type": "Feature",
            "properties": {
                "ref:csioz": 1065824,
                "name": "Nowa Apteka",
                "addr:street": "Żwirki i Wigury",
                "addr:housenumber": "37",
                "addr:city": "Mikołów",
                "addr:postcode": "43-190",
                "amenity": "pharmacy"
            },
            "geometry": {
                "type": "Point",
                "coordinates": [
                    18.888545266640637,
                    50.16870443311686
                ]
            }
        },
        {
            "type": "Feature",
            "properties": {
                "ref:csioz": 1122508,
                "name": "Majowa",
                "addr:street": "Jana Pawła II",
                "addr:housenumber": "10",
                "addr:city": "Mikołów",
                "addr:postcode": "43-190",
                "amenity": "pharmacy"
            },
            "geometry": {
                "type": "Point",
                "coordinates": [
                    18.90559607875484,
                    50.170458539246646
                ]
            }
        },
        {
            "type": "Feature",
            "properties": {
                "ref:csioz": 1181293,
                "name": "Moja Apteka",
                "addr:street": "Barlickiego",
                "addr:housenumber": "2",
                "addr:city": "Łaziska Górne",
                "addr:postcode": "43-170",
                "amenity": "pharmacy"
            },
            "geometry": {
                "type": "Point",
                "coordinates": [
                    18.840017794735317,
                    50.14880298843443
                ]
            }
        },
        {
            "type": "Feature",
            "properties": {
                "ref:csioz": 1198871,
                "name": "Apteka Św. Anny",
                "addr:street": "Wyrska",
                "addr:housenumber": "12B",
                "addr:city": "Łaziska Górne",
                "addr:postcode": "43-170",
                "amenity": "pharmacy"
            },
            "geometry": {
                "type": "Point",
                "coordinates": [
                    18.874154242692786,
                    50.13628288523144
                ]
            }
        },
        {
            "type": "Feature",
            "properties": {
                "ref:csioz": 1205314,
                "name": "Szpital",
                "addr:street": "Mikołowska",
                "addr:housenumber": "208",
                "addr:city": "Orzesze",
                "addr:postcode": "43-187",
                "amenity": "pharmacy"
            },
            "geometry": {
                "type": "Point",
                "coordinates": [
                    18.80938928448239,
                    50.1215719769031
                ]
            }
        },
        {
            "type": "Feature",
            "properties": {
                "ref:csioz": 1205934,
                "name": "Apteka Na Rynku",
                "addr:street": "Rynek",
                "addr:housenumber": "7",
                "addr:city": "Mikołów",
                "addr:postcode": "43-190",
                "amenity": "pharmacy"
            },
            "geometry": {
                "type": "Point",
                "coordinates": [
                    18.904751621139578,
                    50.1687590990591
                ]
            }
        },
        {
            "type": "Feature",
            "properties": {
                "ref:csioz": 1217008,
                "name": "Niezapominajka Dla Całej Rodziny",
                "addr:street": "pl. Ratuszowy",
                "addr:housenumber": "3",
                "addr:city": "Łaziska Górne",
                "addr:postcode": "43-170",
                "amenity": "pharmacy"
            },
            "geometry": {
                "type": "Point",
                "coordinates": [
                    18.84041799999996,
                    50.14900400001272
                ]
            }
        },
        {
            "type": "Feature",
            "properties": {
                "ref:csioz": 1065789,
                "name": "Salix",
                "addr:street": "Przelotowa",
                "addr:housenumber": "70 A",
                "addr:city": "Mikołów",
                "addr:postcode": "43-190",
                "amenity": "pharmacy"
            },
            "geometry": {
                "type": "Point",
                "coordinates": [
                    18.825928108687407,
                    50.21831898089467
                ]
            }
        },
        {
            "type": "Feature",
            "properties": {
                "ref:csioz": 1066340,
                "name": "Nova",
                "addr:street": "Klasztorna",
                "addr:housenumber": "3",
                "addr:city": "Ornontowice",
                "addr:postcode": "43-178",
                "amenity": "pharmacy"
            },
            "geometry": {
                "type": "Point",
                "coordinates": [
                    18.762732956314505,
                    50.178899684990256
                ]
            }
        },
        {
            "type": "Feature",
            "properties": {
                "ref:csioz": 1066365,
                "name": "Libra",
                "addr:street": "KATOWICKA",
                "addr:housenumber": "11A",
                "addr:city": "ORZESZE",
                "addr:postcode": "43-186",
                "amenity": "pharmacy"
            },
            "geometry": {
                "type": "Point",
                "coordinates": [
                    18.79534904142369,
                    50.111392345998425
                ]
            }
        },
        {
            "type": "Feature",
            "properties": {
                "ref:csioz": 1066387,
                "name": "Apteka Pod Wieżą",
                "addr:street": "ŚW. WAWRZYŃCA",
                "addr:housenumber": "3",
                "addr:city": "ORZESZE",
                "addr:postcode": "43-180",
                "amenity": "pharmacy"
            },
            "geometry": {
                "type": "Point",
                "coordinates": [
                    18.776288986338116,
                    50.144746993252014
                ]
            }
        },
        {
            "type": "Feature",
            "properties": {
                "ref:csioz": 1176681,
                "name": "Apteka Św. Stanisława",
                "addr:street": "Zwycięstwa",
                "addr:housenumber": "4",
                "addr:city": "Ornontowice",
                "addr:postcode": "43-178",
                "amenity": "pharmacy"
            },
            "geometry": {
                "type": "Point",
                "coordinates": [
                    18.76438713247239,
                    50.18078035143275
                ]
            }
        },
        {
            "type": "Feature",
            "properties": {
                "ref:csioz": 1038485,
                "name": "Szpital Chorób Płuc W Orzeszu",
                "addr:street": "Gliwicka",
                "addr:housenumber": "20",
                "addr:city": "Orzesze",
                "addr:postcode": "43-180",
                "amenity": "pharmacy"
            },
            "geometry": {
                "type": "Point",
                "coordinates": [
                    18.774609053906616,
                    50.15029326579126
                ]
            }
        },
        {
            "type": "Feature",
            "properties": {
                "ref:csioz": 1065731,
                "name": "W Bujakowie",
                "addr:street": "ks. Franciszka Górka",
                "addr:housenumber": "29",
                "addr:city": "Mikołów",
                "addr:postcode": "43-196",
                "amenity": "pharmacy"
            },
            "geometry": {
                "type": "Point",
                "coordinates": [
                    18.79874120862412,
                    50.18527959378575
                ]
            }
        },
        {
            "type": "Feature",
            "properties": {
                "ref:csioz": 1172253,
                "name": "Margofarm",
                "addr:street": "Mikołowska",
                "addr:housenumber": "144",
                "addr:city": "Orzesze",
                "addr:postcode": "43-187",
                "amenity": "pharmacy"
            },
            "geometry": {
                "type": "Point",
                "coordinates": [
                    18.79993905017632,
                    50.126061466758195
                ]
            }
        },
        {
            "type": "Feature",
            "properties": {
                "ref:csioz": 1198493,
                "name": "Twoje Zdrowie",
                "addr:street": "Rynek",
                "addr:housenumber": "17A",
                "addr:city": "Orzesze",
                "addr:postcode": "43-180",
                "amenity": "pharmacy"
            },
            "geometry": {
                "type": "Point",
                "coordinates": [
                    18.774749962802716,
                    50.144954330746195
                ]
            }
        },
        {
            "type": "Feature",
            "properties": {
                "ref:csioz": 1200974,
                "name": "Melissa",
                "addr:street": "Mikołowska",
                "addr:housenumber": "17",
                "addr:city": "Orzesze",
                "addr:postcode": "43-180",
                "amenity": "pharmacy"
            },
            "geometry": {
                "type": "Point",
                "coordinates": [
                    18.77716249889047,
                    50.14268283169767
                ]
            }
        }
    ]
}