{
    "type": "FeatureCollection",
    "name": "JPT_KOD_JE_0213",
    "features": [
        {
            "type": "Feature",
            "properties": {
                "ref:csioz": 1129201,
                "name": "Apteka Dbam O Zdrowie",
                "addr:street": "Grzybowa",
                "addr:housenumber": "1",
                "addr:city": "Milicz",
                "addr:postcode": "56-300",
                "amenity": "pharmacy"
            },
            "geometry": {
                "type": "Point",
                "coordinates": [
                    17.261339071896035,
                    51.51755472574279
                ]
            }
        },
        {
            "type": "Feature",
            "properties": {
                "ref:csioz": 1129532,
                "name": "Mercurius",
                "addr:street": "Rynek",
                "addr:housenumber": "8",
                "addr:city": "Sułów",
                "addr:postcode": "56-300",
                "amenity": "pharmacy"
            },
            "geometry": {
                "type": "Point",
                "coordinates": [
                    17.169912109227273,
                    51.500110069905816
                ]
            }
        },
        {
            "type": "Feature",
            "properties": {
                "ref:csioz": 1129586,
                "name": "Pod Złotą Wagą",
                "addr:street": "Parkowa",
                "addr:housenumber": "5",
                "addr:city": "Krośnice",
                "addr:postcode": "56-320",
                "amenity": "pharmacy"
            },
            "geometry": {
                "type": "Point",
                "coordinates": [
                    17.358171254693776,
                    51.476501302758955
                ]
            }
        },
        {
            "type": "Feature",
            "properties": {
                "ref:csioz": 1135117,
                "addr:street": "Wrocławska",
                "addr:housenumber": "41",
                "addr:city": "Bukowice",
                "addr:postcode": "56-321",
                "amenity": "pharmacy"
            },
            "geometry": {
                "type": "Point",
                "coordinates": [
                    17.360998831298467,
                    51.39583282297436
                ]
            }
        },
        {
            "type": "Feature",
            "properties": {
                "ref:csioz": 1204683,
                "name": "Felix",
                "addr:street": "Krośnicka",
                "addr:housenumber": "1",
                "addr:city": "Bukowice",
                "addr:postcode": "56-321",
                "amenity": "pharmacy"
            },
            "geometry": {
                "type": "Point",
                "coordinates": [
                    17.36727620458623,
                    51.39754227066251
                ]
            }
        },
        {
            "type": "Feature",
            "properties": {
                "ref:csioz": 1228974,
                "name": "Dział Farmacji Szpitalnej",
                "addr:street": "Kwiatowa",
                "addr:housenumber": "12",
                "addr:city": "Krośnice",
                "addr:postcode": "56-320",
                "amenity": "pharmacy"
            },
            "geometry": {
                "type": "Point",
                "coordinates": [
                    17.359010384189258,
                    51.479547553292285
                ]
            }
        },
        {
            "type": "Feature",
            "properties": {
                "ref:csioz": 1129704,
                "name": "Pod Złotą Wagą",
                "addr:street": "Mickiewicza",
                "addr:housenumber": "14",
                "addr:city": "Milicz",
                "addr:postcode": "56-300",
                "amenity": "pharmacy"
            },
            "geometry": {
                "type": "Point",
                "coordinates": [
                    17.27015653311182,
                    51.52346632562965
                ]
            }
        },
        {
            "type": "Feature",
            "properties": {
                "ref:csioz": 1160938,
                "name": "Wielospecjalistyczny Szpital W Miliczu",
                "addr:street": "Grzybowa",
                "addr:housenumber": "1",
                "addr:city": "Milicz",
                "addr:postcode": "56-300",
                "amenity": "pharmacy"
            },
            "geometry": {
                "type": "Point",
                "coordinates": [
                    17.261339071896035,
                    51.51755472574279
                ]
            }
        },
        {
            "type": "Feature",
            "properties": {
                "ref:csioz": 1172894,
                "name": "Mediqa",
                "addr:street": "Tadeusza Kościuszki",
                "addr:housenumber": "15",
                "addr:city": "Milicz",
                "addr:postcode": "56-300",
                "amenity": "pharmacy"
            },
            "geometry": {
                "type": "Point",
                "coordinates": [
                    17.27792500030651,
                    51.52639512013516
                ]
            }
        },
        {
            "type": "Feature",
            "properties": {
                "ref:csioz": 1126592,
                "name": "Lorfarm",
                "addr:street": "Rynek",
                "addr:housenumber": "22",
                "addr:city": "Milicz",
                "addr:postcode": "56-300",
                "amenity": "pharmacy"
            },
            "geometry": {
                "type": "Point",
                "coordinates": [
                    17.27598507328957,
                    51.532161332921866
                ]
            }
        },
        {
            "type": "Feature",
            "properties": {
                "ref:csioz": 1127142,
                "name": "Doz Apteka. Dbam O Zdrowie. Milicka.",
                "addr:street": "Tadeusza Kościuszki",
                "addr:housenumber": "27",
                "addr:city": "Milicz",
                "addr:postcode": "56-300",
                "amenity": "pharmacy"
            },
            "geometry": {
                "type": "Point",
                "coordinates": [
                    17.27776554452555,
                    51.52405259414689
                ]
            }
        },
        {
            "type": "Feature",
            "properties": {
                "ref:csioz": 1127582,
                "name": "Felix",
                "addr:street": "Mikołaja Kopernika",
                "addr:housenumber": "5",
                "addr:city": "Milicz",
                "addr:postcode": "56-300",
                "amenity": "pharmacy"
            },
            "geometry": {
                "type": "Point",
                "coordinates": [
                    17.2702270419423,
                    51.52289224475525
                ]
            }
        },
        {
            "type": "Feature",
            "properties": {
                "ref:csioz": 1128776,
                "name": "Magnolia",
                "addr:street": "Ogrodowa",
                "addr:housenumber": "1B",
                "addr:city": "Cieszków",
                "addr:postcode": "56-330",
                "amenity": "pharmacy"
            },
            "geometry": {
                "type": "Point",
                "coordinates": [
                    17.353530190130893,
                    51.62513619829921
                ]
            }
        },
        {
            "type": "Feature",
            "properties": {
                "ref:csioz": 1135125,
                "name": "-",
                "addr:housenumber": "53",
                "addr:postcode": "56-300",
                "amenity": "pharmacy",
                "addr:place": "Gądkowice"
            },
            "geometry": {
                "type": "Point",
                "coordinates": [
                    17.456226829949244,
                    51.5692908059752
                ]
            }
        },
        {
            "type": "Feature",
            "properties": {
                "ref:csioz": 1193568,
                "name": "Dr. Max",
                "addr:street": "Wojska Polskiego",
                "addr:housenumber": "9",
                "addr:city": "Milicz",
                "addr:postcode": "56-300",
                "amenity": "pharmacy"
            },
            "geometry": {
                "type": "Point",
                "coordinates": [
                    17.276613848839997,
                    51.52882268915463
                ]
            }
        }
    ]
}