{
    "type": "FeatureCollection",
    "name": "JPT_KOD_JE_1214",
    "features": [
        {
            "type": "Feature",
            "properties": {
                "ref:csioz": 1036901,
                "addr:street": "Partyzantów",
                "addr:housenumber": "2i2E",
                "addr:city": "Proszowice",
                "addr:postcode": "32-100",
                "amenity": "pharmacy",
                "dispensing": "yes"
            },
            "geometry": {
                "type": "Point",
                "coordinates": [
                    20.285871616178834,
                    50.18973287489167
                ]
            }
        },
        {
            "type": "Feature",
            "properties": {
                "ref:csioz": 1056272,
                "name": "\"Apteka \"\"Zdrowie\"\" Krupińska-Nowak Spółka Jawna\"",
                "addr:housenumber": "201",
                "addr:postcode": "32-100",
                "amenity": "pharmacy",
                "addr:place": "Opatkowice",
                "dispensing": "yes"
            },
            "geometry": {
                "type": "Point",
                "coordinates": [
                    20.303250464553983,
                    50.2010472584547
                ]
            }
        },
        {
            "type": "Feature",
            "properties": {
                "ref:csioz": 1056770,
                "addr:street": "Mikołaja Kopernika",
                "addr:housenumber": "4",
                "addr:city": "Proszowice",
                "addr:postcode": "32-100",
                "amenity": "pharmacy",
                "dispensing": "yes"
            },
            "geometry": {
                "type": "Point",
                "coordinates": [
                    20.29796034853583,
                    50.189021715104765
                ]
            }
        },
        {
            "type": "Feature",
            "properties": {
                "ref:csioz": 1076878,
                "addr:housenumber": "80",
                "addr:postcode": "32-108",
                "amenity": "pharmacy",
                "addr:place": "Łętkowice-Kolonia",
                "dispensing": "yes"
            },
            "geometry": {
                "type": "Point",
                "coordinates": [
                    20.178186770074852,
                    50.25018968697666
                ]
            }
        },
        {
            "type": "Feature",
            "properties": {
                "ref:csioz": 1119898,
                "addr:housenumber": "26",
                "addr:postcode": "32-100",
                "amenity": "pharmacy",
                "addr:place": "Bobin",
                "dispensing": "yes"
            },
            "geometry": {
                "type": "Point",
                "coordinates": [
                    20.43743671393635,
                    50.17826543028046
                ]
            }
        },
        {
            "type": "Feature",
            "properties": {
                "ref:csioz": 1169440,
                "name": "Apteka Słoneczna",
                "addr:street": "3 Maja",
                "addr:housenumber": "23",
                "addr:city": "Proszowice",
                "addr:postcode": "32-100",
                "amenity": "pharmacy",
                "dispensing": "yes"
            },
            "geometry": {
                "type": "Point",
                "coordinates": [
                    20.292789325791283,
                    50.192207680913434
                ]
            }
        },
        {
            "type": "Feature",
            "properties": {
                "ref:csioz": 1190927,
                "addr:housenumber": "72",
                "addr:postcode": "32-104",
                "amenity": "pharmacy",
                "addr:place": "Niegardów",
                "dispensing": "yes"
            },
            "geometry": {
                "type": "Point",
                "coordinates": [
                    20.186824136594772,
                    50.21571934953261
                ]
            }
        },
        {
            "type": "Feature",
            "properties": {
                "ref:csioz": 1193993,
                "name": "Szpital",
                "addr:street": "Mikołaja Kopernika",
                "addr:housenumber": "13",
                "addr:city": "Proszowice",
                "addr:postcode": "32-100",
                "amenity": "pharmacy",
                "dispensing": "yes"
            },
            "geometry": {
                "type": "Point",
                "coordinates": [
                    20.29901334931948,
                    50.18590369571432
                ]
            }
        },
        {
            "type": "Feature",
            "properties": {
                "ref:csioz": 1034720,
                "addr:housenumber": "80",
                "addr:postcode": "32-107",
                "amenity": "pharmacy",
                "addr:place": "Radziemice",
                "dispensing": "yes"
            },
            "geometry": {
                "type": "Point",
                "coordinates": [
                    20.234121352398713,
                    50.25354325303973
                ]
            }
        },
        {
            "type": "Feature",
            "properties": {
                "ref:csioz": 1076792,
                "addr:street": "Kopernika",
                "addr:housenumber": "34",
                "addr:city": "Proszowice",
                "addr:postcode": "32-100",
                "amenity": "pharmacy",
                "dispensing": "yes"
            },
            "geometry": {
                "type": "Point",
                "coordinates": [
                    20.297549881973282,
                    50.18621721297312
                ]
            }
        },
        {
            "type": "Feature",
            "properties": {
                "ref:csioz": 1175142,
                "name": "Punkt Apteczny Bliski",
                "addr:housenumber": "11",
                "addr:postcode": "32-109",
                "amenity": "pharmacy",
                "addr:place": "Pałecznica",
                "dispensing": "yes"
            },
            "geometry": {
                "type": "Point",
                "coordinates": [
                    20.289299338543856,
                    50.28288871476643
                ]
            }
        },
        {
            "type": "Feature",
            "properties": {
                "ref:csioz": 1187720,
                "name": "Pod Aniołami",
                "addr:street": "3 Maja",
                "addr:housenumber": "51",
                "addr:city": "Proszowice",
                "addr:postcode": "32-100",
                "amenity": "pharmacy",
                "dispensing": "yes"
            },
            "geometry": {
                "type": "Point",
                "coordinates": [
                    20.29238844969248,
                    50.185609652962604
                ]
            }
        },
        {
            "type": "Feature",
            "properties": {
                "ref:csioz": 1193194,
                "addr:housenumber": "22A",
                "addr:postcode": "32-100",
                "amenity": "pharmacy",
                "addr:place": "Kościelec",
                "dispensing": "yes"
            },
            "geometry": {
                "type": "Point",
                "coordinates": [
                    20.396323701590706,
                    50.196942418697276
                ]
            }
        },
        {
            "type": "Feature",
            "properties": {
                "ref:csioz": 1194960,
                "name": "Św. Filipa",
                "addr:street": "Francuska",
                "addr:housenumber": "10",
                "addr:city": "Pałecznica",
                "addr:postcode": "32-109",
                "amenity": "pharmacy",
                "dispensing": "yes"
            },
            "geometry": {
                "type": "Point",
                "coordinates": [
                    20.298196931750685,
                    50.28992229508012
                ]
            }
        },
        {
            "type": "Feature",
            "properties": {
                "ref:csioz": 1229956,
                "name": "Zakład Opieuńczo Leczniczy",
                "addr:housenumber": "63",
                "addr:postcode": "32-109",
                "amenity": "pharmacy",
                "addr:place": "Winiary",
                "dispensing": "yes"
            },
            "geometry": {
                "type": "Point",
                "coordinates": [
                    20.330666239742534,
                    50.28513727421973
                ]
            }
        },
        {
            "type": "Feature",
            "properties": {
                "ref:csioz": 1187884,
                "name": "Bliska Tobie",
                "addr:housenumber": "4",
                "addr:postcode": "32-104",
                "amenity": "pharmacy",
                "addr:place": "Wierzbno",
                "dispensing": "yes"
            },
            "geometry": {
                "type": "Point",
                "coordinates": [
                    20.234753703049105,
                    50.14803250346661
                ]
            }
        },
        {
            "type": "Feature",
            "properties": {
                "ref:csioz": 1036527,
                "name": "Koszycka Apteka Niskich Cen",
                "addr:street": "Rynek",
                "addr:housenumber": "5",
                "addr:city": "Koszyce",
                "addr:postcode": "32-130",
                "amenity": "pharmacy",
                "dispensing": "yes"
            },
            "geometry": {
                "type": "Point",
                "coordinates": [
                    20.576177565357565,
                    50.16683063967428
                ]
            }
        },
        {
            "type": "Feature",
            "properties": {
                "ref:csioz": 1225027,
                "name": "Pod Aniołami",
                "addr:street": "Rynek",
                "addr:housenumber": "29",
                "addr:city": "Koszyce",
                "addr:postcode": "32-130",
                "amenity": "pharmacy",
                "dispensing": "yes"
            },
            "geometry": {
                "type": "Point",
                "coordinates": [
                    20.57632232678634,
                    50.167322460904934
                ]
            }
        },
        {
            "type": "Feature",
            "properties": {
                "ref:csioz": 1074778,
                "name": "Apteka Pod Lwem",
                "addr:street": "Targowa",
                "addr:housenumber": "2",
                "addr:city": "Nowe Brzesko",
                "addr:postcode": "32-120",
                "amenity": "pharmacy",
                "dispensing": "yes"
            },
            "geometry": {
                "type": "Point",
                "coordinates": [
                    20.374934289945557,
                    50.13244136711175
                ]
            }
        },
        {
            "type": "Feature",
            "properties": {
                "ref:csioz": 1076233,
                "addr:street": "Lubelska",
                "addr:housenumber": "21",
                "addr:city": "Nowe Brzesko",
                "addr:postcode": "32-120",
                "amenity": "pharmacy",
                "dispensing": "yes"
            },
            "geometry": {
                "type": "Point",
                "coordinates": [
                    20.37857340482192,
                    50.13306615538786
                ]
            }
        },
        {
            "type": "Feature",
            "properties": {
                "ref:csioz": 1212882,
                "name": "Pod Aniołami",
                "addr:street": "Partyzantów",
                "addr:housenumber": "4A",
                "addr:city": "Nowe Brzesko",
                "addr:postcode": "32-120",
                "amenity": "pharmacy",
                "dispensing": "yes"
            },
            "geometry": {
                "type": "Point",
                "coordinates": [
                    20.372234036904363,
                    50.131423743493016
                ]
            }
        },
        {
            "type": "Feature",
            "properties": {
                "ref:csioz": 1213844,
                "name": "Apteka Bliska",
                "addr:street": "3 Maja",
                "addr:housenumber": "74",
                "addr:city": "Proszowice",
                "addr:postcode": "32-100",
                "amenity": "pharmacy",
                "dispensing": "yes"
            },
            "geometry": {
                "type": "Point",
                "coordinates": [
                    20.2950533969609,
                    50.19160710644281
                ]
            }
        }
    ]
}