{
    "type": "FeatureCollection",
    "name": "JPT_KOD_JE_3004",
    "features": [
        {
            "type": "Feature",
            "properties": {
                "ref:csioz": 1054268,
                "addr:street": "Wincentego Witosa",
                "addr:housenumber": "13",
                "addr:city": "Gostyń",
                "addr:postcode": "63-800",
                "amenity": "pharmacy"
            },
            "geometry": {
                "type": "Point",
                "coordinates": [
                    17.010896151006232,
                    51.87941895631701
                ]
            }
        },
        {
            "type": "Feature",
            "properties": {
                "ref:csioz": 1054276,
                "addr:street": "Dworcowa",
                "addr:housenumber": "2B",
                "addr:city": "Poniec",
                "addr:postcode": "64-125",
                "amenity": "pharmacy"
            },
            "geometry": {
                "type": "Point",
                "coordinates": [
                    16.808004744120666,
                    51.76205716343033
                ]
            }
        },
        {
            "type": "Feature",
            "properties": {
                "ref:csioz": 1054284,
                "name": "Milenijna",
                "addr:street": "Kościelna",
                "addr:housenumber": "3",
                "addr:city": "Poniec",
                "addr:postcode": "64-125",
                "amenity": "pharmacy"
            },
            "geometry": {
                "type": "Point",
                "coordinates": [
                    16.80690785030514,
                    51.76432325657912
                ]
            }
        },
        {
            "type": "Feature",
            "properties": {
                "ref:csioz": 1054339,
                "addr:street": "Powstańców Wielkopolskich",
                "addr:housenumber": "28",
                "addr:city": "Krobia",
                "addr:postcode": "63-840",
                "amenity": "pharmacy"
            },
            "geometry": {
                "type": "Point",
                "coordinates": [
                    16.977522451222466,
                    51.77269852648373
                ]
            }
        },
        {
            "type": "Feature",
            "properties": {
                "ref:csioz": 1054535,
                "name": "Bratek",
                "addr:street": "Fabryczna",
                "addr:housenumber": "2",
                "addr:city": "Pudliszki",
                "addr:postcode": "63-842",
                "amenity": "pharmacy"
            },
            "geometry": {
                "type": "Point",
                "coordinates": [
                    16.93521336424385,
                    51.77282863285395
                ]
            }
        },
        {
            "type": "Feature",
            "properties": {
                "ref:csioz": 1054782,
                "name": "Nasza",
                "addr:street": "Graniczna",
                "addr:housenumber": "4",
                "addr:city": "Gostyń",
                "addr:postcode": "63-800",
                "amenity": "pharmacy"
            },
            "geometry": {
                "type": "Point",
                "coordinates": [
                    17.007235753894772,
                    51.887074094346374
                ]
            }
        },
        {
            "type": "Feature",
            "properties": {
                "ref:csioz": 1192257,
                "name": "Dr. Max",
                "addr:street": "Przy Dworcu",
                "addr:housenumber": "4A",
                "addr:city": "Gostyń",
                "addr:postcode": "63-800",
                "amenity": "pharmacy"
            },
            "geometry": {
                "type": "Point",
                "coordinates": [
                    17.005645604190565,
                    51.883286808486396
                ]
            }
        },
        {
            "type": "Feature",
            "properties": {
                "ref:csioz": 1208472,
                "name": "Starogostyńska",
                "addr:street": "Starogostyńska",
                "addr:housenumber": "9",
                "addr:city": "Gostyń",
                "addr:postcode": "63-800",
                "amenity": "pharmacy"
            },
            "geometry": {
                "type": "Point",
                "coordinates": [
                    17.000825005052413,
                    51.886624627338506
                ]
            }
        },
        {
            "type": "Feature",
            "properties": {
                "ref:csioz": 1225557,
                "name": "Koala",
                "addr:housenumber": "80",
                "addr:postcode": "63-805",
                "amenity": "pharmacy",
                "addr:place": "Łęka Wielka"
            },
            "geometry": {
                "type": "Point",
                "coordinates": [
                    16.883723524664447,
                    51.82310653653261
                ]
            }
        },
        {
            "type": "Feature",
            "properties": {
                "ref:csioz": 1054221,
                "name": "Salus",
                "addr:street": "Ks. Franciszka Olejniczaka",
                "addr:housenumber": "7A",
                "addr:city": "Gostyń",
                "addr:postcode": "63-800",
                "amenity": "pharmacy"
            },
            "geometry": {
                "type": "Point",
                "coordinates": [
                    17.013446677947574,
                    51.876705522622416
                ]
            }
        },
        {
            "type": "Feature",
            "properties": {
                "ref:csioz": 1054562,
                "name": "Calamus",
                "addr:street": "Mariana Orłonia",
                "addr:housenumber": "1A",
                "addr:city": "Pępowo",
                "addr:postcode": "63-830",
                "amenity": "pharmacy"
            },
            "geometry": {
                "type": "Point",
                "coordinates": [
                    17.120813166374585,
                    51.761768939070805
                ]
            }
        },
        {
            "type": "Feature",
            "properties": {
                "ref:csioz": 1054875,
                "name": "Zdrowie",
                "addr:street": "Kolejowa",
                "addr:housenumber": "12",
                "addr:city": "Gostyń",
                "addr:postcode": "63-800",
                "amenity": "pharmacy"
            },
            "geometry": {
                "type": "Point",
                "coordinates": [
                    17.012087983866632,
                    51.88055937996309
                ]
            }
        },
        {
            "type": "Feature",
            "properties": {
                "ref:csioz": 1054888,
                "name": "Świat Zdrowia",
                "addr:street": "Jutrosińska",
                "addr:housenumber": "1",
                "addr:city": "Krobia",
                "addr:postcode": "63-840",
                "amenity": "pharmacy"
            },
            "geometry": {
                "type": "Point",
                "coordinates": [
                    16.985266033877096,
                    51.77375742194831
                ]
            }
        },
        {
            "type": "Feature",
            "properties": {
                "ref:csioz": 1055101,
                "name": "U Michała",
                "addr:street": "Powstańców Wielkopolskich",
                "addr:housenumber": "95E",
                "addr:city": "Krobia",
                "addr:postcode": "63-840",
                "amenity": "pharmacy"
            },
            "geometry": {
                "type": "Point",
                "coordinates": [
                    16.972213153715554,
                    51.76701970596647
                ]
            }
        },
        {
            "type": "Feature",
            "properties": {
                "ref:csioz": 1055117,
                "name": "Romfarm",
                "addr:street": "Władysława Łokietka",
                "addr:housenumber": "2",
                "addr:city": "Gostyń",
                "addr:postcode": "63-800",
                "amenity": "pharmacy"
            },
            "geometry": {
                "type": "Point",
                "coordinates": [
                    16.99686107725867,
                    51.88049389853258
                ]
            }
        },
        {
            "type": "Feature",
            "properties": {
                "ref:csioz": 1056103,
                "addr:street": "MARYSIN",
                "addr:housenumber": "1",
                "addr:city": "PIASKI",
                "addr:postcode": "63-820",
                "amenity": "pharmacy"
            },
            "geometry": {
                "type": "Point",
                "coordinates": [
                    17.070626951898674,
                    51.8797274996315
                ]
            }
        },
        {
            "type": "Feature",
            "properties": {
                "ref:csioz": 1056099,
                "addr:street": "Marcinkowskiego Karola",
                "addr:housenumber": "8-9",
                "addr:city": "Gostyń",
                "addr:postcode": "63-800",
                "amenity": "pharmacy"
            },
            "geometry": {
                "type": "Point",
                "coordinates": [
                    17.01086029802877,
                    51.88273097804489
                ]
            }
        },
        {
            "type": "Feature",
            "properties": {
                "ref:csioz": 1197999,
                "name": "Dr. Max",
                "addr:street": "Kolejowa",
                "addr:housenumber": "15",
                "addr:city": "Gostyń",
                "addr:postcode": "63-800",
                "amenity": "pharmacy"
            },
            "geometry": {
                "type": "Point",
                "coordinates": [
                    17.01225805632502,
                    51.88161066011214
                ]
            }
        },
        {
            "type": "Feature",
            "properties": {
                "ref:csioz": 1215850,
                "name": "Niezapominajka Dla Całej Rodziny",
                "addr:street": "Kolejowa",
                "addr:housenumber": "33",
                "addr:city": "Gostyń",
                "addr:postcode": "63-800",
                "amenity": "pharmacy"
            },
            "geometry": {
                "type": "Point",
                "coordinates": [
                    17.012406658020513,
                    51.878805268920985
                ]
            }
        },
        {
            "type": "Feature",
            "properties": {
                "ref:csioz": 1221530,
                "name": "Medica",
                "addr:housenumber": "70A",
                "addr:postcode": "63-820",
                "amenity": "pharmacy",
                "addr:place": "Bodzewo"
            },
            "geometry": {
                "type": "Point",
                "coordinates": [
                    17.074118005245307,
                    51.84696726200341
                ]
            }
        },
        {
            "type": "Feature",
            "properties": {
                "ref:csioz": 1221605,
                "name": "Medica",
                "addr:street": "Warszawska",
                "addr:housenumber": "5",
                "addr:city": "Piaski",
                "addr:postcode": "63-820",
                "amenity": "pharmacy"
            },
            "geometry": {
                "type": "Point",
                "coordinates": [
                    17.07140135718874,
                    51.884573525880704
                ]
            }
        },
        {
            "type": "Feature",
            "properties": {
                "ref:csioz": 1221647,
                "name": "Ostoja",
                "addr:street": "Energetyka",
                "addr:housenumber": "2A",
                "addr:city": "Gostyń",
                "addr:postcode": "63-800",
                "amenity": "pharmacy"
            },
            "geometry": {
                "type": "Point",
                "coordinates": [
                    17.01357712948028,
                    51.872505967503365
                ]
            }
        },
        {
            "type": "Feature",
            "properties": {
                "ref:csioz": 1054318,
                "addr:street": "Kotkowiaka",
                "addr:housenumber": "5",
                "addr:city": "Pogorzela",
                "addr:postcode": "63-860",
                "amenity": "pharmacy"
            },
            "geometry": {
                "type": "Point",
                "coordinates": [
                    17.231055411886153,
                    51.82336965712664
                ]
            }
        },
        {
            "type": "Feature",
            "properties": {
                "ref:csioz": 1054360,
                "addr:street": "Rynek",
                "addr:housenumber": "14",
                "addr:city": "Borek Wielkopolski",
                "addr:postcode": "63-810",
                "amenity": "pharmacy"
            },
            "geometry": {
                "type": "Point",
                "coordinates": [
                    17.24344975963157,
                    51.917072285429825
                ]
            }
        },
        {
            "type": "Feature",
            "properties": {
                "ref:csioz": 1054834,
                "name": "Zielona",
                "addr:street": "Droga Lisia",
                "addr:housenumber": "55",
                "addr:city": "Borek Wielkopolski",
                "addr:postcode": "63-810",
                "amenity": "pharmacy"
            },
            "geometry": {
                "type": "Point",
                "coordinates": [
                    17.237548862360878,
                    51.9132701854196
                ]
            }
        },
        {
            "type": "Feature",
            "properties": {
                "ref:csioz": 1177016,
                "name": "Livia",
                "addr:street": "Elizy Orzeszkowej",
                "addr:housenumber": "9",
                "addr:city": "Pogorzela",
                "addr:postcode": "63-860",
                "amenity": "pharmacy"
            },
            "geometry": {
                "type": "Point",
                "coordinates": [
                    17.22538438030931,
                    51.82273991973028
                ]
            }
        },
        {
            "type": "Feature",
            "properties": {
                "ref:csioz": 1221525,
                "name": "Medica",
                "addr:housenumber": "2A",
                "addr:postcode": "63-820",
                "amenity": "pharmacy",
                "addr:place": "Szelejewo Drugie"
            },
            "geometry": {
                "type": "Point",
                "coordinates": [
                    17.162888250935676,
                    51.85998630880528
                ]
            }
        }
    ]
}