{
    "type": "FeatureCollection",
    "name": "JPT_KOD_JE_2213",
    "features": [
        {
            "type": "Feature",
            "properties": {
                "ref:csioz": 1031953,
                "name": "Pod Jemiołą",
                "addr:street": "Malinowa",
                "addr:housenumber": "15",
                "addr:city": "Kaliska",
                "addr:postcode": "83-260",
                "amenity": "pharmacy",
                "dispensing": "yes"
            },
            "geometry": {
                "type": "Point",
                "coordinates": [
                    18.21863654905044,
                    53.907046778005316
                ]
            }
        },
        {
            "type": "Feature",
            "properties": {
                "ref:csioz": 1029920,
                "name": "Wracam Do Zdrowia",
                "addr:street": "Okrężna",
                "addr:housenumber": "10A",
                "addr:city": "Czarna Woda",
                "addr:postcode": "83-262",
                "amenity": "pharmacy",
                "dispensing": "yes"
            },
            "geometry": {
                "type": "Point",
                "coordinates": [
                    18.08900949307273,
                    53.84486429627061
                ]
            }
        },
        {
            "type": "Feature",
            "properties": {
                "ref:csioz": 1031629,
                "name": "Słoneczna",
                "addr:street": "Czerska",
                "addr:housenumber": "1",
                "addr:city": "Osieczna",
                "addr:postcode": "83-242",
                "amenity": "pharmacy",
                "dispensing": "yes"
            },
            "geometry": {
                "type": "Point",
                "coordinates": [
                    18.200422519075964,
                    53.770955599516434
                ]
            }
        },
        {
            "type": "Feature",
            "properties": {
                "ref:csioz": 1222476,
                "name": "Apteka Centrum",
                "addr:street": "Długa",
                "addr:housenumber": "9",
                "addr:city": "Kaliska",
                "addr:postcode": "83-260",
                "amenity": "pharmacy",
                "dispensing": "yes"
            },
            "geometry": {
                "type": "Point",
                "coordinates": [
                    18.223147199251184,
                    53.90337208378439
                ]
            }
        },
        {
            "type": "Feature",
            "properties": {
                "ref:csioz": 1026315,
                "name": "Apteka Pod Orłem",
                "addr:street": "Jana III Sobieskiego",
                "addr:housenumber": "22",
                "addr:city": "Skórcz",
                "addr:postcode": "83-220",
                "amenity": "pharmacy",
                "dispensing": "yes"
            },
            "geometry": {
                "type": "Point",
                "coordinates": [
                    18.529315738481117,
                    53.79836298675516
                ]
            }
        },
        {
            "type": "Feature",
            "properties": {
                "ref:csioz": 1026741,
                "name": "Pod Borem",
                "addr:street": "dr. Stanisława Kryzana",
                "addr:housenumber": "2A",
                "addr:city": "Starogard Gdański",
                "addr:postcode": "83-200",
                "amenity": "pharmacy",
                "dispensing": "yes"
            },
            "geometry": {
                "type": "Point",
                "coordinates": [
                    18.506292999999776,
                    53.98499200001873
                ]
            }
        },
        {
            "type": "Feature",
            "properties": {
                "ref:csioz": 1027375,
                "addr:street": "60-lecia Odzyskania Niepodległości Polski",
                "addr:housenumber": "14",
                "addr:city": "Starogard Gdański",
                "addr:postcode": "83-200",
                "amenity": "pharmacy",
                "dispensing": "yes"
            },
            "geometry": {
                "type": "Point",
                "coordinates": [
                    18.523224976746697,
                    53.96215975162876
                ]
            }
        },
        {
            "type": "Feature",
            "properties": {
                "ref:csioz": 1027458,
                "addr:street": "Główna",
                "addr:housenumber": "15",
                "addr:city": "Skórcz",
                "addr:postcode": "83-220",
                "amenity": "pharmacy",
                "dispensing": "yes"
            },
            "geometry": {
                "type": "Point",
                "coordinates": [
                    18.525823936528095,
                    53.795226402706895
                ]
            }
        },
        {
            "type": "Feature",
            "properties": {
                "ref:csioz": 1027878,
                "name": "Przy Rondzie",
                "addr:street": "Chojnicka",
                "addr:housenumber": "44",
                "addr:city": "Starogard Gdański",
                "addr:postcode": "83-200",
                "amenity": "pharmacy",
                "dispensing": "yes"
            },
            "geometry": {
                "type": "Point",
                "coordinates": [
                    18.526528251704214,
                    53.96673930332098
                ]
            }
        },
        {
            "type": "Feature",
            "properties": {
                "ref:csioz": 1028992,
                "name": "Wracam Do Zdrowia - Elżbietańska",
                "addr:street": "gen. Józefa Hallera",
                "addr:housenumber": "21B",
                "addr:city": "Starogard Gdański",
                "addr:postcode": "83-200",
                "amenity": "pharmacy",
                "dispensing": "yes"
            },
            "geometry": {
                "type": "Point",
                "coordinates": [
                    18.5289351076244,
                    53.970003665921055
                ]
            }
        },
        {
            "type": "Feature",
            "properties": {
                "ref:csioz": 1029381,
                "name": "Słoneczna",
                "addr:street": "Cystersów",
                "addr:housenumber": "4",
                "addr:city": "Pogódki",
                "addr:postcode": "83-236",
                "amenity": "pharmacy",
                "dispensing": "yes"
            },
            "geometry": {
                "type": "Point",
                "coordinates": [
                    18.317203331053012,
                    54.02476306800748
                ]
            }
        },
        {
            "type": "Feature",
            "properties": {
                "ref:csioz": 1029999,
                "addr:street": "Niepodległości",
                "addr:housenumber": "2A",
                "addr:city": "Starogard Gdański",
                "addr:postcode": "83-200",
                "amenity": "pharmacy",
                "dispensing": "yes"
            },
            "geometry": {
                "type": "Point",
                "coordinates": [
                    18.52467460584598,
                    53.9649388333057
                ]
            }
        },
        {
            "type": "Feature",
            "properties": {
                "ref:csioz": 1030248,
                "name": "Zdrowie",
                "addr:street": "Kociewska",
                "addr:housenumber": "5",
                "addr:city": "Smętowo Graniczne",
                "addr:postcode": "83-230",
                "amenity": "pharmacy",
                "dispensing": "yes"
            },
            "geometry": {
                "type": "Point",
                "coordinates": [
                    18.688185212742148,
                    53.74700079104101
                ]
            }
        },
        {
            "type": "Feature",
            "properties": {
                "ref:csioz": 1030445,
                "name": "Przy Medyku",
                "addr:street": "Kościerska",
                "addr:housenumber": "37",
                "addr:city": "Zblewo",
                "addr:postcode": "83-210",
                "amenity": "pharmacy",
                "dispensing": "yes"
            },
            "geometry": {
                "type": "Point",
                "coordinates": [
                    18.328753869727482,
                    53.93609710081966
                ]
            }
        },
        {
            "type": "Feature",
            "properties": {
                "ref:csioz": 1031774,
                "name": "Apteka Dbam O Zdrowie",
                "addr:street": "Mikołaja Kopernika",
                "addr:housenumber": "21",
                "addr:city": "Starogard Gdański",
                "addr:postcode": "83-200",
                "amenity": "pharmacy",
                "dispensing": "yes"
            },
            "geometry": {
                "type": "Point",
                "coordinates": [
                    18.525332282619143,
                    53.96176703304876
                ]
            }
        },
        {
            "type": "Feature",
            "properties": {
                "ref:csioz": 1032196,
                "name": "Wracam Do Zdrowia",
                "addr:street": "Wybickiego",
                "addr:housenumber": "25",
                "addr:city": "Skarszewy",
                "addr:postcode": "83-250",
                "amenity": "pharmacy",
                "dispensing": "yes"
            },
            "geometry": {
                "type": "Point",
                "coordinates": [
                    18.444959574369904,
                    54.06938234357012
                ]
            }
        },
        {
            "type": "Feature",
            "properties": {
                "ref:csioz": 1033497,
                "name": "Medical",
                "addr:housenumber": "23A",
                "addr:postcode": "83-230",
                "amenity": "pharmacy",
                "addr:place": "Kopytkowo",
                "dispensing": "yes"
            },
            "geometry": {
                "type": "Point",
                "coordinates": [
                    18.64965459569327,
                    53.7375813337531
                ]
            }
        },
        {
            "type": "Feature",
            "properties": {
                "ref:csioz": 1033755,
                "name": "Aptekus",
                "addr:street": "Semlińska",
                "addr:housenumber": "1C",
                "addr:city": "Pinczyn",
                "addr:postcode": "83-251",
                "amenity": "pharmacy",
                "dispensing": "yes"
            },
            "geometry": {
                "type": "Point",
                "coordinates": [
                    18.3488136927933,
                    53.962835917944375
                ]
            }
        },
        {
            "type": "Feature",
            "properties": {
                "ref:csioz": 1034015,
                "name": "Aptekus",
                "addr:street": "Zachodnia",
                "addr:housenumber": "1B",
                "addr:city": "Bobowo",
                "addr:postcode": "83-220",
                "amenity": "pharmacy",
                "dispensing": "yes"
            },
            "geometry": {
                "type": "Point",
                "coordinates": [
                    18.55652904236228,
                    53.88675150924191
                ]
            }
        },
        {
            "type": "Feature",
            "properties": {
                "ref:csioz": 1034140,
                "name": "Apteka Szpitalna W Zakładzie Leczniczym: Szpital Św. Jana",
                "addr:street": "dra Józefa Balewskiego",
                "addr:housenumber": "1",
                "addr:city": "Starogard Gdański",
                "addr:postcode": "83-200",
                "amenity": "pharmacy",
                "dispensing": "yes"
            },
            "geometry": {
                "type": "Point",
                "coordinates": [
                    18.507805693229418,
                    53.96703145673763
                ]
            }
        },
        {
            "type": "Feature",
            "properties": {
                "ref:csioz": 1034201,
                "name": "Dział Farmacji Szpitalnej W Regionalnym Ośrodku Psychiatrii Sądowej W Starogardzie Gdańskim",
                "addr:street": "Skarszewska",
                "addr:housenumber": "7",
                "addr:city": "Starogard Gdański",
                "addr:postcode": "83-200",
                "amenity": "pharmacy",
                "dispensing": "yes"
            },
            "geometry": {
                "type": "Point",
                "coordinates": [
                    18.509172999999773,
                    53.97946200001872
                ]
            }
        },
        {
            "type": "Feature",
            "properties": {
                "ref:csioz": 1139542,
                "name": "Apteka Szpitalna W Szpitalu Psychiatrycznym",
                "addr:street": "Skarszewska",
                "addr:housenumber": "7",
                "addr:city": "Starogard Gdański",
                "addr:postcode": "83-200",
                "amenity": "pharmacy",
                "dispensing": "yes"
            },
            "geometry": {
                "type": "Point",
                "coordinates": [
                    18.509172999999773,
                    53.97946200001872
                ]
            }
        },
        {
            "type": "Feature",
            "properties": {
                "ref:csioz": 1027571,
                "name": "Apteka Dbam O Zdrowie",
                "addr:street": "Dworcowa",
                "addr:housenumber": "22A",
                "addr:city": "Skarszewy",
                "addr:postcode": "83-250",
                "amenity": "pharmacy",
                "dispensing": "yes"
            },
            "geometry": {
                "type": "Point",
                "coordinates": [
                    18.43942299999975,
                    54.07214300001886
                ]
            }
        },
        {
            "type": "Feature",
            "properties": {
                "ref:csioz": 1028647,
                "name": "Rodzinna",
                "addr:street": "Lubichowska",
                "addr:housenumber": "92A",
                "addr:city": "Starogard Gdański",
                "addr:postcode": "83-200",
                "amenity": "pharmacy",
                "dispensing": "yes"
            },
            "geometry": {
                "type": "Point",
                "coordinates": [
                    18.51751463933346,
                    53.95514188284392
                ]
            }
        },
        {
            "type": "Feature",
            "properties": {
                "ref:csioz": 1029013,
                "name": "Nad Jarem",
                "addr:street": "Nad Jarem",
                "addr:housenumber": "93",
                "addr:city": "Starogard Gdański",
                "addr:postcode": "83-200",
                "amenity": "pharmacy",
                "dispensing": "yes"
            },
            "geometry": {
                "type": "Point",
                "coordinates": [
                    18.495907354458897,
                    53.96370775049127
                ]
            }
        },
        {
            "type": "Feature",
            "properties": {
                "ref:csioz": 1029045,
                "addr:street": "Wyzwolenia",
                "addr:housenumber": "23",
                "addr:city": "Osiek",
                "addr:postcode": "83-221",
                "amenity": "pharmacy",
                "dispensing": "yes"
            },
            "geometry": {
                "type": "Point",
                "coordinates": [
                    18.498494545621256,
                    53.72211613846471
                ]
            }
        },
        {
            "type": "Feature",
            "properties": {
                "ref:csioz": 1029695,
                "name": "Pharmacon",
                "addr:street": "Droga Nowowiejska",
                "addr:housenumber": "26 C",
                "addr:city": "Starogard Gdański",
                "addr:postcode": "83-200",
                "amenity": "pharmacy",
                "dispensing": "yes"
            },
            "geometry": {
                "type": "Point",
                "coordinates": [
                    18.507277246709865,
                    53.965220997468286
                ]
            }
        },
        {
            "type": "Feature",
            "properties": {
                "ref:csioz": 1029840,
                "name": "Wracam Do Zdrowia",
                "addr:street": "Juranda ze Spychowa",
                "addr:housenumber": "2",
                "addr:city": "Starogard Gdański",
                "addr:postcode": "83-200",
                "amenity": "pharmacy",
                "dispensing": "yes"
            },
            "geometry": {
                "type": "Point",
                "coordinates": [
                    18.50751148692567,
                    53.962864249279704
                ]
            }
        },
        {
            "type": "Feature",
            "properties": {
                "ref:csioz": 1030824,
                "name": "Wracam Do Zdrowia",
                "addr:street": "Romualda Traugutta",
                "addr:housenumber": "30",
                "addr:city": "Starogard Gdański",
                "addr:postcode": "83-200",
                "amenity": "pharmacy",
                "dispensing": "yes"
            },
            "geometry": {
                "type": "Point",
                "coordinates": [
                    18.535969795243112,
                    53.977012421481085
                ]
            }
        },
        {
            "type": "Feature",
            "properties": {
                "ref:csioz": 1031033,
                "name": "Apteka Medpharma",
                "addr:street": "Jana Pawła II",
                "addr:housenumber": "5",
                "addr:city": "Starogard Gdański",
                "addr:postcode": "83-200",
                "amenity": "pharmacy",
                "dispensing": "yes"
            },
            "geometry": {
                "type": "Point",
                "coordinates": [
                    18.530640170947873,
                    53.9616456300727
                ]
            }
        },
        {
            "type": "Feature",
            "properties": {
                "ref:csioz": 1032335,
                "name": "Apteka Gemini",
                "addr:street": "Lubichowska",
                "addr:housenumber": "14",
                "addr:city": "Starogard Gdański",
                "addr:postcode": "83-200",
                "amenity": "pharmacy",
                "dispensing": "yes"
            },
            "geometry": {
                "type": "Point",
                "coordinates": [
                    18.526953038195533,
                    53.965052435034835
                ]
            }
        },
        {
            "type": "Feature",
            "properties": {
                "ref:csioz": 1032278,
                "name": "Aspirynka",
                "addr:street": "Starogardzka",
                "addr:housenumber": "29",
                "addr:city": "Lubichowo",
                "addr:postcode": "83-240",
                "amenity": "pharmacy",
                "dispensing": "yes"
            },
            "geometry": {
                "type": "Point",
                "coordinates": [
                    18.402573981914163,
                    53.85131189084398
                ]
            }
        },
        {
            "type": "Feature",
            "properties": {
                "ref:csioz": 1033637,
                "name": "Doz Apteka. Dbam O Zdrowie. Kociewska",
                "addr:street": "Wojska Polskiego",
                "addr:housenumber": "25",
                "addr:city": "Starogard Gdański",
                "addr:postcode": "83-200",
                "amenity": "pharmacy",
                "dispensing": "yes"
            },
            "geometry": {
                "type": "Point",
                "coordinates": [
                    18.526987306590772,
                    53.97508517243576
                ]
            }
        },
        {
            "type": "Feature",
            "properties": {
                "ref:csioz": 1034274,
                "name": "\"Dział Farmacji Szpitalnej W Zakładzie Opieki Zdrowotnej 'Medpharma' Filia Nr 5\"",
                "addr:street": "Leśna",
                "addr:housenumber": "1A",
                "addr:city": "Nowa Wieś Rzeczna",
                "addr:postcode": "83-200",
                "amenity": "pharmacy",
                "dispensing": "yes"
            },
            "geometry": {
                "type": "Point",
                "coordinates": [
                    18.48701884886338,
                    53.960630998695606
                ]
            }
        },
        {
            "type": "Feature",
            "properties": {
                "ref:csioz": 1179360,
                "name": "Ponik",
                "addr:street": "Skarszewska",
                "addr:housenumber": "4B",
                "addr:city": "Starogard Gdański",
                "addr:postcode": "83-200",
                "amenity": "pharmacy",
                "dispensing": "yes"
            },
            "geometry": {
                "type": "Point",
                "coordinates": [
                    18.520982024462036,
                    53.97643199922205
                ]
            }
        },
        {
            "type": "Feature",
            "properties": {
                "ref:csioz": 1196610,
                "name": "Euro-Apteka",
                "addr:street": "Pomorska",
                "addr:housenumber": "7",
                "addr:city": "Starogard Gdański",
                "addr:postcode": "83-200",
                "amenity": "pharmacy",
                "dispensing": "yes"
            },
            "geometry": {
                "type": "Point",
                "coordinates": [
                    18.530553624655536,
                    53.963725492306274
                ]
            }
        },
        {
            "type": "Feature",
            "properties": {
                "ref:csioz": 1206696,
                "name": "Apteka Gemini",
                "addr:street": "gen. Józefa Hallera",
                "addr:housenumber": "19 C",
                "addr:city": "Starogard Gdański",
                "addr:postcode": "83-200",
                "amenity": "pharmacy",
                "dispensing": "yes"
            },
            "geometry": {
                "type": "Point",
                "coordinates": [
                    18.527550629051184,
                    53.96972197704526
                ]
            }
        },
        {
            "type": "Feature",
            "properties": {
                "ref:csioz": 1207317,
                "name": "Apteka Społeczna Na Rynku Grupa Nowa Farmacja",
                "addr:street": "Rynek",
                "addr:housenumber": "18",
                "addr:city": "Starogard Gdański",
                "addr:postcode": "83-200",
                "amenity": "pharmacy",
                "dispensing": "yes"
            },
            "geometry": {
                "type": "Point",
                "coordinates": [
                    18.531419108644787,
                    53.966835518982776
                ]
            }
        },
        {
            "type": "Feature",
            "properties": {
                "ref:csioz": 1220662,
                "name": "Naturalnie Zdrowi",
                "addr:street": "Grabowa",
                "addr:housenumber": "5",
                "addr:city": "Starogard Gdański",
                "addr:postcode": "83-200",
                "amenity": "pharmacy",
                "dispensing": "yes"
            },
            "geometry": {
                "type": "Point",
                "coordinates": [
                    18.506344748145214,
                    53.93679746111364
                ]
            }
        },
        {
            "type": "Feature",
            "properties": {
                "ref:csioz": 1223838,
                "name": "Apteka Ponik Zdrowie I Uroda...",
                "addr:street": "Zblewska",
                "addr:housenumber": "5",
                "addr:city": "Starogard Gdański",
                "addr:postcode": "83-200",
                "amenity": "pharmacy",
                "dispensing": "yes"
            },
            "geometry": {
                "type": "Point",
                "coordinates": [
                    18.510709595964766,
                    53.96156440416763
                ]
            }
        },
        {
            "type": "Feature",
            "properties": {
                "ref:csioz": 1228894,
                "name": "Apteka Tęczowa",
                "addr:street": "Szosa Borzechowska",
                "addr:housenumber": "1 B",
                "addr:city": "Zblewo",
                "addr:postcode": "83-210",
                "amenity": "pharmacy",
                "dispensing": "yes"
            },
            "geometry": {
                "type": "Point",
                "coordinates": [
                    18.335404464472322,
                    53.93140574631857
                ]
            }
        }
    ]
}