{
    "type": "FeatureCollection",
    "name": "JPT_KOD_JE_1819",
    "features": [
        {
            "type": "Feature",
            "properties": {
                "ref:csioz": 1145859,
                "addr:street": "Starowiejska",
                "addr:housenumber": "4A",
                "addr:city": "Czudec",
                "addr:postcode": "38-120",
                "amenity": "pharmacy"
            },
            "geometry": {
                "type": "Point",
                "coordinates": [
                    21.835536373853834,
                    49.94470609436616
                ]
            }
        },
        {
            "type": "Feature",
            "properties": {
                "ref:csioz": 1145868,
                "addr:street": "Rynek",
                "addr:housenumber": "2",
                "addr:city": "Czudec",
                "addr:postcode": "38-120",
                "amenity": "pharmacy"
            },
            "geometry": {
                "type": "Point",
                "coordinates": [
                    21.83812264423613,
                    49.9452439973189
                ]
            }
        },
        {
            "type": "Feature",
            "properties": {
                "ref:csioz": 1145934,
                "addr:housenumber": "139",
                "addr:postcode": "38-114",
                "amenity": "pharmacy",
                "addr:place": "Niebylec"
            },
            "geometry": {
                "type": "Point",
                "coordinates": [
                    21.903941681879832,
                    49.8557657004579
                ]
            }
        },
        {
            "type": "Feature",
            "properties": {
                "ref:csioz": 1125691,
                "addr:housenumber": "337",
                "addr:postcode": "38-112",
                "amenity": "pharmacy",
                "addr:place": "Lutcza"
            },
            "geometry": {
                "type": "Point",
                "coordinates": [
                    21.872750416712815,
                    49.806896580902894
                ]
            }
        },
        {
            "type": "Feature",
            "properties": {
                "ref:csioz": 1125702,
                "addr:housenumber": "4c",
                "addr:postcode": "38-114",
                "amenity": "pharmacy",
                "addr:place": "Małówka"
            },
            "geometry": {
                "type": "Point",
                "coordinates": [
                    21.902692082945652,
                    49.861222945763146
                ]
            }
        },
        {
            "type": "Feature",
            "properties": {
                "ref:csioz": 1145916,
                "addr:street": "Józefa Piętniewicza",
                "addr:housenumber": "3",
                "addr:city": "Frysztak",
                "addr:postcode": "38-130",
                "amenity": "pharmacy"
            },
            "geometry": {
                "type": "Point",
                "coordinates": [
                    21.607211107472196,
                    49.834979918415236
                ]
            }
        },
        {
            "type": "Feature",
            "properties": {
                "ref:csioz": 1145927,
                "addr:housenumber": "22",
                "addr:postcode": "38-126",
                "amenity": "pharmacy",
                "addr:place": "Markuszowa"
            },
            "geometry": {
                "type": "Point",
                "coordinates": [
                    21.709203186108468,
                    49.86293885468852
                ]
            }
        },
        {
            "type": "Feature",
            "properties": {
                "ref:csioz": 1145942,
                "addr:housenumber": "136",
                "addr:postcode": "38-124",
                "amenity": "pharmacy",
                "addr:place": "Wiśniowa"
            },
            "geometry": {
                "type": "Point",
                "coordinates": [
                    21.65531387163646,
                    49.868608181937454
                ]
            }
        },
        {
            "type": "Feature",
            "properties": {
                "ref:csioz": 1145969,
                "name": "Kleopatra",
                "addr:street": "Mikołaja Frysztackiego",
                "addr:housenumber": "18",
                "addr:city": "Frysztak",
                "addr:postcode": "38-130",
                "amenity": "pharmacy"
            },
            "geometry": {
                "type": "Point",
                "coordinates": [
                    21.609486484150356,
                    49.83464050027635
                ]
            }
        },
        {
            "type": "Feature",
            "properties": {
                "ref:csioz": 1145903,
                "name": "Medicus",
                "addr:street": "Rzeszowska",
                "addr:housenumber": "11",
                "addr:city": "Frysztak",
                "addr:postcode": "38-130",
                "amenity": "pharmacy"
            },
            "geometry": {
                "type": "Point",
                "coordinates": [
                    21.61283642194109,
                    49.836314559786345
                ]
            }
        },
        {
            "type": "Feature",
            "properties": {
                "ref:csioz": 1147220,
                "addr:housenumber": "67",
                "addr:postcode": "38-114",
                "amenity": "pharmacy",
                "addr:place": "Niebylec"
            },
            "geometry": {
                "type": "Point",
                "coordinates": [
                    21.911905799917538,
                    49.85609699942238
                ]
            }
        },
        {
            "type": "Feature",
            "properties": {
                "ref:csioz": 1164785,
                "name": "Różana",
                "addr:street": "Parkowa",
                "addr:housenumber": "8a",
                "addr:city": "Strzyżów",
                "addr:postcode": "38-100",
                "amenity": "pharmacy"
            },
            "geometry": {
                "type": "Point",
                "coordinates": [
                    21.789836246404356,
                    49.869708806017655
                ]
            }
        },
        {
            "type": "Feature",
            "properties": {
                "ref:csioz": 1187044,
                "name": "Różana",
                "addr:street": "Parkowa",
                "addr:housenumber": "12",
                "addr:city": "Strzyżów",
                "addr:postcode": "38-100",
                "amenity": "pharmacy"
            },
            "geometry": {
                "type": "Point",
                "coordinates": [
                    21.789702961183398,
                    49.87067496424279
                ]
            }
        },
        {
            "type": "Feature",
            "properties": {
                "ref:csioz": 1125236,
                "addr:street": "700-lecia",
                "addr:housenumber": "1",
                "addr:city": "Strzyżów",
                "addr:postcode": "38-100",
                "amenity": "pharmacy"
            },
            "geometry": {
                "type": "Point",
                "coordinates": [
                    21.78411565869395,
                    49.87024040788504
                ]
            }
        },
        {
            "type": "Feature",
            "properties": {
                "ref:csioz": 1145821,
                "name": "Apteka Panax",
                "addr:street": "700-lecia Strzyżowa",
                "addr:housenumber": "4",
                "addr:city": "Strzyżów",
                "addr:postcode": "38-100",
                "amenity": "pharmacy"
            },
            "geometry": {
                "type": "Point",
                "coordinates": [
                    21.784985193378287,
                    49.86971736518366
                ]
            }
        },
        {
            "type": "Feature",
            "properties": {
                "ref:csioz": 1145837,
                "name": "Apteka Prywatna Im. W. Zajączkowskiego",
                "addr:street": "Słowackiego",
                "addr:housenumber": "10",
                "addr:city": "Strzyżów",
                "addr:postcode": "38-100",
                "amenity": "pharmacy"
            },
            "geometry": {
                "type": "Point",
                "coordinates": [
                    21.789175398950544,
                    49.86891578237599
                ]
            }
        },
        {
            "type": "Feature",
            "properties": {
                "ref:csioz": 1145884,
                "addr:street": "Mikołaja Frysztackiego",
                "addr:housenumber": "10",
                "addr:city": "Frysztak",
                "addr:postcode": "38-130",
                "amenity": "pharmacy"
            },
            "geometry": {
                "type": "Point",
                "coordinates": [
                    21.6092097501296,
                    49.83483211806923
                ]
            }
        },
        {
            "type": "Feature",
            "properties": {
                "ref:csioz": 1145800,
                "name": "\"Doz Apteka. Dbam O Zdrowie. Apteka \"\"Pod Duchem Świętym\"\" Mgr Farm. Dorota Chrzanowska-Klecha\"",
                "addr:street": "Parkowa",
                "addr:housenumber": "1",
                "addr:city": "Strzyżów",
                "addr:postcode": "38-100",
                "amenity": "pharmacy"
            },
            "geometry": {
                "type": "Point",
                "coordinates": [
                    21.78975481700455,
                    49.86925359064222
                ]
            }
        },
        {
            "type": "Feature",
            "properties": {
                "ref:csioz": 1207650,
                "name": "Różana",
                "addr:street": "Plac św. Floriana",
                "addr:housenumber": "1",
                "addr:city": "Frysztak",
                "addr:postcode": "38-130",
                "amenity": "pharmacy"
            },
            "geometry": {
                "type": "Point",
                "coordinates": [
                    21.61064910229916,
                    49.83439153615867
                ]
            }
        },
        {
            "type": "Feature",
            "properties": {
                "ref:csioz": 1145845,
                "name": "Ania",
                "addr:housenumber": "466A",
                "addr:postcode": "38-122",
                "amenity": "pharmacy",
                "addr:place": "Dobrzechów"
            },
            "geometry": {
                "type": "Point",
                "coordinates": [
                    21.75387751343012,
                    49.87583435583913
                ]
            }
        }
    ]
}