{
    "type": "FeatureCollection",
    "name": "JPT_KOD_JE_1208",
    "features": [
        {
            "type": "Feature",
            "properties": {
                "ref:csioz": 1042378,
                "addr:street": "Wesoła",
                "addr:housenumber": "4",
                "addr:city": "Miechów",
                "addr:postcode": "32-200",
                "amenity": "pharmacy",
                "dispensing": "yes"
            },
            "geometry": {
                "type": "Point",
                "coordinates": [
                    20.02952710979611,
                    50.35516601915307
                ]
            }
        },
        {
            "type": "Feature",
            "properties": {
                "ref:csioz": 1042386,
                "name": "Apteka Prywatna",
                "addr:street": "Marii Konopnickiej",
                "addr:housenumber": "21",
                "addr:city": "Miechów",
                "addr:postcode": "32-200",
                "amenity": "pharmacy",
                "dispensing": "yes"
            },
            "geometry": {
                "type": "Point",
                "coordinates": [
                    20.04065816118762,
                    50.359711077623494
                ]
            }
        },
        {
            "type": "Feature",
            "properties": {
                "ref:csioz": 1074987,
                "addr:street": "Adama Mickiewicza",
                "addr:housenumber": "2",
                "addr:city": "Miechów",
                "addr:postcode": "32-200",
                "amenity": "pharmacy",
                "dispensing": "yes"
            },
            "geometry": {
                "type": "Point",
                "coordinates": [
                    20.026903330446572,
                    50.35605561792784
                ]
            }
        },
        {
            "type": "Feature",
            "properties": {
                "ref:csioz": 1074998,
                "addr:street": "Warszawska",
                "addr:housenumber": "15A",
                "addr:city": "Książ Wielki",
                "addr:postcode": "32-210",
                "amenity": "pharmacy",
                "dispensing": "yes"
            },
            "geometry": {
                "type": "Point",
                "coordinates": [
                    20.141308001566138,
                    50.44616067431089
                ]
            }
        },
        {
            "type": "Feature",
            "properties": {
                "ref:csioz": 1075228,
                "name": "Apteka Główna",
                "addr:street": "Henryka Sienkiewicza",
                "addr:housenumber": "9",
                "addr:city": "Miechów",
                "addr:postcode": "32-200",
                "amenity": "pharmacy",
                "dispensing": "yes"
            },
            "geometry": {
                "type": "Point",
                "coordinates": [
                    20.02580734911315,
                    50.35616447267603
                ]
            }
        },
        {
            "type": "Feature",
            "properties": {
                "ref:csioz": 1075714,
                "name": "\"Apteka Cef@Rm 36,6\"",
                "addr:street": "Rynek",
                "addr:housenumber": "12",
                "addr:city": "Miechów",
                "addr:postcode": "32-200",
                "amenity": "pharmacy",
                "dispensing": "yes"
            },
            "geometry": {
                "type": "Point",
                "coordinates": [
                    20.028567767855286,
                    50.356165668483825
                ]
            }
        },
        {
            "type": "Feature",
            "properties": {
                "ref:csioz": 1111644,
                "name": "Zespół Placówek Opiekuńczo-Leczniczych Caritas Diecezji Kieleckiej",
                "addr:street": "Szpitalna",
                "addr:housenumber": "1",
                "addr:city": "Miechów",
                "addr:postcode": "32-200",
                "amenity": "pharmacy",
                "dispensing": "yes"
            },
            "geometry": {
                "type": "Point",
                "coordinates": [
                    20.03473300000038,
                    50.353924000013
                ]
            }
        },
        {
            "type": "Feature",
            "properties": {
                "ref:csioz": 1114261,
                "name": "Apteka Słoneczna",
                "addr:street": "Szpitalna",
                "addr:housenumber": "3",
                "addr:city": "Miechów",
                "addr:postcode": "32-200",
                "amenity": "pharmacy",
                "dispensing": "yes"
            },
            "geometry": {
                "type": "Point",
                "coordinates": [
                    20.034907781813963,
                    50.354000757475156
                ]
            }
        },
        {
            "type": "Feature",
            "properties": {
                "ref:csioz": 1124241,
                "name": "Twoja Apteka",
                "addr:housenumber": "80D",
                "addr:postcode": "32-075",
                "amenity": "pharmacy",
                "addr:place": "Gołcza",
                "dispensing": "yes"
            },
            "geometry": {
                "type": "Point",
                "coordinates": [
                    19.92330218212681,
                    50.33690608824
                ]
            }
        },
        {
            "type": "Feature",
            "properties": {
                "ref:csioz": 1181381,
                "name": "Planeta",
                "addr:street": "Żarnowiecka",
                "addr:housenumber": "50a",
                "addr:city": "Miechów-Charsznica",
                "addr:postcode": "32-250",
                "amenity": "pharmacy",
                "dispensing": "yes"
            },
            "geometry": {
                "type": "Point",
                "coordinates": [
                    19.94687820787264,
                    50.396393531469464
                ]
            }
        },
        {
            "type": "Feature",
            "properties": {
                "ref:csioz": 1208480,
                "name": "Apteka Auris",
                "addr:street": "Warszawska",
                "addr:housenumber": "15C",
                "addr:city": "Książ Wielki",
                "addr:postcode": "32-210",
                "amenity": "pharmacy",
                "dispensing": "yes"
            },
            "geometry": {
                "type": "Point",
                "coordinates": [
                    20.14095235974365,
                    50.445652162518755
                ]
            }
        },
        {
            "type": "Feature",
            "properties": {
                "ref:csioz": 1036035,
                "name": "Niezapominajka Dla Całej Rodziny",
                "addr:street": "Józefa Piłsudskiego",
                "addr:housenumber": "1",
                "addr:city": "Miechów",
                "addr:postcode": "32-200",
                "amenity": "pharmacy",
                "dispensing": "yes"
            },
            "geometry": {
                "type": "Point",
                "coordinates": [
                    20.02850285052074,
                    50.355916028404536
                ]
            }
        },
        {
            "type": "Feature",
            "properties": {
                "ref:csioz": 1042251,
                "addr:street": "Warszawska",
                "addr:housenumber": "2",
                "addr:city": "Książ Wielki",
                "addr:postcode": "32-210",
                "amenity": "pharmacy",
                "dispensing": "yes"
            },
            "geometry": {
                "type": "Point",
                "coordinates": [
                    20.141361903530044,
                    50.44427245200837
                ]
            }
        },
        {
            "type": "Feature",
            "properties": {
                "ref:csioz": 1042332,
                "addr:housenumber": "25",
                "addr:postcode": "32-218",
                "amenity": "pharmacy",
                "addr:place": "Dziaduszyce",
                "dispensing": "yes"
            },
            "geometry": {
                "type": "Point",
                "coordinates": [
                    20.267493942129565,
                    50.38399676494105
                ]
            }
        },
        {
            "type": "Feature",
            "properties": {
                "ref:csioz": 1056214,
                "addr:street": "Żarnowiecka",
                "addr:housenumber": "30",
                "addr:city": "Miechów-Charsznica",
                "addr:postcode": "32-250",
                "amenity": "pharmacy",
                "dispensing": "yes"
            },
            "geometry": {
                "type": "Point",
                "coordinates": [
                    19.944833450516093,
                    50.39746067084099
                ]
            }
        },
        {
            "type": "Feature",
            "properties": {
                "ref:csioz": 1075277,
                "name": "Apteka Prywatna Mgr Farm. Anna Kupska",
                "addr:street": "Miechowska",
                "addr:housenumber": "6",
                "addr:city": "Miechów-Charsznica",
                "addr:postcode": "32-250",
                "amenity": "pharmacy",
                "dispensing": "yes"
            },
            "geometry": {
                "type": "Point",
                "coordinates": [
                    19.94928981975811,
                    50.39486449753356
                ]
            }
        },
        {
            "type": "Feature",
            "properties": {
                "ref:csioz": 1193907,
                "name": "Szpital Św. Anny W Miechowie Lecznictwo Szpitalne",
                "addr:street": "Szpitalna",
                "addr:housenumber": "3",
                "addr:city": "Miechów",
                "addr:postcode": "32-200",
                "amenity": "pharmacy",
                "dispensing": "yes"
            },
            "geometry": {
                "type": "Point",
                "coordinates": [
                    20.034907781813963,
                    50.354000757475156
                ]
            }
        },
        {
            "type": "Feature",
            "properties": {
                "ref:csioz": 1196318,
                "addr:housenumber": "63",
                "addr:postcode": "32-241",
                "amenity": "pharmacy",
                "addr:place": "Kozłów",
                "dispensing": "yes"
            },
            "geometry": {
                "type": "Point",
                "coordinates": [
                    20.028362237663302,
                    50.4829313575394
                ]
            }
        },
        {
            "type": "Feature",
            "properties": {
                "ref:csioz": 1206368,
                "name": "Punkt Apteczny Mgr Alicja Boszkowska",
                "addr:housenumber": "67",
                "addr:postcode": "32-218",
                "amenity": "pharmacy",
                "addr:place": "Kalina Wielka",
                "dispensing": "yes"
            },
            "geometry": {
                "type": "Point",
                "coordinates": [
                    20.16058680674002,
                    50.38422897883219
                ]
            }
        },
        {
            "type": "Feature",
            "properties": {
                "ref:csioz": 1214776,
                "name": "Apteka Słoneczna",
                "addr:street": "Józefa Piłsudskiego",
                "addr:housenumber": "10B",
                "addr:city": "Miechów",
                "addr:postcode": "32-200",
                "amenity": "pharmacy",
                "dispensing": "yes"
            },
            "geometry": {
                "type": "Point",
                "coordinates": [
                    20.028135225597683,
                    50.355102586995194
                ]
            }
        },
        {
            "type": "Feature",
            "properties": {
                "ref:csioz": 1218509,
                "addr:housenumber": "112",
                "addr:postcode": "32-075",
                "amenity": "pharmacy",
                "addr:place": "Szreniawa",
                "dispensing": "yes"
            },
            "geometry": {
                "type": "Point",
                "coordinates": [
                    19.87324272615576,
                    50.375069386784446
                ]
            }
        },
        {
            "type": "Feature",
            "properties": {
                "ref:csioz": 1115064,
                "name": "\"Apteka \"\"Dobre Apteki\"\"\"",
                "addr:street": "Henryka Sienkiewicza",
                "addr:housenumber": "12",
                "addr:city": "Miechów",
                "addr:postcode": "32-200",
                "amenity": "pharmacy",
                "dispensing": "yes"
            },
            "geometry": {
                "type": "Point",
                "coordinates": [
                    20.02266262546844,
                    50.35669092203613
                ]
            }
        },
        {
            "type": "Feature",
            "properties": {
                "ref:csioz": 1196409,
                "name": "\"Punkt Apteczny \"\"Pod Kłosem\"\"\"",
                "addr:housenumber": "12",
                "addr:postcode": "32-210",
                "amenity": "pharmacy",
                "addr:place": "Książ Mały",
                "dispensing": "yes"
            },
            "geometry": {
                "type": "Point",
                "coordinates": [
                    20.211768935869095,
                    50.43845360374487
                ]
            }
        }
    ]
}