{
    "type": "FeatureCollection",
    "name": "JPT_KOD_JE_0616",
    "features": [
        {
            "type": "Feature",
            "properties": {
                "ref:csioz": 1106792,
                "name": "Apteka Malvita",
                "addr:street": "Wyczółkowskiego",
                "addr:housenumber": "6",
                "addr:city": "Ryki",
                "addr:postcode": "08-500",
                "amenity": "pharmacy"
            },
            "geometry": {
                "type": "Point",
                "coordinates": [
                    21.928802182286994,
                    51.62619544401118
                ]
            }
        },
        {
            "type": "Feature",
            "properties": {
                "ref:csioz": 1157698,
                "addr:street": "Juliusza Słowackiego",
                "addr:housenumber": "15 c",
                "addr:city": "Ryki",
                "addr:postcode": "08-500",
                "amenity": "pharmacy"
            },
            "geometry": {
                "type": "Point",
                "coordinates": [
                    21.929354930651446,
                    51.6180863488234
                ]
            }
        },
        {
            "type": "Feature",
            "properties": {
                "ref:csioz": 1158197,
                "addr:street": "15 Pułku Piechoty Wilków",
                "addr:housenumber": "3",
                "addr:city": "Dęblin",
                "addr:postcode": "08-530",
                "amenity": "pharmacy"
            },
            "geometry": {
                "type": "Point",
                "coordinates": [
                    21.843434706371745,
                    51.560887083145474
                ]
            }
        },
        {
            "type": "Feature",
            "properties": {
                "ref:csioz": 1162232,
                "addr:street": "Długa",
                "addr:housenumber": "53",
                "addr:city": "Kłoczew",
                "addr:postcode": "08-550",
                "amenity": "pharmacy"
            },
            "geometry": {
                "type": "Point",
                "coordinates": [
                    21.95794231122868,
                    51.720905737309444
                ]
            }
        },
        {
            "type": "Feature",
            "properties": {
                "ref:csioz": 1161763,
                "addr:street": "Warszawska",
                "addr:housenumber": "100",
                "addr:city": "Ryki",
                "addr:postcode": "08-500",
                "amenity": "pharmacy"
            },
            "geometry": {
                "type": "Point",
                "coordinates": [
                    21.929167248936597,
                    51.62850794886465
                ]
            }
        },
        {
            "type": "Feature",
            "properties": {
                "ref:csioz": 1162672,
                "addr:street": "Stężycka",
                "addr:housenumber": "9",
                "addr:city": "Dęblin",
                "addr:postcode": "08-530",
                "amenity": "pharmacy"
            },
            "geometry": {
                "type": "Point",
                "coordinates": [
                    21.832004524845484,
                    51.566079119245835
                ]
            }
        },
        {
            "type": "Feature",
            "properties": {
                "ref:csioz": 1162887,
                "addr:street": "Królewska",
                "addr:housenumber": "13",
                "addr:city": "Stężyca",
                "addr:postcode": "08-540",
                "amenity": "pharmacy"
            },
            "geometry": {
                "type": "Point",
                "coordinates": [
                    21.771297123526896,
                    51.57626942127346
                ]
            }
        },
        {
            "type": "Feature",
            "properties": {
                "ref:csioz": 1163205,
                "addr:street": "Kolejowa",
                "addr:housenumber": "20",
                "addr:city": "Dęblin",
                "addr:postcode": "08-530",
                "amenity": "pharmacy"
            },
            "geometry": {
                "type": "Point",
                "coordinates": [
                    21.83293881926361,
                    51.57955194595045
                ]
            }
        },
        {
            "type": "Feature",
            "properties": {
                "ref:csioz": 1163218,
                "addr:street": "Szkolna",
                "addr:housenumber": "1",
                "addr:city": "Ryki",
                "addr:postcode": "08-500",
                "amenity": "pharmacy"
            },
            "geometry": {
                "type": "Point",
                "coordinates": [
                    21.93353189619587,
                    51.627575136175324
                ]
            }
        },
        {
            "type": "Feature",
            "properties": {
                "ref:csioz": 1163645,
                "addr:street": "Wiślana",
                "addr:housenumber": "33",
                "addr:city": "Dęblin",
                "addr:postcode": "08-530",
                "amenity": "pharmacy"
            },
            "geometry": {
                "type": "Point",
                "coordinates": [
                    21.83093544105032,
                    51.567464681763994
                ]
            }
        },
        {
            "type": "Feature",
            "properties": {
                "ref:csioz": 1163676,
                "name": "Apteka A.H.A.Kołodziejek",
                "addr:street": "Słowackiego Juliusza",
                "addr:housenumber": "4",
                "addr:city": "Ryki",
                "addr:postcode": "08-500",
                "amenity": "pharmacy"
            },
            "geometry": {
                "type": "Point",
                "coordinates": [
                    21.93164846587719,
                    51.62375866204951
                ]
            }
        },
        {
            "type": "Feature",
            "properties": {
                "ref:csioz": 1164837,
                "name": "Doz Apteka Dbam O Zdrowie",
                "addr:street": "Rynek",
                "addr:housenumber": "2",
                "addr:city": "Dęblin",
                "addr:postcode": "08-530",
                "amenity": "pharmacy"
            },
            "geometry": {
                "type": "Point",
                "coordinates": [
                    21.864418052143506,
                    51.562006881743166
                ]
            }
        },
        {
            "type": "Feature",
            "properties": {
                "ref:csioz": 1163778,
                "addr:street": "Długa",
                "addr:housenumber": "67",
                "addr:city": "Kłoczew",
                "addr:postcode": "08-454",
                "amenity": "pharmacy"
            },
            "geometry": {
                "type": "Point",
                "coordinates": [
                    21.956349797694592,
                    51.7224710965655
                ]
            }
        },
        {
            "type": "Feature",
            "properties": {
                "ref:csioz": 1157687,
                "addr:street": "Poniatowskiego",
                "addr:housenumber": "35",
                "addr:city": "Ryki",
                "addr:postcode": "08-500",
                "amenity": "pharmacy"
            },
            "geometry": {
                "type": "Point",
                "coordinates": [
                    21.9342899074045,
                    51.62659087480961
                ]
            }
        },
        {
            "type": "Feature",
            "properties": {
                "ref:csioz": 1106350,
                "name": "\"Punkt Apteczny \"\"Przyjazny\"\"\"",
                "addr:street": "Księdza Drozdowskiego",
                "addr:housenumber": "8",
                "addr:city": "Leopoldów",
                "addr:postcode": "08-500",
                "amenity": "pharmacy"
            },
            "geometry": {
                "type": "Point",
                "coordinates": [
                    22.012267632719187,
                    51.66945351431261
                ]
            }
        },
        {
            "type": "Feature",
            "properties": {
                "ref:csioz": 1122774,
                "name": "Apteka Kornelia Jacak",
                "addr:street": "Szpitalna",
                "addr:housenumber": "2",
                "addr:city": "Dęblin",
                "addr:postcode": "08-530",
                "amenity": "pharmacy"
            },
            "geometry": {
                "type": "Point",
                "coordinates": [
                    21.856187995182044,
                    51.5545395345481
                ]
            }
        },
        {
            "type": "Feature",
            "properties": {
                "ref:csioz": 1157860,
                "name": "Doz Apteka. Dbam O Zdrowie. Kołodziejek",
                "addr:street": "Żytnia",
                "addr:housenumber": "16",
                "addr:city": "Ryki",
                "addr:postcode": "08-500",
                "amenity": "pharmacy"
            },
            "geometry": {
                "type": "Point",
                "coordinates": [
                    21.930823449546608,
                    51.62208948645542
                ]
            }
        },
        {
            "type": "Feature",
            "properties": {
                "ref:csioz": 1158663,
                "name": "Apteka Vita",
                "addr:street": "Bankowa",
                "addr:housenumber": "12 A",
                "addr:city": "Dęblin",
                "addr:postcode": "08-530",
                "amenity": "pharmacy"
            },
            "geometry": {
                "type": "Point",
                "coordinates": [
                    21.862934260788364,
                    51.56282859841916
                ]
            }
        },
        {
            "type": "Feature",
            "properties": {
                "ref:csioz": 1161629,
                "name": "Apteka Vita",
                "addr:street": "Poniatowskiego",
                "addr:housenumber": "1",
                "addr:city": "Ryki",
                "addr:postcode": "08-500",
                "amenity": "pharmacy"
            },
            "geometry": {
                "type": "Point",
                "coordinates": [
                    21.934609145488846,
                    51.62523862094866
                ]
            }
        },
        {
            "type": "Feature",
            "properties": {
                "ref:csioz": 1163138,
                "addr:street": "Okólna",
                "addr:housenumber": "10",
                "addr:city": "Dęblin",
                "addr:postcode": "08-530",
                "amenity": "pharmacy"
            },
            "geometry": {
                "type": "Point",
                "coordinates": [
                    21.86360306573879,
                    51.563344488844436
                ]
            }
        },
        {
            "type": "Feature",
            "properties": {
                "ref:csioz": 1163481,
                "name": "Apteka Przyjazna",
                "addr:street": "Poniatowskiego",
                "addr:housenumber": "64",
                "addr:city": "Ryki",
                "addr:postcode": "08-500",
                "amenity": "pharmacy"
            },
            "geometry": {
                "type": "Point",
                "coordinates": [
                    21.9340770723445,
                    51.62749237691518
                ]
            }
        },
        {
            "type": "Feature",
            "properties": {
                "ref:csioz": 1164002,
                "addr:street": "Prosta",
                "addr:housenumber": "5",
                "addr:city": "Dęblin",
                "addr:postcode": "08-530",
                "amenity": "pharmacy"
            },
            "geometry": {
                "type": "Point",
                "coordinates": [
                    21.867027458639754,
                    51.56180395063997
                ]
            }
        },
        {
            "type": "Feature",
            "properties": {
                "ref:csioz": 1164015,
                "addr:street": "gen. Pilota Józefa Kowalskiego",
                "addr:housenumber": "302",
                "addr:city": "Dęblin",
                "addr:postcode": "08-530",
                "amenity": "pharmacy"
            },
            "geometry": {
                "type": "Point",
                "coordinates": [
                    21.88083482976093,
                    51.54750143410735
                ]
            }
        },
        {
            "type": "Feature",
            "properties": {
                "ref:csioz": 1173254,
                "name": "Jowita Bany Punkt Apteczny W Bobrownikach",
                "addr:street": "Krasnoglińska",
                "addr:housenumber": "11B",
                "addr:city": "Bobrowniki",
                "addr:postcode": "08-500",
                "amenity": "pharmacy"
            },
            "geometry": {
                "type": "Point",
                "coordinates": [
                    21.93598110893994,
                    51.55119980297719
                ]
            }
        },
        {
            "type": "Feature",
            "properties": {
                "ref:csioz": 1206538,
                "name": "6 Szpital Wojskowy Z Przychodnią Spzoz W Dęblinie",
                "addr:street": "Szpitalna",
                "addr:housenumber": "2",
                "addr:city": "Dęblin",
                "addr:postcode": "08-521",
                "amenity": "pharmacy"
            },
            "geometry": {
                "type": "Point",
                "coordinates": [
                    21.856187995182044,
                    51.5545395345481
                ]
            }
        },
        {
            "type": "Feature",
            "properties": {
                "ref:csioz": 1229776,
                "name": "Dział Farmacji Szpitalnej",
                "addr:street": "Żytnia",
                "addr:housenumber": "23",
                "addr:city": "Ryki",
                "addr:postcode": "08-500",
                "amenity": "pharmacy"
            },
            "geometry": {
                "type": "Point",
                "coordinates": [
                    21.930456220065075,
                    51.62164793551763
                ]
            }
        },
        {
            "type": "Feature",
            "properties": {
                "ref:csioz": 1162985,
                "name": "Doz Apteka.Dbam O Zdrowie",
                "addr:housenumber": "172",
                "addr:city": "Ułęż",
                "addr:postcode": "08-504",
                "amenity": "pharmacy"
            },
            "geometry": {
                "type": "Point",
                "coordinates": [
                    22.105325660484787,
                    51.590814556187254
                ]
            }
        }
    ]
}