{
    "type": "FeatureCollection",
    "name": "JPT_KOD_JE_1803",
    "features": [
        {
            "type": "Feature",
            "properties": {
                "ref:csioz": 1125459,
                "name": "Melisa",
                "addr:housenumber": "8B",
                "addr:postcode": "39-220",
                "amenity": "pharmacy",
                "addr:place": "Dobrków",
                "dispensing": "yes"
            },
            "geometry": {
                "type": "Point",
                "coordinates": [
                    21.33427939334961,
                    49.98122042051292
                ]
            }
        },
        {
            "type": "Feature",
            "properties": {
                "ref:csioz": 1125511,
                "name": "Vita",
                "addr:housenumber": "78",
                "addr:postcode": "39-231",
                "amenity": "pharmacy",
                "addr:place": "Smarżowa",
                "dispensing": "yes"
            },
            "geometry": {
                "type": "Point",
                "coordinates": [
                    21.457907053829473,
                    49.922064365369735
                ]
            }
        },
        {
            "type": "Feature",
            "properties": {
                "ref:csioz": 1138258,
                "name": "Apteka Szpitalna Zoz",
                "addr:street": "Krakowska",
                "addr:housenumber": "91",
                "addr:city": "Dębica",
                "addr:postcode": "39-200",
                "amenity": "pharmacy",
                "dispensing": "yes"
            },
            "geometry": {
                "type": "Point",
                "coordinates": [
                    21.393012922078285,
                    50.039107233570064
                ]
            }
        },
        {
            "type": "Feature",
            "properties": {
                "ref:csioz": 1144683,
                "name": "\"Apteka \"\"Panaceum\"\"\"",
                "addr:street": "Cmentarna",
                "addr:housenumber": "52C",
                "addr:city": "Dębica",
                "addr:postcode": "39-200",
                "amenity": "pharmacy",
                "dispensing": "yes"
            },
            "geometry": {
                "type": "Point",
                "coordinates": [
                    21.42670478741453,
                    50.05605630941607
                ]
            }
        },
        {
            "type": "Feature",
            "properties": {
                "ref:csioz": 1144844,
                "name": "Apteka Św. Łukasza",
                "addr:street": "Rzeszowska",
                "addr:housenumber": "66",
                "addr:city": "Dębica",
                "addr:postcode": "39-200",
                "amenity": "pharmacy",
                "dispensing": "yes"
            },
            "geometry": {
                "type": "Point",
                "coordinates": [
                    21.418870838367642,
                    50.052963669282285
                ]
            }
        },
        {
            "type": "Feature",
            "properties": {
                "ref:csioz": 1144853,
                "name": "Dr.Max",
                "addr:street": "Rzeszowska",
                "addr:housenumber": "114",
                "addr:city": "Dębica",
                "addr:postcode": "39-200",
                "amenity": "pharmacy",
                "dispensing": "yes"
            },
            "geometry": {
                "type": "Point",
                "coordinates": [
                    21.435960527285115,
                    50.05422565629113
                ]
            }
        },
        {
            "type": "Feature",
            "properties": {
                "ref:csioz": 1144900,
                "name": "Vita",
                "addr:street": "Szkolna",
                "addr:housenumber": "5",
                "addr:city": "Brzostek",
                "addr:postcode": "39-230",
                "amenity": "pharmacy",
                "dispensing": "yes"
            },
            "geometry": {
                "type": "Point",
                "coordinates": [
                    21.412401029064988,
                    49.879233938351106
                ]
            }
        },
        {
            "type": "Feature",
            "properties": {
                "ref:csioz": 1144866,
                "name": "Apteka W Rynku",
                "addr:street": "Rynek",
                "addr:housenumber": "29",
                "addr:city": "Dębica",
                "addr:postcode": "39-200",
                "amenity": "pharmacy",
                "dispensing": "yes"
            },
            "geometry": {
                "type": "Point",
                "coordinates": [
                    21.40883638608117,
                    50.05054953350236
                ]
            }
        },
        {
            "type": "Feature",
            "properties": {
                "ref:csioz": 1144890,
                "name": "\"Apteka \"\"Na Węgierskiej Ii\"\"\"",
                "addr:street": "11-go Listopada",
                "addr:housenumber": "4",
                "addr:city": "Brzostek",
                "addr:postcode": "39-230",
                "amenity": "pharmacy",
                "dispensing": "yes"
            },
            "geometry": {
                "type": "Point",
                "coordinates": [
                    21.40946694121213,
                    49.88032802466347
                ]
            }
        },
        {
            "type": "Feature",
            "properties": {
                "ref:csioz": 1144937,
                "name": "Galen",
                "addr:housenumber": "245F",
                "addr:postcode": "39-200",
                "amenity": "pharmacy",
                "addr:place": "Nagawczyna",
                "dispensing": "yes"
            },
            "geometry": {
                "type": "Point",
                "coordinates": [
                    21.452612629867886,
                    50.05618782868096
                ]
            }
        },
        {
            "type": "Feature",
            "properties": {
                "ref:csioz": 1164564,
                "name": "Apteka Farmacja 24",
                "addr:street": "Rzemieślnicza",
                "addr:housenumber": "2",
                "addr:city": "Dębica",
                "addr:postcode": "39-200",
                "amenity": "pharmacy",
                "dispensing": "yes"
            },
            "geometry": {
                "type": "Point",
                "coordinates": [
                    21.416583210346793,
                    50.049029925440855
                ]
            }
        },
        {
            "type": "Feature",
            "properties": {
                "ref:csioz": 1166348,
                "name": "Apteka Im. Jana Pawła Ii",
                "addr:street": "Mariana Nałęcza-Mysłowskiego",
                "addr:housenumber": "9",
                "addr:city": "Brzostek",
                "addr:postcode": "39-230",
                "amenity": "pharmacy",
                "dispensing": "yes"
            },
            "geometry": {
                "type": "Point",
                "coordinates": [
                    21.412480712341058,
                    49.881645347536875
                ]
            }
        },
        {
            "type": "Feature",
            "properties": {
                "ref:csioz": 1171733,
                "addr:housenumber": "516",
                "addr:postcode": "39-205",
                "amenity": "pharmacy",
                "addr:place": "Pustków",
                "dispensing": "yes"
            },
            "geometry": {
                "type": "Point",
                "coordinates": [
                    21.53865561080925,
                    50.136618632304796
                ]
            }
        },
        {
            "type": "Feature",
            "properties": {
                "ref:csioz": 1201956,
                "name": "Apteka Słoneczna",
                "addr:street": "Rynek",
                "addr:housenumber": "5",
                "addr:city": "Dębica",
                "addr:postcode": "39-200",
                "amenity": "pharmacy",
                "dispensing": "yes"
            },
            "geometry": {
                "type": "Point",
                "coordinates": [
                    21.410214676223863,
                    50.05136869199974
                ]
            }
        },
        {
            "type": "Feature",
            "properties": {
                "ref:csioz": 1144694,
                "name": "Rodzinna",
                "addr:street": "Czarnieckiego",
                "addr:housenumber": "4",
                "addr:city": "Dębica",
                "addr:postcode": "39-200",
                "amenity": "pharmacy",
                "dispensing": "yes"
            },
            "geometry": {
                "type": "Point",
                "coordinates": [
                    21.411027778850656,
                    50.04970315977561
                ]
            }
        },
        {
            "type": "Feature",
            "properties": {
                "ref:csioz": 1144708,
                "name": "Apteka Dbam O Zdrowie",
                "addr:street": "Głowackiego",
                "addr:housenumber": "19",
                "addr:city": "Dębica",
                "addr:postcode": "39-200",
                "amenity": "pharmacy",
                "dispensing": "yes"
            },
            "geometry": {
                "type": "Point",
                "coordinates": [
                    21.412417865756954,
                    50.05436012530853
                ]
            }
        },
        {
            "type": "Feature",
            "properties": {
                "ref:csioz": 1144719,
                "addr:street": "Kolejowa",
                "addr:housenumber": "9",
                "addr:city": "Dębica",
                "addr:postcode": "39-200",
                "amenity": "pharmacy",
                "dispensing": "yes"
            },
            "geometry": {
                "type": "Point",
                "coordinates": [
                    21.407460405504988,
                    50.0503837556317
                ]
            }
        },
        {
            "type": "Feature",
            "properties": {
                "ref:csioz": 1144743,
                "name": "Apteka Dbam O Zdrowie",
                "addr:street": "Krakowska",
                "addr:housenumber": "4",
                "addr:city": "Dębica",
                "addr:postcode": "39-200",
                "amenity": "pharmacy",
                "dispensing": "yes"
            },
            "geometry": {
                "type": "Point",
                "coordinates": [
                    21.4030412260394,
                    50.04668829956298
                ]
            }
        },
        {
            "type": "Feature",
            "properties": {
                "ref:csioz": 1144762,
                "addr:street": "Krakowska",
                "addr:housenumber": "88a",
                "addr:city": "Dębica",
                "addr:postcode": "39-200",
                "amenity": "pharmacy",
                "dispensing": "yes"
            },
            "geometry": {
                "type": "Point",
                "coordinates": [
                    21.40149900000736,
                    50.0446250000126
                ]
            }
        },
        {
            "type": "Feature",
            "properties": {
                "ref:csioz": 1144770,
                "name": "Apteka Słoneczna",
                "addr:street": "Krakowska",
                "addr:housenumber": "91",
                "addr:city": "Dębica",
                "addr:postcode": "39-200",
                "amenity": "pharmacy",
                "dispensing": "yes"
            },
            "geometry": {
                "type": "Point",
                "coordinates": [
                    21.393012922078285,
                    50.03907723357006
                ]
            }
        },
        {
            "type": "Feature",
            "properties": {
                "ref:csioz": 1144984,
                "addr:housenumber": "36B",
                "addr:postcode": "39-206",
                "amenity": "pharmacy",
                "addr:place": "Pustków-Osiedle",
                "dispensing": "yes"
            },
            "geometry": {
                "type": "Point",
                "coordinates": [
                    21.510143309497476,
                    50.11294084112718
                ]
            }
        },
        {
            "type": "Feature",
            "properties": {
                "ref:csioz": 1144735,
                "name": "Pod Gryfem",
                "addr:street": "Kolejowa",
                "addr:housenumber": "34",
                "addr:city": "Dębica",
                "addr:postcode": "39-200",
                "amenity": "pharmacy",
                "dispensing": "yes"
            },
            "geometry": {
                "type": "Point",
                "coordinates": [
                    21.407027377412955,
                    50.052170675635146
                ]
            }
        },
        {
            "type": "Feature",
            "properties": {
                "ref:csioz": 1144756,
                "name": "Centrum",
                "addr:street": "Krakowska",
                "addr:housenumber": "10",
                "addr:city": "Dębica",
                "addr:postcode": "39-200",
                "amenity": "pharmacy",
                "dispensing": "yes"
            },
            "geometry": {
                "type": "Point",
                "coordinates": [
                    21.40756506016268,
                    50.04948442904353
                ]
            }
        },
        {
            "type": "Feature",
            "properties": {
                "ref:csioz": 1193559,
                "name": "Niezapominajka Dla Całej Rodziny",
                "addr:street": "Kolejowa",
                "addr:housenumber": "44",
                "addr:city": "Dębica",
                "addr:postcode": "39-200",
                "amenity": "pharmacy",
                "dispensing": "yes"
            },
            "geometry": {
                "type": "Point",
                "coordinates": [
                    21.40616505202112,
                    50.0533995965442
                ]
            }
        },
        {
            "type": "Feature",
            "properties": {
                "ref:csioz": 1196725,
                "name": "Witaminka",
                "addr:housenumber": "147a",
                "addr:postcode": "39-204",
                "amenity": "pharmacy",
                "addr:place": "Żyraków",
                "dispensing": "yes"
            },
            "geometry": {
                "type": "Point",
                "coordinates": [
                    21.39279447752722,
                    50.08446181470299
                ]
            }
        },
        {
            "type": "Feature",
            "properties": {
                "ref:csioz": 1200665,
                "name": "Dr.Max",
                "addr:street": "Rzeszowska",
                "addr:housenumber": "116",
                "addr:city": "Dębica",
                "addr:postcode": "39-200",
                "amenity": "pharmacy",
                "dispensing": "yes"
            },
            "geometry": {
                "type": "Point",
                "coordinates": [
                    21.437063207323177,
                    50.05448415185655
                ]
            }
        },
        {
            "type": "Feature",
            "properties": {
                "ref:csioz": 1204127,
                "name": "Niezapominajka Dla Całej Rodziny",
                "addr:street": "Kolejowa",
                "addr:housenumber": "18",
                "addr:city": "Dębica",
                "addr:postcode": "39-200",
                "amenity": "pharmacy",
                "dispensing": "yes"
            },
            "geometry": {
                "type": "Point",
                "coordinates": [
                    21.407326795117505,
                    50.05067570542628
                ]
            }
        },
        {
            "type": "Feature",
            "properties": {
                "ref:csioz": 1213877,
                "name": "Alba",
                "addr:street": "Rzeszowska",
                "addr:housenumber": "131",
                "addr:city": "Dębica",
                "addr:postcode": "39-200",
                "amenity": "pharmacy",
                "dispensing": "yes"
            },
            "geometry": {
                "type": "Point",
                "coordinates": [
                    21.43121054691093,
                    50.05508483391922
                ]
            }
        },
        {
            "type": "Feature",
            "properties": {
                "ref:csioz": 1229657,
                "name": "Witaminka",
                "addr:housenumber": "108E",
                "addr:postcode": "39-203",
                "amenity": "pharmacy",
                "addr:place": "Bobrowa",
                "dispensing": "yes"
            },
            "geometry": {
                "type": "Point",
                "coordinates": [
                    21.435076663765567,
                    50.1199208719523
                ]
            }
        },
        {
            "type": "Feature",
            "properties": {
                "ref:csioz": 1144815,
                "name": "\"Apteka \"\"Arnika\"\"\"",
                "addr:street": "Piłsudskiego",
                "addr:housenumber": "16",
                "addr:city": "Dębica",
                "addr:postcode": "39-200",
                "amenity": "pharmacy",
                "dispensing": "yes"
            },
            "geometry": {
                "type": "Point",
                "coordinates": [
                    21.40260530896149,
                    50.05748261821971
                ]
            }
        },
        {
            "type": "Feature",
            "properties": {
                "ref:csioz": 1144797,
                "name": "\"Apteka \"\"Galeria Dębicka\"\"\"",
                "addr:street": "ks. Nosala",
                "addr:housenumber": "2",
                "addr:city": "Dębica",
                "addr:postcode": "39-200",
                "amenity": "pharmacy",
                "dispensing": "yes"
            },
            "geometry": {
                "type": "Point",
                "coordinates": [
                    21.411679788961944,
                    50.04617408093782
                ]
            }
        },
        {
            "type": "Feature",
            "properties": {
                "ref:csioz": 1144781,
                "name": "Millennium",
                "addr:street": "Krakowska",
                "addr:housenumber": "94e",
                "addr:city": "Dębica",
                "addr:postcode": "39-200",
                "amenity": "pharmacy",
                "dispensing": "yes"
            },
            "geometry": {
                "type": "Point",
                "coordinates": [
                    21.384969659585636,
                    50.03567234941166
                ]
            }
        },
        {
            "type": "Feature",
            "properties": {
                "ref:csioz": 1125492,
                "name": "Pod Jesionem",
                "addr:housenumber": "142B",
                "addr:postcode": "39-215",
                "amenity": "pharmacy",
                "addr:place": "Róża",
                "dispensing": "yes"
            },
            "geometry": {
                "type": "Point",
                "coordinates": [
                    21.312918042487787,
                    50.111319664284565
                ]
            }
        },
        {
            "type": "Feature",
            "properties": {
                "ref:csioz": 1125468,
                "name": "Dbam O Zdrowie",
                "addr:housenumber": "25B",
                "addr:postcode": "38-218",
                "amenity": "pharmacy",
                "addr:place": "Jodłowa",
                "dispensing": "yes"
            },
            "geometry": {
                "type": "Point",
                "coordinates": [
                    21.305026018687254,
                    49.877192234504264
                ]
            }
        },
        {
            "type": "Feature",
            "properties": {
                "ref:csioz": 1144913,
                "name": "Apteka Słoneczna",
                "addr:street": "Konarskiego",
                "addr:housenumber": "3",
                "addr:city": "Czarna",
                "addr:postcode": "39-215",
                "amenity": "pharmacy",
                "dispensing": "yes"
            },
            "geometry": {
                "type": "Point",
                "coordinates": [
                    21.24653893368404,
                    50.06252789948763
                ]
            }
        },
        {
            "type": "Feature",
            "properties": {
                "ref:csioz": 1144921,
                "name": "Apteka W Jodłowej",
                "addr:housenumber": "29",
                "addr:postcode": "39-225",
                "amenity": "pharmacy",
                "addr:place": "Jodłowa",
                "dispensing": "yes"
            },
            "geometry": {
                "type": "Point",
                "coordinates": [
                    21.30322993302776,
                    49.87618774627089
                ]
            }
        },
        {
            "type": "Feature",
            "properties": {
                "ref:csioz": 1165962,
                "name": "Witaminka I",
                "addr:street": "Dworcowa",
                "addr:housenumber": "8",
                "addr:city": "Czarna",
                "addr:postcode": "39-215",
                "amenity": "pharmacy",
                "dispensing": "yes"
            },
            "geometry": {
                "type": "Point",
                "coordinates": [
                    21.24886975058646,
                    50.061218670521626
                ]
            }
        },
        {
            "type": "Feature",
            "properties": {
                "ref:csioz": 1144945,
                "name": "Apteka Lubelska",
                "addr:street": "Legionów",
                "addr:housenumber": "28",
                "addr:city": "Pilzno",
                "addr:postcode": "39-220",
                "amenity": "pharmacy",
                "dispensing": "yes"
            },
            "geometry": {
                "type": "Point",
                "coordinates": [
                    21.285048000005848,
                    49.98194700001248
                ]
            }
        },
        {
            "type": "Feature",
            "properties": {
                "ref:csioz": 1144968,
                "addr:street": "Rynek",
                "addr:housenumber": "12",
                "addr:city": "Pilzno",
                "addr:postcode": "39-220",
                "amenity": "pharmacy",
                "dispensing": "yes"
            },
            "geometry": {
                "type": "Point",
                "coordinates": [
                    21.29184870665669,
                    49.97849673305231
                ]
            }
        },
        {
            "type": "Feature",
            "properties": {
                "ref:csioz": 1144976,
                "name": "\"Apteka \"\"Na Węgierskiej\"\"\"",
                "addr:street": "Węgierska",
                "addr:housenumber": "5",
                "addr:city": "Pilzno",
                "addr:postcode": "39-220",
                "amenity": "pharmacy",
                "dispensing": "yes"
            },
            "geometry": {
                "type": "Point",
                "coordinates": [
                    21.292314462164942,
                    49.97791543215082
                ]
            }
        },
        {
            "type": "Feature",
            "properties": {
                "ref:csioz": 1144959,
                "name": "\"Apteka \"\"Adonis\"\"\"",
                "addr:street": "Rynek",
                "addr:housenumber": "5",
                "addr:city": "Pilzno",
                "addr:postcode": "39-220",
                "amenity": "pharmacy",
                "dispensing": "yes"
            },
            "geometry": {
                "type": "Point",
                "coordinates": [
                    21.290784749140276,
                    49.9787841881636
                ]
            }
        },
        {
            "type": "Feature",
            "properties": {
                "ref:csioz": 1224804,
                "name": "Melilotus",
                "addr:housenumber": "186A",
                "addr:postcode": "39-216",
                "amenity": "pharmacy",
                "addr:place": "Róża",
                "dispensing": "yes"
            },
            "geometry": {
                "type": "Point",
                "coordinates": [
                    21.314286421915632,
                    50.11303182036105
                ]
            }
        },
        {
            "type": "Feature",
            "properties": {
                "ref:csioz": 1203362,
                "name": "Arnika",
                "addr:housenumber": "16",
                "addr:postcode": "39-225",
                "amenity": "pharmacy",
                "addr:place": "Jodłowa",
                "dispensing": "yes"
            },
            "geometry": {
                "type": "Point",
                "coordinates": [
                    21.30511150370527,
                    49.87745588126265
                ]
            }
        }
    ]
}