{
    "type": "FeatureCollection",
    "name": "JPT_KOD_JE_2604",
    "features": [
        {
            "type": "Feature",
            "properties": {
                "ref:csioz": 1000015,
                "addr:street": "Świętokrzyska",
                "addr:housenumber": "26",
                "addr:city": "Nowa Słupia",
                "addr:postcode": "26-006",
                "amenity": "pharmacy",
                "dispensing": "yes"
            },
            "geometry": {
                "type": "Point",
                "coordinates": [
                    21.087771811211812,
                    50.8627818941245
                ]
            }
        },
        {
            "type": "Feature",
            "properties": {
                "ref:csioz": 1000198,
                "addr:street": "Klasztorna",
                "addr:housenumber": "35",
                "addr:city": "Raków",
                "addr:postcode": "26-035",
                "amenity": "pharmacy",
                "dispensing": "yes"
            },
            "geometry": {
                "type": "Point",
                "coordinates": [
                    21.04923150362866,
                    50.67204479546068
                ]
            }
        },
        {
            "type": "Feature",
            "properties": {
                "ref:csioz": 1000217,
                "name": "Apteka Mgr Bober Apteki Polskie",
                "addr:street": "Przedborska",
                "addr:housenumber": "15",
                "addr:city": "Łopuszno",
                "addr:postcode": "26-070",
                "amenity": "pharmacy",
                "dispensing": "yes"
            },
            "geometry": {
                "type": "Point",
                "coordinates": [
                    20.249131262640937,
                    50.94872484307552
                ]
            }
        },
        {
            "type": "Feature",
            "properties": {
                "ref:csioz": 1000258,
                "name": "Apteka Codzienna",
                "addr:street": "Małogoska",
                "addr:housenumber": "2",
                "addr:city": "Chęciny",
                "addr:postcode": "26-060",
                "amenity": "pharmacy",
                "dispensing": "yes"
            },
            "geometry": {
                "type": "Point",
                "coordinates": [
                    20.46166894859048,
                    50.80048024350652
                ]
            }
        },
        {
            "type": "Feature",
            "properties": {
                "ref:csioz": 1000460,
                "addr:street": "Rynek Górny",
                "addr:housenumber": "7",
                "addr:city": "Bodzentyn",
                "addr:postcode": "26-010",
                "amenity": "pharmacy",
                "dispensing": "yes"
            },
            "geometry": {
                "type": "Point",
                "coordinates": [
                    20.954885333726764,
                    50.94086104597976
                ]
            }
        },
        {
            "type": "Feature",
            "properties": {
                "ref:csioz": 1001004,
                "addr:street": "Białe Zagłębie",
                "addr:housenumber": "51",
                "addr:city": "Nowiny",
                "addr:postcode": "26-052",
                "amenity": "pharmacy",
                "dispensing": "yes"
            },
            "geometry": {
                "type": "Point",
                "coordinates": [
                    20.528889000001076,
                    50.823569000013684
                ]
            }
        },
        {
            "type": "Feature",
            "properties": {
                "ref:csioz": 1001743,
                "name": "Apteka Codzienna",
                "addr:street": "1 Maja",
                "addr:housenumber": "5",
                "addr:city": "Chmielnik",
                "addr:postcode": "28-110",
                "amenity": "pharmacy",
                "dispensing": "yes"
            },
            "geometry": {
                "type": "Point",
                "coordinates": [
                    20.75031371228264,
                    50.61557074040816
                ]
            }
        },
        {
            "type": "Feature",
            "properties": {
                "ref:csioz": 1002178,
                "name": "Apteka Od Pokoleń Daleszyce",
                "addr:street": "Staszica",
                "addr:housenumber": "6",
                "addr:city": "Daleszyce",
                "addr:postcode": "26-021",
                "amenity": "pharmacy",
                "dispensing": "yes"
            },
            "geometry": {
                "type": "Point",
                "coordinates": [
                    20.80705444688392,
                    50.80149093267353
                ]
            }
        },
        {
            "type": "Feature",
            "properties": {
                "ref:csioz": 1002186,
                "addr:street": "Jana Pawła II",
                "addr:housenumber": "4",
                "addr:city": "Masłów Pierwszy",
                "addr:postcode": "26-001",
                "amenity": "pharmacy",
                "dispensing": "yes"
            },
            "geometry": {
                "type": "Point",
                "coordinates": [
                    20.727237086508907,
                    50.903745208131234
                ]
            }
        },
        {
            "type": "Feature",
            "properties": {
                "ref:csioz": 1002261,
                "name": "Vita",
                "addr:street": "Częstochowska",
                "addr:housenumber": "75",
                "addr:city": "PIEKOSZÓW",
                "addr:postcode": "26-065",
                "amenity": "pharmacy",
                "dispensing": "yes"
            },
            "geometry": {
                "type": "Point",
                "coordinates": [
                    20.463032247291967,
                    50.88278851777857
                ]
            }
        },
        {
            "type": "Feature",
            "properties": {
                "ref:csioz": 1002285,
                "name": "Trzy Wieże",
                "addr:street": "2 Czerwca",
                "addr:housenumber": "23",
                "addr:city": "Chęciny",
                "addr:postcode": "26-060",
                "amenity": "pharmacy",
                "dispensing": "yes"
            },
            "geometry": {
                "type": "Point",
                "coordinates": [
                    20.462268969597144,
                    50.80043431411132
                ]
            }
        },
        {
            "type": "Feature",
            "properties": {
                "ref:csioz": 1002445,
                "name": "Apteka Rodzinna W Bilczy",
                "addr:street": "Księdza Ściegiennego",
                "addr:housenumber": "7B",
                "addr:city": "Bilcza",
                "addr:postcode": "26-026",
                "amenity": "pharmacy",
                "dispensing": "yes"
            },
            "geometry": {
                "type": "Point",
                "coordinates": [
                    20.62301266004668,
                    50.77973343633429
                ]
            }
        },
        {
            "type": "Feature",
            "properties": {
                "ref:csioz": 1002476,
                "name": "Na Szkolnej",
                "addr:street": "Szkolna",
                "addr:housenumber": "1",
                "addr:city": "Strawczyn",
                "addr:postcode": "26-067",
                "amenity": "pharmacy",
                "dispensing": "yes"
            },
            "geometry": {
                "type": "Point",
                "coordinates": [
                    20.421050589117524,
                    50.94107271063945
                ]
            }
        },
        {
            "type": "Feature",
            "properties": {
                "ref:csioz": 1002669,
                "name": "Farmacja",
                "addr:street": "Spacerowa",
                "addr:housenumber": "8C",
                "addr:city": "Zagnańsk",
                "addr:postcode": "26-050",
                "amenity": "pharmacy",
                "dispensing": "yes"
            },
            "geometry": {
                "type": "Point",
                "coordinates": [
                    20.661022336306406,
                    50.97709719020763
                ]
            }
        },
        {
            "type": "Feature",
            "properties": {
                "ref:csioz": 1002819,
                "name": "Apteka Dbam O Zdrowie",
                "addr:street": "Świętokrzyska",
                "addr:housenumber": "18",
                "addr:city": "Bodzentyn",
                "addr:postcode": "26-010",
                "amenity": "pharmacy",
                "dispensing": "yes"
            },
            "geometry": {
                "type": "Point",
                "coordinates": [
                    20.958294720008723,
                    50.937771723859235
                ]
            }
        },
        {
            "type": "Feature",
            "properties": {
                "ref:csioz": 1003049,
                "name": "Apteka Świętokrzyska",
                "addr:street": "Świętokrzyska",
                "addr:housenumber": "45",
                "addr:city": "Nowa Słupia",
                "addr:postcode": "26-006",
                "amenity": "pharmacy",
                "dispensing": "yes"
            },
            "geometry": {
                "type": "Point",
                "coordinates": [
                    21.086285594910276,
                    50.86162959460029
                ]
            }
        },
        {
            "type": "Feature",
            "properties": {
                "ref:csioz": 1004711,
                "addr:housenumber": "12C",
                "addr:postcode": "26-006",
                "amenity": "pharmacy",
                "addr:place": "Serwis",
                "dispensing": "yes"
            },
            "geometry": {
                "type": "Point",
                "coordinates": [
                    21.087458864876005,
                    50.89001036526185
                ]
            }
        },
        {
            "type": "Feature",
            "properties": {
                "ref:csioz": 1003907,
                "name": "\"Apteka \"\"Zdrowie\"\"\"",
                "addr:street": "Rynek",
                "addr:housenumber": "2",
                "addr:city": "Łopuszno",
                "addr:postcode": "26-070",
                "amenity": "pharmacy",
                "dispensing": "yes"
            },
            "geometry": {
                "type": "Point",
                "coordinates": [
                    20.25090832208257,
                    50.94944199435476
                ]
            }
        },
        {
            "type": "Feature",
            "properties": {
                "ref:csioz": 1004032,
                "name": "Apteka Świętokrzyska",
                "addr:street": "Spółdzielcza",
                "addr:housenumber": "7",
                "addr:city": "Rudki",
                "addr:postcode": "26-006",
                "amenity": "pharmacy",
                "dispensing": "yes"
            },
            "geometry": {
                "type": "Point",
                "coordinates": [
                    21.091066908714676,
                    50.89236049292201
                ]
            }
        },
        {
            "type": "Feature",
            "properties": {
                "ref:csioz": 1004392,
                "name": "Apteka Medica",
                "addr:housenumber": "24",
                "addr:postcode": "26-050",
                "amenity": "pharmacy",
                "addr:place": "Samsonów",
                "dispensing": "yes"
            },
            "geometry": {
                "type": "Point",
                "coordinates": [
                    20.61756980660884,
                    50.99108235494203
                ]
            }
        },
        {
            "type": "Feature",
            "properties": {
                "ref:csioz": 1004572,
                "addr:street": "St. Staszica",
                "addr:housenumber": "6",
                "addr:city": "Ćmińsk",
                "addr:postcode": "26-085",
                "amenity": "pharmacy",
                "dispensing": "yes"
            },
            "geometry": {
                "type": "Point",
                "coordinates": [
                    20.53266884220114,
                    50.97991664348552
                ]
            }
        },
        {
            "type": "Feature",
            "properties": {
                "ref:csioz": 1004601,
                "name": "Natura",
                "addr:street": "Kielecka",
                "addr:housenumber": "1",
                "addr:city": "Morawica",
                "addr:postcode": "26-026",
                "amenity": "pharmacy",
                "dispensing": "yes"
            },
            "geometry": {
                "type": "Point",
                "coordinates": [
                    20.618053894896523,
                    50.74695708237554
                ]
            }
        },
        {
            "type": "Feature",
            "properties": {
                "ref:csioz": 1004722,
                "addr:housenumber": "34A",
                "addr:postcode": "26-001",
                "amenity": "pharmacy",
                "addr:place": "Wiśniówka",
                "dispensing": "yes"
            },
            "geometry": {
                "type": "Point",
                "coordinates": [
                    20.676098000001495,
                    50.93230200001384
                ]
            }
        },
        {
            "type": "Feature",
            "properties": {
                "ref:csioz": 1114634,
                "name": "Apteka Codzienna",
                "addr:housenumber": "279 A",
                "addr:postcode": "26-021",
                "amenity": "pharmacy",
                "addr:place": "Suków",
                "dispensing": "yes"
            },
            "geometry": {
                "type": "Point",
                "coordinates": [
                    20.688168281058413,
                    50.81285119009476
                ]
            }
        },
        {
            "type": "Feature",
            "properties": {
                "ref:csioz": 1122990,
                "name": "Dział Farmacji Szpitalnej",
                "addr:street": "Czarnowska",
                "addr:housenumber": "2A",
                "addr:city": "Piekoszów",
                "addr:postcode": "26-065",
                "amenity": "pharmacy",
                "dispensing": "yes"
            },
            "geometry": {
                "type": "Point",
                "coordinates": [
                    20.46891296493515,
                    50.881211058493555
                ]
            }
        },
        {
            "type": "Feature",
            "properties": {
                "ref:csioz": 1184399,
                "name": "Apteka Z Sercem",
                "addr:housenumber": "80",
                "addr:postcode": "26-008",
                "amenity": "pharmacy",
                "addr:place": "Górno",
                "dispensing": "yes"
            },
            "geometry": {
                "type": "Point",
                "coordinates": [
                    20.82289532034749,
                    50.84924876031399
                ]
            }
        },
        {
            "type": "Feature",
            "properties": {
                "ref:csioz": 1184883,
                "name": "Mandarynka",
                "addr:street": "Kielecka",
                "addr:housenumber": "18",
                "addr:city": "Chęciny",
                "addr:postcode": "26-060",
                "amenity": "pharmacy",
                "dispensing": "yes"
            },
            "geometry": {
                "type": "Point",
                "coordinates": [
                    20.469384432825162,
                    50.80068822267603
                ]
            }
        },
        {
            "type": "Feature",
            "properties": {
                "ref:csioz": 1194368,
                "name": "Apteka Blumed",
                "addr:street": "Rynek",
                "addr:housenumber": "51",
                "addr:city": "Łagów",
                "addr:postcode": "26-025",
                "amenity": "pharmacy",
                "dispensing": "yes"
            },
            "geometry": {
                "type": "Point",
                "coordinates": [
                    21.082647261530347,
                    50.774107602294485
                ]
            }
        },
        {
            "type": "Feature",
            "properties": {
                "ref:csioz": 1211799,
                "name": "Natura",
                "addr:street": "Kielecka",
                "addr:housenumber": "25",
                "addr:city": "Bilcza",
                "addr:postcode": "26-026",
                "amenity": "pharmacy",
                "dispensing": "yes"
            },
            "geometry": {
                "type": "Point",
                "coordinates": [
                    20.61962752903898,
                    50.78614404865035
                ]
            }
        },
        {
            "type": "Feature",
            "properties": {
                "ref:csioz": 1221020,
                "name": "Apteka Centrum Zdrowia",
                "addr:street": "Witosa",
                "addr:housenumber": "6 A",
                "addr:city": "Chmielnik",
                "addr:postcode": "26-020",
                "amenity": "pharmacy",
                "dispensing": "yes"
            },
            "geometry": {
                "type": "Point",
                "coordinates": [
                    20.7433674647405,
                    50.61373965879773
                ]
            }
        },
        {
            "type": "Feature",
            "properties": {
                "ref:csioz": 1000748,
                "addr:street": "Centralna",
                "addr:housenumber": "6",
                "addr:city": "MNIÓW",
                "addr:postcode": "26-080",
                "amenity": "pharmacy",
                "dispensing": "yes"
            },
            "geometry": {
                "type": "Point",
                "coordinates": [
                    20.48150503405336,
                    51.01103967161996
                ]
            }
        },
        {
            "type": "Feature",
            "properties": {
                "ref:csioz": 1001762,
                "name": "Apteka Nad Nidą",
                "addr:street": "Kielecka",
                "addr:housenumber": "36",
                "addr:city": "MORAWICA",
                "addr:postcode": "26-026",
                "amenity": "pharmacy",
                "dispensing": "yes"
            },
            "geometry": {
                "type": "Point",
                "coordinates": [
                    20.61776124565592,
                    50.75148257507665
                ]
            }
        },
        {
            "type": "Feature",
            "properties": {
                "ref:csioz": 1001770,
                "addr:street": "Partyzantów",
                "addr:housenumber": "12a",
                "addr:city": "Bieliny",
                "addr:postcode": "26-004",
                "amenity": "pharmacy",
                "dispensing": "yes"
            },
            "geometry": {
                "type": "Point",
                "coordinates": [
                    20.9397164661249,
                    50.84639886730717
                ]
            }
        },
        {
            "type": "Feature",
            "properties": {
                "ref:csioz": 1001959,
                "name": "Apteka Plus",
                "addr:street": "Czarnowska",
                "addr:housenumber": "79a",
                "addr:city": "Piekoszów",
                "addr:postcode": "26-065",
                "amenity": "pharmacy",
                "dispensing": "yes"
            },
            "geometry": {
                "type": "Point",
                "coordinates": [
                    20.488700844103178,
                    50.88096314217091
                ]
            }
        },
        {
            "type": "Feature",
            "properties": {
                "ref:csioz": 1002374,
                "name": "Apteka Z Sercem",
                "addr:street": "Kielecka",
                "addr:housenumber": "11",
                "addr:city": "CHMIELNIK",
                "addr:postcode": "26-020",
                "amenity": "pharmacy",
                "dispensing": "yes"
            },
            "geometry": {
                "type": "Point",
                "coordinates": [
                    20.748550986094692,
                    50.61909748036512
                ]
            }
        },
        {
            "type": "Feature",
            "properties": {
                "ref:csioz": 1002565,
                "name": "Doz Apteka. Dbam O Zdrowie",
                "addr:street": "Słupska",
                "addr:housenumber": "5A",
                "addr:city": "Łagów",
                "addr:postcode": "26-025",
                "amenity": "pharmacy",
                "dispensing": "yes"
            },
            "geometry": {
                "type": "Point",
                "coordinates": [
                    21.086214196577505,
                    50.77740278589531
                ]
            }
        },
        {
            "type": "Feature",
            "properties": {
                "ref:csioz": 1002777,
                "name": "Apteka Z Sercem",
                "addr:street": "Adama Mickiewicza",
                "addr:housenumber": "24",
                "addr:city": "Daleszyce",
                "addr:postcode": "26-021",
                "amenity": "pharmacy",
                "dispensing": "yes"
            },
            "geometry": {
                "type": "Point",
                "coordinates": [
                    20.805558310448266,
                    50.80291664318256
                ]
            }
        },
        {
            "type": "Feature",
            "properties": {
                "ref:csioz": 1002870,
                "name": "Doz Apteka. Dbam O Zdrowie",
                "addr:street": "Rynek",
                "addr:housenumber": "18",
                "addr:city": "Łagów",
                "addr:postcode": "26-025",
                "amenity": "pharmacy",
                "dispensing": "yes"
            },
            "geometry": {
                "type": "Point",
                "coordinates": [
                    21.084386510202766,
                    50.775126496947756
                ]
            }
        },
        {
            "type": "Feature",
            "properties": {
                "ref:csioz": 1003152,
                "name": "Apteka Mm",
                "addr:street": "Kielecka",
                "addr:housenumber": "14a",
                "addr:city": "Chmielnik",
                "addr:postcode": "26-020",
                "amenity": "pharmacy",
                "dispensing": "yes"
            },
            "geometry": {
                "type": "Point",
                "coordinates": [
                    20.749272552349115,
                    50.61849689324775
                ]
            }
        },
        {
            "type": "Feature",
            "properties": {
                "ref:csioz": 1003521,
                "name": "Apteka Z Sercem",
                "addr:street": "Szydłowska",
                "addr:housenumber": "1",
                "addr:city": "Chmielnik",
                "addr:postcode": "26-020",
                "amenity": "pharmacy",
                "dispensing": "yes"
            },
            "geometry": {
                "type": "Point",
                "coordinates": [
                    20.752426958847725,
                    50.61500357664145
                ]
            }
        },
        {
            "type": "Feature",
            "properties": {
                "ref:csioz": 1111964,
                "name": "Apteka Wolica",
                "addr:street": "Szkolna",
                "addr:housenumber": "37",
                "addr:city": "Wolica",
                "addr:postcode": "26-060",
                "amenity": "pharmacy",
                "dispensing": "yes"
            },
            "geometry": {
                "type": "Point",
                "coordinates": [
                    20.474846692471264,
                    50.75355464408867
                ]
            }
        },
        {
            "type": "Feature",
            "properties": {
                "ref:csioz": 1114753,
                "addr:street": "Szkolna",
                "addr:housenumber": "30",
                "addr:city": "Pierzchnica",
                "addr:postcode": "26-015",
                "amenity": "pharmacy",
                "dispensing": "yes"
            },
            "geometry": {
                "type": "Point",
                "coordinates": [
                    20.749479523372532,
                    50.69753788982732
                ]
            }
        },
        {
            "type": "Feature",
            "properties": {
                "ref:csioz": 1120389,
                "name": "Apteka Świętokrzyska",
                "addr:street": "Plac Wolności",
                "addr:housenumber": "21",
                "addr:city": "Raków",
                "addr:postcode": "26-035",
                "amenity": "pharmacy",
                "dispensing": "yes"
            },
            "geometry": {
                "type": "Point",
                "coordinates": [
                    21.042503211301568,
                    50.675550555374556
                ]
            }
        },
        {
            "type": "Feature",
            "properties": {
                "ref:csioz": 1137851,
                "name": "Apteka Szpitalna",
                "addr:street": "Czerwona Góra",
                "addr:housenumber": "10",
                "addr:city": "Chęciny",
                "addr:postcode": "26-060",
                "amenity": "pharmacy",
                "dispensing": "yes"
            },
            "geometry": {
                "type": "Point",
                "coordinates": [
                    20.48767184054613,
                    50.82252226643909
                ]
            }
        },
        {
            "type": "Feature",
            "properties": {
                "ref:csioz": 1137867,
                "name": "Apteka Szpitalna",
                "addr:street": "Kielecka",
                "addr:housenumber": "1",
                "addr:city": "Chmielnik",
                "addr:postcode": "26-020",
                "amenity": "pharmacy",
                "dispensing": "yes"
            },
            "geometry": {
                "type": "Point",
                "coordinates": [
                    20.748324363747074,
                    50.6180548020035
                ]
            }
        },
        {
            "type": "Feature",
            "properties": {
                "ref:csioz": 1137986,
                "name": "Apteka Szpitalna Bez Zgody",
                "addr:street": "Spacerowa",
                "addr:housenumber": "5",
                "addr:city": "Morawica",
                "addr:postcode": "26-026",
                "amenity": "pharmacy",
                "dispensing": "yes"
            },
            "geometry": {
                "type": "Point",
                "coordinates": [
                    20.623183351601185,
                    50.747690091189035
                ]
            }
        },
        {
            "type": "Feature",
            "properties": {
                "ref:csioz": 1171779,
                "addr:street": "Kielecka",
                "addr:housenumber": "164",
                "addr:city": "Bieliny",
                "addr:postcode": "26-004",
                "amenity": "pharmacy",
                "dispensing": "yes"
            },
            "geometry": {
                "type": "Point",
                "coordinates": [
                    20.93600607924592,
                    50.84929193320496
                ]
            }
        },
        {
            "type": "Feature",
            "properties": {
                "ref:csioz": 1184410,
                "name": "Dla Ciebie",
                "addr:street": "Chęcińska",
                "addr:housenumber": "176 A",
                "addr:city": "Brzeziny",
                "addr:postcode": "26-026",
                "amenity": "pharmacy",
                "dispensing": "yes"
            },
            "geometry": {
                "type": "Point",
                "coordinates": [
                    20.59478872247899,
                    50.76079075796466
                ]
            }
        },
        {
            "type": "Feature",
            "properties": {
                "ref:csioz": 1185791,
                "name": "Apteka Mgr Bober Apteki Polskie",
                "addr:street": "Żeromskiego",
                "addr:housenumber": "26A",
                "addr:city": "Strawczyn",
                "addr:postcode": "26-067",
                "amenity": "pharmacy",
                "dispensing": "yes"
            },
            "geometry": {
                "type": "Point",
                "coordinates": [
                    20.4200827414304,
                    50.94155686975043
                ]
            }
        },
        {
            "type": "Feature",
            "properties": {
                "ref:csioz": 1191073,
                "name": "Dla Ciebie",
                "addr:street": "Szkolna",
                "addr:housenumber": "11",
                "addr:city": "Mąchocice Kapitulne",
                "addr:postcode": "26-001",
                "amenity": "pharmacy",
                "dispensing": "yes"
            },
            "geometry": {
                "type": "Point",
                "coordinates": [
                    20.781211193451796,
                    50.88899093527906
                ]
            }
        },
        {
            "type": "Feature",
            "properties": {
                "ref:csioz": 1191853,
                "name": "Dział Farmacji Szpitalnej",
                "addr:housenumber": "54 B",
                "addr:postcode": "26-015",
                "amenity": "pharmacy",
                "addr:place": "Osiny",
                "dispensing": "yes"
            },
            "geometry": {
                "type": "Point",
                "coordinates": [
                    20.786445970382132,
                    50.69781666416963
                ]
            }
        },
        {
            "type": "Feature",
            "properties": {
                "ref:csioz": 1203752,
                "name": "Apteka Melisa",
                "addr:street": "Centralna",
                "addr:housenumber": "2",
                "addr:city": "Mniów",
                "addr:postcode": "26-080",
                "amenity": "pharmacy",
                "dispensing": "yes"
            },
            "geometry": {
                "type": "Point",
                "coordinates": [
                    20.481539030368133,
                    51.0129315216084
                ]
            }
        },
        {
            "type": "Feature",
            "properties": {
                "ref:csioz": 1209271,
                "name": "Apteka Lek",
                "addr:street": "Kielecka",
                "addr:housenumber": "32",
                "addr:city": "Morawica",
                "addr:postcode": "26-026",
                "amenity": "pharmacy",
                "dispensing": "yes"
            },
            "geometry": {
                "type": "Point",
                "coordinates": [
                    20.618103451637293,
                    50.74927795066196
                ]
            }
        },
        {
            "type": "Feature",
            "properties": {
                "ref:csioz": 1211133,
                "name": "Apteka Mgr Bober Apteki Polskie",
                "addr:street": "Strażacka",
                "addr:housenumber": "5A",
                "addr:city": "Łopuszno",
                "addr:postcode": "26-070",
                "amenity": "pharmacy",
                "dispensing": "yes"
            },
            "geometry": {
                "type": "Point",
                "coordinates": [
                    20.253098565675927,
                    50.946128572180015
                ]
            }
        },
        {
            "type": "Feature",
            "properties": {
                "ref:csioz": 1220643,
                "name": "Bluemed",
                "addr:street": "Żwirki",
                "addr:housenumber": "5",
                "addr:city": "Bodzentyn",
                "addr:postcode": "26-010",
                "amenity": "pharmacy",
                "dispensing": "yes"
            },
            "geometry": {
                "type": "Point",
                "coordinates": [
                    20.957536347888137,
                    50.94113063852299
                ]
            }
        },
        {
            "type": "Feature",
            "properties": {
                "ref:csioz": 1228963,
                "name": "\"Punkt Apteczny \"\"Dla Ciebie\"\"\"\"\"",
                "addr:housenumber": "104A",
                "addr:postcode": "26-004",
                "amenity": "pharmacy",
                "addr:place": "Makoszyn",
                "dispensing": "yes"
            },
            "geometry": {
                "type": "Point",
                "coordinates": [
                    20.963480606486886,
                    50.80694064769587
                ]
            }
        },
        {
            "type": "Feature",
            "properties": {
                "ref:csioz": 1174941,
                "name": "Na Dolnym Rynku",
                "addr:street": "Stefana Żeromskiego",
                "addr:housenumber": "3",
                "addr:city": "Chęciny",
                "addr:postcode": "26-060",
                "amenity": "pharmacy",
                "dispensing": "yes"
            },
            "geometry": {
                "type": "Point",
                "coordinates": [
                    20.46356544199417,
                    50.80171802471007
                ]
            }
        },
        {
            "type": "Feature",
            "properties": {
                "ref:csioz": 1230302,
                "name": "Apteka Centrum",
                "addr:street": "Stanisława Staszica",
                "addr:housenumber": "1",
                "addr:city": "Nowa Słupia",
                "addr:postcode": "26-006",
                "amenity": "pharmacy",
                "dispensing": "yes"
            },
            "geometry": {
                "type": "Point",
                "coordinates": [
                    21.090699686546074,
                    50.86452130568258
                ]
            }
        },
        {
            "type": "Feature",
            "properties": {
                "ref:csioz": 1176258,
                "name": "Apteczka",
                "addr:housenumber": "56A",
                "addr:postcode": "26-008",
                "amenity": "pharmacy",
                "addr:place": "Radlin",
                "dispensing": "yes"
            },
            "geometry": {
                "type": "Point",
                "coordinates": [
                    20.74873360629198,
                    50.86117221946002
                ]
            }
        }
    ]
}