{
    "type": "FeatureCollection",
    "name": "JPT_KOD_JE_1818",
    "features": [
        {
            "type": "Feature",
            "properties": {
                "ref:csioz": 1143760,
                "addr:street": "Szkolna",
                "addr:housenumber": "4",
                "addr:city": "Bojanów",
                "addr:postcode": "37-433",
                "amenity": "pharmacy",
                "dispensing": "yes"
            },
            "geometry": {
                "type": "Point",
                "coordinates": [
                    21.951328285411197,
                    50.422904940653574
                ]
            }
        },
        {
            "type": "Feature",
            "properties": {
                "ref:csioz": 1141700,
                "name": "Remedium",
                "addr:street": "Hutnicza",
                "addr:housenumber": "10",
                "addr:city": "Stalowa Wola",
                "addr:postcode": "37-450",
                "amenity": "pharmacy",
                "dispensing": "yes"
            },
            "geometry": {
                "type": "Point",
                "coordinates": [
                    22.054610063740647,
                    50.563112979035054
                ]
            }
        },
        {
            "type": "Feature",
            "properties": {
                "ref:csioz": 1141768,
                "name": "Sana",
                "addr:street": "Narutowicza",
                "addr:housenumber": "1",
                "addr:city": "Stalowa Wola",
                "addr:postcode": "37-450",
                "amenity": "pharmacy",
                "dispensing": "yes"
            },
            "geometry": {
                "type": "Point",
                "coordinates": [
                    22.069174844182204,
                    50.56605324432567
                ]
            }
        },
        {
            "type": "Feature",
            "properties": {
                "ref:csioz": 1141784,
                "name": "Rodzinna",
                "addr:street": "Ofiar Katynia",
                "addr:housenumber": "37",
                "addr:city": "Stalowa Wola",
                "addr:postcode": "37-450",
                "amenity": "pharmacy",
                "dispensing": "yes"
            },
            "geometry": {
                "type": "Point",
                "coordinates": [
                    22.048081702993464,
                    50.56530499913672
                ]
            }
        },
        {
            "type": "Feature",
            "properties": {
                "ref:csioz": 1141792,
                "name": "Apteka Premium-Lek",
                "addr:street": "Generała Leopolda Okulickiego",
                "addr:housenumber": "94",
                "addr:city": "Stalowa Wola",
                "addr:postcode": "37-450",
                "amenity": "pharmacy",
                "dispensing": "yes"
            },
            "geometry": {
                "type": "Point",
                "coordinates": [
                    22.0558175369126,
                    50.572648761453785
                ]
            }
        },
        {
            "type": "Feature",
            "properties": {
                "ref:csioz": 1141807,
                "name": "Apteka Gemini",
                "addr:street": "Generała Leopolda Okulickiego",
                "addr:housenumber": "16C",
                "addr:city": "Stalowa Wola",
                "addr:postcode": "37-450",
                "amenity": "pharmacy",
                "dispensing": "yes"
            },
            "geometry": {
                "type": "Point",
                "coordinates": [
                    22.0563541727223,
                    50.57181567932659
                ]
            }
        },
        {
            "type": "Feature",
            "properties": {
                "ref:csioz": 1141810,
                "name": "Panax W Przychodni",
                "addr:street": "Józefa Poniatowskiego",
                "addr:housenumber": "31",
                "addr:city": "Stalowa Wola",
                "addr:postcode": "37-450",
                "amenity": "pharmacy",
                "dispensing": "yes"
            },
            "geometry": {
                "type": "Point",
                "coordinates": [
                    22.066553537862923,
                    50.57331476762958
                ]
            }
        },
        {
            "type": "Feature",
            "properties": {
                "ref:csioz": 1141829,
                "name": "\"Apteka Cef@Rm 36,6\"",
                "addr:street": "Generała Leopolda Okulickiego",
                "addr:housenumber": "38",
                "addr:city": "Stalowa Wola",
                "addr:postcode": "37-450",
                "amenity": "pharmacy",
                "dispensing": "yes"
            },
            "geometry": {
                "type": "Point",
                "coordinates": [
                    22.058416076213977,
                    50.57305677340602
                ]
            }
        },
        {
            "type": "Feature",
            "properties": {
                "ref:csioz": 1143614,
                "name": "Apteka Panax",
                "addr:street": "Józefa Poniatowskiego",
                "addr:housenumber": "19G",
                "addr:city": "Stalowa Wola",
                "addr:postcode": "37-450",
                "amenity": "pharmacy",
                "dispensing": "yes"
            },
            "geometry": {
                "type": "Point",
                "coordinates": [
                    22.069045763461496,
                    50.5711523777409
                ]
            }
        },
        {
            "type": "Feature",
            "properties": {
                "ref:csioz": 1143638,
                "addr:street": "Józefa Poniatowskiego",
                "addr:housenumber": "21E",
                "addr:city": "Stalowa Wola",
                "addr:postcode": "37-450",
                "amenity": "pharmacy",
                "dispensing": "yes"
            },
            "geometry": {
                "type": "Point",
                "coordinates": [
                    22.06725871984953,
                    50.57197806415625
                ]
            }
        },
        {
            "type": "Feature",
            "properties": {
                "ref:csioz": 1143646,
                "addr:street": "Józefa Poniatowskiego",
                "addr:housenumber": "80",
                "addr:city": "Stalowa Wola",
                "addr:postcode": "37-450",
                "amenity": "pharmacy",
                "dispensing": "yes"
            },
            "geometry": {
                "type": "Point",
                "coordinates": [
                    22.06546329414323,
                    50.57726306690946
                ]
            }
        },
        {
            "type": "Feature",
            "properties": {
                "ref:csioz": 1143651,
                "name": "Apteka Premium-Lek",
                "addr:street": "ks. Jerzego Popiełuszki",
                "addr:housenumber": "5 B",
                "addr:city": "Stalowa Wola",
                "addr:postcode": "37-450",
                "amenity": "pharmacy",
                "dispensing": "yes"
            },
            "geometry": {
                "type": "Point",
                "coordinates": [
                    22.066023502494147,
                    50.568183135273834
                ]
            }
        },
        {
            "type": "Feature",
            "properties": {
                "ref:csioz": 1143705,
                "name": "Dbam O Zdrowie",
                "addr:street": "Staszica",
                "addr:housenumber": "4",
                "addr:city": "Stalowa Wola",
                "addr:postcode": "37-450",
                "amenity": "pharmacy",
                "dispensing": "yes"
            },
            "geometry": {
                "type": "Point",
                "coordinates": [
                    22.068824898981113,
                    50.563298190767156
                ]
            }
        },
        {
            "type": "Feature",
            "properties": {
                "ref:csioz": 1143718,
                "addr:street": "Staszica",
                "addr:housenumber": "9",
                "addr:city": "Stalowa Wola",
                "addr:postcode": "37-450",
                "amenity": "pharmacy",
                "dispensing": "yes"
            },
            "geometry": {
                "type": "Point",
                "coordinates": [
                    22.066401330358115,
                    50.56520358867821
                ]
            }
        },
        {
            "type": "Feature",
            "properties": {
                "ref:csioz": 1143783,
                "name": "Panax Pysznica",
                "addr:street": "Wolności",
                "addr:housenumber": "320B",
                "addr:city": "Pysznica",
                "addr:postcode": "37-403",
                "amenity": "pharmacy",
                "dispensing": "yes"
            },
            "geometry": {
                "type": "Point",
                "coordinates": [
                    22.130804737226537,
                    50.569923484400434
                ]
            }
        },
        {
            "type": "Feature",
            "properties": {
                "ref:csioz": 1143806,
                "addr:street": "Lubelska",
                "addr:housenumber": "13",
                "addr:city": "Radomyśl nad Sanem",
                "addr:postcode": "37-455",
                "amenity": "pharmacy",
                "dispensing": "yes"
            },
            "geometry": {
                "type": "Point",
                "coordinates": [
                    21.94613981402787,
                    50.680878812938275
                ]
            }
        },
        {
            "type": "Feature",
            "properties": {
                "ref:csioz": 1166159,
                "name": "Apteka Nova",
                "addr:street": "Mickiewicza",
                "addr:housenumber": "13",
                "addr:city": "Stalowa Wola",
                "addr:postcode": "37-450",
                "amenity": "pharmacy",
                "dispensing": "yes"
            },
            "geometry": {
                "type": "Point",
                "coordinates": [
                    22.067935483619756,
                    50.564074229919264
                ]
            }
        },
        {
            "type": "Feature",
            "properties": {
                "ref:csioz": 1166373,
                "name": "Centrum Farmaceutyczne Vita Pharma",
                "addr:street": "Marcelego Siedlanowskiego",
                "addr:housenumber": "3",
                "addr:city": "Stalowa Wola",
                "addr:postcode": "37-450",
                "amenity": "pharmacy",
                "dispensing": "yes"
            },
            "geometry": {
                "type": "Point",
                "coordinates": [
                    22.047808159874787,
                    50.567128161482316
                ]
            }
        },
        {
            "type": "Feature",
            "properties": {
                "ref:csioz": 1171580,
                "addr:street": "Wojska Polskiego",
                "addr:housenumber": "5",
                "addr:city": "Stalowa Wola",
                "addr:postcode": "37-450",
                "amenity": "pharmacy",
                "dispensing": "yes"
            },
            "geometry": {
                "type": "Point",
                "coordinates": [
                    22.055875595180375,
                    50.575563138636745
                ]
            }
        },
        {
            "type": "Feature",
            "properties": {
                "ref:csioz": 1171722,
                "addr:street": "Jarosława Dąbrowskiego",
                "addr:housenumber": "5",
                "addr:city": "Stalowa Wola",
                "addr:postcode": "37-464",
                "amenity": "pharmacy",
                "dispensing": "yes"
            },
            "geometry": {
                "type": "Point",
                "coordinates": [
                    22.044279000022208,
                    50.5898760000135
                ]
            }
        },
        {
            "type": "Feature",
            "properties": {
                "ref:csioz": 1181904,
                "name": "Punkt Apteczny Słoneczny",
                "addr:housenumber": "111",
                "addr:postcode": "37-455",
                "amenity": "pharmacy",
                "addr:place": "Antoniów",
                "dispensing": "yes"
            },
            "geometry": {
                "type": "Point",
                "coordinates": [
                    21.893977100363486,
                    50.733711763294124
                ]
            }
        },
        {
            "type": "Feature",
            "properties": {
                "ref:csioz": 1210147,
                "name": "Apteka Gemini",
                "addr:street": "Aleje Jana Pawła II",
                "addr:housenumber": "10",
                "addr:city": "Stalowa Wola",
                "addr:postcode": "37-450",
                "amenity": "pharmacy",
                "dispensing": "yes"
            },
            "geometry": {
                "type": "Point",
                "coordinates": [
                    22.064764122111544,
                    50.571575999468614
                ]
            }
        },
        {
            "type": "Feature",
            "properties": {
                "ref:csioz": 1223559,
                "name": "Dr.Max",
                "addr:street": "Przemysłowa",
                "addr:housenumber": "2B",
                "addr:city": "Stalowa Wola",
                "addr:postcode": "37-450",
                "amenity": "pharmacy",
                "dispensing": "yes"
            },
            "geometry": {
                "type": "Point",
                "coordinates": [
                    22.04335382308286,
                    50.57287956369165
                ]
            }
        },
        {
            "type": "Feature",
            "properties": {
                "ref:csioz": 1138338,
                "name": "Apteka Szpitalna",
                "addr:street": "Staszica",
                "addr:housenumber": "4",
                "addr:city": "Stalowa Wola",
                "addr:postcode": "37-450",
                "amenity": "pharmacy",
                "dispensing": "yes"
            },
            "geometry": {
                "type": "Point",
                "coordinates": [
                    22.068824898981113,
                    50.563268190767154
                ]
            }
        },
        {
            "type": "Feature",
            "properties": {
                "ref:csioz": 1141685,
                "name": "Nova",
                "addr:street": "Dąbrowskiego",
                "addr:housenumber": "4",
                "addr:city": "Stalowa Wola",
                "addr:postcode": "37-450",
                "amenity": "pharmacy",
                "dispensing": "yes"
            },
            "geometry": {
                "type": "Point",
                "coordinates": [
                    22.045626692862676,
                    50.589477921089504
                ]
            }
        },
        {
            "type": "Feature",
            "properties": {
                "ref:csioz": 1143739,
                "name": "Apteka Pomocna",
                "addr:street": "Wojska Polskiego",
                "addr:housenumber": "16a",
                "addr:city": "Stalowa Wola",
                "addr:postcode": "37-450",
                "amenity": "pharmacy",
                "dispensing": "yes"
            },
            "geometry": {
                "type": "Point",
                "coordinates": [
                    22.05707930957248,
                    50.5788918361502
                ]
            }
        },
        {
            "type": "Feature",
            "properties": {
                "ref:csioz": 1143747,
                "addr:street": "Wojska Polskiego",
                "addr:housenumber": "5",
                "addr:city": "Stalowa Wola",
                "addr:postcode": "37-450",
                "amenity": "pharmacy",
                "dispensing": "yes"
            },
            "geometry": {
                "type": "Point",
                "coordinates": [
                    22.055875595180375,
                    50.57553313863674
                ]
            }
        },
        {
            "type": "Feature",
            "properties": {
                "ref:csioz": 1143811,
                "addr:street": "Plac Sienkiewicza",
                "addr:housenumber": "38",
                "addr:city": "Zaklików",
                "addr:postcode": "37-470",
                "amenity": "pharmacy",
                "dispensing": "yes"
            },
            "geometry": {
                "type": "Point",
                "coordinates": [
                    22.101191475260045,
                    50.758617932490154
                ]
            }
        },
        {
            "type": "Feature",
            "properties": {
                "ref:csioz": 1143822,
                "name": "Arnica",
                "addr:street": "Zachodnia",
                "addr:housenumber": "21",
                "addr:city": "Zaklików",
                "addr:postcode": "37-470",
                "amenity": "pharmacy",
                "dispensing": "yes"
            },
            "geometry": {
                "type": "Point",
                "coordinates": [
                    22.100143303918653,
                    50.755840996182876
                ]
            }
        },
        {
            "type": "Feature",
            "properties": {
                "ref:csioz": 1143833,
                "addr:street": "Adama Mickiewicza",
                "addr:housenumber": "11",
                "addr:city": "Zaleszany",
                "addr:postcode": "37-415",
                "amenity": "pharmacy",
                "dispensing": "yes"
            },
            "geometry": {
                "type": "Point",
                "coordinates": [
                    21.8912965719138,
                    50.64775220800977
                ]
            }
        },
        {
            "type": "Feature",
            "properties": {
                "ref:csioz": 1143854,
                "addr:street": "Plac Kościuszki",
                "addr:housenumber": "5",
                "addr:city": "Zaleszany",
                "addr:postcode": "37-415",
                "amenity": "pharmacy",
                "dispensing": "yes"
            },
            "geometry": {
                "type": "Point",
                "coordinates": [
                    21.893730487758056,
                    50.649864756940055
                ]
            }
        },
        {
            "type": "Feature",
            "properties": {
                "ref:csioz": 1143865,
                "name": "Panax",
                "addr:housenumber": "223",
                "addr:postcode": "37-455",
                "amenity": "pharmacy",
                "addr:place": "Rzeczyca Długa",
                "dispensing": "yes"
            },
            "geometry": {
                "type": "Point",
                "coordinates": [
                    22.067823769231385,
                    50.63937830409547
                ]
            }
        },
        {
            "type": "Feature",
            "properties": {
                "ref:csioz": 1165369,
                "name": "Farmacja 24",
                "addr:street": "ks. Jerzego Popiełuszki",
                "addr:housenumber": "6",
                "addr:city": "Stalowa Wola",
                "addr:postcode": "37-464",
                "amenity": "pharmacy",
                "dispensing": "yes"
            },
            "geometry": {
                "type": "Point",
                "coordinates": [
                    22.064360910133868,
                    50.56860830615684
                ]
            }
        },
        {
            "type": "Feature",
            "properties": {
                "ref:csioz": 1166168,
                "name": "\"Apteka Panax 'Ken'\"",
                "addr:street": "Komisji Edukacji Narodowej",
                "addr:housenumber": "13",
                "addr:city": "Stalowa Wola",
                "addr:postcode": "37-450",
                "amenity": "pharmacy",
                "dispensing": "yes"
            },
            "geometry": {
                "type": "Point",
                "coordinates": [
                    22.05853552167854,
                    50.573453602846875
                ]
            }
        },
        {
            "type": "Feature",
            "properties": {
                "ref:csioz": 1172575,
                "name": "Apteka Słoneczna",
                "addr:street": "Aleje Jana Pawła II",
                "addr:housenumber": "2c",
                "addr:city": "Stalowa Wola",
                "addr:postcode": "37-450",
                "amenity": "pharmacy",
                "dispensing": "yes"
            },
            "geometry": {
                "type": "Point",
                "coordinates": [
                    22.06550547383112,
                    50.57003097073836
                ]
            }
        },
        {
            "type": "Feature",
            "properties": {
                "ref:csioz": 1181130,
                "name": "Antidotum",
                "addr:street": "Eugeniusza Kwiatkowskiego",
                "addr:housenumber": "1",
                "addr:city": "Stalowa Wola",
                "addr:postcode": "37-450",
                "amenity": "pharmacy",
                "dispensing": "yes"
            },
            "geometry": {
                "type": "Point",
                "coordinates": [
                    22.049381370524824,
                    50.556171491578866
                ]
            }
        },
        {
            "type": "Feature",
            "properties": {
                "ref:csioz": 1182332,
                "name": "Apteka Derma Panax",
                "addr:street": "Józefa Poniatowskiego",
                "addr:housenumber": "4",
                "addr:city": "Stalowa Wola",
                "addr:postcode": "37-450",
                "amenity": "pharmacy",
                "dispensing": "yes"
            },
            "geometry": {
                "type": "Point",
                "coordinates": [
                    22.074794918476748,
                    50.568325700190094
                ]
            }
        },
        {
            "type": "Feature",
            "properties": {
                "ref:csioz": 1193521,
                "name": "Apteka Nova",
                "addr:street": "gen. Leopolda Okulickiego",
                "addr:housenumber": "110",
                "addr:city": "Stalowa Wola",
                "addr:postcode": "37-450",
                "amenity": "pharmacy",
                "dispensing": "yes"
            },
            "geometry": {
                "type": "Point",
                "coordinates": [
                    22.055551757777607,
                    50.573002518263756
                ]
            }
        },
        {
            "type": "Feature",
            "properties": {
                "ref:csioz": 1194250,
                "name": "Samodzielny Publiczny Zakład Opieki Zdrowotnej",
                "addr:street": "Eugeniusza Kwiatkowskiego",
                "addr:housenumber": "2",
                "addr:city": "Stalowa Wola",
                "addr:postcode": "37-450",
                "amenity": "pharmacy",
                "dispensing": "yes"
            },
            "geometry": {
                "type": "Point",
                "coordinates": [
                    22.044066000022283,
                    50.55625400001345
                ]
            }
        },
        {
            "type": "Feature",
            "properties": {
                "ref:csioz": 1196701,
                "name": "Punkt Apteczny Słoneczny",
                "addr:street": "Sandomierska",
                "addr:housenumber": "3",
                "addr:city": "Lipa",
                "addr:postcode": "37-470",
                "amenity": "pharmacy",
                "dispensing": "yes"
            },
            "geometry": {
                "type": "Point",
                "coordinates": [
                    22.06698103321163,
                    50.69121851185317
                ]
            }
        },
        {
            "type": "Feature",
            "properties": {
                "ref:csioz": 1196717,
                "name": "Dr.Max",
                "addr:street": "Fryderyka Chopina",
                "addr:housenumber": "42",
                "addr:city": "Stalowa Wola",
                "addr:postcode": "37-450",
                "amenity": "pharmacy",
                "dispensing": "yes"
            },
            "geometry": {
                "type": "Point",
                "coordinates": [
                    22.06355050881052,
                    50.58557684160498
                ]
            }
        },
        {
            "type": "Feature",
            "properties": {
                "ref:csioz": 1200679,
                "name": "Moja Apteka",
                "addr:street": "Józefa Poniatowskiego",
                "addr:housenumber": "19J",
                "addr:city": "Stalowa Wola",
                "addr:postcode": "37-450",
                "amenity": "pharmacy",
                "dispensing": "yes"
            },
            "geometry": {
                "type": "Point",
                "coordinates": [
                    22.06804440546624,
                    50.571837842809025
                ]
            }
        },
        {
            "type": "Feature",
            "properties": {
                "ref:csioz": 1203747,
                "name": "Apteka Słoneczna",
                "addr:street": "Generała Leopolda Okulickiego",
                "addr:housenumber": "100",
                "addr:city": "Stalowa Wola",
                "addr:postcode": "34-450",
                "amenity": "pharmacy",
                "dispensing": "yes"
            },
            "geometry": {
                "type": "Point",
                "coordinates": [
                    22.05571089064348,
                    50.57276967406229
                ]
            }
        },
        {
            "type": "Feature",
            "properties": {
                "ref:csioz": 1212271,
                "name": "Apteka Słoneczna",
                "addr:street": "Zachodnia",
                "addr:housenumber": "13",
                "addr:city": "Zaklików",
                "addr:postcode": "37-470",
                "amenity": "pharmacy",
                "dispensing": "yes"
            },
            "geometry": {
                "type": "Point",
                "coordinates": [
                    22.101659882853387,
                    50.75580539442303
                ]
            }
        },
        {
            "type": "Feature",
            "properties": {
                "ref:csioz": 1223568,
                "name": "Dr.Max",
                "addr:street": "Komisji Edukacji Narodowej",
                "addr:housenumber": "47",
                "addr:city": "Stalowa Wola",
                "addr:postcode": "37-450",
                "amenity": "pharmacy",
                "dispensing": "yes"
            },
            "geometry": {
                "type": "Point",
                "coordinates": [
                    22.041854286775017,
                    50.56911400710257
                ]
            }
        },
        {
            "type": "Feature",
            "properties": {
                "ref:csioz": 1225016,
                "name": "Dział Farmacji Szpitalnej",
                "addr:street": "Dąbrowskiego",
                "addr:housenumber": "7",
                "addr:city": "Stalowa Wola",
                "addr:postcode": "37-464",
                "amenity": "pharmacy",
                "dispensing": "yes"
            },
            "geometry": {
                "type": "Point",
                "coordinates": [
                    22.043880982577942,
                    50.59023361417918
                ]
            }
        },
        {
            "type": "Feature",
            "properties": {
                "ref:csioz": 1229829,
                "name": "Moja Punkt Apteczny",
                "addr:street": "Magnoliowa",
                "addr:housenumber": "2",
                "addr:city": "Turbia",
                "addr:postcode": "37-416",
                "amenity": "pharmacy",
                "dispensing": "yes"
            },
            "geometry": {
                "type": "Point",
                "coordinates": [
                    21.990339626485927,
                    50.6200217963356
                ]
            }
        }
    ]
}