{
    "type": "FeatureCollection",
    "name": "JPT_KOD_JE_1863",
    "features": [
        {
            "type": "Feature",
            "properties": {
                "ref:csioz": 1146376,
                "name": "Doz Apteka. Dbam O Zdrowie. Słoneczna",
                "addr:street": "Hetmańska",
                "addr:housenumber": "23",
                "addr:city": "Rzeszów",
                "addr:postcode": "35-045",
                "amenity": "pharmacy",
                "dispensing": "yes"
            },
            "geometry": {
                "type": "Point",
                "coordinates": [
                    21.996692737996547,
                    50.02837160407033
                ]
            }
        },
        {
            "type": "Feature",
            "properties": {
                "ref:csioz": 1125374,
                "addr:street": "Ks. Jałowego",
                "addr:housenumber": "10",
                "addr:city": "Rzeszów",
                "addr:postcode": "35-010",
                "amenity": "pharmacy",
                "dispensing": "yes"
            },
            "geometry": {
                "type": "Point",
                "coordinates": [
                    21.99663659338231,
                    50.039955605991345
                ]
            }
        },
        {
            "type": "Feature",
            "properties": {
                "ref:csioz": 1136694,
                "addr:street": "Fredry",
                "addr:housenumber": "9",
                "addr:city": "Rzeszów",
                "addr:postcode": "35-005",
                "amenity": "pharmacy",
                "dispensing": "yes"
            },
            "geometry": {
                "type": "Point",
                "coordinates": [
                    22.01129227708333,
                    50.04141884679161
                ]
            }
        },
        {
            "type": "Feature",
            "properties": {
                "ref:csioz": 1136735,
                "name": "Ośrodek Chirurgii Oka Prof. Zagórskiego",
                "addr:street": "Moniuszki",
                "addr:housenumber": "8",
                "addr:city": "Rzeszów",
                "addr:postcode": "35-017",
                "amenity": "pharmacy",
                "dispensing": "yes"
            },
            "geometry": {
                "type": "Point",
                "coordinates": [
                    21.998871144531435,
                    50.038019950848415
                ]
            }
        },
        {
            "type": "Feature",
            "properties": {
                "ref:csioz": 1137742,
                "addr:street": "Lwowska",
                "addr:housenumber": "132",
                "addr:city": "Rzeszów",
                "addr:postcode": "35-301",
                "amenity": "pharmacy",
                "dispensing": "yes"
            },
            "geometry": {
                "type": "Point",
                "coordinates": [
                    22.063608408187044,
                    50.037684538942145
                ]
            }
        },
        {
            "type": "Feature",
            "properties": {
                "ref:csioz": 1146384,
                "name": "Apteka Słoneczna",
                "addr:street": "Hetmańska",
                "addr:housenumber": "23",
                "addr:city": "Rzeszów",
                "addr:postcode": "35-045",
                "amenity": "pharmacy",
                "dispensing": "yes"
            },
            "geometry": {
                "type": "Point",
                "coordinates": [
                    21.996692737996547,
                    50.02837160407033
                ]
            }
        },
        {
            "type": "Feature",
            "properties": {
                "ref:csioz": 1146431,
                "name": "Apteka Dla Ciebie",
                "addr:street": "Jana Kochanowskiego",
                "addr:housenumber": "15",
                "addr:city": "Rzeszów",
                "addr:postcode": "35-201",
                "amenity": "pharmacy",
                "dispensing": "yes"
            },
            "geometry": {
                "type": "Point",
                "coordinates": [
                    22.01232389514306,
                    50.04484904902475
                ]
            }
        },
        {
            "type": "Feature",
            "properties": {
                "ref:csioz": 1146444,
                "name": "Apteka Gemini",
                "addr:street": "Kolejowa",
                "addr:housenumber": "1",
                "addr:city": "Rzeszów",
                "addr:postcode": "35-073",
                "amenity": "pharmacy",
                "dispensing": "yes"
            },
            "geometry": {
                "type": "Point",
                "coordinates": [
                    22.007993508170177,
                    50.04065382918049
                ]
            }
        },
        {
            "type": "Feature",
            "properties": {
                "ref:csioz": 1146453,
                "name": "Super-Pharm",
                "addr:street": "mjr. Wacława Kopisto",
                "addr:housenumber": "1",
                "addr:city": "Rzeszów",
                "addr:postcode": "35-315",
                "amenity": "pharmacy",
                "dispensing": "yes"
            },
            "geometry": {
                "type": "Point",
                "coordinates": [
                    22.013432739216313,
                    50.02815082612643
                ]
            }
        },
        {
            "type": "Feature",
            "properties": {
                "ref:csioz": 1146477,
                "name": "Apteka Optima",
                "addr:street": "Krakowska",
                "addr:housenumber": "14",
                "addr:city": "Rzeszów",
                "addr:postcode": "35-111",
                "amenity": "pharmacy",
                "dispensing": "yes"
            },
            "geometry": {
                "type": "Point",
                "coordinates": [
                    21.984637246068047,
                    50.04502673550364
                ]
            }
        },
        {
            "type": "Feature",
            "properties": {
                "ref:csioz": 1146523,
                "name": "\"Apteka \"\"Panacea\"\"\"",
                "addr:street": "Eugeniusza Kwiatkowskiego",
                "addr:housenumber": "2A",
                "addr:city": "Rzeszów",
                "addr:postcode": "35-311",
                "amenity": "pharmacy",
                "dispensing": "yes"
            },
            "geometry": {
                "type": "Point",
                "coordinates": [
                    22.003587504719036,
                    50.01819046823446
                ]
            }
        },
        {
            "type": "Feature",
            "properties": {
                "ref:csioz": 1146489,
                "name": "Dbam O Zdrowie",
                "addr:street": "Krakowska",
                "addr:housenumber": "16",
                "addr:city": "Rzeszów",
                "addr:postcode": "35-111",
                "amenity": "pharmacy",
                "dispensing": "yes"
            },
            "geometry": {
                "type": "Point",
                "coordinates": [
                    21.981627536603032,
                    50.04650571527318
                ]
            }
        },
        {
            "type": "Feature",
            "properties": {
                "ref:csioz": 1146490,
                "name": "Apteka Arnika",
                "addr:street": "Krakowska",
                "addr:housenumber": "20",
                "addr:city": "Rzeszów",
                "addr:postcode": "35-111",
                "amenity": "pharmacy",
                "dispensing": "yes"
            },
            "geometry": {
                "type": "Point",
                "coordinates": [
                    21.97560586004131,
                    50.04879399129968
                ]
            }
        },
        {
            "type": "Feature",
            "properties": {
                "ref:csioz": 1146572,
                "name": "Lafarma",
                "addr:street": "Lwowska",
                "addr:housenumber": "60",
                "addr:city": "Rzeszów",
                "addr:postcode": "35-301",
                "amenity": "pharmacy",
                "dispensing": "yes"
            },
            "geometry": {
                "type": "Point",
                "coordinates": [
                    22.035534251409914,
                    50.036103670230005
                ]
            }
        },
        {
            "type": "Feature",
            "properties": {
                "ref:csioz": 1146658,
                "name": "Abira",
                "addr:street": "płk. Kazimierza Iranka-Osmeckiego",
                "addr:housenumber": "8B",
                "addr:city": "Rzeszów",
                "addr:postcode": "35-506",
                "amenity": "pharmacy",
                "dispensing": "yes"
            },
            "geometry": {
                "type": "Point",
                "coordinates": [
                    21.985884449832067,
                    50.05974727008632
                ]
            }
        },
        {
            "type": "Feature",
            "properties": {
                "ref:csioz": 1146706,
                "name": "Skaw-Mar",
                "addr:street": "Dworcowy",
                "addr:housenumber": "1",
                "addr:city": "Rzeszów",
                "addr:postcode": "35-201",
                "amenity": "pharmacy",
                "dispensing": "yes"
            },
            "geometry": {
                "type": "Point",
                "coordinates": [
                    22.007036262310507,
                    50.042700725705316
                ]
            }
        },
        {
            "type": "Feature",
            "properties": {
                "ref:csioz": 1146711,
                "name": "Dr.Max",
                "addr:street": "Dworcowy",
                "addr:housenumber": "2",
                "addr:city": "Rzeszów",
                "addr:postcode": "35-201",
                "amenity": "pharmacy",
                "dispensing": "yes"
            },
            "geometry": {
                "type": "Point",
                "coordinates": [
                    22.007559008810198,
                    50.04244851930218
                ]
            }
        },
        {
            "type": "Feature",
            "properties": {
                "ref:csioz": 1146630,
                "name": "Pod Gwiazdą",
                "addr:street": "Obrońców Poczty Gdańskiej",
                "addr:housenumber": "14",
                "addr:city": "Rzeszów",
                "addr:postcode": "35-509",
                "amenity": "pharmacy",
                "dispensing": "yes"
            },
            "geometry": {
                "type": "Point",
                "coordinates": [
                    21.978318622441712,
                    50.058853184028635
                ]
            }
        },
        {
            "type": "Feature",
            "properties": {
                "ref:csioz": 1146696,
                "name": "\"Apteka \"\"Pod Gwiazdą\"\"\"",
                "addr:street": "Józefa Piłsudskiego",
                "addr:housenumber": "34",
                "addr:city": "Rzeszów",
                "addr:postcode": "35-001",
                "amenity": "pharmacy",
                "dispensing": "yes"
            },
            "geometry": {
                "type": "Point",
                "coordinates": [
                    22.004029233270177,
                    50.04120686168456
                ]
            }
        },
        {
            "type": "Feature",
            "properties": {
                "ref:csioz": 1146625,
                "name": "Apteka Difarm",
                "addr:street": "Mieszka I",
                "addr:housenumber": "48",
                "addr:city": "Rzeszów",
                "addr:postcode": "35-308",
                "amenity": "pharmacy",
                "dispensing": "yes"
            },
            "geometry": {
                "type": "Point",
                "coordinates": [
                    22.02562500002286,
                    50.030683000012694
                ]
            }
        },
        {
            "type": "Feature",
            "properties": {
                "ref:csioz": 1146580,
                "name": "\"Apteka \"\"Na Zalesiu\"\"\"",
                "addr:street": "Ignacego Łukasiewicza",
                "addr:housenumber": "88",
                "addr:city": "Rzeszów",
                "addr:postcode": "35-604",
                "amenity": "pharmacy",
                "dispensing": "yes"
            },
            "geometry": {
                "type": "Point",
                "coordinates": [
                    22.029036000023048,
                    50.003728000012636
                ]
            }
        },
        {
            "type": "Feature",
            "properties": {
                "ref:csioz": 1146663,
                "name": "Pod Gwiazdą",
                "addr:street": "bp. Józefa Sebastiana Pelczara",
                "addr:housenumber": "6",
                "addr:city": "Rzeszów",
                "addr:postcode": "35-312",
                "amenity": "pharmacy",
                "dispensing": "yes"
            },
            "geometry": {
                "type": "Point",
                "coordinates": [
                    22.010565515845244,
                    50.02126152147363
                ]
            }
        },
        {
            "type": "Feature",
            "properties": {
                "ref:csioz": 1146798,
                "addr:street": "Tadeusza Rejtana",
                "addr:housenumber": "69",
                "addr:city": "Rzeszów",
                "addr:postcode": "35-326",
                "amenity": "pharmacy",
                "dispensing": "yes"
            },
            "geometry": {
                "type": "Point",
                "coordinates": [
                    22.019518996186353,
                    50.01924865714605
                ]
            }
        },
        {
            "type": "Feature",
            "properties": {
                "ref:csioz": 1146812,
                "name": "Apteka Dbam O Zdrowie",
                "addr:street": "Tadeusza Rejtana",
                "addr:housenumber": "65",
                "addr:city": "Rzeszów",
                "addr:postcode": "35-326",
                "amenity": "pharmacy",
                "dispensing": "yes"
            },
            "geometry": {
                "type": "Point",
                "coordinates": [
                    22.01909100002264,
                    50.01952300001269
                ]
            }
        },
        {
            "type": "Feature",
            "properties": {
                "ref:csioz": 1146926,
                "name": "Apteka Na Targowej",
                "addr:street": "Targowa",
                "addr:housenumber": "3",
                "addr:city": "Rzeszów",
                "addr:postcode": "35-064",
                "amenity": "pharmacy",
                "dispensing": "yes"
            },
            "geometry": {
                "type": "Point",
                "coordinates": [
                    22.009546135066863,
                    50.03707110600662
                ]
            }
        },
        {
            "type": "Feature",
            "properties": {
                "ref:csioz": 1146905,
                "name": "Apteka Dobra",
                "addr:street": "Szarych Szeregów",
                "addr:housenumber": "4",
                "addr:city": "Rzeszów",
                "addr:postcode": "35-111",
                "amenity": "pharmacy",
                "dispensing": "yes"
            },
            "geometry": {
                "type": "Point",
                "coordinates": [
                    21.978507262381108,
                    50.03502993873558
                ]
            }
        },
        {
            "type": "Feature",
            "properties": {
                "ref:csioz": 1146918,
                "name": "\"Apteka \"\"Pod Gwiazdą\"\"\"",
                "addr:street": "Fryderyka Szopena",
                "addr:housenumber": "2",
                "addr:city": "Rzeszów",
                "addr:postcode": "35-055",
                "amenity": "pharmacy",
                "dispensing": "yes"
            },
            "geometry": {
                "type": "Point",
                "coordinates": [
                    22.009307569494887,
                    50.03567729046524
                ]
            }
        },
        {
            "type": "Feature",
            "properties": {
                "ref:csioz": 1146848,
                "name": "Hibiskus",
                "addr:street": "Henryka Siemiradzkiego",
                "addr:housenumber": "6",
                "addr:city": "Rzeszów",
                "addr:postcode": "35-006",
                "amenity": "pharmacy",
                "dispensing": "yes"
            },
            "geometry": {
                "type": "Point",
                "coordinates": [
                    22.012206733521968,
                    50.04027579963405
                ]
            }
        },
        {
            "type": "Feature",
            "properties": {
                "ref:csioz": 1146885,
                "name": "Apteka Lafarma",
                "addr:street": "Ignacego Solarza",
                "addr:housenumber": "15A",
                "addr:city": "Rzeszów",
                "addr:postcode": "35-118",
                "amenity": "pharmacy",
                "dispensing": "yes"
            },
            "geometry": {
                "type": "Point",
                "coordinates": [
                    21.973523895917854,
                    50.04307127078408
                ]
            }
        },
        {
            "type": "Feature",
            "properties": {
                "ref:csioz": 1146787,
                "name": "Apteka Difarm",
                "addr:street": "Tadeusza Rejtana",
                "addr:housenumber": "51A",
                "addr:city": "Rzeszów",
                "addr:postcode": "35-326",
                "amenity": "pharmacy",
                "dispensing": "yes"
            },
            "geometry": {
                "type": "Point",
                "coordinates": [
                    22.01762553073065,
                    50.022085972541696
                ]
            }
        },
        {
            "type": "Feature",
            "properties": {
                "ref:csioz": 1146899,
                "name": "Osiedlowa",
                "addr:street": "Stefana Starzyńskiego",
                "addr:housenumber": "2",
                "addr:city": "Rzeszów",
                "addr:postcode": "35-508",
                "amenity": "pharmacy",
                "dispensing": "yes"
            },
            "geometry": {
                "type": "Point",
                "coordinates": [
                    21.979207261084884,
                    50.05875557965437
                ]
            }
        },
        {
            "type": "Feature",
            "properties": {
                "ref:csioz": 1147018,
                "name": "Apteka Pro-Familia",
                "addr:street": "Witolda",
                "addr:housenumber": "6B",
                "addr:city": "Rzeszów",
                "addr:postcode": "35-302",
                "amenity": "pharmacy",
                "dispensing": "yes"
            },
            "geometry": {
                "type": "Point",
                "coordinates": [
                    22.03965452866138,
                    50.03110127047745
                ]
            }
        },
        {
            "type": "Feature",
            "properties": {
                "ref:csioz": 1147052,
                "addr:street": "Zenitowa",
                "addr:housenumber": "2",
                "addr:city": "Rzeszów",
                "addr:postcode": "35-301",
                "amenity": "pharmacy",
                "dispensing": "yes"
            },
            "geometry": {
                "type": "Point",
                "coordinates": [
                    22.034740997662787,
                    50.03705735890118
                ]
            }
        },
        {
            "type": "Feature",
            "properties": {
                "ref:csioz": 1147060,
                "addr:street": "Zygmuntowska",
                "addr:housenumber": "10",
                "addr:city": "Rzeszów",
                "addr:postcode": "35-025",
                "amenity": "pharmacy",
                "dispensing": "yes"
            },
            "geometry": {
                "type": "Point",
                "coordinates": [
                    21.99888760297504,
                    50.03591666563219
                ]
            }
        },
        {
            "type": "Feature",
            "properties": {
                "ref:csioz": 1147026,
                "name": "Omega",
                "addr:street": "Wincentego Witosa",
                "addr:housenumber": "21",
                "addr:city": "Rzeszów",
                "addr:postcode": "35-115",
                "amenity": "pharmacy",
                "dispensing": "yes"
            },
            "geometry": {
                "type": "Point",
                "coordinates": [
                    21.976423926512997,
                    50.03873738402005
                ]
            }
        },
        {
            "type": "Feature",
            "properties": {
                "ref:csioz": 1147047,
                "name": "\"Apteka \"\"Gemma\"\"\"",
                "addr:street": "Wiktora Zbyszewskiego",
                "addr:housenumber": "15",
                "addr:city": "Rzeszów",
                "addr:postcode": "35-119",
                "amenity": "pharmacy",
                "dispensing": "yes"
            },
            "geometry": {
                "type": "Point",
                "coordinates": [
                    21.97273575114527,
                    50.04459575337506
                ]
            }
        },
        {
            "type": "Feature",
            "properties": {
                "ref:csioz": 1147094,
                "name": "Dr.Max",
                "addr:street": "prof. Ludwika Chmaja",
                "addr:housenumber": "6",
                "addr:city": "Rzeszów",
                "addr:postcode": "35-021",
                "amenity": "pharmacy",
                "dispensing": "yes"
            },
            "geometry": {
                "type": "Point",
                "coordinates": [
                    21.985414929120374,
                    50.02827755388842
                ]
            }
        },
        {
            "type": "Feature",
            "properties": {
                "ref:csioz": 1147204,
                "name": "Dr.Max",
                "addr:street": "Witkacego",
                "addr:housenumber": "7",
                "addr:city": "Rzeszów",
                "addr:postcode": "35-111",
                "amenity": "pharmacy",
                "dispensing": "yes"
            },
            "geometry": {
                "type": "Point",
                "coordinates": [
                    21.98037371879236,
                    50.03610395437867
                ]
            }
        },
        {
            "type": "Feature",
            "properties": {
                "ref:csioz": 1164593,
                "name": "Apteka Difarm",
                "addr:street": "Ignacego Łukasiewicza",
                "addr:housenumber": "31",
                "addr:city": "Rzeszów",
                "addr:postcode": "35-604",
                "amenity": "pharmacy",
                "dispensing": "yes"
            },
            "geometry": {
                "type": "Point",
                "coordinates": [
                    22.0219436548421,
                    50.00914297648261
                ]
            }
        },
        {
            "type": "Feature",
            "properties": {
                "ref:csioz": 1164736,
                "name": "Super-Pharm Apteka",
                "addr:street": "Józefa Piłsudskiego",
                "addr:housenumber": "44",
                "addr:city": "Rzeszów",
                "addr:postcode": "35-001",
                "amenity": "pharmacy",
                "dispensing": "yes"
            },
            "geometry": {
                "type": "Point",
                "coordinates": [
                    21.996348184189397,
                    50.042561079215
                ]
            }
        },
        {
            "type": "Feature",
            "properties": {
                "ref:csioz": 1164748,
                "name": "Apteka Lafarma",
                "addr:street": "Józefa Piłsudskiego",
                "addr:housenumber": "44",
                "addr:city": "Rzeszów",
                "addr:postcode": "35-001",
                "amenity": "pharmacy",
                "dispensing": "yes"
            },
            "geometry": {
                "type": "Point",
                "coordinates": [
                    21.996348184189397,
                    50.042561079215
                ]
            }
        },
        {
            "type": "Feature",
            "properties": {
                "ref:csioz": 1164757,
                "name": "Medicor",
                "addr:street": "Stanisława Jabłońskiego",
                "addr:housenumber": "2",
                "addr:city": "Rzeszów",
                "addr:postcode": "35-068",
                "amenity": "pharmacy",
                "dispensing": "yes"
            },
            "geometry": {
                "type": "Point",
                "coordinates": [
                    22.001988527564464,
                    50.042089673445176
                ]
            }
        },
        {
            "type": "Feature",
            "properties": {
                "ref:csioz": 1171453,
                "name": "Apteka Na Architektów",
                "addr:street": "Architektów",
                "addr:housenumber": "11",
                "addr:city": "Rzeszów",
                "addr:postcode": "35-082",
                "amenity": "pharmacy",
                "dispensing": "yes"
            },
            "geometry": {
                "type": "Point",
                "coordinates": [
                    21.972170963299128,
                    50.018472155566315
                ]
            }
        },
        {
            "type": "Feature",
            "properties": {
                "ref:csioz": 1181577,
                "name": "Doz Apteka. Dbam O Zdrowie. Elixir",
                "addr:street": "Powstańców Wielkopolskich",
                "addr:housenumber": "2",
                "addr:city": "Rzeszów",
                "addr:postcode": "35-611",
                "amenity": "pharmacy",
                "dispensing": "yes"
            },
            "geometry": {
                "type": "Point",
                "coordinates": [
                    22.044765000023602,
                    50.02672000001268
                ]
            }
        },
        {
            "type": "Feature",
            "properties": {
                "ref:csioz": 1202297,
                "name": "Ziko Apteka",
                "addr:street": "Grunwaldzka",
                "addr:housenumber": "17F",
                "addr:city": "Rzeszów",
                "addr:postcode": "35-068",
                "amenity": "pharmacy",
                "dispensing": "yes"
            },
            "geometry": {
                "type": "Point",
                "coordinates": [
                    22.00179000002195,
                    50.041067000012696
                ]
            }
        },
        {
            "type": "Feature",
            "properties": {
                "ref:csioz": 1210096,
                "name": "Apteka Słoneczna",
                "addr:street": "gen. Leopolda Okulickiego",
                "addr:housenumber": "6",
                "addr:city": "Rzeszów",
                "addr:postcode": "35-222",
                "amenity": "pharmacy",
                "dispensing": "yes"
            },
            "geometry": {
                "type": "Point",
                "coordinates": [
                    21.986104000021363,
                    50.047242000012695
                ]
            }
        },
        {
            "type": "Feature",
            "properties": {
                "ref:csioz": 1212793,
                "name": "Różana",
                "addr:street": "Aleksandra Fredry",
                "addr:housenumber": "20",
                "addr:city": "Rzeszów",
                "addr:postcode": "35-005",
                "amenity": "pharmacy",
                "dispensing": "yes"
            },
            "geometry": {
                "type": "Point",
                "coordinates": [
                    22.01121922790387,
                    50.04073460765754
                ]
            }
        },
        {
            "type": "Feature",
            "properties": {
                "ref:csioz": 1228588,
                "name": "Oko-Res",
                "addr:street": "Dominikańska",
                "addr:housenumber": "1A",
                "addr:city": "Rzeszów",
                "addr:postcode": "35-077",
                "amenity": "pharmacy",
                "dispensing": "yes"
            },
            "geometry": {
                "type": "Point",
                "coordinates": [
                    21.990236582578145,
                    50.02071408919919
                ]
            }
        },
        {
            "type": "Feature",
            "properties": {
                "ref:csioz": 1125220,
                "addr:street": "Poniatowskiego",
                "addr:housenumber": "4",
                "addr:city": "Rzeszów",
                "addr:postcode": "35-026",
                "amenity": "pharmacy",
                "dispensing": "yes"
            },
            "geometry": {
                "type": "Point",
                "coordinates": [
                    21.99666995591127,
                    50.03388078517255
                ]
            }
        },
        {
            "type": "Feature",
            "properties": {
                "ref:csioz": 1125248,
                "addr:street": "Anny Jagiellonki",
                "addr:housenumber": "17",
                "addr:city": "Rzeszów",
                "addr:postcode": "35-623",
                "amenity": "pharmacy",
                "dispensing": "yes"
            },
            "geometry": {
                "type": "Point",
                "coordinates": [
                    22.04239554909843,
                    50.03728069513806
                ]
            }
        },
        {
            "type": "Feature",
            "properties": {
                "ref:csioz": 1125273,
                "addr:street": "Podwisłocze",
                "addr:housenumber": "22 A",
                "addr:city": "Rzeszów",
                "addr:postcode": "35-326",
                "amenity": "pharmacy",
                "dispensing": "yes"
            },
            "geometry": {
                "type": "Point",
                "coordinates": [
                    22.00618940987638,
                    50.02463243396816
                ]
            }
        },
        {
            "type": "Feature",
            "properties": {
                "ref:csioz": 1136652,
                "addr:street": "Jana Pawła II",
                "addr:housenumber": "181",
                "addr:city": "Rzeszów",
                "addr:postcode": "35-317",
                "amenity": "pharmacy",
                "dispensing": "yes"
            },
            "geometry": {
                "type": "Point",
                "coordinates": [
                    21.992973243615932,
                    49.977804832662805
                ]
            }
        },
        {
            "type": "Feature",
            "properties": {
                "ref:csioz": 1136828,
                "addr:street": "Kopisto",
                "addr:housenumber": "2",
                "addr:city": "Rzeszów",
                "addr:postcode": "35-315",
                "amenity": "pharmacy",
                "dispensing": "yes"
            },
            "geometry": {
                "type": "Point",
                "coordinates": [
                    22.01258164033432,
                    50.028808429540355
                ]
            }
        },
        {
            "type": "Feature",
            "properties": {
                "ref:csioz": 1138179,
                "name": "Apteka Okręgowa",
                "addr:street": "Załęska",
                "addr:housenumber": "76",
                "addr:city": "Rzeszów",
                "addr:postcode": "35-322",
                "amenity": "pharmacy",
                "dispensing": "yes"
            },
            "geometry": {
                "type": "Point",
                "coordinates": [
                    22.039917110862998,
                    50.062546678108966
                ]
            }
        },
        {
            "type": "Feature",
            "properties": {
                "ref:csioz": 1138187,
                "name": "Apteka Szpitalna",
                "addr:street": "Krakowska",
                "addr:housenumber": "16",
                "addr:city": "Rzeszów",
                "addr:postcode": "35-11",
                "amenity": "pharmacy",
                "dispensing": "yes"
            },
            "geometry": {
                "type": "Point",
                "coordinates": [
                    21.981627536603032,
                    50.04650571527318
                ]
            }
        },
        {
            "type": "Feature",
            "properties": {
                "ref:csioz": 1138217,
                "name": "Apteka Szpitalna Szpitala Miejskiego Im. Jana Pawła Ii",
                "addr:street": "Rycerska",
                "addr:housenumber": "4",
                "addr:city": "Rzeszów",
                "addr:postcode": "35-241",
                "amenity": "pharmacy",
                "dispensing": "yes"
            },
            "geometry": {
                "type": "Point",
                "coordinates": [
                    22.00128689275564,
                    50.04776944737471
                ]
            }
        },
        {
            "type": "Feature",
            "properties": {
                "ref:csioz": 1138225,
                "name": "Apteka Szpitalna Klinicznego Szpitala Wojewódzkiego Nr 1 Im. Fryderyka Chopina W Rzeszowie",
                "addr:street": "Fryderyka Szopena",
                "addr:housenumber": "2",
                "addr:city": "Rzeszów",
                "addr:postcode": "35-055",
                "amenity": "pharmacy",
                "dispensing": "yes"
            },
            "geometry": {
                "type": "Point",
                "coordinates": [
                    22.009307569494887,
                    50.03567729046524
                ]
            }
        },
        {
            "type": "Feature",
            "properties": {
                "ref:csioz": 1138230,
                "name": "Apteka Szpitalna Klinicznego Szpitala Wojewódzkiego Nr 2 Im. Św. Jadwigi Królowej W Rzeszowie",
                "addr:street": "Lwowska",
                "addr:housenumber": "60",
                "addr:city": "Rzeszów",
                "addr:postcode": "35-301",
                "amenity": "pharmacy",
                "dispensing": "yes"
            },
            "geometry": {
                "type": "Point",
                "coordinates": [
                    22.035534251409914,
                    50.036103670230005
                ]
            }
        },
        {
            "type": "Feature",
            "properties": {
                "ref:csioz": 1138249,
                "name": "Apteka Szpitalna Podkarpackiego Centrum Chorób Płuc W Rzeszowie",
                "addr:street": "Rycerska",
                "addr:housenumber": "2",
                "addr:city": "Rzeszów",
                "addr:postcode": "35-241",
                "amenity": "pharmacy",
                "dispensing": "yes"
            },
            "geometry": {
                "type": "Point",
                "coordinates": [
                    22.003999400282737,
                    50.04724150486922
                ]
            }
        },
        {
            "type": "Feature",
            "properties": {
                "ref:csioz": 1146288,
                "name": "Hipokrates",
                "addr:street": "Adama Asnyka",
                "addr:housenumber": "2",
                "addr:city": "Rzeszów",
                "addr:postcode": "35-001",
                "amenity": "pharmacy",
                "dispensing": "yes"
            },
            "geometry": {
                "type": "Point",
                "coordinates": [
                    22.00456702783186,
                    50.04014025182558
                ]
            }
        },
        {
            "type": "Feature",
            "properties": {
                "ref:csioz": 1146291,
                "name": "Milenium",
                "addr:street": "Ofiar Katynia",
                "addr:housenumber": "6",
                "addr:city": "Rzeszów",
                "addr:postcode": "35-206",
                "amenity": "pharmacy",
                "dispensing": "yes"
            },
            "geometry": {
                "type": "Point",
                "coordinates": [
                    21.978597369296697,
                    50.05307863374062
                ]
            }
        },
        {
            "type": "Feature",
            "properties": {
                "ref:csioz": 1146313,
                "addr:street": "Jarosława Dąbrowskiego",
                "addr:housenumber": "33A",
                "addr:city": "Rzeszów",
                "addr:postcode": "35-036",
                "amenity": "pharmacy",
                "dispensing": "yes"
            },
            "geometry": {
                "type": "Point",
                "coordinates": [
                    21.99060200002157,
                    50.02587900001267
                ]
            }
        },
        {
            "type": "Feature",
            "properties": {
                "ref:csioz": 1146321,
                "name": "Medican",
                "addr:street": "Aleksandra Fredry",
                "addr:housenumber": "7",
                "addr:city": "Rzeszów",
                "addr:postcode": "35-005",
                "amenity": "pharmacy",
                "dispensing": "yes"
            },
            "geometry": {
                "type": "Point",
                "coordinates": [
                    22.010973313998477,
                    50.04104897927981
                ]
            }
        },
        {
            "type": "Feature",
            "properties": {
                "ref:csioz": 1146337,
                "name": "Astra",
                "addr:street": "Graniczna",
                "addr:housenumber": "1B",
                "addr:city": "Rzeszów",
                "addr:postcode": "35-326",
                "amenity": "pharmacy",
                "dispensing": "yes"
            },
            "geometry": {
                "type": "Point",
                "coordinates": [
                    22.00810814715835,
                    50.01573998476343
                ]
            }
        },
        {
            "type": "Feature",
            "properties": {
                "ref:csioz": 1146345,
                "name": "Pod Aniołem",
                "addr:street": "Graniczna",
                "addr:housenumber": "21a",
                "addr:city": "Rzeszów",
                "addr:postcode": "35-326",
                "amenity": "pharmacy",
                "dispensing": "yes"
            },
            "geometry": {
                "type": "Point",
                "coordinates": [
                    22.007015933889218,
                    50.015001972449255
                ]
            }
        },
        {
            "type": "Feature",
            "properties": {
                "ref:csioz": 1146538,
                "name": "Panacea",
                "addr:street": "gen. Mariana Langiewicza",
                "addr:housenumber": "4",
                "addr:city": "Rzeszów",
                "addr:postcode": "35-021",
                "amenity": "pharmacy",
                "dispensing": "yes"
            },
            "geometry": {
                "type": "Point",
                "coordinates": [
                    21.993462127663836,
                    50.033033773577394
                ]
            }
        },
        {
            "type": "Feature",
            "properties": {
                "ref:csioz": 1146546,
                "name": "Różana",
                "addr:street": "Leska",
                "addr:housenumber": "2",
                "addr:city": "Rzeszów",
                "addr:postcode": "35-505",
                "amenity": "pharmacy",
                "dispensing": "yes"
            },
            "geometry": {
                "type": "Point",
                "coordinates": [
                    21.955077279618983,
                    50.04457892719439
                ]
            }
        },
        {
            "type": "Feature",
            "properties": {
                "ref:csioz": 1146567,
                "name": "Pod Gwiazdą",
                "addr:street": "Lwowska",
                "addr:housenumber": "6",
                "addr:city": "Rzeszów",
                "addr:postcode": "35-301",
                "amenity": "pharmacy",
                "dispensing": "yes"
            },
            "geometry": {
                "type": "Point",
                "coordinates": [
                    22.02296370617678,
                    50.038055279193514
                ]
            }
        },
        {
            "type": "Feature",
            "properties": {
                "ref:csioz": 1146765,
                "name": "Apteka Twoje Leki",
                "addr:street": "Kazimierza Pułaskiego",
                "addr:housenumber": "1B",
                "addr:city": "Rzeszów",
                "addr:postcode": "35-011",
                "amenity": "pharmacy",
                "dispensing": "yes"
            },
            "geometry": {
                "type": "Point",
                "coordinates": [
                    21.996553141865192,
                    50.03693285579057
                ]
            }
        },
        {
            "type": "Feature",
            "properties": {
                "ref:csioz": 1146947,
                "name": "Apteka Lafarma",
                "addr:street": "Warzywna",
                "addr:housenumber": "3",
                "addr:city": "Rzeszów",
                "addr:postcode": "35-310",
                "amenity": "pharmacy",
                "dispensing": "yes"
            },
            "geometry": {
                "type": "Point",
                "coordinates": [
                    22.01401388635512,
                    50.03326026150309
                ]
            }
        },
        {
            "type": "Feature",
            "properties": {
                "ref:csioz": 1146960,
                "name": "Lafarma",
                "addr:street": "Warszawska",
                "addr:housenumber": "5",
                "addr:city": "Rzeszów",
                "addr:postcode": "35-205",
                "amenity": "pharmacy",
                "dispensing": "yes"
            },
            "geometry": {
                "type": "Point",
                "coordinates": [
                    21.998684000021818,
                    50.047698000012694
                ]
            }
        },
        {
            "type": "Feature",
            "properties": {
                "ref:csioz": 1146779,
                "name": "Pod Eskulapem",
                "addr:street": "Tadeusza Rejtana",
                "addr:housenumber": "49",
                "addr:city": "Rzeszów",
                "addr:postcode": "35-326",
                "amenity": "pharmacy",
                "dispensing": "yes"
            },
            "geometry": {
                "type": "Point",
                "coordinates": [
                    22.01743800002256,
                    50.024611000012676
                ]
            }
        },
        {
            "type": "Feature",
            "properties": {
                "ref:csioz": 1147193,
                "name": "\"'Dr.Max'\"",
                "addr:street": "Klementyny Hoffmanowej",
                "addr:housenumber": "8a",
                "addr:city": "Rzeszów",
                "addr:postcode": "35-016",
                "amenity": "pharmacy",
                "dispensing": "yes"
            },
            "geometry": {
                "type": "Point",
                "coordinates": [
                    21.99486000002171,
                    50.03407900001269
                ]
            }
        },
        {
            "type": "Feature",
            "properties": {
                "ref:csioz": 1147107,
                "name": "Dr.Max",
                "addr:street": "Jarosława Dąbrowskiego",
                "addr:housenumber": "60",
                "addr:city": "Rzeszów",
                "addr:postcode": "35-036",
                "amenity": "pharmacy",
                "dispensing": "yes"
            },
            "geometry": {
                "type": "Point",
                "coordinates": [
                    21.984959479184965,
                    50.0232083906013
                ]
            }
        },
        {
            "type": "Feature",
            "properties": {
                "ref:csioz": 1147155,
                "name": "Dr.Max",
                "addr:street": "Lubelska",
                "addr:housenumber": "6",
                "addr:city": "Rzeszów",
                "addr:postcode": "35-233",
                "amenity": "pharmacy",
                "dispensing": "yes"
            },
            "geometry": {
                "type": "Point",
                "coordinates": [
                    22.003099247226036,
                    50.05172727167842
                ]
            }
        },
        {
            "type": "Feature",
            "properties": {
                "ref:csioz": 1147186,
                "name": "Dr.Max",
                "addr:street": "Hetmańska",
                "addr:housenumber": "120",
                "addr:city": "Rzeszów",
                "addr:postcode": "35-310",
                "amenity": "pharmacy",
                "dispensing": "yes"
            },
            "geometry": {
                "type": "Point",
                "coordinates": [
                    21.99480347498164,
                    50.017250467318
                ]
            }
        },
        {
            "type": "Feature",
            "properties": {
                "ref:csioz": 1147110,
                "name": "Dr.Max",
                "addr:street": "3 Maja",
                "addr:housenumber": "16",
                "addr:city": "Rzeszów",
                "addr:postcode": "35-030",
                "amenity": "pharmacy",
                "dispensing": "yes"
            },
            "geometry": {
                "type": "Point",
                "coordinates": [
                    22.000899585712634,
                    50.03607809342945
                ]
            }
        },
        {
            "type": "Feature",
            "properties": {
                "ref:csioz": 1165287,
                "name": "Apteka Słoneczna",
                "addr:street": "Wolności",
                "addr:housenumber": "16",
                "addr:city": "Rzeszów",
                "addr:postcode": "35-073",
                "amenity": "pharmacy",
                "dispensing": "yes"
            },
            "geometry": {
                "type": "Point",
                "coordinates": [
                    22.00925462015108,
                    50.04000688278001
                ]
            }
        },
        {
            "type": "Feature",
            "properties": {
                "ref:csioz": 1182364,
                "name": "Niezapominajka Dla Całej Rodziny",
                "addr:street": "Tadeusza Rejtana",
                "addr:housenumber": "51",
                "addr:city": "Rzeszów",
                "addr:postcode": "35-326",
                "amenity": "pharmacy",
                "dispensing": "yes"
            },
            "geometry": {
                "type": "Point",
                "coordinates": [
                    22.01746224847109,
                    50.023087515078544
                ]
            }
        },
        {
            "type": "Feature",
            "properties": {
                "ref:csioz": 1182378,
                "name": "Apteka Pastylka",
                "addr:street": "Strażacka",
                "addr:housenumber": "27F",
                "addr:city": "Rzeszów",
                "addr:postcode": "35-304",
                "amenity": "pharmacy",
                "dispensing": "yes"
            },
            "geometry": {
                "type": "Point",
                "coordinates": [
                    22.01467085917294,
                    50.00227547006956
                ]
            }
        },
        {
            "type": "Feature",
            "properties": {
                "ref:csioz": 1185703,
                "name": "Rodzinna",
                "addr:street": "Jarosława Dąbrowskiego",
                "addr:housenumber": "25",
                "addr:city": "Rzeszów",
                "addr:postcode": "35-036",
                "amenity": "pharmacy",
                "dispensing": "yes"
            },
            "geometry": {
                "type": "Point",
                "coordinates": [
                    21.993291053842782,
                    50.02897674982504
                ]
            }
        },
        {
            "type": "Feature",
            "properties": {
                "ref:csioz": 1187876,
                "name": "Apteka Pomocna",
                "addr:street": "Lwowska",
                "addr:housenumber": "64",
                "addr:city": "Rzeszów",
                "addr:postcode": "35-301",
                "amenity": "pharmacy",
                "dispensing": "yes"
            },
            "geometry": {
                "type": "Point",
                "coordinates": [
                    22.03572087939935,
                    50.03741512555965
                ]
            }
        },
        {
            "type": "Feature",
            "properties": {
                "ref:csioz": 1192715,
                "name": "Apteka Przeworska",
                "addr:street": "Juliusza Słowackiego",
                "addr:housenumber": "11",
                "addr:city": "Rzeszów",
                "addr:postcode": "35-060",
                "amenity": "pharmacy",
                "dispensing": "yes"
            },
            "geometry": {
                "type": "Point",
                "coordinates": [
                    22.004603269669456,
                    50.03425555540832
                ]
            }
        },
        {
            "type": "Feature",
            "properties": {
                "ref:csioz": 1194119,
                "name": "Meniscus Nzoz",
                "addr:street": "Jana Pawła II",
                "addr:housenumber": "181",
                "addr:city": "Rzeszów",
                "addr:postcode": "35-317",
                "amenity": "pharmacy",
                "dispensing": "yes"
            },
            "geometry": {
                "type": "Point",
                "coordinates": [
                    21.992973243615932,
                    49.977804832662805
                ]
            }
        },
        {
            "type": "Feature",
            "properties": {
                "ref:csioz": 1194300,
                "name": "Samodzielny Publiczny Zakład Opieki Zdrowotnej Centrum Profilaktyki I Terapii Uzależnień W Rzeszowie",
                "addr:street": "Jana Kochanowskiego",
                "addr:housenumber": "17",
                "addr:city": "Rzeszów",
                "addr:postcode": "35-201",
                "amenity": "pharmacy",
                "dispensing": "yes"
            },
            "geometry": {
                "type": "Point",
                "coordinates": [
                    22.011528317021867,
                    50.04462167745815
                ]
            }
        },
        {
            "type": "Feature",
            "properties": {
                "ref:csioz": 1194567,
                "addr:street": "Kujawska",
                "addr:housenumber": "5",
                "addr:city": "Rzeszów",
                "addr:postcode": "35-323",
                "amenity": "pharmacy",
                "dispensing": "yes"
            },
            "geometry": {
                "type": "Point",
                "coordinates": [
                    22.039747398997658,
                    50.038773420016234
                ]
            }
        },
        {
            "type": "Feature",
            "properties": {
                "ref:csioz": 1194580,
                "name": "Rzeszowskie Centrum Medyczne Ewa Jakubiec-Blajer",
                "addr:street": "Jana Pawła II",
                "addr:housenumber": "181",
                "addr:city": "Rzeszów",
                "addr:postcode": "35-317",
                "amenity": "pharmacy",
                "dispensing": "yes"
            },
            "geometry": {
                "type": "Point",
                "coordinates": [
                    21.992973243615932,
                    49.977804832662805
                ]
            }
        },
        {
            "type": "Feature",
            "properties": {
                "ref:csioz": 1204889,
                "name": "Apteka Lafarma",
                "addr:street": "Hetmańska",
                "addr:housenumber": "21",
                "addr:city": "Rzeszów",
                "addr:postcode": "35-045",
                "amenity": "pharmacy",
                "dispensing": "yes"
            },
            "geometry": {
                "type": "Point",
                "coordinates": [
                    21.997285001187677,
                    50.02906970693659
                ]
            }
        },
        {
            "type": "Feature",
            "properties": {
                "ref:csioz": 1205201,
                "name": "Apteka Słoneczna",
                "addr:street": "Strzyżowska",
                "addr:housenumber": "42",
                "addr:city": "Rzeszów",
                "addr:postcode": "35-505",
                "amenity": "pharmacy",
                "dispensing": "yes"
            },
            "geometry": {
                "type": "Point",
                "coordinates": [
                    21.967067438334517,
                    50.04440585126646
                ]
            }
        },
        {
            "type": "Feature",
            "properties": {
                "ref:csioz": 1207946,
                "name": "Apteka Słoneczna",
                "addr:street": "Stefana Żeromskiego",
                "addr:housenumber": "10",
                "addr:city": "Rzeszów",
                "addr:postcode": "35-001",
                "amenity": "pharmacy",
                "dispensing": "yes"
            },
            "geometry": {
                "type": "Point",
                "coordinates": [
                    22.007730259914847,
                    50.04141929707239
                ]
            }
        },
        {
            "type": "Feature",
            "properties": {
                "ref:csioz": 1207669,
                "name": "Kolorowa Apteka",
                "addr:street": "Podchorążych",
                "addr:housenumber": "3",
                "addr:city": "Rzeszów",
                "addr:postcode": "35-216",
                "amenity": "pharmacy",
                "dispensing": "yes"
            },
            "geometry": {
                "type": "Point",
                "coordinates": [
                    22.000977658727418,
                    50.04591694933704
                ]
            }
        },
        {
            "type": "Feature",
            "properties": {
                "ref:csioz": 1208221,
                "name": "Apteka Słoneczna",
                "addr:street": "Jarosława Dąbrowskiego",
                "addr:housenumber": "31",
                "addr:city": "Rzeszów",
                "addr:postcode": "35-036",
                "amenity": "pharmacy",
                "dispensing": "yes"
            },
            "geometry": {
                "type": "Point",
                "coordinates": [
                    21.99182049634274,
                    50.02731518978053
                ]
            }
        },
        {
            "type": "Feature",
            "properties": {
                "ref:csioz": 1208774,
                "addr:street": "Kujawska",
                "addr:housenumber": "1",
                "addr:city": "Rzeszów",
                "addr:postcode": "35-323",
                "amenity": "pharmacy",
                "dispensing": "yes"
            },
            "geometry": {
                "type": "Point",
                "coordinates": [
                    22.039787481746842,
                    50.03820273858207
                ]
            }
        },
        {
            "type": "Feature",
            "properties": {
                "ref:csioz": 1209659,
                "name": "Apteka Szpitalna",
                "addr:street": "gen. Mariana  Langiewicza",
                "addr:housenumber": "61",
                "addr:city": "Rzeszów",
                "addr:postcode": "35-959",
                "amenity": "pharmacy",
                "dispensing": "yes"
            },
            "geometry": {
                "type": "Point",
                "coordinates": [
                    21.97815075019154,
                    50.030416454770716
                ]
            }
        },
        {
            "type": "Feature",
            "properties": {
                "ref:csioz": 1210473,
                "name": "Niezapominajka Dla Całej Rodziny",
                "addr:street": "Adama Mickiewicza",
                "addr:housenumber": "12",
                "addr:city": "Rzeszów",
                "addr:postcode": "35-064",
                "amenity": "pharmacy",
                "dispensing": "yes"
            },
            "geometry": {
                "type": "Point",
                "coordinates": [
                    22.00939262968932,
                    50.03752225245213
                ]
            }
        },
        {
            "type": "Feature",
            "properties": {
                "ref:csioz": 1216210,
                "name": "Różana",
                "addr:street": "Tadeusza Kościuszki",
                "addr:housenumber": "15",
                "addr:city": "Rzeszów",
                "addr:postcode": "35-030",
                "amenity": "pharmacy",
                "dispensing": "yes"
            },
            "geometry": {
                "type": "Point",
                "coordinates": [
                    22.00220849506257,
                    50.037472293757205
                ]
            }
        },
        {
            "type": "Feature",
            "properties": {
                "ref:csioz": 1216672,
                "name": "Apteka Słoneczna",
                "addr:street": "Ofiar Katynia",
                "addr:housenumber": "4",
                "addr:city": "Rzeszów",
                "addr:postcode": "35-209",
                "amenity": "pharmacy",
                "dispensing": "yes"
            },
            "geometry": {
                "type": "Point",
                "coordinates": [
                    21.978598814500437,
                    50.052537768751755
                ]
            }
        },
        {
            "type": "Feature",
            "properties": {
                "ref:csioz": 1220133,
                "addr:street": "Zenitowa",
                "addr:housenumber": "5",
                "addr:city": "Rzeszów",
                "addr:postcode": "35-301",
                "amenity": "pharmacy",
                "dispensing": "yes"
            },
            "geometry": {
                "type": "Point",
                "coordinates": [
                    22.036560497824173,
                    50.0371698774352
                ]
            }
        },
        {
            "type": "Feature",
            "properties": {
                "ref:csioz": 1220165,
                "name": "Nzoz Wenti-Med Spółka Cywilna",
                "addr:street": "Zenitowa",
                "addr:housenumber": "5",
                "addr:city": "Rzeszów",
                "addr:postcode": "35-301",
                "amenity": "pharmacy",
                "dispensing": "yes"
            },
            "geometry": {
                "type": "Point",
                "coordinates": [
                    22.036560497824173,
                    50.0371698774352
                ]
            }
        },
        {
            "type": "Feature",
            "properties": {
                "ref:csioz": 1222052,
                "name": "Apteka Słoneczna",
                "addr:street": "Tadeusza Rejtana",
                "addr:housenumber": "20A",
                "addr:city": "Rzeszów",
                "addr:postcode": "35-310",
                "amenity": "pharmacy",
                "dispensing": "yes"
            },
            "geometry": {
                "type": "Point",
                "coordinates": [
                    22.01607423264105,
                    50.02708669194458
                ]
            }
        },
        {
            "type": "Feature",
            "properties": {
                "ref:csioz": 1223584,
                "addr:street": "Podwisłocze",
                "addr:housenumber": "22a",
                "addr:city": "Rzeszów",
                "addr:postcode": "35-309",
                "amenity": "pharmacy",
                "dispensing": "yes"
            },
            "geometry": {
                "type": "Point",
                "coordinates": [
                    22.00618940987638,
                    50.02463243396816
                ]
            }
        },
        {
            "type": "Feature",
            "properties": {
                "ref:csioz": 1224787,
                "name": "Apteka Szpitalna",
                "addr:street": "Witolda",
                "addr:housenumber": "6B",
                "addr:city": "Rzeszów",
                "addr:postcode": "35-302",
                "amenity": "pharmacy",
                "dispensing": "yes"
            },
            "geometry": {
                "type": "Point",
                "coordinates": [
                    22.03965452866138,
                    50.03110127047745
                ]
            }
        },
        {
            "type": "Feature",
            "properties": {
                "ref:csioz": 1227475,
                "addr:street": "Wierzbowa",
                "addr:housenumber": "14",
                "addr:city": "Rzeszów",
                "addr:postcode": "35-310",
                "amenity": "pharmacy",
                "dispensing": "yes"
            },
            "geometry": {
                "type": "Point",
                "coordinates": [
                    22.01515135644107,
                    50.033454149249906
                ]
            }
        },
        {
            "type": "Feature",
            "properties": {
                "ref:csioz": 1230809,
                "addr:street": "Rejtana Tadeusza",
                "addr:housenumber": "53",
                "addr:city": "Rzeszów",
                "addr:postcode": "35-326",
                "amenity": "pharmacy",
                "dispensing": "yes"
            },
            "geometry": {
                "type": "Point",
                "coordinates": [
                    22.017575051812784,
                    50.02106811687134
                ]
            }
        },
        {
            "type": "Feature",
            "properties": {
                "ref:csioz": 1147132,
                "name": "Dr.Max",
                "addr:street": "Podchorążych",
                "addr:housenumber": "1",
                "addr:city": "Rzeszów",
                "addr:postcode": "35-216",
                "amenity": "pharmacy",
                "dispensing": "yes"
            },
            "geometry": {
                "type": "Point",
                "coordinates": [
                    22.001240238697317,
                    50.04528626419094
                ]
            }
        },
        {
            "type": "Feature",
            "properties": {
                "ref:csioz": 1147164,
                "name": "Dr.Max",
                "addr:street": "Ofiar Katynia",
                "addr:housenumber": "15",
                "addr:city": "Rzeszów",
                "addr:postcode": "35-209",
                "amenity": "pharmacy",
                "dispensing": "yes"
            },
            "geometry": {
                "type": "Point",
                "coordinates": [
                    21.977530277340797,
                    50.053112902291026
                ]
            }
        },
        {
            "type": "Feature",
            "properties": {
                "ref:csioz": 1147129,
                "name": "Dr.Max",
                "addr:street": "Podwisłocze",
                "addr:housenumber": "10",
                "addr:city": "Rzeszów",
                "addr:postcode": "35-410",
                "amenity": "pharmacy",
                "dispensing": "yes"
            },
            "geometry": {
                "type": "Point",
                "coordinates": [
                    22.004514907624017,
                    50.0217852557663
                ]
            }
        },
        {
            "type": "Feature",
            "properties": {
                "ref:csioz": 1147141,
                "name": "Dr.Max",
                "addr:street": "Wolności",
                "addr:housenumber": "17",
                "addr:city": "Rzeszów",
                "addr:postcode": "35-073",
                "amenity": "pharmacy",
                "dispensing": "yes"
            },
            "geometry": {
                "type": "Point",
                "coordinates": [
                    22.00922922075746,
                    50.03986198538358
                ]
            }
        },
        {
            "type": "Feature",
            "properties": {
                "ref:csioz": 1172070,
                "name": "Moja",
                "addr:street": "gen. Władysława Sikorskiego",
                "addr:housenumber": "433",
                "addr:city": "Rzeszów",
                "addr:postcode": "35-304",
                "amenity": "pharmacy",
                "dispensing": "yes"
            },
            "geometry": {
                "type": "Point",
                "coordinates": [
                    22.020732385483416,
                    49.981638317771626
                ]
            }
        },
        {
            "type": "Feature",
            "properties": {
                "ref:csioz": 1165254,
                "name": "Pharmax Rzeszów",
                "addr:street": "Rycerska",
                "addr:housenumber": "2",
                "addr:city": "Rzeszów",
                "addr:postcode": "35-241",
                "amenity": "pharmacy",
                "dispensing": "yes"
            },
            "geometry": {
                "type": "Point",
                "coordinates": [
                    22.003999400282737,
                    50.04724150486922
                ]
            }
        },
        {
            "type": "Feature",
            "properties": {
                "ref:csioz": 1146952,
                "name": "Pod Gwiazdą",
                "addr:street": "Warzywna",
                "addr:housenumber": "18",
                "addr:city": "Rzeszów",
                "addr:postcode": "35-310",
                "amenity": "pharmacy",
                "dispensing": "yes"
            },
            "geometry": {
                "type": "Point",
                "coordinates": [
                    22.01433390474955,
                    50.033194160927046
                ]
            }
        },
        {
            "type": "Feature",
            "properties": {
                "ref:csioz": 1146740,
                "name": "Pod Gwiazdą",
                "addr:street": "Podwisłocze",
                "addr:housenumber": "30",
                "addr:city": "Rzeszów",
                "addr:postcode": "35-309",
                "amenity": "pharmacy",
                "dispensing": "yes"
            },
            "geometry": {
                "type": "Point",
                "coordinates": [
                    22.007216773604117,
                    50.02611989707137
                ]
            }
        }
    ]
}