{
    "type": "FeatureCollection",
    "name": "JPT_KOD_JE_0618",
    "features": [
        {
            "type": "Feature",
            "properties": {
                "ref:csioz": 1153844,
                "addr:street": "Lubelska",
                "addr:housenumber": "53",
                "addr:city": "Tarnawatka",
                "addr:postcode": "22-604",
                "amenity": "pharmacy",
                "dispensing": "yes"
            },
            "geometry": {
                "type": "Point",
                "coordinates": [
                    23.39630125911485,
                    50.52943037545533
                ]
            }
        },
        {
            "type": "Feature",
            "properties": {
                "ref:csioz": 1153877,
                "addr:street": "Rynek",
                "addr:housenumber": "6",
                "addr:city": "Tomaszów Lubelski",
                "addr:postcode": "22-600",
                "amenity": "pharmacy",
                "dispensing": "yes"
            },
            "geometry": {
                "type": "Point",
                "coordinates": [
                    23.418154000150768,
                    50.453438000015886
                ]
            }
        },
        {
            "type": "Feature",
            "properties": {
                "ref:csioz": 1154014,
                "addr:street": "Wańkowicza",
                "addr:housenumber": "2",
                "addr:city": "Tomaszów Lubelski",
                "addr:postcode": "22-600",
                "amenity": "pharmacy",
                "dispensing": "yes"
            },
            "geometry": {
                "type": "Point",
                "coordinates": [
                    23.413369244642634,
                    50.43989936401734
                ]
            }
        },
        {
            "type": "Feature",
            "properties": {
                "ref:csioz": 1154038,
                "addr:street": "Lwowska",
                "addr:housenumber": "69",
                "addr:city": "Tomaszów Lubelski",
                "addr:postcode": "22-600",
                "amenity": "pharmacy",
                "dispensing": "yes"
            },
            "geometry": {
                "type": "Point",
                "coordinates": [
                    23.416952199781758,
                    50.44536590337551
                ]
            }
        },
        {
            "type": "Feature",
            "properties": {
                "ref:csioz": 1154051,
                "name": "Doz Apteka Dbam O Zdrowie",
                "addr:street": "Traugutta",
                "addr:housenumber": "5",
                "addr:city": "Tomaszów Lubelski",
                "addr:postcode": "22-600",
                "amenity": "pharmacy",
                "dispensing": "yes"
            },
            "geometry": {
                "type": "Point",
                "coordinates": [
                    23.41656600618014,
                    50.45183627974916
                ]
            }
        },
        {
            "type": "Feature",
            "properties": {
                "ref:csioz": 1154206,
                "addr:street": "Lwowska",
                "addr:housenumber": "56",
                "addr:city": "Tomaszów Lubelski",
                "addr:postcode": "22-600",
                "amenity": "pharmacy",
                "dispensing": "yes"
            },
            "geometry": {
                "type": "Point",
                "coordinates": [
                    23.41663250981503,
                    50.448723277904016
                ]
            }
        },
        {
            "type": "Feature",
            "properties": {
                "ref:csioz": 1154211,
                "addr:street": "3 Maja",
                "addr:housenumber": "16a",
                "addr:city": "Łaszczów",
                "addr:postcode": "22-650",
                "amenity": "pharmacy",
                "dispensing": "yes"
            },
            "geometry": {
                "type": "Point",
                "coordinates": [
                    23.726723000211642,
                    50.5323610000179
                ]
            }
        },
        {
            "type": "Feature",
            "properties": {
                "ref:csioz": 1154287,
                "addr:street": "Lwowska",
                "addr:housenumber": "85",
                "addr:city": "Tomaszów Lubelski",
                "addr:postcode": "22-600",
                "amenity": "pharmacy",
                "dispensing": "yes"
            },
            "geometry": {
                "type": "Point",
                "coordinates": [
                    23.41794937409488,
                    50.44283488488476
                ]
            }
        },
        {
            "type": "Feature",
            "properties": {
                "ref:csioz": 1154417,
                "addr:street": "Kościuszki",
                "addr:housenumber": "26",
                "addr:city": "Tomaszów Lubelski",
                "addr:postcode": "22-600",
                "amenity": "pharmacy",
                "dispensing": "yes"
            },
            "geometry": {
                "type": "Point",
                "coordinates": [
                    23.412623850810476,
                    50.45151311950766
                ]
            }
        },
        {
            "type": "Feature",
            "properties": {
                "ref:csioz": 1155148,
                "addr:street": "Tomaszowska",
                "addr:housenumber": "134",
                "addr:city": "Ulhówek",
                "addr:postcode": "22-678",
                "amenity": "pharmacy",
                "dispensing": "yes"
            },
            "geometry": {
                "type": "Point",
                "coordinates": [
                    23.774347749836593,
                    50.449151132601024
                ]
            }
        },
        {
            "type": "Feature",
            "properties": {
                "ref:csioz": 1155161,
                "addr:street": "Partyzantów",
                "addr:housenumber": "104",
                "addr:city": "Rachanie",
                "addr:postcode": "22-640",
                "amenity": "pharmacy",
                "dispensing": "yes"
            },
            "geometry": {
                "type": "Point",
                "coordinates": [
                    23.5384107108009,
                    50.53758253794153
                ]
            }
        },
        {
            "type": "Feature",
            "properties": {
                "ref:csioz": 1155394,
                "addr:street": "Kościuszki",
                "addr:housenumber": "21",
                "addr:city": "Tomaszów Lubelski",
                "addr:postcode": "22-600",
                "amenity": "pharmacy",
                "dispensing": "yes"
            },
            "geometry": {
                "type": "Point",
                "coordinates": [
                    23.41414350303494,
                    50.45090491197494
                ]
            }
        },
        {
            "type": "Feature",
            "properties": {
                "ref:csioz": 1174461,
                "name": "Vita Pharma Centrum Farmaceutyczne",
                "addr:street": "Janusza Petera",
                "addr:housenumber": "2 A",
                "addr:city": "Tomaszów Lubelski",
                "addr:postcode": "22-600",
                "amenity": "pharmacy",
                "dispensing": "yes"
            },
            "geometry": {
                "type": "Point",
                "coordinates": [
                    23.41779439070222,
                    50.44416298891655
                ]
            }
        },
        {
            "type": "Feature",
            "properties": {
                "ref:csioz": 1204815,
                "name": "Apteka Specjalistyczna Prima",
                "addr:street": "Henryka Sienkiewicza",
                "addr:housenumber": "12",
                "addr:city": "Tomaszów Lubelski",
                "addr:postcode": "22-600",
                "amenity": "pharmacy",
                "dispensing": "yes"
            },
            "geometry": {
                "type": "Point",
                "coordinates": [
                    23.41454076899646,
                    50.44131471833104
                ]
            }
        },
        {
            "type": "Feature",
            "properties": {
                "ref:csioz": 1223955,
                "name": "Punkt Apteczny Mgr Farm. Iwona Ferenc",
                "addr:housenumber": "21",
                "addr:postcode": "22-640",
                "amenity": "pharmacy",
                "addr:place": "Wożuczyn",
                "dispensing": "yes"
            },
            "geometry": {
                "type": "Point",
                "coordinates": [
                    23.571715994256387,
                    50.565211749560554
                ]
            }
        },
        {
            "type": "Feature",
            "properties": {
                "ref:csioz": 1106014,
                "addr:street": "Kościelna",
                "addr:housenumber": "34",
                "addr:city": "Tyszowce",
                "addr:postcode": "22-630",
                "amenity": "pharmacy",
                "dispensing": "yes"
            },
            "geometry": {
                "type": "Point",
                "coordinates": [
                    23.7042345476796,
                    50.612933964433665
                ]
            }
        },
        {
            "type": "Feature",
            "properties": {
                "ref:csioz": 1112845,
                "name": "Apteka Kresowa",
                "addr:street": "Józefa Piłsudskiego",
                "addr:housenumber": "2",
                "addr:city": "Tomaszów Lubelski",
                "addr:postcode": "22-600",
                "amenity": "pharmacy",
                "dispensing": "yes"
            },
            "geometry": {
                "type": "Point",
                "coordinates": [
                    23.418042644568363,
                    50.45375457670754
                ]
            }
        },
        {
            "type": "Feature",
            "properties": {
                "ref:csioz": 1115156,
                "addr:street": "Kościuszki",
                "addr:housenumber": "27A",
                "addr:city": "Tomaszów Lubelski",
                "addr:postcode": "22-600",
                "amenity": "pharmacy",
                "dispensing": "yes"
            },
            "geometry": {
                "type": "Point",
                "coordinates": [
                    23.41318280394588,
                    50.45113119048887
                ]
            }
        },
        {
            "type": "Feature",
            "properties": {
                "ref:csioz": 1154496,
                "addr:street": "Józefa Piłsudskiego",
                "addr:housenumber": "3",
                "addr:city": "Jarczów",
                "addr:postcode": "22-664",
                "amenity": "pharmacy",
                "dispensing": "yes"
            },
            "geometry": {
                "type": "Point",
                "coordinates": [
                    23.588069583468794,
                    50.423522169871056
                ]
            }
        },
        {
            "type": "Feature",
            "properties": {
                "ref:csioz": 1153921,
                "addr:street": "Lwowska",
                "addr:housenumber": "42",
                "addr:city": "Tomaszów Lubelski",
                "addr:postcode": "22-600",
                "amenity": "pharmacy",
                "dispensing": "yes"
            },
            "geometry": {
                "type": "Point",
                "coordinates": [
                    23.417761476290064,
                    50.450846765415854
                ]
            }
        },
        {
            "type": "Feature",
            "properties": {
                "ref:csioz": 1154153,
                "addr:street": "Piłsudskiego",
                "addr:housenumber": "2",
                "addr:city": "Tomaszów Lubelski",
                "addr:postcode": "22-600",
                "amenity": "pharmacy",
                "dispensing": "yes"
            },
            "geometry": {
                "type": "Point",
                "coordinates": [
                    23.418042644568363,
                    50.45375457670754
                ]
            }
        },
        {
            "type": "Feature",
            "properties": {
                "ref:csioz": 1154560,
                "addr:street": "Zamojska",
                "addr:housenumber": "1",
                "addr:city": "Lubycza Królewska",
                "addr:postcode": "22-680",
                "amenity": "pharmacy",
                "dispensing": "yes"
            },
            "geometry": {
                "type": "Point",
                "coordinates": [
                    23.5189500001724,
                    50.340819000016225
                ]
            }
        },
        {
            "type": "Feature",
            "properties": {
                "ref:csioz": 1154594,
                "addr:street": "Partyzantów",
                "addr:housenumber": "4",
                "addr:city": "Tyszowce",
                "addr:postcode": "22-630",
                "amenity": "pharmacy",
                "dispensing": "yes"
            },
            "geometry": {
                "type": "Point",
                "coordinates": [
                    23.697180838020472,
                    50.618064698345705
                ]
            }
        },
        {
            "type": "Feature",
            "properties": {
                "ref:csioz": 1154829,
                "name": "Apteka Mgr Farm. Iwona Ferenc",
                "addr:street": "Żwirki i Wigury",
                "addr:housenumber": "1",
                "addr:city": "Lubycza Królewska",
                "addr:postcode": "22-680",
                "amenity": "pharmacy",
                "dispensing": "yes"
            },
            "geometry": {
                "type": "Point",
                "coordinates": [
                    23.520068674224657,
                    50.34153666677521
                ]
            }
        },
        {
            "type": "Feature",
            "properties": {
                "ref:csioz": 1154841,
                "addr:housenumber": "84 D",
                "addr:postcode": "22-610",
                "amenity": "pharmacy",
                "addr:place": "Krynice",
                "dispensing": "yes"
            },
            "geometry": {
                "type": "Point",
                "coordinates": [
                    23.38082649622577,
                    50.58630810514893
                ]
            }
        },
        {
            "type": "Feature",
            "properties": {
                "ref:csioz": 1155054,
                "addr:street": "Lwowska",
                "addr:housenumber": "36 c",
                "addr:city": "Bełżec",
                "addr:postcode": "22-670",
                "amenity": "pharmacy",
                "dispensing": "yes"
            },
            "geometry": {
                "type": "Point",
                "coordinates": [
                    23.44679792139842,
                    50.37745494131556
                ]
            }
        },
        {
            "type": "Feature",
            "properties": {
                "ref:csioz": 1155221,
                "addr:street": "Lwowska",
                "addr:housenumber": "75",
                "addr:city": "Tomaszów Lubelski",
                "addr:postcode": "22-600",
                "amenity": "pharmacy",
                "dispensing": "yes"
            },
            "geometry": {
                "type": "Point",
                "coordinates": [
                    23.417309381665106,
                    50.44450924616654
                ]
            }
        },
        {
            "type": "Feature",
            "properties": {
                "ref:csioz": 1182191,
                "addr:street": "Chopina",
                "addr:housenumber": "1",
                "addr:city": "Łaszczów",
                "addr:postcode": "22-650",
                "amenity": "pharmacy",
                "dispensing": "yes"
            },
            "geometry": {
                "type": "Point",
                "coordinates": [
                    23.721641235971923,
                    50.53289216439593
                ]
            }
        },
        {
            "type": "Feature",
            "properties": {
                "ref:csioz": 1190044,
                "name": "Apteka Szpitalna",
                "addr:street": "Aleje Grunwaldzkie",
                "addr:housenumber": "1",
                "addr:city": "Tomaszów Lubelski",
                "addr:postcode": "22-600",
                "amenity": "pharmacy",
                "dispensing": "yes"
            },
            "geometry": {
                "type": "Point",
                "coordinates": [
                    23.41607373921562,
                    50.443138328610225
                ]
            }
        },
        {
            "type": "Feature",
            "properties": {
                "ref:csioz": 1190586,
                "name": "Apteka W Rynku",
                "addr:street": "Rynek",
                "addr:housenumber": "3",
                "addr:city": "Tomaszów Lubelski",
                "addr:postcode": "22-600",
                "amenity": "pharmacy",
                "dispensing": "yes"
            },
            "geometry": {
                "type": "Point",
                "coordinates": [
                    23.418376630455366,
                    50.452837951938605
                ]
            }
        },
        {
            "type": "Feature",
            "properties": {
                "ref:csioz": 1191175,
                "name": "Apteka Kresowa",
                "addr:street": "Jana Matejki",
                "addr:housenumber": "5",
                "addr:city": "Tomaszów Lubelski",
                "addr:postcode": "22-600",
                "amenity": "pharmacy",
                "dispensing": "yes"
            },
            "geometry": {
                "type": "Point",
                "coordinates": [
                    23.415256357735437,
                    50.44805073479438
                ]
            }
        },
        {
            "type": "Feature",
            "properties": {
                "ref:csioz": 1201080,
                "name": "Doz Apteka Dbam O Zdrowie",
                "addr:street": "Lwowska",
                "addr:housenumber": "116 B",
                "addr:city": "Tomaszów Lubelski",
                "addr:postcode": "22-600",
                "amenity": "pharmacy",
                "dispensing": "yes"
            },
            "geometry": {
                "type": "Point",
                "coordinates": [
                    23.418046420129844,
                    50.437556675929464
                ]
            }
        },
        {
            "type": "Feature",
            "properties": {
                "ref:csioz": 1202703,
                "name": "-",
                "addr:street": "Henryka Sienkiewicza",
                "addr:housenumber": "12",
                "addr:city": "Tomaszów Lubelski",
                "addr:postcode": "22-600",
                "amenity": "pharmacy",
                "dispensing": "yes"
            },
            "geometry": {
                "type": "Point",
                "coordinates": [
                    23.41454076899646,
                    50.44131471833104
                ]
            }
        },
        {
            "type": "Feature",
            "properties": {
                "ref:csioz": 1208157,
                "name": "Doz Apteka. Dbam O Zdrowie",
                "addr:street": "ul. Mickiewicza",
                "addr:housenumber": "6A",
                "addr:city": "Tomaszów Lubelski",
                "addr:postcode": "22-600",
                "amenity": "pharmacy",
                "dispensing": "yes"
            },
            "geometry": {
                "type": "Point",
                "coordinates": [
                    23.41510300015044,
                    50.44371500001585
                ]
            }
        },
        {
            "type": "Feature",
            "properties": {
                "ref:csioz": 1221877,
                "name": "Apteka Prima",
                "addr:street": "Czarnieckiego",
                "addr:housenumber": "18",
                "addr:city": "Tyszowce",
                "addr:postcode": "22-630",
                "amenity": "pharmacy",
                "dispensing": "yes"
            },
            "geometry": {
                "type": "Point",
                "coordinates": [
                    23.70180060497079,
                    50.61549761915307
                ]
            }
        },
        {
            "type": "Feature",
            "properties": {
                "ref:csioz": 1154240,
                "name": "Doz Apteka.Dbam O Zdrowie",
                "addr:street": "Partyzantów",
                "addr:housenumber": "2 A",
                "addr:city": "Susiec",
                "addr:postcode": "22-672",
                "amenity": "pharmacy",
                "dispensing": "yes"
            },
            "geometry": {
                "type": "Point",
                "coordinates": [
                    23.219173150402483,
                    50.41318336763706
                ]
            }
        },
        {
            "type": "Feature",
            "properties": {
                "ref:csioz": 1154700,
                "addr:street": "Tomaszowska",
                "addr:housenumber": "20",
                "addr:city": "Susiec",
                "addr:postcode": "22-672",
                "amenity": "pharmacy",
                "dispensing": "yes"
            },
            "geometry": {
                "type": "Point",
                "coordinates": [
                    23.22105193294954,
                    50.414255995978685
                ]
            }
        },
        {
            "type": "Feature",
            "properties": {
                "ref:csioz": 1191142,
                "name": "-",
                "addr:housenumber": "112A",
                "addr:postcode": "22-672",
                "amenity": "pharmacy",
                "addr:place": "Majdan Sopocki Pierwszy",
                "dispensing": "yes"
            },
            "geometry": {
                "type": "Point",
                "coordinates": [
                    23.17351900011214,
                    50.45834900001491
                ]
            }
        }
    ]
}