{
    "type": "FeatureCollection",
    "name": "JPT_KOD_JE_3210",
    "features": [
        {
            "type": "Feature",
            "properties": {
                "ref:csioz": 1140253,
                "name": "Remedium",
                "addr:street": "Gorzowska",
                "addr:housenumber": "4",
                "addr:city": "Barlinek",
                "addr:postcode": "74-320",
                "amenity": "pharmacy",
                "dispensing": "yes"
            },
            "geometry": {
                "type": "Point",
                "coordinates": [
                    15.211953651044626,
                    52.98897908579535
                ]
            }
        },
        {
            "type": "Feature",
            "properties": {
                "ref:csioz": 1167926,
                "name": "Apteka Leków Gotowych",
                "addr:street": "Bohaterów Września",
                "addr:housenumber": "27",
                "addr:city": "Dębno",
                "addr:postcode": "74-400",
                "amenity": "pharmacy",
                "dispensing": "yes"
            },
            "geometry": {
                "type": "Point",
                "coordinates": [
                    14.69758756349209,
                    52.737334253696076
                ]
            }
        },
        {
            "type": "Feature",
            "properties": {
                "ref:csioz": 1168354,
                "name": "Dbam O Zdrowie",
                "addr:street": "Szpitalna",
                "addr:housenumber": "11",
                "addr:city": "Barlinek",
                "addr:postcode": "74-320",
                "amenity": "pharmacy",
                "dispensing": "yes"
            },
            "geometry": {
                "type": "Point",
                "coordinates": [
                    15.22331200296207,
                    52.99734761005701
                ]
            }
        },
        {
            "type": "Feature",
            "properties": {
                "ref:csioz": 1185306,
                "name": "Prima",
                "addr:street": "Bohaterów Warszawy",
                "addr:housenumber": "32",
                "addr:city": "Myślibórz",
                "addr:postcode": "74-300",
                "amenity": "pharmacy",
                "dispensing": "yes"
            },
            "geometry": {
                "type": "Point",
                "coordinates": [
                    14.869948615057087,
                    52.92424582790087
                ]
            }
        },
        {
            "type": "Feature",
            "properties": {
                "ref:csioz": 1214721,
                "name": "Centrum Zdrowia",
                "addr:street": "Ratuszowa",
                "addr:housenumber": "14",
                "addr:city": "Myślibórz",
                "addr:postcode": "74-300",
                "amenity": "pharmacy",
                "dispensing": "yes"
            },
            "geometry": {
                "type": "Point",
                "coordinates": [
                    14.86534971459627,
                    52.92464542524486
                ]
            }
        },
        {
            "type": "Feature",
            "properties": {
                "ref:csioz": 1138927,
                "addr:street": "Szpitalna",
                "addr:housenumber": "10",
                "addr:city": "Barlinek",
                "addr:postcode": "74-320",
                "amenity": "pharmacy",
                "dispensing": "yes"
            },
            "geometry": {
                "type": "Point",
                "coordinates": [
                    15.224474393527608,
                    52.997812599363414
                ]
            }
        },
        {
            "type": "Feature",
            "properties": {
                "ref:csioz": 1138942,
                "addr:street": "Tadeusza Kościuszki",
                "addr:housenumber": "58",
                "addr:city": "Dębno",
                "addr:postcode": "74-400",
                "amenity": "pharmacy",
                "dispensing": "yes"
            },
            "geometry": {
                "type": "Point",
                "coordinates": [
                    14.702709261715095,
                    52.73192980423515
                ]
            }
        },
        {
            "type": "Feature",
            "properties": {
                "ref:csioz": 1151837,
                "name": "Dr.Max",
                "addr:street": "Niepodległości",
                "addr:housenumber": "17",
                "addr:city": "Barlinek",
                "addr:postcode": "74-320",
                "amenity": "pharmacy",
                "dispensing": "yes"
            },
            "geometry": {
                "type": "Point",
                "coordinates": [
                    15.217767843179557,
                    52.993252654011926
                ]
            }
        },
        {
            "type": "Feature",
            "properties": {
                "ref:csioz": 1152283,
                "name": "Apteka Centrum Zdrowia Na Słowackiego",
                "addr:street": "Juliusza Słowackiego",
                "addr:housenumber": "23",
                "addr:city": "Dębno",
                "addr:postcode": "74-400",
                "amenity": "pharmacy",
                "dispensing": "yes"
            },
            "geometry": {
                "type": "Point",
                "coordinates": [
                    14.700775931648396,
                    52.735776775693395
                ]
            }
        },
        {
            "type": "Feature",
            "properties": {
                "ref:csioz": 1166640,
                "name": "Apteka Centrum Zdrowia Centralna",
                "addr:street": "Armii Krajowej",
                "addr:housenumber": "13",
                "addr:city": "Dębno",
                "addr:postcode": "74-400",
                "amenity": "pharmacy",
                "dispensing": "yes"
            },
            "geometry": {
                "type": "Point",
                "coordinates": [
                    14.696830663376495,
                    52.73772445677259
                ]
            }
        },
        {
            "type": "Feature",
            "properties": {
                "ref:csioz": 1169057,
                "addr:street": "Ogrodowa",
                "addr:housenumber": "8",
                "addr:city": "Myślibórz",
                "addr:postcode": "74-300",
                "amenity": "pharmacy",
                "dispensing": "yes"
            },
            "geometry": {
                "type": "Point",
                "coordinates": [
                    14.871222313579322,
                    52.92666112750709
                ]
            }
        },
        {
            "type": "Feature",
            "properties": {
                "ref:csioz": 1169061,
                "name": "Pod Złotą Wagą",
                "addr:street": "Witolda Pileckiego",
                "addr:housenumber": "1B",
                "addr:city": "Myślibórz",
                "addr:postcode": "74-300",
                "amenity": "pharmacy",
                "dispensing": "yes"
            },
            "geometry": {
                "type": "Point",
                "coordinates": [
                    14.867194999927191,
                    52.92565500001872
                ]
            }
        },
        {
            "type": "Feature",
            "properties": {
                "ref:csioz": 1174559,
                "name": "Propolis",
                "addr:street": "Tadeusza Kościuszki",
                "addr:housenumber": "17",
                "addr:city": "Dębno",
                "addr:postcode": "74-400",
                "amenity": "pharmacy",
                "dispensing": "yes"
            },
            "geometry": {
                "type": "Point",
                "coordinates": [
                    14.702228314938433,
                    52.7361423784071
                ]
            }
        },
        {
            "type": "Feature",
            "properties": {
                "ref:csioz": 1219951,
                "name": "Centrum Zdrowia",
                "addr:street": "1 Maja",
                "addr:housenumber": "11",
                "addr:city": "Barlinek",
                "addr:postcode": "74-320",
                "amenity": "pharmacy",
                "dispensing": "yes"
            },
            "geometry": {
                "type": "Point",
                "coordinates": [
                    15.219610211680756,
                    52.996494776577535
                ]
            }
        },
        {
            "type": "Feature",
            "properties": {
                "ref:csioz": 1215535,
                "name": "Centrum Zdrowia",
                "addr:street": "Niepodległości",
                "addr:housenumber": "12",
                "addr:city": "Barlinek",
                "addr:postcode": "74-320",
                "amenity": "pharmacy",
                "dispensing": "yes"
            },
            "geometry": {
                "type": "Point",
                "coordinates": [
                    15.216857656334172,
                    52.992837044004695
                ]
            }
        },
        {
            "type": "Feature",
            "properties": {
                "ref:csioz": 1217373,
                "name": "Doz Apteka Dbam O Zdrowie",
                "addr:street": "Kombatantów",
                "addr:housenumber": "4",
                "addr:city": "Barlinek",
                "addr:postcode": "74-320",
                "amenity": "pharmacy",
                "dispensing": "yes"
            },
            "geometry": {
                "type": "Point",
                "coordinates": [
                    15.205893826887975,
                    53.00212137185363
                ]
            }
        },
        {
            "type": "Feature",
            "properties": {
                "ref:csioz": 1140266,
                "addr:street": "Słoneczna",
                "addr:housenumber": "27",
                "addr:city": "Boleszkowice",
                "addr:postcode": "74-407",
                "amenity": "pharmacy",
                "dispensing": "yes"
            },
            "geometry": {
                "type": "Point",
                "coordinates": [
                    14.570104151618713,
                    52.72752996780526
                ]
            }
        },
        {
            "type": "Feature",
            "properties": {
                "ref:csioz": 1167939,
                "name": "Pod Jemiołą",
                "addr:street": "Adama Mickiewicza",
                "addr:housenumber": "15",
                "addr:city": "Dębno",
                "addr:postcode": "74-400",
                "amenity": "pharmacy",
                "dispensing": "yes"
            },
            "geometry": {
                "type": "Point",
                "coordinates": [
                    14.700697006371504,
                    52.739566536104775
                ]
            }
        },
        {
            "type": "Feature",
            "properties": {
                "ref:csioz": 1168379,
                "name": "Centrum Zdrowia",
                "addr:street": "Konstytucji 3 Maja",
                "addr:housenumber": "1B",
                "addr:city": "Dębno",
                "addr:postcode": "74-400",
                "amenity": "pharmacy",
                "dispensing": "yes"
            },
            "geometry": {
                "type": "Point",
                "coordinates": [
                    14.696892075835825,
                    52.73875122231024
                ]
            }
        }
    ]
}