{
    "type": "FeatureCollection",
    "name": "JPT_KOD_JE_3023",
    "features": [
        {
            "type": "Feature",
            "properties": {
                "ref:csioz": 1048366,
                "name": "Radix",
                "addr:street": "RYNEK",
                "addr:housenumber": "26",
                "addr:city": "LĄDEK",
                "addr:postcode": "62-402",
                "amenity": "pharmacy",
                "dispensing": "yes"
            },
            "geometry": {
                "type": "Point",
                "coordinates": [
                    17.93033736169892,
                    52.20861388064318
                ]
            }
        },
        {
            "type": "Feature",
            "properties": {
                "ref:csioz": 1048621,
                "name": "Orchowska",
                "addr:street": "WYZWOLENIA",
                "addr:housenumber": "23",
                "addr:city": "ORCHOWO",
                "addr:postcode": "62-436",
                "amenity": "pharmacy",
                "dispensing": "yes"
            },
            "geometry": {
                "type": "Point",
                "coordinates": [
                    18.01600873322359,
                    52.506365708078235
                ]
            }
        },
        {
            "type": "Feature",
            "properties": {
                "ref:csioz": 1048462,
                "name": "Familijna",
                "addr:street": "PYZDERSKA",
                "addr:housenumber": "6A",
                "addr:city": "ZAGÓRÓW",
                "addr:postcode": "62-410",
                "amenity": "pharmacy",
                "dispensing": "yes"
            },
            "geometry": {
                "type": "Point",
                "coordinates": [
                    17.8937120678942,
                    52.16892491802496
                ]
            }
        },
        {
            "type": "Feature",
            "properties": {
                "ref:csioz": 1048729,
                "name": "Ars Farmaceutica",
                "addr:housenumber": "53",
                "addr:postcode": "62-410",
                "amenity": "pharmacy",
                "addr:place": "TRĄBCZYN",
                "dispensing": "yes"
            },
            "geometry": {
                "type": "Point",
                "coordinates": [
                    17.957178546614724,
                    52.141015630882855
                ]
            }
        },
        {
            "type": "Feature",
            "properties": {
                "ref:csioz": 1048315,
                "addr:street": "PARK POWSTAŃCÓW WLKP.",
                "addr:housenumber": "25A",
                "addr:city": "POWIDZ",
                "addr:postcode": "62-430",
                "amenity": "pharmacy",
                "dispensing": "yes"
            },
            "geometry": {
                "type": "Point",
                "coordinates": [
                    17.92127199999951,
                    52.41281600001612
                ]
            }
        },
        {
            "type": "Feature",
            "properties": {
                "ref:csioz": 1048548,
                "name": "Przy Kościele",
                "addr:street": "WARSZAWSKA",
                "addr:housenumber": "11",
                "addr:city": "SŁUPCA",
                "addr:postcode": "62-400",
                "amenity": "pharmacy",
                "dispensing": "yes"
            },
            "geometry": {
                "type": "Point",
                "coordinates": [
                    17.8732626596748,
                    52.28698412195799
                ]
            }
        },
        {
            "type": "Feature",
            "properties": {
                "ref:csioz": 1048965,
                "name": "Pod Złotą Wagą",
                "addr:street": "TRAUGUTTA",
                "addr:housenumber": "7D",
                "addr:city": "SŁUPCA",
                "addr:postcode": "62-400",
                "amenity": "pharmacy",
                "dispensing": "yes"
            },
            "geometry": {
                "type": "Point",
                "coordinates": [
                    17.874265046839085,
                    52.29258605507628
                ]
            }
        },
        {
            "type": "Feature",
            "properties": {
                "ref:csioz": 1048979,
                "name": "Pod Złotą Wagą",
                "addr:street": "MAŁY RYNEK",
                "addr:housenumber": "10",
                "addr:city": "ZAGÓRÓW",
                "addr:postcode": "62-410",
                "amenity": "pharmacy",
                "dispensing": "yes"
            },
            "geometry": {
                "type": "Point",
                "coordinates": [
                    17.898775709252522,
                    52.1684815921604
                ]
            }
        },
        {
            "type": "Feature",
            "properties": {
                "ref:csioz": 1049032,
                "name": "Pod Moździerzem",
                "addr:street": "TRAUGUTTA",
                "addr:housenumber": "16",
                "addr:city": "SŁUPCA",
                "addr:postcode": "62-400",
                "amenity": "pharmacy",
                "dispensing": "yes"
            },
            "geometry": {
                "type": "Point",
                "coordinates": [
                    17.875367328748535,
                    52.29242963721112
                ]
            }
        },
        {
            "type": "Feature",
            "properties": {
                "ref:csioz": 1049041,
                "name": "Pod Moździerzem",
                "addr:street": "WYZWOLENIA",
                "addr:housenumber": "11",
                "addr:city": "ORCHOWO",
                "addr:postcode": "62-436",
                "amenity": "pharmacy",
                "dispensing": "yes"
            },
            "geometry": {
                "type": "Point",
                "coordinates": [
                    18.016081568718327,
                    52.50729904228772
                ]
            }
        },
        {
            "type": "Feature",
            "properties": {
                "ref:csioz": 1049093,
                "name": "Św. Mikołaja",
                "addr:street": "PYZDERSKA",
                "addr:housenumber": "17",
                "addr:city": "LĄDEK",
                "addr:postcode": "62-406",
                "amenity": "pharmacy",
                "dispensing": "yes"
            },
            "geometry": {
                "type": "Point",
                "coordinates": [
                    17.926663286129525,
                    52.209314219909054
                ]
            }
        },
        {
            "type": "Feature",
            "properties": {
                "ref:csioz": 1049682,
                "name": "Pod Złotą Wagą",
                "addr:housenumber": "51",
                "addr:postcode": "62-400",
                "amenity": "pharmacy",
                "addr:place": "CIENIN ZABORNY",
                "dispensing": "yes"
            },
            "geometry": {
                "type": "Point",
                "coordinates": [
                    17.972331037532257,
                    52.27086647353345
                ]
            }
        },
        {
            "type": "Feature",
            "properties": {
                "ref:csioz": 1049696,
                "addr:street": "PARKOWA",
                "addr:housenumber": "4",
                "addr:city": "GIEWARTÓW",
                "addr:postcode": "62-403",
                "amenity": "pharmacy",
                "dispensing": "yes"
            },
            "geometry": {
                "type": "Point",
                "coordinates": [
                    17.950425664411338,
                    52.37580626168816
                ]
            }
        },
        {
            "type": "Feature",
            "properties": {
                "ref:csioz": 1120302,
                "name": "Pod Moździerzem",
                "addr:street": "Rotmistrza Witolda Pileckiego",
                "addr:housenumber": "20A",
                "addr:city": "SŁUPCA",
                "addr:postcode": "62-400",
                "amenity": "pharmacy",
                "dispensing": "yes"
            },
            "geometry": {
                "type": "Point",
                "coordinates": [
                    17.872558597035994,
                    52.29616200891913
                ]
            }
        },
        {
            "type": "Feature",
            "properties": {
                "ref:csioz": 1048424,
                "name": "Rodzinna",
                "addr:street": "WARSZAWSKA",
                "addr:housenumber": "16",
                "addr:city": "SŁUPCA",
                "addr:postcode": "62-400",
                "amenity": "pharmacy",
                "dispensing": "yes"
            },
            "geometry": {
                "type": "Point",
                "coordinates": [
                    17.87644346648798,
                    52.28633761148845
                ]
            }
        },
        {
            "type": "Feature",
            "properties": {
                "ref:csioz": 1049444,
                "name": "Heureka",
                "addr:street": "SIKORSKIEGO",
                "addr:housenumber": "1",
                "addr:city": "SŁUPCA",
                "addr:postcode": "62-400",
                "amenity": "pharmacy",
                "dispensing": "yes"
            },
            "geometry": {
                "type": "Point",
                "coordinates": [
                    17.874312280505325,
                    52.292876876822724
                ]
            }
        },
        {
            "type": "Feature",
            "properties": {
                "ref:csioz": 1049812,
                "addr:housenumber": "7",
                "addr:postcode": "62-400",
                "amenity": "pharmacy",
                "addr:place": "Słupca",
                "dispensing": "yes"
            },
            "geometry": {
                "type": "Point",
                "coordinates": [
                    17.869004820246793,
                    52.29884381081347
                ]
            }
        },
        {
            "type": "Feature",
            "properties": {
                "ref:csioz": 1187608,
                "name": "Bliska",
                "addr:street": "Rotmistrza Witolda Pileckiego",
                "addr:housenumber": "11",
                "addr:city": "Słupca",
                "addr:postcode": "62-400",
                "amenity": "pharmacy",
                "dispensing": "yes"
            },
            "geometry": {
                "type": "Point",
                "coordinates": [
                    17.87063412967981,
                    52.2962385974774
                ]
            }
        },
        {
            "type": "Feature",
            "properties": {
                "ref:csioz": 1193126,
                "name": "Doz Apteka Dbam O Zdrowie. Tradycja",
                "addr:street": "Duży Rynek",
                "addr:housenumber": "34",
                "addr:city": "Zagórów",
                "addr:postcode": "62-410",
                "amenity": "pharmacy",
                "dispensing": "yes"
            },
            "geometry": {
                "type": "Point",
                "coordinates": [
                    17.902334062474665,
                    52.167985781199576
                ]
            }
        },
        {
            "type": "Feature",
            "properties": {
                "ref:csioz": 1211643,
                "name": "Bliska",
                "addr:street": "Szkolny",
                "addr:housenumber": "16a",
                "addr:city": "Słupca",
                "addr:postcode": "62-400",
                "amenity": "pharmacy",
                "dispensing": "yes"
            },
            "geometry": {
                "type": "Point",
                "coordinates": [
                    17.873412318789878,
                    52.28924013065071
                ]
            }
        },
        {
            "type": "Feature",
            "properties": {
                "ref:csioz": 1213815,
                "name": "Pod Złotą Wagą",
                "addr:street": "Armii Krajowej",
                "addr:housenumber": "1",
                "addr:city": "Giewartów",
                "addr:postcode": "62-402",
                "amenity": "pharmacy",
                "dispensing": "yes"
            },
            "geometry": {
                "type": "Point",
                "coordinates": [
                    17.950271741113067,
                    52.37492641477003
                ]
            }
        },
        {
            "type": "Feature",
            "properties": {
                "ref:csioz": 1218595,
                "name": "Rodzinna",
                "addr:street": "Zachodnia",
                "addr:housenumber": "15A",
                "addr:city": "Ostrowite",
                "addr:postcode": "62-402",
                "amenity": "pharmacy",
                "dispensing": "yes"
            },
            "geometry": {
                "type": "Point",
                "coordinates": [
                    18.041019739474404,
                    52.38151134694894
                ]
            }
        },
        {
            "type": "Feature",
            "properties": {
                "ref:csioz": 1048998,
                "name": "Pod Złotą Wagą",
                "addr:street": "DWORCOWA",
                "addr:housenumber": "1",
                "addr:city": "STRZAŁKOWO",
                "addr:postcode": "62-420",
                "amenity": "pharmacy",
                "dispensing": "yes"
            },
            "geometry": {
                "type": "Point",
                "coordinates": [
                    17.81019494268495,
                    52.31180895350386
                ]
            }
        },
        {
            "type": "Feature",
            "properties": {
                "ref:csioz": 1049291,
                "name": "Prima",
                "addr:street": "GENERAŁA SIKORSKIEGO",
                "addr:housenumber": "16",
                "addr:city": "STRZAŁKOWO",
                "addr:postcode": "62-420",
                "amenity": "pharmacy",
                "dispensing": "yes"
            },
            "geometry": {
                "type": "Point",
                "coordinates": [
                    17.81943369097115,
                    52.31123556478811
                ]
            }
        },
        {
            "type": "Feature",
            "properties": {
                "ref:csioz": 1213831,
                "name": "Wrzosowa",
                "addr:street": "Generała Sikorskiego",
                "addr:housenumber": "1",
                "addr:city": "Strzałkowo",
                "addr:postcode": "62-420",
                "amenity": "pharmacy",
                "dispensing": "yes"
            },
            "geometry": {
                "type": "Point",
                "coordinates": [
                    17.81844916561493,
                    52.31037943720476
                ]
            }
        }
    ]
}