{
    "type": "FeatureCollection",
    "name": "JPT_KOD_JE_3218",
    "features": [
        {
            "type": "Feature",
            "properties": {
                "ref:csioz": 1165449,
                "name": "Mediq Apteka",
                "addr:street": "Niepodległości",
                "addr:housenumber": "23 b",
                "addr:city": "Łobez",
                "addr:postcode": "73-150",
                "amenity": "pharmacy"
            },
            "geometry": {
                "type": "Point",
                "coordinates": [
                    15.618628049488304,
                    53.633158981598854
                ]
            }
        },
        {
            "type": "Feature",
            "properties": {
                "ref:csioz": 1165620,
                "name": "Doz Apteka Dbam O Zdrowie.Centrum",
                "addr:street": "Kościelna",
                "addr:housenumber": "5",
                "addr:city": "Łobez",
                "addr:postcode": "73-150",
                "amenity": "pharmacy"
            },
            "geometry": {
                "type": "Point",
                "coordinates": [
                    15.622480589251644,
                    53.640346957440684
                ]
            }
        },
        {
            "type": "Feature",
            "properties": {
                "ref:csioz": 1168814,
                "name": "Pod Koroną",
                "addr:street": "Wybickiego",
                "addr:housenumber": "5",
                "addr:city": "Łobez",
                "addr:postcode": "73-150",
                "amenity": "pharmacy"
            },
            "geometry": {
                "type": "Point",
                "coordinates": [
                    15.620220648489573,
                    53.63662486420976
                ]
            }
        },
        {
            "type": "Feature",
            "properties": {
                "ref:csioz": 1174690,
                "name": "Wieża Zdrowia",
                "addr:street": "Moniuszki",
                "addr:housenumber": "1",
                "addr:city": "Łobez",
                "addr:postcode": "73-150",
                "amenity": "pharmacy"
            },
            "geometry": {
                "type": "Point",
                "coordinates": [
                    15.611861169318216,
                    53.635490137668334
                ]
            }
        },
        {
            "type": "Feature",
            "properties": {
                "ref:csioz": 1137365,
                "name": "Dbam O Zdrowie",
                "addr:street": "Niepodległości",
                "addr:housenumber": "44",
                "addr:city": "Łobez",
                "addr:postcode": "73-150",
                "amenity": "pharmacy"
            },
            "geometry": {
                "type": "Point",
                "coordinates": [
                    15.618231534887384,
                    53.635941832033836
                ]
            }
        },
        {
            "type": "Feature",
            "properties": {
                "ref:csioz": 1151757,
                "name": "Tilia",
                "addr:street": "gen. Józefa Bema",
                "addr:housenumber": "4",
                "addr:city": "Łobez",
                "addr:postcode": "73-150",
                "amenity": "pharmacy"
            },
            "geometry": {
                "type": "Point",
                "coordinates": [
                    15.62144299997491,
                    53.64092900001854
                ]
            }
        },
        {
            "type": "Feature",
            "properties": {
                "ref:csioz": 1152252,
                "name": "Calendula",
                "addr:street": "Mieszczańska",
                "addr:housenumber": "1A",
                "addr:city": "Dobra",
                "addr:postcode": "72-210",
                "amenity": "pharmacy"
            },
            "geometry": {
                "type": "Point",
                "coordinates": [
                    15.307689325992563,
                    53.58221931415105
                ]
            }
        },
        {
            "type": "Feature",
            "properties": {
                "ref:csioz": 1167428,
                "name": "Dbam O Zdrowie",
                "addr:street": "Wojska Polskiego",
                "addr:housenumber": "68",
                "addr:city": "Resko",
                "addr:postcode": "72-315",
                "amenity": "pharmacy"
            },
            "geometry": {
                "type": "Point",
                "coordinates": [
                    15.408628159083241,
                    53.77259554112727
                ]
            }
        },
        {
            "type": "Feature",
            "properties": {
                "ref:csioz": 1168880,
                "name": "Centrum Zdrowia",
                "addr:street": "Rynek",
                "addr:housenumber": "14A",
                "addr:city": "Resko",
                "addr:postcode": "72-315",
                "amenity": "pharmacy"
            },
            "geometry": {
                "type": "Point",
                "coordinates": [
                    15.404788040708215,
                    53.772548831660245
                ]
            }
        },
        {
            "type": "Feature",
            "properties": {
                "ref:csioz": 1215543,
                "name": "Punkt Apteczny Zdrowie",
                "addr:housenumber": "92",
                "addr:postcode": "72-314",
                "amenity": "pharmacy",
                "addr:place": "Radowo Małe"
            },
            "geometry": {
                "type": "Point",
                "coordinates": [
                    15.441440593589945,
                    53.666552549015236
                ]
            }
        },
        {
            "type": "Feature",
            "properties": {
                "ref:csioz": 1215562,
                "name": "Centrum Zdrowia",
                "addr:street": "Grunwaldzka",
                "addr:housenumber": "4",
                "addr:city": "Węgorzyno",
                "addr:postcode": "73-155",
                "amenity": "pharmacy"
            },
            "geometry": {
                "type": "Point",
                "coordinates": [
                    15.557992057424203,
                    53.53862343040215
                ]
            }
        },
        {
            "type": "Feature",
            "properties": {
                "ref:csioz": 1219946,
                "name": "Centrum Zdrowia",
                "addr:street": "Niepodległości",
                "addr:housenumber": "14",
                "addr:city": "Łobez",
                "addr:postcode": "73-150",
                "amenity": "pharmacy"
            },
            "geometry": {
                "type": "Point",
                "coordinates": [
                    15.620011215676922,
                    53.63802194590412
                ]
            }
        },
        {
            "type": "Feature",
            "properties": {
                "ref:csioz": 1228373,
                "addr:housenumber": "1",
                "addr:postcode": "73-150",
                "amenity": "pharmacy",
                "addr:place": "Grabowo"
            },
            "geometry": {
                "type": "Point",
                "coordinates": [
                    15.688444638419996,
                    53.666537917948034
                ]
            }
        }
    ]
}