{
    "type": "FeatureCollection",
    "name": "JPT_KOD_JE_0204",
    "features": [
        {
            "type": "Feature",
            "properties": {
                "ref:csioz": 1129697,
                "name": "Pod Eskulapem",
                "addr:street": "Rawicka",
                "addr:housenumber": "1b",
                "addr:city": "Wąsosz",
                "addr:postcode": "56-210",
                "amenity": "pharmacy",
                "dispensing": "yes"
            },
            "geometry": {
                "type": "Point",
                "coordinates": [
                    16.695784215813898,
                    51.567324464109134
                ]
            }
        },
        {
            "type": "Feature",
            "properties": {
                "ref:csioz": 1129868,
                "name": "Zdrowie",
                "addr:street": "Chrobrego",
                "addr:housenumber": "9",
                "addr:city": "Góra",
                "addr:postcode": "56-200",
                "amenity": "pharmacy",
                "dispensing": "yes"
            },
            "geometry": {
                "type": "Point",
                "coordinates": [
                    16.538617470304196,
                    51.66782926006415
                ]
            }
        },
        {
            "type": "Feature",
            "properties": {
                "ref:csioz": 1130124,
                "name": "Apteka Przy Przychodni",
                "addr:street": "Zacisze",
                "addr:housenumber": "10A",
                "addr:city": "Wąsosz",
                "addr:postcode": "56-210",
                "amenity": "pharmacy",
                "dispensing": "yes"
            },
            "geometry": {
                "type": "Point",
                "coordinates": [
                    16.698547742283555,
                    51.565827512544075
                ]
            }
        },
        {
            "type": "Feature",
            "properties": {
                "ref:csioz": 1130143,
                "name": "Eliksir",
                "addr:street": "Targowa",
                "addr:housenumber": "1",
                "addr:city": "Góra",
                "addr:postcode": "56-200",
                "amenity": "pharmacy",
                "dispensing": "yes"
            },
            "geometry": {
                "type": "Point",
                "coordinates": [
                    16.535969186821415,
                    51.66736326121116
                ]
            }
        },
        {
            "type": "Feature",
            "properties": {
                "ref:csioz": 1128829,
                "name": "Apteka Rodzinna",
                "addr:street": "Kazimierza Wielkiego",
                "addr:housenumber": "15A",
                "addr:city": "Góra",
                "addr:postcode": "56-200",
                "amenity": "pharmacy",
                "dispensing": "yes"
            },
            "geometry": {
                "type": "Point",
                "coordinates": [
                    16.527230506890273,
                    51.66982403334272
                ]
            }
        },
        {
            "type": "Feature",
            "properties": {
                "ref:csioz": 1129351,
                "name": "Lawendowa",
                "addr:street": "Bolesława Chrobrego",
                "addr:housenumber": "21",
                "addr:city": "Góra",
                "addr:postcode": "56-200",
                "amenity": "pharmacy",
                "dispensing": "yes"
            },
            "geometry": {
                "type": "Point",
                "coordinates": [
                    16.538499757903118,
                    51.66846142744305
                ]
            }
        },
        {
            "type": "Feature",
            "properties": {
                "ref:csioz": 1159248,
                "name": "\"'Aspirynka'\"",
                "addr:street": "Armii Krajowej",
                "addr:housenumber": "21",
                "addr:city": "Góra",
                "addr:postcode": "56-200",
                "amenity": "pharmacy",
                "dispensing": "yes"
            },
            "geometry": {
                "type": "Point",
                "coordinates": [
                    16.538145049162733,
                    51.66848912969975
                ]
            }
        },
        {
            "type": "Feature",
            "properties": {
                "ref:csioz": 1159257,
                "name": "Pod Eskulapem",
                "addr:street": "Wolności",
                "addr:housenumber": "22",
                "addr:city": "Wąsosz",
                "addr:postcode": "56-210",
                "amenity": "pharmacy",
                "dispensing": "yes"
            },
            "geometry": {
                "type": "Point",
                "coordinates": [
                    16.69010239153185,
                    51.56164184609331
                ]
            }
        },
        {
            "type": "Feature",
            "properties": {
                "ref:csioz": 1159236,
                "name": "Doz Apteka Dbam O Zdrowie Vita",
                "addr:street": "Głogowska",
                "addr:housenumber": "1a",
                "addr:city": "Góra",
                "addr:postcode": "56-200",
                "amenity": "pharmacy",
                "dispensing": "yes"
            },
            "geometry": {
                "type": "Point",
                "coordinates": [
                    16.5360459251733,
                    51.66817305036263
                ]
            }
        },
        {
            "type": "Feature",
            "properties": {
                "ref:csioz": 1135614,
                "name": "\"Punkt Apteczny \"\"Siloe\"\"\"",
                "addr:street": "Leśna",
                "addr:housenumber": "6",
                "addr:city": "Czernina",
                "addr:postcode": "56-200",
                "amenity": "pharmacy",
                "dispensing": "yes"
            },
            "geometry": {
                "type": "Point",
                "coordinates": [
                    16.615457855309312,
                    51.72124078017323
                ]
            }
        }
    ]
}