{
    "type": "FeatureCollection",
    "name": "JPT_KOD_JE_0620",
    "features": [
        {
            "type": "Feature",
            "properties": {
                "ref:csioz": 1153815,
                "addr:street": "Rynek",
                "addr:housenumber": "11 A",
                "addr:city": "Skierbieszów",
                "addr:postcode": "22-420",
                "amenity": "pharmacy"
            },
            "geometry": {
                "type": "Point",
                "coordinates": [
                    23.36849038505264,
                    50.85148551639224
                ]
            }
        },
        {
            "type": "Feature",
            "properties": {
                "ref:csioz": 1154327,
                "addr:street": "Rynek",
                "addr:housenumber": "10",
                "addr:city": "Skierbieszów",
                "addr:postcode": "22-420",
                "amenity": "pharmacy"
            },
            "geometry": {
                "type": "Point",
                "coordinates": [
                    23.368535815862643,
                    50.852028600024056
                ]
            }
        },
        {
            "type": "Feature",
            "properties": {
                "ref:csioz": 1155006,
                "addr:street": "Kozia",
                "addr:housenumber": "2",
                "addr:city": "Grabowiec",
                "addr:postcode": "22-425",
                "amenity": "pharmacy"
            },
            "geometry": {
                "type": "Point",
                "coordinates": [
                    23.55269167497587,
                    50.820100881893325
                ]
            }
        },
        {
            "type": "Feature",
            "properties": {
                "ref:csioz": 1204945,
                "name": "Punkt Apteczny Prima Mgr Farmacji Monika Oleszek",
                "addr:housenumber": "82 a",
                "addr:postcode": "22-424",
                "amenity": "pharmacy",
                "addr:place": "Sitno"
            },
            "geometry": {
                "type": "Point",
                "coordinates": [
                    23.361122541210246,
                    50.749253684555974
                ]
            }
        },
        {
            "type": "Feature",
            "properties": {
                "ref:csioz": 1154571,
                "addr:street": "Orzechowa",
                "addr:housenumber": "10",
                "addr:city": "Łabunie",
                "addr:postcode": "22-437",
                "amenity": "pharmacy"
            },
            "geometry": {
                "type": "Point",
                "coordinates": [
                    23.37284119189412,
                    50.65143724371624
                ]
            }
        },
        {
            "type": "Feature",
            "properties": {
                "ref:csioz": 1154612,
                "addr:housenumber": "109",
                "addr:postcode": "22-455",
                "amenity": "pharmacy",
                "addr:place": "Miączyn"
            },
            "geometry": {
                "type": "Point",
                "coordinates": [
                    23.50742411344087,
                    50.74283886792617
                ]
            }
        },
        {
            "type": "Feature",
            "properties": {
                "ref:csioz": 1154620,
                "addr:street": "Rynek",
                "addr:housenumber": "33",
                "addr:city": "Komarów - Osada",
                "addr:postcode": "22-435",
                "amenity": "pharmacy"
            },
            "geometry": {
                "type": "Point",
                "coordinates": [
                    23.47504200015695,
                    50.62879300001647
                ]
            }
        },
        {
            "type": "Feature",
            "properties": {
                "ref:csioz": 1154878,
                "addr:street": "Rynek",
                "addr:housenumber": "9",
                "addr:city": "Komarów - Osada",
                "addr:postcode": "22-435",
                "amenity": "pharmacy"
            },
            "geometry": {
                "type": "Point",
                "coordinates": [
                    23.47460700015689,
                    50.62806900001647
                ]
            }
        },
        {
            "type": "Feature",
            "properties": {
                "ref:csioz": 1212390,
                "name": "-",
                "addr:street": "Parkowa",
                "addr:housenumber": "27",
                "addr:city": "Łabunie",
                "addr:postcode": "22-437",
                "amenity": "pharmacy"
            },
            "geometry": {
                "type": "Point",
                "coordinates": [
                    23.37455027255402,
                    50.65207564152653
                ]
            }
        },
        {
            "type": "Feature",
            "properties": {
                "ref:csioz": 1106463,
                "addr:street": "Osiedlowa",
                "addr:housenumber": "10c/8",
                "addr:city": "Michalów",
                "addr:postcode": "22-448",
                "amenity": "pharmacy"
            },
            "geometry": {
                "type": "Point",
                "coordinates": [
                    23.014417000088443,
                    50.72707300001489
                ]
            }
        },
        {
            "type": "Feature",
            "properties": {
                "ref:csioz": 1106547,
                "name": "\"Punkt Apteczny Katarzyna Koluch, Rafał Koluch S.C.\"",
                "addr:housenumber": "19A",
                "addr:postcode": "22-448",
                "amenity": "pharmacy",
                "addr:place": "Tworyczów"
            },
            "geometry": {
                "type": "Point",
                "coordinates": [
                    22.927599094907638,
                    50.77843823317059
                ]
            }
        },
        {
            "type": "Feature",
            "properties": {
                "ref:csioz": 1153889,
                "addr:street": "Partyzantów",
                "addr:housenumber": "13",
                "addr:city": "Zwierzyniec",
                "addr:postcode": "22-470",
                "amenity": "pharmacy"
            },
            "geometry": {
                "type": "Point",
                "coordinates": [
                    22.97303270781668,
                    50.6147119972205
                ]
            }
        },
        {
            "type": "Feature",
            "properties": {
                "ref:csioz": 1154067,
                "addr:street": "Plac Kościuszki",
                "addr:housenumber": "42",
                "addr:city": "Szczebrzeszyn",
                "addr:postcode": "22-460",
                "amenity": "pharmacy"
            },
            "geometry": {
                "type": "Point",
                "coordinates": [
                    22.97842779375919,
                    50.69546262002644
                ]
            }
        },
        {
            "type": "Feature",
            "properties": {
                "ref:csioz": 1154190,
                "addr:housenumber": "197",
                "addr:postcode": "22-400",
                "amenity": "pharmacy",
                "addr:place": "Lipsko"
            },
            "geometry": {
                "type": "Point",
                "coordinates": [
                    23.2334250249801,
                    50.657938241812865
                ]
            }
        },
        {
            "type": "Feature",
            "properties": {
                "ref:csioz": 1154298,
                "addr:housenumber": "152",
                "addr:postcode": "22-400",
                "amenity": "pharmacy",
                "addr:place": "Wysokie"
            },
            "geometry": {
                "type": "Point",
                "coordinates": [
                    23.211520405089285,
                    50.759896563044464
                ]
            }
        },
        {
            "type": "Feature",
            "properties": {
                "ref:csioz": 1154458,
                "addr:housenumber": "279",
                "addr:postcode": "22-413",
                "amenity": "pharmacy",
                "addr:place": "Nielisz"
            },
            "geometry": {
                "type": "Point",
                "coordinates": [
                    23.042124017033824,
                    50.803921432825675
                ]
            }
        },
        {
            "type": "Feature",
            "properties": {
                "ref:csioz": 1154699,
                "addr:housenumber": "237 a",
                "addr:postcode": "22-443",
                "amenity": "pharmacy",
                "addr:place": "Suchowola"
            },
            "geometry": {
                "type": "Point",
                "coordinates": [
                    23.25387476139036,
                    50.59232558809188
                ]
            }
        },
        {
            "type": "Feature",
            "properties": {
                "ref:csioz": 1155185,
                "addr:street": "B. Prusa",
                "addr:housenumber": "2",
                "addr:city": "Radecznica",
                "addr:postcode": "22-463",
                "amenity": "pharmacy"
            },
            "geometry": {
                "type": "Point",
                "coordinates": [
                    22.83244764562368,
                    50.7449229448922
                ]
            }
        },
        {
            "type": "Feature",
            "properties": {
                "ref:csioz": 1164077,
                "name": "Apteka Roztocze",
                "addr:street": "Zamojska",
                "addr:housenumber": "19",
                "addr:city": "Zwierzyniec",
                "addr:postcode": "22-470",
                "amenity": "pharmacy"
            },
            "geometry": {
                "type": "Point",
                "coordinates": [
                    22.966355914763607,
                    50.61350814737756
                ]
            }
        },
        {
            "type": "Feature",
            "properties": {
                "ref:csioz": 1164969,
                "addr:street": "Kościuszki",
                "addr:housenumber": "25",
                "addr:city": "Szczebrzeszyn",
                "addr:postcode": "22-460",
                "amenity": "pharmacy"
            },
            "geometry": {
                "type": "Point",
                "coordinates": [
                    22.978333297372078,
                    50.694281968077085
                ]
            }
        },
        {
            "type": "Feature",
            "properties": {
                "ref:csioz": 1208842,
                "name": "Punkt Apteczny Adonis Mgr Farm. Bogumił Siemczyk",
                "addr:housenumber": "152",
                "addr:postcode": "22-400",
                "amenity": "pharmacy",
                "addr:place": "Wysokie"
            },
            "geometry": {
                "type": "Point",
                "coordinates": [
                    23.211520405089285,
                    50.759896563044464
                ]
            }
        },
        {
            "type": "Feature",
            "properties": {
                "ref:csioz": 1106038,
                "addr:street": "3 Maja",
                "addr:housenumber": "30 a",
                "addr:city": "Krasnobród",
                "addr:postcode": "22-440",
                "amenity": "pharmacy"
            },
            "geometry": {
                "type": "Point",
                "coordinates": [
                    23.215369572094183,
                    50.54431284667679
                ]
            }
        },
        {
            "type": "Feature",
            "properties": {
                "ref:csioz": 1116599,
                "addr:street": "3 Maja",
                "addr:housenumber": "49",
                "addr:city": "Krasnobród",
                "addr:postcode": "22-440",
                "amenity": "pharmacy"
            },
            "geometry": {
                "type": "Point",
                "coordinates": [
                    23.218296203465076,
                    50.54410029349111
                ]
            }
        },
        {
            "type": "Feature",
            "properties": {
                "ref:csioz": 1154886,
                "addr:street": "Mostowa",
                "addr:housenumber": "4",
                "addr:city": "Krasnobród",
                "addr:postcode": "22-440",
                "amenity": "pharmacy"
            },
            "geometry": {
                "type": "Point",
                "coordinates": [
                    23.21043071016774,
                    50.546082424117216
                ]
            }
        },
        {
            "type": "Feature",
            "properties": {
                "ref:csioz": 1153913,
                "addr:housenumber": "272",
                "addr:postcode": "22-400",
                "amenity": "pharmacy",
                "addr:place": "Zawada"
            },
            "geometry": {
                "type": "Point",
                "coordinates": [
                    23.12359956363547,
                    50.722378252030616
                ]
            }
        },
        {
            "type": "Feature",
            "properties": {
                "ref:csioz": 1154189,
                "name": "Apteka Prywatna Katarzyna Król",
                "addr:street": "Klasztorna",
                "addr:housenumber": "1",
                "addr:city": "Radecznica",
                "addr:postcode": "22-463",
                "amenity": "pharmacy"
            },
            "geometry": {
                "type": "Point",
                "coordinates": [
                    22.828932113381835,
                    50.75128001781548
                ]
            }
        },
        {
            "type": "Feature",
            "properties": {
                "ref:csioz": 1154474,
                "addr:housenumber": "98 A",
                "addr:postcode": "22-463",
                "amenity": "pharmacy",
                "addr:place": "Gorajec Stara Wieś"
            },
            "geometry": {
                "type": "Point",
                "coordinates": [
                    22.84513600007141,
                    50.680090000014445
                ]
            }
        },
        {
            "type": "Feature",
            "properties": {
                "ref:csioz": 1154832,
                "addr:street": "3 Maja",
                "addr:housenumber": "5",
                "addr:city": "Krasnobród",
                "addr:postcode": "22-440",
                "amenity": "pharmacy"
            },
            "geometry": {
                "type": "Point",
                "coordinates": [
                    23.21209799839318,
                    50.54594786147376
                ]
            }
        },
        {
            "type": "Feature",
            "properties": {
                "ref:csioz": 1155040,
                "addr:street": "XXX-lecia",
                "addr:housenumber": "7 a",
                "addr:city": "Szczebrzeszyn",
                "addr:postcode": "22-460",
                "amenity": "pharmacy"
            },
            "geometry": {
                "type": "Point",
                "coordinates": [
                    22.981127633051674,
                    50.69743389877054
                ]
            }
        },
        {
            "type": "Feature",
            "properties": {
                "ref:csioz": 1155104,
                "addr:street": "Zamojska",
                "addr:housenumber": "64",
                "addr:city": "Szczebrzeszyn",
                "addr:postcode": "22-460",
                "amenity": "pharmacy"
            },
            "geometry": {
                "type": "Point",
                "coordinates": [
                    22.98306275156057,
                    50.69646622808198
                ]
            }
        },
        {
            "type": "Feature",
            "properties": {
                "ref:csioz": 1155339,
                "addr:street": "Zamojska",
                "addr:housenumber": "40",
                "addr:city": "Szczebrzeszyn",
                "addr:postcode": "22-460",
                "amenity": "pharmacy"
            },
            "geometry": {
                "type": "Point",
                "coordinates": [
                    22.98178909123165,
                    50.69568275987507
                ]
            }
        },
        {
            "type": "Feature",
            "properties": {
                "ref:csioz": 1178285,
                "addr:street": "Dębowiec",
                "addr:housenumber": "1",
                "addr:city": "Dębowiec",
                "addr:postcode": "22-420",
                "amenity": "pharmacy"
            },
            "geometry": {
                "type": "Point",
                "coordinates": [
                    23.315244734487493,
                    50.80154377672185
                ]
            }
        },
        {
            "type": "Feature",
            "properties": {
                "ref:csioz": 1188882,
                "name": "Moja Apteka",
                "addr:street": "Armii Krajowej",
                "addr:housenumber": "7",
                "addr:city": "Zwierzyniec",
                "addr:postcode": "22-470",
                "amenity": "pharmacy"
            },
            "geometry": {
                "type": "Point",
                "coordinates": [
                    22.97509518329978,
                    50.61522788958533
                ]
            }
        },
        {
            "type": "Feature",
            "properties": {
                "ref:csioz": 1190028,
                "name": "Apteka Szpitalna",
                "addr:street": "Klasztorna",
                "addr:housenumber": "4",
                "addr:city": "Radecznica",
                "addr:postcode": "22-463",
                "amenity": "pharmacy"
            },
            "geometry": {
                "type": "Point",
                "coordinates": [
                    22.826246573574917,
                    50.75169260213447
                ]
            }
        },
        {
            "type": "Feature",
            "properties": {
                "ref:csioz": 1190031,
                "name": "Apteki Szpitalna",
                "addr:street": "dr. Zygmunta Klukowskiego",
                "addr:housenumber": "3",
                "addr:city": "Szczebrzeszyn",
                "addr:postcode": "22-460",
                "amenity": "pharmacy"
            },
            "geometry": {
                "type": "Point",
                "coordinates": [
                    22.977597945985814,
                    50.693254212542975
                ]
            }
        },
        {
            "type": "Feature",
            "properties": {
                "ref:csioz": 1191433,
                "name": "-",
                "addr:housenumber": "106",
                "addr:postcode": "22-442",
                "amenity": "pharmacy",
                "addr:place": "Adamów"
            },
            "geometry": {
                "type": "Point",
                "coordinates": [
                    23.175591854466727,
                    50.59412648982363
                ]
            }
        },
        {
            "type": "Feature",
            "properties": {
                "ref:csioz": 1200963,
                "name": "Apteka Lubelska",
                "addr:housenumber": "20",
                "addr:postcode": "22-417",
                "amenity": "pharmacy",
                "addr:place": "Wierzba"
            },
            "geometry": {
                "type": "Point",
                "coordinates": [
                    23.185084726180275,
                    50.82433332715496
                ]
            }
        },
        {
            "type": "Feature",
            "properties": {
                "ref:csioz": 1203442,
                "name": "-",
                "addr:street": "ZOR",
                "addr:housenumber": "4",
                "addr:city": "Bodaczów",
                "addr:postcode": "22-460",
                "amenity": "pharmacy"
            },
            "geometry": {
                "type": "Point",
                "coordinates": [
                    23.027276507670337,
                    50.71677930338982
                ]
            }
        },
        {
            "type": "Feature",
            "properties": {
                "ref:csioz": 1208011,
                "name": "-",
                "addr:street": "Kościuszki",
                "addr:housenumber": "25",
                "addr:city": "Szczebrzeszyn",
                "addr:postcode": "22-460",
                "amenity": "pharmacy"
            },
            "geometry": {
                "type": "Point",
                "coordinates": [
                    22.978333297372078,
                    50.694281968077085
                ]
            }
        }
    ]
}