{
    "type": "FeatureCollection",
    "name": "JPT_KOD_JE_1001",
    "features": [
        {
            "type": "Feature",
            "properties": {
                "ref:csioz": 1011227,
                "name": "Alpa",
                "addr:street": "Jarosława Dąbrowskiego",
                "addr:housenumber": "17",
                "addr:city": "Zelów",
                "addr:postcode": "97-425",
                "amenity": "pharmacy",
                "dispensing": "yes"
            },
            "geometry": {
                "type": "Point",
                "coordinates": [
                    19.218789102969154,
                    51.464491915760846
                ]
            }
        },
        {
            "type": "Feature",
            "properties": {
                "ref:csioz": 1012818,
                "name": "Witaminka",
                "addr:street": "Tadeusza Kościuszki",
                "addr:housenumber": "11",
                "addr:city": "Zelów",
                "addr:postcode": "97-425",
                "amenity": "pharmacy",
                "dispensing": "yes"
            },
            "geometry": {
                "type": "Point",
                "coordinates": [
                    19.216388783517754,
                    51.46616071099054
                ]
            }
        },
        {
            "type": "Feature",
            "properties": {
                "ref:csioz": 1026520,
                "name": "Twoje Zdrowie",
                "addr:housenumber": "82",
                "addr:postcode": "97-403",
                "amenity": "pharmacy",
                "addr:place": "Wadlew",
                "dispensing": "yes"
            },
            "geometry": {
                "type": "Point",
                "coordinates": [
                    19.41144768177568,
                    51.506749649003496
                ]
            }
        },
        {
            "type": "Feature",
            "properties": {
                "ref:csioz": 1022296,
                "name": "Medest Vii",
                "addr:street": "Poznańska",
                "addr:housenumber": "1A",
                "addr:city": "Zelów",
                "addr:postcode": "97-425",
                "amenity": "pharmacy",
                "dispensing": "yes"
            },
            "geometry": {
                "type": "Point",
                "coordinates": [
                    19.219745536650013,
                    51.46215398626788
                ]
            }
        },
        {
            "type": "Feature",
            "properties": {
                "ref:csioz": 1203667,
                "name": "Wrzosowa",
                "addr:street": "Stefana Żeromskiego",
                "addr:housenumber": "21",
                "addr:city": "Zelów",
                "addr:postcode": "97-425",
                "amenity": "pharmacy",
                "dispensing": "yes"
            },
            "geometry": {
                "type": "Point",
                "coordinates": [
                    19.217261013057403,
                    51.46758706391418
                ]
            }
        },
        {
            "type": "Feature",
            "properties": {
                "ref:csioz": 1226292,
                "name": "Twoje Zdrowie",
                "addr:housenumber": "18",
                "addr:postcode": "97-403",
                "amenity": "pharmacy",
                "addr:place": "Drużbice",
                "dispensing": "yes"
            },
            "geometry": {
                "type": "Point",
                "coordinates": [
                    19.3989424165672,
                    51.4631530921943
                ]
            }
        },
        {
            "type": "Feature",
            "properties": {
                "ref:csioz": 1013254,
                "name": "Apteka Dbam O Zdrowie",
                "addr:street": "Główna",
                "addr:housenumber": "82",
                "addr:city": "Kleszczów",
                "addr:postcode": "97-410",
                "amenity": "pharmacy",
                "dispensing": "yes"
            },
            "geometry": {
                "type": "Point",
                "coordinates": [
                    19.305309747145202,
                    51.22285815631324
                ]
            }
        },
        {
            "type": "Feature",
            "properties": {
                "ref:csioz": 1185584,
                "name": "Apteka Przyjazna",
                "addr:street": "Sportowa",
                "addr:housenumber": "53",
                "addr:city": "Kleszczów",
                "addr:postcode": "97-410",
                "amenity": "pharmacy",
                "dispensing": "yes"
            },
            "geometry": {
                "type": "Point",
                "coordinates": [
                    19.3155012357783,
                    51.21015012496891
                ]
            }
        },
        {
            "type": "Feature",
            "properties": {
                "ref:csioz": 1010308,
                "name": "\"Apteka \"\"Zdrowie\"\"\"",
                "addr:street": "Dolnośląskie",
                "addr:housenumber": "148I",
                "addr:city": "Bełchatów",
                "addr:postcode": "97-400",
                "amenity": "pharmacy",
                "dispensing": "yes"
            },
            "geometry": {
                "type": "Point",
                "coordinates": [
                    19.3564595671837,
                    51.358048057554235
                ]
            }
        },
        {
            "type": "Feature",
            "properties": {
                "ref:csioz": 1011444,
                "name": "W Parku",
                "addr:street": "Wolności",
                "addr:housenumber": "15",
                "addr:city": "Bełchatów",
                "addr:postcode": "97-400",
                "amenity": "pharmacy",
                "dispensing": "yes"
            },
            "geometry": {
                "type": "Point",
                "coordinates": [
                    19.37648086977363,
                    51.36721658578724
                ]
            }
        },
        {
            "type": "Feature",
            "properties": {
                "ref:csioz": 1011885,
                "name": "Szarotka",
                "addr:street": "Edwardów",
                "addr:housenumber": "2A",
                "addr:city": "Bełchatów",
                "addr:postcode": "97-400",
                "amenity": "pharmacy",
                "dispensing": "yes"
            },
            "geometry": {
                "type": "Point",
                "coordinates": [
                    19.367572688405733,
                    51.35718746778007
                ]
            }
        },
        {
            "type": "Feature",
            "properties": {
                "ref:csioz": 1012168,
                "name": "Witaminka",
                "addr:street": "Bolesława Chrobrego",
                "addr:housenumber": "24",
                "addr:city": "Bełchatów",
                "addr:postcode": "97-400",
                "amenity": "pharmacy",
                "dispensing": "yes"
            },
            "geometry": {
                "type": "Point",
                "coordinates": [
                    19.36252006233009,
                    51.350899730297506
                ]
            }
        },
        {
            "type": "Feature",
            "properties": {
                "ref:csioz": 1015487,
                "addr:street": "św. Floriana",
                "addr:housenumber": "10A",
                "addr:city": "Szczerców",
                "addr:postcode": "97-420",
                "amenity": "pharmacy",
                "dispensing": "yes"
            },
            "geometry": {
                "type": "Point",
                "coordinates": [
                    19.113511445163457,
                    51.33048718267171
                ]
            }
        },
        {
            "type": "Feature",
            "properties": {
                "ref:csioz": 1016201,
                "name": "Bratek",
                "addr:street": "Aleja ks. Kardynała Stefana Wyszyńskiego",
                "addr:housenumber": "4",
                "addr:city": "Bełchatów",
                "addr:postcode": "97-400",
                "amenity": "pharmacy",
                "dispensing": "yes"
            },
            "geometry": {
                "type": "Point",
                "coordinates": [
                    19.370043969827368,
                    51.34995065278578
                ]
            }
        },
        {
            "type": "Feature",
            "properties": {
                "ref:csioz": 1018155,
                "name": "Doz Apteka Dbam O Zdrowie",
                "addr:street": "Kościuszki",
                "addr:housenumber": "12",
                "addr:city": "Bełchatów",
                "addr:postcode": "97-400",
                "amenity": "pharmacy",
                "dispensing": "yes"
            },
            "geometry": {
                "type": "Point",
                "coordinates": [
                    19.369997857894965,
                    51.364769277806694
                ]
            }
        },
        {
            "type": "Feature",
            "properties": {
                "ref:csioz": 1018603,
                "name": "\"Apteka \"\"Prima\"\"\"",
                "addr:street": "Mickiewicza",
                "addr:housenumber": "34",
                "addr:city": "Szczerców",
                "addr:postcode": "97-420",
                "amenity": "pharmacy",
                "dispensing": "yes"
            },
            "geometry": {
                "type": "Point",
                "coordinates": [
                    19.11387325866721,
                    51.33263967303502
                ]
            }
        },
        {
            "type": "Feature",
            "properties": {
                "ref:csioz": 1020774,
                "name": "Słoneczna",
                "addr:street": "Stanisława Staszica",
                "addr:housenumber": "20",
                "addr:city": "Bełchatów",
                "addr:postcode": "97-400",
                "amenity": "pharmacy",
                "dispensing": "yes"
            },
            "geometry": {
                "type": "Point",
                "coordinates": [
                    19.386881576470802,
                    51.364772401859554
                ]
            }
        },
        {
            "type": "Feature",
            "properties": {
                "ref:csioz": 1021473,
                "name": "Apteka Słoneczna Centrum Farmaceutyczne",
                "addr:street": "Romualda Mielczarskiego",
                "addr:housenumber": "2A",
                "addr:city": "Bełchatów",
                "addr:postcode": "97-400",
                "amenity": "pharmacy",
                "dispensing": "yes"
            },
            "geometry": {
                "type": "Point",
                "coordinates": [
                    19.368138128912417,
                    51.36697154537027
                ]
            }
        },
        {
            "type": "Feature",
            "properties": {
                "ref:csioz": 1023949,
                "name": "Maxfarm Apteka",
                "addr:street": "Lecha i Marii Kaczyńskich",
                "addr:housenumber": "12",
                "addr:city": "Bełchatów",
                "addr:postcode": "97-400",
                "amenity": "pharmacy",
                "dispensing": "yes"
            },
            "geometry": {
                "type": "Point",
                "coordinates": [
                    19.374062000000123,
                    51.368045000014504
                ]
            }
        },
        {
            "type": "Feature",
            "properties": {
                "ref:csioz": 1113679,
                "name": "Apteka Dla Zdrowia",
                "addr:street": "gen. Ludwika Czyżewskiego",
                "addr:housenumber": "6",
                "addr:city": "Bełchatów",
                "addr:postcode": "97-400",
                "amenity": "pharmacy",
                "dispensing": "yes"
            },
            "geometry": {
                "type": "Point",
                "coordinates": [
                    19.3806868309997,
                    51.359167507237984
                ]
            }
        },
        {
            "type": "Feature",
            "properties": {
                "ref:csioz": 1122834,
                "name": "Żyj - Zdrowo.Com",
                "addr:housenumber": "51",
                "addr:postcode": "97-415",
                "amenity": "pharmacy",
                "addr:place": "Kluki",
                "dispensing": "yes"
            },
            "geometry": {
                "type": "Point",
                "coordinates": [
                    19.231913084891207,
                    51.343780235346046
                ]
            }
        },
        {
            "type": "Feature",
            "properties": {
                "ref:csioz": 1180334,
                "name": "Euro Apteka",
                "addr:street": "Czapliniecka",
                "addr:housenumber": "93",
                "addr:city": "Bełchatów",
                "addr:postcode": "97-400",
                "amenity": "pharmacy",
                "dispensing": "yes"
            },
            "geometry": {
                "type": "Point",
                "coordinates": [
                    19.353433526287926,
                    51.37116417351415
                ]
            }
        },
        {
            "type": "Feature",
            "properties": {
                "ref:csioz": 1193354,
                "name": "Zespół Chirurgii Jednego Dnia",
                "addr:street": "Czapliniecka",
                "addr:housenumber": "93/95",
                "addr:city": "Bełchatów",
                "addr:postcode": "97-400",
                "amenity": "pharmacy",
                "dispensing": "yes"
            },
            "geometry": {
                "type": "Point",
                "coordinates": [
                    19.35183800000011,
                    51.373475000014494
                ]
            }
        },
        {
            "type": "Feature",
            "properties": {
                "ref:csioz": 1193404,
                "name": "Xii Oddział Kardiologiczny Paks W Bełchatowie",
                "addr:street": "Czapliniecka",
                "addr:housenumber": "123",
                "addr:city": "Bełchatów",
                "addr:postcode": "97-400",
                "amenity": "pharmacy",
                "dispensing": "yes"
            },
            "geometry": {
                "type": "Point",
                "coordinates": [
                    19.35020465629188,
                    51.3745402996888
                ]
            }
        },
        {
            "type": "Feature",
            "properties": {
                "ref:csioz": 1193420,
                "name": "Klinika Psychiatryczna I Terapii Uzależnień Wolmed Joanna Wysogląd-Wolniak",
                "addr:housenumber": "1A",
                "addr:postcode": "97-420",
                "amenity": "pharmacy",
                "addr:place": "Dubie",
                "dispensing": "yes"
            },
            "geometry": {
                "type": "Point",
                "coordinates": [
                    19.0611156824879,
                    51.35959454914102
                ]
            }
        },
        {
            "type": "Feature",
            "properties": {
                "ref:csioz": 1220991,
                "name": "Aloes",
                "addr:street": "Generała Czyżewskiego",
                "addr:housenumber": "1",
                "addr:city": "Bełchatów",
                "addr:postcode": "97-400",
                "amenity": "pharmacy",
                "dispensing": "yes"
            },
            "geometry": {
                "type": "Point",
                "coordinates": [
                    19.378201886997886,
                    51.367061012221875
                ]
            }
        },
        {
            "type": "Feature",
            "properties": {
                "ref:csioz": 1224135,
                "name": "Apteka Zdrowit",
                "addr:street": "Wojska Polskiego",
                "addr:housenumber": "89",
                "addr:city": "Bełchatów",
                "addr:postcode": "97-400",
                "amenity": "pharmacy",
                "dispensing": "yes"
            },
            "geometry": {
                "type": "Point",
                "coordinates": [
                    19.36996607762882,
                    51.353923046833714
                ]
            }
        },
        {
            "type": "Feature",
            "properties": {
                "ref:csioz": 1224939,
                "name": "Agata Łuszczyk",
                "addr:housenumber": "13",
                "addr:postcode": "97-438",
                "amenity": "pharmacy",
                "addr:place": "Wola Wiązowa",
                "dispensing": "yes"
            },
            "geometry": {
                "type": "Point",
                "coordinates": [
                    18.90743186901948,
                    51.32519303669187
                ]
            }
        },
        {
            "type": "Feature",
            "properties": {
                "ref:csioz": 1010416,
                "name": "Apteka Prima",
                "addr:street": "1000-lecia",
                "addr:housenumber": "1",
                "addr:city": "Bełchatów",
                "addr:postcode": "97-400",
                "amenity": "pharmacy",
                "dispensing": "yes"
            },
            "geometry": {
                "type": "Point",
                "coordinates": [
                    19.37758164691778,
                    51.36528836287228
                ]
            }
        },
        {
            "type": "Feature",
            "properties": {
                "ref:csioz": 1012244,
                "name": "Apteka Mgr Farm. Bożena Świderska",
                "addr:street": "Pułaskiego",
                "addr:housenumber": "5",
                "addr:city": "Szczerców",
                "addr:postcode": "97-420",
                "amenity": "pharmacy",
                "dispensing": "yes"
            },
            "geometry": {
                "type": "Point",
                "coordinates": [
                    19.112949768662368,
                    51.3311966026906
                ]
            }
        },
        {
            "type": "Feature",
            "properties": {
                "ref:csioz": 1012640,
                "addr:street": "Wieluńska",
                "addr:housenumber": "17",
                "addr:city": "Rusiec",
                "addr:postcode": "97-438",
                "amenity": "pharmacy",
                "dispensing": "yes"
            },
            "geometry": {
                "type": "Point",
                "coordinates": [
                    18.984899135665607,
                    51.32403931375164
                ]
            }
        },
        {
            "type": "Feature",
            "properties": {
                "ref:csioz": 1018236,
                "name": "Apteka Dbam O Zdrowie",
                "addr:street": "Witolda Budryka",
                "addr:housenumber": "69",
                "addr:city": "Bełchatów",
                "addr:postcode": "97-400",
                "amenity": "pharmacy",
                "dispensing": "yes"
            },
            "geometry": {
                "type": "Point",
                "coordinates": [
                    19.38514000000012,
                    51.35913400001447
                ]
            }
        },
        {
            "type": "Feature",
            "properties": {
                "ref:csioz": 1023357,
                "name": "Apteka Słoneczna",
                "addr:street": "Czapliniecka",
                "addr:housenumber": "123",
                "addr:city": "Bełchatów",
                "addr:postcode": "97-400",
                "amenity": "pharmacy",
                "dispensing": "yes"
            },
            "geometry": {
                "type": "Point",
                "coordinates": [
                    19.35020465629188,
                    51.3745102996888
                ]
            }
        },
        {
            "type": "Feature",
            "properties": {
                "ref:csioz": 1023137,
                "name": "Medest Viii",
                "addr:street": "Pabianicka",
                "addr:housenumber": "8",
                "addr:city": "Bełchatów",
                "addr:postcode": "97-400",
                "amenity": "pharmacy",
                "dispensing": "yes"
            },
            "geometry": {
                "type": "Point",
                "coordinates": [
                    19.369048235486556,
                    51.36764625111246
                ]
            }
        },
        {
            "type": "Feature",
            "properties": {
                "ref:csioz": 1121503,
                "name": "Apteka Prima-Pharma",
                "addr:street": "Stefana Okrzei",
                "addr:housenumber": "33B",
                "addr:city": "Bełchatów",
                "addr:postcode": "97-400",
                "amenity": "pharmacy",
                "dispensing": "yes"
            },
            "geometry": {
                "type": "Point",
                "coordinates": [
                    19.374787549063186,
                    51.3617713290485
                ]
            }
        },
        {
            "type": "Feature",
            "properties": {
                "ref:csioz": 1180287,
                "name": "Euro Apteka",
                "addr:street": "Kolejowa",
                "addr:housenumber": "6",
                "addr:city": "Bełchatów",
                "addr:postcode": "97-400",
                "amenity": "pharmacy",
                "dispensing": "yes"
            },
            "geometry": {
                "type": "Point",
                "coordinates": [
                    19.37493098973298,
                    51.35406979756454
                ]
            }
        },
        {
            "type": "Feature",
            "properties": {
                "ref:csioz": 1182596,
                "name": "Apteka Tęczowa",
                "addr:street": "Rotmistrza Witolda Pileckiego",
                "addr:housenumber": "22A",
                "addr:city": "Bełchatów",
                "addr:postcode": "97-400",
                "amenity": "pharmacy",
                "dispensing": "yes"
            },
            "geometry": {
                "type": "Point",
                "coordinates": [
                    19.366727000000115,
                    51.36269400001449
                ]
            }
        },
        {
            "type": "Feature",
            "properties": {
                "ref:csioz": 1195786,
                "name": "Apteka Społeczna Na Kościuszki Grupa Nowa Farmacja",
                "addr:street": "Tadeusza Kościuszki",
                "addr:housenumber": "14",
                "addr:city": "Bełchatów",
                "addr:postcode": "97-400",
                "amenity": "pharmacy",
                "dispensing": "yes"
            },
            "geometry": {
                "type": "Point",
                "coordinates": [
                    19.370061433560593,
                    51.36420708957987
                ]
            }
        },
        {
            "type": "Feature",
            "properties": {
                "ref:csioz": 1197021,
                "name": "Szpital Wojewódzki Im. Jana Pawła Ii",
                "addr:street": "Czapliniecka",
                "addr:housenumber": "123",
                "addr:city": "Bełchatów",
                "addr:postcode": "97-400",
                "amenity": "pharmacy",
                "dispensing": "yes"
            },
            "geometry": {
                "type": "Point",
                "coordinates": [
                    19.35020465629188,
                    51.3744802996888
                ]
            }
        },
        {
            "type": "Feature",
            "properties": {
                "ref:csioz": 1204012,
                "name": "Apteka Bliska Zdrowiu",
                "addr:street": "św. Barbary",
                "addr:housenumber": "1",
                "addr:city": "Bełchatów",
                "addr:postcode": "97-400",
                "amenity": "pharmacy",
                "dispensing": "yes"
            },
            "geometry": {
                "type": "Point",
                "coordinates": [
                    19.386462483442095,
                    51.35647951403382
                ]
            }
        },
        {
            "type": "Feature",
            "properties": {
                "ref:csioz": 1207603,
                "name": "Tęczowa",
                "addr:street": "Bolesława Chrobrego",
                "addr:housenumber": "26",
                "addr:city": "Bełchatów",
                "addr:postcode": "97-400",
                "amenity": "pharmacy",
                "dispensing": "yes"
            },
            "geometry": {
                "type": "Point",
                "coordinates": [
                    19.36219600000011,
                    51.350800000014466
                ]
            }
        },
        {
            "type": "Feature",
            "properties": {
                "ref:csioz": 1212825,
                "name": "Apteka - Apteki Dar Zdrowia",
                "addr:street": "św. Floriana",
                "addr:housenumber": "3",
                "addr:city": "Szczerców",
                "addr:postcode": "97-420",
                "amenity": "pharmacy",
                "dispensing": "yes"
            },
            "geometry": {
                "type": "Point",
                "coordinates": [
                    19.114930777654607,
                    51.33064215163873
                ]
            }
        },
        {
            "type": "Feature",
            "properties": {
                "ref:csioz": 1221411,
                "name": "\" Apteki Burchacińscy; Wejdź Po Zdrowie\"",
                "addr:street": "Wieluńska",
                "addr:housenumber": "25",
                "addr:city": "Rusiec",
                "addr:postcode": "97-438",
                "amenity": "pharmacy",
                "dispensing": "yes"
            },
            "geometry": {
                "type": "Point",
                "coordinates": [
                    18.985783796436216,
                    51.324429263692785
                ]
            }
        },
        {
            "type": "Feature",
            "properties": {
                "ref:csioz": 1225271,
                "name": "Niezapominajka Dla Całej Rodziny",
                "addr:street": "Wojska Polskiego",
                "addr:housenumber": "39",
                "addr:city": "Bełchatów",
                "addr:postcode": "97-400",
                "amenity": "pharmacy",
                "dispensing": "yes"
            },
            "geometry": {
                "type": "Point",
                "coordinates": [
                    19.368212881652585,
                    51.35860404026516
                ]
            }
        },
        {
            "type": "Feature",
            "properties": {
                "ref:csioz": 1020655,
                "name": "\"Apteka \"\"Kwiaty Polskie\"\"\"",
                "addr:street": "Plac Wolności",
                "addr:housenumber": "5",
                "addr:city": "Bełchatów",
                "addr:postcode": "97-400",
                "amenity": "pharmacy",
                "dispensing": "yes"
            },
            "geometry": {
                "type": "Point",
                "coordinates": [
                    19.37525543316597,
                    51.36721332104832
                ]
            }
        }
    ]
}