{
    "type": "FeatureCollection",
    "name": "JPT_KOD_JE_1204",
    "features": [
        {
            "type": "Feature",
            "properties": {
                "ref:csioz": 1079322,
                "addr:street": "marsz. Józefa Piłsudskiego",
                "addr:housenumber": "7",
                "addr:city": "Dąbrowa Tarnowska",
                "addr:postcode": "33-200",
                "amenity": "pharmacy"
            },
            "geometry": {
                "type": "Point",
                "coordinates": [
                    20.984903568100503,
                    50.17396924838615
                ]
            }
        },
        {
            "type": "Feature",
            "properties": {
                "ref:csioz": 1079333,
                "name": "Galen",
                "addr:street": "mjr. Henryka Sucharskiego",
                "addr:housenumber": "7",
                "addr:city": "Dąbrowa Tarnowska",
                "addr:postcode": "33-200",
                "amenity": "pharmacy"
            },
            "geometry": {
                "type": "Point",
                "coordinates": [
                    20.98432636748596,
                    50.178595016559605
                ]
            }
        },
        {
            "type": "Feature",
            "properties": {
                "ref:csioz": 1079398,
                "addr:street": "Leśna",
                "addr:housenumber": "10a",
                "addr:city": "Olesno",
                "addr:postcode": "33-210",
                "amenity": "pharmacy"
            },
            "geometry": {
                "type": "Point",
                "coordinates": [
                    20.928052576046912,
                    50.20300645980848
                ]
            }
        },
        {
            "type": "Feature",
            "properties": {
                "ref:csioz": 1079420,
                "addr:street": "Piłsudskiego",
                "addr:housenumber": "5",
                "addr:city": "Szczucin",
                "addr:postcode": "33-230",
                "amenity": "pharmacy"
            },
            "geometry": {
                "type": "Point",
                "coordinates": [
                    21.073208376275147,
                    50.30879558337167
                ]
            }
        },
        {
            "type": "Feature",
            "properties": {
                "ref:csioz": 1079436,
                "name": "Centrum",
                "addr:street": "1 Maja",
                "addr:housenumber": "11",
                "addr:city": "Szczucin",
                "addr:postcode": "33-230",
                "amenity": "pharmacy"
            },
            "geometry": {
                "type": "Point",
                "coordinates": [
                    21.073945968776183,
                    50.30762922125458
                ]
            }
        },
        {
            "type": "Feature",
            "properties": {
                "ref:csioz": 1079311,
                "name": "Panaceum",
                "addr:street": "Kościuszki",
                "addr:housenumber": "9",
                "addr:city": "Dąbrowa Tarnowska",
                "addr:postcode": "33-200",
                "amenity": "pharmacy"
            },
            "geometry": {
                "type": "Point",
                "coordinates": [
                    20.98307791654611,
                    50.17411424371457
                ]
            }
        },
        {
            "type": "Feature",
            "properties": {
                "ref:csioz": 1079404,
                "name": "Centrum",
                "addr:street": "św. Kazimierza",
                "addr:housenumber": "6",
                "addr:city": "Radgoszcz",
                "addr:postcode": "33-207",
                "amenity": "pharmacy"
            },
            "geometry": {
                "type": "Point",
                "coordinates": [
                    21.111003909460273,
                    50.20604182393565
                ]
            }
        },
        {
            "type": "Feature",
            "properties": {
                "ref:csioz": 1079615,
                "addr:street": "św. Kazimierza",
                "addr:housenumber": "3",
                "addr:city": "Radgoszcz",
                "addr:postcode": "33-207",
                "amenity": "pharmacy"
            },
            "geometry": {
                "type": "Point",
                "coordinates": [
                    21.110264886041698,
                    50.20556887969838
                ]
            }
        },
        {
            "type": "Feature",
            "properties": {
                "ref:csioz": 1079750,
                "name": "Zespół Opieki Zdrowotnej W Dąbrowie Tarnowskiej",
                "addr:street": "Szpitalna",
                "addr:housenumber": "1",
                "addr:city": "Dąbrowa Tarnowska",
                "addr:postcode": "33-200",
                "amenity": "pharmacy"
            },
            "geometry": {
                "type": "Point",
                "coordinates": [
                    20.97562766167691,
                    50.17713965012957
                ]
            }
        },
        {
            "type": "Feature",
            "properties": {
                "ref:csioz": 1111677,
                "name": "Dział Farmacji Szpitalnej",
                "addr:street": "św. Brata Alberta Chmielowskiego",
                "addr:housenumber": "16",
                "addr:city": "Dąbrowa Tarnowska",
                "addr:postcode": "33-200",
                "amenity": "pharmacy"
            },
            "geometry": {
                "type": "Point",
                "coordinates": [
                    20.99965474076132,
                    50.17262811899523
                ]
            }
        },
        {
            "type": "Feature",
            "properties": {
                "ref:csioz": 1119278,
                "name": "Apteka Słoneczna",
                "addr:street": "Szpitalna",
                "addr:housenumber": "2",
                "addr:city": "Dąbrowa Tarnowska",
                "addr:postcode": "33-200",
                "amenity": "pharmacy"
            },
            "geometry": {
                "type": "Point",
                "coordinates": [
                    20.975525707324593,
                    50.177897491252324
                ]
            }
        },
        {
            "type": "Feature",
            "properties": {
                "ref:csioz": 1120741,
                "name": "Apfarm Gwarancja Niskich Cen",
                "addr:street": "Rynek",
                "addr:housenumber": "43",
                "addr:city": "Dąbrowa Tarnowska",
                "addr:postcode": "33-200",
                "amenity": "pharmacy"
            },
            "geometry": {
                "type": "Point",
                "coordinates": [
                    20.98575023665096,
                    50.17541137746187
                ]
            }
        },
        {
            "type": "Feature",
            "properties": {
                "ref:csioz": 1121622,
                "name": "Centrum",
                "addr:housenumber": "917",
                "addr:city": "Mędrzechów",
                "addr:postcode": "33-221",
                "amenity": "pharmacy"
            },
            "geometry": {
                "type": "Point",
                "coordinates": [
                    20.96251000000289,
                    50.26756200001289
                ]
            }
        },
        {
            "type": "Feature",
            "properties": {
                "ref:csioz": 1079297,
                "name": "Apteka Codzienna",
                "addr:street": "Rynek",
                "addr:housenumber": "17",
                "addr:city": "Dąbrowa Tarnowska",
                "addr:postcode": "33-200",
                "amenity": "pharmacy"
            },
            "geometry": {
                "type": "Point",
                "coordinates": [
                    20.98546219621901,
                    50.174395106988534
                ]
            }
        },
        {
            "type": "Feature",
            "properties": {
                "ref:csioz": 1181705,
                "name": "Apteka Nova",
                "addr:housenumber": "139",
                "addr:city": "Gręboszów",
                "addr:postcode": "33-260",
                "amenity": "pharmacy"
            },
            "geometry": {
                "type": "Point",
                "coordinates": [
                    20.776227171039164,
                    50.245205194897
                ]
            }
        },
        {
            "type": "Feature",
            "properties": {
                "ref:csioz": 1186634,
                "addr:street": "Szpitalna",
                "addr:housenumber": "1",
                "addr:city": "Dąbrowa Tarnowska",
                "addr:postcode": "33-200",
                "amenity": "pharmacy"
            },
            "geometry": {
                "type": "Point",
                "coordinates": [
                    20.97562766167691,
                    50.17713965012957
                ]
            }
        },
        {
            "type": "Feature",
            "properties": {
                "ref:csioz": 1193592,
                "name": "Witaminka",
                "addr:street": "Mielecka",
                "addr:housenumber": "7",
                "addr:city": "Luszowice",
                "addr:postcode": "33-206",
                "amenity": "pharmacy"
            },
            "geometry": {
                "type": "Point",
                "coordinates": [
                    21.104873722132353,
                    50.14890667004446
                ]
            }
        },
        {
            "type": "Feature",
            "properties": {
                "ref:csioz": 1216037,
                "addr:street": "Jagiellońska",
                "addr:housenumber": "7",
                "addr:city": "Dąbrowa Tarnowska",
                "addr:postcode": "33-200",
                "amenity": "pharmacy"
            },
            "geometry": {
                "type": "Point",
                "coordinates": [
                    20.989362535991244,
                    50.1754951623017
                ]
            }
        },
        {
            "type": "Feature",
            "properties": {
                "ref:csioz": 1079677,
                "name": "Nagietek S.C.",
                "addr:street": "Rynek",
                "addr:housenumber": "16",
                "addr:city": "Szczucin",
                "addr:postcode": "33-230",
                "amenity": "pharmacy"
            },
            "geometry": {
                "type": "Point",
                "coordinates": [
                    21.076115026146784,
                    50.309607351194174
                ]
            }
        },
        {
            "type": "Feature",
            "properties": {
                "ref:csioz": 1171119,
                "name": "Twoja Apteka",
                "addr:street": "Piłsudskiego",
                "addr:housenumber": "15",
                "addr:city": "Szczucin",
                "addr:postcode": "33-230",
                "amenity": "pharmacy"
            },
            "geometry": {
                "type": "Point",
                "coordinates": [
                    21.071998065459237,
                    50.30870955687489
                ]
            }
        },
        {
            "type": "Feature",
            "properties": {
                "ref:csioz": 1079281,
                "name": "Lekoland",
                "addr:street": "Rynek",
                "addr:housenumber": "8",
                "addr:city": "Dąbrowa Tarnowska",
                "addr:postcode": "33-200",
                "amenity": "pharmacy"
            },
            "geometry": {
                "type": "Point",
                "coordinates": [
                    20.985286243221164,
                    50.17458466217922
                ]
            }
        }
    ]
}