{
    "type": "FeatureCollection",
    "name": "JPT_KOD_JE_3003",
    "features": [
        {
            "type": "Feature",
            "properties": {
                "ref:csioz": 1044767,
                "name": "Zdrówko",
                "addr:street": "Tadeusza Kościuszki",
                "addr:housenumber": "73",
                "addr:city": "Żydowo",
                "addr:postcode": "62-241",
                "amenity": "pharmacy",
                "dispensing": "yes"
            },
            "geometry": {
                "type": "Point",
                "coordinates": [
                    17.580747999999115,
                    52.45262900001619
                ]
            }
        },
        {
            "type": "Feature",
            "properties": {
                "ref:csioz": 1045521,
                "name": "Na Dalkach",
                "addr:street": "JABŁONIOWA",
                "addr:housenumber": "23",
                "addr:city": "GNIEZNO",
                "addr:postcode": "62-200",
                "amenity": "pharmacy",
                "dispensing": "yes"
            },
            "geometry": {
                "type": "Point",
                "coordinates": [
                    17.578871190067993,
                    52.51872866990235
                ]
            }
        },
        {
            "type": "Feature",
            "properties": {
                "ref:csioz": 1045734,
                "name": "Słoneczna",
                "addr:street": "Poznańska",
                "addr:housenumber": "2",
                "addr:city": "Czerniejewo",
                "addr:postcode": "62-250",
                "amenity": "pharmacy",
                "dispensing": "yes"
            },
            "geometry": {
                "type": "Point",
                "coordinates": [
                    17.48847958866497,
                    52.42623812874479
                ]
            }
        },
        {
            "type": "Feature",
            "properties": {
                "ref:csioz": 1045964,
                "name": "Ziko Apteka",
                "addr:street": "Adama  Mickiewicza",
                "addr:housenumber": "2",
                "addr:city": "Trzemeszno",
                "addr:postcode": "62-240",
                "amenity": "pharmacy",
                "dispensing": "yes"
            },
            "geometry": {
                "type": "Point",
                "coordinates": [
                    17.819065244762516,
                    52.55882750418817
                ]
            }
        },
        {
            "type": "Feature",
            "properties": {
                "ref:csioz": 1046688,
                "name": "Prima",
                "addr:street": "Bednarski Rynek",
                "addr:housenumber": "1",
                "addr:city": "Gniezno",
                "addr:postcode": "62-200",
                "amenity": "pharmacy",
                "dispensing": "yes"
            },
            "geometry": {
                "type": "Point",
                "coordinates": [
                    17.593763999999133,
                    52.53294000001632
                ]
            }
        },
        {
            "type": "Feature",
            "properties": {
                "ref:csioz": 1047053,
                "name": "Medifarm",
                "addr:street": "Witkowska",
                "addr:housenumber": "23",
                "addr:city": "Gniezno",
                "addr:postcode": "62-200",
                "amenity": "pharmacy",
                "dispensing": "yes"
            },
            "geometry": {
                "type": "Point",
                "coordinates": [
                    17.602128549591036,
                    52.52356658916578
                ]
            }
        },
        {
            "type": "Feature",
            "properties": {
                "ref:csioz": 1047975,
                "addr:street": "Warszawska",
                "addr:housenumber": "2",
                "addr:city": "Witkowo",
                "addr:postcode": "62-425",
                "amenity": "pharmacy",
                "dispensing": "yes"
            },
            "geometry": {
                "type": "Point",
                "coordinates": [
                    17.773775572428587,
                    52.43973658048379
                ]
            }
        },
        {
            "type": "Feature",
            "properties": {
                "ref:csioz": 1047988,
                "addr:street": "Poznańska",
                "addr:housenumber": "18",
                "addr:city": "Witkowo",
                "addr:postcode": "62-230",
                "amenity": "pharmacy",
                "dispensing": "yes"
            },
            "geometry": {
                "type": "Point",
                "coordinates": [
                    17.772922965899046,
                    52.43865053475601
                ]
            }
        },
        {
            "type": "Feature",
            "properties": {
                "ref:csioz": 1050509,
                "name": "Doz Apteka.Dbam O Zdrowie",
                "addr:street": "Orcholska",
                "addr:housenumber": "41",
                "addr:city": "Gniezno",
                "addr:postcode": "62-200",
                "amenity": "pharmacy",
                "dispensing": "yes"
            },
            "geometry": {
                "type": "Point",
                "coordinates": [
                    17.616432356126147,
                    52.553133937639025
                ]
            }
        },
        {
            "type": "Feature",
            "properties": {
                "ref:csioz": 1050514,
                "name": "Vita-Pharm",
                "addr:street": "Pałucka",
                "addr:housenumber": "2",
                "addr:city": "Gniezno",
                "addr:postcode": "62-200",
                "amenity": "pharmacy",
                "dispensing": "yes"
            },
            "geometry": {
                "type": "Point",
                "coordinates": [
                    17.61252083441894,
                    52.56073648868077
                ]
            }
        },
        {
            "type": "Feature",
            "properties": {
                "ref:csioz": 1050523,
                "name": "Arnica",
                "addr:street": "CZARNIECKIEGO",
                "addr:housenumber": "1F",
                "addr:city": "GNIEZNO",
                "addr:postcode": "62-200",
                "amenity": "pharmacy",
                "dispensing": "yes"
            },
            "geometry": {
                "type": "Point",
                "coordinates": [
                    17.580225620655487,
                    52.53539012859712
                ]
            }
        },
        {
            "type": "Feature",
            "properties": {
                "ref:csioz": 1050787,
                "name": "Jagiellońska",
                "addr:street": "JAGIELLOŃSKIE",
                "addr:housenumber": "45",
                "addr:city": "GNIEZNO",
                "addr:postcode": "62-200",
                "amenity": "pharmacy",
                "dispensing": "yes"
            },
            "geometry": {
                "type": "Point",
                "coordinates": [
                    17.605702999999153,
                    52.549894000016344
                ]
            }
        },
        {
            "type": "Feature",
            "properties": {
                "ref:csioz": 1055502,
                "name": "Św.Mikołaja",
                "addr:housenumber": "13B",
                "addr:postcode": "62-260",
                "amenity": "pharmacy",
                "addr:place": "Łubowo",
                "dispensing": "yes"
            },
            "geometry": {
                "type": "Point",
                "coordinates": [
                    17.459133719317148,
                    52.51260660613654
                ]
            }
        },
        {
            "type": "Feature",
            "properties": {
                "ref:csioz": 1055680,
                "name": "Św. Wawrzyńca",
                "addr:street": "Bednarski",
                "addr:housenumber": "2",
                "addr:city": "Gniezno",
                "addr:postcode": "62-200",
                "amenity": "pharmacy",
                "dispensing": "yes"
            },
            "geometry": {
                "type": "Point",
                "coordinates": [
                    17.59338399999913,
                    52.533088000016306
                ]
            }
        },
        {
            "type": "Feature",
            "properties": {
                "ref:csioz": 1123444,
                "name": "Przy Przychodni",
                "addr:housenumber": "2D",
                "addr:postcode": "62-260",
                "amenity": "pharmacy",
                "addr:place": "Łubowo",
                "dispensing": "yes"
            },
            "geometry": {
                "type": "Point",
                "coordinates": [
                    17.459437378201045,
                    52.51498472445679
                ]
            }
        },
        {
            "type": "Feature",
            "properties": {
                "ref:csioz": 1186946,
                "name": "Vita - Pharm",
                "addr:street": "Franklina Roosevelta",
                "addr:housenumber": "83",
                "addr:city": "Gniezno",
                "addr:postcode": "62-200",
                "amenity": "pharmacy",
                "dispensing": "yes"
            },
            "geometry": {
                "type": "Point",
                "coordinates": [
                    17.62398649774821,
                    52.54249041521399
                ]
            }
        },
        {
            "type": "Feature",
            "properties": {
                "ref:csioz": 1190712,
                "name": "Centrum",
                "addr:street": "Bolesława Chrobrego",
                "addr:housenumber": "33",
                "addr:city": "Gniezno",
                "addr:postcode": "62-200",
                "amenity": "pharmacy",
                "dispensing": "yes"
            },
            "geometry": {
                "type": "Point",
                "coordinates": [
                    17.601158205761926,
                    52.53386379084438
                ]
            }
        },
        {
            "type": "Feature",
            "properties": {
                "ref:csioz": 1207897,
                "name": "Prima",
                "addr:street": "Jana Pawła II",
                "addr:housenumber": "1A",
                "addr:city": "Witkowo",
                "addr:postcode": "62-230",
                "amenity": "pharmacy",
                "dispensing": "yes"
            },
            "geometry": {
                "type": "Point",
                "coordinates": [
                    17.769784703012345,
                    52.43942073947187
                ]
            }
        },
        {
            "type": "Feature",
            "properties": {
                "ref:csioz": 1216904,
                "name": "Twoja Apteka",
                "addr:street": "ul. Podkomorska",
                "addr:housenumber": "4",
                "addr:city": "Gniezno",
                "addr:postcode": "62-200",
                "amenity": "pharmacy",
                "dispensing": "yes"
            },
            "geometry": {
                "type": "Point",
                "coordinates": [
                    17.62899266591761,
                    52.54241981079517
                ]
            }
        },
        {
            "type": "Feature",
            "properties": {
                "ref:csioz": 1230843,
                "addr:street": "Orzeszkowej Elizy",
                "addr:housenumber": "20b",
                "addr:city": "Gniezno",
                "addr:postcode": "62-200",
                "amenity": "pharmacy",
                "dispensing": "yes"
            },
            "geometry": {
                "type": "Point",
                "coordinates": [
                    17.571654038027518,
                    52.53016272918737
                ]
            }
        },
        {
            "type": "Feature",
            "properties": {
                "ref:csioz": 1044432,
                "addr:street": "ŚW. JANA",
                "addr:housenumber": "9",
                "addr:city": "GNIEZNO",
                "addr:postcode": "62-200",
                "amenity": "pharmacy",
                "dispensing": "yes"
            },
            "geometry": {
                "type": "Point",
                "coordinates": [
                    17.597333999999144,
                    52.53839600001632
                ]
            }
        },
        {
            "type": "Feature",
            "properties": {
                "ref:csioz": 1044441,
                "addr:street": "POZNAŃSKA",
                "addr:housenumber": "15",
                "addr:city": "GNIEZNO",
                "addr:postcode": "62-200",
                "amenity": "pharmacy",
                "dispensing": "yes"
            },
            "geometry": {
                "type": "Point",
                "coordinates": [
                    17.577181701733966,
                    52.53325339867476
                ]
            }
        },
        {
            "type": "Feature",
            "properties": {
                "ref:csioz": 1044826,
                "name": "Libra",
                "addr:housenumber": "11",
                "addr:postcode": "62-212",
                "amenity": "pharmacy",
                "addr:place": "Mieleszyn",
                "dispensing": "yes"
            },
            "geometry": {
                "type": "Point",
                "coordinates": [
                    17.50713203837729,
                    52.66620240826481
                ]
            }
        },
        {
            "type": "Feature",
            "properties": {
                "ref:csioz": 1045058,
                "name": "Różana",
                "addr:street": "RÓŻANA",
                "addr:housenumber": "49",
                "addr:city": "NIECHANOWO",
                "addr:postcode": "62-220",
                "amenity": "pharmacy",
                "dispensing": "yes"
            },
            "geometry": {
                "type": "Point",
                "coordinates": [
                    17.6803837764499,
                    52.46367628145011
                ]
            }
        },
        {
            "type": "Feature",
            "properties": {
                "ref:csioz": 1045063,
                "name": "Przy Biedronce",
                "addr:street": "ARMII POZNAŃ",
                "addr:housenumber": "5",
                "addr:city": "KŁECKO",
                "addr:postcode": "62-270",
                "amenity": "pharmacy",
                "dispensing": "yes"
            },
            "geometry": {
                "type": "Point",
                "coordinates": [
                    17.429017999998806,
                    52.62983000001646
                ]
            }
        },
        {
            "type": "Feature",
            "properties": {
                "ref:csioz": 1045096,
                "name": "Na Cymsa",
                "addr:street": "Pawła  Cymsa",
                "addr:housenumber": "16",
                "addr:city": "Gniezno",
                "addr:postcode": "62-200",
                "amenity": "pharmacy",
                "dispensing": "yes"
            },
            "geometry": {
                "type": "Point",
                "coordinates": [
                    17.600204332679297,
                    52.518568250514264
                ]
            }
        },
        {
            "type": "Feature",
            "properties": {
                "ref:csioz": 1046421,
                "name": "Św. Jana Chrzciciela",
                "addr:street": "Dworcowa",
                "addr:housenumber": "20",
                "addr:city": "Kiszkowo",
                "addr:postcode": "62-280",
                "amenity": "pharmacy",
                "dispensing": "yes"
            },
            "geometry": {
                "type": "Point",
                "coordinates": [
                    17.257159757986663,
                    52.59017428093393
                ]
            }
        },
        {
            "type": "Feature",
            "properties": {
                "ref:csioz": 1046972,
                "name": "Apteka W Ziemowicie",
                "addr:street": "Franklina Roosevelta",
                "addr:housenumber": "92",
                "addr:city": "Gniezno",
                "addr:postcode": "62-200",
                "amenity": "pharmacy",
                "dispensing": "yes"
            },
            "geometry": {
                "type": "Point",
                "coordinates": [
                    17.619798409081962,
                    52.539715811469875
                ]
            }
        },
        {
            "type": "Feature",
            "properties": {
                "ref:csioz": 1047720,
                "name": "Przy Jasnej",
                "addr:street": "Jasna",
                "addr:housenumber": "5",
                "addr:city": "Gniezno",
                "addr:postcode": "62-200",
                "amenity": "pharmacy",
                "dispensing": "yes"
            },
            "geometry": {
                "type": "Point",
                "coordinates": [
                    17.606251206674216,
                    52.53781178271213
                ]
            }
        },
        {
            "type": "Feature",
            "properties": {
                "ref:csioz": 1050376,
                "name": "Mega-Pharm",
                "addr:street": "Jeziorna",
                "addr:housenumber": "13A",
                "addr:city": "Gniezno",
                "addr:postcode": "62-200",
                "amenity": "pharmacy",
                "dispensing": "yes"
            },
            "geometry": {
                "type": "Point",
                "coordinates": [
                    17.592044488863966,
                    52.533392653038106
                ]
            }
        },
        {
            "type": "Feature",
            "properties": {
                "ref:csioz": 1050453,
                "name": "Piastowska",
                "addr:street": "ROOSEVELTA",
                "addr:housenumber": "69",
                "addr:city": "GNIEZNO",
                "addr:postcode": "62-200",
                "amenity": "pharmacy",
                "dispensing": "yes"
            },
            "geometry": {
                "type": "Point",
                "coordinates": [
                    17.62036199999918,
                    52.54031900001631
                ]
            }
        },
        {
            "type": "Feature",
            "properties": {
                "ref:csioz": 1050658,
                "name": "Rodzinna",
                "addr:street": "JANA PAWŁA II",
                "addr:housenumber": "23A",
                "addr:city": "WITKOWO",
                "addr:postcode": "62-230",
                "amenity": "pharmacy",
                "dispensing": "yes"
            },
            "geometry": {
                "type": "Point",
                "coordinates": [
                    17.771734253974266,
                    52.43703791007897
                ]
            }
        },
        {
            "type": "Feature",
            "properties": {
                "ref:csioz": 1050983,
                "name": "Aspirynka",
                "addr:street": "PIASTOWSKA",
                "addr:housenumber": "2",
                "addr:city": "TRZEMESZNO",
                "addr:postcode": "62-240",
                "amenity": "pharmacy",
                "dispensing": "yes"
            },
            "geometry": {
                "type": "Point",
                "coordinates": [
                    17.829223419681338,
                    52.56323498739532
                ]
            }
        },
        {
            "type": "Feature",
            "properties": {
                "ref:csioz": 1051353,
                "name": "Natura",
                "addr:street": "Miechowa",
                "addr:housenumber": "4",
                "addr:city": "CZERNIEJEWO",
                "addr:postcode": "62-250",
                "amenity": "pharmacy",
                "dispensing": "yes"
            },
            "geometry": {
                "type": "Point",
                "coordinates": [
                    17.49373266949334,
                    52.42684319903847
                ]
            }
        },
        {
            "type": "Feature",
            "properties": {
                "ref:csioz": 1055255,
                "addr:street": "SŁONECZNA",
                "addr:housenumber": "27",
                "addr:city": "KŁECKO",
                "addr:postcode": "62-270",
                "amenity": "pharmacy",
                "dispensing": "yes"
            },
            "geometry": {
                "type": "Point",
                "coordinates": [
                    17.428186521943207,
                    52.63070382928252
                ]
            }
        },
        {
            "type": "Feature",
            "properties": {
                "ref:csioz": 1055335,
                "name": "Przy Farze",
                "addr:street": "Warszawska",
                "addr:housenumber": "40",
                "addr:city": "Gniezno",
                "addr:postcode": "62-200",
                "amenity": "pharmacy",
                "dispensing": "yes"
            },
            "geometry": {
                "type": "Point",
                "coordinates": [
                    17.59546644257415,
                    52.53456236128701
                ]
            }
        },
        {
            "type": "Feature",
            "properties": {
                "ref:csioz": 1055566,
                "name": "Apteka 3 Maja",
                "addr:street": "3 Maja",
                "addr:housenumber": "33",
                "addr:city": "Gniezno",
                "addr:postcode": "62-200",
                "amenity": "pharmacy",
                "dispensing": "yes"
            },
            "geometry": {
                "type": "Point",
                "coordinates": [
                    17.600276999999146,
                    52.53995000001633
                ]
            }
        },
        {
            "type": "Feature",
            "properties": {
                "ref:csioz": 1055760,
                "name": "Na Lecha",
                "addr:street": "Lecha",
                "addr:housenumber": "14",
                "addr:city": "Gniezno",
                "addr:postcode": "62-200",
                "amenity": "pharmacy",
                "dispensing": "yes"
            },
            "geometry": {
                "type": "Point",
                "coordinates": [
                    17.602685328896968,
                    52.5329407470824
                ]
            }
        },
        {
            "type": "Feature",
            "properties": {
                "ref:csioz": 1055806,
                "name": "Apteka Dbam O Zdrowie",
                "addr:street": "ks. Prym. Macieja Łubieńskiego",
                "addr:housenumber": "8",
                "addr:city": "Gniezno",
                "addr:postcode": "62-200",
                "amenity": "pharmacy",
                "dispensing": "yes"
            },
            "geometry": {
                "type": "Point",
                "coordinates": [
                    17.59979367255591,
                    52.53494972300031
                ]
            }
        },
        {
            "type": "Feature",
            "properties": {
                "ref:csioz": 1055948,
                "name": "Apteka Dbam O Zdrowie",
                "addr:street": "Jana Kilińskiego",
                "addr:housenumber": "5",
                "addr:city": "Trzemeszno",
                "addr:postcode": "62-240",
                "amenity": "pharmacy",
                "dispensing": "yes"
            },
            "geometry": {
                "type": "Point",
                "coordinates": [
                    17.821467486447442,
                    52.56137876868209
                ]
            }
        },
        {
            "type": "Feature",
            "properties": {
                "ref:csioz": 1123490,
                "name": "Piastowska 2",
                "addr:street": "ks. Stanisława Staszica",
                "addr:housenumber": "21",
                "addr:city": "Gniezno",
                "addr:postcode": "62-200",
                "amenity": "pharmacy",
                "dispensing": "yes"
            },
            "geometry": {
                "type": "Point",
                "coordinates": [
                    17.616943627364382,
                    52.54384720075086
                ]
            }
        },
        {
            "type": "Feature",
            "properties": {
                "ref:csioz": 1123337,
                "name": "Panaceum",
                "addr:street": "JAGIELLOŃSKIE",
                "addr:housenumber": "29",
                "addr:city": "GNIEZNO",
                "addr:postcode": "62-200",
                "amenity": "pharmacy",
                "dispensing": "yes"
            },
            "geometry": {
                "type": "Point",
                "coordinates": [
                    17.60729199999915,
                    52.55158500001634
                ]
            }
        },
        {
            "type": "Feature",
            "properties": {
                "ref:csioz": 1124149,
                "name": "Słoneczna",
                "addr:street": "św. Ducha",
                "addr:housenumber": "5",
                "addr:city": "Trzemeszno",
                "addr:postcode": "62-240",
                "amenity": "pharmacy",
                "dispensing": "yes"
            },
            "geometry": {
                "type": "Point",
                "coordinates": [
                    17.82210382841168,
                    52.55985083220905
                ]
            }
        },
        {
            "type": "Feature",
            "properties": {
                "ref:csioz": 1123848,
                "name": "Nasza",
                "addr:street": "Wrzesińska",
                "addr:housenumber": "28",
                "addr:city": "Gniezno",
                "addr:postcode": "62-200",
                "amenity": "pharmacy",
                "dispensing": "yes"
            },
            "geometry": {
                "type": "Point",
                "coordinates": [
                    17.596422542026062,
                    52.52365356023496
                ]
            }
        },
        {
            "type": "Feature",
            "properties": {
                "ref:csioz": 1123885,
                "name": "Optima",
                "addr:street": "KAWIARY",
                "addr:housenumber": "25",
                "addr:city": "GNIEZNO",
                "addr:postcode": "62-200",
                "amenity": "pharmacy",
                "dispensing": "yes"
            },
            "geometry": {
                "type": "Point",
                "coordinates": [
                    17.613019136701077,
                    52.52184278016123
                ]
            }
        },
        {
            "type": "Feature",
            "properties": {
                "ref:csioz": 1186110,
                "name": "Dom Leków",
                "addr:street": "Franklina Roosevelta",
                "addr:housenumber": "46",
                "addr:city": "Gniezno",
                "addr:postcode": "62-200",
                "amenity": "pharmacy",
                "dispensing": "yes"
            },
            "geometry": {
                "type": "Point",
                "coordinates": [
                    17.61064570172805,
                    52.53767925784048
                ]
            }
        },
        {
            "type": "Feature",
            "properties": {
                "ref:csioz": 1186129,
                "name": "Dom Leków",
                "addr:street": "Mieszka I",
                "addr:housenumber": "22",
                "addr:city": "Gniezno",
                "addr:postcode": "62-200",
                "amenity": "pharmacy",
                "dispensing": "yes"
            },
            "geometry": {
                "type": "Point",
                "coordinates": [
                    17.598162909175016,
                    52.53426984708812
                ]
            }
        },
        {
            "type": "Feature",
            "properties": {
                "ref:csioz": 1189580,
                "name": "Medkon",
                "addr:street": "Dworcowa",
                "addr:housenumber": "9A",
                "addr:city": "Gniezno",
                "addr:postcode": "62-200",
                "amenity": "pharmacy",
                "dispensing": "yes"
            },
            "geometry": {
                "type": "Point",
                "coordinates": [
                    17.60211999999915,
                    52.53010700001629
                ]
            }
        },
        {
            "type": "Feature",
            "properties": {
                "ref:csioz": 1189711,
                "name": "Starfarma",
                "addr:street": "Stanisława Moniuszki",
                "addr:housenumber": "1",
                "addr:city": "Gniezno",
                "addr:postcode": "62-200",
                "amenity": "pharmacy",
                "dispensing": "yes"
            },
            "geometry": {
                "type": "Point",
                "coordinates": [
                    17.59771499999914,
                    52.53377800001632
                ]
            }
        },
        {
            "type": "Feature",
            "properties": {
                "ref:csioz": 1191099,
                "name": "Nasza",
                "addr:street": "Pustachowska",
                "addr:housenumber": "1",
                "addr:city": "Gniezno",
                "addr:postcode": "62-200",
                "amenity": "pharmacy",
                "dispensing": "yes"
            },
            "geometry": {
                "type": "Point",
                "coordinates": [
                    17.59394490130584,
                    52.50709792703591
                ]
            }
        },
        {
            "type": "Feature",
            "properties": {
                "ref:csioz": 1191605,
                "addr:street": "Szkolna",
                "addr:housenumber": "24",
                "addr:city": "Kiszkowo",
                "addr:postcode": "62-280",
                "amenity": "pharmacy",
                "dispensing": "yes"
            },
            "geometry": {
                "type": "Point",
                "coordinates": [
                    17.254617999998327,
                    52.590356000016406
                ]
            }
        },
        {
            "type": "Feature",
            "properties": {
                "ref:csioz": 1208360,
                "addr:street": "Witkowska",
                "addr:housenumber": "53",
                "addr:city": "Gniezno",
                "addr:postcode": "62-200",
                "amenity": "pharmacy",
                "dispensing": "yes"
            },
            "geometry": {
                "type": "Point",
                "coordinates": [
                    17.605343772000154,
                    52.52130424488307
                ]
            }
        },
        {
            "type": "Feature",
            "properties": {
                "ref:csioz": 1209027,
                "name": "Apteka Społeczna Na Warszawskiej Grupa Nowa Farmacja",
                "addr:street": "Warszawska",
                "addr:housenumber": "12",
                "addr:city": "Gniezno",
                "addr:postcode": "62-200",
                "amenity": "pharmacy",
                "dispensing": "yes"
            },
            "geometry": {
                "type": "Point",
                "coordinates": [
                    17.59723874967946,
                    52.53321591297725
                ]
            }
        },
        {
            "type": "Feature",
            "properties": {
                "ref:csioz": 1209573,
                "name": "Przy Wolności",
                "addr:street": "Wiosny Ludów",
                "addr:housenumber": "34",
                "addr:city": "Gniezno",
                "addr:postcode": "62-200",
                "amenity": "pharmacy",
                "dispensing": "yes"
            },
            "geometry": {
                "type": "Point",
                "coordinates": [
                    17.612851804275852,
                    52.51346458959044
                ]
            }
        },
        {
            "type": "Feature",
            "properties": {
                "ref:csioz": 1210584,
                "name": "Mega-Pharm",
                "addr:street": "22 Stycznia 1863 r.",
                "addr:housenumber": "2",
                "addr:city": "Trzemeszno",
                "addr:postcode": "62-240",
                "amenity": "pharmacy",
                "dispensing": "yes"
            },
            "geometry": {
                "type": "Point",
                "coordinates": [
                    17.82562950389702,
                    52.56328254577347
                ]
            }
        },
        {
            "type": "Feature",
            "properties": {
                "ref:csioz": 1211876,
                "name": "Mega-Pharm",
                "addr:street": "Czerniejewska",
                "addr:housenumber": "5",
                "addr:city": "Witkowo",
                "addr:postcode": "62-230",
                "amenity": "pharmacy",
                "dispensing": "yes"
            },
            "geometry": {
                "type": "Point",
                "coordinates": [
                    17.767642507862785,
                    52.43974823251582
                ]
            }
        },
        {
            "type": "Feature",
            "properties": {
                "ref:csioz": 1212424,
                "name": "Tysiąclecia",
                "addr:street": "ks. Stanisława Staszica",
                "addr:housenumber": "12 A",
                "addr:city": "Gniezno",
                "addr:postcode": "62-200",
                "amenity": "pharmacy",
                "dispensing": "yes"
            },
            "geometry": {
                "type": "Point",
                "coordinates": [
                    17.617691576030506,
                    52.54118342779588
                ]
            }
        },
        {
            "type": "Feature",
            "properties": {
                "ref:csioz": 1213605,
                "name": "Apteka Gemini",
                "addr:street": "Mieszka I",
                "addr:housenumber": "16-18",
                "addr:city": "Gniezno",
                "addr:postcode": "62-200",
                "amenity": "pharmacy",
                "dispensing": "yes"
            },
            "geometry": {
                "type": "Point",
                "coordinates": [
                    17.59809925564406,
                    52.534981017874124
                ]
            }
        },
        {
            "type": "Feature",
            "properties": {
                "ref:csioz": 1214303,
                "name": "Apteka Remedium",
                "addr:street": "ul. Franklina Roosevelta",
                "addr:housenumber": "76",
                "addr:city": "Gniezno",
                "addr:postcode": "62-200",
                "amenity": "pharmacy",
                "dispensing": "yes"
            },
            "geometry": {
                "type": "Point",
                "coordinates": [
                    17.616501911836153,
                    52.53932675786305
                ]
            }
        },
        {
            "type": "Feature",
            "properties": {
                "ref:csioz": 1222047,
                "name": "Farm-Alfa",
                "addr:street": "Jana III Sobieskiego",
                "addr:housenumber": "17",
                "addr:city": "Gniezno",
                "addr:postcode": "62-200",
                "amenity": "pharmacy",
                "dispensing": "yes"
            },
            "geometry": {
                "type": "Point",
                "coordinates": [
                    17.606843272790076,
                    52.53666487963247
                ]
            }
        },
        {
            "type": "Feature",
            "properties": {
                "ref:csioz": 1224617,
                "name": "Verbena",
                "addr:street": "Gnieźnieńska",
                "addr:housenumber": "7",
                "addr:city": "Niechanowo",
                "addr:postcode": "62-220",
                "amenity": "pharmacy",
                "dispensing": "yes"
            },
            "geometry": {
                "type": "Point",
                "coordinates": [
                    17.690108999999275,
                    52.468423000016216
                ]
            }
        },
        {
            "type": "Feature",
            "properties": {
                "ref:csioz": 1227264,
                "addr:street": "Witkowska",
                "addr:housenumber": "1",
                "addr:city": "Gniezno",
                "addr:postcode": "62-200",
                "amenity": "pharmacy",
                "dispensing": "yes"
            },
            "geometry": {
                "type": "Point",
                "coordinates": [
                    17.598673541597982,
                    52.52659896184118
                ]
            }
        },
        {
            "type": "Feature",
            "properties": {
                "ref:csioz": 1044852,
                "name": "\"Apteka \"\"Kosmy I Damiana\"\"\"",
                "addr:street": "Władysława Łokietka",
                "addr:housenumber": "25K",
                "addr:city": "Gniezno",
                "addr:postcode": "62-200",
                "amenity": "pharmacy",
                "dispensing": "yes"
            },
            "geometry": {
                "type": "Point",
                "coordinates": [
                    17.60243363362372,
                    52.548552240496946
                ]
            }
        }
    ]
}