{
    "type": "FeatureCollection",
    "name": "JPT_KOD_JE_3263",
    "features": [
        {
            "type": "Feature",
            "properties": {
                "ref:csioz": 1136280,
                "name": "Centrum Zdrowia - 24H",
                "addr:street": "Grunwaldzka",
                "addr:housenumber": "21",
                "addr:city": "Świnoujście",
                "addr:postcode": "72-600",
                "amenity": "pharmacy",
                "dispensing": "yes"
            },
            "geometry": {
                "type": "Point",
                "coordinates": [
                    14.241792067124052,
                    53.90515187870435
                ]
            }
        },
        {
            "type": "Feature",
            "properties": {
                "ref:csioz": 1136329,
                "name": "\"Centrum Rehabilitacji Rolników Kasy Rolniczego Ubezpieczenia Społecznego \"\"Sasanka\"\"\"",
                "addr:street": "Marii Konopnickiej",
                "addr:housenumber": "17",
                "addr:city": "Świnoujście",
                "addr:postcode": "72-600",
                "amenity": "pharmacy",
                "dispensing": "yes"
            },
            "geometry": {
                "type": "Point",
                "coordinates": [
                    14.239208934466278,
                    53.92116536895647
                ]
            }
        },
        {
            "type": "Feature",
            "properties": {
                "ref:csioz": 1151643,
                "name": "\"Apteka Cef@Rm 36,6\"",
                "addr:street": "Konstytucji 3 Maja",
                "addr:housenumber": "10",
                "addr:city": "Świnoujście",
                "addr:postcode": "72-600",
                "amenity": "pharmacy",
                "dispensing": "yes"
            },
            "geometry": {
                "type": "Point",
                "coordinates": [
                    14.244580056081421,
                    53.9102651181669
                ]
            }
        },
        {
            "type": "Feature",
            "properties": {
                "ref:csioz": 1152091,
                "name": "Eskulap",
                "addr:street": "Jarosława Dąbrowskiego",
                "addr:housenumber": "4",
                "addr:city": "Świnoujście",
                "addr:postcode": "72-600",
                "amenity": "pharmacy",
                "dispensing": "yes"
            },
            "geometry": {
                "type": "Point",
                "coordinates": [
                    14.247383715533692,
                    53.90982313984418
                ]
            }
        },
        {
            "type": "Feature",
            "properties": {
                "ref:csioz": 1152123,
                "name": "Arnika",
                "addr:street": "Władysława Sikorskiego",
                "addr:housenumber": "2",
                "addr:city": "Świnoujście",
                "addr:postcode": "72-600",
                "amenity": "pharmacy",
                "dispensing": "yes"
            },
            "geometry": {
                "type": "Point",
                "coordinates": [
                    14.254947999886205,
                    53.91208000002355
                ]
            }
        },
        {
            "type": "Feature",
            "properties": {
                "ref:csioz": 1166070,
                "name": "Centrum Zdrowia",
                "addr:street": "Fińska",
                "addr:housenumber": "4",
                "addr:city": "Świnoujście",
                "addr:postcode": "72-602",
                "amenity": "pharmacy",
                "dispensing": "yes"
            },
            "geometry": {
                "type": "Point",
                "coordinates": [
                    14.269300605825356,
                    53.90260292560572
                ]
            }
        },
        {
            "type": "Feature",
            "properties": {
                "ref:csioz": 1168118,
                "name": "\"Apteka Cef@Rm 36,6 \"",
                "addr:street": "Słowiański",
                "addr:housenumber": "5-5a",
                "addr:city": "Świnoujście",
                "addr:postcode": "72-600",
                "amenity": "pharmacy",
                "dispensing": "yes"
            },
            "geometry": {
                "type": "Point",
                "coordinates": [
                    14.24981981460426,
                    53.90802024403191
                ]
            }
        },
        {
            "type": "Feature",
            "properties": {
                "ref:csioz": 1168500,
                "name": "Zdrowie",
                "addr:street": "Słowiański",
                "addr:housenumber": "14",
                "addr:city": "Świnoujście",
                "addr:postcode": "72-600",
                "amenity": "pharmacy",
                "dispensing": "yes"
            },
            "geometry": {
                "type": "Point",
                "coordinates": [
                    14.25020418546951,
                    53.908660625842174
                ]
            }
        },
        {
            "type": "Feature",
            "properties": {
                "ref:csioz": 1188260,
                "name": "Apteka Przy Promenadzie",
                "addr:street": "Stefana Żeromskiego",
                "addr:housenumber": "5",
                "addr:city": "Świnoujście",
                "addr:postcode": "72-600",
                "amenity": "pharmacy",
                "dispensing": "yes"
            },
            "geometry": {
                "type": "Point",
                "coordinates": [
                    14.250105536680897,
                    53.91979878285801
                ]
            }
        },
        {
            "type": "Feature",
            "properties": {
                "ref:csioz": 1213937,
                "name": "Dr.Max",
                "addr:street": "Armii Krajowej",
                "addr:housenumber": "9",
                "addr:city": "Świnoujście",
                "addr:postcode": "72-600",
                "amenity": "pharmacy",
                "dispensing": "yes"
            },
            "geometry": {
                "type": "Point",
                "coordinates": [
                    14.251871779324315,
                    53.90823964035242
                ]
            }
        },
        {
            "type": "Feature",
            "properties": {
                "ref:csioz": 1137602,
                "name": "Dział Farmacji Szpitalnej Samodzielnego Publicznego Zakładu Opieki Zdrowotnej Zakład Pielęgnacyjno-Opiekuńczy W Świnoujściu",
                "addr:street": "Stefana Żeromskiego",
                "addr:housenumber": "21",
                "addr:city": "Świnoujście",
                "addr:postcode": "72-600",
                "amenity": "pharmacy",
                "dispensing": "yes"
            },
            "geometry": {
                "type": "Point",
                "coordinates": [
                    14.242954321673679,
                    53.9210802565983
                ]
            }
        },
        {
            "type": "Feature",
            "properties": {
                "ref:csioz": 1147363,
                "name": "Szpital Miejski Im. Jana Garduły W Świnoujściu Spółka Z Ograniczoną Odpowiedzialnoscią",
                "addr:street": "Mieszka I",
                "addr:housenumber": "7",
                "addr:city": "Świnoujście",
                "addr:postcode": "72-600",
                "amenity": "pharmacy",
                "dispensing": "yes"
            },
            "geometry": {
                "type": "Point",
                "coordinates": [
                    14.25848241900248,
                    53.910022968638565
                ]
            }
        },
        {
            "type": "Feature",
            "properties": {
                "ref:csioz": 1167368,
                "name": "Rodzinna",
                "addr:street": "Bolesława Chrobrego",
                "addr:housenumber": "16",
                "addr:city": "Świnoujście",
                "addr:postcode": "72-600",
                "amenity": "pharmacy",
                "dispensing": "yes"
            },
            "geometry": {
                "type": "Point",
                "coordinates": [
                    14.25456120659493,
                    53.90934107255988
                ]
            }
        },
        {
            "type": "Feature",
            "properties": {
                "ref:csioz": 1167580,
                "name": "Familijna",
                "addr:street": "Grunwaldzka",
                "addr:housenumber": "97b",
                "addr:city": "Świnoujście",
                "addr:postcode": "72-600",
                "amenity": "pharmacy",
                "dispensing": "yes"
            },
            "geometry": {
                "type": "Point",
                "coordinates": [
                    14.246515158075724,
                    53.907289018622805
                ]
            }
        },
        {
            "type": "Feature",
            "properties": {
                "ref:csioz": 1168001,
                "name": "Pod Rumiankiem",
                "addr:street": "Juliana Markiewicza",
                "addr:housenumber": "4",
                "addr:city": "Świnoujście",
                "addr:postcode": "72-600",
                "amenity": "pharmacy",
                "dispensing": "yes"
            },
            "geometry": {
                "type": "Point",
                "coordinates": [
                    14.229801343956234,
                    53.90049725758976
                ]
            }
        },
        {
            "type": "Feature",
            "properties": {
                "ref:csioz": 1168025,
                "name": "Dbam O Zdrowie",
                "addr:street": "Kapitańska",
                "addr:housenumber": "8a",
                "addr:city": "Świnoujście",
                "addr:postcode": "72-600",
                "amenity": "pharmacy",
                "dispensing": "yes"
            },
            "geometry": {
                "type": "Point",
                "coordinates": [
                    14.260680713052064,
                    53.91596564432562
                ]
            }
        },
        {
            "type": "Feature",
            "properties": {
                "ref:csioz": 1168058,
                "name": "Morska",
                "addr:street": "Bohaterów Września",
                "addr:housenumber": "81-82",
                "addr:city": "Świnoujście",
                "addr:postcode": "72-600",
                "amenity": "pharmacy",
                "dispensing": "yes"
            },
            "geometry": {
                "type": "Point",
                "coordinates": [
                    14.250140982663963,
                    53.909307655267355
                ]
            }
        },
        {
            "type": "Feature",
            "properties": {
                "ref:csioz": 1169209,
                "name": "Pod Kasztanami",
                "addr:street": "Warszawska",
                "addr:housenumber": "29",
                "addr:city": "Świnoujście",
                "addr:postcode": "72-600",
                "amenity": "pharmacy",
                "dispensing": "yes"
            },
            "geometry": {
                "type": "Point",
                "coordinates": [
                    14.233172027512175,
                    53.907141872777736
                ]
            }
        },
        {
            "type": "Feature",
            "properties": {
                "ref:csioz": 1171490,
                "name": "Apteka Bursztynowa",
                "addr:street": "Powstańców Śląskich",
                "addr:housenumber": "8",
                "addr:city": "Świnoujście",
                "addr:postcode": "72-600",
                "amenity": "pharmacy",
                "dispensing": "yes"
            },
            "geometry": {
                "type": "Point",
                "coordinates": [
                    14.344722814697198,
                    53.8856595051478
                ]
            }
        },
        {
            "type": "Feature",
            "properties": {
                "ref:csioz": 1182968,
                "name": "Prima",
                "addr:street": "Grunwaldzka",
                "addr:housenumber": "21",
                "addr:city": "Świnoujście",
                "addr:postcode": "72-600",
                "amenity": "pharmacy",
                "dispensing": "yes"
            },
            "geometry": {
                "type": "Point",
                "coordinates": [
                    14.241792067124052,
                    53.90512187870435
                ]
            }
        },
        {
            "type": "Feature",
            "properties": {
                "ref:csioz": 1192330,
                "name": "Apteka W Galerii",
                "addr:street": "Jarosława Dąbrowskiego",
                "addr:housenumber": "5",
                "addr:city": "Świnoujście",
                "addr:postcode": "72-600",
                "amenity": "pharmacy",
                "dispensing": "yes"
            },
            "geometry": {
                "type": "Point",
                "coordinates": [
                    14.24678607910817,
                    53.90987356719815
                ]
            }
        },
        {
            "type": "Feature",
            "properties": {
                "ref:csioz": 1207627,
                "name": "Gemini",
                "addr:street": "Grunwaldzka",
                "addr:housenumber": "67",
                "addr:city": "Świnoujście",
                "addr:postcode": "72-600",
                "amenity": "pharmacy",
                "dispensing": "yes"
            },
            "geometry": {
                "type": "Point",
                "coordinates": [
                    14.241404600083158,
                    53.90437368439569
                ]
            }
        },
        {
            "type": "Feature",
            "properties": {
                "ref:csioz": 1209050,
                "name": "Cosmedica",
                "addr:street": "Tadeusza Kościuszki",
                "addr:housenumber": "15",
                "addr:city": "Świnoujście",
                "addr:postcode": "72-600",
                "amenity": "pharmacy",
                "dispensing": "yes"
            },
            "geometry": {
                "type": "Point",
                "coordinates": [
                    14.239088304222564,
                    53.90649405712969
                ]
            }
        },
        {
            "type": "Feature",
            "properties": {
                "ref:csioz": 1211002,
                "name": "Doz Apteka Dbam O Zdrowie",
                "addr:street": "Armii Krajowej",
                "addr:housenumber": "14B",
                "addr:city": "Świnoujście",
                "addr:postcode": "72-600",
                "amenity": "pharmacy",
                "dispensing": "yes"
            },
            "geometry": {
                "type": "Point",
                "coordinates": [
                    14.251079199931288,
                    53.908234842274844
                ]
            }
        },
        {
            "type": "Feature",
            "properties": {
                "ref:csioz": 1229539,
                "name": "\"Szpital Uzdrowiskowy \"\"Bałtyk\"\"\"",
                "addr:street": "Juliusza Słowackiego",
                "addr:housenumber": "23",
                "addr:city": "Świnoujście",
                "addr:postcode": "72-600",
                "amenity": "pharmacy",
                "dispensing": "yes"
            },
            "geometry": {
                "type": "Point",
                "coordinates": [
                    14.247978616850249,
                    53.91863078296738
                ]
            }
        }
    ]
}