{
    "type": "FeatureCollection",
    "name": "JPT_KOD_JE_0607",
    "features": [
        {
            "type": "Feature",
            "properties": {
                "ref:csioz": 1158055,
                "addr:street": "Rynek",
                "addr:housenumber": "24",
                "addr:city": "Annopol",
                "amenity": "pharmacy"
            },
            "geometry": {
                "type": "Point",
                "coordinates": [
                    21.85664583511481,
                    50.88492909175615
                ]
            }
        },
        {
            "type": "Feature",
            "properties": {
                "ref:csioz": 1158135,
                "addr:street": "Świeciechowska",
                "addr:housenumber": "8",
                "addr:city": "Annopol",
                "addr:postcode": "23-235",
                "amenity": "pharmacy"
            },
            "geometry": {
                "type": "Point",
                "coordinates": [
                    21.8545555978854,
                    50.88600114576134
                ]
            }
        },
        {
            "type": "Feature",
            "properties": {
                "ref:csioz": 1204355,
                "name": "Apteka Nova",
                "addr:street": "Rynek",
                "addr:housenumber": "46",
                "addr:city": "Annopol",
                "addr:postcode": "23-235",
                "amenity": "pharmacy"
            },
            "geometry": {
                "type": "Point",
                "coordinates": [
                    21.855614988070183,
                    50.884966661865896
                ]
            }
        },
        {
            "type": "Feature",
            "properties": {
                "ref:csioz": 1161834,
                "addr:street": "Rynek",
                "addr:housenumber": "10",
                "addr:city": "Annopol",
                "amenity": "pharmacy"
            },
            "geometry": {
                "type": "Point",
                "coordinates": [
                    21.85588363102564,
                    50.88561616117591
                ]
            }
        },
        {
            "type": "Feature",
            "properties": {
                "ref:csioz": 1110383,
                "name": "Całotygodniowa Apteka Familijna",
                "addr:street": "Kościuszki Tadeusza",
                "addr:housenumber": "7",
                "addr:city": "Kraśnik",
                "addr:postcode": "23-200",
                "amenity": "pharmacy"
            },
            "geometry": {
                "type": "Point",
                "coordinates": [
                    22.218188000028224,
                    50.92103300001408
                ]
            }
        },
        {
            "type": "Feature",
            "properties": {
                "ref:csioz": 1110414,
                "name": "Apteka Dr. Optima Hurtowe Czwartki",
                "addr:street": "al. Niepodległości",
                "addr:housenumber": "16",
                "addr:city": "Kraśnik",
                "addr:postcode": "23-200",
                "amenity": "pharmacy"
            },
            "geometry": {
                "type": "Point",
                "coordinates": [
                    22.16843317857113,
                    50.96387119140314
                ]
            }
        },
        {
            "type": "Feature",
            "properties": {
                "ref:csioz": 1112821,
                "name": "Doz Apteka Dbam O Zdrowie Alchemia",
                "addr:street": "gen. Władysława Sikorskiego",
                "addr:housenumber": "13",
                "addr:city": "Kraśnik",
                "addr:postcode": "23-204",
                "amenity": "pharmacy"
            },
            "geometry": {
                "type": "Point",
                "coordinates": [
                    22.156993000025533,
                    50.96197700001411
                ]
            }
        },
        {
            "type": "Feature",
            "properties": {
                "ref:csioz": 1153582,
                "name": "Apteka Melisa Koło Kościoła",
                "addr:street": "Ks. Stanisława Zielińskiego",
                "addr:housenumber": "3",
                "addr:city": "Kraśnik",
                "addr:postcode": "23-204",
                "amenity": "pharmacy"
            },
            "geometry": {
                "type": "Point",
                "coordinates": [
                    22.15424600002542,
                    50.95971500001411
                ]
            }
        },
        {
            "type": "Feature",
            "properties": {
                "ref:csioz": 1153596,
                "name": "Apteka Melisa Pod Pewexem",
                "addr:street": "Dekutowskiego",
                "addr:housenumber": "6",
                "addr:city": "Kraśnik",
                "addr:postcode": "23-210",
                "amenity": "pharmacy"
            },
            "geometry": {
                "type": "Point",
                "coordinates": [
                    22.161883562536904,
                    50.964739608564045
                ]
            }
        },
        {
            "type": "Feature",
            "properties": {
                "ref:csioz": 1158466,
                "addr:street": "Sądowa",
                "addr:housenumber": "12",
                "addr:city": "Kraśnik",
                "addr:postcode": "23-210",
                "amenity": "pharmacy"
            },
            "geometry": {
                "type": "Point",
                "coordinates": [
                    22.230094866290962,
                    50.92821196009098
                ]
            }
        },
        {
            "type": "Feature",
            "properties": {
                "ref:csioz": 1158706,
                "name": "Doz Apteka.Dbam O Zdrowie.Apteka W Rynku.",
                "addr:street": "Plac Wolności",
                "addr:housenumber": "16",
                "addr:city": "Kraśnik",
                "addr:postcode": "23-200",
                "amenity": "pharmacy"
            },
            "geometry": {
                "type": "Point",
                "coordinates": [
                    22.221668128204193,
                    50.921809032534235
                ]
            }
        },
        {
            "type": "Feature",
            "properties": {
                "ref:csioz": 1159132,
                "name": "Doz Apteka Dbam O Zdrowie Słoneczna",
                "addr:street": "Al. Niepodległości",
                "addr:housenumber": "11A",
                "addr:city": "Kraśnik",
                "addr:postcode": "23-210",
                "amenity": "pharmacy"
            },
            "geometry": {
                "type": "Point",
                "coordinates": [
                    22.1711591785363,
                    50.962956576723165
                ]
            }
        },
        {
            "type": "Feature",
            "properties": {
                "ref:csioz": 1161543,
                "addr:street": "Żeromskiego",
                "addr:housenumber": "22",
                "addr:city": "Zakrzówek",
                "addr:postcode": "23-213",
                "amenity": "pharmacy"
            },
            "geometry": {
                "type": "Point",
                "coordinates": [
                    22.38789921672738,
                    50.95162472609168
                ]
            }
        },
        {
            "type": "Feature",
            "properties": {
                "ref:csioz": 1162084,
                "name": "Apteka Henryk Dąbrowski",
                "addr:street": "A. Hevelke",
                "addr:housenumber": "1",
                "addr:city": "Urzędów",
                "addr:postcode": "23-250",
                "amenity": "pharmacy"
            },
            "geometry": {
                "type": "Point",
                "coordinates": [
                    22.143033000024875,
                    50.99466500001415
                ]
            }
        },
        {
            "type": "Feature",
            "properties": {
                "ref:csioz": 1162488,
                "addr:street": "Mickiewicza",
                "addr:housenumber": "1 g",
                "addr:city": "Kraśnik",
                "addr:postcode": "23-210",
                "amenity": "pharmacy"
            },
            "geometry": {
                "type": "Point",
                "coordinates": [
                    22.163289684102295,
                    50.962387924467976
                ]
            }
        },
        {
            "type": "Feature",
            "properties": {
                "ref:csioz": 1172312,
                "name": "Apteka Eko Ekogicznie Kompleksowo Oszczędnie",
                "addr:street": "Juliusza Słowackiego",
                "addr:housenumber": "16",
                "addr:city": "Kraśnik",
                "addr:postcode": "23-204",
                "amenity": "pharmacy"
            },
            "geometry": {
                "type": "Point",
                "coordinates": [
                    22.165079032127604,
                    50.96065803494602
                ]
            }
        },
        {
            "type": "Feature",
            "properties": {
                "ref:csioz": 1173759,
                "name": "\"Apteka \"\"Rodzinna\"\"\"",
                "addr:street": "Żeromskiego",
                "addr:housenumber": "19",
                "addr:city": "Zakrzówek",
                "addr:postcode": "23-213",
                "amenity": "pharmacy"
            },
            "geometry": {
                "type": "Point",
                "coordinates": [
                    22.386628283633012,
                    50.95243677695847
                ]
            }
        },
        {
            "type": "Feature",
            "properties": {
                "ref:csioz": 1188435,
                "name": "Apteka Prywatna S.C. Mgr J. Kozak Mgr E. Stec",
                "addr:housenumber": "37",
                "addr:postcode": "23-211",
                "amenity": "pharmacy",
                "addr:place": "Wilkołaz Pierwszy"
            },
            "geometry": {
                "type": "Point",
                "coordinates": [
                    22.339813925238936,
                    51.00398902384341
                ]
            }
        },
        {
            "type": "Feature",
            "properties": {
                "ref:csioz": 1195707,
                "name": "Całotygodniowa Apteka Familijna",
                "addr:street": "Juliusza Słowackiego",
                "addr:housenumber": "17",
                "addr:city": "Kraśnik",
                "addr:postcode": "23-204",
                "amenity": "pharmacy"
            },
            "geometry": {
                "type": "Point",
                "coordinates": [
                    22.176832409095987,
                    50.96315444151122
                ]
            }
        },
        {
            "type": "Feature",
            "properties": {
                "ref:csioz": 1196495,
                "name": "Apteka Rodzinna",
                "addr:street": "Rynek",
                "addr:housenumber": "27",
                "addr:city": "Urzędów",
                "addr:postcode": "23-250",
                "amenity": "pharmacy"
            },
            "geometry": {
                "type": "Point",
                "coordinates": [
                    22.14391965689686,
                    50.993942396563476
                ]
            }
        },
        {
            "type": "Feature",
            "properties": {
                "ref:csioz": 1201745,
                "name": "Apteka Słoneczna",
                "addr:street": "Niepodległości",
                "addr:housenumber": "9a",
                "addr:city": "Kraśnik",
                "addr:postcode": "23-204",
                "amenity": "pharmacy"
            },
            "geometry": {
                "type": "Point",
                "coordinates": [
                    22.17159821510887,
                    50.96315168266073
                ]
            }
        },
        {
            "type": "Feature",
            "properties": {
                "ref:csioz": 1224572,
                "name": "Punkt Apteczny Rodzinny",
                "addr:housenumber": "6",
                "addr:postcode": "23-250",
                "amenity": "pharmacy",
                "addr:place": "Popkowice"
            },
            "geometry": {
                "type": "Point",
                "coordinates": [
                    22.239213553366667,
                    50.992778291917766
                ]
            }
        },
        {
            "type": "Feature",
            "properties": {
                "ref:csioz": 1163793,
                "addr:street": "Al.Młodości",
                "addr:housenumber": "159",
                "addr:city": "Kraśnik",
                "addr:postcode": "23-210",
                "amenity": "pharmacy"
            },
            "geometry": {
                "type": "Point",
                "coordinates": [
                    22.16374736456005,
                    50.95830855355966
                ]
            }
        },
        {
            "type": "Feature",
            "properties": {
                "ref:csioz": 1106342,
                "name": "Punkt Apteczny Olbięcin",
                "addr:housenumber": "202",
                "addr:postcode": "23-230",
                "amenity": "pharmacy",
                "addr:place": "Olbięcin"
            },
            "geometry": {
                "type": "Point",
                "coordinates": [
                    22.130862891924952,
                    50.89450001007138
                ]
            }
        },
        {
            "type": "Feature",
            "properties": {
                "ref:csioz": 1161607,
                "addr:street": "Miedziana",
                "addr:housenumber": "12",
                "addr:city": "Kraśnik",
                "addr:postcode": "23-210",
                "amenity": "pharmacy"
            },
            "geometry": {
                "type": "Point",
                "coordinates": [
                    22.166570013755845,
                    50.959294115809755
                ]
            }
        },
        {
            "type": "Feature",
            "properties": {
                "ref:csioz": 1157429,
                "name": "Apteka Kraśnicka",
                "addr:street": "Al. Niepodległości",
                "addr:housenumber": "27",
                "addr:city": "Kraśnik",
                "addr:postcode": "23-204",
                "amenity": "pharmacy"
            },
            "geometry": {
                "type": "Point",
                "coordinates": [
                    22.161122997744318,
                    50.96302679614155
                ]
            }
        },
        {
            "type": "Feature",
            "properties": {
                "ref:csioz": 1157883,
                "name": "Nova",
                "addr:street": "Urzędowska",
                "addr:housenumber": "16",
                "addr:city": "Kraśnik",
                "addr:postcode": "23-210",
                "amenity": "pharmacy"
            },
            "geometry": {
                "type": "Point",
                "coordinates": [
                    22.225451932035828,
                    50.927145571416894
                ]
            }
        },
        {
            "type": "Feature",
            "properties": {
                "ref:csioz": 1158453,
                "addr:street": "Fabryczna",
                "addr:housenumber": "6",
                "addr:city": "Kraśnik",
                "addr:postcode": "23-210",
                "amenity": "pharmacy"
            },
            "geometry": {
                "type": "Point",
                "coordinates": [
                    22.176731370727364,
                    50.96527535828131
                ]
            }
        },
        {
            "type": "Feature",
            "properties": {
                "ref:csioz": 1158905,
                "name": "Apteka Osiedlowa",
                "addr:street": "Ks. Jerzego Popiełuszki",
                "addr:housenumber": "2",
                "addr:city": "Kraśnik",
                "addr:postcode": "23-210",
                "amenity": "pharmacy"
            },
            "geometry": {
                "type": "Point",
                "coordinates": [
                    22.159136000025626,
                    50.959384000014104
                ]
            }
        },
        {
            "type": "Feature",
            "properties": {
                "ref:csioz": 1158939,
                "name": "Apteka Melisa W Supersamie",
                "addr:street": "Sikorskiego",
                "addr:housenumber": "7a",
                "addr:city": "Kraśnik",
                "addr:postcode": "23-204",
                "amenity": "pharmacy"
            },
            "geometry": {
                "type": "Point",
                "coordinates": [
                    22.159584366539278,
                    50.96197372715641
                ]
            }
        },
        {
            "type": "Feature",
            "properties": {
                "ref:csioz": 1161693,
                "addr:street": "Lubelska",
                "addr:housenumber": "18",
                "addr:city": "Kraśnik",
                "addr:postcode": "23-200",
                "amenity": "pharmacy"
            },
            "geometry": {
                "type": "Point",
                "coordinates": [
                    22.224978798848284,
                    50.921961542533424
                ]
            }
        },
        {
            "type": "Feature",
            "properties": {
                "ref:csioz": 1162286,
                "name": "Doz Apteka.Dbam O Zdrowie. Apteka Prywatna S.C.Mgr J.Kozak Mgr E.Stec 23-213 Zakrzówek Ul. Kościuszki 15",
                "addr:street": "Kościuszki",
                "addr:housenumber": "15",
                "addr:city": "Zakrzówek",
                "addr:postcode": "23-213",
                "amenity": "pharmacy"
            },
            "geometry": {
                "type": "Point",
                "coordinates": [
                    22.3835232267644,
                    50.951126266701166
                ]
            }
        },
        {
            "type": "Feature",
            "properties": {
                "ref:csioz": 1163315,
                "name": "Apteka Dbam O Zdrowie",
                "addr:street": "Urzędowska",
                "addr:housenumber": "36",
                "addr:city": "Kraśnik",
                "addr:postcode": "23-200",
                "amenity": "pharmacy"
            },
            "geometry": {
                "type": "Point",
                "coordinates": [
                    22.222242142564255,
                    50.929702426551685
                ]
            }
        },
        {
            "type": "Feature",
            "properties": {
                "ref:csioz": 1189779,
                "name": "Apteka Szpitalna",
                "addr:street": "Chopina",
                "addr:housenumber": "13",
                "addr:city": "Kraśnik",
                "addr:postcode": "23-210",
                "amenity": "pharmacy"
            },
            "geometry": {
                "type": "Point",
                "coordinates": [
                    22.22374317340533,
                    50.93183229069403
                ]
            }
        },
        {
            "type": "Feature",
            "properties": {
                "ref:csioz": 1194093,
                "name": "Apteka Słoneczna",
                "addr:street": "Lubelska",
                "addr:housenumber": "56a",
                "addr:city": "Kraśnik",
                "addr:postcode": "23-200",
                "amenity": "pharmacy"
            },
            "geometry": {
                "type": "Point",
                "coordinates": [
                    22.228608595419985,
                    50.92404531597533
                ]
            }
        },
        {
            "type": "Feature",
            "properties": {
                "ref:csioz": 1218754,
                "name": "Apteka Nova",
                "addr:street": "Jana Kochanowskiego",
                "addr:housenumber": "1",
                "addr:city": "Kraśnik",
                "addr:postcode": "23-200",
                "amenity": "pharmacy"
            },
            "geometry": {
                "type": "Point",
                "coordinates": [
                    22.226845965032265,
                    50.9263931315548
                ]
            }
        },
        {
            "type": "Feature",
            "properties": {
                "ref:csioz": 1157852,
                "addr:housenumber": "57A",
                "addr:postcode": "23-275",
                "amenity": "pharmacy",
                "addr:place": "Gościeradów Ukazowy"
            },
            "geometry": {
                "type": "Point",
                "coordinates": [
                    22.007455800156237,
                    50.86867487944345
                ]
            }
        },
        {
            "type": "Feature",
            "properties": {
                "ref:csioz": 1162515,
                "addr:housenumber": "115",
                "addr:postcode": "23-225",
                "amenity": "pharmacy",
                "addr:place": "Polichna II"
            },
            "geometry": {
                "type": "Point",
                "coordinates": [
                    22.315603000033125,
                    50.824403000014
                ]
            }
        },
        {
            "type": "Feature",
            "properties": {
                "ref:csioz": 1171905,
                "name": "Nowa Rzeczycka",
                "addr:housenumber": "56",
                "addr:postcode": "23-230",
                "amenity": "pharmacy",
                "addr:place": "Rzeczyca Ziemiańska"
            },
            "geometry": {
                "type": "Point",
                "coordinates": [
                    22.18456267672324,
                    50.84139238445946
                ]
            }
        },
        {
            "type": "Feature",
            "properties": {
                "ref:csioz": 1116585,
                "name": "Apteka Zawsze Najniższe Ceny",
                "addr:housenumber": "71A",
                "addr:postcode": "23-230",
                "amenity": "pharmacy",
                "addr:place": "Trzydnik Duży"
            },
            "geometry": {
                "type": "Point",
                "coordinates": [
                    22.131218000024816,
                    50.85223300001393
                ]
            }
        },
        {
            "type": "Feature",
            "properties": {
                "ref:csioz": 1158428,
                "name": "\"Apteka \"\"Zdrowie\"\"\"",
                "addr:housenumber": "156",
                "addr:postcode": "23-275",
                "amenity": "pharmacy",
                "addr:place": "Gościeradów Ukazowy"
            },
            "geometry": {
                "type": "Point",
                "coordinates": [
                    21.997383878476384,
                    50.86652888240366
                ]
            }
        }
    ]
}