{
    "type": "FeatureCollection",
    "name": "JPT_KOD_JE_1415",
    "features": [
        {
            "type": "Feature",
            "properties": {
                "ref:csioz": 1201981,
                "addr:housenumber": "21A",
                "addr:postcode": "07-440",
                "amenity": "pharmacy",
                "addr:place": "Kunin",
                "dispensing": "yes"
            },
            "geometry": {
                "type": "Point",
                "coordinates": [
                    21.508707307212944,
                    52.845150180262536
                ]
            }
        },
        {
            "type": "Feature",
            "properties": {
                "ref:csioz": 1090982,
                "name": "Kurpianeczka",
                "addr:street": "dr. Stanisława Pawłowskiego",
                "addr:housenumber": "7",
                "addr:city": "Myszyniec",
                "addr:postcode": "07-430",
                "amenity": "pharmacy",
                "dispensing": "yes"
            },
            "geometry": {
                "type": "Point",
                "coordinates": [
                    21.34086282453787,
                    53.3875409824724
                ]
            }
        },
        {
            "type": "Feature",
            "properties": {
                "ref:csioz": 1090917,
                "addr:street": "Niepodległości",
                "addr:housenumber": "18A",
                "addr:city": "Baranowo",
                "addr:postcode": "06-320",
                "amenity": "pharmacy",
                "dispensing": "yes"
            },
            "geometry": {
                "type": "Point",
                "coordinates": [
                    21.292079713468105,
                    53.17623999415014
                ]
            }
        },
        {
            "type": "Feature",
            "properties": {
                "ref:csioz": 1090996,
                "addr:street": "Plac Wolności",
                "addr:housenumber": "40",
                "addr:city": "Myszyniec",
                "addr:postcode": "07-430",
                "amenity": "pharmacy",
                "dispensing": "yes"
            },
            "geometry": {
                "type": "Point",
                "coordinates": [
                    21.34095490458747,
                    53.385187888792906
                ]
            }
        },
        {
            "type": "Feature",
            "properties": {
                "ref:csioz": 1091009,
                "name": "Arnica",
                "addr:street": "Stacha Konwy",
                "addr:housenumber": "2",
                "addr:city": "Myszyniec",
                "addr:postcode": "07-430",
                "amenity": "pharmacy",
                "dispensing": "yes"
            },
            "geometry": {
                "type": "Point",
                "coordinates": [
                    21.345303618559356,
                    53.38164585250754
                ]
            }
        },
        {
            "type": "Feature",
            "properties": {
                "ref:csioz": 1116874,
                "addr:housenumber": "40",
                "addr:postcode": "07-431",
                "amenity": "pharmacy",
                "addr:place": "Czarnia",
                "dispensing": "yes"
            },
            "geometry": {
                "type": "Point",
                "coordinates": [
                    21.197895730294107,
                    53.35537559418852
                ]
            }
        },
        {
            "type": "Feature",
            "properties": {
                "ref:csioz": 1182175,
                "name": "\"'Kurpiowska Iii'\"",
                "addr:street": "Mostowa",
                "addr:housenumber": "3",
                "addr:city": "Baranowo",
                "addr:postcode": "06-320",
                "amenity": "pharmacy",
                "dispensing": "yes"
            },
            "geometry": {
                "type": "Point",
                "coordinates": [
                    21.29706381840217,
                    53.17624432728224
                ]
            }
        },
        {
            "type": "Feature",
            "properties": {
                "ref:csioz": 1090949,
                "addr:street": "Kościuszki",
                "addr:housenumber": "29",
                "addr:city": "Kadzidło",
                "addr:postcode": "07-420",
                "amenity": "pharmacy",
                "dispensing": "yes"
            },
            "geometry": {
                "type": "Point",
                "coordinates": [
                    21.4642467961136,
                    53.23542068373326
                ]
            }
        },
        {
            "type": "Feature",
            "properties": {
                "ref:csioz": 1090963,
                "addr:street": "Szkolna",
                "addr:housenumber": "48",
                "addr:city": "Lelis",
                "addr:postcode": "07-402",
                "amenity": "pharmacy",
                "dispensing": "yes"
            },
            "geometry": {
                "type": "Point",
                "coordinates": [
                    21.556732791797625,
                    53.18000495210167
                ]
            }
        },
        {
            "type": "Feature",
            "properties": {
                "ref:csioz": 1090974,
                "addr:street": "Henryka Sienkiewicza",
                "addr:housenumber": "40A",
                "addr:city": "Łyse",
                "addr:postcode": "07-437",
                "amenity": "pharmacy",
                "dispensing": "yes"
            },
            "geometry": {
                "type": "Point",
                "coordinates": [
                    21.554489418748787,
                    53.36489330989279
                ]
            }
        },
        {
            "type": "Feature",
            "properties": {
                "ref:csioz": 1091526,
                "name": "Super Nova",
                "addr:street": "Tysiąclecia",
                "addr:housenumber": "8",
                "addr:city": "Czerwin",
                "addr:postcode": "07-407",
                "amenity": "pharmacy",
                "dispensing": "yes"
            },
            "geometry": {
                "type": "Point",
                "coordinates": [
                    21.757414726462887,
                    52.9503704624758
                ]
            }
        },
        {
            "type": "Feature",
            "properties": {
                "ref:csioz": 1091552,
                "name": "Rodzinna",
                "addr:street": "Mazowiecka",
                "addr:housenumber": "4",
                "addr:city": "Czerwin",
                "addr:postcode": "07-407",
                "amenity": "pharmacy",
                "dispensing": "yes"
            },
            "geometry": {
                "type": "Point",
                "coordinates": [
                    21.758297733666254,
                    52.9495894542738
                ]
            }
        },
        {
            "type": "Feature",
            "properties": {
                "ref:csioz": 1091721,
                "addr:housenumber": "46B",
                "addr:postcode": "07-437",
                "amenity": "pharmacy",
                "addr:place": "Zalas",
                "dispensing": "yes"
            },
            "geometry": {
                "type": "Point",
                "coordinates": [
                    21.5616924069094,
                    53.423731946219675
                ]
            }
        },
        {
            "type": "Feature",
            "properties": {
                "ref:csioz": 1111105,
                "addr:street": "Topolowa",
                "addr:housenumber": "2",
                "addr:city": "Łyse",
                "addr:postcode": "07-437",
                "amenity": "pharmacy",
                "dispensing": "yes"
            },
            "geometry": {
                "type": "Point",
                "coordinates": [
                    21.565239000007402,
                    53.36224500001773
                ]
            }
        },
        {
            "type": "Feature",
            "properties": {
                "ref:csioz": 1124973,
                "name": "Kurpiowska",
                "addr:street": "Kościuszki",
                "addr:housenumber": "6A",
                "addr:city": "Kadzidło",
                "addr:postcode": "07-420",
                "amenity": "pharmacy",
                "dispensing": "yes"
            },
            "geometry": {
                "type": "Point",
                "coordinates": [
                    21.466069295516814,
                    53.23266983803844
                ]
            }
        },
        {
            "type": "Feature",
            "properties": {
                "ref:csioz": 1180369,
                "name": "Rumiankowa",
                "addr:street": "Kościuszki",
                "addr:housenumber": "28",
                "addr:city": "Kadzidło",
                "addr:postcode": "07-420",
                "amenity": "pharmacy",
                "dispensing": "yes"
            },
            "geometry": {
                "type": "Point",
                "coordinates": [
                    21.464871700981803,
                    53.235886675406
                ]
            }
        },
        {
            "type": "Feature",
            "properties": {
                "ref:csioz": 1090930,
                "addr:street": "Kościelna",
                "addr:housenumber": "12",
                "addr:city": "Goworowo",
                "addr:postcode": "07-440",
                "amenity": "pharmacy",
                "dispensing": "yes"
            },
            "geometry": {
                "type": "Point",
                "coordinates": [
                    21.56229932175212,
                    52.90155530728215
                ]
            }
        },
        {
            "type": "Feature",
            "properties": {
                "ref:csioz": 1091388,
                "addr:street": "Księdza Stanisława Dulczewskiego",
                "addr:housenumber": "4",
                "addr:city": "Goworowo",
                "addr:postcode": "07-440",
                "amenity": "pharmacy",
                "dispensing": "yes"
            },
            "geometry": {
                "type": "Point",
                "coordinates": [
                    21.559249969706826,
                    52.90129347626584
                ]
            }
        },
        {
            "type": "Feature",
            "properties": {
                "ref:csioz": 1091560,
                "addr:street": "3 Maja",
                "addr:housenumber": "1",
                "addr:city": "Olszewo-Borki",
                "addr:postcode": "07-415",
                "amenity": "pharmacy",
                "dispensing": "yes"
            },
            "geometry": {
                "type": "Point",
                "coordinates": [
                    21.525819000007107,
                    53.067381000017235
                ]
            }
        },
        {
            "type": "Feature",
            "properties": {
                "ref:csioz": 1120987,
                "name": "Klemer",
                "addr:street": "Szkolna",
                "addr:housenumber": "21",
                "addr:city": "Rzekuń",
                "addr:postcode": "07-411",
                "amenity": "pharmacy",
                "dispensing": "yes"
            },
            "geometry": {
                "type": "Point",
                "coordinates": [
                    21.630963248820787,
                    53.05002945954783
                ]
            }
        },
        {
            "type": "Feature",
            "properties": {
                "ref:csioz": 1207923,
                "name": "Kurpiowska",
                "addr:street": "Handlowa",
                "addr:housenumber": "5",
                "addr:city": "Kadzidło",
                "addr:postcode": "07-420",
                "amenity": "pharmacy",
                "dispensing": "yes"
            },
            "geometry": {
                "type": "Point",
                "coordinates": [
                    21.46843810102464,
                    53.231086166276384
                ]
            }
        },
        {
            "type": "Feature",
            "properties": {
                "ref:csioz": 1228455,
                "name": "Rodzinny",
                "addr:street": "Ostrołęcka",
                "addr:housenumber": "8",
                "addr:city": "Nowa Wieś",
                "addr:postcode": "07-416",
                "amenity": "pharmacy",
                "dispensing": "yes"
            },
            "geometry": {
                "type": "Point",
                "coordinates": [
                    21.415027632324534,
                    53.08449949260939
                ]
            }
        },
        {
            "type": "Feature",
            "properties": {
                "ref:csioz": 1091023,
                "addr:street": "Juliusza Słowackiego",
                "addr:housenumber": "4B",
                "addr:city": "Troszyn",
                "addr:postcode": "07-405",
                "amenity": "pharmacy",
                "dispensing": "yes"
            },
            "geometry": {
                "type": "Point",
                "coordinates": [
                    21.728704000010108,
                    53.031860000017204
                ]
            }
        }
    ]
}