{
    "type": "FeatureCollection",
    "name": "JPT_KOD_JE_2411",
    "features": [
        {
            "type": "Feature",
            "properties": {
                "ref:csioz": 1065204,
                "name": "Kolegialna",
                "addr:street": "Tworkowska",
                "addr:housenumber": "5",
                "addr:city": "Krzyżanowice",
                "addr:postcode": "47-450",
                "amenity": "pharmacy",
                "dispensing": "yes"
            },
            "geometry": {
                "type": "Point",
                "coordinates": [
                    18.266403266191116,
                    49.9848785458679
                ]
            }
        },
        {
            "type": "Feature",
            "properties": {
                "ref:csioz": 1070267,
                "name": "Brak Nazwy",
                "addr:street": "Parkowa",
                "addr:housenumber": "1",
                "addr:city": "Tworków",
                "addr:postcode": "47-451",
                "amenity": "pharmacy",
                "dispensing": "yes"
            },
            "geometry": {
                "type": "Point",
                "coordinates": [
                    18.23636625099221,
                    50.01102684689711
                ]
            }
        },
        {
            "type": "Feature",
            "properties": {
                "ref:csioz": 1068009,
                "name": "Esculap",
                "addr:street": "Rogera",
                "addr:housenumber": "3",
                "addr:city": "Rudy",
                "addr:postcode": "47-420",
                "amenity": "pharmacy",
                "dispensing": "yes"
            },
            "geometry": {
                "type": "Point",
                "coordinates": [
                    18.449721999999856,
                    50.192638000012785
                ]
            }
        },
        {
            "type": "Feature",
            "properties": {
                "ref:csioz": 1066270,
                "name": "Św. Kosmy I Damiana",
                "addr:street": "SOBIESKIEGO",
                "addr:housenumber": "17",
                "addr:city": "NĘDZA",
                "addr:postcode": "47-440",
                "amenity": "pharmacy",
                "dispensing": "yes"
            },
            "geometry": {
                "type": "Point",
                "coordinates": [
                    18.30739027873883,
                    50.15973000630204
                ]
            }
        },
        {
            "type": "Feature",
            "properties": {
                "ref:csioz": 1067214,
                "name": "Abc Bosacka",
                "addr:street": "Bosacka",
                "addr:housenumber": "61",
                "addr:city": "Racibórz",
                "addr:postcode": "47-400",
                "amenity": "pharmacy",
                "dispensing": "yes"
            },
            "geometry": {
                "type": "Point",
                "coordinates": [
                    18.230121461574466,
                    50.09469970693905
                ]
            }
        },
        {
            "type": "Feature",
            "properties": {
                "ref:csioz": 1067223,
                "name": "Pod Różami-Śródmiejska-Centrum Farmaceutyczne",
                "addr:street": "DŁUGA",
                "addr:housenumber": "21",
                "addr:city": "RACIBÓRZ",
                "addr:postcode": "47-400",
                "amenity": "pharmacy",
                "dispensing": "yes"
            },
            "geometry": {
                "type": "Point",
                "coordinates": [
                    18.217131890147957,
                    50.09226976032079
                ]
            }
        },
        {
            "type": "Feature",
            "properties": {
                "ref:csioz": 1067238,
                "name": "Św. Kosmy I Damiana",
                "addr:street": "Gamowska",
                "addr:housenumber": "3",
                "addr:city": "Racibórz",
                "addr:postcode": "47-400",
                "amenity": "pharmacy",
                "dispensing": "yes"
            },
            "geometry": {
                "type": "Point",
                "coordinates": [
                    18.202212410280378,
                    50.1012849397682
                ]
            }
        },
        {
            "type": "Feature",
            "properties": {
                "ref:csioz": 1067251,
                "name": "Apteka Zdrowit",
                "addr:street": "Katowicka",
                "addr:housenumber": "4",
                "addr:city": "Racibórz",
                "addr:postcode": "47-400",
                "amenity": "pharmacy",
                "dispensing": "yes"
            },
            "geometry": {
                "type": "Point",
                "coordinates": [
                    18.201874874923806,
                    50.08284783971001
                ]
            }
        },
        {
            "type": "Feature",
            "properties": {
                "ref:csioz": 1073720,
                "name": "Szpital Rejonowy Im Dr Józefa Rostka W Raciborzu",
                "addr:street": "GAMOWSKA",
                "addr:housenumber": "3",
                "addr:city": "RACIBÓRZ",
                "addr:postcode": "47-400",
                "amenity": "pharmacy",
                "dispensing": "yes"
            },
            "geometry": {
                "type": "Point",
                "coordinates": [
                    18.202212410280378,
                    50.1012549397682
                ]
            }
        },
        {
            "type": "Feature",
            "properties": {
                "ref:csioz": 1113633,
                "name": "Zakład Pielęgnacyjno-Opiekuńczy W Krzanowicach",
                "addr:street": "Szpitalna",
                "addr:housenumber": "9",
                "addr:city": "Krzanowice",
                "addr:postcode": "47-470",
                "amenity": "pharmacy",
                "dispensing": "yes"
            },
            "geometry": {
                "type": "Point",
                "coordinates": [
                    18.118379925548542,
                    50.015181130812756
                ]
            }
        },
        {
            "type": "Feature",
            "properties": {
                "ref:csioz": 1122438,
                "name": "Pod Różami-Opawska 124-Centrum Farmaceutyczne",
                "addr:street": "Opawska",
                "addr:housenumber": "124A",
                "addr:city": "Racibórz",
                "addr:postcode": "47-400",
                "amenity": "pharmacy",
                "dispensing": "yes"
            },
            "geometry": {
                "type": "Point",
                "coordinates": [
                    18.20268730178844,
                    50.08071974627054
                ]
            }
        },
        {
            "type": "Feature",
            "properties": {
                "ref:csioz": 1057160,
                "name": "Raciborskie Centrum Medyczne",
                "addr:street": "Gamowska",
                "addr:housenumber": "3A",
                "addr:city": "Racibórz",
                "addr:postcode": "47-400",
                "amenity": "pharmacy",
                "dispensing": "yes"
            },
            "geometry": {
                "type": "Point",
                "coordinates": [
                    18.203500656224723,
                    50.10208712610832
                ]
            }
        },
        {
            "type": "Feature",
            "properties": {
                "ref:csioz": 1065155,
                "name": "Apteka Św. Wacława",
                "addr:street": "Rynek",
                "addr:housenumber": "3",
                "addr:city": "Krzanowice",
                "addr:postcode": "47-470",
                "amenity": "pharmacy",
                "dispensing": "yes"
            },
            "geometry": {
                "type": "Point",
                "coordinates": [
                    18.121936380111688,
                    50.0176803322427
                ]
            }
        },
        {
            "type": "Feature",
            "properties": {
                "ref:csioz": 1065220,
                "name": "Na Osiedlu",
                "addr:street": "Moniuszki",
                "addr:housenumber": "3",
                "addr:city": "Kuźnia Raciborska",
                "addr:postcode": "47-420",
                "amenity": "pharmacy",
                "dispensing": "yes"
            },
            "geometry": {
                "type": "Point",
                "coordinates": [
                    18.32014729652488,
                    50.19866506696702
                ]
            }
        },
        {
            "type": "Feature",
            "properties": {
                "ref:csioz": 1066734,
                "name": "Brak Nazwy",
                "addr:street": "Jana Pawła II",
                "addr:housenumber": "7",
                "addr:city": "Pietrowice Wielkie",
                "addr:postcode": "47-480",
                "amenity": "pharmacy",
                "dispensing": "yes"
            },
            "geometry": {
                "type": "Point",
                "coordinates": [
                    18.09418178455685,
                    50.08440855801943
                ]
            }
        },
        {
            "type": "Feature",
            "properties": {
                "ref:csioz": 1067267,
                "name": "Centrum Opieki Farmaceutycznej Apteka Kolejowa",
                "addr:street": "KOLEJOWA",
                "addr:housenumber": "20",
                "addr:city": "Racibórz",
                "addr:postcode": "47-400",
                "amenity": "pharmacy",
                "dispensing": "yes"
            },
            "geometry": {
                "type": "Point",
                "coordinates": [
                    18.222450454198793,
                    50.087100310730726
                ]
            }
        },
        {
            "type": "Feature",
            "properties": {
                "ref:csioz": 1067280,
                "name": "Św. Mikołaja",
                "addr:street": "ks. Józefa Londzina",
                "addr:housenumber": "34-36",
                "addr:city": "Racibórz",
                "addr:postcode": "47-400",
                "amenity": "pharmacy",
                "dispensing": "yes"
            },
            "geometry": {
                "type": "Point",
                "coordinates": [
                    18.211306800652167,
                    50.09657272662441
                ]
            }
        },
        {
            "type": "Feature",
            "properties": {
                "ref:csioz": 1067295,
                "name": "Victoria",
                "addr:street": "MICKIEWICZA",
                "addr:housenumber": "19 B",
                "addr:city": "RACIBÓRZ",
                "addr:postcode": "47-400",
                "amenity": "pharmacy",
                "dispensing": "yes"
            },
            "geometry": {
                "type": "Point",
                "coordinates": [
                    18.22496467769239,
                    50.090229992843994
                ]
            }
        },
        {
            "type": "Feature",
            "properties": {
                "ref:csioz": 1067310,
                "name": "Abc-Ocicka",
                "addr:street": "Ocicka",
                "addr:housenumber": "51A",
                "addr:city": "Racibórz",
                "addr:postcode": "47-400",
                "amenity": "pharmacy",
                "dispensing": "yes"
            },
            "geometry": {
                "type": "Point",
                "coordinates": [
                    18.199919669354085,
                    50.084818863097134
                ]
            }
        },
        {
            "type": "Feature",
            "properties": {
                "ref:csioz": 1067329,
                "name": "Pod Różami-Ogrodowa-Centrum Farmaceutyczne",
                "addr:street": "OGRODOWA",
                "addr:housenumber": "40",
                "addr:city": "RACIBÓRZ",
                "addr:postcode": "47-400",
                "amenity": "pharmacy",
                "dispensing": "yes"
            },
            "geometry": {
                "type": "Point",
                "coordinates": [
                    18.21201114247519,
                    50.090101337122306
                ]
            }
        },
        {
            "type": "Feature",
            "properties": {
                "ref:csioz": 1067332,
                "name": "Pod Różami-Opawska Całodobowa-Centrum Farmaceutyczne",
                "addr:street": "OPAWSKA",
                "addr:housenumber": "33",
                "addr:city": "RACIBÓRZ",
                "addr:postcode": "47-400",
                "amenity": "pharmacy",
                "dispensing": "yes"
            },
            "geometry": {
                "type": "Point",
                "coordinates": [
                    18.214402475932747,
                    50.08644691756974
                ]
            }
        },
        {
            "type": "Feature",
            "properties": {
                "ref:csioz": 1067341,
                "name": "Dr. Max",
                "addr:street": "Opawska",
                "addr:housenumber": "45",
                "addr:city": "Racibórz",
                "addr:postcode": "47-400",
                "amenity": "pharmacy",
                "dispensing": "yes"
            },
            "geometry": {
                "type": "Point",
                "coordinates": [
                    18.21264689098243,
                    50.08575225947396
                ]
            }
        },
        {
            "type": "Feature",
            "properties": {
                "ref:csioz": 1067364,
                "name": "Przy Rondzie",
                "addr:street": "OPAWSKA",
                "addr:housenumber": "89",
                "addr:city": "RACIBÓRZ",
                "addr:postcode": "47-400",
                "amenity": "pharmacy",
                "dispensing": "yes"
            },
            "geometry": {
                "type": "Point",
                "coordinates": [
                    18.2088916163722,
                    50.081601160299414
                ]
            }
        },
        {
            "type": "Feature",
            "properties": {
                "ref:csioz": 1067378,
                "name": "Abc Auchan",
                "addr:street": "Rybnicka",
                "addr:housenumber": "97",
                "addr:city": "Racibórz",
                "addr:postcode": "47-400",
                "amenity": "pharmacy",
                "dispensing": "yes"
            },
            "geometry": {
                "type": "Point",
                "coordinates": [
                    18.258854526110238,
                    50.08908412571065
                ]
            }
        },
        {
            "type": "Feature",
            "properties": {
                "ref:csioz": 1112367,
                "name": "Pod Różami- Rynek 12-Centrum Farmaceutyczne",
                "addr:street": "Rynek",
                "addr:housenumber": "12",
                "addr:city": "Racibórz",
                "addr:postcode": "47-400",
                "amenity": "pharmacy",
                "dispensing": "yes"
            },
            "geometry": {
                "type": "Point",
                "coordinates": [
                    18.21947250136304,
                    50.09224779662541
                ]
            }
        },
        {
            "type": "Feature",
            "properties": {
                "ref:csioz": 1170210,
                "name": "Lecznica Imienia Świętego Łazarza Chirurgia Jednego Dnia",
                "addr:street": "Czekoladowa",
                "addr:housenumber": "7",
                "addr:city": "Racibórz",
                "addr:postcode": "47-400",
                "amenity": "pharmacy",
                "dispensing": "yes"
            },
            "geometry": {
                "type": "Point",
                "coordinates": [
                    18.22370142632463,
                    50.092733662945676
                ]
            }
        },
        {
            "type": "Feature",
            "properties": {
                "ref:csioz": 1173956,
                "name": "Centrum Medyczno-Diagnostyczne Artimex-Eurodent",
                "addr:street": "gen. Józefa Bema",
                "addr:housenumber": "5",
                "addr:city": "Racibórz",
                "addr:postcode": "47-400",
                "amenity": "pharmacy",
                "dispensing": "yes"
            },
            "geometry": {
                "type": "Point",
                "coordinates": [
                    18.21873496773948,
                    50.08608495732471
                ]
            }
        },
        {
            "type": "Feature",
            "properties": {
                "ref:csioz": 1176643,
                "name": "Margofarm",
                "addr:street": "Kościelna",
                "addr:housenumber": "1",
                "addr:city": "Kuźnia Raciborska",
                "addr:postcode": "47-420",
                "amenity": "pharmacy",
                "dispensing": "yes"
            },
            "geometry": {
                "type": "Point",
                "coordinates": [
                    18.311087935868752,
                    50.20078436013804
                ]
            }
        },
        {
            "type": "Feature",
            "properties": {
                "ref:csioz": 1182061,
                "name": "Św. Kosmy I Damiana",
                "addr:street": "Raciborska",
                "addr:housenumber": "55a",
                "addr:city": "Zawada Książęca",
                "addr:postcode": "47-440",
                "amenity": "pharmacy",
                "dispensing": "yes"
            },
            "geometry": {
                "type": "Point",
                "coordinates": [
                    18.249288999999784,
                    50.15164100001272
                ]
            }
        },
        {
            "type": "Feature",
            "properties": {
                "ref:csioz": 1182251,
                "name": "Pod Różami-Książęca-Centrum Farmaceutyczne",
                "addr:street": "Książęca",
                "addr:housenumber": "12",
                "addr:city": "Racibórz",
                "addr:postcode": "47-400",
                "amenity": "pharmacy",
                "dispensing": "yes"
            },
            "geometry": {
                "type": "Point",
                "coordinates": [
                    18.22800583981722,
                    50.09869955312192
                ]
            }
        },
        {
            "type": "Feature",
            "properties": {
                "ref:csioz": 1185880,
                "name": "Pod Różami-Markowice-Centrum Farmaceutyczne",
                "addr:street": "Gliwicka",
                "addr:housenumber": "21 B",
                "addr:city": "Racibórz",
                "addr:postcode": "47-400",
                "amenity": "pharmacy",
                "dispensing": "yes"
            },
            "geometry": {
                "type": "Point",
                "coordinates": [
                    18.271182236954573,
                    50.11243939640718
                ]
            }
        },
        {
            "type": "Feature",
            "properties": {
                "ref:csioz": 1196803,
                "name": "Apteka Zdrowit",
                "addr:street": "Nowa",
                "addr:housenumber": "3-5",
                "addr:city": "Racibórz",
                "addr:postcode": "47-400",
                "amenity": "pharmacy",
                "dispensing": "yes"
            },
            "geometry": {
                "type": "Point",
                "coordinates": [
                    18.219546566931935,
                    50.09084074281836
                ]
            }
        },
        {
            "type": "Feature",
            "properties": {
                "ref:csioz": 1205002,
                "name": "Św. Mikołaja",
                "addr:street": "ul. Kozielska",
                "addr:housenumber": "2a",
                "addr:city": "Rudnik",
                "addr:postcode": "47-411",
                "amenity": "pharmacy",
                "dispensing": "yes"
            },
            "geometry": {
                "type": "Point",
                "coordinates": [
                    18.187913279518902,
                    50.12692999204287
                ]
            }
        },
        {
            "type": "Feature",
            "properties": {
                "ref:csioz": 1217464,
                "name": "Margofarm",
                "addr:street": "ul. Kozielska",
                "addr:housenumber": "2",
                "addr:city": "Kuźnia Raciborska",
                "addr:postcode": "47-420",
                "amenity": "pharmacy",
                "dispensing": "yes"
            },
            "geometry": {
                "type": "Point",
                "coordinates": [
                    18.3098552429528,
                    50.20247917461849
                ]
            }
        },
        {
            "type": "Feature",
            "properties": {
                "ref:csioz": 1220757,
                "name": "Apteka Pod Różami-Wojska Polskiego Centrum Farmaceutyczne",
                "addr:street": "Wojska Polskiego",
                "addr:housenumber": "15",
                "addr:city": "Racibórz",
                "addr:postcode": "47-400",
                "amenity": "pharmacy",
                "dispensing": "yes"
            },
            "geometry": {
                "type": "Point",
                "coordinates": [
                    18.21659065266772,
                    50.08990354233397
                ]
            }
        },
        {
            "type": "Feature",
            "properties": {
                "ref:csioz": 1225377,
                "name": "Zielona",
                "addr:street": "1 Maja",
                "addr:housenumber": "15a",
                "addr:city": "Pietrowice Wielkie",
                "addr:postcode": "47-480",
                "amenity": "pharmacy",
                "dispensing": "yes"
            },
            "geometry": {
                "type": "Point",
                "coordinates": [
                    18.09072899999971,
                    50.08480400001262
                ]
            }
        },
        {
            "type": "Feature",
            "properties": {
                "ref:csioz": 1228871,
                "name": "Dział Farmacji Szpitalnej",
                "addr:street": "Henryka Sienkiewicza",
                "addr:housenumber": "3a",
                "addr:city": "Racibórz",
                "addr:postcode": "47-400",
                "amenity": "pharmacy",
                "dispensing": "yes"
            },
            "geometry": {
                "type": "Point",
                "coordinates": [
                    18.219689998076046,
                    50.08801688688428
                ]
            }
        },
        {
            "type": "Feature",
            "properties": {
                "ref:csioz": 1067307,
                "name": "\"Pod Różami-Mickiewicza-Centrum Farmacutyczne\"\"\"",
                "addr:street": "MICKIEWICZA",
                "addr:housenumber": "5",
                "addr:city": "RACIBÓRZ",
                "addr:postcode": "47-400",
                "amenity": "pharmacy",
                "dispensing": "yes"
            },
            "geometry": {
                "type": "Point",
                "coordinates": [
                    18.221690532344834,
                    50.090870529278675
                ]
            }
        },
        {
            "type": "Feature",
            "properties": {
                "ref:csioz": 1067355,
                "name": "\"Pod Różami-Srebrna Galeria-Centrum Farmaceutyczne\"\"\"",
                "addr:street": "Opawska",
                "addr:housenumber": "7",
                "addr:city": "Racibórz",
                "addr:postcode": "47-400",
                "amenity": "pharmacy",
                "dispensing": "yes"
            },
            "geometry": {
                "type": "Point",
                "coordinates": [
                    18.217648999999774,
                    50.08809600001264
                ]
            }
        }
    ]
}