{
    "type": "FeatureCollection",
    "name": "JPT_KOD_JE_2810",
    "features": [
        {
            "type": "Feature",
            "properties": {
                "ref:csioz": 1041590,
                "name": "Apteka Prywatna",
                "addr:street": "3 Maja",
                "addr:housenumber": "3",
                "addr:city": "Mikołajki",
                "addr:postcode": "11-730",
                "amenity": "pharmacy"
            },
            "geometry": {
                "type": "Point",
                "coordinates": [
                    21.572003812315184,
                    53.80140170284729
                ]
            }
        },
        {
            "type": "Feature",
            "properties": {
                "ref:csioz": 1041609,
                "name": "Centrum",
                "addr:street": "Handlowy",
                "addr:housenumber": "15",
                "addr:city": "Mikołajki",
                "addr:postcode": "11-730",
                "amenity": "pharmacy"
            },
            "geometry": {
                "type": "Point",
                "coordinates": [
                    21.57342215977657,
                    53.80210020142246
                ]
            }
        },
        {
            "type": "Feature",
            "properties": {
                "ref:csioz": 1013997,
                "addr:street": "Wolności",
                "addr:housenumber": "3",
                "addr:city": "Mrągowo",
                "addr:postcode": "11-700",
                "amenity": "pharmacy"
            },
            "geometry": {
                "type": "Point",
                "coordinates": [
                    21.303039359064286,
                    53.87914277924726
                ]
            }
        },
        {
            "type": "Feature",
            "properties": {
                "ref:csioz": 1039465,
                "name": "Nowa",
                "addr:street": "Warszawska",
                "addr:housenumber": "45B",
                "addr:city": "Mrągowo",
                "addr:postcode": "11-700",
                "amenity": "pharmacy"
            },
            "geometry": {
                "type": "Point",
                "coordinates": [
                    21.305734235205584,
                    53.865789114878034
                ]
            }
        },
        {
            "type": "Feature",
            "properties": {
                "ref:csioz": 1039479,
                "addr:street": "Mały Rynek",
                "addr:housenumber": "2",
                "addr:city": "Mrągowo",
                "addr:postcode": "11-700",
                "amenity": "pharmacy"
            },
            "geometry": {
                "type": "Point",
                "coordinates": [
                    21.30330756151133,
                    53.87045971959076
                ]
            }
        },
        {
            "type": "Feature",
            "properties": {
                "ref:csioz": 1039498,
                "name": "Tęcza",
                "addr:street": "Królewiecka",
                "addr:housenumber": "23A",
                "addr:city": "Mrągowo",
                "addr:postcode": "11-700",
                "amenity": "pharmacy"
            },
            "geometry": {
                "type": "Point",
                "coordinates": [
                    21.303811815351132,
                    53.87290116244468
                ]
            }
        },
        {
            "type": "Feature",
            "properties": {
                "ref:csioz": 1039501,
                "name": "Tęcza Bis",
                "addr:street": "Osiedle Mazurskie",
                "addr:housenumber": "33A",
                "addr:city": "Mrągowo",
                "addr:postcode": "11-700",
                "amenity": "pharmacy"
            },
            "geometry": {
                "type": "Point",
                "coordinates": [
                    21.28767982466496,
                    53.86910503588045
                ]
            }
        },
        {
            "type": "Feature",
            "properties": {
                "ref:csioz": 1039660,
                "name": "Słoneczna",
                "addr:street": "Zwycięstwa",
                "addr:housenumber": "24",
                "addr:city": "Piecki",
                "addr:postcode": "11-710",
                "amenity": "pharmacy"
            },
            "geometry": {
                "type": "Point",
                "coordinates": [
                    21.341141332941678,
                    53.75554882816416
                ]
            }
        },
        {
            "type": "Feature",
            "properties": {
                "ref:csioz": 1175411,
                "name": "Apteka Dyżurna",
                "addr:street": "Młynowa",
                "addr:housenumber": "1B",
                "addr:city": "Mrągowo",
                "addr:postcode": "11-700",
                "amenity": "pharmacy"
            },
            "geometry": {
                "type": "Point",
                "coordinates": [
                    21.304092882450036,
                    53.87982231879626
                ]
            }
        },
        {
            "type": "Feature",
            "properties": {
                "ref:csioz": 1180583,
                "name": "Apteka Społeczna Na Królewieckiej Grupa Nowa Farmacja",
                "addr:street": "Królewiecka",
                "addr:housenumber": "43",
                "addr:city": "Mrągowo",
                "addr:postcode": "11-700",
                "amenity": "pharmacy"
            },
            "geometry": {
                "type": "Point",
                "coordinates": [
                    21.30353977839138,
                    53.874521440472506
                ]
            }
        },
        {
            "type": "Feature",
            "properties": {
                "ref:csioz": 1039433,
                "name": "Apteka Dbam O Zdrowie",
                "addr:street": "Królewiecka",
                "addr:housenumber": "58",
                "addr:city": "Mrągowo",
                "addr:postcode": "11-700",
                "amenity": "pharmacy"
            },
            "geometry": {
                "type": "Point",
                "coordinates": [
                    21.30466978019517,
                    53.87561157058221
                ]
            }
        },
        {
            "type": "Feature",
            "properties": {
                "ref:csioz": 1039422,
                "name": "Apteka Dbam O Zdrowie",
                "addr:street": "Królewiecka",
                "addr:housenumber": "45A",
                "addr:city": "Mrągowo",
                "addr:postcode": "11-700",
                "amenity": "pharmacy"
            },
            "geometry": {
                "type": "Point",
                "coordinates": [
                    21.30401983016262,
                    53.87494620371657
                ]
            }
        },
        {
            "type": "Feature",
            "properties": {
                "ref:csioz": 1172464,
                "name": "Nzoz Pomorskie Centra Kardiologiczne - Mrągowo",
                "addr:street": "Wolności",
                "addr:housenumber": "12",
                "addr:city": "Mrągowo",
                "addr:postcode": "11-700",
                "amenity": "pharmacy"
            },
            "geometry": {
                "type": "Point",
                "coordinates": [
                    21.29631123205314,
                    53.88069621546945
                ]
            }
        },
        {
            "type": "Feature",
            "properties": {
                "ref:csioz": 1221708,
                "name": "Apteka Malinowa",
                "addr:street": "Wojska Polskiego",
                "addr:housenumber": "22C",
                "addr:city": "Mrągowo",
                "addr:postcode": "11-700",
                "amenity": "pharmacy"
            },
            "geometry": {
                "type": "Point",
                "coordinates": [
                    21.30501126763832,
                    53.85825906827378
                ]
            }
        },
        {
            "type": "Feature",
            "properties": {
                "ref:csioz": 1225294,
                "name": "Sąsiedzka",
                "addr:street": "Zwycięstwa",
                "addr:housenumber": "27C",
                "addr:city": "Piecki",
                "addr:postcode": "11-710",
                "amenity": "pharmacy"
            },
            "geometry": {
                "type": "Point",
                "coordinates": [
                    21.34055475732328,
                    53.755180886344306
                ]
            }
        },
        {
            "type": "Feature",
            "properties": {
                "ref:csioz": 1173375,
                "name": "Słoneczna",
                "addr:street": "Wolności",
                "addr:housenumber": "5",
                "addr:city": "Mikołajki",
                "addr:postcode": "11-730",
                "amenity": "pharmacy"
            },
            "geometry": {
                "type": "Point",
                "coordinates": [
                    21.57334830040705,
                    53.80043940261364
                ]
            }
        }
    ]
}