{
    "type": "FeatureCollection",
    "name": "JPT_KOD_JE_1020",
    "features": [
        {
            "type": "Feature",
            "properties": {
                "ref:csioz": 1012550,
                "name": "Arnika",
                "addr:street": "Stanisława Witkacego",
                "addr:housenumber": "4",
                "addr:city": "Zgierz",
                "addr:postcode": "95-100",
                "amenity": "pharmacy"
            },
            "geometry": {
                "type": "Point",
                "coordinates": [
                    19.386358000000133,
                    51.85891800001525
                ]
            }
        },
        {
            "type": "Feature",
            "properties": {
                "ref:csioz": 1015900,
                "name": "Apteka Rodzinna Sanus",
                "addr:street": "gen. Henryka Dąbrowskiego",
                "addr:housenumber": "19",
                "addr:city": "Zgierz",
                "addr:postcode": "95-100",
                "amenity": "pharmacy"
            },
            "geometry": {
                "type": "Point",
                "coordinates": [
                    19.412741535749262,
                    51.8573945854438
                ]
            }
        },
        {
            "type": "Feature",
            "properties": {
                "ref:csioz": 1025551,
                "name": "Apteka Cosmedica",
                "addr:street": "Łódzka",
                "addr:housenumber": "77-79",
                "addr:city": "Zgierz",
                "addr:postcode": "95-100",
                "amenity": "pharmacy"
            },
            "geometry": {
                "type": "Point",
                "coordinates": [
                    19.415503468057626,
                    51.844039830951964
                ]
            }
        },
        {
            "type": "Feature",
            "properties": {
                "ref:csioz": 1121478,
                "name": "Apteka Dla Ciebie",
                "addr:street": "Juliana Tuwima",
                "addr:housenumber": "18",
                "addr:city": "Zgierz",
                "addr:postcode": "95-100",
                "amenity": "pharmacy"
            },
            "geometry": {
                "type": "Point",
                "coordinates": [
                    19.386487039704864,
                    51.85789640342077
                ]
            }
        },
        {
            "type": "Feature",
            "properties": {
                "ref:csioz": 1205471,
                "name": "Apteka Fiołkowa",
                "addr:street": "Swoboda",
                "addr:housenumber": "17/19",
                "addr:flats": "6",
                "addr:city": "Głowno",
                "addr:postcode": "95-015",
                "amenity": "pharmacy"
            },
            "geometry": {
                "type": "Point",
                "coordinates": [
                    19.71357184434811,
                    51.96280275420673
                ]
            }
        },
        {
            "type": "Feature",
            "properties": {
                "ref:csioz": 1009784,
                "name": "Doz Apteka Dbam O Zdrowie",
                "addr:street": "Plac Jana Pawła II",
                "addr:housenumber": "20",
                "addr:city": "Zgierz",
                "addr:postcode": "95-100",
                "amenity": "pharmacy"
            },
            "geometry": {
                "type": "Point",
                "coordinates": [
                    19.405089522758253,
                    51.85580767020947
                ]
            }
        },
        {
            "type": "Feature",
            "properties": {
                "ref:csioz": 1012228,
                "name": "Przy Banku",
                "addr:street": "1 Maja",
                "addr:housenumber": "28A",
                "addr:city": "Zgierz",
                "addr:postcode": "95-100",
                "amenity": "pharmacy"
            },
            "geometry": {
                "type": "Point",
                "coordinates": [
                    19.416701216705277,
                    51.85548200784196
                ]
            }
        },
        {
            "type": "Feature",
            "properties": {
                "ref:csioz": 1024790,
                "name": "Biała Stokrotka",
                "addr:street": "Kościelna",
                "addr:housenumber": "1",
                "addr:city": "Biała",
                "addr:postcode": "95-001",
                "amenity": "pharmacy"
            },
            "geometry": {
                "type": "Point",
                "coordinates": [
                    19.44697023100024,
                    51.92997286219653
                ]
            }
        },
        {
            "type": "Feature",
            "properties": {
                "ref:csioz": 1025983,
                "name": "Zdrówko",
                "addr:housenumber": "35",
                "addr:postcode": "95-015",
                "amenity": "pharmacy",
                "addr:place": "Popów Głowieński"
            },
            "geometry": {
                "type": "Point",
                "coordinates": [
                    19.62604833948122,
                    52.00106608661715
                ]
            }
        },
        {
            "type": "Feature",
            "properties": {
                "ref:csioz": 1184503,
                "name": "Apteka Najlepsza Dla Ciebie",
                "addr:street": "Władysława Sikorskiego",
                "addr:housenumber": "59",
                "addr:city": "Głowno",
                "addr:postcode": "95-015",
                "amenity": "pharmacy"
            },
            "geometry": {
                "type": "Point",
                "coordinates": [
                    19.711947959941874,
                    51.95858168845455
                ]
            }
        },
        {
            "type": "Feature",
            "properties": {
                "ref:csioz": 1186675,
                "name": "Apteka Słoneczna Centrum Farmaceutyczne",
                "addr:street": "Długa",
                "addr:housenumber": "6",
                "addr:city": "Zgierz",
                "addr:postcode": "95-100",
                "amenity": "pharmacy"
            },
            "geometry": {
                "type": "Point",
                "coordinates": [
                    19.407503929840896,
                    51.85597084641266
                ]
            }
        },
        {
            "type": "Feature",
            "properties": {
                "ref:csioz": 1210602,
                "name": "Apteka Społeczna Na Długiej Grupa Nowa Farmacja",
                "addr:street": "Długa",
                "addr:housenumber": "43A",
                "addr:city": "Zgierz",
                "addr:postcode": "95-100",
                "amenity": "pharmacy"
            },
            "geometry": {
                "type": "Point",
                "coordinates": [
                    19.41566427352744,
                    51.85489270583948
                ]
            }
        },
        {
            "type": "Feature",
            "properties": {
                "ref:csioz": 1218466,
                "name": "Punkt Apteczny Na Szóstkę",
                "addr:street": "Zgierska",
                "addr:housenumber": "24",
                "addr:city": "Emilia",
                "addr:postcode": "95-100",
                "amenity": "pharmacy"
            },
            "geometry": {
                "type": "Point",
                "coordinates": [
                    19.36199492654538,
                    51.91610204182686
                ]
            }
        },
        {
            "type": "Feature",
            "properties": {
                "ref:csioz": 1229115,
                "addr:street": "Wojska Polskiego",
                "addr:housenumber": "32/34",
                "addr:city": "Głowno",
                "addr:postcode": "95-015",
                "amenity": "pharmacy"
            },
            "geometry": {
                "type": "Point",
                "coordinates": [
                    19.733014875176977,
                    51.957210181737956
                ]
            }
        },
        {
            "type": "Feature",
            "properties": {
                "ref:csioz": 1020259,
                "name": "\"Apteka \"\"Rodzinna\"\"\"",
                "addr:street": "Długa",
                "addr:housenumber": "64A",
                "addr:city": "Zgierz",
                "addr:postcode": "95-100",
                "amenity": "pharmacy"
            },
            "geometry": {
                "type": "Point",
                "coordinates": [
                    19.425027492308423,
                    51.85324115194189
                ]
            }
        },
        {
            "type": "Feature",
            "properties": {
                "ref:csioz": 1009864,
                "name": "Konwalia",
                "addr:street": "Łowicka",
                "addr:housenumber": "38A",
                "addr:city": "Głowno",
                "addr:postcode": "95-015",
                "amenity": "pharmacy"
            },
            "geometry": {
                "type": "Point",
                "coordinates": [
                    19.723347000000267,
                    51.96538200001543
                ]
            }
        },
        {
            "type": "Feature",
            "properties": {
                "ref:csioz": 1009878,
                "name": "Panaceum",
                "addr:street": "Długa",
                "addr:housenumber": "71/73",
                "addr:city": "Zgierz",
                "addr:postcode": "95-100",
                "amenity": "pharmacy"
            },
            "geometry": {
                "type": "Point",
                "coordinates": [
                    19.42217300000015,
                    51.85398600001525
                ]
            }
        },
        {
            "type": "Feature",
            "properties": {
                "ref:csioz": 1010045,
                "name": "Apteka U Dominika",
                "addr:street": "Jana  Lechonia",
                "addr:housenumber": "2",
                "addr:city": "Zgierz",
                "addr:postcode": "95-100",
                "amenity": "pharmacy"
            },
            "geometry": {
                "type": "Point",
                "coordinates": [
                    19.390764156710162,
                    51.85909564557301
                ]
            }
        },
        {
            "type": "Feature",
            "properties": {
                "ref:csioz": 1010149,
                "name": "Apteka Leśmierz",
                "addr:housenumber": "18",
                "addr:postcode": "95-044",
                "amenity": "pharmacy",
                "addr:place": "Leśmierz"
            },
            "geometry": {
                "type": "Point",
                "coordinates": [
                    19.28380096353274,
                    52.02300518316336
                ]
            }
        },
        {
            "type": "Feature",
            "properties": {
                "ref:csioz": 1011143,
                "addr:street": "Południowa",
                "addr:housenumber": "1A",
                "addr:city": "Parzęczew",
                "addr:postcode": "95-045",
                "amenity": "pharmacy"
            },
            "geometry": {
                "type": "Point",
                "coordinates": [
                    19.203696453500672,
                    51.94282999586666
                ]
            }
        },
        {
            "type": "Feature",
            "properties": {
                "ref:csioz": 1011509,
                "addr:street": "1 Maja",
                "addr:housenumber": "1/3",
                "addr:city": "Zgierz",
                "addr:postcode": "95-100",
                "amenity": "pharmacy"
            },
            "geometry": {
                "type": "Point",
                "coordinates": [
                    19.41637400000014,
                    51.861619000015246
                ]
            }
        },
        {
            "type": "Feature",
            "properties": {
                "ref:csioz": 1011682,
                "name": "Apteka W Wieżowcu",
                "addr:street": "Parzęczewska",
                "addr:housenumber": "25C",
                "addr:city": "Zgierz",
                "addr:postcode": "95-100",
                "amenity": "pharmacy"
            },
            "geometry": {
                "type": "Point",
                "coordinates": [
                    19.39349500000014,
                    51.86143600001526
                ]
            }
        },
        {
            "type": "Feature",
            "properties": {
                "ref:csioz": 1011787,
                "name": "Verbena",
                "addr:street": "Tadeusza Boya-Żeleńskiego",
                "addr:housenumber": "23A",
                "addr:city": "Zgierz",
                "addr:postcode": "95-100",
                "amenity": "pharmacy"
            },
            "geometry": {
                "type": "Point",
                "coordinates": [
                    19.380662668378136,
                    51.86194358930989
                ]
            }
        },
        {
            "type": "Feature",
            "properties": {
                "ref:csioz": 1012320,
                "name": "Doz Apteka Dbam O Zdrowie",
                "addr:street": "Nowe Miasto",
                "addr:housenumber": "25",
                "addr:city": "Ozorków",
                "addr:postcode": "95-035",
                "amenity": "pharmacy"
            },
            "geometry": {
                "type": "Point",
                "coordinates": [
                    19.286197649839433,
                    51.95481908171792
                ]
            }
        },
        {
            "type": "Feature",
            "properties": {
                "ref:csioz": 1013636,
                "name": "Doz Apteka Dbam O Zdrowie",
                "addr:street": "Zgierska",
                "addr:housenumber": "27",
                "addr:city": "Głowno",
                "addr:postcode": "95-015",
                "amenity": "pharmacy"
            },
            "geometry": {
                "type": "Point",
                "coordinates": [
                    19.716511406994215,
                    51.96495341905481
                ]
            }
        },
        {
            "type": "Feature",
            "properties": {
                "ref:csioz": 1013571,
                "name": "\"Mega M.M. Pel Spółka Jawna\"\"\"",
                "addr:street": "gen. Władysława Sikorskiego",
                "addr:housenumber": "45/47",
                "addr:city": "Głowno",
                "addr:postcode": "95-015",
                "amenity": "pharmacy"
            },
            "geometry": {
                "type": "Point",
                "coordinates": [
                    19.716845000000255,
                    51.953911000015395
                ]
            }
        },
        {
            "type": "Feature",
            "properties": {
                "ref:csioz": 1015683,
                "name": "Afarm",
                "addr:street": "Parzęczewska",
                "addr:housenumber": "35",
                "addr:city": "Zgierz",
                "addr:postcode": "95-100",
                "amenity": "pharmacy"
            },
            "geometry": {
                "type": "Point",
                "coordinates": [
                    19.391486524789283,
                    51.86279640114888
                ]
            }
        },
        {
            "type": "Feature",
            "properties": {
                "ref:csioz": 1016263,
                "name": "Leśna",
                "addr:street": "Podleśna",
                "addr:housenumber": "4",
                "addr:city": "Smardzew",
                "addr:postcode": "95-002",
                "amenity": "pharmacy"
            },
            "geometry": {
                "type": "Point",
                "coordinates": [
                    19.46985056387951,
                    51.873378722443796
                ]
            }
        },
        {
            "type": "Feature",
            "properties": {
                "ref:csioz": 1018349,
                "name": "\"Apteka \"\"Kwiaty Polskie\"\"\"",
                "addr:street": "1 Maja",
                "addr:housenumber": "4",
                "addr:city": "Zgierz",
                "addr:postcode": "95-100",
                "amenity": "pharmacy"
            },
            "geometry": {
                "type": "Point",
                "coordinates": [
                    19.41572277802095,
                    51.861871609893484
                ]
            }
        },
        {
            "type": "Feature",
            "properties": {
                "ref:csioz": 1018881,
                "name": "Dr. Max",
                "addr:street": "Konstantego Ildefonsa Gałczyńskiego",
                "addr:housenumber": "34",
                "addr:city": "Zgierz",
                "addr:postcode": "95-100",
                "amenity": "pharmacy"
            },
            "geometry": {
                "type": "Point",
                "coordinates": [
                    19.39392956757552,
                    51.86072917870661
                ]
            }
        },
        {
            "type": "Feature",
            "properties": {
                "ref:csioz": 1020915,
                "name": "Stokrotka",
                "addr:street": "I. Starzyńskiego",
                "addr:housenumber": "8",
                "addr:city": "Ozorków",
                "addr:postcode": "95-035",
                "amenity": "pharmacy"
            },
            "geometry": {
                "type": "Point",
                "coordinates": [
                    19.29059324388553,
                    51.961434834404145
                ]
            }
        },
        {
            "type": "Feature",
            "properties": {
                "ref:csioz": 1022274,
                "name": "Nad Lindą",
                "addr:street": "Brzozowa",
                "addr:housenumber": "23A",
                "addr:city": "Grotniki",
                "addr:postcode": "95-073",
                "amenity": "pharmacy"
            },
            "geometry": {
                "type": "Point",
                "coordinates": [
                    19.31446640817693,
                    51.89323907763651
                ]
            }
        },
        {
            "type": "Feature",
            "properties": {
                "ref:csioz": 1024459,
                "name": "Apteka Przyjazna",
                "addr:street": "Waleriana Łukasińskiego",
                "addr:housenumber": "15",
                "addr:city": "Stryków",
                "addr:postcode": "95-010",
                "amenity": "pharmacy"
            },
            "geometry": {
                "type": "Point",
                "coordinates": [
                    19.60095215050721,
                    51.90095140335191
                ]
            }
        },
        {
            "type": "Feature",
            "properties": {
                "ref:csioz": 1025313,
                "addr:street": "Młynarska",
                "addr:housenumber": "1",
                "addr:city": "Głowno",
                "addr:postcode": "95-015",
                "amenity": "pharmacy"
            },
            "geometry": {
                "type": "Point",
                "coordinates": [
                    19.720328774903045,
                    51.964858358453824
                ]
            }
        },
        {
            "type": "Feature",
            "properties": {
                "ref:csioz": 1116793,
                "name": "Apteka Hortensja",
                "addr:street": "Stanisława Fijałkowskiego",
                "addr:housenumber": "2",
                "addr:city": "Zgierz",
                "addr:postcode": "95-100",
                "amenity": "pharmacy"
            },
            "geometry": {
                "type": "Point",
                "coordinates": [
                    19.424187379138917,
                    51.86427740141309
                ]
            }
        },
        {
            "type": "Feature",
            "properties": {
                "ref:csioz": 1171885,
                "addr:housenumber": "57",
                "addr:postcode": "95-035",
                "amenity": "pharmacy",
                "addr:place": "Solca Wielka"
            },
            "geometry": {
                "type": "Point",
                "coordinates": [
                    19.232319040212676,
                    51.98781785751965
                ]
            }
        },
        {
            "type": "Feature",
            "properties": {
                "ref:csioz": 1177676,
                "name": "Apteka Wspólna",
                "addr:street": "I. Starzyńskiego",
                "addr:housenumber": "31",
                "addr:city": "Ozorków",
                "addr:postcode": "95-035",
                "amenity": "pharmacy"
            },
            "geometry": {
                "type": "Point",
                "coordinates": [
                    19.288472532787857,
                    51.9586703344936
                ]
            }
        },
        {
            "type": "Feature",
            "properties": {
                "ref:csioz": 1194625,
                "addr:street": "Główna",
                "addr:housenumber": "43",
                "addr:city": "Gieczno",
                "addr:postcode": "95-100",
                "amenity": "pharmacy"
            },
            "geometry": {
                "type": "Point",
                "coordinates": [
                    19.451528784534894,
                    52.001892461589634
                ]
            }
        },
        {
            "type": "Feature",
            "properties": {
                "ref:csioz": 1198805,
                "name": "\"Niepubliczny Zakład Opieki Zdrowotnej \"\"Care\"\"\"",
                "addr:street": "Stanisława Dubois",
                "addr:housenumber": "17",
                "addr:city": "Zgierz",
                "addr:postcode": "95-100",
                "amenity": "pharmacy"
            },
            "geometry": {
                "type": "Point",
                "coordinates": [
                    19.42130600000015,
                    51.85788900001524
                ]
            }
        },
        {
            "type": "Feature",
            "properties": {
                "ref:csioz": 1011848,
                "name": "Bazylia",
                "addr:street": "Bazylijska",
                "addr:housenumber": "39K",
                "addr:city": "Zgierz",
                "addr:postcode": "95-100",
                "amenity": "pharmacy"
            },
            "geometry": {
                "type": "Point",
                "coordinates": [
                    19.396586000287105,
                    51.86303376068611
                ]
            }
        },
        {
            "type": "Feature",
            "properties": {
                "ref:csioz": 1012231,
                "name": "Doz Apteka Dbam O Zdrowie",
                "addr:street": "Jana Pawła II",
                "addr:housenumber": "17",
                "addr:city": "Ozorków",
                "addr:postcode": "95-035",
                "amenity": "pharmacy"
            },
            "geometry": {
                "type": "Point",
                "coordinates": [
                    19.291124251644543,
                    51.96389394107101
                ]
            }
        },
        {
            "type": "Feature",
            "properties": {
                "ref:csioz": 1015246,
                "addr:street": "Kolejowa",
                "addr:housenumber": "33",
                "addr:city": "Stryków",
                "addr:postcode": "95-010",
                "amenity": "pharmacy"
            },
            "geometry": {
                "type": "Point",
                "coordinates": [
                    19.5952969760862,
                    51.90473413566508
                ]
            }
        },
        {
            "type": "Feature",
            "properties": {
                "ref:csioz": 1017817,
                "name": "Nowa",
                "addr:street": "Kolejowa",
                "addr:housenumber": "13",
                "addr:city": "Stryków",
                "addr:postcode": "95-010",
                "amenity": "pharmacy"
            },
            "geometry": {
                "type": "Point",
                "coordinates": [
                    19.597609040591607,
                    51.90305186793958
                ]
            }
        },
        {
            "type": "Feature",
            "properties": {
                "ref:csioz": 1021398,
                "name": "Apteka Dbam O Zdrowie",
                "addr:street": "I. Starzyńskiego",
                "addr:housenumber": "7",
                "addr:city": "Ozorków",
                "addr:postcode": "95-035",
                "amenity": "pharmacy"
            },
            "geometry": {
                "type": "Point",
                "coordinates": [
                    19.290488515329212,
                    51.9623049677168
                ]
            }
        },
        {
            "type": "Feature",
            "properties": {
                "ref:csioz": 1022670,
                "name": "Doz Apteka. Dbam O Zdrowie. Nowa Kuźnia",
                "addr:street": "Targowa",
                "addr:housenumber": "16",
                "addr:city": "Stryków",
                "addr:postcode": "95-010",
                "amenity": "pharmacy"
            },
            "geometry": {
                "type": "Point",
                "coordinates": [
                    19.604861675440297,
                    51.89748579526308
                ]
            }
        },
        {
            "type": "Feature",
            "properties": {
                "ref:csioz": 1186650,
                "name": "Apteka Wrzosowa",
                "addr:street": "Konstantego Ildefonsa Gałczyńskiego",
                "addr:housenumber": "40",
                "addr:city": "Zgierz",
                "addr:postcode": "95-100",
                "amenity": "pharmacy"
            },
            "geometry": {
                "type": "Point",
                "coordinates": [
                    19.396818654443948,
                    51.86254775428445
                ]
            }
        },
        {
            "type": "Feature",
            "properties": {
                "ref:csioz": 1193096,
                "name": "Apteka Najlepsza Dla Ciebie",
                "addr:street": "Mikołaja Kopernika",
                "addr:housenumber": "19",
                "addr:city": "Głowno",
                "addr:postcode": "95-015",
                "amenity": "pharmacy"
            },
            "geometry": {
                "type": "Point",
                "coordinates": [
                    19.700982334577915,
                    51.96972999244303
                ]
            }
        },
        {
            "type": "Feature",
            "properties": {
                "ref:csioz": 1197210,
                "name": "Wojewódzki Szpital Specjalistyczny W Zgierzu Im. M. Skłodowskiej-Curie",
                "addr:street": "Parzęczewska",
                "addr:housenumber": "35",
                "addr:city": "Zgierz",
                "addr:postcode": "95-100",
                "amenity": "pharmacy"
            },
            "geometry": {
                "type": "Point",
                "coordinates": [
                    19.391486524789283,
                    51.86279640114888
                ]
            }
        },
        {
            "type": "Feature",
            "properties": {
                "ref:csioz": 1197680,
                "name": "Apteka Hortensja",
                "addr:street": "Leopolda Staffa",
                "addr:housenumber": "14A",
                "addr:city": "Zgierz",
                "addr:postcode": "95-100",
                "amenity": "pharmacy"
            },
            "geometry": {
                "type": "Point",
                "coordinates": [
                    19.378742169558365,
                    51.860846673409256
                ]
            }
        },
        {
            "type": "Feature",
            "properties": {
                "ref:csioz": 1198373,
                "addr:street": "Parzęczewska",
                "addr:housenumber": "35",
                "addr:city": "Zgierz",
                "addr:postcode": "95-100",
                "amenity": "pharmacy"
            },
            "geometry": {
                "type": "Point",
                "coordinates": [
                    19.391486524789283,
                    51.86279640114888
                ]
            }
        },
        {
            "type": "Feature",
            "properties": {
                "ref:csioz": 1198746,
                "name": "Zakład Opiekuńczo-Leczniczy Towarzystwa Przyjaciół Niepełnosprawnych",
                "addr:street": "Jedlinowa",
                "addr:housenumber": "42/44",
                "addr:city": "Jedlicze A",
                "addr:postcode": "95-073",
                "amenity": "pharmacy"
            },
            "geometry": {
                "type": "Point",
                "coordinates": [
                    19.326091000000105,
                    51.87413300001526
                ]
            }
        },
        {
            "type": "Feature",
            "properties": {
                "ref:csioz": 1210568,
                "name": "Apteka Wspólna",
                "addr:street": "ks. Jerzego  Popiełuszki",
                "addr:housenumber": "2A",
                "addr:city": "Zgierz",
                "addr:postcode": "95-100",
                "amenity": "pharmacy"
            },
            "geometry": {
                "type": "Point",
                "coordinates": [
                    19.40782517144089,
                    51.85525966223868
                ]
            }
        },
        {
            "type": "Feature",
            "properties": {
                "ref:csioz": 1212075,
                "name": "Apteka Wybieram Zdrowie",
                "addr:street": "Kupiecka",
                "addr:housenumber": "2/4",
                "addr:city": "Ozorków",
                "addr:postcode": "95-035",
                "amenity": "pharmacy"
            },
            "geometry": {
                "type": "Point",
                "coordinates": [
                    19.282114000000092,
                    51.955836000015395
                ]
            }
        },
        {
            "type": "Feature",
            "properties": {
                "ref:csioz": 1220975,
                "name": "Apteka Wspólna",
                "addr:street": "ks. kard. Stefana Wyszyńskiego",
                "addr:housenumber": "2",
                "addr:city": "Ozorków",
                "addr:postcode": "95-035",
                "amenity": "pharmacy"
            },
            "geometry": {
                "type": "Point",
                "coordinates": [
                    19.292892792659252,
                    51.96267009412788
                ]
            }
        },
        {
            "type": "Feature",
            "properties": {
                "ref:csioz": 1229526,
                "name": "Helios I",
                "addr:street": "Szkolna",
                "addr:housenumber": "14",
                "addr:city": "Bratoszewice",
                "addr:postcode": "95-011",
                "amenity": "pharmacy"
            },
            "geometry": {
                "type": "Point",
                "coordinates": [
                    19.650039995841208,
                    51.928926937565514
                ]
            }
        },
        {
            "type": "Feature",
            "properties": {
                "ref:csioz": 1230557,
                "addr:street": "Wojska Polskiego",
                "addr:housenumber": "32/34",
                "addr:city": "Głowno",
                "addr:postcode": "95-015",
                "amenity": "pharmacy"
            },
            "geometry": {
                "type": "Point",
                "coordinates": [
                    19.733014875176977,
                    51.957210181737956
                ]
            }
        },
        {
            "type": "Feature",
            "properties": {
                "ref:csioz": 1009620,
                "name": "Valeriana",
                "addr:street": "Południowa",
                "addr:housenumber": "23",
                "addr:city": "Aleksandrów Łódzki",
                "addr:postcode": "95-070",
                "amenity": "pharmacy"
            },
            "geometry": {
                "type": "Point",
                "coordinates": [
                    19.307171000000107,
                    51.815538000015174
                ]
            }
        },
        {
            "type": "Feature",
            "properties": {
                "ref:csioz": 1010822,
                "name": "Victoria",
                "addr:street": "Marii Skłodowskiej-Curie",
                "addr:housenumber": "3",
                "addr:city": "Aleksandrów Łódzki",
                "addr:postcode": "95-070",
                "amenity": "pharmacy"
            },
            "geometry": {
                "type": "Point",
                "coordinates": [
                    19.30257530935979,
                    51.821856197723264
                ]
            }
        },
        {
            "type": "Feature",
            "properties": {
                "ref:csioz": 1011162,
                "addr:street": "Wojska Polskiego",
                "addr:housenumber": "9",
                "addr:city": "Aleksandrów Łódzki",
                "addr:postcode": "95-070",
                "amenity": "pharmacy"
            },
            "geometry": {
                "type": "Point",
                "coordinates": [
                    19.305901266461095,
                    51.81884406011867
                ]
            }
        },
        {
            "type": "Feature",
            "properties": {
                "ref:csioz": 1011345,
                "addr:street": "Wojska Polskiego",
                "addr:housenumber": "69",
                "addr:city": "Aleksandrów Łódzki",
                "addr:postcode": "95-070",
                "amenity": "pharmacy"
            },
            "geometry": {
                "type": "Point",
                "coordinates": [
                    19.3164264703714,
                    51.81644855112894
                ]
            }
        },
        {
            "type": "Feature",
            "properties": {
                "ref:csioz": 1018642,
                "name": "Natura",
                "addr:street": "Senatorska",
                "addr:housenumber": "2",
                "addr:city": "Aleksandrów Łódzki",
                "addr:postcode": "95-070",
                "amenity": "pharmacy"
            },
            "geometry": {
                "type": "Point",
                "coordinates": [
                    19.318322150700915,
                    51.811075920298116
                ]
            }
        },
        {
            "type": "Feature",
            "properties": {
                "ref:csioz": 1021096,
                "name": "Apteka Prima",
                "addr:street": "Ignacego Daszyńskiego",
                "addr:housenumber": "14",
                "addr:city": "Aleksandrów Łódzki",
                "addr:postcode": "95-070",
                "amenity": "pharmacy"
            },
            "geometry": {
                "type": "Point",
                "coordinates": [
                    19.303219000000105,
                    51.8234870000152
                ]
            }
        },
        {
            "type": "Feature",
            "properties": {
                "ref:csioz": 1026283,
                "name": "L.J. Punkt Apteczny Lilla Jóźwiak",
                "addr:housenumber": "39",
                "addr:postcode": "95-070",
                "amenity": "pharmacy",
                "addr:place": "Bełdów"
            },
            "geometry": {
                "type": "Point",
                "coordinates": [
                    19.18501002343253,
                    51.8273154708281
                ]
            }
        },
        {
            "type": "Feature",
            "properties": {
                "ref:csioz": 1021118,
                "name": "Doz Apteka. Dbam O Zdrowie. Alba",
                "addr:street": "Warszawska",
                "addr:housenumber": "8",
                "addr:city": "Aleksandrów Łódzki",
                "addr:postcode": "95-070",
                "amenity": "pharmacy"
            },
            "geometry": {
                "type": "Point",
                "coordinates": [
                    19.3048580000001,
                    51.821715000015196
                ]
            }
        },
        {
            "type": "Feature",
            "properties": {
                "ref:csioz": 1022892,
                "name": "Apteka Prima",
                "addr:street": "Józefa Piłsudskiego",
                "addr:housenumber": "2/4",
                "addr:city": "Aleksandrów Łódzki",
                "addr:postcode": "95-070",
                "amenity": "pharmacy"
            },
            "geometry": {
                "type": "Point",
                "coordinates": [
                    19.316445206296127,
                    51.812742353492496
                ]
            }
        },
        {
            "type": "Feature",
            "properties": {
                "ref:csioz": 1024972,
                "addr:street": "Pańska",
                "addr:housenumber": "14",
                "addr:city": "Rąbień",
                "addr:postcode": "95-071",
                "amenity": "pharmacy"
            },
            "geometry": {
                "type": "Point",
                "coordinates": [
                    19.317393853338437,
                    51.7897413410377
                ]
            }
        },
        {
            "type": "Feature",
            "properties": {
                "ref:csioz": 1197833,
                "name": "Apteka Melissa",
                "addr:street": "Marii Skłodowskiej-Curie",
                "addr:housenumber": "1",
                "addr:city": "Aleksandrów Łódzki",
                "addr:postcode": "95-070",
                "amenity": "pharmacy"
            },
            "geometry": {
                "type": "Point",
                "coordinates": [
                    19.302622000000095,
                    51.8217290000152
                ]
            }
        },
        {
            "type": "Feature",
            "properties": {
                "ref:csioz": 1211670,
                "name": "Apteka Dla Ciebie",
                "addr:street": "Wojska Polskiego",
                "addr:housenumber": "42",
                "addr:city": "Aleksandrów Łódzki",
                "addr:postcode": "95-070",
                "amenity": "pharmacy"
            },
            "geometry": {
                "type": "Point",
                "coordinates": [
                    19.310234221117668,
                    51.81816418895641
                ]
            }
        },
        {
            "type": "Feature",
            "properties": {
                "ref:csioz": 1226268,
                "name": "Apteka Słoneczna Centrum Farmaceutyczne",
                "addr:street": "Wojska Polskiego",
                "addr:housenumber": "36",
                "addr:city": "Aleksandrów Łódzki",
                "addr:postcode": "95-070",
                "amenity": "pharmacy"
            },
            "geometry": {
                "type": "Point",
                "coordinates": [
                    19.30932139478079,
                    51.818353847669464
                ]
            }
        }
    ]
}