{
    "type": "FeatureCollection",
    "name": "JPT_KOD_JE_2416",
    "features": [
        {
            "type": "Feature",
            "properties": {
                "ref:csioz": 1065110,
                "name": "Św. Józefa",
                "addr:street": "1 Maja",
                "addr:housenumber": "3",
                "addr:city": "Kroczyce",
                "addr:postcode": "42-345",
                "amenity": "pharmacy",
                "dispensing": "yes"
            },
            "geometry": {
                "type": "Point",
                "coordinates": [
                    19.570383477688647,
                    50.56110683018449
                ]
            }
        },
        {
            "type": "Feature",
            "properties": {
                "ref:csioz": 1065129,
                "name": "Brak Nazwy",
                "addr:street": "Batalionów Chłopskich",
                "addr:housenumber": "31",
                "addr:city": "Kroczyce",
                "addr:postcode": "42-345",
                "amenity": "pharmacy",
                "dispensing": "yes"
            },
            "geometry": {
                "type": "Point",
                "coordinates": [
                    19.563504117082807,
                    50.56855234048677
                ]
            }
        },
        {
            "type": "Feature",
            "properties": {
                "ref:csioz": 1065540,
                "name": "Radix",
                "addr:street": "Tadeusza Kościuszki",
                "addr:housenumber": "3",
                "addr:city": "Łazy",
                "addr:postcode": "42-450",
                "amenity": "pharmacy",
                "dispensing": "yes"
            },
            "geometry": {
                "type": "Point",
                "coordinates": [
                    19.391449072232138,
                    50.42834280223027
                ]
            }
        },
        {
            "type": "Feature",
            "properties": {
                "ref:csioz": 1065554,
                "name": "Panaceum",
                "addr:street": "SPÓŁDZIELCZA",
                "addr:housenumber": "5",
                "addr:city": "ŁAZY",
                "addr:postcode": "45-450",
                "amenity": "pharmacy",
                "dispensing": "yes"
            },
            "geometry": {
                "type": "Point",
                "coordinates": [
                    19.387697555500694,
                    50.43142985932285
                ]
            }
        },
        {
            "type": "Feature",
            "properties": {
                "ref:csioz": 1066311,
                "name": "Brak Nazwy",
                "addr:street": "PLAC  WOLNOŚCI",
                "addr:housenumber": "26",
                "addr:city": "OGRODZIENIEC",
                "addr:postcode": "42-440",
                "amenity": "pharmacy",
                "dispensing": "yes"
            },
            "geometry": {
                "type": "Point",
                "coordinates": [
                    19.519806056664937,
                    50.448655713207245
                ]
            }
        },
        {
            "type": "Feature",
            "properties": {
                "ref:csioz": 1066775,
                "name": "Brak",
                "addr:street": "PLAC MICKIEWICZA",
                "addr:housenumber": "2",
                "addr:city": "PILICA",
                "addr:postcode": "42-436",
                "amenity": "pharmacy",
                "dispensing": "yes"
            },
            "geometry": {
                "type": "Point",
                "coordinates": [
                    19.657480543434428,
                    50.468659809457165
                ]
            }
        },
        {
            "type": "Feature",
            "properties": {
                "ref:csioz": 1071819,
                "name": "Apteka Zdrowit",
                "addr:street": "3 MAJA",
                "addr:housenumber": "1",
                "addr:city": "ZAWIERCIE",
                "addr:postcode": "42-400",
                "amenity": "pharmacy",
                "dispensing": "yes"
            },
            "geometry": {
                "type": "Point",
                "coordinates": [
                    19.42325375839949,
                    50.48567890511611
                ]
            }
        },
        {
            "type": "Feature",
            "properties": {
                "ref:csioz": 1071862,
                "name": "Panaceum",
                "addr:street": "NOWOWIERZBOWA",
                "addr:housenumber": "10",
                "addr:city": "ZAWIERCIE",
                "addr:postcode": "42-200",
                "amenity": "pharmacy",
                "dispensing": "yes"
            },
            "geometry": {
                "type": "Point",
                "coordinates": [
                    19.43685207135996,
                    50.49356504631977
                ]
            }
        },
        {
            "type": "Feature",
            "properties": {
                "ref:csioz": 1071870,
                "name": "Doz Apteka Dbam O Zdrowie",
                "addr:street": "OBROŃCÓW POCZTY GDAŃSKIEJ",
                "addr:housenumber": "20",
                "addr:city": "ZAWIERCIE",
                "addr:postcode": "42-400",
                "amenity": "pharmacy",
                "dispensing": "yes"
            },
            "geometry": {
                "type": "Point",
                "coordinates": [
                    19.414992711697142,
                    50.48496650287961
                ]
            }
        },
        {
            "type": "Feature",
            "properties": {
                "ref:csioz": 1071881,
                "name": "\"Apteka Cef@Rm 36,6\"",
                "addr:street": "OBROŃCÓW POCZTY GDAŃSKIEJ",
                "addr:housenumber": "20",
                "addr:city": "ZAWIERCIE",
                "addr:postcode": "42-400",
                "amenity": "pharmacy",
                "dispensing": "yes"
            },
            "geometry": {
                "type": "Point",
                "coordinates": [
                    19.414992711697142,
                    50.484936502879606
                ]
            }
        },
        {
            "type": "Feature",
            "properties": {
                "ref:csioz": 1071897,
                "name": "Przy Almedzie",
                "addr:street": "Ignacego Paderewskiego",
                "addr:housenumber": "25",
                "addr:city": "Zawiercie",
                "addr:postcode": "42-400",
                "amenity": "pharmacy",
                "dispensing": "yes"
            },
            "geometry": {
                "type": "Point",
                "coordinates": [
                    19.43614358954329,
                    50.48216107033619
                ]
            }
        },
        {
            "type": "Feature",
            "properties": {
                "ref:csioz": 1071914,
                "name": "Apteka Dbam O Zdrowie",
                "addr:street": "PIŁSUDSKIEGO",
                "addr:housenumber": "16",
                "addr:city": "ZAWIERCIE",
                "addr:postcode": "42-400",
                "amenity": "pharmacy",
                "dispensing": "yes"
            },
            "geometry": {
                "type": "Point",
                "coordinates": [
                    19.427205628207243,
                    50.49089583766639
                ]
            }
        },
        {
            "type": "Feature",
            "properties": {
                "ref:csioz": 1071938,
                "name": "Doz Apteka Dbam O Zdrowie",
                "addr:street": "PIŁSUDSKIEGO",
                "addr:housenumber": "81F",
                "addr:city": "ZAWIERCIE",
                "addr:postcode": "42-400",
                "amenity": "pharmacy",
                "dispensing": "yes"
            },
            "geometry": {
                "type": "Point",
                "coordinates": [
                    19.43294496618491,
                    50.491079203547265
                ]
            }
        },
        {
            "type": "Feature",
            "properties": {
                "ref:csioz": 1071951,
                "name": "Plus",
                "addr:street": "POLSKA",
                "addr:housenumber": "46 B",
                "addr:city": "ZAWIERCIE",
                "addr:postcode": "42-400",
                "amenity": "pharmacy",
                "dispensing": "yes"
            },
            "geometry": {
                "type": "Point",
                "coordinates": [
                    19.448473907317577,
                    50.4905484088529
                ]
            }
        },
        {
            "type": "Feature",
            "properties": {
                "ref:csioz": 1071972,
                "name": "Apteka Słoneczna",
                "addr:street": "Powstańców Śląskich",
                "addr:housenumber": "8",
                "addr:city": "Zawiercie",
                "addr:postcode": "42-400",
                "amenity": "pharmacy",
                "dispensing": "yes"
            },
            "geometry": {
                "type": "Point",
                "coordinates": [
                    19.425351310224965,
                    50.48495974423709
                ]
            }
        },
        {
            "type": "Feature",
            "properties": {
                "ref:csioz": 1071980,
                "name": "Brak Nazwy",
                "addr:street": "REYMONTA",
                "addr:housenumber": "1",
                "addr:city": "ZAWIERCIE",
                "addr:postcode": "42-400",
                "amenity": "pharmacy",
                "dispensing": "yes"
            },
            "geometry": {
                "type": "Point",
                "coordinates": [
                    19.43505181865531,
                    50.48198438925601
                ]
            }
        },
        {
            "type": "Feature",
            "properties": {
                "ref:csioz": 1073165,
                "name": "Brak Nazwy",
                "addr:street": "BATALIONÓW CHŁOPSKICH",
                "addr:housenumber": "10",
                "addr:city": "PRADŁA",
                "addr:postcode": "42-427",
                "amenity": "pharmacy",
                "dispensing": "yes"
            },
            "geometry": {
                "type": "Point",
                "coordinates": [
                    19.64467730104722,
                    50.57397453105328
                ]
            }
        },
        {
            "type": "Feature",
            "properties": {
                "ref:csioz": 1172503,
                "name": "Apteka Śląska Pharmaland",
                "addr:street": "11 Listopada",
                "addr:housenumber": "2",
                "addr:city": "Zawiercie",
                "addr:postcode": "42-400",
                "amenity": "pharmacy",
                "dispensing": "yes"
            },
            "geometry": {
                "type": "Point",
                "coordinates": [
                    19.421489494205524,
                    50.4914610068004
                ]
            }
        },
        {
            "type": "Feature",
            "properties": {
                "ref:csioz": 1207914,
                "name": "Doz Apteka Dbam O Zdrowie",
                "addr:street": "al. gen. Władysława Sikorskiego",
                "addr:housenumber": "21 A",
                "addr:city": "Zawiercie",
                "addr:postcode": "42-400",
                "amenity": "pharmacy",
                "dispensing": "yes"
            },
            "geometry": {
                "type": "Point",
                "coordinates": [
                    19.426898000000126,
                    50.480789000013196
                ]
            }
        },
        {
            "type": "Feature",
            "properties": {
                "ref:csioz": 1065565,
                "name": "Apteka Libra",
                "addr:street": "TARGOWA",
                "addr:housenumber": "2",
                "addr:city": "ŁAZY",
                "addr:postcode": "42-450",
                "amenity": "pharmacy",
                "dispensing": "yes"
            },
            "geometry": {
                "type": "Point",
                "coordinates": [
                    19.392433546021078,
                    50.427748338086715
                ]
            }
        },
        {
            "type": "Feature",
            "properties": {
                "ref:csioz": 1066769,
                "name": "Zdrowie",
                "addr:street": "BARBARY",
                "addr:housenumber": "2",
                "addr:city": "PILICA",
                "addr:postcode": "42 436",
                "amenity": "pharmacy",
                "dispensing": "yes"
            },
            "geometry": {
                "type": "Point",
                "coordinates": [
                    19.657262994009887,
                    50.46881866697366
                ]
            }
        },
        {
            "type": "Feature",
            "properties": {
                "ref:csioz": 1071824,
                "name": "\"Apteka Cefarm 36,6\"",
                "addr:street": "BOHATERÓW WESTERPLATTE",
                "addr:housenumber": "33",
                "addr:city": "ZAWIERCIE",
                "addr:postcode": "42-400",
                "amenity": "pharmacy",
                "dispensing": "yes"
            },
            "geometry": {
                "type": "Point",
                "coordinates": [
                    19.43292500000013,
                    50.490585000013205
                ]
            }
        },
        {
            "type": "Feature",
            "properties": {
                "ref:csioz": 1071995,
                "name": "Sikora",
                "addr:street": "SĄDOWA",
                "addr:housenumber": "10",
                "addr:city": "ZAWIERCIE",
                "addr:postcode": "42-400",
                "amenity": "pharmacy",
                "dispensing": "yes"
            },
            "geometry": {
                "type": "Point",
                "coordinates": [
                    19.42523800000012,
                    50.48419200001319
                ]
            }
        },
        {
            "type": "Feature",
            "properties": {
                "ref:csioz": 1072007,
                "name": "Jurajska Ii",
                "addr:street": "gen. Władysława Sikorskiego",
                "addr:housenumber": "26",
                "addr:city": "Zawiercie",
                "addr:postcode": "42-400",
                "amenity": "pharmacy",
                "dispensing": "yes"
            },
            "geometry": {
                "type": "Point",
                "coordinates": [
                    19.42580458145777,
                    50.481301921965326
                ]
            }
        },
        {
            "type": "Feature",
            "properties": {
                "ref:csioz": 1072029,
                "name": "Brak Nazwy",
                "addr:street": "TARGOWA",
                "addr:housenumber": "7",
                "addr:city": "ZAWIERCIE",
                "addr:postcode": "42-400",
                "amenity": "pharmacy",
                "dispensing": "yes"
            },
            "geometry": {
                "type": "Point",
                "coordinates": [
                    19.493336022243447,
                    50.49380827851013
                ]
            }
        },
        {
            "type": "Feature",
            "properties": {
                "ref:csioz": 1074456,
                "name": "Szpital Powiatowy W Zawierciu",
                "addr:street": "Miodowa",
                "addr:housenumber": "14",
                "addr:city": "Zawiercie",
                "addr:postcode": "42-400",
                "amenity": "pharmacy",
                "dispensing": "yes"
            },
            "geometry": {
                "type": "Point",
                "coordinates": [
                    19.40875993988103,
                    50.48213510106198
                ]
            }
        },
        {
            "type": "Feature",
            "properties": {
                "ref:csioz": 1110989,
                "name": "Far-Med",
                "addr:street": "Piłsudskiego",
                "addr:housenumber": "50",
                "addr:city": "Zawiercie",
                "addr:postcode": "42-400",
                "amenity": "pharmacy",
                "dispensing": "yes"
            },
            "geometry": {
                "type": "Point",
                "coordinates": [
                    19.44038055288438,
                    50.491160874731904
                ]
            }
        },
        {
            "type": "Feature",
            "properties": {
                "ref:csioz": 1122701,
                "name": "Ultrasonografia Wieloprofilowa Pracownia Diagnostyczno-Lekarska Spółka Z Ograniczoną Odpowiedzialnością - Szpital",
                "addr:street": "11 Listopada",
                "addr:housenumber": "2",
                "addr:city": "Zawiercie",
                "addr:postcode": "42-400",
                "amenity": "pharmacy",
                "dispensing": "yes"
            },
            "geometry": {
                "type": "Point",
                "coordinates": [
                    19.421489494205524,
                    50.4914310068004
                ]
            }
        },
        {
            "type": "Feature",
            "properties": {
                "ref:csioz": 1177408,
                "name": "Zakład Pielęgnacyjno-Rehabilitacyjny",
                "addr:housenumber": "42A",
                "addr:postcode": "42-436",
                "amenity": "pharmacy",
                "addr:place": "Kocikowa",
                "dispensing": "yes"
            },
            "geometry": {
                "type": "Point",
                "coordinates": [
                    19.607916446361614,
                    50.46096898794884
                ]
            }
        },
        {
            "type": "Feature",
            "properties": {
                "ref:csioz": 1180254,
                "name": "Doz Apteka Dbam O Zdrowie",
                "addr:street": "3 Maja",
                "addr:housenumber": "23",
                "addr:city": "Zawiercie",
                "addr:postcode": "42-400",
                "amenity": "pharmacy",
                "dispensing": "yes"
            },
            "geometry": {
                "type": "Point",
                "coordinates": [
                    19.423639163665165,
                    50.4832221942632
                ]
            }
        },
        {
            "type": "Feature",
            "properties": {
                "ref:csioz": 1199449,
                "addr:street": "Mickiewicza",
                "addr:housenumber": "28",
                "addr:city": "Pilica",
                "addr:postcode": "42-436",
                "amenity": "pharmacy",
                "dispensing": "yes"
            },
            "geometry": {
                "type": "Point",
                "coordinates": [
                    19.657251046931822,
                    50.46737826014698
                ]
            }
        },
        {
            "type": "Feature",
            "properties": {
                "ref:csioz": 1213214,
                "name": "Witaminka",
                "addr:street": "ul. Krakowska",
                "addr:housenumber": "11",
                "addr:city": "Włodowice",
                "addr:postcode": "42-421",
                "amenity": "pharmacy",
                "dispensing": "yes"
            },
            "geometry": {
                "type": "Point",
                "coordinates": [
                    19.454706198456474,
                    50.55053642310705
                ]
            }
        },
        {
            "type": "Feature",
            "properties": {
                "ref:csioz": 1222603,
                "name": "Apteka Rodzinna",
                "addr:street": "Powstańców Śląskich",
                "addr:housenumber": "15",
                "addr:city": "Zawiercie",
                "addr:postcode": "42-400",
                "amenity": "pharmacy",
                "dispensing": "yes"
            },
            "geometry": {
                "type": "Point",
                "coordinates": [
                    19.424994392372934,
                    50.485485913158286
                ]
            }
        },
        {
            "type": "Feature",
            "properties": {
                "ref:csioz": 1226597,
                "addr:street": "Plac Wolności",
                "addr:housenumber": "17",
                "addr:city": "Ogrodzieniec",
                "addr:postcode": "42-440",
                "amenity": "pharmacy",
                "dispensing": "yes"
            },
            "geometry": {
                "type": "Point",
                "coordinates": [
                    19.519348631944812,
                    50.447778134119325
                ]
            }
        },
        {
            "type": "Feature",
            "properties": {
                "ref:csioz": 1227614,
                "name": "Punkt Apteczny W Wierbce",
                "addr:street": "Główna",
                "addr:housenumber": "135b",
                "addr:city": "Wierbka",
                "addr:postcode": "42-436",
                "amenity": "pharmacy",
                "dispensing": "yes"
            },
            "geometry": {
                "type": "Point",
                "coordinates": [
                    19.723765725359286,
                    50.475589063708746
                ]
            }
        },
        {
            "type": "Feature",
            "properties": {
                "ref:csioz": 1069800,
                "name": "Remedium",
                "addr:street": "Kościelna",
                "addr:housenumber": "10",
                "addr:city": "Szczekociny",
                "addr:postcode": "42-445",
                "amenity": "pharmacy",
                "dispensing": "yes"
            },
            "geometry": {
                "type": "Point",
                "coordinates": [
                    19.8197689996388,
                    50.62619639911384
                ]
            }
        },
        {
            "type": "Feature",
            "properties": {
                "ref:csioz": 1111270,
                "name": "Kolorowa Apteka W Szczekocinach",
                "addr:street": "Jana Pawła II",
                "addr:housenumber": "6",
                "addr:city": "Szczekociny",
                "addr:postcode": "42-445",
                "amenity": "pharmacy",
                "dispensing": "yes"
            },
            "geometry": {
                "type": "Point",
                "coordinates": [
                    19.819025000000263,
                    50.623812000013395
                ]
            }
        },
        {
            "type": "Feature",
            "properties": {
                "ref:csioz": 1179850,
                "name": "Amicus",
                "addr:street": "Tadeusza Kościuszki",
                "addr:housenumber": "19",
                "addr:city": "Szczekociny",
                "addr:postcode": "42-445",
                "amenity": "pharmacy",
                "dispensing": "yes"
            },
            "geometry": {
                "type": "Point",
                "coordinates": [
                    19.817300844112257,
                    50.62627120106068
                ]
            }
        },
        {
            "type": "Feature",
            "properties": {
                "ref:csioz": 1188825,
                "name": "Szmaragdowa",
                "addr:street": "Krakowska",
                "addr:housenumber": "1",
                "addr:city": "Szczekociny",
                "addr:postcode": "42-445",
                "amenity": "pharmacy",
                "dispensing": "yes"
            },
            "geometry": {
                "type": "Point",
                "coordinates": [
                    19.81846706609091,
                    50.62539060186756
                ]
            }
        },
        {
            "type": "Feature",
            "properties": {
                "ref:csioz": 1072093,
                "name": "Brak",
                "addr:street": "WARSZAWSKA",
                "addr:housenumber": "8",
                "addr:city": "ŻARNOWIEC",
                "addr:postcode": "42-439",
                "amenity": "pharmacy",
                "dispensing": "yes"
            },
            "geometry": {
                "type": "Point",
                "coordinates": [
                    19.863587657579043,
                    50.48545438759073
                ]
            }
        },
        {
            "type": "Feature",
            "properties": {
                "ref:csioz": 1182487,
                "addr:housenumber": "128",
                "addr:postcode": "42-446",
                "amenity": "pharmacy",
                "addr:place": "Irządze",
                "dispensing": "yes"
            },
            "geometry": {
                "type": "Point",
                "coordinates": [
                    19.684063262942853,
                    50.62469400080987
                ]
            }
        },
        {
            "type": "Feature",
            "properties": {
                "ref:csioz": 1066851,
                "name": "Nasza Apteka",
                "addr:street": "CHOPINA",
                "addr:housenumber": "2",
                "addr:city": "PORĘBA",
                "addr:postcode": "42-480",
                "amenity": "pharmacy",
                "dispensing": "yes"
            },
            "geometry": {
                "type": "Point",
                "coordinates": [
                    19.337256890518127,
                    50.48739167533112
                ]
            }
        },
        {
            "type": "Feature",
            "properties": {
                "ref:csioz": 1066867,
                "name": "Malwa",
                "addr:street": "Wojska Polskiego",
                "addr:housenumber": "30",
                "addr:city": "Poręba",
                "addr:postcode": "42-480",
                "amenity": "pharmacy",
                "dispensing": "yes"
            },
            "geometry": {
                "type": "Point",
                "coordinates": [
                    19.34116894591443,
                    50.48763914336076
                ]
            }
        },
        {
            "type": "Feature",
            "properties": {
                "ref:csioz": 1066872,
                "name": "Przyjazna",
                "addr:street": "PRZEMYSŁOWA",
                "addr:housenumber": "1",
                "addr:city": "PORĘBA",
                "addr:postcode": "42-480",
                "amenity": "pharmacy",
                "dispensing": "yes"
            },
            "geometry": {
                "type": "Point",
                "coordinates": [
                    19.338890413328354,
                    50.48710848354208
                ]
            }
        }
    ]
}