{
    "type": "FeatureCollection",
    "name": "JPT_KOD_JE_1016",
    "features": [
        {
            "type": "Feature",
            "properties": {
                "ref:csioz": 1009430,
                "name": "Apteka Wspólna",
                "addr:street": "Graniczna",
                "addr:housenumber": "4A",
                "addr:city": "Tomaszów Mazowiecki",
                "addr:postcode": "97-200",
                "amenity": "pharmacy"
            },
            "geometry": {
                "type": "Point",
                "coordinates": [
                    20.016124406134953,
                    51.5237087349959
                ]
            }
        },
        {
            "type": "Feature",
            "properties": {
                "ref:csioz": 1009713,
                "addr:street": "Warszawska",
                "addr:housenumber": "46",
                "addr:city": "Tomaszów Mazowiecki",
                "addr:postcode": "97-200",
                "amenity": "pharmacy"
            },
            "geometry": {
                "type": "Point",
                "coordinates": [
                    20.010864967293468,
                    51.53815620885548
                ]
            }
        },
        {
            "type": "Feature",
            "properties": {
                "ref:csioz": 1010475,
                "addr:street": "Henryka Sienkiewicza",
                "addr:housenumber": "27",
                "addr:city": "Ujazd",
                "addr:postcode": "97-225",
                "amenity": "pharmacy"
            },
            "geometry": {
                "type": "Point",
                "coordinates": [
                    19.927228345919165,
                    51.60895249641613
                ]
            }
        },
        {
            "type": "Feature",
            "properties": {
                "ref:csioz": 1014941,
                "name": "Ka-Med",
                "addr:street": "Dworcowa",
                "addr:housenumber": "1",
                "addr:city": "Tomaszów Mazowiecki",
                "addr:postcode": "97-200",
                "amenity": "pharmacy"
            },
            "geometry": {
                "type": "Point",
                "coordinates": [
                    20.033481000000418,
                    51.546138000014786
                ]
            }
        },
        {
            "type": "Feature",
            "properties": {
                "ref:csioz": 1015781,
                "name": "Mgr Farm.E.Nowiczewski",
                "addr:street": "Wolności",
                "addr:housenumber": "3",
                "addr:city": "Ujazd",
                "addr:postcode": "97-225",
                "amenity": "pharmacy"
            },
            "geometry": {
                "type": "Point",
                "coordinates": [
                    19.922439199353526,
                    51.598320985249686
                ]
            }
        },
        {
            "type": "Feature",
            "properties": {
                "ref:csioz": 1018358,
                "name": "Krokus",
                "addr:street": "Jana Chryzostoma Paska",
                "addr:housenumber": "62",
                "addr:city": "Budziszewice",
                "addr:postcode": "97-212",
                "amenity": "pharmacy"
            },
            "geometry": {
                "type": "Point",
                "coordinates": [
                    19.93650709535668,
                    51.66786282896872
                ]
            }
        },
        {
            "type": "Feature",
            "properties": {
                "ref:csioz": 1018285,
                "name": "Apteka Dbam O Zdrowie",
                "addr:street": "Konstytucji 3 Maja",
                "addr:housenumber": "1/3",
                "addr:city": "Tomaszów Mazowiecki",
                "addr:postcode": "97-200",
                "amenity": "pharmacy"
            },
            "geometry": {
                "type": "Point",
                "coordinates": [
                    20.0105350000004,
                    51.53432500001475
                ]
            }
        },
        {
            "type": "Feature",
            "properties": {
                "ref:csioz": 1018650,
                "name": "Centrum",
                "addr:street": "Plac Tadeusza Kościuszki",
                "addr:housenumber": "9",
                "addr:city": "Tomaszów Mazowiecki",
                "addr:postcode": "97-200",
                "amenity": "pharmacy"
            },
            "geometry": {
                "type": "Point",
                "coordinates": [
                    20.006266458396887,
                    51.530457160846005
                ]
            }
        },
        {
            "type": "Feature",
            "properties": {
                "ref:csioz": 1022230,
                "name": "Lekmar",
                "addr:street": "marsz. Józefa Piłsudskiego",
                "addr:housenumber": "12",
                "addr:city": "Spała",
                "addr:postcode": "92-215",
                "amenity": "pharmacy"
            },
            "geometry": {
                "type": "Point",
                "coordinates": [
                    20.138265051665265,
                    51.542457702819235
                ]
            }
        },
        {
            "type": "Feature",
            "properties": {
                "ref:csioz": 1023687,
                "name": "Flora Ii Mgr Farm. Jacek Cieciura",
                "addr:street": "Juliusza Słowackiego",
                "addr:housenumber": "8/10",
                "addr:city": "Tomaszów Mazowiecki",
                "addr:postcode": "97-200",
                "amenity": "pharmacy"
            },
            "geometry": {
                "type": "Point",
                "coordinates": [
                    20.002987450949124,
                    51.52784080066717
                ]
            }
        },
        {
            "type": "Feature",
            "properties": {
                "ref:csioz": 1026462,
                "name": "Apteka Słoneczna",
                "addr:street": "Łódzka",
                "addr:housenumber": "2",
                "addr:city": "Lubochnia",
                "addr:postcode": "97-217",
                "amenity": "pharmacy"
            },
            "geometry": {
                "type": "Point",
                "coordinates": [
                    20.052865361881917,
                    51.60800807477303
                ]
            }
        },
        {
            "type": "Feature",
            "properties": {
                "ref:csioz": 1178413,
                "name": "\"Apteka Cef@Rm 36,6\"",
                "addr:street": "Jana Pawła II",
                "addr:housenumber": "22",
                "addr:city": "Tomaszów Mazowiecki",
                "addr:postcode": "97-200",
                "amenity": "pharmacy"
            },
            "geometry": {
                "type": "Point",
                "coordinates": [
                    20.003244142571837,
                    51.52345216150329
                ]
            }
        },
        {
            "type": "Feature",
            "properties": {
                "ref:csioz": 1193379,
                "addr:street": "Jana Pawła II",
                "addr:housenumber": "35",
                "addr:city": "Tomaszów Mazowiecki",
                "addr:postcode": "97-200",
                "amenity": "pharmacy"
            },
            "geometry": {
                "type": "Point",
                "coordinates": [
                    20.004141725887035,
                    51.52225969964527
                ]
            }
        },
        {
            "type": "Feature",
            "properties": {
                "ref:csioz": 1009721,
                "addr:street": "Plac Tadeusza Kościuszki",
                "addr:housenumber": "20",
                "addr:city": "Tomaszów Mazowiecki",
                "addr:postcode": "97-200",
                "amenity": "pharmacy"
            },
            "geometry": {
                "type": "Point",
                "coordinates": [
                    20.005639000000393,
                    51.53153600001475
                ]
            }
        },
        {
            "type": "Feature",
            "properties": {
                "ref:csioz": 1009759,
                "addr:street": "Mazowiecka",
                "addr:housenumber": "42",
                "addr:city": "Tomaszów Mazowiecki",
                "addr:postcode": "97-200",
                "amenity": "pharmacy"
            },
            "geometry": {
                "type": "Point",
                "coordinates": [
                    20.027167757136006,
                    51.526146459686366
                ]
            }
        },
        {
            "type": "Feature",
            "properties": {
                "ref:csioz": 1009792,
                "addr:street": "Jałowcowa",
                "addr:housenumber": "13",
                "addr:city": "Tomaszów Mazowiecki",
                "addr:postcode": "97-200",
                "amenity": "pharmacy"
            },
            "geometry": {
                "type": "Point",
                "coordinates": [
                    20.026185551370475,
                    51.52659822504981
                ]
            }
        },
        {
            "type": "Feature",
            "properties": {
                "ref:csioz": 1011836,
                "name": "Familypharm",
                "addr:street": "Józefa Montwiłła Mireckiego",
                "addr:housenumber": "88",
                "addr:city": "Tomaszów Mazowiecki",
                "addr:postcode": "97-200",
                "amenity": "pharmacy"
            },
            "geometry": {
                "type": "Point",
                "coordinates": [
                    20.03254500000042,
                    51.52944100001474
                ]
            }
        },
        {
            "type": "Feature",
            "properties": {
                "ref:csioz": 1012486,
                "name": "Apteka Codzienna",
                "addr:street": "św. Antoniego",
                "addr:housenumber": "32",
                "addr:city": "Tomaszów Mazowiecki",
                "addr:postcode": "97-200",
                "amenity": "pharmacy"
            },
            "geometry": {
                "type": "Point",
                "coordinates": [
                    20.011733000000408,
                    51.528161000014734
                ]
            }
        },
        {
            "type": "Feature",
            "properties": {
                "ref:csioz": 1013080,
                "name": "Flora",
                "addr:street": "Juliusza Słowackiego",
                "addr:housenumber": "22",
                "addr:city": "Tomaszów Mazowiecki",
                "addr:postcode": "97-200",
                "amenity": "pharmacy"
            },
            "geometry": {
                "type": "Point",
                "coordinates": [
                    20.00061756144586,
                    51.52771892214644
                ]
            }
        },
        {
            "type": "Feature",
            "properties": {
                "ref:csioz": 1016800,
                "name": "Apteka Gemini",
                "addr:street": "Smugowa",
                "addr:housenumber": "6",
                "addr:city": "Tomaszów Mazowiecki",
                "addr:postcode": "97-200",
                "amenity": "pharmacy"
            },
            "geometry": {
                "type": "Point",
                "coordinates": [
                    20.00343495402714,
                    51.52463522149123
                ]
            }
        },
        {
            "type": "Feature",
            "properties": {
                "ref:csioz": 1118743,
                "addr:housenumber": "1",
                "addr:postcode": "62-840",
                "amenity": "pharmacy",
                "addr:place": "SOKOŁÓWKA"
            },
            "geometry": {
                "type": "Point",
                "coordinates": [
                    20.056020316130372,
                    51.7105612131279
                ]
            }
        },
        {
            "type": "Feature",
            "properties": {
                "ref:csioz": 1185398,
                "addr:street": "Prezydenta Ignacego Mościckiego",
                "addr:housenumber": "5",
                "addr:city": "Rzeczyca",
                "addr:postcode": "97-220",
                "amenity": "pharmacy"
            },
            "geometry": {
                "type": "Point",
                "coordinates": [
                    20.29026806554463,
                    51.5955667988698
                ]
            }
        },
        {
            "type": "Feature",
            "properties": {
                "ref:csioz": 1191295,
                "name": "Centrum Diagnostyki I Terapii Onkologicznej Tomaszów Mazowiecki Ii Szpital",
                "addr:street": "Jana Pawła II",
                "addr:housenumber": "35",
                "addr:city": "Tomaszów Mazowiecki",
                "addr:postcode": "97-200",
                "amenity": "pharmacy"
            },
            "geometry": {
                "type": "Point",
                "coordinates": [
                    20.004141725887035,
                    51.52225969964527
                ]
            }
        },
        {
            "type": "Feature",
            "properties": {
                "ref:csioz": 1192980,
                "name": "Apteka Przyjazna",
                "addr:street": "Bohaterów 14 Brygady",
                "addr:housenumber": "17",
                "addr:city": "Tomaszów Mazowiecki",
                "addr:postcode": "97-200",
                "amenity": "pharmacy"
            },
            "geometry": {
                "type": "Point",
                "coordinates": [
                    20.017197800398634,
                    51.52721825170269
                ]
            }
        },
        {
            "type": "Feature",
            "properties": {
                "ref:csioz": 1192972,
                "name": "\"Apteka \"\"Flora Iii\"\"\"",
                "addr:street": "Tomasza Ostrowskiego",
                "addr:housenumber": "12",
                "addr:city": "Tomaszów Mazowiecki",
                "addr:postcode": "97-200",
                "amenity": "pharmacy"
            },
            "geometry": {
                "type": "Point",
                "coordinates": [
                    19.998376000000384,
                    51.54221900001476
                ]
            }
        },
        {
            "type": "Feature",
            "properties": {
                "ref:csioz": 1193219,
                "name": "Mirmed - Leczenie Szpitalne",
                "addr:street": "Józefa Montwiłła Mireckiego",
                "addr:housenumber": "90",
                "addr:city": "Tomaszów Mazowiecki",
                "addr:postcode": "97-200",
                "amenity": "pharmacy"
            },
            "geometry": {
                "type": "Point",
                "coordinates": [
                    20.032727000000413,
                    51.529388000014734
                ]
            }
        },
        {
            "type": "Feature",
            "properties": {
                "ref:csioz": 1196990,
                "name": "Niepubliczny Zakład Opieki Zdrowotnej Tomaszowskie Centrum Zdrowia",
                "addr:street": "Jana Pawła II",
                "addr:housenumber": "35",
                "addr:city": "Tomaszów Mazowiecki",
                "addr:postcode": "97-200",
                "amenity": "pharmacy"
            },
            "geometry": {
                "type": "Point",
                "coordinates": [
                    20.004141725887035,
                    51.52225969964527
                ]
            }
        },
        {
            "type": "Feature",
            "properties": {
                "ref:csioz": 1200121,
                "name": "Apteka Słoneczna Centrum Farmaceutyczne",
                "addr:street": "Tadeusza Kościuszki",
                "addr:housenumber": "5",
                "addr:city": "Tomaszów Mazowiecki",
                "addr:postcode": "97-200",
                "amenity": "pharmacy"
            },
            "geometry": {
                "type": "Point",
                "coordinates": [
                    20.006919951049333,
                    51.5308331985928
                ]
            }
        },
        {
            "type": "Feature",
            "properties": {
                "ref:csioz": 1203936,
                "name": "Koniczynka Ii",
                "addr:street": "Mazowiecka",
                "addr:housenumber": "62",
                "addr:city": "Czerniewice",
                "addr:postcode": "97-216",
                "amenity": "pharmacy"
            },
            "geometry": {
                "type": "Point",
                "coordinates": [
                    20.15704986892354,
                    51.655582334996005
                ]
            }
        },
        {
            "type": "Feature",
            "properties": {
                "ref:csioz": 1213756,
                "name": "Dr.Max",
                "addr:street": "Warszawska",
                "addr:housenumber": "1",
                "addr:city": "Tomaszów Mazowiecki",
                "addr:postcode": "97-200",
                "amenity": "pharmacy"
            },
            "geometry": {
                "type": "Point",
                "coordinates": [
                    20.008333992688208,
                    51.53427741447587
                ]
            }
        },
        {
            "type": "Feature",
            "properties": {
                "ref:csioz": 1218029,
                "addr:street": "Główna",
                "addr:housenumber": "13",
                "addr:city": "Smardzewice",
                "addr:postcode": "97-213",
                "amenity": "pharmacy"
            },
            "geometry": {
                "type": "Point",
                "coordinates": [
                    20.03164786488965,
                    51.48194653269719
                ]
            }
        },
        {
            "type": "Feature",
            "properties": {
                "ref:csioz": 1220309,
                "name": "Apteka Primula",
                "addr:street": "Fabryczna",
                "addr:housenumber": "36",
                "addr:city": "Tomaszów Mazowiecki",
                "addr:postcode": "97-200",
                "amenity": "pharmacy"
            },
            "geometry": {
                "type": "Point",
                "coordinates": [
                    19.995770618184896,
                    51.53479571593342
                ]
            }
        },
        {
            "type": "Feature",
            "properties": {
                "ref:csioz": 1223118,
                "name": "Apteka Flora Iv",
                "addr:street": "Bartosza Głowackiego",
                "addr:housenumber": "3",
                "addr:city": "Tomaszów Mazowiecki",
                "addr:postcode": "97-200",
                "amenity": "pharmacy"
            },
            "geometry": {
                "type": "Point",
                "coordinates": [
                    20.020490401729727,
                    51.529595379696815
                ]
            }
        },
        {
            "type": "Feature",
            "properties": {
                "ref:csioz": 1222835,
                "name": "Zielona",
                "addr:street": "dr. Karola Benniego",
                "addr:housenumber": "6A",
                "addr:city": "Tomaszów Mazowiecki",
                "addr:postcode": "97-200",
                "amenity": "pharmacy"
            },
            "geometry": {
                "type": "Point",
                "coordinates": [
                    20.00264945023942,
                    51.52165056999827
                ]
            }
        },
        {
            "type": "Feature",
            "properties": {
                "ref:csioz": 1222843,
                "name": "Apteka Na Szóstkę",
                "addr:street": "Plac Gabriela Narutowicza",
                "addr:housenumber": "7",
                "addr:city": "Tomaszów Mazowiecki",
                "addr:postcode": "97-200",
                "amenity": "pharmacy"
            },
            "geometry": {
                "type": "Point",
                "coordinates": [
                    20.002537287748492,
                    51.53314036226477
                ]
            }
        },
        {
            "type": "Feature",
            "properties": {
                "ref:csioz": 1227718,
                "name": "Vita",
                "addr:housenumber": "41",
                "addr:postcode": "97-225",
                "amenity": "pharmacy",
                "addr:place": "Osiedle Niewiadów"
            },
            "geometry": {
                "type": "Point",
                "coordinates": [
                    19.92831683909587,
                    51.61319270433414
                ]
            }
        },
        {
            "type": "Feature",
            "properties": {
                "ref:csioz": 1229279,
                "addr:street": "Zapiecek",
                "addr:housenumber": "16",
                "addr:city": "Tomaszów Mazowiecki",
                "addr:postcode": "97-200",
                "amenity": "pharmacy"
            },
            "geometry": {
                "type": "Point",
                "coordinates": [
                    20.01763139921139,
                    51.52809093519356
                ]
            }
        },
        {
            "type": "Feature",
            "properties": {
                "ref:csioz": 1019610,
                "name": "\"Apteka \"\"Św. Antoniego\"\" S.C.\"",
                "addr:street": "Jana Susika",
                "addr:housenumber": "5",
                "addr:city": "Żelechlinek",
                "addr:postcode": "97-226",
                "amenity": "pharmacy"
            },
            "geometry": {
                "type": "Point",
                "coordinates": [
                    20.041082260770008,
                    51.71534842633621
                ]
            }
        },
        {
            "type": "Feature",
            "properties": {
                "ref:csioz": 1193160,
                "name": "\"Apteka \"\"Primula\"\"\"",
                "addr:street": "Jana Pawła II",
                "addr:housenumber": "6",
                "addr:city": "Tomaszów Mazowiecki",
                "addr:postcode": "97-200",
                "amenity": "pharmacy"
            },
            "geometry": {
                "type": "Point",
                "coordinates": [
                    20.004438622166642,
                    51.526251524541934
                ]
            }
        },
        {
            "type": "Feature",
            "properties": {
                "ref:csioz": 1021576,
                "name": "\"Apteka \"\"Salubris\"\"\"",
                "addr:street": "Dzieci Polskich",
                "addr:housenumber": "28",
                "addr:city": "Tomaszów Mazowiecki",
                "addr:postcode": "97-200",
                "amenity": "pharmacy"
            },
            "geometry": {
                "type": "Point",
                "coordinates": [
                    20.005837918307503,
                    51.54538364130465
                ]
            }
        },
        {
            "type": "Feature",
            "properties": {
                "ref:csioz": 1230732,
                "name": "Apteka Primula",
                "addr:street": "Legionów",
                "addr:housenumber": "57",
                "addr:city": "Tomaszów Mazowiecki",
                "addr:postcode": "97-200",
                "amenity": "pharmacy"
            },
            "geometry": {
                "type": "Point",
                "coordinates": [
                    19.99748835913018,
                    51.52707744489034
                ]
            }
        },
        {
            "type": "Feature",
            "properties": {
                "ref:csioz": 1026328,
                "name": "Doz Apteka Dbam O Zdrowie",
                "addr:street": "Władysława Stanisława Reymonta",
                "addr:housenumber": "5A",
                "addr:city": "Będków",
                "addr:postcode": "97-319",
                "amenity": "pharmacy"
            },
            "geometry": {
                "type": "Point",
                "coordinates": [
                    19.74421085668705,
                    51.58841333543226
                ]
            }
        },
        {
            "type": "Feature",
            "properties": {
                "ref:csioz": 1230729,
                "name": "Lawenda",
                "addr:street": "Tomaszowska",
                "addr:housenumber": "1A",
                "addr:city": "Rokiciny-Kolonia",
                "addr:postcode": "97-221",
                "amenity": "pharmacy"
            },
            "geometry": {
                "type": "Point",
                "coordinates": [
                    19.781258863557948,
                    51.66597478461792
                ]
            }
        }
    ]
}