{
    "type": "FeatureCollection",
    "name": "JPT_KOD_JE_1262",
    "features": [
        {
            "type": "Feature",
            "properties": {
                "ref:csioz": 1027190,
                "name": "Apteka Z Uśmiechem",
                "addr:street": "Aleje Stefana Batorego",
                "addr:housenumber": "46",
                "addr:city": "Nowy Sącz",
                "addr:postcode": "33-300",
                "amenity": "pharmacy"
            },
            "geometry": {
                "type": "Point",
                "coordinates": [
                    20.69871476665343,
                    49.612598049561804
                ]
            }
        },
        {
            "type": "Feature",
            "properties": {
                "ref:csioz": 1079809,
                "name": "Dr. Max",
                "addr:street": "Gorzkowska",
                "addr:housenumber": "32",
                "addr:city": "Nowy Sącz",
                "addr:postcode": "33-300",
                "amenity": "pharmacy"
            },
            "geometry": {
                "type": "Point",
                "coordinates": [
                    20.72716743505263,
                    49.6049795865854
                ]
            }
        },
        {
            "type": "Feature",
            "properties": {
                "ref:csioz": 1079814,
                "name": "Dr. Max",
                "addr:street": "Nawojowska",
                "addr:housenumber": "1",
                "addr:city": "Nowy Sącz",
                "addr:postcode": "33-300",
                "amenity": "pharmacy"
            },
            "geometry": {
                "type": "Point",
                "coordinates": [
                    20.70383631202617,
                    49.614046704788045
                ]
            }
        },
        {
            "type": "Feature",
            "properties": {
                "ref:csioz": 1079838,
                "name": "Apteka Beskidzka Apteka Sda",
                "addr:street": "Śniadeckich",
                "addr:housenumber": "2",
                "addr:city": "Nowy Sącz",
                "addr:postcode": "33-300",
                "amenity": "pharmacy"
            },
            "geometry": {
                "type": "Point",
                "coordinates": [
                    20.701303057725255,
                    49.61832602916379
                ]
            }
        },
        {
            "type": "Feature",
            "properties": {
                "ref:csioz": 1079846,
                "name": "Apteka Beskidzka Apteka Sda",
                "addr:street": "Aleje Wolności",
                "addr:housenumber": "49",
                "addr:city": "Nowy Sącz",
                "addr:postcode": "33-300",
                "amenity": "pharmacy"
            },
            "geometry": {
                "type": "Point",
                "coordinates": [
                    20.69883447030936,
                    49.61360748636319
                ]
            }
        },
        {
            "type": "Feature",
            "properties": {
                "ref:csioz": 1079851,
                "addr:street": "Rynek",
                "addr:housenumber": "30",
                "addr:city": "Nowy Sącz",
                "addr:postcode": "33-300",
                "amenity": "pharmacy"
            },
            "geometry": {
                "type": "Point",
                "coordinates": [
                    20.692076922862732,
                    49.62472216297417
                ]
            }
        },
        {
            "type": "Feature",
            "properties": {
                "ref:csioz": 1079880,
                "addr:street": "Królowej Jadwigi",
                "addr:housenumber": "31",
                "addr:city": "Nowy Sącz",
                "addr:postcode": "33-300",
                "amenity": "pharmacy"
            },
            "geometry": {
                "type": "Point",
                "coordinates": [
                    20.71003173935533,
                    49.61288686407124
                ]
            }
        },
        {
            "type": "Feature",
            "properties": {
                "ref:csioz": 1079929,
                "name": "Apteka Słoneczna",
                "addr:street": "Aleje Wolności",
                "addr:housenumber": "37",
                "addr:city": "Nowy Sącz",
                "addr:postcode": "33-300",
                "amenity": "pharmacy"
            },
            "geometry": {
                "type": "Point",
                "coordinates": [
                    20.698751316316276,
                    49.61419906485971
                ]
            }
        },
        {
            "type": "Feature",
            "properties": {
                "ref:csioz": 1079932,
                "name": "Arnica",
                "addr:street": "Józefa Konrada Korzeniowskiego",
                "addr:housenumber": "9",
                "addr:city": "Nowy Sącz",
                "addr:postcode": "33-300",
                "amenity": "pharmacy"
            },
            "geometry": {
                "type": "Point",
                "coordinates": [
                    20.71531643062667,
                    49.61137959380989
                ]
            }
        },
        {
            "type": "Feature",
            "properties": {
                "ref:csioz": 1079964,
                "name": "\"Apteka Cef@Rm 36,6\"",
                "addr:street": "Stanisława Żółkiewskiego",
                "addr:housenumber": "10",
                "addr:city": "Nowy Sącz",
                "addr:postcode": "33-300",
                "amenity": "pharmacy"
            },
            "geometry": {
                "type": "Point",
                "coordinates": [
                    20.70042063178093,
                    49.6125814562916
                ]
            }
        },
        {
            "type": "Feature",
            "properties": {
                "ref:csioz": 1079978,
                "name": "\"Apteka Cef@Rm 36,6\"",
                "addr:street": "Lwowska",
                "addr:housenumber": "68",
                "addr:city": "Nowy Sącz",
                "addr:postcode": "33-300",
                "amenity": "pharmacy"
            },
            "geometry": {
                "type": "Point",
                "coordinates": [
                    20.702290335338603,
                    49.62462449376848
                ]
            }
        },
        {
            "type": "Feature",
            "properties": {
                "ref:csioz": 1079986,
                "name": "\"Apteka Cef@Rm 36,6\"",
                "addr:street": "Lwowska",
                "addr:housenumber": "27",
                "addr:city": "Nowy Sącz",
                "addr:postcode": "33-300",
                "amenity": "pharmacy"
            },
            "geometry": {
                "type": "Point",
                "coordinates": [
                    20.698279939371336,
                    49.62497949438295
                ]
            }
        },
        {
            "type": "Feature",
            "properties": {
                "ref:csioz": 1080063,
                "name": "Pod Białym Orłem",
                "addr:street": "Tadeusza Kościuszki",
                "addr:housenumber": "26",
                "addr:city": "Nowy Sącz",
                "addr:postcode": "33-300",
                "amenity": "pharmacy"
            },
            "geometry": {
                "type": "Point",
                "coordinates": [
                    20.69303397172635,
                    49.62229086298549
                ]
            }
        },
        {
            "type": "Feature",
            "properties": {
                "ref:csioz": 1079941,
                "name": "\"Apteka \"\"Pod Siódemką\"\"\"",
                "addr:street": "Grodzka",
                "addr:housenumber": "7",
                "addr:city": "Nowy Sącz",
                "addr:postcode": "33-300",
                "amenity": "pharmacy"
            },
            "geometry": {
                "type": "Point",
                "coordinates": [
                    20.69584493453147,
                    49.613294830989126
                ]
            }
        },
        {
            "type": "Feature",
            "properties": {
                "ref:csioz": 1080602,
                "name": "\"Apteka Cef@Rm 36,6\"",
                "addr:street": "Jana Długosza",
                "addr:housenumber": "22",
                "addr:city": "Nowy Sącz",
                "addr:postcode": "33-300",
                "amenity": "pharmacy"
            },
            "geometry": {
                "type": "Point",
                "coordinates": [
                    20.697090949582996,
                    49.61859311416054
                ]
            }
        },
        {
            "type": "Feature",
            "properties": {
                "ref:csioz": 1114476,
                "name": "Dział Farmacji Szpitalnej",
                "addr:street": "Młyńska",
                "addr:housenumber": "5",
                "addr:city": "Nowy Sącz",
                "addr:postcode": "33-300",
                "amenity": "pharmacy"
            },
            "geometry": {
                "type": "Point",
                "coordinates": [
                    20.70074773578581,
                    49.61891177236818
                ]
            }
        },
        {
            "type": "Feature",
            "properties": {
                "ref:csioz": 1114492,
                "name": "Dział Farmacji Szpitalnej",
                "addr:street": "Grunwaldzka",
                "addr:housenumber": "62",
                "addr:city": "Nowy Sącz",
                "addr:postcode": "33-300",
                "amenity": "pharmacy"
            },
            "geometry": {
                "type": "Point",
                "coordinates": [
                    20.692112806228714,
                    49.59660069934112
                ]
            }
        },
        {
            "type": "Feature",
            "properties": {
                "ref:csioz": 1200277,
                "name": "Apteka Galicja",
                "addr:street": "Lwowska",
                "addr:housenumber": "35",
                "addr:city": "Nowy Sącz",
                "addr:postcode": "33-300",
                "amenity": "pharmacy"
            },
            "geometry": {
                "type": "Point",
                "coordinates": [
                    20.713090388833848,
                    49.62174091307901
                ]
            }
        },
        {
            "type": "Feature",
            "properties": {
                "ref:csioz": 1027128,
                "name": "Apteka Dbam O Zdrowie",
                "addr:street": "gen. Henryka Dąbrowskiego",
                "addr:housenumber": "1",
                "addr:city": "Nowy Sącz",
                "addr:postcode": "33-300",
                "amenity": "pharmacy"
            },
            "geometry": {
                "type": "Point",
                "coordinates": [
                    20.69889738578673,
                    49.61709769091157
                ]
            }
        },
        {
            "type": "Feature",
            "properties": {
                "ref:csioz": 1027131,
                "name": "Apteka Na Gorzkowie",
                "addr:street": "Jana Freislera",
                "addr:housenumber": "4a",
                "addr:city": "Nowy Sącz",
                "addr:postcode": "33-300",
                "amenity": "pharmacy"
            },
            "geometry": {
                "type": "Point",
                "coordinates": [
                    20.721521163291722,
                    49.60771318312245
                ]
            }
        },
        {
            "type": "Feature",
            "properties": {
                "ref:csioz": 1027144,
                "name": "Ew-Ko",
                "addr:street": "Tarnowska",
                "addr:housenumber": "169",
                "addr:city": "Nowy Sącz",
                "addr:postcode": "33-300",
                "amenity": "pharmacy"
            },
            "geometry": {
                "type": "Point",
                "coordinates": [
                    20.68935351101269,
                    49.65658334641478
                ]
            }
        },
        {
            "type": "Feature",
            "properties": {
                "ref:csioz": 1027153,
                "name": "Apteka Przy Armii Krajowej",
                "addr:street": "Armii Krajowej",
                "addr:housenumber": "15",
                "addr:city": "Nowy Sącz",
                "addr:postcode": "33-300",
                "amenity": "pharmacy"
            },
            "geometry": {
                "type": "Point",
                "coordinates": [
                    20.715087491934632,
                    49.62225481401247
                ]
            }
        },
        {
            "type": "Feature",
            "properties": {
                "ref:csioz": 1080082,
                "name": "Na Dąbrówce",
                "addr:street": "Janusza Korczaka",
                "addr:housenumber": "32",
                "addr:city": "Nowy Sącz",
                "addr:postcode": "33-300",
                "amenity": "pharmacy"
            },
            "geometry": {
                "type": "Point",
                "coordinates": [
                    20.689610502064188,
                    49.59806270753001
                ]
            }
        },
        {
            "type": "Feature",
            "properties": {
                "ref:csioz": 1080126,
                "name": "Apteka Dbam O Zdrowie",
                "addr:street": "Młyńska",
                "addr:housenumber": "5",
                "addr:city": "Nowy Sącz",
                "addr:postcode": "33-300",
                "amenity": "pharmacy"
            },
            "geometry": {
                "type": "Point",
                "coordinates": [
                    20.70074773578581,
                    49.61891177236818
                ]
            }
        },
        {
            "type": "Feature",
            "properties": {
                "ref:csioz": 1081351,
                "name": "Apteka Szpitalna",
                "addr:street": "Młyńska",
                "addr:housenumber": "10",
                "addr:city": "Nowy Sącz",
                "addr:postcode": "33-300",
                "amenity": "pharmacy"
            },
            "geometry": {
                "type": "Point",
                "coordinates": [
                    20.700963359698964,
                    49.61860114252558
                ]
            }
        },
        {
            "type": "Feature",
            "properties": {
                "ref:csioz": 1081418,
                "name": "Apteka Słoneczna",
                "addr:street": "Józefa Poniatowskiego",
                "addr:housenumber": "12",
                "addr:city": "Nowy Sącz",
                "addr:postcode": "33-300",
                "amenity": "pharmacy"
            },
            "geometry": {
                "type": "Point",
                "coordinates": [
                    20.712654677219035,
                    49.613200168873014
                ]
            }
        },
        {
            "type": "Feature",
            "properties": {
                "ref:csioz": 1114522,
                "name": "Dział Farmacji Szpitalnej",
                "addr:street": "Nawojowska",
                "addr:housenumber": "155a",
                "addr:city": "Nowy Sącz",
                "addr:postcode": "33-300",
                "amenity": "pharmacy"
            },
            "geometry": {
                "type": "Point",
                "coordinates": [
                    20.720514910438585,
                    49.59689791253309
                ]
            }
        },
        {
            "type": "Feature",
            "properties": {
                "ref:csioz": 1178220,
                "name": "Apteka Nova-Pharm",
                "addr:street": "św. Heleny",
                "addr:housenumber": "30 b",
                "addr:city": "Nowy Sącz",
                "addr:postcode": "33-300",
                "amenity": "pharmacy"
            },
            "geometry": {
                "type": "Point",
                "coordinates": [
                    20.67619908526858,
                    49.62794046311804
                ]
            }
        },
        {
            "type": "Feature",
            "properties": {
                "ref:csioz": 1187541,
                "name": "Apteka Curate",
                "addr:street": "Józefa Poniatowskiego",
                "addr:housenumber": "2",
                "addr:city": "Nowy Sącz",
                "addr:postcode": "33-300",
                "amenity": "pharmacy"
            },
            "geometry": {
                "type": "Point",
                "coordinates": [
                    20.711960659767,
                    49.61346202123905
                ]
            }
        },
        {
            "type": "Feature",
            "properties": {
                "ref:csioz": 1192186,
                "name": "Cosmedica",
                "addr:street": "Węgierska",
                "addr:housenumber": "170",
                "addr:city": "Nowy Sącz",
                "addr:postcode": "33-300",
                "amenity": "pharmacy"
            },
            "geometry": {
                "type": "Point",
                "coordinates": [
                    20.672625943461327,
                    49.58567589439612
                ]
            }
        },
        {
            "type": "Feature",
            "properties": {
                "ref:csioz": 1196394,
                "name": "Dział Farmacji Szpitalnej",
                "addr:street": "Aleje Stefana Batorego",
                "addr:housenumber": "88",
                "addr:city": "Nowy Sącz",
                "addr:postcode": "33-300",
                "amenity": "pharmacy"
            },
            "geometry": {
                "type": "Point",
                "coordinates": [
                    20.701179496638968,
                    49.607916091683805
                ]
            }
        },
        {
            "type": "Feature",
            "properties": {
                "ref:csioz": 1201449,
                "name": "Apteka Nova-Pharm",
                "addr:street": "Lwowska",
                "addr:housenumber": "107",
                "addr:city": "Nowy Sącz",
                "addr:postcode": "33-300",
                "amenity": "pharmacy"
            },
            "geometry": {
                "type": "Point",
                "coordinates": [
                    20.701530133001054,
                    49.58004461755282
                ]
            }
        },
        {
            "type": "Feature",
            "properties": {
                "ref:csioz": 1214648,
                "name": "Dr. Max",
                "addr:street": "gen. Stefana Grota-Roweckiego",
                "addr:housenumber": "22",
                "addr:city": "Nowy Sącz",
                "addr:postcode": "33-300",
                "amenity": "pharmacy"
            },
            "geometry": {
                "type": "Point",
                "coordinates": [
                    20.703623231513493,
                    49.6125474038301
                ]
            }
        },
        {
            "type": "Feature",
            "properties": {
                "ref:csioz": 1220015,
                "name": "Szpital Medikor",
                "addr:street": "Rzemieślnicza",
                "addr:housenumber": "5",
                "addr:city": "Nowy Sącz",
                "addr:postcode": "33-300",
                "amenity": "pharmacy"
            },
            "geometry": {
                "type": "Point",
                "coordinates": [
                    20.70577584634905,
                    49.61905029965632
                ]
            }
        },
        {
            "type": "Feature",
            "properties": {
                "ref:csioz": 1223311,
                "name": "Dział Farmacji Szpitalnej",
                "addr:street": "Jana Kilińskiego",
                "addr:housenumber": "68",
                "addr:city": "Nowy Sącz",
                "addr:postcode": "33-300",
                "amenity": "pharmacy"
            },
            "geometry": {
                "type": "Point",
                "coordinates": [
                    20.7085186530666,
                    49.619034772823014
                ]
            }
        },
        {
            "type": "Feature",
            "properties": {
                "ref:csioz": 1229700,
                "name": "Apteka Na Błoniach",
                "addr:street": "29 Listopada",
                "addr:housenumber": "16A",
                "addr:city": "Nowy Sącz",
                "addr:postcode": "33-300",
                "amenity": "pharmacy"
            },
            "geometry": {
                "type": "Point",
                "coordinates": [
                    20.71241786510027,
                    49.60009159699694
                ]
            }
        },
        {
            "type": "Feature",
            "properties": {
                "ref:csioz": 1173943,
                "name": "Apteka Vademecum Blisko I .....",
                "addr:street": "Aleje Stefana Batorego",
                "addr:housenumber": "77",
                "addr:city": "Nowy Sącz",
                "addr:postcode": "33-300",
                "amenity": "pharmacy"
            },
            "geometry": {
                "type": "Point",
                "coordinates": [
                    20.70073275249108,
                    49.61035724445774
                ]
            }
        },
        {
            "type": "Feature",
            "properties": {
                "ref:csioz": 1027166,
                "name": "Aptek Na Westerplatte",
                "addr:street": "Batalionów Chłopskich",
                "addr:housenumber": "33",
                "addr:city": "Nowy Sącz",
                "addr:postcode": "33-300",
                "amenity": "pharmacy"
            },
            "geometry": {
                "type": "Point",
                "coordinates": [
                    20.715512399668622,
                    49.62938409651446
                ]
            }
        },
        {
            "type": "Feature",
            "properties": {
                "ref:csioz": 1027189,
                "name": "Apteka Gołąbkowice",
                "addr:street": "płk. Władysława Beliny-Prażmowskiego",
                "addr:housenumber": "11",
                "addr:city": "Nowy Sącz",
                "addr:postcode": "33-300",
                "amenity": "pharmacy"
            },
            "geometry": {
                "type": "Point",
                "coordinates": [
                    20.720074151359242,
                    49.62172125402914
                ]
            }
        },
        {
            "type": "Feature",
            "properties": {
                "ref:csioz": 1027206,
                "name": "Apteka Z Uśmiechem",
                "addr:street": "Jana Sobieskiego",
                "addr:housenumber": "14a",
                "addr:city": "Nowy Sącz",
                "addr:postcode": "33-300",
                "amenity": "pharmacy"
            },
            "geometry": {
                "type": "Point",
                "coordinates": [
                    20.693064054373608,
                    49.62367826884898
                ]
            }
        },
        {
            "type": "Feature",
            "properties": {
                "ref:csioz": 1079993,
                "name": "Bios",
                "addr:street": "Marcinkowicka",
                "addr:housenumber": "46",
                "addr:city": "Nowy Sącz",
                "addr:postcode": "33-300",
                "amenity": "pharmacy"
            },
            "geometry": {
                "type": "Point",
                "coordinates": [
                    20.66771317842326,
                    49.63479284254082
                ]
            }
        },
        {
            "type": "Feature",
            "properties": {
                "ref:csioz": 1080001,
                "name": "\"Apteka \"\"Zdrojowa\"\" S.C.\"",
                "addr:street": "Zdrojowa",
                "addr:housenumber": "19",
                "addr:city": "Nowy Sącz",
                "addr:postcode": "33-300",
                "amenity": "pharmacy"
            },
            "geometry": {
                "type": "Point",
                "coordinates": [
                    20.694169995436212,
                    49.63193877228128
                ]
            }
        },
        {
            "type": "Feature",
            "properties": {
                "ref:csioz": 1121925,
                "name": "Dr. Max",
                "addr:street": "Papieska",
                "addr:housenumber": "39",
                "addr:city": "Nowy Sącz",
                "addr:postcode": "33-300",
                "amenity": "pharmacy"
            },
            "geometry": {
                "type": "Point",
                "coordinates": [
                    20.668149860267846,
                    49.62450265665612
                ]
            }
        },
        {
            "type": "Feature",
            "properties": {
                "ref:csioz": 1027115,
                "name": "Przy Moście",
                "addr:street": "Lwowska",
                "addr:housenumber": "17",
                "addr:city": "Nowy Sącz",
                "addr:postcode": "33-300",
                "amenity": "pharmacy"
            },
            "geometry": {
                "type": "Point",
                "coordinates": [
                    20.69681079759727,
                    49.6250291535971
                ]
            }
        },
        {
            "type": "Feature",
            "properties": {
                "ref:csioz": 1080074,
                "addr:street": "Władysława Broniewskiego",
                "addr:housenumber": "14",
                "addr:city": "Nowy Sącz",
                "addr:postcode": "33-300",
                "amenity": "pharmacy"
            },
            "geometry": {
                "type": "Point",
                "coordinates": [
                    20.709008685092513,
                    49.62625651736063
                ]
            }
        },
        {
            "type": "Feature",
            "properties": {
                "ref:csioz": 1120419,
                "name": "Super-Pharm Apteka",
                "addr:street": "Lwowska",
                "addr:housenumber": "80",
                "addr:city": "Nowy Sącz",
                "addr:postcode": "33-300",
                "amenity": "pharmacy"
            },
            "geometry": {
                "type": "Point",
                "coordinates": [
                    20.7063309235389,
                    49.6244123491148
                ]
            }
        }
    ]
}