{
    "type": "FeatureCollection",
    "name": "JPT_KOD_JE_1432",
    "features": [
        {
            "type": "Feature",
            "properties": {
                "ref:csioz": 1089083,
                "name": "Apteka Doz Dbam O Zdrowie",
                "addr:street": "Kazimierza Tetmajera",
                "addr:housenumber": "14",
                "addr:city": "Izabelin C",
                "addr:postcode": "05-080",
                "amenity": "pharmacy",
                "dispensing": "yes"
            },
            "geometry": {
                "type": "Point",
                "coordinates": [
                    20.81829524980105,
                    52.29466324653657
                ]
            }
        },
        {
            "type": "Feature",
            "properties": {
                "ref:csioz": 1089129,
                "name": "\"Cef@Rm 36,6\"",
                "addr:street": "Szpitalna",
                "addr:housenumber": "2",
                "addr:city": "Łomianki",
                "addr:postcode": "05-092",
                "amenity": "pharmacy",
                "dispensing": "yes"
            },
            "geometry": {
                "type": "Point",
                "coordinates": [
                    20.886277322559394,
                    52.340220135654405
                ]
            }
        },
        {
            "type": "Feature",
            "properties": {
                "ref:csioz": 1089141,
                "name": "Salud",
                "addr:street": "Warszawska",
                "addr:housenumber": "31",
                "addr:city": "Łomianki",
                "addr:postcode": "05-092",
                "amenity": "pharmacy",
                "dispensing": "yes"
            },
            "geometry": {
                "type": "Point",
                "coordinates": [
                    20.90159132096913,
                    52.33128853699347
                ]
            }
        },
        {
            "type": "Feature",
            "properties": {
                "ref:csioz": 1089554,
                "addr:street": "Marii Konopnickiej",
                "addr:housenumber": "7",
                "addr:city": "Ożarów Mazowiecki",
                "addr:postcode": "05-850",
                "amenity": "pharmacy",
                "dispensing": "yes"
            },
            "geometry": {
                "type": "Point",
                "coordinates": [
                    20.796250067789252,
                    52.20930547349635
                ]
            }
        },
        {
            "type": "Feature",
            "properties": {
                "ref:csioz": 1089789,
                "name": "Wawa",
                "addr:street": "Kazimierza Tetmajera",
                "addr:housenumber": "2",
                "addr:city": "Izabelin C",
                "addr:postcode": "05-080",
                "amenity": "pharmacy",
                "dispensing": "yes"
            },
            "geometry": {
                "type": "Point",
                "coordinates": [
                    20.817005639345464,
                    52.29245323609879
                ]
            }
        },
        {
            "type": "Feature",
            "properties": {
                "ref:csioz": 1089862,
                "name": "Miro",
                "addr:street": "Floriana",
                "addr:housenumber": "2",
                "addr:city": "Ożarów Mazowiecki",
                "addr:postcode": "05-850",
                "amenity": "pharmacy",
                "dispensing": "yes"
            },
            "geometry": {
                "type": "Point",
                "coordinates": [
                    20.801500091439305,
                    52.21081940824035
                ]
            }
        },
        {
            "type": "Feature",
            "properties": {
                "ref:csioz": 1090244,
                "name": "Aronia",
                "addr:street": "Warszawska",
                "addr:housenumber": "81",
                "addr:city": "Łomianki",
                "addr:postcode": "05-092",
                "amenity": "pharmacy",
                "dispensing": "yes"
            },
            "geometry": {
                "type": "Point",
                "coordinates": [
                    20.89306436533438,
                    52.3387575574639
                ]
            }
        },
        {
            "type": "Feature",
            "properties": {
                "ref:csioz": 1201038,
                "name": "Doz Apteka. Dbam O Zdrowie",
                "addr:street": "Warszawska",
                "addr:housenumber": "286",
                "addr:city": "Łomianki",
                "addr:postcode": "05-092",
                "amenity": "pharmacy",
                "dispensing": "yes"
            },
            "geometry": {
                "type": "Point",
                "coordinates": [
                    20.879551839945076,
                    52.343820055746676
                ]
            }
        },
        {
            "type": "Feature",
            "properties": {
                "ref:csioz": 1089980,
                "name": "Doz Apteka Dbam O Zdrowie",
                "addr:street": "Poznańska",
                "addr:housenumber": "292",
                "addr:city": "Ożarów Mazowiecki",
                "addr:postcode": "05-850",
                "amenity": "pharmacy",
                "dispensing": "yes"
            },
            "geometry": {
                "type": "Point",
                "coordinates": [
                    20.797911519917225,
                    52.210787858492836
                ]
            }
        },
        {
            "type": "Feature",
            "properties": {
                "ref:csioz": 1119196,
                "name": "Bonis Farma",
                "addr:street": "Warszawska",
                "addr:housenumber": "214",
                "addr:city": "Latchorzew",
                "addr:postcode": "05-082",
                "amenity": "pharmacy",
                "dispensing": "yes"
            },
            "geometry": {
                "type": "Point",
                "coordinates": [
                    20.855348103942315,
                    52.24630352069481
                ]
            }
        },
        {
            "type": "Feature",
            "properties": {
                "ref:csioz": 1153150,
                "name": "Apteka Szpitalna",
                "addr:street": "Marii Konopnickiej",
                "addr:housenumber": "65",
                "addr:city": "Dziekanów Leśny",
                "addr:postcode": "05-092",
                "amenity": "pharmacy",
                "dispensing": "yes"
            },
            "geometry": {
                "type": "Point",
                "coordinates": [
                    20.85044617380677,
                    52.34162068616997
                ]
            }
        },
        {
            "type": "Feature",
            "properties": {
                "ref:csioz": 1181158,
                "addr:street": "3 Maja",
                "addr:housenumber": "61A",
                "addr:city": "Laski",
                "addr:postcode": "05-080",
                "amenity": "pharmacy",
                "dispensing": "yes"
            },
            "geometry": {
                "type": "Point",
                "coordinates": [
                    20.84525112888273,
                    52.29236051538648
                ]
            }
        },
        {
            "type": "Feature",
            "properties": {
                "ref:csioz": 1186193,
                "name": "Doz Apteka. Dbam O Zdrowie. Na Zdrówko",
                "addr:street": "Trenów",
                "addr:housenumber": "51",
                "addr:city": "Laski",
                "addr:postcode": "05-080",
                "amenity": "pharmacy",
                "dispensing": "yes"
            },
            "geometry": {
                "type": "Point",
                "coordinates": [
                    20.88172893381833,
                    52.314158518992535
                ]
            }
        },
        {
            "type": "Feature",
            "properties": {
                "ref:csioz": 1187785,
                "name": "Syrenka",
                "addr:street": "Warszawska",
                "addr:housenumber": "119A",
                "addr:city": "Łomianki",
                "addr:postcode": "05-092",
                "amenity": "pharmacy",
                "dispensing": "yes"
            },
            "geometry": {
                "type": "Point",
                "coordinates": [
                    20.886022408122,
                    52.341062500103675
                ]
            }
        },
        {
            "type": "Feature",
            "properties": {
                "ref:csioz": 1112296,
                "name": "Aptekarz W Łomiankach",
                "addr:street": "Brukowa",
                "addr:housenumber": "25",
                "addr:city": "Łomianki",
                "addr:postcode": "05-092",
                "amenity": "pharmacy",
                "dispensing": "yes"
            },
            "geometry": {
                "type": "Point",
                "coordinates": [
                    20.902288389074617,
                    52.32454969321585
                ]
            }
        },
        {
            "type": "Feature",
            "properties": {
                "ref:csioz": 1089071,
                "name": "Dr. Max",
                "addr:street": "Traugutta",
                "addr:housenumber": "2",
                "addr:city": "Błonie",
                "addr:postcode": "05-870",
                "amenity": "pharmacy",
                "dispensing": "yes"
            },
            "geometry": {
                "type": "Point",
                "coordinates": [
                    20.616177753331225,
                    52.19537352498357
                ]
            }
        },
        {
            "type": "Feature",
            "properties": {
                "ref:csioz": 1089178,
                "addr:street": "Lipowa",
                "addr:housenumber": "5C",
                "addr:city": "Płochocin",
                "addr:postcode": "05-860",
                "amenity": "pharmacy",
                "dispensing": "yes"
            },
            "geometry": {
                "type": "Point",
                "coordinates": [
                    20.697558000001525,
                    52.197116000015775
                ]
            }
        },
        {
            "type": "Feature",
            "properties": {
                "ref:csioz": 1090081,
                "name": "Twoja",
                "addr:street": "Wiślana",
                "addr:housenumber": "3A",
                "addr:city": "Łomianki",
                "addr:postcode": "05-092",
                "amenity": "pharmacy",
                "dispensing": "yes"
            },
            "geometry": {
                "type": "Point",
                "coordinates": [
                    20.893301201491155,
                    52.33985945927924
                ]
            }
        },
        {
            "type": "Feature",
            "properties": {
                "ref:csioz": 1090231,
                "addr:street": "Warszawska",
                "addr:housenumber": "291",
                "addr:city": "Zielonki-Parcela",
                "addr:postcode": "05-082",
                "amenity": "pharmacy",
                "dispensing": "yes"
            },
            "geometry": {
                "type": "Point",
                "coordinates": [
                    20.815204263385304,
                    52.25238662977045
                ]
            }
        },
        {
            "type": "Feature",
            "properties": {
                "ref:csioz": 1090373,
                "name": "Arnica",
                "addr:street": "Rynek",
                "addr:housenumber": "10",
                "addr:city": "Stare Babice",
                "addr:postcode": "05-082",
                "amenity": "pharmacy",
                "dispensing": "yes"
            },
            "geometry": {
                "type": "Point",
                "coordinates": [
                    20.843215310968432,
                    52.25056587296016
                ]
            }
        },
        {
            "type": "Feature",
            "properties": {
                "ref:csioz": 1119324,
                "addr:street": "Warszawska",
                "addr:housenumber": "818",
                "addr:city": "Borzęcin Duży",
                "addr:postcode": "05-083",
                "amenity": "pharmacy",
                "dispensing": "yes"
            },
            "geometry": {
                "type": "Point",
                "coordinates": [
                    20.739452913923053,
                    52.25254914609146
                ]
            }
        },
        {
            "type": "Feature",
            "properties": {
                "ref:csioz": 1124403,
                "name": "Szpital Formmed Centrum Leczenia Wad I Zaburzeń Rozwojowych",
                "addr:street": "Warszawska",
                "addr:housenumber": "197D",
                "addr:city": "Babice Nowe",
                "addr:postcode": "05-082",
                "amenity": "pharmacy",
                "dispensing": "yes"
            },
            "geometry": {
                "type": "Point",
                "coordinates": [
                    20.839249089058104,
                    52.247639690789974
                ]
            }
        },
        {
            "type": "Feature",
            "properties": {
                "ref:csioz": 1124865,
                "name": "Hebeapteka",
                "addr:street": "Warszawska",
                "addr:housenumber": "201",
                "addr:city": "Kiełpin Poduchowny",
                "addr:postcode": "05-092",
                "amenity": "pharmacy",
                "dispensing": "yes"
            },
            "geometry": {
                "type": "Point",
                "coordinates": [
                    20.86759501073659,
                    52.34619115471636
                ]
            }
        },
        {
            "type": "Feature",
            "properties": {
                "ref:csioz": 1208562,
                "name": "Miro",
                "addr:street": "Sienkiewicza",
                "addr:housenumber": "3",
                "addr:city": "Błonie",
                "addr:postcode": "05-870",
                "amenity": "pharmacy",
                "dispensing": "yes"
            },
            "geometry": {
                "type": "Point",
                "coordinates": [
                    20.61861422708237,
                    52.195241746707396
                ]
            }
        },
        {
            "type": "Feature",
            "properties": {
                "ref:csioz": 1216381,
                "addr:street": "Romana Dmowskiego",
                "addr:housenumber": "62",
                "addr:city": "Ożarów Mazowiecki",
                "addr:postcode": "05-850",
                "amenity": "pharmacy",
                "dispensing": "yes"
            },
            "geometry": {
                "type": "Point",
                "coordinates": [
                    20.789653638822262,
                    52.213821558871125
                ]
            }
        },
        {
            "type": "Feature",
            "properties": {
                "ref:csioz": 1089047,
                "name": "Apteka 2000",
                "addr:street": "Piłsudskiego",
                "addr:housenumber": "2/4",
                "addr:city": "Błonie",
                "addr:postcode": "05-870",
                "amenity": "pharmacy",
                "dispensing": "yes"
            },
            "geometry": {
                "type": "Point",
                "coordinates": [
                    20.619538466150132,
                    52.19571079966743
                ]
            }
        },
        {
            "type": "Feature",
            "properties": {
                "ref:csioz": 1089110,
                "name": "Centralna",
                "addr:street": "Błońska",
                "addr:housenumber": "1A",
                "addr:city": "Leszno",
                "addr:postcode": "05-084",
                "amenity": "pharmacy",
                "dispensing": "yes"
            },
            "geometry": {
                "type": "Point",
                "coordinates": [
                    20.591380523857435,
                    52.25756534043112
                ]
            }
        },
        {
            "type": "Feature",
            "properties": {
                "ref:csioz": 1089186,
                "addr:street": "Stołeczna",
                "addr:housenumber": "145",
                "addr:city": "Feliksów",
                "addr:postcode": "05-083",
                "amenity": "pharmacy",
                "dispensing": "yes"
            },
            "geometry": {
                "type": "Point",
                "coordinates": [
                    20.68685517540682,
                    52.26034719283983
                ]
            }
        },
        {
            "type": "Feature",
            "properties": {
                "ref:csioz": 1115567,
                "addr:street": "Fryderyka Chopina",
                "addr:housenumber": "9A",
                "addr:city": "Kampinos",
                "addr:postcode": "05-085",
                "amenity": "pharmacy",
                "dispensing": "yes"
            },
            "geometry": {
                "type": "Point",
                "coordinates": [
                    20.465264994289868,
                    52.26763087750589
                ]
            }
        },
        {
            "type": "Feature",
            "properties": {
                "ref:csioz": 1120585,
                "name": "Apteki Centrum - Mazowieckie Centrum Leków",
                "addr:street": "Partyzantów",
                "addr:housenumber": "2A",
                "addr:city": "Leszno",
                "addr:postcode": "05-084",
                "amenity": "pharmacy",
                "dispensing": "yes"
            },
            "geometry": {
                "type": "Point",
                "coordinates": [
                    20.59256241406581,
                    52.259670232658145
                ]
            }
        },
        {
            "type": "Feature",
            "properties": {
                "ref:csioz": 1222980,
                "name": "Na Rynku",
                "addr:street": "Nowakowskiego",
                "addr:housenumber": "2/4",
                "addr:city": "Błonie",
                "addr:postcode": "05-870",
                "amenity": "pharmacy",
                "dispensing": "yes"
            },
            "geometry": {
                "type": "Point",
                "coordinates": [
                    20.61847256112273,
                    52.194017521546535
                ]
            }
        },
        {
            "type": "Feature",
            "properties": {
                "ref:csioz": 1226199,
                "addr:street": "Powstańców",
                "addr:housenumber": "12",
                "addr:city": "Błonie",
                "addr:postcode": "05-870",
                "amenity": "pharmacy",
                "dispensing": "yes"
            },
            "geometry": {
                "type": "Point",
                "coordinates": [
                    20.622455959693784,
                    52.198924188392944
                ]
            }
        }
    ]
}