{
    "type": "FeatureCollection",
    "name": "JPT_KOD_JE_0410",
    "features": [
        {
            "type": "Feature",
            "properties": {
                "ref:csioz": 1101248,
                "name": "Nad Notecią",
                "addr:street": "Bydgoska",
                "addr:housenumber": "17a",
                "addr:city": "Tur",
                "addr:postcode": "89-200",
                "amenity": "pharmacy"
            },
            "geometry": {
                "type": "Point",
                "coordinates": [
                    17.733753971839008,
                    53.0837023375098
                ]
            }
        },
        {
            "type": "Feature",
            "properties": {
                "ref:csioz": 1099328,
                "name": "\"Apteka \"\"Pod Orłem\"\" Mgr Farm. Aleksandra Podlaszewska\"",
                "addr:street": "1 Maja",
                "addr:housenumber": "13",
                "addr:city": "Mrocza",
                "addr:postcode": "89-115",
                "amenity": "pharmacy"
            },
            "geometry": {
                "type": "Point",
                "coordinates": [
                    17.606459026138378,
                    53.24378333652319
                ]
            }
        },
        {
            "type": "Feature",
            "properties": {
                "ref:csioz": 1099668,
                "name": "Pod Orłem",
                "addr:street": "Rynek",
                "addr:housenumber": "8",
                "addr:city": "Kcynia",
                "addr:postcode": "89-240",
                "amenity": "pharmacy"
            },
            "geometry": {
                "type": "Point",
                "coordinates": [
                    17.488918073930563,
                    52.991483464925416
                ]
            }
        },
        {
            "type": "Feature",
            "properties": {
                "ref:csioz": 1100223,
                "name": "Dr.Max",
                "addr:street": "Ogrodowa",
                "addr:housenumber": "3",
                "addr:city": "Szubin",
                "addr:postcode": "89-200",
                "amenity": "pharmacy"
            },
            "geometry": {
                "type": "Point",
                "coordinates": [
                    17.73265360609667,
                    53.008492240669035
                ]
            }
        },
        {
            "type": "Feature",
            "properties": {
                "ref:csioz": 1101533,
                "name": "W Rynku",
                "addr:street": "Plac 1 Maja",
                "addr:housenumber": "8",
                "addr:city": "Mrocza",
                "addr:postcode": "89-115",
                "amenity": "pharmacy"
            },
            "geometry": {
                "type": "Point",
                "coordinates": [
                    17.607210359856364,
                    53.24355908633396
                ]
            }
        },
        {
            "type": "Feature",
            "properties": {
                "ref:csioz": 1101565,
                "name": "Doz Apteka Dbam O Zdrowie",
                "addr:street": "gen. Józefa Bema",
                "addr:housenumber": "6",
                "addr:city": "Szubin",
                "addr:postcode": "89-200",
                "amenity": "pharmacy"
            },
            "geometry": {
                "type": "Point",
                "coordinates": [
                    17.73250941105836,
                    53.01010117996898
                ]
            }
        },
        {
            "type": "Feature",
            "properties": {
                "ref:csioz": 1102135,
                "name": "Nowy Szpital W Nakle I W Szubinie Spółka Z Ograniczoną Odpowiedzialnością",
                "addr:street": "Adama Mickiewicza",
                "addr:housenumber": "7",
                "addr:city": "Nakło Nad Notecią",
                "addr:postcode": "89-100",
                "amenity": "pharmacy"
            },
            "geometry": {
                "type": "Point",
                "coordinates": [
                    17.59410462754631,
                    53.13996906815361
                ]
            }
        },
        {
            "type": "Feature",
            "properties": {
                "ref:csioz": 1119528,
                "name": "Apteka Pogodna",
                "addr:street": "Mickiewicza",
                "addr:housenumber": "6",
                "addr:city": "Sadki",
                "addr:postcode": "89-110",
                "amenity": "pharmacy"
            },
            "geometry": {
                "type": "Point",
                "coordinates": [
                    17.454387091186785,
                    53.15769049261375
                ]
            }
        },
        {
            "type": "Feature",
            "properties": {
                "ref:csioz": 1166542,
                "name": "Apteka Przy Przychodni",
                "addr:street": "Nowa",
                "addr:housenumber": "3",
                "addr:city": "Kcynia",
                "addr:postcode": "89-240",
                "amenity": "pharmacy"
            },
            "geometry": {
                "type": "Point",
                "coordinates": [
                    17.49438500566675,
                    52.99264730365361
                ]
            }
        },
        {
            "type": "Feature",
            "properties": {
                "ref:csioz": 1173051,
                "name": "\" \"\"Nowy Szpital W Nakle I Szubinie\"\" Sp. Z O.O. \"",
                "addr:street": "Ogrodowa",
                "addr:housenumber": "9",
                "addr:city": "Szubin",
                "addr:postcode": "89-200",
                "amenity": "pharmacy"
            },
            "geometry": {
                "type": "Point",
                "coordinates": [
                    17.7304179700249,
                    53.00833482015829
                ]
            }
        },
        {
            "type": "Feature",
            "properties": {
                "ref:csioz": 1179480,
                "name": "W Przychodni",
                "addr:street": "Wyzwolenia",
                "addr:housenumber": "3",
                "addr:city": "Paterek",
                "addr:postcode": "89-100",
                "amenity": "pharmacy"
            },
            "geometry": {
                "type": "Point",
                "coordinates": [
                    17.601063393820784,
                    53.118635033665676
                ]
            }
        },
        {
            "type": "Feature",
            "properties": {
                "ref:csioz": 1185666,
                "name": "Apteka Pharma-Land",
                "addr:street": "Gimnazjalna",
                "addr:housenumber": "2B",
                "addr:city": "Nakło nad Notecią",
                "addr:postcode": "89-100",
                "amenity": "pharmacy"
            },
            "geometry": {
                "type": "Point",
                "coordinates": [
                    17.599272147429417,
                    53.13704396039943
                ]
            }
        },
        {
            "type": "Feature",
            "properties": {
                "ref:csioz": 1100465,
                "name": "Alba",
                "addr:street": "Bolesława Chrobrego",
                "addr:housenumber": "16",
                "addr:city": "Nakło Nad Notecią",
                "addr:postcode": "89-100",
                "amenity": "pharmacy"
            },
            "geometry": {
                "type": "Point",
                "coordinates": [
                    17.607306872849357,
                    53.141847170174685
                ]
            }
        },
        {
            "type": "Feature",
            "properties": {
                "ref:csioz": 1100501,
                "name": "Alba",
                "addr:street": "3 Maja",
                "addr:housenumber": "23",
                "addr:city": "Szubin",
                "addr:postcode": "89-200",
                "amenity": "pharmacy"
            },
            "geometry": {
                "type": "Point",
                "coordinates": [
                    17.73740417875356,
                    53.00877846883703
                ]
            }
        },
        {
            "type": "Feature",
            "properties": {
                "ref:csioz": 1100828,
                "name": "Remedium",
                "addr:street": "Pocztowa",
                "addr:housenumber": "17",
                "addr:city": "Nakło Nad Notecią",
                "addr:postcode": "89-100",
                "amenity": "pharmacy"
            },
            "geometry": {
                "type": "Point",
                "coordinates": [
                    17.602011722818954,
                    53.14065509729493
                ]
            }
        },
        {
            "type": "Feature",
            "properties": {
                "ref:csioz": 1100831,
                "name": "Śródmiejska",
                "addr:street": "Sądowa",
                "addr:housenumber": "14d",
                "addr:city": "Nakło Nad Notecią",
                "addr:postcode": "89-100",
                "amenity": "pharmacy"
            },
            "geometry": {
                "type": "Point",
                "coordinates": [
                    17.58957278567911,
                    53.13630976573681
                ]
            }
        },
        {
            "type": "Feature",
            "properties": {
                "ref:csioz": 1100844,
                "name": "Rodzinna",
                "addr:street": "Marii Konopnickiej",
                "addr:housenumber": "1",
                "addr:city": "Nakło Nad Notecią",
                "addr:postcode": "89-100",
                "amenity": "pharmacy"
            },
            "geometry": {
                "type": "Point",
                "coordinates": [
                    17.594736550967745,
                    53.13647265277605
                ]
            }
        },
        {
            "type": "Feature",
            "properties": {
                "ref:csioz": 1100866,
                "name": "Krokus",
                "addr:street": "Nakielska",
                "addr:housenumber": "19",
                "addr:city": "Ślesin",
                "addr:postcode": "89-121",
                "amenity": "pharmacy"
            },
            "geometry": {
                "type": "Point",
                "coordinates": [
                    17.70383850931475,
                    53.165028970298735
                ]
            }
        },
        {
            "type": "Feature",
            "properties": {
                "ref:csioz": 1101261,
                "name": "Przy Szkolnej",
                "addr:street": "Szkolna",
                "addr:housenumber": "4",
                "addr:city": "Nakło Nad Notecią",
                "addr:postcode": "89-100",
                "amenity": "pharmacy"
            },
            "geometry": {
                "type": "Point",
                "coordinates": [
                    17.59680679480141,
                    53.141123768699245
                ]
            }
        },
        {
            "type": "Feature",
            "properties": {
                "ref:csioz": 1186824,
                "name": "Dział Farmacji Szpitalnej Szpitala I Ambulatorium Z Izbą Chorych Zakładu Karnego W Potulicach",
                "addr:street": "Parkowa",
                "addr:housenumber": "1",
                "addr:city": "Potulice",
                "addr:postcode": "89-120",
                "amenity": "pharmacy"
            },
            "geometry": {
                "type": "Point",
                "coordinates": [
                    17.6895720293375,
                    53.12543152335548
                ]
            }
        },
        {
            "type": "Feature",
            "properties": {
                "ref:csioz": 1206674,
                "name": "Centrum Zdrowia",
                "addr:street": "Rynek",
                "addr:housenumber": "12",
                "addr:city": "Kcynia",
                "addr:postcode": "89-240",
                "amenity": "pharmacy"
            },
            "geometry": {
                "type": "Point",
                "coordinates": [
                    17.48794118280299,
                    52.99144996600549
                ]
            }
        },
        {
            "type": "Feature",
            "properties": {
                "ref:csioz": 1213127,
                "name": "Apteka Stara",
                "addr:street": "Bydgoska",
                "addr:housenumber": "48",
                "addr:city": "Nakło nad Notecią",
                "addr:postcode": "89-100",
                "amenity": "pharmacy"
            },
            "geometry": {
                "type": "Point",
                "coordinates": [
                    17.602172564445787,
                    53.13733503913864
                ]
            }
        },
        {
            "type": "Feature",
            "properties": {
                "ref:csioz": 1213150,
                "name": "Apteka Rodzinna-Bis",
                "addr:street": "Bydgoska",
                "addr:housenumber": "39",
                "addr:city": "Nakło nad Notecią",
                "addr:postcode": "89-100",
                "amenity": "pharmacy"
            },
            "geometry": {
                "type": "Point",
                "coordinates": [
                    17.604132781944582,
                    53.137741839886026
                ]
            }
        },
        {
            "type": "Feature",
            "properties": {
                "ref:csioz": 1222790,
                "name": "Medic",
                "addr:street": "Świerkowa",
                "addr:housenumber": "1A",
                "addr:city": "Występ",
                "addr:postcode": "89-100",
                "amenity": "pharmacy"
            },
            "geometry": {
                "type": "Point",
                "coordinates": [
                    17.66144832442055,
                    53.12357629774017
                ]
            }
        },
        {
            "type": "Feature",
            "properties": {
                "ref:csioz": 1224415,
                "name": "Dr. Max",
                "addr:street": "Bydgoska",
                "addr:housenumber": "22",
                "addr:city": "Nakło nad Notecią",
                "addr:postcode": "89-100",
                "amenity": "pharmacy"
            },
            "geometry": {
                "type": "Point",
                "coordinates": [
                    17.607562043213825,
                    53.13945751135587
                ]
            }
        },
        {
            "type": "Feature",
            "properties": {
                "ref:csioz": 1230692,
                "name": "Punkt Apteczny Centrum",
                "addr:street": "Bydgoska",
                "addr:housenumber": "9",
                "addr:city": "Rynarzewo",
                "addr:postcode": "89-200",
                "amenity": "pharmacy"
            },
            "geometry": {
                "type": "Point",
                "coordinates": [
                    17.817129976368065,
                    53.06544822870667
                ]
            }
        }
    ]
}