{
    "type": "FeatureCollection",
    "name": "JPT_KOD_JE_2212",
    "features": [
        {
            "type": "Feature",
            "properties": {
                "ref:csioz": 1028913,
                "name": "Miraculum",
                "addr:street": "Szczecińska",
                "addr:housenumber": "6",
                "addr:city": "Kobylnica",
                "addr:postcode": "76-251",
                "amenity": "pharmacy"
            },
            "geometry": {
                "type": "Point",
                "coordinates": [
                    16.973906402624586,
                    54.45388859822922
                ]
            }
        },
        {
            "type": "Feature",
            "properties": {
                "ref:csioz": 1033205,
                "name": "Calendula",
                "addr:street": "Ogrodowa",
                "addr:housenumber": "12",
                "addr:city": "Smołdzino",
                "addr:postcode": "76-200",
                "amenity": "pharmacy"
            },
            "geometry": {
                "type": "Point",
                "coordinates": [
                    17.21156693229378,
                    54.66756918727943
                ]
            }
        },
        {
            "type": "Feature",
            "properties": {
                "ref:csioz": 1033830,
                "addr:housenumber": "12",
                "addr:postcode": "76-270",
                "amenity": "pharmacy",
                "addr:place": "Objazda"
            },
            "geometry": {
                "type": "Point",
                "coordinates": [
                    17.046475565089573,
                    54.60760872578069
                ]
            }
        },
        {
            "type": "Feature",
            "properties": {
                "ref:csioz": 1033849,
                "name": "Maciejka",
                "addr:street": "Słupska",
                "addr:housenumber": "14B",
                "addr:city": "Sycewice",
                "addr:postcode": "76-251",
                "amenity": "pharmacy"
            },
            "geometry": {
                "type": "Point",
                "coordinates": [
                    16.860983045038317,
                    54.4210161431991
                ]
            }
        },
        {
            "type": "Feature",
            "properties": {
                "ref:csioz": 1034044,
                "name": "Punkt Apteczny W Rowach",
                "addr:street": "Parkowa",
                "addr:housenumber": "3",
                "addr:city": "Rowy",
                "addr:postcode": "76-212",
                "amenity": "pharmacy"
            },
            "geometry": {
                "type": "Point",
                "coordinates": [
                    17.05560654137564,
                    54.6674092420126
                ]
            }
        },
        {
            "type": "Feature",
            "properties": {
                "ref:csioz": 1172665,
                "name": "\"Dział Farmacji Szpitalnej W Niepublicznym Zakładzie Lecznictwa Uzdrowiskowego Sanatorium \"\"Tęcza\"\", Spółdzielnia Pracy Sanatorium Uzdrowiskowe \"\"Tęcza\"\"\"",
                "addr:street": "Fryderyka Chopina",
                "addr:housenumber": "1",
                "addr:city": "Ustka",
                "addr:postcode": "76-270",
                "amenity": "pharmacy"
            },
            "geometry": {
                "type": "Point",
                "coordinates": [
                    16.857607713944017,
                    54.587171961442934
                ]
            }
        },
        {
            "type": "Feature",
            "properties": {
                "ref:csioz": 1178862,
                "name": "Dział Farmacji Szpitalnej W Zakładzie Opiekuńczo-Leczniczym",
                "addr:street": "Plac Wolności",
                "addr:housenumber": "1",
                "addr:city": "Gardna Wielka",
                "addr:postcode": "76-213",
                "amenity": "pharmacy"
            },
            "geometry": {
                "type": "Point",
                "coordinates": [
                    17.16373635795581,
                    54.63742450592264
                ]
            }
        },
        {
            "type": "Feature",
            "properties": {
                "ref:csioz": 1194490,
                "name": "Apteka W Kobylnicy",
                "addr:street": "Główna",
                "addr:housenumber": "43",
                "addr:city": "Kobylnica",
                "addr:postcode": "76-251",
                "amenity": "pharmacy"
            },
            "geometry": {
                "type": "Point",
                "coordinates": [
                    16.99968625539553,
                    54.441829330415224
                ]
            }
        },
        {
            "type": "Feature",
            "properties": {
                "ref:csioz": 1212419,
                "name": "Punkt Apteczny Jezierzyce",
                "addr:street": "Parkowa",
                "addr:housenumber": "4 A",
                "addr:city": "Jezierzyce",
                "addr:postcode": "76-219",
                "amenity": "pharmacy"
            },
            "geometry": {
                "type": "Point",
                "coordinates": [
                    17.116937092870103,
                    54.50641381044074
                ]
            }
        },
        {
            "type": "Feature",
            "properties": {
                "ref:csioz": 1225512,
                "name": "Centrum Leków",
                "addr:street": "Grunwaldzka",
                "addr:housenumber": "26",
                "addr:city": "Ustka",
                "addr:postcode": "76-270",
                "amenity": "pharmacy"
            },
            "geometry": {
                "type": "Point",
                "coordinates": [
                    16.87386583377972,
                    54.57877010008232
                ]
            }
        },
        {
            "type": "Feature",
            "properties": {
                "ref:csioz": 1028364,
                "name": "Jantar",
                "addr:street": "Grunwaldzka",
                "addr:housenumber": "27A",
                "addr:city": "Ustka",
                "addr:postcode": "76-270",
                "amenity": "pharmacy"
            },
            "geometry": {
                "type": "Point",
                "coordinates": [
                    16.869011169820205,
                    54.58122820130038
                ]
            }
        },
        {
            "type": "Feature",
            "properties": {
                "ref:csioz": 1028393,
                "name": "Panaceum 013",
                "addr:street": "Mikołaja Kopernika",
                "addr:housenumber": "18",
                "addr:city": "Ustka",
                "addr:postcode": "76-270",
                "amenity": "pharmacy"
            },
            "geometry": {
                "type": "Point",
                "coordinates": [
                    16.866116562514772,
                    54.58293040354715
                ]
            }
        },
        {
            "type": "Feature",
            "properties": {
                "ref:csioz": 1028411,
                "name": "Remedium",
                "addr:street": "Ks. Kardynała Stefana Wyszyńskiego",
                "addr:housenumber": "1B",
                "addr:city": "Ustka",
                "addr:postcode": "76-270",
                "amenity": "pharmacy"
            },
            "geometry": {
                "type": "Point",
                "coordinates": [
                    16.8594208715584,
                    54.58247630080928
                ]
            }
        },
        {
            "type": "Feature",
            "properties": {
                "ref:csioz": 1028563,
                "name": "Pod Smokiem",
                "addr:street": "Jana Kilińskiego",
                "addr:housenumber": "8",
                "addr:city": "Ustka",
                "addr:postcode": "76-270",
                "amenity": "pharmacy"
            },
            "geometry": {
                "type": "Point",
                "coordinates": [
                    16.859358621905855,
                    54.584519954994036
                ]
            }
        },
        {
            "type": "Feature",
            "properties": {
                "ref:csioz": 1028660,
                "name": "\"Apteka \"\"Aga\"\" Agnieszka Bieńkowska, Andrzej Dąbrowski S.C.\"",
                "addr:street": "Główna",
                "addr:housenumber": "54",
                "addr:city": "Kobylnica",
                "addr:postcode": "76-251",
                "amenity": "pharmacy"
            },
            "geometry": {
                "type": "Point",
                "coordinates": [
                    16.996575883301997,
                    54.437737962974296
                ]
            }
        },
        {
            "type": "Feature",
            "properties": {
                "ref:csioz": 1030980,
                "name": "Nadmorska",
                "addr:street": "Marynarki Polskiej",
                "addr:housenumber": "31",
                "addr:city": "Ustka",
                "addr:postcode": "76-270",
                "amenity": "pharmacy"
            },
            "geometry": {
                "type": "Point",
                "coordinates": [
                    16.855325449146463,
                    54.58557805382705
                ]
            }
        },
        {
            "type": "Feature",
            "properties": {
                "ref:csioz": 1031371,
                "name": "Doz Apteka Dbam O Zdrowie",
                "addr:street": "Stefana Żeromskiego",
                "addr:housenumber": "5",
                "addr:city": "Ustka",
                "addr:postcode": "76-270",
                "amenity": "pharmacy"
            },
            "geometry": {
                "type": "Point",
                "coordinates": [
                    16.86068038872912,
                    54.58652374117561
                ]
            }
        },
        {
            "type": "Feature",
            "properties": {
                "ref:csioz": 1176532,
                "name": "Apteka Z Pasją",
                "addr:street": "Polna",
                "addr:housenumber": "2",
                "addr:city": "Ustka",
                "addr:postcode": "76-270",
                "amenity": "pharmacy"
            },
            "geometry": {
                "type": "Point",
                "coordinates": [
                    16.854819943769098,
                    54.57747853620447
                ]
            }
        },
        {
            "type": "Feature",
            "properties": {
                "ref:csioz": 1211140,
                "name": "Bliski",
                "addr:street": "Spacerowa",
                "addr:housenumber": "3 A",
                "addr:city": "Siemianice",
                "addr:postcode": "76-200",
                "amenity": "pharmacy"
            },
            "geometry": {
                "type": "Point",
                "coordinates": [
                    17.061603329156718,
                    54.495183461816225
                ]
            }
        },
        {
            "type": "Feature",
            "properties": {
                "ref:csioz": 1214072,
                "name": "Stokrotka",
                "addr:street": "Darłowska",
                "addr:housenumber": "7 a",
                "addr:city": "Ustka",
                "addr:postcode": "76-270",
                "amenity": "pharmacy"
            },
            "geometry": {
                "type": "Point",
                "coordinates": [
                    16.85527229905964,
                    54.578267017192196
                ]
            }
        },
        {
            "type": "Feature",
            "properties": {
                "ref:csioz": 1220670,
                "name": "Apteka W Dolinie Słupi",
                "addr:street": "ks. Antoniego Kani",
                "addr:housenumber": "35",
                "addr:city": "Dębnica Kaszubska",
                "addr:postcode": "76-248",
                "amenity": "pharmacy"
            },
            "geometry": {
                "type": "Point",
                "coordinates": [
                    17.16139716450391,
                    54.37509799337574
                ]
            }
        },
        {
            "type": "Feature",
            "properties": {
                "ref:csioz": 1229327,
                "name": "Dział Farmacji Szpitalnej W Zakładzie Opiekuńczo-Leczniczym Psychiatrycznym",
                "addr:street": "Franciszkańska",
                "addr:housenumber": "1",
                "addr:city": "Kobylnica",
                "addr:postcode": "76-251",
                "amenity": "pharmacy"
            },
            "geometry": {
                "type": "Point",
                "coordinates": [
                    16.981314042816557,
                    54.429760827950055
                ]
            }
        },
        {
            "type": "Feature",
            "properties": {
                "ref:csioz": 1229401,
                "name": "Punkt Apteczny Centrum",
                "addr:street": "Nadmorska",
                "addr:housenumber": "7",
                "addr:city": "Rowy",
                "addr:postcode": "76-212",
                "amenity": "pharmacy"
            },
            "geometry": {
                "type": "Point",
                "coordinates": [
                    17.054765077718475,
                    54.665869330400376
                ]
            }
        },
        {
            "type": "Feature",
            "properties": {
                "ref:csioz": 1028501,
                "name": "Pod Wagą",
                "addr:street": "Tadeusza Kościuszki",
                "addr:housenumber": "1",
                "addr:city": "Główczyce",
                "addr:postcode": "76-220",
                "amenity": "pharmacy"
            },
            "geometry": {
                "type": "Point",
                "coordinates": [
                    17.37105879502487,
                    54.619403177233
                ]
            }
        },
        {
            "type": "Feature",
            "properties": {
                "ref:csioz": 1034089,
                "addr:housenumber": "59",
                "addr:postcode": "77-113",
                "amenity": "pharmacy",
                "addr:place": "Budowo"
            },
            "geometry": {
                "type": "Point",
                "coordinates": [
                    17.387995710886976,
                    54.31921506900303
                ]
            }
        },
        {
            "type": "Feature",
            "properties": {
                "ref:csioz": 1122268,
                "name": "Calendula",
                "addr:housenumber": "15",
                "addr:postcode": "76-220",
                "amenity": "pharmacy",
                "addr:place": "Stowięcino"
            },
            "geometry": {
                "type": "Point",
                "coordinates": [
                    17.485689315710147,
                    54.56311918678684
                ]
            }
        },
        {
            "type": "Feature",
            "properties": {
                "ref:csioz": 1179977,
                "name": "Pod Agawą",
                "addr:housenumber": "12 A",
                "addr:postcode": "76-220",
                "amenity": "pharmacy",
                "addr:place": "Pobłocie"
            },
            "geometry": {
                "type": "Point",
                "coordinates": [
                    17.50860781291483,
                    54.63333868195895
                ]
            }
        },
        {
            "type": "Feature",
            "properties": {
                "ref:csioz": 1028549,
                "addr:street": "Kościuszki",
                "addr:housenumber": "6",
                "addr:city": "Potęgowo",
                "addr:postcode": "76-230",
                "amenity": "pharmacy"
            },
            "geometry": {
                "type": "Point",
                "coordinates": [
                    17.491944167868773,
                    54.48327147298343
                ]
            }
        },
        {
            "type": "Feature",
            "properties": {
                "ref:csioz": 1175406,
                "name": "Centralna",
                "addr:street": "Tadeusza Kościuszki",
                "addr:housenumber": "3",
                "addr:city": "Kępice",
                "addr:postcode": "77-230",
                "amenity": "pharmacy"
            },
            "geometry": {
                "type": "Point",
                "coordinates": [
                    16.887766112759454,
                    54.24417590423906
                ]
            }
        },
        {
            "type": "Feature",
            "properties": {
                "ref:csioz": 1028465,
                "name": "Słoneczna",
                "addr:street": "Szkolna",
                "addr:housenumber": "2",
                "addr:city": "Kępice",
                "addr:postcode": "77-230",
                "amenity": "pharmacy"
            },
            "geometry": {
                "type": "Point",
                "coordinates": [
                    16.886489068651372,
                    54.24265360747384
                ]
            }
        }
    ]
}