{
    "type": "FeatureCollection",
    "name": "JPT_KOD_JE_0402",
    "features": [
        {
            "type": "Feature",
            "properties": {
                "ref:csioz": 1103656,
                "name": "Lena",
                "addr:street": "Główna",
                "addr:housenumber": "29B",
                "addr:city": "Jabłonowo Pomorskie",
                "addr:postcode": "87-330",
                "amenity": "pharmacy",
                "dispensing": "yes"
            },
            "geometry": {
                "type": "Point",
                "coordinates": [
                    19.154809000000068,
                    53.39070500001771
                ]
            }
        },
        {
            "type": "Feature",
            "properties": {
                "ref:csioz": 1103821,
                "name": "Doz Apteka.Dbam O Zdrowie.Bobrowo 21.",
                "addr:housenumber": "21",
                "addr:postcode": "87-327",
                "amenity": "pharmacy",
                "addr:place": "Bobrowo",
                "dispensing": "yes"
            },
            "geometry": {
                "type": "Point",
                "coordinates": [
                    19.270856000000105,
                    53.28704900001755
                ]
            }
        },
        {
            "type": "Feature",
            "properties": {
                "ref:csioz": 1102798,
                "name": "Pod Kłosami",
                "addr:street": "Główna",
                "addr:housenumber": "9",
                "addr:city": "Jabłonowo Pomorskie",
                "addr:postcode": "87-330",
                "amenity": "pharmacy",
                "dispensing": "yes"
            },
            "geometry": {
                "type": "Point",
                "coordinates": [
                    19.15472346749928,
                    53.38946500772222
                ]
            }
        },
        {
            "type": "Feature",
            "properties": {
                "ref:csioz": 1105231,
                "addr:housenumber": "39",
                "addr:postcode": "87-326",
                "amenity": "pharmacy",
                "addr:place": "Nieżywięć",
                "dispensing": "yes"
            },
            "geometry": {
                "type": "Point",
                "coordinates": [
                    19.158104190138772,
                    53.266267521947064
                ]
            }
        },
        {
            "type": "Feature",
            "properties": {
                "ref:csioz": 1116732,
                "name": "Ars Medica Spółka Z Ograniczoną Odpowiedzialnością",
                "addr:housenumber": "14",
                "addr:postcode": "87-327",
                "amenity": "pharmacy",
                "addr:place": "Wichulec",
                "dispensing": "yes"
            },
            "geometry": {
                "type": "Point",
                "coordinates": [
                    19.30571469990515,
                    53.309010333360945
                ]
            }
        },
        {
            "type": "Feature",
            "properties": {
                "ref:csioz": 1102321,
                "name": "\"Pod Orłem, Green Cross\"",
                "addr:street": "Duży Rynek",
                "addr:housenumber": "32",
                "addr:city": "Brodnica",
                "addr:postcode": "87-300",
                "amenity": "pharmacy",
                "dispensing": "yes"
            },
            "geometry": {
                "type": "Point",
                "coordinates": [
                    19.402515206318068,
                    53.25574421625984
                ]
            }
        },
        {
            "type": "Feature",
            "properties": {
                "ref:csioz": 1102337,
                "name": "\"Adonis, Green Cross\"",
                "addr:street": "Zawiszy Czarnego",
                "addr:housenumber": "1",
                "addr:city": "Brodnica",
                "addr:postcode": "87-300",
                "amenity": "pharmacy",
                "dispensing": "yes"
            },
            "geometry": {
                "type": "Point",
                "coordinates": [
                    19.383572592891323,
                    53.26090884392199
                ]
            }
        },
        {
            "type": "Feature",
            "properties": {
                "ref:csioz": 1102345,
                "name": "\"Rodzinna, Green Cross\"",
                "addr:street": "Stanisława Wyspiańskiego",
                "addr:housenumber": "6",
                "addr:city": "Brodnica",
                "addr:postcode": "87-300",
                "amenity": "pharmacy",
                "dispensing": "yes"
            },
            "geometry": {
                "type": "Point",
                "coordinates": [
                    19.40886242471486,
                    53.24724203971397
                ]
            }
        },
        {
            "type": "Feature",
            "properties": {
                "ref:csioz": 1103494,
                "name": "Strzelecka",
                "addr:street": "Kilińskiego",
                "addr:housenumber": "25",
                "addr:city": "Brodnica",
                "addr:postcode": "87-300",
                "amenity": "pharmacy",
                "dispensing": "yes"
            },
            "geometry": {
                "type": "Point",
                "coordinates": [
                    19.404838000000172,
                    53.254994000017504
                ]
            }
        },
        {
            "type": "Feature",
            "properties": {
                "ref:csioz": 1103624,
                "name": "Apteka Pharma-Land",
                "addr:street": "Kamionka",
                "addr:housenumber": "2",
                "addr:city": "Brodnica",
                "addr:postcode": "87-300",
                "amenity": "pharmacy",
                "dispensing": "yes"
            },
            "geometry": {
                "type": "Point",
                "coordinates": [
                    19.402561796064763,
                    53.25791785589959
                ]
            }
        },
        {
            "type": "Feature",
            "properties": {
                "ref:csioz": 1105145,
                "addr:housenumber": "27",
                "addr:postcode": "87-312",
                "amenity": "pharmacy",
                "addr:place": "Pokrzydowo",
                "dispensing": "yes"
            },
            "geometry": {
                "type": "Point",
                "coordinates": [
                    19.477527627601184,
                    53.325661553645254
                ]
            }
        },
        {
            "type": "Feature",
            "properties": {
                "ref:csioz": 1105228,
                "name": "Aquavit",
                "addr:housenumber": "176",
                "addr:postcode": "87-313",
                "amenity": "pharmacy",
                "addr:place": "Brzozie",
                "dispensing": "yes"
            },
            "geometry": {
                "type": "Point",
                "coordinates": [
                    19.61038912637886,
                    53.324156465123764
                ]
            }
        },
        {
            "type": "Feature",
            "properties": {
                "ref:csioz": 1100517,
                "name": "Alba",
                "addr:street": "Zamkowa",
                "addr:housenumber": "19",
                "addr:city": "Brodnica",
                "addr:postcode": "87-300",
                "amenity": "pharmacy",
                "dispensing": "yes"
            },
            "geometry": {
                "type": "Point",
                "coordinates": [
                    19.39801186564741,
                    53.25974307927697
                ]
            }
        },
        {
            "type": "Feature",
            "properties": {
                "ref:csioz": 1102359,
                "addr:street": "Piwna",
                "addr:housenumber": "5",
                "addr:city": "Brodnica",
                "addr:postcode": "87-300",
                "amenity": "pharmacy",
                "dispensing": "yes"
            },
            "geometry": {
                "type": "Point",
                "coordinates": [
                    19.399165515870756,
                    53.25157112387027
                ]
            }
        },
        {
            "type": "Feature",
            "properties": {
                "ref:csioz": 1102376,
                "name": "Avena",
                "addr:street": "18 Stycznia",
                "addr:housenumber": "36B",
                "addr:city": "Brodnica",
                "addr:postcode": "87-300",
                "amenity": "pharmacy",
                "dispensing": "yes"
            },
            "geometry": {
                "type": "Point",
                "coordinates": [
                    19.40351630737014,
                    53.24616650955233
                ]
            }
        },
        {
            "type": "Feature",
            "properties": {
                "ref:csioz": 1102384,
                "name": "Avena-Bis",
                "addr:street": "Stanisława Wyspiańskiego",
                "addr:housenumber": "2A",
                "addr:city": "Brodnica",
                "addr:postcode": "87-300",
                "amenity": "pharmacy",
                "dispensing": "yes"
            },
            "geometry": {
                "type": "Point",
                "coordinates": [
                    19.411630070607316,
                    53.24873488161566
                ]
            }
        },
        {
            "type": "Feature",
            "properties": {
                "ref:csioz": 1102392,
                "name": "Avena Na Cichej",
                "addr:street": "Cicha",
                "addr:housenumber": "12",
                "addr:city": "Brodnica",
                "addr:postcode": "87-300",
                "amenity": "pharmacy",
                "dispensing": "yes"
            },
            "geometry": {
                "type": "Point",
                "coordinates": [
                    19.409910829213196,
                    53.26732799918488
                ]
            }
        },
        {
            "type": "Feature",
            "properties": {
                "ref:csioz": 1102415,
                "name": "Apteka Dbam O Zdrowie",
                "addr:street": "Sienkiewicza",
                "addr:housenumber": "6",
                "addr:city": "Brodnica",
                "addr:postcode": "87-300",
                "amenity": "pharmacy",
                "dispensing": "yes"
            },
            "geometry": {
                "type": "Point",
                "coordinates": [
                    19.39640228511285,
                    53.258954655248886
                ]
            }
        },
        {
            "type": "Feature",
            "properties": {
                "ref:csioz": 1105215,
                "addr:housenumber": "82",
                "addr:postcode": "87-340",
                "amenity": "pharmacy",
                "addr:place": "Osiek",
                "dispensing": "yes"
            },
            "geometry": {
                "type": "Point",
                "coordinates": [
                    19.385808891846953,
                    53.16843139627446
                ]
            }
        },
        {
            "type": "Feature",
            "properties": {
                "ref:csioz": 1115722,
                "name": "Hebeapteka",
                "addr:street": "Kamionka",
                "addr:housenumber": "14",
                "addr:city": "Brodnica",
                "addr:postcode": "87-300",
                "amenity": "pharmacy",
                "dispensing": "yes"
            },
            "geometry": {
                "type": "Point",
                "coordinates": [
                    19.402026664135185,
                    53.25861665212914
                ]
            }
        },
        {
            "type": "Feature",
            "properties": {
                "ref:csioz": 1116692,
                "name": "Niepubliczny Zakład Opieki Zdrowotnej Zespół Chirurgii Jednego Dnia",
                "addr:street": "Aleja Leśna",
                "addr:housenumber": "1a",
                "addr:city": "Brodnica",
                "addr:postcode": "87-300",
                "amenity": "pharmacy",
                "dispensing": "yes"
            },
            "geometry": {
                "type": "Point",
                "coordinates": [
                    19.406115869399557,
                    53.25793120489171
                ]
            }
        },
        {
            "type": "Feature",
            "properties": {
                "ref:csioz": 1116710,
                "name": "Oddział Leczenia Jednego Dnia",
                "addr:street": "Piwna",
                "addr:housenumber": "5",
                "addr:city": "Brodnica",
                "addr:postcode": "87-300",
                "amenity": "pharmacy",
                "dispensing": "yes"
            },
            "geometry": {
                "type": "Point",
                "coordinates": [
                    19.399165515870756,
                    53.25157112387027
                ]
            }
        },
        {
            "type": "Feature",
            "properties": {
                "ref:csioz": 1180776,
                "name": "Wracam Do Zdrowia",
                "addr:street": "Mazurska",
                "addr:housenumber": "7",
                "addr:city": "Brodnica",
                "addr:postcode": "87-300",
                "amenity": "pharmacy",
                "dispensing": "yes"
            },
            "geometry": {
                "type": "Point",
                "coordinates": [
                    19.400539520418306,
                    53.25265086692053
                ]
            }
        },
        {
            "type": "Feature",
            "properties": {
                "ref:csioz": 1181475,
                "name": "Gemini",
                "addr:street": "Duży Rynek",
                "addr:housenumber": "30",
                "addr:city": "Brodnica",
                "addr:postcode": "87-300",
                "amenity": "pharmacy",
                "dispensing": "yes"
            },
            "geometry": {
                "type": "Point",
                "coordinates": [
                    19.402649280599736,
                    53.255441753816356
                ]
            }
        },
        {
            "type": "Feature",
            "properties": {
                "ref:csioz": 1187405,
                "name": "Św. Marcina",
                "addr:housenumber": "63",
                "addr:postcode": "63-112",
                "amenity": "pharmacy",
                "addr:place": "Brodnica",
                "dispensing": "yes"
            },
            "geometry": {
                "type": "Point",
                "coordinates": [
                    19.40327010719694,
                    53.25409656358255
                ]
            }
        },
        {
            "type": "Feature",
            "properties": {
                "ref:csioz": 1203705,
                "name": "Zespół Opieki Zdrowotnej W Brodnicy",
                "addr:street": "Wiejska",
                "addr:housenumber": "9",
                "addr:city": "Brodnica",
                "addr:postcode": "87-300",
                "amenity": "pharmacy",
                "dispensing": "yes"
            },
            "geometry": {
                "type": "Point",
                "coordinates": [
                    19.39577351514574,
                    53.26160318741965
                ]
            }
        },
        {
            "type": "Feature",
            "properties": {
                "ref:csioz": 1211380,
                "name": "Avena W Górznie",
                "addr:street": "Rynek",
                "addr:housenumber": "23",
                "addr:city": "Górzno",
                "addr:postcode": "87-320",
                "amenity": "pharmacy",
                "dispensing": "yes"
            },
            "geometry": {
                "type": "Point",
                "coordinates": [
                    19.64402500000027,
                    53.198474000017384
                ]
            }
        },
        {
            "type": "Feature",
            "properties": {
                "ref:csioz": 1223910,
                "name": "Avena W Jastrzębiu",
                "addr:housenumber": "15",
                "addr:postcode": "87-322",
                "amenity": "pharmacy",
                "addr:place": "Jastrzębie",
                "dispensing": "yes"
            },
            "geometry": {
                "type": "Point",
                "coordinates": [
                    19.5162019355205,
                    53.21194244402167
                ]
            }
        },
        {
            "type": "Feature",
            "properties": {
                "ref:csioz": 1102952,
                "name": "Pod Kasztanami",
                "addr:housenumber": "93",
                "addr:postcode": "87-335",
                "amenity": "pharmacy",
                "addr:place": "Świedziebnia",
                "dispensing": "yes"
            },
            "geometry": {
                "type": "Point",
                "coordinates": [
                    19.55668906575517,
                    53.15123796619082
                ]
            }
        }
    ]
}