{
    "type": "FeatureCollection",
    "name": "JPT_KOD_JE_2478",
    "features": [
        {
            "type": "Feature",
            "properties": {
                "ref:csioz": 1117375,
                "name": "Cms-Szpital",
                "addr:street": "Zwrotnicza",
                "addr:housenumber": "11G",
                "addr:city": "Zabrze",
                "addr:postcode": "41-807",
                "amenity": "pharmacy",
                "dispensing": "yes"
            },
            "geometry": {
                "type": "Point",
                "coordinates": [
                    18.766948746903385,
                    50.34398334189506
                ]
            }
        },
        {
            "type": "Feature",
            "properties": {
                "ref:csioz": 1172516,
                "name": "Aptek Dbam O Zdrowie",
                "addr:street": "Aleja Wojciecha Korfantego",
                "addr:housenumber": "5",
                "addr:city": "Zabrze",
                "addr:postcode": "41-800",
                "amenity": "pharmacy",
                "dispensing": "yes"
            },
            "geometry": {
                "type": "Point",
                "coordinates": [
                    18.773725002831664,
                    50.312337792391425
                ]
            }
        },
        {
            "type": "Feature",
            "properties": {
                "ref:csioz": 1071349,
                "name": "Doz Apteka. Dbam O Zdrowie. Apteka Biskupice",
                "addr:street": "Bytomska",
                "addr:housenumber": "43",
                "addr:city": "Zabrze",
                "addr:postcode": "41-800",
                "amenity": "pharmacy",
                "dispensing": "yes"
            },
            "geometry": {
                "type": "Point",
                "coordinates": [
                    18.820437456669083,
                    50.31916775503874
                ]
            }
        },
        {
            "type": "Feature",
            "properties": {
                "ref:csioz": 1071413,
                "name": "Artemida",
                "addr:street": "gen. Władysława Andersa",
                "addr:housenumber": "18",
                "addr:city": "Zabrze",
                "addr:postcode": "41-808",
                "amenity": "pharmacy",
                "dispensing": "yes"
            },
            "geometry": {
                "type": "Point",
                "coordinates": [
                    18.787652613805815,
                    50.37009737459499
                ]
            }
        },
        {
            "type": "Feature",
            "properties": {
                "ref:csioz": 1112712,
                "name": "Kamiliańskie Centrum Opiekuńczo-Lecznicze",
                "addr:street": "Pawła Dubiela",
                "addr:housenumber": "10",
                "addr:city": "Zabrze",
                "addr:postcode": "41-800",
                "amenity": "pharmacy",
                "dispensing": "yes"
            },
            "geometry": {
                "type": "Point",
                "coordinates": [
                    18.77858436339761,
                    50.309445346638334
                ]
            }
        },
        {
            "type": "Feature",
            "properties": {
                "ref:csioz": 1122383,
                "name": "Apteka Zdrowit",
                "addr:street": "Wolności",
                "addr:housenumber": "279",
                "addr:city": "Zabrze",
                "addr:postcode": "41-800",
                "amenity": "pharmacy",
                "dispensing": "yes"
            },
            "geometry": {
                "type": "Point",
                "coordinates": [
                    18.783817812879427,
                    50.30736164900924
                ]
            }
        },
        {
            "type": "Feature",
            "properties": {
                "ref:csioz": 1223485,
                "name": "Apteka B&B",
                "addr:street": "Galileusza",
                "addr:housenumber": "10",
                "addr:city": "Zabrze",
                "addr:postcode": "41-818",
                "amenity": "pharmacy",
                "dispensing": "yes"
            },
            "geometry": {
                "type": "Point",
                "coordinates": [
                    18.775967024665274,
                    50.326845342443896
                ]
            }
        },
        {
            "type": "Feature",
            "properties": {
                "ref:csioz": 1164670,
                "name": "\"Centrum Medyczne \"\"Silesiana\"\" Zespół Chirurgii Jednego Dnia - Zabrze\"",
                "addr:street": "Szybowa",
                "addr:housenumber": "2A",
                "addr:city": "Zabrze",
                "addr:postcode": "41-808",
                "amenity": "pharmacy",
                "dispensing": "yes"
            },
            "geometry": {
                "type": "Point",
                "coordinates": [
                    18.82973845236557,
                    50.34358124313723
                ]
            }
        },
        {
            "type": "Feature",
            "properties": {
                "ref:csioz": 1056992,
                "name": "Szpital Specjalistyczny Sanvimed",
                "addr:street": "Stanisława Moniuszki",
                "addr:housenumber": "78",
                "addr:city": "Zabrze",
                "addr:postcode": "41-807",
                "amenity": "pharmacy",
                "dispensing": "yes"
            },
            "geometry": {
                "type": "Point",
                "coordinates": [
                    18.784042677232453,
                    50.32970055304669
                ]
            }
        },
        {
            "type": "Feature",
            "properties": {
                "ref:csioz": 1071257,
                "name": "Apteka Dbam O Zdrowie",
                "addr:street": "3 Maja",
                "addr:housenumber": "11",
                "addr:city": "Zabrze",
                "addr:postcode": "41-800",
                "amenity": "pharmacy",
                "dispensing": "yes"
            },
            "geometry": {
                "type": "Point",
                "coordinates": [
                    18.785821687571026,
                    50.302669259145404
                ]
            }
        },
        {
            "type": "Feature",
            "properties": {
                "ref:csioz": 1071261,
                "name": "Apteka Dbam O Zdrowie",
                "addr:street": "3 Maja",
                "addr:housenumber": "25",
                "addr:city": "Zabrze",
                "addr:postcode": "41-800",
                "amenity": "pharmacy",
                "dispensing": "yes"
            },
            "geometry": {
                "type": "Point",
                "coordinates": [
                    18.78651229800422,
                    50.299213105985785
                ]
            }
        },
        {
            "type": "Feature",
            "properties": {
                "ref:csioz": 1071273,
                "name": "Asclepios",
                "addr:street": "3 Maja",
                "addr:housenumber": "3",
                "addr:city": "Zabrze",
                "addr:postcode": "41-800",
                "amenity": "pharmacy",
                "dispensing": "yes"
            },
            "geometry": {
                "type": "Point",
                "coordinates": [
                    18.785638000160052,
                    50.30431857347227
                ]
            }
        },
        {
            "type": "Feature",
            "properties": {
                "ref:csioz": 1071396,
                "name": "Optima",
                "addr:street": "Franciszkańska",
                "addr:housenumber": "19",
                "addr:city": "Zabrze",
                "addr:postcode": "41-800",
                "amenity": "pharmacy",
                "dispensing": "yes"
            },
            "geometry": {
                "type": "Point",
                "coordinates": [
                    18.767706199436272,
                    50.31461309413304
                ]
            }
        },
        {
            "type": "Feature",
            "properties": {
                "ref:csioz": 1071445,
                "name": "Pharmakon",
                "addr:street": "Karola Miarki",
                "addr:housenumber": "7",
                "addr:city": "Zabrze",
                "addr:postcode": "41-800",
                "amenity": "pharmacy",
                "dispensing": "yes"
            },
            "geometry": {
                "type": "Point",
                "coordinates": [
                    18.784015124762135,
                    50.30846118192102
                ]
            }
        },
        {
            "type": "Feature",
            "properties": {
                "ref:csioz": 1071459,
                "name": "Eskulap",
                "addr:street": "Krakowska",
                "addr:housenumber": "15",
                "addr:city": "Zabrze",
                "addr:postcode": "41-808",
                "amenity": "pharmacy",
                "dispensing": "yes"
            },
            "geometry": {
                "type": "Point",
                "coordinates": [
                    18.797934444580672,
                    50.36517039528533
                ]
            }
        },
        {
            "type": "Feature",
            "properties": {
                "ref:csioz": 1071476,
                "name": "Apteka Sąsiedzka",
                "addr:street": "ks. Jerzego Badestinusa",
                "addr:housenumber": "18",
                "addr:city": "Zabrze",
                "addr:postcode": "41-814",
                "amenity": "pharmacy",
                "dispensing": "yes"
            },
            "geometry": {
                "type": "Point",
                "coordinates": [
                    18.765093509437516,
                    50.36163516617709
                ]
            }
        },
        {
            "type": "Feature",
            "properties": {
                "ref:csioz": 1071511,
                "name": "Ferrum",
                "addr:street": "Plac Norberta Kroczka",
                "addr:housenumber": "9",
                "addr:city": "Zabrze",
                "addr:postcode": "41-800",
                "amenity": "pharmacy",
                "dispensing": "yes"
            },
            "geometry": {
                "type": "Point",
                "coordinates": [
                    18.77924797727701,
                    50.3393534952407
                ]
            }
        },
        {
            "type": "Feature",
            "properties": {
                "ref:csioz": 1071540,
                "name": "Apteka Dbam O Zdrowie",
                "addr:street": "Plutonowego Ryszarda Szkubacza",
                "addr:housenumber": "1",
                "addr:city": "Zabrze",
                "addr:postcode": "41-800",
                "amenity": "pharmacy",
                "dispensing": "yes"
            },
            "geometry": {
                "type": "Point",
                "coordinates": [
                    18.75190530082417,
                    50.31791162096495
                ]
            }
        },
        {
            "type": "Feature",
            "properties": {
                "ref:csioz": 1071565,
                "name": "Mirmiłek",
                "addr:street": "Władysława Reymonta",
                "addr:housenumber": "19",
                "addr:city": "Zabrze",
                "addr:postcode": "41-800",
                "amenity": "pharmacy",
                "dispensing": "yes"
            },
            "geometry": {
                "type": "Point",
                "coordinates": [
                    18.779884388820335,
                    50.29579572855277
                ]
            }
        },
        {
            "type": "Feature",
            "properties": {
                "ref:csioz": 1071650,
                "name": "Apteka Dbam O Zdrowie",
                "addr:street": "Tarnopolska",
                "addr:housenumber": "68",
                "addr:city": "Zabrze",
                "addr:postcode": "41-800",
                "amenity": "pharmacy",
                "dispensing": "yes"
            },
            "geometry": {
                "type": "Point",
                "coordinates": [
                    18.781790069863412,
                    50.33815528727602
                ]
            }
        },
        {
            "type": "Feature",
            "properties": {
                "ref:csioz": 1071691,
                "name": "Pod Słońcem",
                "addr:street": "WOLNOŚCI",
                "addr:housenumber": "175",
                "addr:city": "ZABRZE",
                "addr:postcode": "41-800",
                "amenity": "pharmacy",
                "dispensing": "yes"
            },
            "geometry": {
                "type": "Point",
                "coordinates": [
                    18.76553587533679,
                    50.30564531324125
                ]
            }
        },
        {
            "type": "Feature",
            "properties": {
                "ref:csioz": 1071715,
                "name": "Apteka 4 Pory Roku Zabrzańskie Centrum Tanich Leków",
                "addr:street": "Wolności",
                "addr:housenumber": "279",
                "addr:city": "Zabrze",
                "addr:postcode": "41-800",
                "amenity": "pharmacy",
                "dispensing": "yes"
            },
            "geometry": {
                "type": "Point",
                "coordinates": [
                    18.783817812879427,
                    50.30736164900924
                ]
            }
        },
        {
            "type": "Feature",
            "properties": {
                "ref:csioz": 1071744,
                "name": "Pharmakon",
                "addr:street": "Wolności",
                "addr:housenumber": "301",
                "addr:city": "Zabrze",
                "addr:postcode": "41-800",
                "amenity": "pharmacy",
                "dispensing": "yes"
            },
            "geometry": {
                "type": "Point",
                "coordinates": [
                    18.78738522224964,
                    50.30617808608026
                ]
            }
        },
        {
            "type": "Feature",
            "properties": {
                "ref:csioz": 1071753,
                "name": "Apteka Dbam O Zdrowie",
                "addr:street": "Wolności",
                "addr:housenumber": "319",
                "addr:city": "Zabrze",
                "addr:postcode": "41-800",
                "amenity": "pharmacy",
                "dispensing": "yes"
            },
            "geometry": {
                "type": "Point",
                "coordinates": [
                    18.791436575479366,
                    50.302962733533576
                ]
            }
        },
        {
            "type": "Feature",
            "properties": {
                "ref:csioz": 1071789,
                "name": "Tilia",
                "addr:street": "ŻÓŁKIEWSKIEGO",
                "addr:housenumber": "14",
                "addr:city": "ZABRZE",
                "addr:postcode": "41-800",
                "amenity": "pharmacy",
                "dispensing": "yes"
            },
            "geometry": {
                "type": "Point",
                "coordinates": [
                    18.7661746432106,
                    50.30018487931202
                ]
            }
        },
        {
            "type": "Feature",
            "properties": {
                "ref:csioz": 1073736,
                "name": "Szpital",
                "addr:street": "Marii Curie-Skłodowskiej",
                "addr:housenumber": "10",
                "addr:city": "ZABRZE",
                "addr:postcode": "41-800",
                "amenity": "pharmacy",
                "dispensing": "yes"
            },
            "geometry": {
                "type": "Point",
                "coordinates": [
                    18.781563073269673,
                    50.31412336729684
                ]
            }
        },
        {
            "type": "Feature",
            "properties": {
                "ref:csioz": 1174270,
                "name": "Ziko Apteka",
                "addr:street": "3 Maja",
                "addr:housenumber": "32",
                "addr:city": "Zabrze",
                "addr:postcode": "41-800",
                "amenity": "pharmacy",
                "dispensing": "yes"
            },
            "geometry": {
                "type": "Point",
                "coordinates": [
                    18.78721099999995,
                    50.29747900001292
                ]
            }
        },
        {
            "type": "Feature",
            "properties": {
                "ref:csioz": 1180612,
                "name": "Apteka Farmacja 24",
                "addr:street": "Szczęść Boże",
                "addr:housenumber": "7",
                "addr:city": "Zabrze",
                "addr:postcode": "41-800",
                "amenity": "pharmacy",
                "dispensing": "yes"
            },
            "geometry": {
                "type": "Point",
                "coordinates": [
                    18.78395449008134,
                    50.30362465274113
                ]
            }
        },
        {
            "type": "Feature",
            "properties": {
                "ref:csioz": 1181920,
                "name": "Apteka Słoneczna",
                "addr:street": "Dworcowa",
                "addr:housenumber": "3",
                "addr:city": "Zabrze",
                "addr:postcode": "41-800",
                "amenity": "pharmacy",
                "dispensing": "yes"
            },
            "geometry": {
                "type": "Point",
                "coordinates": [
                    18.785335548456445,
                    50.283907120036
                ]
            }
        },
        {
            "type": "Feature",
            "properties": {
                "ref:csioz": 1206032,
                "name": "Apteka Zdrowit+",
                "addr:street": "ul. Budowlana",
                "addr:housenumber": "34",
                "addr:city": "Zabrze",
                "addr:postcode": "41-800",
                "amenity": "pharmacy",
                "dispensing": "yes"
            },
            "geometry": {
                "type": "Point",
                "coordinates": [
                    18.79023761417673,
                    50.36578479529477
                ]
            }
        },
        {
            "type": "Feature",
            "properties": {
                "ref:csioz": 1206055,
                "name": "Apteka Zdrowit+",
                "addr:street": "ul. Gdańska",
                "addr:housenumber": "21 C-D",
                "addr:city": "Zabrze",
                "addr:postcode": "41-800",
                "amenity": "pharmacy",
                "dispensing": "yes"
            },
            "geometry": {
                "type": "Point",
                "coordinates": [
                    18.777294835396102,
                    50.3180056936727
                ]
            }
        },
        {
            "type": "Feature",
            "properties": {
                "ref:csioz": 1215006,
                "name": "Apteka Maciejów",
                "addr:street": "ul. Knurowska",
                "addr:housenumber": "16",
                "addr:city": "Zabrze",
                "addr:postcode": "41-800",
                "amenity": "pharmacy",
                "dispensing": "yes"
            },
            "geometry": {
                "type": "Point",
                "coordinates": [
                    18.733181898448507,
                    50.303550758776026
                ]
            }
        },
        {
            "type": "Feature",
            "properties": {
                "ref:csioz": 1225408,
                "name": "Apteka Prima Dla Zdrowia",
                "addr:street": "Wolności",
                "addr:housenumber": "121B",
                "addr:city": "Zabrze",
                "addr:postcode": "41-800",
                "amenity": "pharmacy",
                "dispensing": "yes"
            },
            "geometry": {
                "type": "Point",
                "coordinates": [
                    18.756217013117404,
                    50.30532781555812
                ]
            }
        },
        {
            "type": "Feature",
            "properties": {
                "ref:csioz": 1071301,
                "name": "Apteka Corax",
                "addr:street": "Aleja Wojciecha Korfantego",
                "addr:housenumber": "17",
                "addr:city": "Zabrze",
                "addr:postcode": "41-800",
                "amenity": "pharmacy",
                "dispensing": "yes"
            },
            "geometry": {
                "type": "Point",
                "coordinates": [
                    18.768949766887502,
                    50.32249999470114
                ]
            }
        },
        {
            "type": "Feature",
            "properties": {
                "ref:csioz": 1071484,
                "name": "Skarbnik",
                "addr:street": "Makoszowska",
                "addr:housenumber": "24",
                "addr:city": "Zabrze",
                "addr:postcode": "41-800",
                "amenity": "pharmacy",
                "dispensing": "yes"
            },
            "geometry": {
                "type": "Point",
                "coordinates": [
                    18.7765031554402,
                    50.27116063964893
                ]
            }
        },
        {
            "type": "Feature",
            "properties": {
                "ref:csioz": 1071285,
                "name": "Pharmakon",
                "addr:street": "3 Maja",
                "addr:housenumber": "47",
                "addr:city": "Zabrze",
                "addr:postcode": "41-800",
                "amenity": "pharmacy",
                "dispensing": "yes"
            },
            "geometry": {
                "type": "Point",
                "coordinates": [
                    18.78702652988804,
                    50.296804351249314
                ]
            }
        },
        {
            "type": "Feature",
            "properties": {
                "ref:csioz": 1071330,
                "name": "Apteka Dbam O Zdrowie",
                "addr:street": "Budowlana",
                "addr:housenumber": "30 A",
                "addr:city": "Zabrze",
                "addr:postcode": "41-808",
                "amenity": "pharmacy",
                "dispensing": "yes"
            },
            "geometry": {
                "type": "Point",
                "coordinates": [
                    18.790622120074833,
                    50.36530776851819
                ]
            }
        },
        {
            "type": "Feature",
            "properties": {
                "ref:csioz": 1071363,
                "name": "Ziko Apteka",
                "addr:street": "\"gen. Charlesa de Gaulle'a\"",
                "addr:housenumber": "111-113",
                "addr:city": "Zabrze",
                "addr:postcode": "41-800",
                "amenity": "pharmacy",
                "dispensing": "yes"
            },
            "geometry": {
                "type": "Point",
                "coordinates": [
                    18.78278643339094,
                    50.29210703309413
                ]
            }
        },
        {
            "type": "Feature",
            "properties": {
                "ref:csioz": 1071374,
                "name": "Pro-Pharma",
                "addr:street": "Konstantego Ciołkowskiego",
                "addr:housenumber": "33",
                "addr:city": "Zabrze",
                "addr:postcode": "41-818",
                "amenity": "pharmacy",
                "dispensing": "yes"
            },
            "geometry": {
                "type": "Point",
                "coordinates": [
                    18.772093406913534,
                    50.327775610764796
                ]
            }
        },
        {
            "type": "Feature",
            "properties": {
                "ref:csioz": 1071579,
                "name": "Felix",
                "addr:street": "Franklina Roosevelta",
                "addr:housenumber": "20",
                "addr:city": "Zabrze",
                "addr:postcode": "41-800",
                "amenity": "pharmacy",
                "dispensing": "yes"
            },
            "geometry": {
                "type": "Point",
                "coordinates": [
                    18.78305475728437,
                    50.297580181537676
                ]
            }
        },
        {
            "type": "Feature",
            "properties": {
                "ref:csioz": 1071603,
                "name": "Św Anny",
                "addr:street": "Henryka Sienkiewicza",
                "addr:housenumber": "26A",
                "addr:city": "Zabrze",
                "addr:postcode": "41-800",
                "amenity": "pharmacy",
                "dispensing": "yes"
            },
            "geometry": {
                "type": "Point",
                "coordinates": [
                    18.792149418481905,
                    50.29662754617736
                ]
            }
        },
        {
            "type": "Feature",
            "properties": {
                "ref:csioz": 1071627,
                "name": "Felix",
                "addr:street": "Sportowa",
                "addr:housenumber": "6",
                "addr:city": "Zabrze",
                "addr:postcode": "41-800",
                "amenity": "pharmacy",
                "dispensing": "yes"
            },
            "geometry": {
                "type": "Point",
                "coordinates": [
                    18.788712201351732,
                    50.285255723943486
                ]
            }
        },
        {
            "type": "Feature",
            "properties": {
                "ref:csioz": 1073813,
                "name": "Śląskie Centrum Chorób Serca W Zabrzu",
                "addr:street": "Marii Curie-Skłodowskiej",
                "addr:housenumber": "9",
                "addr:city": "ZABRZE",
                "addr:postcode": "41-800",
                "amenity": "pharmacy",
                "dispensing": "yes"
            },
            "geometry": {
                "type": "Point",
                "coordinates": [
                    18.78213000335885,
                    50.31358011576317
                ]
            }
        },
        {
            "type": "Feature",
            "properties": {
                "ref:csioz": 1175267,
                "name": "Apteka Szpitalna",
                "addr:street": "3 Maja",
                "addr:housenumber": "13-15",
                "addr:city": "Zabrze",
                "addr:postcode": "41-800",
                "amenity": "pharmacy",
                "dispensing": "yes"
            },
            "geometry": {
                "type": "Point",
                "coordinates": [
                    18.785847508777607,
                    50.3021142155652
                ]
            }
        },
        {
            "type": "Feature",
            "properties": {
                "ref:csioz": 1180657,
                "name": "Apteka Pod Lwem",
                "addr:street": "Plac Teatralny",
                "addr:housenumber": "10",
                "addr:city": "Zabrze",
                "addr:postcode": "41-800",
                "amenity": "pharmacy",
                "dispensing": "yes"
            },
            "geometry": {
                "type": "Point",
                "coordinates": [
                    18.786009153154776,
                    50.31066623971663
                ]
            }
        },
        {
            "type": "Feature",
            "properties": {
                "ref:csioz": 1198043,
                "name": "Pharmakon",
                "addr:street": "Wolności",
                "addr:housenumber": "291",
                "addr:city": "Zabrze",
                "addr:postcode": "41-800",
                "amenity": "pharmacy",
                "dispensing": "yes"
            },
            "geometry": {
                "type": "Point",
                "coordinates": [
                    18.786067708801987,
                    50.30701519204685
                ]
            }
        },
        {
            "type": "Feature",
            "properties": {
                "ref:csioz": 1206899,
                "name": "Pharmakon",
                "addr:street": "ul. 3 Maja",
                "addr:housenumber": "14 a",
                "addr:city": "Zabrze",
                "addr:postcode": "41-800",
                "amenity": "pharmacy",
                "dispensing": "yes"
            },
            "geometry": {
                "type": "Point",
                "coordinates": [
                    18.786295154642215,
                    50.30192496104288
                ]
            }
        },
        {
            "type": "Feature",
            "properties": {
                "ref:csioz": 1220712,
                "name": "Super-Pharm Apteka",
                "addr:street": "Plac Teatralny",
                "addr:housenumber": "12",
                "addr:city": "Zabrze",
                "addr:postcode": "41-800",
                "amenity": "pharmacy",
                "dispensing": "yes"
            },
            "geometry": {
                "type": "Point",
                "coordinates": [
                    18.786131858789705,
                    50.31112844610815
                ]
            }
        },
        {
            "type": "Feature",
            "properties": {
                "ref:csioz": 1071437,
                "name": "Dbam O Zdrowie",
                "addr:street": "dr. Henryka Jordana",
                "addr:housenumber": "86",
                "addr:city": "Zabrze",
                "addr:postcode": "41-813",
                "amenity": "pharmacy",
                "dispensing": "yes"
            },
            "geometry": {
                "type": "Point",
                "coordinates": [
                    18.810346942305042,
                    50.37945089754021
                ]
            }
        },
        {
            "type": "Feature",
            "properties": {
                "ref:csioz": 1178819,
                "name": "Pharmakon",
                "addr:street": "dr. Henryka Jordana",
                "addr:housenumber": "82",
                "addr:city": "Zabrze",
                "addr:postcode": "41-813",
                "amenity": "pharmacy",
                "dispensing": "yes"
            },
            "geometry": {
                "type": "Point",
                "coordinates": [
                    18.80939127364939,
                    50.37868080684914
                ]
            }
        },
        {
            "type": "Feature",
            "properties": {
                "ref:csioz": 1071492,
                "name": "Apteka Nova Sieciowa",
                "addr:street": "Olchowa",
                "addr:housenumber": "3",
                "addr:city": "Zabrze",
                "addr:postcode": "41-806",
                "amenity": "pharmacy",
                "dispensing": "yes"
            },
            "geometry": {
                "type": "Point",
                "coordinates": [
                    18.821569125717073,
                    50.30008559778082
                ]
            }
        },
        {
            "type": "Feature",
            "properties": {
                "ref:csioz": 1071777,
                "name": "Pharmakon",
                "addr:street": "WOLNOŚCI",
                "addr:housenumber": "518",
                "addr:city": "ZABRZE",
                "addr:postcode": "41-800",
                "amenity": "pharmacy",
                "dispensing": "yes"
            },
            "geometry": {
                "type": "Point",
                "coordinates": [
                    18.83403701368724,
                    50.298606894665376
                ]
            }
        },
        {
            "type": "Feature",
            "properties": {
                "ref:csioz": 1174644,
                "name": "Apteka Zdrowit",
                "addr:street": "ks. Doktora Antoniego Korczoka",
                "addr:housenumber": "52",
                "addr:city": "Zabrze",
                "addr:postcode": "41-806",
                "amenity": "pharmacy",
                "dispensing": "yes"
            },
            "geometry": {
                "type": "Point",
                "coordinates": [
                    18.82112756007221,
                    50.299155395058506
                ]
            }
        },
        {
            "type": "Feature",
            "properties": {
                "ref:csioz": 1071358,
                "name": "Dr. Max",
                "addr:street": "Bytomska",
                "addr:housenumber": "46-48",
                "addr:city": "Zabrze",
                "addr:postcode": "41-803",
                "amenity": "pharmacy",
                "dispensing": "yes"
            },
            "geometry": {
                "type": "Point",
                "coordinates": [
                    18.82256164640361,
                    50.32037546184347
                ]
            }
        },
        {
            "type": "Feature",
            "properties": {
                "ref:csioz": 1222824,
                "name": "Pharmakon",
                "addr:street": "Wolności",
                "addr:housenumber": "502",
                "addr:city": "Zabrze",
                "addr:postcode": "41-806",
                "amenity": "pharmacy",
                "dispensing": "yes"
            },
            "geometry": {
                "type": "Point",
                "coordinates": [
                    18.829709836977578,
                    50.29747828962031
                ]
            }
        },
        {
            "type": "Feature",
            "properties": {
                "ref:csioz": 1225573,
                "addr:street": "Zamkowa",
                "addr:housenumber": "4",
                "addr:city": "Zabrze",
                "addr:postcode": "41-803",
                "amenity": "pharmacy",
                "dispensing": "yes"
            },
            "geometry": {
                "type": "Point",
                "coordinates": [
                    18.828839888981943,
                    50.32583074865512
                ]
            }
        }
    ]
}