{
    "type": "FeatureCollection",
    "name": "JPT_KOD_JE_2814",
    "features": [
        {
            "type": "Feature",
            "properties": {
                "ref:csioz": 1038838,
                "name": "Apteka Dbam O Zdrowie",
                "addr:street": "Armii Krajowej",
                "addr:housenumber": "2A",
                "addr:city": "Biskupiec",
                "addr:postcode": "11-300",
                "amenity": "pharmacy"
            },
            "geometry": {
                "type": "Point",
                "coordinates": [
                    20.955650859297485,
                    53.86643000408334
                ]
            }
        },
        {
            "type": "Feature",
            "properties": {
                "ref:csioz": 1038846,
                "name": "Hibiskus",
                "addr:street": "Armii Krajowej",
                "addr:housenumber": "3",
                "addr:city": "Biskupiec",
                "addr:postcode": "11-300",
                "amenity": "pharmacy"
            },
            "geometry": {
                "type": "Point",
                "coordinates": [
                    20.956130979139235,
                    53.86665752570298
                ]
            }
        },
        {
            "type": "Feature",
            "properties": {
                "ref:csioz": 1038851,
                "name": "Hibiskus",
                "addr:street": "Wolności",
                "addr:housenumber": "6",
                "addr:city": "Biskupiec",
                "addr:postcode": "11-300",
                "amenity": "pharmacy"
            },
            "geometry": {
                "type": "Point",
                "coordinates": [
                    20.95531401048758,
                    53.86405796739432
                ]
            }
        },
        {
            "type": "Feature",
            "properties": {
                "ref:csioz": 1038867,
                "name": "Miętowa",
                "addr:street": "Wojska Polskiego",
                "addr:housenumber": "4",
                "addr:city": "Biskupiec",
                "addr:postcode": "11-300",
                "amenity": "pharmacy"
            },
            "geometry": {
                "type": "Point",
                "coordinates": [
                    20.948927252352615,
                    53.86178367601623
                ]
            }
        },
        {
            "type": "Feature",
            "properties": {
                "ref:csioz": 1038880,
                "name": "Panaceum",
                "addr:street": "Wolności",
                "addr:housenumber": "5A",
                "addr:city": "Biskupiec",
                "addr:postcode": "11-300",
                "amenity": "pharmacy"
            },
            "geometry": {
                "type": "Point",
                "coordinates": [
                    20.955425045935872,
                    53.86398590452491
                ]
            }
        },
        {
            "type": "Feature",
            "properties": {
                "ref:csioz": 1038907,
                "name": "Apteka Przyjazna",
                "addr:street": "1 Maja",
                "addr:housenumber": "12A",
                "addr:city": "Biskupiec",
                "addr:postcode": "11-300",
                "amenity": "pharmacy"
            },
            "geometry": {
                "type": "Point",
                "coordinates": [
                    20.95397301429658,
                    53.86584810536271
                ]
            }
        },
        {
            "type": "Feature",
            "properties": {
                "ref:csioz": 1209548,
                "name": "Apteka Św. Brunona",
                "addr:street": "Adama  Mickiewicza",
                "addr:housenumber": "12",
                "addr:city": "Biskupiec",
                "addr:postcode": "11-300",
                "amenity": "pharmacy"
            },
            "geometry": {
                "type": "Point",
                "coordinates": [
                    20.959285535033086,
                    53.86065296623008
                ]
            }
        },
        {
            "type": "Feature",
            "properties": {
                "ref:csioz": 1041973,
                "addr:street": "Armii Krajowej",
                "addr:housenumber": "8",
                "addr:city": "Biskupiec",
                "addr:postcode": "11-300",
                "amenity": "pharmacy"
            },
            "geometry": {
                "type": "Point",
                "coordinates": [
                    20.957106289095204,
                    53.86616214237119
                ]
            }
        },
        {
            "type": "Feature",
            "properties": {
                "ref:csioz": 1114587,
                "name": "Dr.Max",
                "addr:street": "1 Maja",
                "addr:housenumber": "7A",
                "addr:flats": "H 06",
                "addr:city": "Biskupiec",
                "addr:postcode": "11-300",
                "amenity": "pharmacy"
            },
            "geometry": {
                "type": "Point",
                "coordinates": [
                    20.953226287839477,
                    53.86514368177311
                ]
            }
        },
        {
            "type": "Feature",
            "properties": {
                "ref:csioz": 1014262,
                "addr:housenumber": "35",
                "addr:city": "Świątki",
                "addr:postcode": "11-008",
                "amenity": "pharmacy"
            },
            "geometry": {
                "type": "Point",
                "coordinates": [
                    20.24056671168364,
                    53.926285228023524
                ]
            }
        },
        {
            "type": "Feature",
            "properties": {
                "ref:csioz": 1037754,
                "name": "Sana",
                "addr:street": "Stawigudzka",
                "addr:housenumber": "7A",
                "addr:city": "OLSZTYN",
                "addr:postcode": "10-687",
                "amenity": "pharmacy"
            },
            "geometry": {
                "type": "Point",
                "coordinates": [
                    20.47358000000103,
                    53.72427400001828
                ]
            }
        },
        {
            "type": "Feature",
            "properties": {
                "ref:csioz": 1038932,
                "name": "Apteka Savita",
                "addr:street": "Pionierów",
                "addr:housenumber": "1",
                "addr:city": "Dobre Miasto",
                "addr:postcode": "11-040",
                "amenity": "pharmacy"
            },
            "geometry": {
                "type": "Point",
                "coordinates": [
                    20.38899151562232,
                    53.98572028982607
                ]
            }
        },
        {
            "type": "Feature",
            "properties": {
                "ref:csioz": 1038941,
                "name": "Malinowa",
                "addr:street": "Jana Pawła II",
                "addr:housenumber": "32",
                "addr:city": "Dobre Miasto",
                "addr:postcode": "11-040",
                "amenity": "pharmacy"
            },
            "geometry": {
                "type": "Point",
                "coordinates": [
                    20.395435654930118,
                    53.986688123995165
                ]
            }
        },
        {
            "type": "Feature",
            "properties": {
                "ref:csioz": 1038955,
                "name": "Apteka Warmińska A. Winek-Kowalska Spółka Jawna",
                "addr:street": "Grunwaldzka",
                "addr:housenumber": "31",
                "addr:city": "Dobre Miasto",
                "addr:postcode": "11-040",
                "amenity": "pharmacy"
            },
            "geometry": {
                "type": "Point",
                "coordinates": [
                    20.403424786561615,
                    53.98519298382095
                ]
            }
        },
        {
            "type": "Feature",
            "properties": {
                "ref:csioz": 1038964,
                "addr:street": "Orła Białego",
                "addr:housenumber": "5",
                "addr:city": "Dobre Miasto",
                "addr:postcode": "11-040",
                "amenity": "pharmacy"
            },
            "geometry": {
                "type": "Point",
                "coordinates": [
                    20.398745202446424,
                    53.98715340272022
                ]
            }
        },
        {
            "type": "Feature",
            "properties": {
                "ref:csioz": 1039099,
                "name": "Pod Figurką",
                "addr:street": "Olsztyńska",
                "addr:housenumber": "11",
                "addr:city": "Gietrzwałd",
                "addr:postcode": "11-036",
                "amenity": "pharmacy"
            },
            "geometry": {
                "type": "Point",
                "coordinates": [
                    20.237633735806128,
                    53.74836312220408
                ]
            }
        },
        {
            "type": "Feature",
            "properties": {
                "ref:csioz": 1229189,
                "name": "Punkt Apteczny W Tuławkach",
                "addr:housenumber": "14",
                "addr:city": "Tuławki",
                "addr:postcode": "11-001",
                "amenity": "pharmacy"
            },
            "geometry": {
                "type": "Point",
                "coordinates": [
                    20.572670514282365,
                    53.89690032497093
                ]
            }
        },
        {
            "type": "Feature",
            "properties": {
                "ref:csioz": 1184894,
                "name": "Apteka Słoneczna",
                "addr:street": "Niepodległości",
                "addr:housenumber": "7A",
                "addr:city": "Olsztynek",
                "addr:postcode": "11-015",
                "amenity": "pharmacy"
            },
            "geometry": {
                "type": "Point",
                "coordinates": [
                    20.286268401649956,
                    53.58317818607965
                ]
            }
        },
        {
            "type": "Feature",
            "properties": {
                "ref:csioz": 1186923,
                "name": "Apteka Witaminka",
                "addr:street": "Grudziądzka",
                "addr:housenumber": "7A",
                "addr:city": "Dobre Miasto",
                "addr:postcode": "11-040",
                "amenity": "pharmacy"
            },
            "geometry": {
                "type": "Point",
                "coordinates": [
                    20.39050122551033,
                    53.98296054487464
                ]
            }
        },
        {
            "type": "Feature",
            "properties": {
                "ref:csioz": 1191530,
                "name": "\"Maltańskie Centrum Pomocy Pw. Bł. Gerarda Fundacji Polskich Kawalerów Maltańskich W Warszawie \"\"Pomoc Maltańska\"\" Oddział W Barczewie\"",
                "addr:street": "Niepodległości",
                "addr:housenumber": "9",
                "addr:city": "Barczewo",
                "addr:postcode": "11-010",
                "amenity": "pharmacy"
            },
            "geometry": {
                "type": "Point",
                "coordinates": [
                    20.695467690173167,
                    53.829153363888786
                ]
            }
        },
        {
            "type": "Feature",
            "properties": {
                "ref:csioz": 1192650,
                "name": "Apteka Słoneczna",
                "addr:street": "Chopina",
                "addr:housenumber": "10a",
                "addr:city": "Olsztynek",
                "addr:postcode": "11-015",
                "amenity": "pharmacy"
            },
            "geometry": {
                "type": "Point",
                "coordinates": [
                    20.284458789114517,
                    53.58213410672697
                ]
            }
        },
        {
            "type": "Feature",
            "properties": {
                "ref:csioz": 1207766,
                "name": "\"Apteka \"\"Medfarm\"\"\"",
                "addr:street": "Mrongowiusza",
                "addr:housenumber": "26",
                "addr:city": "Olsztynek",
                "addr:postcode": "11-015",
                "amenity": "pharmacy"
            },
            "geometry": {
                "type": "Point",
                "coordinates": [
                    20.288419700876357,
                    53.58559344099074
                ]
            }
        },
        {
            "type": "Feature",
            "properties": {
                "ref:csioz": 1211028,
                "name": "Apteka Dyżurna",
                "addr:street": "Jana Pawła II",
                "addr:housenumber": "3",
                "addr:city": "Dobre Miasto",
                "addr:postcode": "11-040",
                "amenity": "pharmacy"
            },
            "geometry": {
                "type": "Point",
                "coordinates": [
                    20.39657799071433,
                    53.98721672877832
                ]
            }
        },
        {
            "type": "Feature",
            "properties": {
                "ref:csioz": 1215944,
                "name": "Apteka Sana",
                "addr:street": "Tęczowy Las",
                "addr:housenumber": "5",
                "addr:flats": "U3",
                "addr:city": "Bartąg",
                "addr:postcode": "10-687",
                "amenity": "pharmacy"
            },
            "geometry": {
                "type": "Point",
                "coordinates": [
                    20.495084245228064,
                    53.730221187413285
                ]
            }
        },
        {
            "type": "Feature",
            "properties": {
                "ref:csioz": 1039150,
                "addr:street": "Kajki",
                "addr:housenumber": "18",
                "addr:city": "Jeziorany",
                "addr:postcode": "11-320",
                "amenity": "pharmacy"
            },
            "geometry": {
                "type": "Point",
                "coordinates": [
                    20.74598173524529,
                    53.97537885033545
                ]
            }
        },
        {
            "type": "Feature",
            "properties": {
                "ref:csioz": 1037994,
                "name": "Góra Sp.J.",
                "addr:street": "Juliusza Słowackiego",
                "addr:housenumber": "2",
                "addr:city": "Barczewo",
                "addr:postcode": "11-010",
                "amenity": "pharmacy"
            },
            "geometry": {
                "type": "Point",
                "coordinates": [
                    20.693994899940662,
                    53.83275493646511
                ]
            }
        },
        {
            "type": "Feature",
            "properties": {
                "ref:csioz": 1038001,
                "name": "Pod Moździerzem",
                "addr:street": "Mazurska",
                "addr:housenumber": "4",
                "addr:flats": "5",
                "addr:city": "Barczewo",
                "addr:postcode": "11-010",
                "amenity": "pharmacy"
            },
            "geometry": {
                "type": "Point",
                "coordinates": [
                    20.690723791585054,
                    53.8282108418071
                ]
            }
        },
        {
            "type": "Feature",
            "properties": {
                "ref:csioz": 1038017,
                "name": "Apteka Przyjazna",
                "addr:street": "Wojska Polskiego",
                "addr:housenumber": "19",
                "addr:city": "Barczewo",
                "addr:postcode": "11-010",
                "amenity": "pharmacy"
            },
            "geometry": {
                "type": "Point",
                "coordinates": [
                    20.69278421243867,
                    53.83257107979265
                ]
            }
        },
        {
            "type": "Feature",
            "properties": {
                "ref:csioz": 1038986,
                "name": "Apteka Warmińska",
                "addr:street": "Spółdzielcza",
                "addr:housenumber": "2A",
                "addr:flats": "E2",
                "addr:city": "Dywity",
                "addr:postcode": "11-001",
                "amenity": "pharmacy"
            },
            "geometry": {
                "type": "Point",
                "coordinates": [
                    20.47630436095663,
                    53.835674990346554
                ]
            }
        },
        {
            "type": "Feature",
            "properties": {
                "ref:csioz": 1039142,
                "name": "\"Apteka \"\"Złota\"\" Bicka Spółka Jawna\"",
                "addr:street": "Kościuszki",
                "addr:housenumber": "5",
                "addr:city": "Jeziorany",
                "addr:postcode": "11-320",
                "amenity": "pharmacy"
            },
            "geometry": {
                "type": "Point",
                "coordinates": [
                    20.747700516019066,
                    53.97617727841314
                ]
            }
        },
        {
            "type": "Feature",
            "properties": {
                "ref:csioz": 1039574,
                "name": "Apteka Remedium",
                "addr:street": "Chopina",
                "addr:housenumber": "2",
                "addr:city": "Olsztynek",
                "addr:postcode": "11-015",
                "amenity": "pharmacy"
            },
            "geometry": {
                "type": "Point",
                "coordinates": [
                    20.28543009901841,
                    53.582769967446254
                ]
            }
        },
        {
            "type": "Feature",
            "properties": {
                "ref:csioz": 1039596,
                "name": "Doz Apteka. Dbam O Zdrowie. Mgr Farm. Dorota Stempin",
                "addr:street": "Niepodległości",
                "addr:housenumber": "23",
                "addr:city": "Olsztynek",
                "addr:postcode": "11-015",
                "amenity": "pharmacy"
            },
            "geometry": {
                "type": "Point",
                "coordinates": [
                    20.289321678373057,
                    53.58245511848164
                ]
            }
        },
        {
            "type": "Feature",
            "properties": {
                "ref:csioz": 1041948,
                "addr:housenumber": "21",
                "addr:city": "Ameryka",
                "addr:postcode": "11-015",
                "amenity": "pharmacy"
            },
            "geometry": {
                "type": "Point",
                "coordinates": [
                    20.316869876887154,
                    53.617090316608746
                ]
            }
        },
        {
            "type": "Feature",
            "properties": {
                "ref:csioz": 1041957,
                "addr:street": "Klasztorna",
                "addr:housenumber": "7",
                "addr:city": "BARCZEWO",
                "addr:postcode": "11-010",
                "amenity": "pharmacy"
            },
            "geometry": {
                "type": "Point",
                "coordinates": [
                    20.69327116583369,
                    53.82715208020789
                ]
            }
        },
        {
            "type": "Feature",
            "properties": {
                "ref:csioz": 1121575,
                "name": "Apteka Witaminka",
                "addr:street": "Zwycięstwa",
                "addr:housenumber": "2A",
                "addr:city": "Dobre Miasto",
                "addr:postcode": "11-040",
                "amenity": "pharmacy"
            },
            "geometry": {
                "type": "Point",
                "coordinates": [
                    20.39449694863495,
                    53.98832745078201
                ]
            }
        },
        {
            "type": "Feature",
            "properties": {
                "ref:csioz": 1122472,
                "name": "Zespół Zakładów Opieki Zdrowotnej W Dobrym Mieście",
                "addr:street": "Grunwaldzka",
                "addr:housenumber": "10B",
                "addr:city": "DOBRE MIASTO",
                "addr:postcode": "11-040",
                "amenity": "pharmacy"
            },
            "geometry": {
                "type": "Point",
                "coordinates": [
                    20.403392138174006,
                    53.9848578448815
                ]
            }
        },
        {
            "type": "Feature",
            "properties": {
                "ref:csioz": 1178669,
                "name": "Apteki Arnika",
                "addr:street": "Mazurska",
                "addr:housenumber": "2",
                "addr:flats": "1",
                "addr:city": "Stawiguda",
                "addr:postcode": "11-034",
                "amenity": "pharmacy"
            },
            "geometry": {
                "type": "Point",
                "coordinates": [
                    20.400914000000913,
                    53.65722700001816
                ]
            }
        },
        {
            "type": "Feature",
            "properties": {
                "ref:csioz": 1193049,
                "name": "Apteka Witaminka",
                "addr:street": "Łużycka",
                "addr:housenumber": "25",
                "addr:city": "Dobre Miasto",
                "addr:postcode": "11-040",
                "amenity": "pharmacy"
            },
            "geometry": {
                "type": "Point",
                "coordinates": [
                    20.393265293736572,
                    53.98497871210695
                ]
            }
        },
        {
            "type": "Feature",
            "properties": {
                "ref:csioz": 1202576,
                "name": "Apteki Polskie",
                "addr:street": "Jedności Narodowej",
                "addr:housenumber": "1",
                "addr:city": "Jeziorany",
                "addr:postcode": "11-320",
                "amenity": "pharmacy"
            },
            "geometry": {
                "type": "Point",
                "coordinates": [
                    20.74611503855108,
                    53.9770716473995
                ]
            }
        },
        {
            "type": "Feature",
            "properties": {
                "ref:csioz": 1215054,
                "name": "Apteka Prima",
                "addr:street": "650-lecia Jonkowa",
                "addr:housenumber": "9",
                "addr:flats": "1",
                "addr:city": "Jonkowo",
                "addr:postcode": "11-042",
                "amenity": "pharmacy"
            },
            "geometry": {
                "type": "Point",
                "coordinates": [
                    20.310026319503134,
                    53.8287781513438
                ]
            }
        },
        {
            "type": "Feature",
            "properties": {
                "ref:csioz": 1230668,
                "name": "Doz Punkt Apteczny Dbam O Zdrowie",
                "addr:street": "Jana Kochanowskiego",
                "addr:housenumber": "1C",
                "addr:city": "Wadąg",
                "addr:postcode": "10-373",
                "amenity": "pharmacy"
            },
            "geometry": {
                "type": "Point",
                "coordinates": [
                    20.520556814759388,
                    53.81834417602319
                ]
            }
        },
        {
            "type": "Feature",
            "properties": {
                "ref:csioz": 1014986,
                "addr:housenumber": "1",
                "addr:city": "Biesal",
                "addr:postcode": "11-036",
                "amenity": "pharmacy"
            },
            "geometry": {
                "type": "Point",
                "coordinates": [
                    20.197529449288595,
                    53.72000719146339
                ]
            }
        }
    ]
}