{
    "type": "FeatureCollection",
    "name": "JPT_KOD_JE_1416",
    "features": [
        {
            "type": "Feature",
            "properties": {
                "ref:csioz": 1091505,
                "addr:street": "Jana Pawła II",
                "addr:housenumber": "36",
                "addr:city": "Brok",
                "addr:postcode": "07-306",
                "amenity": "pharmacy",
                "dispensing": "yes"
            },
            "geometry": {
                "type": "Point",
                "coordinates": [
                    21.856638448667447,
                    52.70062461407731
                ]
            }
        },
        {
            "type": "Feature",
            "properties": {
                "ref:csioz": 1091685,
                "addr:street": "Kowalska",
                "addr:housenumber": "16A",
                "addr:city": "Zaręby Kościelne",
                "addr:postcode": "07-323",
                "amenity": "pharmacy",
                "dispensing": "yes"
            },
            "geometry": {
                "type": "Point",
                "coordinates": [
                    22.127221533057643,
                    52.75620630072067
                ]
            }
        },
        {
            "type": "Feature",
            "properties": {
                "ref:csioz": 1091699,
                "addr:street": "Targowa",
                "addr:housenumber": "17",
                "addr:city": "Boguty Pianki",
                "addr:postcode": "07-325",
                "amenity": "pharmacy",
                "dispensing": "yes"
            },
            "geometry": {
                "type": "Point",
                "coordinates": [
                    22.4063370000297,
                    52.714753000017026
                ]
            }
        },
        {
            "type": "Feature",
            "properties": {
                "ref:csioz": 1122065,
                "name": "T&P",
                "addr:street": "Rynek",
                "addr:housenumber": "10",
                "addr:city": "Nur",
                "addr:postcode": "07-322",
                "amenity": "pharmacy",
                "dispensing": "yes"
            },
            "geometry": {
                "type": "Point",
                "coordinates": [
                    22.31875359483468,
                    52.668352951979614
                ]
            }
        },
        {
            "type": "Feature",
            "properties": {
                "ref:csioz": 1176367,
                "name": "Doz Apteka Dbam O Zdrowie",
                "addr:street": "3 Maja",
                "addr:housenumber": "38",
                "addr:city": "Ostrów Mazowiecka",
                "addr:postcode": "07-300",
                "amenity": "pharmacy",
                "dispensing": "yes"
            },
            "geometry": {
                "type": "Point",
                "coordinates": [
                    21.860412029378228,
                    52.82380006372153
                ]
            }
        },
        {
            "type": "Feature",
            "properties": {
                "ref:csioz": 1183535,
                "name": "Bliska",
                "addr:street": "Leśna",
                "addr:housenumber": "17",
                "addr:city": "Małkinia Górna",
                "addr:postcode": "07-320",
                "amenity": "pharmacy",
                "dispensing": "yes"
            },
            "geometry": {
                "type": "Point",
                "coordinates": [
                    22.06107214028542,
                    52.693655923622146
                ]
            }
        },
        {
            "type": "Feature",
            "properties": {
                "ref:csioz": 1190338,
                "name": "Różana",
                "addr:street": "Różańska",
                "addr:housenumber": "10",
                "addr:city": "Ostrów Mazowiecka",
                "addr:postcode": "07-300",
                "amenity": "pharmacy",
                "dispensing": "yes"
            },
            "geometry": {
                "type": "Point",
                "coordinates": [
                    21.884699536361484,
                    52.79698048033014
                ]
            }
        },
        {
            "type": "Feature",
            "properties": {
                "ref:csioz": 1208632,
                "name": "Dr.Max",
                "addr:street": "Lubiejewska",
                "addr:housenumber": "65",
                "addr:city": "Ostrów Mazowiecka",
                "addr:postcode": "07-300",
                "amenity": "pharmacy",
                "dispensing": "yes"
            },
            "geometry": {
                "type": "Point",
                "coordinates": [
                    21.889307572585892,
                    52.813716623858
                ]
            }
        },
        {
            "type": "Feature",
            "properties": {
                "ref:csioz": 1091038,
                "addr:street": "Nurska",
                "addr:housenumber": "33",
                "addr:city": "Małkinia Górna",
                "addr:postcode": "07-320",
                "amenity": "pharmacy",
                "dispensing": "yes"
            },
            "geometry": {
                "type": "Point",
                "coordinates": [
                    22.050408265502252,
                    52.69165333917003
                ]
            }
        },
        {
            "type": "Feature",
            "properties": {
                "ref:csioz": 1091067,
                "addr:street": "gen. Władysława Sikorskiego",
                "addr:housenumber": "46",
                "addr:city": "Ostrów Mazowiecka",
                "addr:postcode": "07-300",
                "amenity": "pharmacy",
                "dispensing": "yes"
            },
            "geometry": {
                "type": "Point",
                "coordinates": [
                    21.885251195735417,
                    52.806658359724025
                ]
            }
        },
        {
            "type": "Feature",
            "properties": {
                "ref:csioz": 1091072,
                "addr:street": "Jagiellońska",
                "addr:housenumber": "7",
                "addr:city": "Ostrów Mazowiecka",
                "addr:postcode": "07-300",
                "amenity": "pharmacy",
                "dispensing": "yes"
            },
            "geometry": {
                "type": "Point",
                "coordinates": [
                    21.888888248202342,
                    52.800011100888185
                ]
            }
        },
        {
            "type": "Feature",
            "properties": {
                "ref:csioz": 1091080,
                "addr:street": "Małkińska",
                "addr:housenumber": "112",
                "addr:city": "Ostrów Mazowiecka",
                "addr:postcode": "07-300",
                "amenity": "pharmacy",
                "dispensing": "yes"
            },
            "geometry": {
                "type": "Point",
                "coordinates": [
                    21.914565926712793,
                    52.79206321281178
                ]
            }
        },
        {
            "type": "Feature",
            "properties": {
                "ref:csioz": 1091095,
                "addr:street": "Stefana Okrzei",
                "addr:housenumber": "3",
                "addr:city": "Ostrów Mazowiecka",
                "addr:postcode": "07-300",
                "amenity": "pharmacy",
                "dispensing": "yes"
            },
            "geometry": {
                "type": "Point",
                "coordinates": [
                    21.890157774884887,
                    52.80084472396023
                ]
            }
        },
        {
            "type": "Feature",
            "properties": {
                "ref:csioz": 1091327,
                "name": "Rodzinna",
                "addr:street": "Ksawerego Taczanowskiego",
                "addr:housenumber": "6",
                "addr:city": "Ostrów Mazowiecka",
                "addr:postcode": "07-300",
                "amenity": "pharmacy",
                "dispensing": "yes"
            },
            "geometry": {
                "type": "Point",
                "coordinates": [
                    21.9095831269509,
                    52.79951582738481
                ]
            }
        },
        {
            "type": "Feature",
            "properties": {
                "ref:csioz": 1091401,
                "name": "Dbam O Zdrowie",
                "addr:street": "Tadeusza Kościuszki",
                "addr:housenumber": "24",
                "addr:city": "Ostrów Mazowiecka",
                "addr:postcode": "07-300",
                "amenity": "pharmacy",
                "dispensing": "yes"
            },
            "geometry": {
                "type": "Point",
                "coordinates": [
                    21.898807102984957,
                    52.80440227898793
                ]
            }
        },
        {
            "type": "Feature",
            "properties": {
                "ref:csioz": 1091417,
                "name": "Ars Medica",
                "addr:street": "Warszawska",
                "addr:housenumber": "36",
                "addr:city": "Andrzejewo",
                "addr:postcode": "07-305",
                "amenity": "pharmacy",
                "dispensing": "yes"
            },
            "geometry": {
                "type": "Point",
                "coordinates": [
                    22.20076019630911,
                    52.83095346117322
                ]
            }
        },
        {
            "type": "Feature",
            "properties": {
                "ref:csioz": 1091458,
                "name": "Zdrowie",
                "addr:street": "Ostrowska",
                "addr:housenumber": "15A",
                "addr:city": "Małkinia Górna",
                "addr:postcode": "07-320",
                "amenity": "pharmacy",
                "dispensing": "yes"
            },
            "geometry": {
                "type": "Point",
                "coordinates": [
                    22.025887321120436,
                    52.69423655913933
                ]
            }
        },
        {
            "type": "Feature",
            "properties": {
                "ref:csioz": 1091474,
                "name": "Dr Max",
                "addr:street": "Ludwika Mieczkowskiego",
                "addr:housenumber": "23",
                "addr:city": "Ostrów Mazowiecka",
                "addr:postcode": "07-300",
                "amenity": "pharmacy",
                "dispensing": "yes"
            },
            "geometry": {
                "type": "Point",
                "coordinates": [
                    21.8952269772139,
                    52.799770598826676
                ]
            }
        },
        {
            "type": "Feature",
            "properties": {
                "ref:csioz": 1091673,
                "addr:street": "Jana Pawła II",
                "addr:housenumber": "2A",
                "addr:city": "Szulborze Wielkie",
                "addr:postcode": "07-324",
                "amenity": "pharmacy",
                "dispensing": "yes"
            },
            "geometry": {
                "type": "Point",
                "coordinates": [
                    22.221015795213816,
                    52.7618515407095
                ]
            }
        },
        {
            "type": "Feature",
            "properties": {
                "ref:csioz": 1116283,
                "name": "Apteka Bellis S.C",
                "addr:street": "Armii Krajowej",
                "addr:housenumber": "4",
                "addr:city": "Ostrów Mazowiecka",
                "addr:postcode": "07-300",
                "amenity": "pharmacy",
                "dispensing": "yes"
            },
            "geometry": {
                "type": "Point",
                "coordinates": [
                    21.902734699915275,
                    52.808536077795715
                ]
            }
        },
        {
            "type": "Feature",
            "properties": {
                "ref:csioz": 1116294,
                "name": "T & P",
                "addr:street": "płk. Karola Piłata",
                "addr:housenumber": "20A",
                "addr:city": "Ostrów Mazowiecka",
                "addr:postcode": "07-300",
                "amenity": "pharmacy",
                "dispensing": "yes"
            },
            "geometry": {
                "type": "Point",
                "coordinates": [
                    21.898115511473694,
                    52.80136358025442
                ]
            }
        },
        {
            "type": "Feature",
            "properties": {
                "ref:csioz": 1116911,
                "name": "Na Partyzantów Nowa Farmacja",
                "addr:street": "Partyzantów",
                "addr:housenumber": "15",
                "addr:city": "Ostrów Mazowiecka",
                "addr:postcode": "07-300",
                "amenity": "pharmacy",
                "dispensing": "yes"
            },
            "geometry": {
                "type": "Point",
                "coordinates": [
                    21.89284391618779,
                    52.800346360921935
                ]
            }
        },
        {
            "type": "Feature",
            "properties": {
                "ref:csioz": 1153251,
                "name": "Apteka Szpitalna",
                "addr:street": "Stanisława Duboisa",
                "addr:housenumber": "68",
                "addr:city": "Ostrów Mazowiecka",
                "addr:postcode": "07-300",
                "amenity": "pharmacy",
                "dispensing": "yes"
            },
            "geometry": {
                "type": "Point",
                "coordinates": [
                    21.913037876601077,
                    52.79890143532831
                ]
            }
        },
        {
            "type": "Feature",
            "properties": {
                "ref:csioz": 1227609,
                "addr:housenumber": "165",
                "addr:postcode": "07-319",
                "amenity": "pharmacy",
                "addr:place": "Prostyń",
                "dispensing": "yes"
            },
            "geometry": {
                "type": "Point",
                "coordinates": [
                    21.980473930449374,
                    52.6555350588019
                ]
            }
        },
        {
            "type": "Feature",
            "properties": {
                "ref:csioz": 1230753,
                "addr:street": "Jasienicy Pawła",
                "addr:housenumber": "29/1",
                "addr:city": "Jasienica",
                "addr:postcode": "07-304",
                "amenity": "pharmacy",
                "dispensing": "yes"
            },
            "geometry": {
                "type": "Point",
                "coordinates": [
                    22.04449511226001,
                    52.80450457421015
                ]
            }
        },
        {
            "type": "Feature",
            "properties": {
                "ref:csioz": 1091745,
                "addr:housenumber": "31",
                "addr:postcode": "07-302",
                "amenity": "pharmacy",
                "addr:place": "Jelonki",
                "dispensing": "yes"
            },
            "geometry": {
                "type": "Point",
                "coordinates": [
                    21.80844870563138,
                    52.884101100582285
                ]
            }
        },
        {
            "type": "Feature",
            "properties": {
                "ref:csioz": 1091115,
                "name": "Panaceum",
                "addr:street": "Goworowska",
                "addr:housenumber": "39A",
                "addr:city": "Wąsewo",
                "addr:postcode": "07-311",
                "amenity": "pharmacy",
                "dispensing": "yes"
            },
            "geometry": {
                "type": "Point",
                "coordinates": [
                    21.67264696057217,
                    52.87443194245013
                ]
            }
        },
        {
            "type": "Feature",
            "properties": {
                "ref:csioz": 1091661,
                "addr:housenumber": "42",
                "addr:postcode": "07-303",
                "amenity": "pharmacy",
                "addr:place": "Stary Lubotyń",
                "dispensing": "yes"
            },
            "geometry": {
                "type": "Point",
                "coordinates": [
                    21.928175337702125,
                    52.929665031786456
                ]
            }
        }
    ]
}