{
    "type": "FeatureCollection",
    "name": "JPT_KOD_JE_2470",
    "features": [
        {
            "type": "Feature",
            "properties": {
                "ref:csioz": 1066001,
                "name": "4 Pory Roku",
                "addr:street": "OSMAŃCZYKA",
                "addr:housenumber": "5",
                "addr:city": "MYSŁOWICE",
                "addr:postcode": "41-408",
                "amenity": "pharmacy"
            },
            "geometry": {
                "type": "Point",
                "coordinates": [
                    19.104237386555535,
                    50.18818019663158
                ]
            }
        },
        {
            "type": "Feature",
            "properties": {
                "ref:csioz": 1066025,
                "name": "Auxilium",
                "addr:street": "ROŹDZIEŃSKIEGO",
                "addr:housenumber": "1",
                "addr:city": "MYSŁOWICE",
                "addr:postcode": "41-408",
                "amenity": "pharmacy"
            },
            "geometry": {
                "type": "Point",
                "coordinates": [
                    19.104005380145733,
                    50.188870847984006
                ]
            }
        },
        {
            "type": "Feature",
            "properties": {
                "ref:csioz": 1199425,
                "name": "Apteka Tęczowa - Mysłowice",
                "addr:street": "Piastów Śląskich",
                "addr:housenumber": "2",
                "addr:city": "Mysłowice",
                "addr:postcode": "41-400",
                "amenity": "pharmacy"
            },
            "geometry": {
                "type": "Point",
                "coordinates": [
                    19.102523977321404,
                    50.18877114167582
                ]
            }
        },
        {
            "type": "Feature",
            "properties": {
                "ref:csioz": 1057030,
                "name": "Niepubliczny Zakład Opieki Zdrowotnej Szpital Nr 1 Im. Św. Karola Boromeusza",
                "addr:street": "Mikołowska",
                "addr:housenumber": "1",
                "addr:city": "Mysłowice",
                "addr:postcode": "41-400",
                "amenity": "pharmacy"
            },
            "geometry": {
                "type": "Point",
                "coordinates": [
                    19.137419283393427,
                    50.23975546016461
                ]
            }
        },
        {
            "type": "Feature",
            "properties": {
                "ref:csioz": 1065938,
                "name": "Magiczna",
                "addr:street": "GENERAŁA ZIĘTKA",
                "addr:housenumber": "71A",
                "addr:city": "MYSŁOWICE",
                "addr:postcode": "41-412",
                "amenity": "pharmacy"
            },
            "geometry": {
                "type": "Point",
                "coordinates": [
                    19.1574964095564,
                    50.21618478497065
                ]
            }
        },
        {
            "type": "Feature",
            "properties": {
                "ref:csioz": 1065946,
                "name": "Staromiejska",
                "addr:street": "Grunwaldzka",
                "addr:housenumber": "6",
                "addr:city": "Mysłowice",
                "addr:postcode": "41-400",
                "amenity": "pharmacy"
            },
            "geometry": {
                "type": "Point",
                "coordinates": [
                    19.139967773646028,
                    50.24365152987049
                ]
            }
        },
        {
            "type": "Feature",
            "properties": {
                "ref:csioz": 1065972,
                "name": "Apteka Blisko Ciebie",
                "addr:street": "MIKOŁOWSKA",
                "addr:housenumber": "42",
                "addr:city": "MYSŁOWICE",
                "addr:postcode": "41-406",
                "amenity": "pharmacy"
            },
            "geometry": {
                "type": "Point",
                "coordinates": [
                    19.12941765280832,
                    50.237043854757836
                ]
            }
        },
        {
            "type": "Feature",
            "properties": {
                "ref:csioz": 1066017,
                "name": "Dr. Max",
                "addr:street": "Mikołaja Reja",
                "addr:housenumber": "36",
                "addr:city": "Mysłowice",
                "addr:postcode": "41-404",
                "amenity": "pharmacy"
            },
            "geometry": {
                "type": "Point",
                "coordinates": [
                    19.158605047117234,
                    50.20631442905314
                ]
            }
        },
        {
            "type": "Feature",
            "properties": {
                "ref:csioz": 1066082,
                "name": "Hipokrates",
                "addr:street": "Wielka Skotnica",
                "addr:housenumber": "96",
                "addr:city": "Mysłowice",
                "addr:postcode": "41-400",
                "amenity": "pharmacy"
            },
            "geometry": {
                "type": "Point",
                "coordinates": [
                    19.11424057704141,
                    50.24066145088785
                ]
            }
        },
        {
            "type": "Feature",
            "properties": {
                "ref:csioz": 1066105,
                "name": "Apteka Dla Ciebie",
                "addr:street": "Stanisława Wyspiańskiego",
                "addr:housenumber": "19",
                "addr:city": "Mysłowice",
                "addr:postcode": "41-400",
                "amenity": "pharmacy"
            },
            "geometry": {
                "type": "Point",
                "coordinates": [
                    19.133839008775666,
                    50.24067195014367
                ]
            }
        },
        {
            "type": "Feature",
            "properties": {
                "ref:csioz": 1122446,
                "name": "Apteka Św. Kamila",
                "addr:street": "Bernarda Wały",
                "addr:housenumber": "2",
                "addr:city": "Mysłowice",
                "addr:postcode": "41-400",
                "amenity": "pharmacy"
            },
            "geometry": {
                "type": "Point",
                "coordinates": [
                    19.15903514501197,
                    50.22176058393998
                ]
            }
        },
        {
            "type": "Feature",
            "properties": {
                "ref:csioz": 1170544,
                "name": "Apteka 4 Pory Roku",
                "addr:street": "Heleny i Józefa Fików",
                "addr:housenumber": "5a",
                "addr:city": "Mysłowice",
                "addr:postcode": "41-409",
                "amenity": "pharmacy"
            },
            "geometry": {
                "type": "Point",
                "coordinates": [
                    19.160506000000044,
                    50.19118400001278
                ]
            }
        },
        {
            "type": "Feature",
            "properties": {
                "ref:csioz": 1172698,
                "name": "Apteka Zdrowit",
                "addr:street": "Wielka Skotnica",
                "addr:housenumber": "29",
                "addr:city": "Mysłowice",
                "addr:postcode": "41-406",
                "amenity": "pharmacy"
            },
            "geometry": {
                "type": "Point",
                "coordinates": [
                    19.124326000000032,
                    50.24329700001286
                ]
            }
        },
        {
            "type": "Feature",
            "properties": {
                "ref:csioz": 1065897,
                "name": "Aronia",
                "addr:street": "Armii Krajowej",
                "addr:housenumber": "45",
                "addr:city": "Mysłowice",
                "addr:postcode": "41-400",
                "amenity": "pharmacy"
            },
            "geometry": {
                "type": "Point",
                "coordinates": [
                    19.134595075956117,
                    50.2382883276884
                ]
            }
        },
        {
            "type": "Feature",
            "properties": {
                "ref:csioz": 1074302,
                "name": "Samodzielny Publiczny Zakład Opieki Zdrowotnej Szpital Nr 2 Im. T.Boczonia W Mysłowicach",
                "addr:street": "BYTOMSKA",
                "addr:housenumber": "41",
                "addr:city": "MYSŁOWICE",
                "addr:postcode": "41-400",
                "amenity": "pharmacy"
            },
            "geometry": {
                "type": "Point",
                "coordinates": [
                    19.132995055689072,
                    50.24722542017432
                ]
            }
        },
        {
            "type": "Feature",
            "properties": {
                "ref:csioz": 1172780,
                "name": "Apteka Blisko Ciebie",
                "addr:street": "Ludomira Różyckiego",
                "addr:housenumber": "1",
                "addr:city": "Mysłowice",
                "addr:postcode": "41-406",
                "amenity": "pharmacy"
            },
            "geometry": {
                "type": "Point",
                "coordinates": [
                    19.129699229920977,
                    50.23946226079291
                ]
            }
        },
        {
            "type": "Feature",
            "properties": {
                "ref:csioz": 1173265,
                "name": "Id  Clinic - Szpital",
                "addr:street": "Janowska",
                "addr:housenumber": "19",
                "addr:city": "Mysłowice",
                "addr:postcode": "41-400",
                "amenity": "pharmacy"
            },
            "geometry": {
                "type": "Point",
                "coordinates": [
                    19.12029790986843,
                    50.23637530903003
                ]
            }
        },
        {
            "type": "Feature",
            "properties": {
                "ref:csioz": 1178856,
                "name": "Apteka Vita",
                "addr:street": "Bernarda Świerczyny",
                "addr:housenumber": "4",
                "addr:city": "Mysłowice",
                "addr:postcode": "41-400",
                "amenity": "pharmacy"
            },
            "geometry": {
                "type": "Point",
                "coordinates": [
                    19.13342304561153,
                    50.24805823750307
                ]
            }
        },
        {
            "type": "Feature",
            "properties": {
                "ref:csioz": 1184751,
                "name": "Apteka Główna",
                "addr:street": "Kwiatowa",
                "addr:housenumber": "8B",
                "addr:city": "Mysłowice",
                "addr:postcode": "41-406",
                "amenity": "pharmacy"
            },
            "geometry": {
                "type": "Point",
                "coordinates": [
                    19.126348814147473,
                    50.23741198943588
                ]
            }
        },
        {
            "type": "Feature",
            "properties": {
                "ref:csioz": 1186301,
                "name": "Maciejka",
                "addr:street": "Oświęcimska",
                "addr:housenumber": "10",
                "addr:city": "Mysłowice",
                "addr:postcode": "41-400",
                "amenity": "pharmacy"
            },
            "geometry": {
                "type": "Point",
                "coordinates": [
                    19.140303541029667,
                    50.237938335140974
                ]
            }
        },
        {
            "type": "Feature",
            "properties": {
                "ref:csioz": 1194444,
                "name": "Dr. Max",
                "addr:street": "Fryderyka Chopina",
                "addr:housenumber": "1",
                "addr:city": "Mysłowice",
                "addr:postcode": "41-400",
                "amenity": "pharmacy"
            },
            "geometry": {
                "type": "Point",
                "coordinates": [
                    19.13283244587574,
                    50.24260532714455
                ]
            }
        },
        {
            "type": "Feature",
            "properties": {
                "ref:csioz": 1206250,
                "name": "Apteka W Rynku",
                "addr:street": "rynek Rynek",
                "addr:housenumber": "21/22",
                "addr:city": "Mysłowice",
                "addr:postcode": "41-400",
                "amenity": "pharmacy"
            },
            "geometry": {
                "type": "Point",
                "coordinates": [
                    19.138969000000046,
                    50.24437300001286
                ]
            }
        },
        {
            "type": "Feature",
            "properties": {
                "ref:csioz": 1212366,
                "name": "Cosmedica",
                "addr:street": "ul. Katowicka",
                "addr:housenumber": "64",
                "addr:city": "Mysłowice",
                "addr:postcode": "41-400",
                "amenity": "pharmacy"
            },
            "geometry": {
                "type": "Point",
                "coordinates": [
                    19.117054463344566,
                    50.25002677025756
                ]
            }
        },
        {
            "type": "Feature",
            "properties": {
                "ref:csioz": 1214594,
                "name": "Apteka Isofarm",
                "addr:street": "ul. gen. Jerzego Ziętka",
                "addr:housenumber": "67",
                "addr:city": "Mysłowice",
                "addr:postcode": "41-412",
                "amenity": "pharmacy"
            },
            "geometry": {
                "type": "Point",
                "coordinates": [
                    19.157441247857374,
                    50.21680919165579
                ]
            }
        },
        {
            "type": "Feature",
            "properties": {
                "ref:csioz": 1225247,
                "name": "Apteka Słoneczna",
                "addr:street": "gen. Jerzego Ziętka",
                "addr:housenumber": "59A",
                "addr:city": "Mysłowice",
                "addr:postcode": "41-412",
                "amenity": "pharmacy"
            },
            "geometry": {
                "type": "Point",
                "coordinates": [
                    19.157187739734635,
                    50.21835045172239
                ]
            }
        }
    ]
}