{
    "type": "FeatureCollection",
    "name": "JPT_KOD_JE_0603",
    "features": [
        {
            "type": "Feature",
            "properties": {
                "ref:csioz": 1156739,
                "addr:street": "Chełmska",
                "addr:housenumber": "9",
                "addr:city": "Białopole",
                "addr:postcode": "22-135",
                "amenity": "pharmacy"
            },
            "geometry": {
                "type": "Point",
                "coordinates": [
                    23.731192601259682,
                    50.98570939116649
                ]
            }
        },
        {
            "type": "Feature",
            "properties": {
                "ref:csioz": 1156961,
                "addr:street": "Rynek",
                "addr:housenumber": "28",
                "addr:city": "Wojsławice",
                "addr:postcode": "22-120",
                "amenity": "pharmacy"
            },
            "geometry": {
                "type": "Point",
                "coordinates": [
                    23.549172465494916,
                    50.91858491300383
                ]
            }
        },
        {
            "type": "Feature",
            "properties": {
                "ref:csioz": 1157008,
                "addr:street": "Rynek",
                "addr:housenumber": "13",
                "addr:city": "Wojsławice",
                "addr:postcode": "22-120",
                "amenity": "pharmacy"
            },
            "geometry": {
                "type": "Point",
                "coordinates": [
                    23.55001477508531,
                    50.91844566378513
                ]
            }
        },
        {
            "type": "Feature",
            "properties": {
                "ref:csioz": 1157159,
                "addr:street": "Cerkiewna",
                "addr:housenumber": "2",
                "addr:city": "Dubienka",
                "addr:postcode": "22-145",
                "amenity": "pharmacy"
            },
            "geometry": {
                "type": "Point",
                "coordinates": [
                    23.892195470245774,
                    51.04771977769953
                ]
            }
        },
        {
            "type": "Feature",
            "properties": {
                "ref:csioz": 1194376,
                "name": "Punkt Apteczny Pod Świerkami",
                "addr:housenumber": "97",
                "addr:city": "Leśniowice",
                "addr:postcode": "22-122",
                "amenity": "pharmacy"
            },
            "geometry": {
                "type": "Point",
                "coordinates": [
                    23.502104208747202,
                    50.98477694692879
                ]
            }
        },
        {
            "type": "Feature",
            "properties": {
                "ref:csioz": 1118116,
                "name": "Apteka Mgr Farm. Janina Paradowska",
                "addr:street": "Diamentowa",
                "addr:housenumber": "8",
                "addr:city": "Kamień",
                "addr:postcode": "22-113",
                "amenity": "pharmacy"
            },
            "geometry": {
                "type": "Point",
                "coordinates": [
                    23.581481083478987,
                    51.09271386874415
                ]
            }
        },
        {
            "type": "Feature",
            "properties": {
                "ref:csioz": 1156589,
                "addr:street": "Lipowa",
                "addr:housenumber": "2",
                "addr:city": "Żmudź",
                "addr:postcode": "22-114",
                "amenity": "pharmacy"
            },
            "geometry": {
                "type": "Point",
                "coordinates": [
                    23.673165459142115,
                    51.02398533646649
                ]
            }
        },
        {
            "type": "Feature",
            "properties": {
                "ref:csioz": 1156590,
                "name": "Apteka Zielona Mgr Farm. Adrianna Jeżyna-Kunka",
                "addr:street": "Targowa",
                "addr:housenumber": "6",
                "addr:city": "Ruda-Huta",
                "addr:postcode": "22-110",
                "amenity": "pharmacy"
            },
            "geometry": {
                "type": "Point",
                "coordinates": [
                    23.592640225807628,
                    51.23606861444452
                ]
            }
        },
        {
            "type": "Feature",
            "properties": {
                "ref:csioz": 1156747,
                "name": "Twoja Apteka",
                "addr:street": "Chełmska",
                "addr:housenumber": "5",
                "addr:city": "Sawin",
                "addr:postcode": "22-107",
                "amenity": "pharmacy"
            },
            "geometry": {
                "type": "Point",
                "coordinates": [
                    23.43294963330459,
                    51.2701039495295
                ]
            }
        },
        {
            "type": "Feature",
            "properties": {
                "ref:csioz": 1225954,
                "name": "Doz Apteka Dbam O Zdrowie Nasza Apteka",
                "addr:street": "Chutecka",
                "addr:housenumber": "17A",
                "addr:city": "Sawin",
                "addr:postcode": "22-107",
                "amenity": "pharmacy"
            },
            "geometry": {
                "type": "Point",
                "coordinates": [
                    23.43179817632145,
                    51.275340416858334
                ]
            }
        },
        {
            "type": "Feature",
            "properties": {
                "ref:csioz": 1219819,
                "name": "\"Apteka \"\"Zielona\"\" Mgr Farm.Adrianna Jeżyna -Kunka\"",
                "addr:street": "Niepodległości",
                "addr:housenumber": "27",
                "addr:city": "Dorohusk-Osada",
                "addr:postcode": "22-175",
                "amenity": "pharmacy"
            },
            "geometry": {
                "type": "Point",
                "coordinates": [
                    23.793721436318386,
                    51.16999463177002
                ]
            }
        },
        {
            "type": "Feature",
            "properties": {
                "ref:csioz": 1106425,
                "addr:housenumber": "44 A",
                "addr:city": "Liszno",
                "addr:postcode": "22-171",
                "amenity": "pharmacy"
            },
            "geometry": {
                "type": "Point",
                "coordinates": [
                    23.110982169280714,
                    51.1120197819557
                ]
            }
        },
        {
            "type": "Feature",
            "properties": {
                "ref:csioz": 1156667,
                "name": "\"Apteka \"\"Nowa\"\"\"",
                "addr:street": "Lubelska",
                "addr:housenumber": "9",
                "addr:city": "Rejowiec Fabryczny",
                "addr:postcode": "22-170",
                "amenity": "pharmacy"
            },
            "geometry": {
                "type": "Point",
                "coordinates": [
                    23.24391468747517,
                    51.12057303806392
                ]
            }
        },
        {
            "type": "Feature",
            "properties": {
                "ref:csioz": 1156985,
                "addr:street": "Kościuszki",
                "addr:housenumber": "118",
                "addr:city": "Rejowiec",
                "addr:postcode": "22-360",
                "amenity": "pharmacy"
            },
            "geometry": {
                "type": "Point",
                "coordinates": [
                    23.28209339725634,
                    51.092303654522794
                ]
            }
        },
        {
            "type": "Feature",
            "properties": {
                "ref:csioz": 1217478,
                "name": "Moja Apteka",
                "addr:street": "Włodawska",
                "addr:housenumber": "3",
                "addr:city": "Wierzbica-Osiedle",
                "addr:postcode": "22-150",
                "amenity": "pharmacy"
            },
            "geometry": {
                "type": "Point",
                "coordinates": [
                    23.309584858116533,
                    51.2622364920924
                ]
            }
        },
        {
            "type": "Feature",
            "properties": {
                "ref:csioz": 1156566,
                "name": "Nowa Apteka",
                "addr:street": "Szpitalna",
                "addr:housenumber": "39",
                "addr:city": "Siedliszcze",
                "addr:postcode": "22-130",
                "amenity": "pharmacy"
            },
            "geometry": {
                "type": "Point",
                "coordinates": [
                    23.157801927392747,
                    51.19774615306568
                ]
            }
        },
        {
            "type": "Feature",
            "properties": {
                "ref:csioz": 1156794,
                "addr:street": "Lubelska",
                "addr:housenumber": "1",
                "addr:city": "Wierzbica-Osiedle",
                "addr:postcode": "22-150",
                "amenity": "pharmacy"
            },
            "geometry": {
                "type": "Point",
                "coordinates": [
                    23.308243002538,
                    51.26209968123785
                ]
            }
        },
        {
            "type": "Feature",
            "properties": {
                "ref:csioz": 1157081,
                "name": "Apteka Z Sercem",
                "addr:street": "Chełmska",
                "addr:housenumber": "99",
                "addr:city": "Rejowiec Fabryczny",
                "addr:postcode": "22-170",
                "amenity": "pharmacy"
            },
            "geometry": {
                "type": "Point",
                "coordinates": [
                    23.238918614071906,
                    51.11489772646303
                ]
            }
        },
        {
            "type": "Feature",
            "properties": {
                "ref:csioz": 1194156,
                "name": "Apteka Ulubiona",
                "addr:street": "Szpitalna",
                "addr:housenumber": "21",
                "addr:city": "Siedliszcze",
                "addr:postcode": "22-130",
                "amenity": "pharmacy"
            },
            "geometry": {
                "type": "Point",
                "coordinates": [
                    23.159547428270677,
                    51.19683874947543
                ]
            }
        }
    ]
}