{
    "type": "FeatureCollection",
    "name": "JPT_KOD_JE_2262",
    "features": [
        {
            "type": "Feature",
            "properties": {
                "ref:csioz": 1026195,
                "addr:street": "Witomińska",
                "addr:housenumber": "10",
                "addr:city": "Gdynia",
                "addr:postcode": "81-353",
                "amenity": "pharmacy",
                "dispensing": "yes"
            },
            "geometry": {
                "type": "Point",
                "coordinates": [
                    18.531598294441466,
                    54.51158779481459
                ]
            }
        },
        {
            "type": "Feature",
            "properties": {
                "ref:csioz": 1026218,
                "name": "U Źródła Marii",
                "addr:street": "Jana Brzechwy",
                "addr:housenumber": "1",
                "addr:city": "Gdynia",
                "addr:postcode": "81-590",
                "amenity": "pharmacy",
                "dispensing": "yes"
            },
            "geometry": {
                "type": "Point",
                "coordinates": [
                    18.489407297326135,
                    54.471613522834836
                ]
            }
        },
        {
            "type": "Feature",
            "properties": {
                "ref:csioz": 1026456,
                "addr:street": "Świętojańska",
                "addr:housenumber": "88",
                "addr:city": "Gdynia",
                "addr:postcode": "81-388",
                "amenity": "pharmacy",
                "dispensing": "yes"
            },
            "geometry": {
                "type": "Point",
                "coordinates": [
                    18.539458028666026,
                    54.51289040364686
                ]
            }
        },
        {
            "type": "Feature",
            "properties": {
                "ref:csioz": 1027265,
                "name": "Królowej Jadwigi",
                "addr:street": "Kartuska",
                "addr:housenumber": "61",
                "addr:city": "Gdynia",
                "addr:postcode": "81-002",
                "amenity": "pharmacy",
                "dispensing": "yes"
            },
            "geometry": {
                "type": "Point",
                "coordinates": [
                    18.458545240416587,
                    54.537778858653986
                ]
            }
        },
        {
            "type": "Feature",
            "properties": {
                "ref:csioz": 1027298,
                "addr:street": "2 Morskiego Pułku Strzelców",
                "addr:housenumber": "9",
                "addr:city": "Gdynia",
                "addr:postcode": "81-661",
                "amenity": "pharmacy",
                "dispensing": "yes"
            },
            "geometry": {
                "type": "Point",
                "coordinates": [
                    18.512950724280234,
                    54.49162265216487
                ]
            }
        },
        {
            "type": "Feature",
            "properties": {
                "ref:csioz": 1027391,
                "name": "Eskulap",
                "addr:street": "Morska",
                "addr:housenumber": "230",
                "addr:city": "Gdynia",
                "addr:postcode": "81-006",
                "amenity": "pharmacy",
                "dispensing": "yes"
            },
            "geometry": {
                "type": "Point",
                "coordinates": [
                    18.441975740943125,
                    54.546741264331146
                ]
            }
        },
        {
            "type": "Feature",
            "properties": {
                "ref:csioz": 1027401,
                "name": "Orłowska",
                "addr:street": "Wrocławska",
                "addr:housenumber": "59",
                "addr:city": "Gdynia",
                "addr:postcode": "81-553",
                "amenity": "pharmacy",
                "dispensing": "yes"
            },
            "geometry": {
                "type": "Point",
                "coordinates": [
                    18.537177913559702,
                    54.482659706532154
                ]
            }
        },
        {
            "type": "Feature",
            "properties": {
                "ref:csioz": 1027604,
                "addr:street": "Nowowiczlińska",
                "addr:housenumber": "35",
                "addr:city": "Gdynia",
                "addr:postcode": "81-577",
                "amenity": "pharmacy",
                "dispensing": "yes"
            },
            "geometry": {
                "type": "Point",
                "coordinates": [
                    18.474058136660098,
                    54.474356899003084
                ]
            }
        },
        {
            "type": "Feature",
            "properties": {
                "ref:csioz": 1027685,
                "name": "Forte",
                "addr:street": "płk. Stanisława Dąbka",
                "addr:housenumber": "232",
                "addr:city": "Gdynia",
                "addr:postcode": "81-155",
                "amenity": "pharmacy",
                "dispensing": "yes"
            },
            "geometry": {
                "type": "Point",
                "coordinates": [
                    18.512937010902228,
                    54.55882092807316
                ]
            }
        },
        {
            "type": "Feature",
            "properties": {
                "ref:csioz": 1027699,
                "name": "Pod Żółwiem",
                "addr:street": "Żołnierzy I Armii Wojska Polskiego",
                "addr:housenumber": "3-11",
                "addr:city": "Gdynia",
                "addr:postcode": "81-380",
                "amenity": "pharmacy",
                "dispensing": "yes"
            },
            "geometry": {
                "type": "Point",
                "coordinates": [
                    18.540978025281255,
                    54.51146093752764
                ]
            }
        },
        {
            "type": "Feature",
            "properties": {
                "ref:csioz": 1027908,
                "name": "Doz Apteka. Dbam O Zdrowie. Władysława Iv",
                "addr:street": "Władysława IV",
                "addr:housenumber": "50",
                "addr:city": "Gdynia",
                "addr:postcode": "81-384",
                "amenity": "pharmacy",
                "dispensing": "yes"
            },
            "geometry": {
                "type": "Point",
                "coordinates": [
                    18.537631505645614,
                    54.51449227472117
                ]
            }
        },
        {
            "type": "Feature",
            "properties": {
                "ref:csioz": 1028048,
                "name": "Apteka Morska",
                "addr:street": "Morska",
                "addr:housenumber": "49",
                "addr:city": "Gdynia",
                "addr:postcode": "81-332",
                "amenity": "pharmacy",
                "dispensing": "yes"
            },
            "geometry": {
                "type": "Point",
                "coordinates": [
                    18.522486025693738,
                    54.52257351198625
                ]
            }
        },
        {
            "type": "Feature",
            "properties": {
                "ref:csioz": 1028103,
                "name": "Apteka Dbam O Zdrowie",
                "addr:street": "Gorczycowa",
                "addr:housenumber": "6",
                "addr:city": "Gdynia",
                "addr:postcode": "81-589",
                "amenity": "pharmacy",
                "dispensing": "yes"
            },
            "geometry": {
                "type": "Point",
                "coordinates": [
                    18.463090918065003,
                    54.47323629188475
                ]
            }
        },
        {
            "type": "Feature",
            "properties": {
                "ref:csioz": 1028134,
                "name": "Apteka Batory",
                "addr:street": "10 Lutego",
                "addr:housenumber": "11",
                "addr:city": "Gdynia",
                "addr:postcode": "81-366",
                "amenity": "pharmacy",
                "dispensing": "yes"
            },
            "geometry": {
                "type": "Point",
                "coordinates": [
                    18.539715531473007,
                    54.519363121608
                ]
            }
        },
        {
            "type": "Feature",
            "properties": {
                "ref:csioz": 1028694,
                "name": "W Pasażu",
                "addr:street": "Kcyńska",
                "addr:housenumber": "27",
                "addr:city": "Gdynia",
                "addr:postcode": "81-005",
                "amenity": "pharmacy",
                "dispensing": "yes"
            },
            "geometry": {
                "type": "Point",
                "coordinates": [
                    18.452447006441407,
                    54.540376808808
                ]
            }
        },
        {
            "type": "Feature",
            "properties": {
                "ref:csioz": 1029182,
                "name": "Gdyńska",
                "addr:street": "Starowiejska",
                "addr:housenumber": "56",
                "addr:city": "Gdynia",
                "addr:postcode": "81-356",
                "amenity": "pharmacy",
                "dispensing": "yes"
            },
            "geometry": {
                "type": "Point",
                "coordinates": [
                    18.53259107595988,
                    54.52116129910065
                ]
            }
        },
        {
            "type": "Feature",
            "properties": {
                "ref:csioz": 1029196,
                "name": "Franciszkańska",
                "addr:street": "Partyzantów",
                "addr:housenumber": "35",
                "addr:city": "Gdynia",
                "addr:postcode": "81-423",
                "amenity": "pharmacy",
                "dispensing": "yes"
            },
            "geometry": {
                "type": "Point",
                "coordinates": [
                    18.539125066009678,
                    54.50732858119379
                ]
            }
        },
        {
            "type": "Feature",
            "properties": {
                "ref:csioz": 1029590,
                "name": "Apteka Dla Zdrowia",
                "addr:street": "Warszawska",
                "addr:housenumber": "34",
                "addr:city": "Gdynia",
                "addr:postcode": "81-317",
                "amenity": "pharmacy",
                "dispensing": "yes"
            },
            "geometry": {
                "type": "Point",
                "coordinates": [
                    18.530576382877307,
                    54.516410598998824
                ]
            }
        },
        {
            "type": "Feature",
            "properties": {
                "ref:csioz": 1029822,
                "name": "W Przychodni",
                "addr:street": "Wrocławska",
                "addr:housenumber": "54",
                "addr:city": "Gdynia",
                "addr:postcode": "81-557",
                "amenity": "pharmacy",
                "dispensing": "yes"
            },
            "geometry": {
                "type": "Point",
                "coordinates": [
                    18.537464779676284,
                    54.48166125094908
                ]
            }
        },
        {
            "type": "Feature",
            "properties": {
                "ref:csioz": 1030039,
                "addr:street": "Niska",
                "addr:housenumber": "1",
                "addr:city": "Gdynia",
                "addr:postcode": "81-611",
                "amenity": "pharmacy",
                "dispensing": "yes"
            },
            "geometry": {
                "type": "Point",
                "coordinates": [
                    18.508084116594052,
                    54.49764468150259
                ]
            }
        },
        {
            "type": "Feature",
            "properties": {
                "ref:csioz": 1030047,
                "name": "Millennium",
                "addr:street": "Antoniego Abrahama",
                "addr:housenumber": "48",
                "addr:city": "Gdynia",
                "addr:postcode": "81-395",
                "amenity": "pharmacy",
                "dispensing": "yes"
            },
            "geometry": {
                "type": "Point",
                "coordinates": [
                    18.5396053639634,
                    54.51597345254158
                ]
            }
        },
        {
            "type": "Feature",
            "properties": {
                "ref:csioz": 1030060,
                "name": "Przy Alei",
                "addr:street": "bp. Dominika",
                "addr:housenumber": "8 do 14",
                "addr:city": "Gdynia",
                "addr:postcode": "81-402",
                "amenity": "pharmacy",
                "dispensing": "yes"
            },
            "geometry": {
                "type": "Point",
                "coordinates": [
                    18.537053907144035,
                    54.505034381487086
                ]
            }
        },
        {
            "type": "Feature",
            "properties": {
                "ref:csioz": 1030071,
                "name": "Pod Gryfem Pomorskim",
                "addr:street": "Gryfa Pomorskiego",
                "addr:housenumber": "79D",
                "addr:city": "Gdynia",
                "addr:postcode": "81-572",
                "amenity": "pharmacy",
                "dispensing": "yes"
            },
            "geometry": {
                "type": "Point",
                "coordinates": [
                    18.48724199999975,
                    54.46732200001956
                ]
            }
        },
        {
            "type": "Feature",
            "properties": {
                "ref:csioz": 1030437,
                "name": "Apteka Dbam O Zdrowie",
                "addr:street": "płk. Stanisława Dąbka",
                "addr:housenumber": "193",
                "addr:city": "Gdynia",
                "addr:postcode": "81-155",
                "amenity": "pharmacy",
                "dispensing": "yes"
            },
            "geometry": {
                "type": "Point",
                "coordinates": [
                    18.52312640274855,
                    54.554807143231244
                ]
            }
        },
        {
            "type": "Feature",
            "properties": {
                "ref:csioz": 1030468,
                "name": "Datura",
                "addr:street": "Bosmańska",
                "addr:housenumber": "44",
                "addr:city": "Gdynia",
                "addr:postcode": "81-116",
                "amenity": "pharmacy",
                "dispensing": "yes"
            },
            "geometry": {
                "type": "Point",
                "coordinates": [
                    18.533524550806746,
                    54.549355160082364
                ]
            }
        },
        {
            "type": "Feature",
            "properties": {
                "ref:csioz": 1030492,
                "name": "Dbam O Zdrowie",
                "addr:street": "Chylońska",
                "addr:housenumber": "46",
                "addr:city": "Gdynia",
                "addr:postcode": "81-041",
                "amenity": "pharmacy",
                "dispensing": "yes"
            },
            "geometry": {
                "type": "Point",
                "coordinates": [
                    18.477789595548664,
                    54.54062652767367
                ]
            }
        },
        {
            "type": "Feature",
            "properties": {
                "ref:csioz": 1030459,
                "name": "\"Euro-Apteka \"\"Centrum Farmaceutyczne\"\"\"",
                "addr:street": "Świętojańska",
                "addr:housenumber": "122",
                "addr:city": "Gdynia",
                "addr:postcode": "81-388",
                "amenity": "pharmacy",
                "dispensing": "yes"
            },
            "geometry": {
                "type": "Point",
                "coordinates": [
                    18.538126285629314,
                    54.50970068419255
                ]
            }
        },
        {
            "type": "Feature",
            "properties": {
                "ref:csioz": 1030650,
                "name": "Apteka Dbam O Zdrowie",
                "addr:street": "Wiceadmirała Kazimierza Porębskiego",
                "addr:housenumber": "9",
                "addr:city": "Gdynia",
                "addr:postcode": "81-185",
                "amenity": "pharmacy",
                "dispensing": "yes"
            },
            "geometry": {
                "type": "Point",
                "coordinates": [
                    18.490225419007974,
                    54.56130731656226
                ]
            }
        },
        {
            "type": "Feature",
            "properties": {
                "ref:csioz": 1030675,
                "name": "Piko",
                "addr:street": "Chylońska",
                "addr:housenumber": "251",
                "addr:city": "Gdynia",
                "addr:postcode": "81-017",
                "amenity": "pharmacy",
                "dispensing": "yes"
            },
            "geometry": {
                "type": "Point",
                "coordinates": [
                    18.443235349062157,
                    54.54829039803854
                ]
            }
        },
        {
            "type": "Feature",
            "properties": {
                "ref:csioz": 1030923,
                "name": "Panaceum",
                "addr:street": "Stefana Ramułta",
                "addr:housenumber": "45",
                "addr:city": "Gdynia",
                "addr:postcode": "81-241",
                "amenity": "pharmacy",
                "dispensing": "yes"
            },
            "geometry": {
                "type": "Point",
                "coordinates": [
                    18.485918566660594,
                    54.53450880475969
                ]
            }
        },
        {
            "type": "Feature",
            "properties": {
                "ref:csioz": 1031079,
                "name": "Dyżurna",
                "addr:street": "Chwaszczyńska",
                "addr:housenumber": "21C",
                "addr:city": "Gdynia",
                "addr:postcode": "81-571",
                "amenity": "pharmacy",
                "dispensing": "yes"
            },
            "geometry": {
                "type": "Point",
                "coordinates": [
                    18.487691999999754,
                    54.47074500001955
                ]
            }
        },
        {
            "type": "Feature",
            "properties": {
                "ref:csioz": 1031292,
                "name": "Doz Apteka. Dbam O Zdrowie. Oksywska",
                "addr:street": "Podchorążych",
                "addr:housenumber": "8",
                "addr:city": "Gdynia",
                "addr:postcode": "81-133",
                "amenity": "pharmacy",
                "dispensing": "yes"
            },
            "geometry": {
                "type": "Point",
                "coordinates": [
                    18.536621378227647,
                    54.55089242729569
                ]
            }
        },
        {
            "type": "Feature",
            "properties": {
                "ref:csioz": 1031347,
                "name": "Chabrowa",
                "addr:street": "Armii Krajowej",
                "addr:housenumber": "44",
                "addr:city": "Gdynia",
                "addr:postcode": "81-366",
                "amenity": "pharmacy",
                "dispensing": "yes"
            },
            "geometry": {
                "type": "Point",
                "coordinates": [
                    18.53732207399189,
                    54.517941401876904
                ]
            }
        },
        {
            "type": "Feature",
            "properties": {
                "ref:csioz": 1031782,
                "name": "Apteka Dbam O Zdrowie",
                "addr:street": "Boh. Starówki Warszawskiej",
                "addr:housenumber": "6",
                "addr:city": "Gdynia",
                "addr:postcode": "81-455",
                "amenity": "pharmacy",
                "dispensing": "yes"
            },
            "geometry": {
                "type": "Point",
                "coordinates": [
                    18.551203469840832,
                    54.49448942075816
                ]
            }
        },
        {
            "type": "Feature",
            "properties": {
                "ref:csioz": 1032045,
                "name": "Apteka Dyżurna",
                "addr:street": "Bosmańska",
                "addr:housenumber": "45",
                "addr:city": "Gdynia",
                "addr:postcode": "81-116",
                "amenity": "pharmacy",
                "dispensing": "yes"
            },
            "geometry": {
                "type": "Point",
                "coordinates": [
                    18.532479656037687,
                    54.548609572560146
                ]
            }
        },
        {
            "type": "Feature",
            "properties": {
                "ref:csioz": 1032362,
                "name": "Piko 3",
                "addr:street": "Bernarda Chrzanowskiego",
                "addr:housenumber": "3",
                "addr:city": "Gdynia",
                "addr:postcode": "81-338",
                "amenity": "pharmacy",
                "dispensing": "yes"
            },
            "geometry": {
                "type": "Point",
                "coordinates": [
                    18.54254257579664,
                    54.53003916403017
                ]
            }
        },
        {
            "type": "Feature",
            "properties": {
                "ref:csioz": 1032638,
                "name": "Family-Pharma Ii",
                "addr:street": "Wejherowska",
                "addr:housenumber": "56",
                "addr:city": "Gdynia",
                "addr:postcode": "81-049",
                "amenity": "pharmacy",
                "dispensing": "yes"
            },
            "geometry": {
                "type": "Point",
                "coordinates": [
                    18.466807073160936,
                    54.54289939698548
                ]
            }
        },
        {
            "type": "Feature",
            "properties": {
                "ref:csioz": 1032985,
                "name": "Apteka Familijna",
                "addr:street": "Czeremchowa",
                "addr:housenumber": "10",
                "addr:city": "Gdynia",
                "addr:postcode": "81-085",
                "amenity": "pharmacy",
                "dispensing": "yes"
            },
            "geometry": {
                "type": "Point",
                "coordinates": [
                    18.44739499999973,
                    54.53407900001967
                ]
            }
        },
        {
            "type": "Feature",
            "properties": {
                "ref:csioz": 1033075,
                "name": "Mediqus",
                "addr:street": "gen. Marii Wittekówny",
                "addr:housenumber": "2",
                "addr:city": "Gdynia",
                "addr:postcode": "81-173",
                "amenity": "pharmacy",
                "dispensing": "yes"
            },
            "geometry": {
                "type": "Point",
                "coordinates": [
                    18.52313842920255,
                    54.549743893870485
                ]
            }
        },
        {
            "type": "Feature",
            "properties": {
                "ref:csioz": 1033138,
                "name": "Apteka Dyżurna",
                "addr:street": "Śląska",
                "addr:housenumber": "44",
                "addr:city": "Gdynia",
                "addr:postcode": "81-310",
                "amenity": "pharmacy",
                "dispensing": "yes"
            },
            "geometry": {
                "type": "Point",
                "coordinates": [
                    18.53253663719399,
                    54.51436576604248
                ]
            }
        },
        {
            "type": "Feature",
            "properties": {
                "ref:csioz": 1034439,
                "name": "Dział Farmacji Szpitalnej W Hospicjum Stacjonarnym Im. Św.Wawrzyńca",
                "addr:street": "Arendta Dickmana",
                "addr:housenumber": "6",
                "addr:city": "Gdynia",
                "addr:postcode": "81-109",
                "amenity": "pharmacy",
                "dispensing": "yes"
            },
            "geometry": {
                "type": "Point",
                "coordinates": [
                    18.548283653194584,
                    54.549314422551596
                ]
            }
        },
        {
            "type": "Feature",
            "properties": {
                "ref:csioz": 1112418,
                "name": "Super - Pharm Apteka",
                "addr:street": "Kazimierza Górskiego",
                "addr:housenumber": "2",
                "addr:city": "Gdynia",
                "addr:postcode": "81-304",
                "amenity": "pharmacy",
                "dispensing": "yes"
            },
            "geometry": {
                "type": "Point",
                "coordinates": [
                    18.532619570201835,
                    54.5027102375267
                ]
            }
        },
        {
            "type": "Feature",
            "properties": {
                "ref:csioz": 1112593,
                "name": "Dom Leków",
                "addr:street": "Warszawska",
                "addr:housenumber": "14",
                "addr:city": "Gdynia",
                "addr:postcode": "81-314",
                "amenity": "pharmacy",
                "dispensing": "yes"
            },
            "geometry": {
                "type": "Point",
                "coordinates": [
                    18.528847867739813,
                    54.51852500304931
                ]
            }
        },
        {
            "type": "Feature",
            "properties": {
                "ref:csioz": 1113486,
                "name": "Aptecus 6",
                "addr:street": "Antoniego Abrahama",
                "addr:housenumber": "1-3",
                "addr:city": "Gdynia",
                "addr:postcode": "81-352",
                "amenity": "pharmacy",
                "dispensing": "yes"
            },
            "geometry": {
                "type": "Point",
                "coordinates": [
                    18.54190922700077,
                    54.521245509634056
                ]
            }
        },
        {
            "type": "Feature",
            "properties": {
                "ref:csioz": 1118574,
                "name": "Doz Apteka. Dbam O Zdrowie. Kliniczna",
                "addr:street": "Morska",
                "addr:housenumber": "113A",
                "addr:city": "Gdynia",
                "addr:postcode": "81-222",
                "amenity": "pharmacy",
                "dispensing": "yes"
            },
            "geometry": {
                "type": "Point",
                "coordinates": [
                    18.50363547331974,
                    54.528878633305574
                ]
            }
        },
        {
            "type": "Feature",
            "properties": {
                "ref:csioz": 1120874,
                "name": "Panaceum",
                "addr:street": "Czechosłowacka",
                "addr:housenumber": "3",
                "addr:city": "Gdynia",
                "addr:postcode": "81-969",
                "amenity": "pharmacy",
                "dispensing": "yes"
            },
            "geometry": {
                "type": "Point",
                "coordinates": [
                    18.51802924169363,
                    54.532885594327446
                ]
            }
        },
        {
            "type": "Feature",
            "properties": {
                "ref:csioz": 1120882,
                "name": "Apteka Dyżurna",
                "addr:street": "Wielkokacka",
                "addr:housenumber": "4A",
                "addr:city": "Gdynia",
                "addr:postcode": "81-611",
                "amenity": "pharmacy",
                "dispensing": "yes"
            },
            "geometry": {
                "type": "Point",
                "coordinates": [
                    18.509025999999768,
                    54.497655000019606
                ]
            }
        },
        {
            "type": "Feature",
            "properties": {
                "ref:csioz": 1122237,
                "name": "Super-Pharm Apteka",
                "addr:street": "Zwycięstwa",
                "addr:housenumber": "256",
                "addr:city": "Gdynia",
                "addr:postcode": "81-525",
                "amenity": "pharmacy",
                "dispensing": "yes"
            },
            "geometry": {
                "type": "Point",
                "coordinates": [
                    18.552497648437562,
                    54.474675917300836
                ]
            }
        },
        {
            "type": "Feature",
            "properties": {
                "ref:csioz": 1122259,
                "name": "Mediqus",
                "addr:street": "adm. J. Unruga",
                "addr:housenumber": "76",
                "addr:city": "Gdynia",
                "addr:postcode": "81-106",
                "amenity": "pharmacy",
                "dispensing": "yes"
            },
            "geometry": {
                "type": "Point",
                "coordinates": [
                    18.50564243000224,
                    54.55320293506967
                ]
            }
        },
        {
            "type": "Feature",
            "properties": {
                "ref:csioz": 1139687,
                "name": "Apteka Szpitalna W Szpitalu Św. Wincentego A Paulo",
                "addr:street": "Wójta Radtkego",
                "addr:housenumber": "1",
                "addr:city": "Gdynia",
                "addr:postcode": "81-348",
                "amenity": "pharmacy",
                "dispensing": "yes"
            },
            "geometry": {
                "type": "Point",
                "coordinates": [
                    18.542573790262324,
                    54.52233961039781
                ]
            }
        },
        {
            "type": "Feature",
            "properties": {
                "ref:csioz": 1172839,
                "name": "\"Dział Farmacji Szpitalnej W Niepublicznym Zakładzie Opieki Zdrowotnej \"\"Laguna Medical\"\" Gdynia Szp\"",
                "addr:street": "Kaszubski",
                "addr:housenumber": "1",
                "addr:city": "Gdynia",
                "addr:postcode": "81-350",
                "amenity": "pharmacy",
                "dispensing": "yes"
            },
            "geometry": {
                "type": "Point",
                "coordinates": [
                    18.543270999008488,
                    54.52359806472994
                ]
            }
        },
        {
            "type": "Feature",
            "properties": {
                "ref:csioz": 1174096,
                "name": "Apteka Cosmedica",
                "addr:street": "Legionów",
                "addr:housenumber": "112",
                "addr:city": "Gdynia",
                "addr:postcode": "81-472",
                "amenity": "pharmacy",
                "dispensing": "yes"
            },
            "geometry": {
                "type": "Point",
                "coordinates": [
                    18.542651211153277,
                    54.491351671085
                ]
            }
        },
        {
            "type": "Feature",
            "properties": {
                "ref:csioz": 1194509,
                "name": "Medapteka",
                "addr:street": "Chylońska",
                "addr:housenumber": "116 A",
                "addr:city": "Gdynia",
                "addr:postcode": "81-033",
                "amenity": "pharmacy",
                "dispensing": "yes"
            },
            "geometry": {
                "type": "Point",
                "coordinates": [
                    18.462961885573637,
                    54.54486897521222
                ]
            }
        },
        {
            "type": "Feature",
            "properties": {
                "ref:csioz": 1189384,
                "name": "Apteka Dyżurna",
                "addr:street": "10 Lutego",
                "addr:housenumber": "5",
                "addr:city": "Gdynia",
                "addr:postcode": "81-366",
                "amenity": "pharmacy",
                "dispensing": "yes"
            },
            "geometry": {
                "type": "Point",
                "coordinates": [
                    18.54139525845028,
                    54.51928589526678
                ]
            }
        },
        {
            "type": "Feature",
            "properties": {
                "ref:csioz": 1198097,
                "name": "Dom Leków",
                "addr:street": "Wójta Radtkego",
                "addr:housenumber": "29-35",
                "addr:city": "Gdynia",
                "addr:postcode": "81-355",
                "amenity": "pharmacy",
                "dispensing": "yes"
            },
            "geometry": {
                "type": "Point",
                "coordinates": [
                    18.534475688485276,
                    54.522006949527906
                ]
            }
        },
        {
            "type": "Feature",
            "properties": {
                "ref:csioz": 1211274,
                "name": "Apteka Gemini",
                "addr:street": "Starowiejska",
                "addr:housenumber": "34",
                "addr:city": "Gdynia",
                "addr:postcode": "81-356",
                "amenity": "pharmacy",
                "dispensing": "yes"
            },
            "geometry": {
                "type": "Point",
                "coordinates": [
                    18.536868262725726,
                    54.521278502082666
                ]
            }
        },
        {
            "type": "Feature",
            "properties": {
                "ref:csioz": 1218227,
                "name": "Dom Leków",
                "addr:street": "Sojowa",
                "addr:housenumber": "18 C",
                "addr:city": "Gdynia",
                "addr:postcode": "81-589",
                "amenity": "pharmacy",
                "dispensing": "yes"
            },
            "geometry": {
                "type": "Point",
                "coordinates": [
                    18.47045679079805,
                    54.46943942953194
                ]
            }
        },
        {
            "type": "Feature",
            "properties": {
                "ref:csioz": 1220988,
                "name": "Apteka Szpitalna W Zakładzie Leczniczym: Szpital Ucmmit",
                "addr:street": "Powstania Styczniowego",
                "addr:housenumber": "9 B",
                "addr:city": "Gdynia",
                "addr:postcode": "81-519",
                "amenity": "pharmacy",
                "dispensing": "yes"
            },
            "geometry": {
                "type": "Point",
                "coordinates": [
                    18.54887093903043,
                    54.487490214913365
                ]
            }
        },
        {
            "type": "Feature",
            "properties": {
                "ref:csioz": 1029651,
                "name": "Firma Perełka",
                "addr:street": "Bielska",
                "addr:housenumber": "18",
                "addr:city": "Gdynia",
                "addr:postcode": "81-505",
                "amenity": "pharmacy",
                "dispensing": "yes"
            },
            "geometry": {
                "type": "Point",
                "coordinates": [
                    18.5253415660078,
                    54.485739468206525
                ]
            }
        },
        {
            "type": "Feature",
            "properties": {
                "ref:csioz": 1026512,
                "name": "Melissa",
                "addr:street": "mjr. Henryka Sucharskiego",
                "addr:housenumber": "2",
                "addr:city": "Gdynia",
                "addr:postcode": "81-157",
                "amenity": "pharmacy",
                "dispensing": "yes"
            },
            "geometry": {
                "type": "Point",
                "coordinates": [
                    18.508428683681963,
                    54.55945816402488
                ]
            }
        },
        {
            "type": "Feature",
            "properties": {
                "ref:csioz": 1026707,
                "name": "Pod Lwem",
                "addr:street": "Chylońska",
                "addr:housenumber": "191",
                "addr:city": "Gdynia",
                "addr:postcode": "81-007",
                "amenity": "pharmacy",
                "dispensing": "yes"
            },
            "geometry": {
                "type": "Point",
                "coordinates": [
                    18.45450698857492,
                    54.54649134315089
                ]
            }
        },
        {
            "type": "Feature",
            "properties": {
                "ref:csioz": 1027737,
                "name": "Mgr Farm. Marzena Tylicka Apteka Nr 1",
                "addr:street": "adm. J. Unruga",
                "addr:housenumber": "84A",
                "addr:city": "Gdynia",
                "addr:postcode": "81-153",
                "amenity": "pharmacy",
                "dispensing": "yes"
            },
            "geometry": {
                "type": "Point",
                "coordinates": [
                    18.504040904789743,
                    54.5527206914471
                ]
            }
        },
        {
            "type": "Feature",
            "properties": {
                "ref:csioz": 1029037,
                "name": "Im. Św. Jana",
                "addr:street": "Redłowska",
                "addr:housenumber": "39A",
                "addr:city": "Gdynia",
                "addr:postcode": "81-450",
                "amenity": "pharmacy",
                "dispensing": "yes"
            },
            "geometry": {
                "type": "Point",
                "coordinates": [
                    18.544984419187582,
                    54.4822183811642
                ]
            }
        },
        {
            "type": "Feature",
            "properties": {
                "ref:csioz": 1029286,
                "name": "Pod Korabiem",
                "addr:street": "Legionów",
                "addr:housenumber": "115D",
                "addr:city": "Gdynia",
                "addr:postcode": "81-472",
                "amenity": "pharmacy",
                "dispensing": "yes"
            },
            "geometry": {
                "type": "Point",
                "coordinates": [
                    18.541569669345126,
                    54.49406208375812
                ]
            }
        },
        {
            "type": "Feature",
            "properties": {
                "ref:csioz": 1029469,
                "name": "Dr. Max",
                "addr:street": "Powstania Styczniowego",
                "addr:housenumber": "10",
                "addr:city": "Gdynia",
                "addr:postcode": "81-519",
                "amenity": "pharmacy",
                "dispensing": "yes"
            },
            "geometry": {
                "type": "Point",
                "coordinates": [
                    18.554172669150105,
                    54.48985094296896
                ]
            }
        },
        {
            "type": "Feature",
            "properties": {
                "ref:csioz": 1029502,
                "name": "Dobrego Pasterza",
                "addr:street": "Lniana",
                "addr:housenumber": "19",
                "addr:city": "Gdynia",
                "addr:postcode": "81-015",
                "amenity": "pharmacy",
                "dispensing": "yes"
            },
            "geometry": {
                "type": "Point",
                "coordinates": [
                    18.43704735901646,
                    54.54653132670373
                ]
            }
        },
        {
            "type": "Feature",
            "properties": {
                "ref:csioz": 1029752,
                "name": "Dyżurna",
                "addr:street": "Kaszubski",
                "addr:housenumber": "8",
                "addr:city": "Gdynia",
                "addr:postcode": "81-350",
                "amenity": "pharmacy",
                "dispensing": "yes"
            },
            "geometry": {
                "type": "Point",
                "coordinates": [
                    18.542632446919534,
                    54.52284956903557
                ]
            }
        },
        {
            "type": "Feature",
            "properties": {
                "ref:csioz": 1030129,
                "name": "Apteka Dbam O Zdrowie",
                "addr:street": "Wójta Radtkego",
                "addr:housenumber": "49",
                "addr:city": "Gdynia",
                "addr:postcode": "81-355",
                "amenity": "pharmacy",
                "dispensing": "yes"
            },
            "geometry": {
                "type": "Point",
                "coordinates": [
                    18.532375987542064,
                    54.52192528781618
                ]
            }
        },
        {
            "type": "Feature",
            "properties": {
                "ref:csioz": 1030382,
                "name": "Apteka Dbam O Zdrowie",
                "addr:street": "Świętojańska",
                "addr:housenumber": "5",
                "addr:city": "Gdynia",
                "addr:postcode": "81-368",
                "amenity": "pharmacy",
                "dispensing": "yes"
            },
            "geometry": {
                "type": "Point",
                "coordinates": [
                    18.543474999999777,
                    54.52118600001965
                ]
            }
        },
        {
            "type": "Feature",
            "properties": {
                "ref:csioz": 1030540,
                "name": "Apteka Dbam O Zdrowie",
                "addr:street": "Starowiejska",
                "addr:housenumber": "23",
                "addr:city": "Gdynia",
                "addr:postcode": "81-363",
                "amenity": "pharmacy",
                "dispensing": "yes"
            },
            "geometry": {
                "type": "Point",
                "coordinates": [
                    18.538142786272708,
                    54.521152537219386
                ]
            }
        },
        {
            "type": "Feature",
            "properties": {
                "ref:csioz": 1030579,
                "name": "Apteka Dbam O Zdrowie",
                "addr:street": "Bytomska",
                "addr:housenumber": "20",
                "addr:city": "Gdynia",
                "addr:postcode": "81-509",
                "amenity": "pharmacy",
                "dispensing": "yes"
            },
            "geometry": {
                "type": "Point",
                "coordinates": [
                    18.53777059432121,
                    54.484918718168245
                ]
            }
        },
        {
            "type": "Feature",
            "properties": {
                "ref:csioz": 1030789,
                "name": "Dyżurna 2",
                "addr:street": "Antoniego Abrahama",
                "addr:housenumber": "70",
                "addr:city": "Gdynia",
                "addr:postcode": "81-353",
                "amenity": "pharmacy",
                "dispensing": "yes"
            },
            "geometry": {
                "type": "Point",
                "coordinates": [
                    18.538609967858992,
                    54.514121268706795
                ]
            }
        },
        {
            "type": "Feature",
            "properties": {
                "ref:csioz": 1030995,
                "name": "Dr. Max",
                "addr:street": "Morska",
                "addr:housenumber": "82",
                "addr:city": "Gdynia",
                "addr:postcode": "81-225",
                "amenity": "pharmacy",
                "dispensing": "yes"
            },
            "geometry": {
                "type": "Point",
                "coordinates": [
                    18.504460315043893,
                    54.529401048965866
                ]
            }
        },
        {
            "type": "Feature",
            "properties": {
                "ref:csioz": 1031237,
                "name": "Korzenna",
                "addr:street": "Korzenna",
                "addr:housenumber": "19",
                "addr:city": "Gdynia",
                "addr:postcode": "81-587",
                "amenity": "pharmacy",
                "dispensing": "yes"
            },
            "geometry": {
                "type": "Point",
                "coordinates": [
                    18.501222873875655,
                    54.47020414541308
                ]
            }
        },
        {
            "type": "Feature",
            "properties": {
                "ref:csioz": 1031352,
                "name": "Piko 2",
                "addr:street": "Podgórska",
                "addr:housenumber": "1",
                "addr:city": "Gdynia",
                "addr:postcode": "81-166",
                "amenity": "pharmacy",
                "dispensing": "yes"
            },
            "geometry": {
                "type": "Point",
                "coordinates": [
                    18.49841661902618,
                    54.554709305359026
                ]
            }
        },
        {
            "type": "Feature",
            "properties": {
                "ref:csioz": 1031597,
                "name": "Panaceum",
                "addr:street": "Czeremchowa",
                "addr:housenumber": "1",
                "addr:city": "Gdynia",
                "addr:postcode": "81-085",
                "amenity": "pharmacy",
                "dispensing": "yes"
            },
            "geometry": {
                "type": "Point",
                "coordinates": [
                    18.445988949251216,
                    54.53445048966646
                ]
            }
        },
        {
            "type": "Feature",
            "properties": {
                "ref:csioz": 1031607,
                "name": "Apteka Dyżurna",
                "addr:street": "Morska",
                "addr:housenumber": "174",
                "addr:city": "Gdynia",
                "addr:postcode": "81-225",
                "amenity": "pharmacy",
                "dispensing": "yes"
            },
            "geometry": {
                "type": "Point",
                "coordinates": [
                    18.48558280179053,
                    54.534049167731595
                ]
            }
        },
        {
            "type": "Feature",
            "properties": {
                "ref:csioz": 1031693,
                "name": "Apteka Dbam O Zdrowie",
                "addr:street": "Sojowa",
                "addr:housenumber": "22",
                "addr:city": "Gdynia",
                "addr:postcode": "81-589",
                "amenity": "pharmacy",
                "dispensing": "yes"
            },
            "geometry": {
                "type": "Point",
                "coordinates": [
                    18.46972409326355,
                    54.469775061649315
                ]
            }
        },
        {
            "type": "Feature",
            "properties": {
                "ref:csioz": 1031701,
                "name": "Mediqus",
                "addr:street": "Sikorskiego gen. Broni Władysława",
                "addr:housenumber": "2A",
                "addr:city": "Gdynia",
                "addr:postcode": "81-175",
                "amenity": "pharmacy",
                "dispensing": "yes"
            },
            "geometry": {
                "type": "Point",
                "coordinates": [
                    18.49305875358456,
                    54.56217015563992
                ]
            }
        },
        {
            "type": "Feature",
            "properties": {
                "ref:csioz": 1034346,
                "name": "Dział Farmacji Szpitalnej W Zakładzie Leczniczym: Szpital Dąbrowa-Dąbrówka",
                "addr:street": "Sojowa",
                "addr:housenumber": "33C",
                "addr:city": "Gdynia",
                "addr:postcode": "81-589",
                "amenity": "pharmacy",
                "dispensing": "yes"
            },
            "geometry": {
                "type": "Point",
                "coordinates": [
                    18.470132733190184,
                    54.46929325632982
                ]
            }
        },
        {
            "type": "Feature",
            "properties": {
                "ref:csioz": 1113336,
                "name": "Dom Leków",
                "addr:street": "Morska",
                "addr:housenumber": "127",
                "addr:city": "Gdynia",
                "addr:postcode": "81-222",
                "amenity": "pharmacy",
                "dispensing": "yes"
            },
            "geometry": {
                "type": "Point",
                "coordinates": [
                    18.4995418199527,
                    54.52999645855015
                ]
            }
        },
        {
            "type": "Feature",
            "properties": {
                "ref:csioz": 1114071,
                "name": "Dział Farmacji Szpitalnej W Zakładzie Rehabilitacji Stacjonarnej",
                "addr:street": "Chwarznieńska",
                "addr:housenumber": "136/138",
                "addr:city": "Gdynia",
                "addr:postcode": "81-602",
                "amenity": "pharmacy",
                "dispensing": "yes"
            },
            "geometry": {
                "type": "Point",
                "coordinates": [
                    18.49486799999976,
                    54.498983000019614
                ]
            }
        },
        {
            "type": "Feature",
            "properties": {
                "ref:csioz": 1189368,
                "name": "Dom Leków",
                "addr:street": "Narcyzowa",
                "addr:housenumber": "1/9",
                "addr:city": "Gdynia",
                "addr:postcode": "81-653",
                "amenity": "pharmacy",
                "dispensing": "yes"
            },
            "geometry": {
                "type": "Point",
                "coordinates": [
                    18.514765999999767,
                    54.49973000001961
                ]
            }
        },
        {
            "type": "Feature",
            "properties": {
                "ref:csioz": 1189275,
                "name": "Dom Leków",
                "addr:street": "Legionów",
                "addr:housenumber": "60",
                "addr:city": "Gdynia",
                "addr:postcode": "81-404",
                "amenity": "pharmacy",
                "dispensing": "yes"
            },
            "geometry": {
                "type": "Point",
                "coordinates": [
                    18.5416535606421,
                    54.50338373852698
                ]
            }
        },
        {
            "type": "Feature",
            "properties": {
                "ref:csioz": 1171658,
                "name": "Apteka Serdeczna",
                "addr:street": "Leona Staniszewskiego",
                "addr:housenumber": "1",
                "addr:city": "Gdynia",
                "addr:postcode": "81-603",
                "amenity": "pharmacy",
                "dispensing": "yes"
            },
            "geometry": {
                "type": "Point",
                "coordinates": [
                    18.439363335658722,
                    54.49718771520344
                ]
            }
        },
        {
            "type": "Feature",
            "properties": {
                "ref:csioz": 1172611,
                "name": "Centrum Leków Chylonia",
                "addr:street": "Chylońska",
                "addr:housenumber": "122",
                "addr:city": "Gdynia",
                "addr:postcode": "81-033",
                "amenity": "pharmacy",
                "dispensing": "yes"
            },
            "geometry": {
                "type": "Point",
                "coordinates": [
                    18.462264488383774,
                    54.544883950812185
                ]
            }
        },
        {
            "type": "Feature",
            "properties": {
                "ref:csioz": 1184062,
                "name": "Apteka Dyżurna",
                "addr:street": "Rdestowa",
                "addr:housenumber": "4 A",
                "addr:city": "Gdynia",
                "addr:postcode": "81-577",
                "amenity": "pharmacy",
                "dispensing": "yes"
            },
            "geometry": {
                "type": "Point",
                "coordinates": [
                    18.464664999999737,
                    54.47316300001956
                ]
            }
        },
        {
            "type": "Feature",
            "properties": {
                "ref:csioz": 1189288,
                "name": "Dom Leków",
                "addr:street": "Rozewska",
                "addr:housenumber": "31",
                "addr:city": "Gdynia",
                "addr:postcode": "81-055",
                "amenity": "pharmacy",
                "dispensing": "yes"
            },
            "geometry": {
                "type": "Point",
                "coordinates": [
                    18.46532902814333,
                    54.53930050078086
                ]
            }
        },
        {
            "type": "Feature",
            "properties": {
                "ref:csioz": 1189313,
                "name": "Dom Leków",
                "addr:street": "Gabrieli Zapolskiej",
                "addr:housenumber": "1a",
                "addr:city": "Gdynia",
                "addr:postcode": "81-596",
                "amenity": "pharmacy",
                "dispensing": "yes"
            },
            "geometry": {
                "type": "Point",
                "coordinates": [
                    18.496171023629195,
                    54.47120455982078
                ]
            }
        },
        {
            "type": "Feature",
            "properties": {
                "ref:csioz": 1189321,
                "name": "Dom Leków",
                "addr:street": "Świętojańska",
                "addr:housenumber": "4/8",
                "addr:city": "Gdynia",
                "addr:postcode": "81-368",
                "amenity": "pharmacy",
                "dispensing": "yes"
            },
            "geometry": {
                "type": "Point",
                "coordinates": [
                    18.542880999999774,
                    54.521124000019654
                ]
            }
        },
        {
            "type": "Feature",
            "properties": {
                "ref:csioz": 1187927,
                "name": "\"Dział Farmacji Szpitalnej W Przedsiębiorstwie Zakład Opiekuńczo-Leczniczy \"\"Euromedicus\"\"\"",
                "addr:street": "Czechosłowacka",
                "addr:housenumber": "3",
                "addr:city": "Gdynia",
                "addr:postcode": "81-969",
                "amenity": "pharmacy",
                "dispensing": "yes"
            },
            "geometry": {
                "type": "Point",
                "coordinates": [
                    18.51802924169363,
                    54.532885594327446
                ]
            }
        },
        {
            "type": "Feature",
            "properties": {
                "ref:csioz": 1189337,
                "name": "Dom Leków",
                "addr:street": "Wejherowska",
                "addr:housenumber": "59",
                "addr:city": "Gdynia",
                "addr:postcode": "81-065",
                "amenity": "pharmacy",
                "dispensing": "yes"
            },
            "geometry": {
                "type": "Point",
                "coordinates": [
                    18.46566070090449,
                    54.5429045337132
                ]
            }
        },
        {
            "type": "Feature",
            "properties": {
                "ref:csioz": 1189359,
                "name": "Dom Leków",
                "addr:street": "Cechowa",
                "addr:housenumber": "2",
                "addr:city": "Gdynia",
                "addr:postcode": "81-174",
                "amenity": "pharmacy",
                "dispensing": "yes"
            },
            "geometry": {
                "type": "Point",
                "coordinates": [
                    18.513223086782588,
                    54.54985302348195
                ]
            }
        },
        {
            "type": "Feature",
            "properties": {
                "ref:csioz": 1200917,
                "name": "Wracam Do Zdrowia",
                "addr:street": "Słoneczna",
                "addr:housenumber": "2",
                "addr:city": "Gdynia",
                "addr:postcode": "81-605",
                "amenity": "pharmacy",
                "dispensing": "yes"
            },
            "geometry": {
                "type": "Point",
                "coordinates": [
                    18.506828061046317,
                    54.497876718702855
                ]
            }
        },
        {
            "type": "Feature",
            "properties": {
                "ref:csioz": 1202788,
                "name": "Apteka Dyżurna",
                "addr:street": "Gniewska",
                "addr:housenumber": "21",
                "addr:city": "Gdynia",
                "addr:postcode": "81-047",
                "amenity": "pharmacy",
                "dispensing": "yes"
            },
            "geometry": {
                "type": "Point",
                "coordinates": [
                    18.46221687169793,
                    54.54214769644315
                ]
            }
        },
        {
            "type": "Feature",
            "properties": {
                "ref:csioz": 1208664,
                "name": "Apteka Nowe Orłowo",
                "addr:street": "Zwycięstwa",
                "addr:housenumber": "239",
                "addr:city": "Gdynia",
                "addr:postcode": "81-521",
                "amenity": "pharmacy",
                "dispensing": "yes"
            },
            "geometry": {
                "type": "Point",
                "coordinates": [
                    18.55235326842622,
                    54.4807114203127
                ]
            }
        },
        {
            "type": "Feature",
            "properties": {
                "ref:csioz": 1210734,
                "name": "Apteka Gemini",
                "addr:street": "Świętojańska",
                "addr:housenumber": "16",
                "addr:city": "Gdynia",
                "addr:postcode": "81-368",
                "amenity": "pharmacy",
                "dispensing": "yes"
            },
            "geometry": {
                "type": "Point",
                "coordinates": [
                    18.542603461353146,
                    54.51996428100062
                ]
            }
        },
        {
            "type": "Feature",
            "properties": {
                "ref:csioz": 1210791,
                "name": "Wracam Do Zdrowia",
                "addr:street": "Górnośląski",
                "addr:housenumber": "16",
                "addr:city": "Gdynia",
                "addr:postcode": "81-509",
                "amenity": "pharmacy",
                "dispensing": "yes"
            },
            "geometry": {
                "type": "Point",
                "coordinates": [
                    18.538397148237483,
                    54.484477131028704
                ]
            }
        },
        {
            "type": "Feature",
            "properties": {
                "ref:csioz": 1211712,
                "name": "Multiapteka",
                "addr:street": "Chwarznieńska",
                "addr:housenumber": "198A",
                "addr:city": "Gdynia",
                "addr:postcode": "81-602",
                "amenity": "pharmacy",
                "dispensing": "yes"
            },
            "geometry": {
                "type": "Point",
                "coordinates": [
                    18.428200120506883,
                    54.493313731065555
                ]
            }
        },
        {
            "type": "Feature",
            "properties": {
                "ref:csioz": 1215065,
                "name": "Apteka Szpitalna W Szpitalu Morskim Im. Pck",
                "addr:street": "Powstania Styczniowego",
                "addr:housenumber": "1",
                "addr:city": "Gdynia",
                "addr:postcode": "81-519",
                "amenity": "pharmacy",
                "dispensing": "yes"
            },
            "geometry": {
                "type": "Point",
                "coordinates": [
                    18.553008979491405,
                    54.48962887594194
                ]
            }
        },
        {
            "type": "Feature",
            "properties": {
                "ref:csioz": 1215438,
                "name": "Dział Farmacji Szpitalnej W Zakładzie Leczniczym: Clinica Medica",
                "addr:street": "Montwiłła-Mireckiego",
                "addr:housenumber": "11",
                "addr:city": "Gdynia",
                "addr:postcode": "81-229",
                "amenity": "pharmacy",
                "dispensing": "yes"
            },
            "geometry": {
                "type": "Point",
                "coordinates": [
                    18.50307556419261,
                    54.528732632111186
                ]
            }
        },
        {
            "type": "Feature",
            "properties": {
                "ref:csioz": 1216488,
                "name": "Apteka Św. Jadwigi",
                "addr:street": "Ikara",
                "addr:housenumber": "14A",
                "addr:city": "Gdynia",
                "addr:postcode": "81-197",
                "amenity": "pharmacy",
                "dispensing": "yes"
            },
            "geometry": {
                "type": "Point",
                "coordinates": [
                    18.538256493065028,
                    54.58167119721971
                ]
            }
        },
        {
            "type": "Feature",
            "properties": {
                "ref:csioz": 1223281,
                "name": "Medica",
                "addr:street": "Wiczlińska",
                "addr:housenumber": "54",
                "addr:city": "Gdynia",
                "addr:postcode": "81-578",
                "amenity": "pharmacy",
                "dispensing": "yes"
            },
            "geometry": {
                "type": "Point",
                "coordinates": [
                    18.42555797070167,
                    54.48962653502775
                ]
            }
        },
        {
            "type": "Feature",
            "properties": {
                "ref:csioz": 1223986,
                "name": "Apteka Gemini",
                "addr:street": "Chylońska",
                "addr:housenumber": "112",
                "addr:city": "Gdynia",
                "addr:postcode": "81-033",
                "amenity": "pharmacy",
                "dispensing": "yes"
            },
            "geometry": {
                "type": "Point",
                "coordinates": [
                    18.463340371576066,
                    54.544612731915265
                ]
            }
        },
        {
            "type": "Feature",
            "properties": {
                "ref:csioz": 1224242,
                "name": "Wolności 1 Nowa Farmacja",
                "addr:street": "Wolności",
                "addr:housenumber": "1",
                "addr:city": "Gdynia",
                "addr:postcode": "81-324",
                "amenity": "pharmacy",
                "dispensing": "yes"
            },
            "geometry": {
                "type": "Point",
                "coordinates": [
                    18.528531296516768,
                    54.51965086909035
                ]
            }
        },
        {
            "type": "Feature",
            "properties": {
                "ref:csioz": 1027962,
                "name": "\"Apteka \"\"Św. Alberta\"\"\"",
                "addr:street": "Świętojańska",
                "addr:housenumber": "116",
                "addr:city": "Gdynia",
                "addr:postcode": "81-388",
                "amenity": "pharmacy",
                "dispensing": "yes"
            },
            "geometry": {
                "type": "Point",
                "coordinates": [
                    18.53836333525626,
                    54.51027939107623
                ]
            }
        },
        {
            "type": "Feature",
            "properties": {
                "ref:csioz": 1219193,
                "name": "\"Apteka \"\"Słowiańska\"\" S.C.\"",
                "addr:street": "Boh. Starówki Warszawskiej",
                "addr:housenumber": "5",
                "addr:city": "Gdynia",
                "addr:postcode": "81-466",
                "amenity": "pharmacy",
                "dispensing": "yes"
            },
            "geometry": {
                "type": "Point",
                "coordinates": [
                    18.551052999999786,
                    54.49430300001961
                ]
            }
        }
    ]
}