{
    "type": "FeatureCollection",
    "name": "JPT_KOD_JE_3002",
    "features": [
        {
            "type": "Feature",
            "properties": {
                "ref:csioz": 1042618,
                "name": "Doz Apteka Dbam O Zdrowie.Przyjazna",
                "addr:street": "Władysława Broniewskiego",
                "addr:housenumber": "17A",
                "addr:city": "Trzcianka",
                "addr:postcode": "64-980",
                "amenity": "pharmacy",
                "dispensing": "yes"
            },
            "geometry": {
                "type": "Point",
                "coordinates": [
                    16.45461674314801,
                    53.038207639940815
                ]
            }
        },
        {
            "type": "Feature",
            "properties": {
                "ref:csioz": 1042992,
                "name": "Dr. Max",
                "addr:street": "ZWYCIĘSTWA",
                "addr:housenumber": "1",
                "addr:city": "KRZYŻ WIELKOPOLSKI",
                "addr:postcode": "64-760",
                "amenity": "pharmacy",
                "dispensing": "yes"
            },
            "geometry": {
                "type": "Point",
                "coordinates": [
                    16.015211647799443,
                    52.880313893252605
                ]
            }
        },
        {
            "type": "Feature",
            "properties": {
                "ref:csioz": 1043199,
                "name": "Alfa",
                "addr:street": "Jana Matejki",
                "addr:housenumber": "3A",
                "addr:city": "Trzcianka",
                "addr:postcode": "64-980",
                "amenity": "pharmacy",
                "dispensing": "yes"
            },
            "geometry": {
                "type": "Point",
                "coordinates": [
                    16.462422914914566,
                    53.035833778788486
                ]
            }
        },
        {
            "type": "Feature",
            "properties": {
                "ref:csioz": 1043200,
                "name": "Sokal",
                "addr:street": "Stanisława Staszica",
                "addr:housenumber": "12",
                "addr:city": "TRZCIANKA",
                "addr:postcode": "64-980",
                "amenity": "pharmacy",
                "dispensing": "yes"
            },
            "geometry": {
                "type": "Point",
                "coordinates": [
                    16.460703463552175,
                    53.03683986113255
                ]
            }
        },
        {
            "type": "Feature",
            "properties": {
                "ref:csioz": 1043213,
                "name": "Śródmiejska",
                "addr:street": "Kościuszki",
                "addr:housenumber": "14",
                "addr:city": "Wieleń",
                "addr:postcode": "64-730",
                "amenity": "pharmacy",
                "dispensing": "yes"
            },
            "geometry": {
                "type": "Point",
                "coordinates": [
                    16.171294142785758,
                    52.89413693015763
                ]
            }
        },
        {
            "type": "Feature",
            "properties": {
                "ref:csioz": 1043629,
                "name": "Pod Orłem Uprzywilejowana W 1785 R.",
                "addr:street": "Wolności",
                "addr:housenumber": "9",
                "addr:city": "Czarnków",
                "addr:postcode": "64-700",
                "amenity": "pharmacy",
                "dispensing": "yes"
            },
            "geometry": {
                "type": "Point",
                "coordinates": [
                    16.564129850553098,
                    52.90555149092604
                ]
            }
        },
        {
            "type": "Feature",
            "properties": {
                "ref:csioz": 1043902,
                "addr:housenumber": "15",
                "addr:postcode": "64-708",
                "amenity": "pharmacy",
                "addr:place": "Huta",
                "dispensing": "yes"
            },
            "geometry": {
                "type": "Point",
                "coordinates": [
                    16.680415286963218,
                    52.86666667364744
                ]
            }
        },
        {
            "type": "Feature",
            "properties": {
                "ref:csioz": 1044215,
                "name": "Melisa",
                "addr:street": "Powstańców Wielkopolskich",
                "addr:housenumber": "21",
                "addr:city": "Rosko",
                "addr:postcode": "62-709",
                "amenity": "pharmacy",
                "dispensing": "yes"
            },
            "geometry": {
                "type": "Point",
                "coordinates": [
                    16.316787484881097,
                    52.87490643175394
                ]
            }
        },
        {
            "type": "Feature",
            "properties": {
                "ref:csioz": 1044231,
                "name": "Czajka",
                "addr:housenumber": "64",
                "addr:postcode": "64-711",
                "amenity": "pharmacy",
                "addr:place": "Młynkowo",
                "dispensing": "yes"
            },
            "geometry": {
                "type": "Point",
                "coordinates": [
                    16.64100328908651,
                    52.808316991046645
                ]
            }
        },
        {
            "type": "Feature",
            "properties": {
                "ref:csioz": 1044289,
                "name": "Camilla",
                "addr:street": "Nadnotecka",
                "addr:housenumber": "22",
                "addr:city": "Drawsko",
                "addr:postcode": "64-733",
                "amenity": "pharmacy",
                "dispensing": "yes"
            },
            "geometry": {
                "type": "Point",
                "coordinates": [
                    16.03129623847571,
                    52.85526969696947
                ]
            }
        },
        {
            "type": "Feature",
            "properties": {
                "ref:csioz": 1188408,
                "name": "Www.Aptekasenior.Pl",
                "addr:street": "Pocztowy",
                "addr:housenumber": "24 B",
                "addr:city": "Trzcianka",
                "addr:postcode": "64-980",
                "amenity": "pharmacy",
                "dispensing": "yes"
            },
            "geometry": {
                "type": "Point",
                "coordinates": [
                    16.46046832132586,
                    53.04181816913536
                ]
            }
        },
        {
            "type": "Feature",
            "properties": {
                "ref:csioz": 1200429,
                "name": "Doz Apteka Dbam O Zdrowie. Centrum",
                "addr:street": "Wodna",
                "addr:housenumber": "1",
                "addr:city": "Czarnków",
                "addr:postcode": "64-700",
                "amenity": "pharmacy",
                "dispensing": "yes"
            },
            "geometry": {
                "type": "Point",
                "coordinates": [
                    16.564686780719907,
                    52.907225252860364
                ]
            }
        },
        {
            "type": "Feature",
            "properties": {
                "ref:csioz": 1217097,
                "name": "Apteka Passiflora",
                "addr:street": "Rynek",
                "addr:housenumber": "24",
                "addr:city": "Połajewo",
                "addr:postcode": "64-710",
                "amenity": "pharmacy",
                "dispensing": "yes"
            },
            "geometry": {
                "type": "Point",
                "coordinates": [
                    16.734945574445227,
                    52.7983731691924
                ]
            }
        },
        {
            "type": "Feature",
            "properties": {
                "ref:csioz": 1026906,
                "name": "Sokal",
                "addr:street": "Sikorskiego",
                "addr:housenumber": "4",
                "addr:city": "Czarnków",
                "addr:postcode": "64-700",
                "amenity": "pharmacy",
                "dispensing": "yes"
            },
            "geometry": {
                "type": "Point",
                "coordinates": [
                    16.566859899682207,
                    52.905400653498724
                ]
            }
        },
        {
            "type": "Feature",
            "properties": {
                "ref:csioz": 1042735,
                "name": "Lipowa",
                "addr:street": "Rynek",
                "addr:housenumber": "12",
                "addr:city": "Połajewo",
                "addr:postcode": "64-710",
                "amenity": "pharmacy",
                "dispensing": "yes"
            },
            "geometry": {
                "type": "Point",
                "coordinates": [
                    16.737251680614,
                    52.79800084468179
                ]
            }
        },
        {
            "type": "Feature",
            "properties": {
                "ref:csioz": 1042770,
                "name": "Storczykowa",
                "addr:street": "STORCZYKOWA",
                "addr:housenumber": "1",
                "addr:city": "WIELEŃ",
                "addr:postcode": "64-730",
                "amenity": "pharmacy",
                "dispensing": "yes"
            },
            "geometry": {
                "type": "Point",
                "coordinates": [
                    16.17119452779709,
                    52.87906596976899
                ]
            }
        },
        {
            "type": "Feature",
            "properties": {
                "ref:csioz": 1042959,
                "name": "Osiedlowa",
                "addr:street": "KOŚCIUSZKI",
                "addr:housenumber": "103A",
                "addr:city": "CZARNKÓW",
                "addr:postcode": "64-700",
                "amenity": "pharmacy",
                "dispensing": "yes"
            },
            "geometry": {
                "type": "Point",
                "coordinates": [
                    16.547344737301078,
                    52.89429948472571
                ]
            }
        },
        {
            "type": "Feature",
            "properties": {
                "ref:csioz": 1042976,
                "name": "Dbam O Zdrowie",
                "addr:street": "Kościuszki",
                "addr:housenumber": "98",
                "addr:city": "Czarnków",
                "addr:postcode": "64-700",
                "amenity": "pharmacy",
                "dispensing": "yes"
            },
            "geometry": {
                "type": "Point",
                "coordinates": [
                    16.555665540430844,
                    52.89708814522979
                ]
            }
        },
        {
            "type": "Feature",
            "properties": {
                "ref:csioz": 1043054,
                "name": "Lipowa",
                "addr:street": "Wroniecka",
                "addr:housenumber": "74",
                "addr:city": "Czarnków",
                "addr:postcode": "64-700",
                "amenity": "pharmacy",
                "dispensing": "yes"
            },
            "geometry": {
                "type": "Point",
                "coordinates": [
                    16.560444717312592,
                    52.898904777055115
                ]
            }
        },
        {
            "type": "Feature",
            "properties": {
                "ref:csioz": 1043173,
                "name": "Apteka Przy Rynku",
                "addr:street": "Pocztowy",
                "addr:housenumber": "3",
                "addr:city": "Trzcianka",
                "addr:postcode": "64-980",
                "amenity": "pharmacy",
                "dispensing": "yes"
            },
            "geometry": {
                "type": "Point",
                "coordinates": [
                    16.46196282819698,
                    53.04270047617014
                ]
            }
        },
        {
            "type": "Feature",
            "properties": {
                "ref:csioz": 1043221,
                "name": "Familijna",
                "addr:street": "Bolesława Chrobrego",
                "addr:housenumber": "33",
                "addr:city": "Lubasz",
                "addr:postcode": "64-720",
                "amenity": "pharmacy",
                "dispensing": "yes"
            },
            "geometry": {
                "type": "Point",
                "coordinates": [
                    16.522985110339516,
                    52.849734801820226
                ]
            }
        },
        {
            "type": "Feature",
            "properties": {
                "ref:csioz": 1043318,
                "name": "Panaceum",
                "addr:street": "Adama Mickiewicza",
                "addr:housenumber": "5",
                "addr:city": "Krzyż Wielkopolski",
                "addr:postcode": "64-761",
                "amenity": "pharmacy",
                "dispensing": "yes"
            },
            "geometry": {
                "type": "Point",
                "coordinates": [
                    16.01349670232952,
                    52.880855046237045
                ]
            }
        },
        {
            "type": "Feature",
            "properties": {
                "ref:csioz": 1043347,
                "name": "Pod Kasztanami",
                "addr:street": "Kościuszki",
                "addr:housenumber": "8",
                "addr:city": "Czarnków",
                "addr:postcode": "64-700",
                "amenity": "pharmacy",
                "dispensing": "yes"
            },
            "geometry": {
                "type": "Point",
                "coordinates": [
                    16.564229635055323,
                    52.904142896067796
                ]
            }
        },
        {
            "type": "Feature",
            "properties": {
                "ref:csioz": 1043409,
                "name": "Sanitas",
                "addr:street": "Kościuszki",
                "addr:housenumber": "74",
                "addr:city": "Wieleń",
                "addr:postcode": "64-720",
                "amenity": "pharmacy",
                "dispensing": "yes"
            },
            "geometry": {
                "type": "Point",
                "coordinates": [
                    16.171924286066538,
                    52.89589840666012
                ]
            }
        },
        {
            "type": "Feature",
            "properties": {
                "ref:csioz": 1043446,
                "name": "Remedium",
                "addr:street": "Tadeusza Kościuszki",
                "addr:housenumber": "1",
                "addr:city": "Trzcianka",
                "addr:postcode": "64-980",
                "amenity": "pharmacy",
                "dispensing": "yes"
            },
            "geometry": {
                "type": "Point",
                "coordinates": [
                    16.462343371504016,
                    53.04025166150855
                ]
            }
        },
        {
            "type": "Feature",
            "properties": {
                "ref:csioz": 1043451,
                "name": "Prima",
                "addr:street": "XXV-lecia",
                "addr:housenumber": "3",
                "addr:city": "Trzcianka",
                "addr:postcode": "64-980",
                "amenity": "pharmacy",
                "dispensing": "yes"
            },
            "geometry": {
                "type": "Point",
                "coordinates": [
                    16.461350785904457,
                    53.04042336007433
                ]
            }
        },
        {
            "type": "Feature",
            "properties": {
                "ref:csioz": 1043570,
                "name": "Apteka Passiflora",
                "addr:street": "Kościuszki",
                "addr:housenumber": "93",
                "addr:city": "Czarnków",
                "addr:postcode": "64-700",
                "amenity": "pharmacy",
                "dispensing": "yes"
            },
            "geometry": {
                "type": "Point",
                "coordinates": [
                    16.55388087923589,
                    52.89691460175633
                ]
            }
        },
        {
            "type": "Feature",
            "properties": {
                "ref:csioz": 1043977,
                "name": "Factum",
                "addr:housenumber": "35",
                "addr:postcode": "64-980",
                "amenity": "pharmacy",
                "addr:place": "Siedlisko",
                "dispensing": "yes"
            },
            "geometry": {
                "type": "Point",
                "coordinates": [
                    16.378421431108166,
                    52.985267407555156
                ]
            }
        },
        {
            "type": "Feature",
            "properties": {
                "ref:csioz": 1044588,
                "addr:street": "GEN. WŁADYSŁAWA SIKORSKIEGO",
                "addr:housenumber": "9",
                "addr:city": "TRZCIANKA",
                "addr:postcode": "64-980",
                "amenity": "pharmacy",
                "dispensing": "yes"
            },
            "geometry": {
                "type": "Point",
                "coordinates": [
                    16.463058963438947,
                    53.03963248873231
                ]
            }
        },
        {
            "type": "Feature",
            "properties": {
                "ref:csioz": 1044591,
                "addr:street": "KOŚCIUSZKI",
                "addr:housenumber": "96",
                "addr:city": "CZARNKÓW",
                "addr:postcode": "64-700",
                "amenity": "pharmacy",
                "dispensing": "yes"
            },
            "geometry": {
                "type": "Point",
                "coordinates": [
                    16.556091555371705,
                    52.89727634148602
                ]
            }
        },
        {
            "type": "Feature",
            "properties": {
                "ref:csioz": 1176969,
                "name": "Doz Apteka Dbam O Zdrowie. Centrum",
                "addr:street": "Wojska Polskiego",
                "addr:housenumber": "23",
                "addr:city": "Krzyż Wielkopolski",
                "addr:postcode": "64-761",
                "amenity": "pharmacy",
                "dispensing": "yes"
            },
            "geometry": {
                "type": "Point",
                "coordinates": [
                    16.011790030186717,
                    52.88043457836108
                ]
            }
        },
        {
            "type": "Feature",
            "properties": {
                "ref:csioz": 1208318,
                "name": "Apteka Centrum Zdrowia",
                "addr:street": "Stanisława Poniatowskiego",
                "addr:housenumber": "2",
                "addr:city": "Trzcianka",
                "addr:postcode": "64-980",
                "amenity": "pharmacy",
                "dispensing": "yes"
            },
            "geometry": {
                "type": "Point",
                "coordinates": [
                    16.450662571480052,
                    53.040458301761696
                ]
            }
        }
    ]
}