{
    "type": "FeatureCollection",
    "name": "JPT_KOD_JE_1424",
    "features": [
        {
            "type": "Feature",
            "properties": {
                "ref:csioz": 1172184,
                "addr:housenumber": "101A",
                "addr:postcode": "06-121",
                "amenity": "pharmacy",
                "addr:place": "Dzierżenin"
            },
            "geometry": {
                "type": "Point",
                "coordinates": [
                    21.088991652483084,
                    52.570904029190515
                ]
            }
        },
        {
            "type": "Feature",
            "properties": {
                "ref:csioz": 1081712,
                "name": "Farm-Mag Sp. Z O.O",
                "addr:street": "Szkolna",
                "addr:housenumber": "2",
                "addr:city": "Winnica",
                "addr:postcode": "06-120",
                "amenity": "pharmacy"
            },
            "geometry": {
                "type": "Point",
                "coordinates": [
                    20.944032891420175,
                    52.64342516997666
                ]
            }
        },
        {
            "type": "Feature",
            "properties": {
                "ref:csioz": 1081720,
                "name": "Farm-Mag Sp. Z O.O",
                "addr:street": "Adama Mickiewicza",
                "addr:housenumber": "35A",
                "addr:city": "Pułtusk",
                "addr:postcode": "06-100",
                "amenity": "pharmacy"
            },
            "geometry": {
                "type": "Point",
                "coordinates": [
                    21.075871836568034,
                    52.702589775529184
                ]
            }
        },
        {
            "type": "Feature",
            "properties": {
                "ref:csioz": 1091919,
                "name": "Iza-Med",
                "addr:street": "Przemysłowa",
                "addr:housenumber": "3",
                "addr:city": "Pokrzywnica",
                "addr:postcode": "06-121",
                "amenity": "pharmacy"
            },
            "geometry": {
                "type": "Point",
                "coordinates": [
                    21.021636006153365,
                    52.61970849699454
                ]
            }
        },
        {
            "type": "Feature",
            "properties": {
                "ref:csioz": 1091924,
                "addr:street": "Jana Pawła II",
                "addr:housenumber": "130",
                "addr:city": "Zatory",
                "addr:postcode": "07-217",
                "amenity": "pharmacy"
            },
            "geometry": {
                "type": "Point",
                "coordinates": [
                    21.185617512938272,
                    52.60964900033958
                ]
            }
        },
        {
            "type": "Feature",
            "properties": {
                "ref:csioz": 1092867,
                "name": "Przy Szpitalu",
                "addr:street": "Świętego Andrzeja Boboli",
                "addr:housenumber": "8",
                "addr:city": "Pułtusk",
                "addr:postcode": "06-102",
                "amenity": "pharmacy"
            },
            "geometry": {
                "type": "Point",
                "coordinates": [
                    21.110140651310825,
                    52.69312296207728
                ]
            }
        },
        {
            "type": "Feature",
            "properties": {
                "ref:csioz": 1124589,
                "name": "Dział Farmacji Szpitalnej",
                "addr:street": "Teofila Kwiatkowskiego",
                "addr:housenumber": "19",
                "addr:city": "Pułtusk",
                "addr:postcode": "06-102",
                "amenity": "pharmacy"
            },
            "geometry": {
                "type": "Point",
                "coordinates": [
                    21.114124760191086,
                    52.69375023338281
                ]
            }
        },
        {
            "type": "Feature",
            "properties": {
                "ref:csioz": 1092513,
                "addr:housenumber": "187",
                "addr:postcode": "07-215",
                "amenity": "pharmacy",
                "addr:place": "Obryte"
            },
            "geometry": {
                "type": "Point",
                "coordinates": [
                    21.241073576276563,
                    52.71462406249812
                ]
            }
        },
        {
            "type": "Feature",
            "properties": {
                "ref:csioz": 1092521,
                "addr:street": "3 Maja",
                "addr:housenumber": "9",
                "addr:city": "Pułtusk",
                "addr:postcode": "06-100",
                "amenity": "pharmacy"
            },
            "geometry": {
                "type": "Point",
                "coordinates": [
                    21.085612715521798,
                    52.70561237191202
                ]
            }
        },
        {
            "type": "Feature",
            "properties": {
                "ref:csioz": 1092545,
                "addr:street": "Górna",
                "addr:housenumber": "6",
                "addr:city": "Pułtusk",
                "addr:postcode": "06-100",
                "amenity": "pharmacy"
            },
            "geometry": {
                "type": "Point",
                "coordinates": [
                    21.079916117249706,
                    52.70116096228359
                ]
            }
        },
        {
            "type": "Feature",
            "properties": {
                "ref:csioz": 1092559,
                "addr:street": "Adama Mickiewicza",
                "addr:housenumber": "29",
                "addr:city": "Pułtusk",
                "addr:postcode": "06-100",
                "amenity": "pharmacy"
            },
            "geometry": {
                "type": "Point",
                "coordinates": [
                    21.08073788089024,
                    52.702407819495974
                ]
            }
        },
        {
            "type": "Feature",
            "properties": {
                "ref:csioz": 1092568,
                "addr:street": "Plac Teatralny",
                "addr:housenumber": "1",
                "addr:city": "Pułtusk",
                "addr:postcode": "06-100",
                "amenity": "pharmacy"
            },
            "geometry": {
                "type": "Point",
                "coordinates": [
                    21.08761605805908,
                    52.7041534446951
                ]
            }
        },
        {
            "type": "Feature",
            "properties": {
                "ref:csioz": 1092576,
                "addr:street": "Rynek",
                "addr:housenumber": "18",
                "addr:city": "Pułtusk",
                "addr:postcode": "06-100",
                "amenity": "pharmacy"
            },
            "geometry": {
                "type": "Point",
                "coordinates": [
                    21.09035097071646,
                    52.70605765506355
                ]
            }
        },
        {
            "type": "Feature",
            "properties": {
                "ref:csioz": 1092592,
                "name": "Apteka Viola",
                "addr:street": "Romualda Traugutta",
                "addr:housenumber": "23",
                "addr:city": "Pułtusk",
                "addr:postcode": "06-100",
                "amenity": "pharmacy"
            },
            "geometry": {
                "type": "Point",
                "coordinates": [
                    21.078734984989424,
                    52.70340562127965
                ]
            }
        },
        {
            "type": "Feature",
            "properties": {
                "ref:csioz": 1092602,
                "addr:street": "Szkolna",
                "addr:housenumber": "4",
                "addr:city": "Świercze",
                "addr:postcode": "06-150",
                "amenity": "pharmacy"
            },
            "geometry": {
                "type": "Point",
                "coordinates": [
                    20.76441094482102,
                    52.67176263425783
                ]
            }
        },
        {
            "type": "Feature",
            "properties": {
                "ref:csioz": 1092846,
                "name": "W Ogrodach",
                "addr:street": "Adama Mickiewicza",
                "addr:housenumber": "36",
                "addr:flats": "VL",
                "addr:city": "Pułtusk",
                "addr:postcode": "06-100",
                "amenity": "pharmacy"
            },
            "geometry": {
                "type": "Point",
                "coordinates": [
                    21.075166017072554,
                    52.702981576681935
                ]
            }
        },
        {
            "type": "Feature",
            "properties": {
                "ref:csioz": 1116504,
                "name": "Bios",
                "addr:street": "Ignacego Daszyńskiego",
                "addr:housenumber": "9D",
                "addr:city": "Pułtusk",
                "addr:postcode": "06-100",
                "amenity": "pharmacy"
            },
            "geometry": {
                "type": "Point",
                "coordinates": [
                    21.08567700000325,
                    52.7020160000166
                ]
            }
        },
        {
            "type": "Feature",
            "properties": {
                "ref:csioz": 1116621,
                "name": "Herba",
                "addr:street": "3 Maja",
                "addr:housenumber": "5",
                "addr:city": "Pułtusk",
                "addr:postcode": "06-100",
                "amenity": "pharmacy"
            },
            "geometry": {
                "type": "Point",
                "coordinates": [
                    21.085984066823936,
                    52.7048487110076
                ]
            }
        },
        {
            "type": "Feature",
            "properties": {
                "ref:csioz": 1179730,
                "addr:street": "Pułtuska",
                "addr:housenumber": "22",
                "addr:city": "Pniewo",
                "addr:postcode": "07-214",
                "amenity": "pharmacy"
            },
            "geometry": {
                "type": "Point",
                "coordinates": [
                    21.25345607944937,
                    52.64690198237474
                ]
            }
        },
        {
            "type": "Feature",
            "properties": {
                "ref:csioz": 1183339,
                "name": "Dr. Optima",
                "addr:street": "Ignacego Daszyńskiego",
                "addr:housenumber": "34",
                "addr:city": "Pułtusk",
                "addr:postcode": "06-100",
                "amenity": "pharmacy"
            },
            "geometry": {
                "type": "Point",
                "coordinates": [
                    21.085260115926058,
                    52.70030865126176
                ]
            }
        },
        {
            "type": "Feature",
            "properties": {
                "ref:csioz": 1222691,
                "name": "Miętowa",
                "addr:street": "Romualda Traugutta",
                "addr:housenumber": "21",
                "addr:city": "Pułtusk",
                "addr:postcode": "06-100",
                "amenity": "pharmacy"
            },
            "geometry": {
                "type": "Point",
                "coordinates": [
                    21.081513507324175,
                    52.70345347183316
                ]
            }
        }
    ]
}