{
    "type": "FeatureCollection",
    "name": "JPT_KOD_JE_2011",
    "features": [
        {
            "type": "Feature",
            "properties": {
                "ref:csioz": 1015355,
                "addr:street": "Jagielloński",
                "addr:housenumber": "7",
                "addr:city": "Krynki",
                "addr:postcode": "16-120",
                "amenity": "pharmacy",
                "dispensing": "yes"
            },
            "geometry": {
                "type": "Point",
                "coordinates": [
                    23.773454467364772,
                    53.26394708316134
                ]
            }
        },
        {
            "type": "Feature",
            "properties": {
                "ref:csioz": 1120050,
                "addr:street": "Grodzieńska",
                "addr:housenumber": "40",
                "addr:city": "Krynki",
                "addr:postcode": "16-120",
                "amenity": "pharmacy",
                "dispensing": "yes"
            },
            "geometry": {
                "type": "Point",
                "coordinates": [
                    23.778925197595232,
                    53.26597109940415
                ]
            }
        },
        {
            "type": "Feature",
            "properties": {
                "ref:csioz": 1230820,
                "name": "Punkt Apteczny Verbena",
                "addr:street": "Szkolna",
                "addr:housenumber": "4",
                "addr:city": "Szudziałowo",
                "addr:postcode": "16-113",
                "amenity": "pharmacy",
                "dispensing": "yes"
            },
            "geometry": {
                "type": "Point",
                "coordinates": [
                    23.656386154313665,
                    53.299933103543424
                ]
            }
        },
        {
            "type": "Feature",
            "properties": {
                "ref:csioz": 1015142,
                "name": "Melisa",
                "addr:street": "Parkowa",
                "addr:housenumber": "2",
                "addr:city": "Janów",
                "addr:postcode": "16-130",
                "amenity": "pharmacy",
                "dispensing": "yes"
            },
            "geometry": {
                "type": "Point",
                "coordinates": [
                    23.229858275982192,
                    53.46878567923183
                ]
            }
        },
        {
            "type": "Feature",
            "properties": {
                "ref:csioz": 1015393,
                "addr:street": "Sokólska",
                "addr:housenumber": "41",
                "addr:city": "Kuźnica",
                "addr:postcode": "16-123",
                "amenity": "pharmacy",
                "dispensing": "yes"
            },
            "geometry": {
                "type": "Point",
                "coordinates": [
                    23.643102711763895,
                    53.50977100609237
                ]
            }
        },
        {
            "type": "Feature",
            "properties": {
                "ref:csioz": 1019451,
                "name": "Apteka Dbam O Zdrowie",
                "addr:street": "Kościuszki",
                "addr:housenumber": "17",
                "addr:city": "Sokółka",
                "addr:postcode": "16-100",
                "amenity": "pharmacy",
                "dispensing": "yes"
            },
            "geometry": {
                "type": "Point",
                "coordinates": [
                    23.49446772081505,
                    53.405204401908904
                ]
            }
        },
        {
            "type": "Feature",
            "properties": {
                "ref:csioz": 1020120,
                "name": "Melissa",
                "addr:street": "Grodzieńska",
                "addr:housenumber": "78",
                "addr:city": "Sokółka",
                "addr:postcode": "16-100",
                "amenity": "pharmacy",
                "dispensing": "yes"
            },
            "geometry": {
                "type": "Point",
                "coordinates": [
                    23.505393182278073,
                    53.40653826010395
                ]
            }
        },
        {
            "type": "Feature",
            "properties": {
                "ref:csioz": 1020268,
                "name": "Apteka Na Białostockiej Nowa Farmacja",
                "addr:street": "Białostocka",
                "addr:housenumber": "8",
                "addr:city": "Sokółka",
                "addr:postcode": "16-100",
                "amenity": "pharmacy",
                "dispensing": "yes"
            },
            "geometry": {
                "type": "Point",
                "coordinates": [
                    23.494253000099047,
                    53.40468800002108
                ]
            }
        },
        {
            "type": "Feature",
            "properties": {
                "ref:csioz": 1171321,
                "name": "Melissa",
                "addr:street": "gen. Władysława Sikorskiego",
                "addr:housenumber": "40",
                "addr:city": "Sokółka",
                "addr:postcode": "16-100",
                "amenity": "pharmacy",
                "dispensing": "yes"
            },
            "geometry": {
                "type": "Point",
                "coordinates": [
                    23.4849884445695,
                    53.40749633656798
                ]
            }
        },
        {
            "type": "Feature",
            "properties": {
                "ref:csioz": 1187179,
                "name": "Pharmacia",
                "addr:street": "Białostocka",
                "addr:housenumber": "128",
                "addr:city": "Sokółka",
                "addr:postcode": "16-100",
                "amenity": "pharmacy",
                "dispensing": "yes"
            },
            "geometry": {
                "type": "Point",
                "coordinates": [
                    23.486991067598815,
                    53.40207915626154
                ]
            }
        },
        {
            "type": "Feature",
            "properties": {
                "ref:csioz": 1195692,
                "name": "Apteka Bliska Samoobsługowa",
                "addr:street": "Tadeusza Kościuszki",
                "addr:housenumber": "3",
                "addr:city": "Dąbrowa Białostocka",
                "addr:postcode": "16-200",
                "amenity": "pharmacy",
                "dispensing": "yes"
            },
            "geometry": {
                "type": "Point",
                "coordinates": [
                    23.34963325410961,
                    53.653789122904335
                ]
            }
        },
        {
            "type": "Feature",
            "properties": {
                "ref:csioz": 1017069,
                "name": "Sokrates",
                "addr:street": "Plac Kościuszki",
                "addr:housenumber": "2",
                "addr:city": "Suchowola",
                "addr:postcode": "16-150",
                "amenity": "pharmacy",
                "dispensing": "yes"
            },
            "geometry": {
                "type": "Point",
                "coordinates": [
                    23.10563150720518,
                    53.578230106942016
                ]
            }
        },
        {
            "type": "Feature",
            "properties": {
                "ref:csioz": 1022720,
                "name": "\"Apteka Cef@Rm 36,6\"",
                "addr:street": "1 Maja",
                "addr:housenumber": "17",
                "addr:city": "Sokółka",
                "addr:postcode": "16-100",
                "amenity": "pharmacy",
                "dispensing": "yes"
            },
            "geometry": {
                "type": "Point",
                "coordinates": [
                    23.49477661534691,
                    53.404082517161385
                ]
            }
        },
        {
            "type": "Feature",
            "properties": {
                "ref:csioz": 1022748,
                "name": "\"Apteka Cef@Rm 36,6\"",
                "addr:street": "Tadeusza Kościuszki",
                "addr:housenumber": "6",
                "addr:city": "Dąbrowa Białostocka",
                "addr:postcode": "16-200",
                "amenity": "pharmacy",
                "dispensing": "yes"
            },
            "geometry": {
                "type": "Point",
                "coordinates": [
                    23.349953098255167,
                    53.654294213081954
                ]
            }
        },
        {
            "type": "Feature",
            "properties": {
                "ref:csioz": 1023145,
                "addr:street": "Plac Kościuszki",
                "addr:housenumber": "24",
                "addr:city": "Suchowola",
                "addr:postcode": "16-150",
                "amenity": "pharmacy",
                "dispensing": "yes"
            },
            "geometry": {
                "type": "Point",
                "coordinates": [
                    23.10743322765577,
                    53.57738053982687
                ]
            }
        },
        {
            "type": "Feature",
            "properties": {
                "ref:csioz": 1024400,
                "name": "Dr. Max",
                "addr:street": "Grodzieńska",
                "addr:housenumber": "6A",
                "addr:city": "Sokółka",
                "addr:postcode": "16-100",
                "amenity": "pharmacy",
                "dispensing": "yes"
            },
            "geometry": {
                "type": "Point",
                "coordinates": [
                    23.498092246938462,
                    53.40554132348815
                ]
            }
        },
        {
            "type": "Feature",
            "properties": {
                "ref:csioz": 1024789,
                "addr:street": "gen. Władysława Sikorskiego",
                "addr:housenumber": "3",
                "addr:city": "Sokółka",
                "addr:postcode": "16-100",
                "amenity": "pharmacy",
                "dispensing": "yes"
            },
            "geometry": {
                "type": "Point",
                "coordinates": [
                    23.50046674202218,
                    53.40963091807942
                ]
            }
        },
        {
            "type": "Feature",
            "properties": {
                "ref:csioz": 1112736,
                "name": "Aspirynka",
                "addr:street": "Sokólska",
                "addr:housenumber": "24",
                "addr:city": "Kuźnica",
                "addr:postcode": "16-123",
                "amenity": "pharmacy",
                "dispensing": "yes"
            },
            "geometry": {
                "type": "Point",
                "coordinates": [
                    23.643786004932405,
                    53.51121800773683
                ]
            }
        },
        {
            "type": "Feature",
            "properties": {
                "ref:csioz": 1112757,
                "name": "Aspirynka Plus",
                "addr:street": "Rynek",
                "addr:housenumber": "1",
                "addr:city": "Sidra",
                "addr:postcode": "16-124",
                "amenity": "pharmacy",
                "dispensing": "yes"
            },
            "geometry": {
                "type": "Point",
                "coordinates": [
                    23.449218060573887,
                    53.55268156871235
                ]
            }
        },
        {
            "type": "Feature",
            "properties": {
                "ref:csioz": 1122749,
                "name": "Apteka Aloes",
                "addr:street": "Parkowa",
                "addr:housenumber": "9A",
                "addr:city": "Janów",
                "addr:postcode": "16-130",
                "amenity": "pharmacy",
                "dispensing": "yes"
            },
            "geometry": {
                "type": "Point",
                "coordinates": [
                    23.22933040706587,
                    53.47064277693322
                ]
            }
        },
        {
            "type": "Feature",
            "properties": {
                "ref:csioz": 1138712,
                "addr:street": "gen. Władysława Sikorskiego",
                "addr:housenumber": "40",
                "addr:city": "Sokółka",
                "addr:postcode": "16-100",
                "amenity": "pharmacy",
                "dispensing": "yes"
            },
            "geometry": {
                "type": "Point",
                "coordinates": [
                    23.4849884445695,
                    53.40749633656798
                ]
            }
        },
        {
            "type": "Feature",
            "properties": {
                "ref:csioz": 1138785,
                "addr:street": "Marii Skłodowskiej-Curie",
                "addr:housenumber": "15",
                "addr:city": "Dąbrowa Białostocka",
                "addr:postcode": "16-200",
                "amenity": "pharmacy",
                "dispensing": "yes"
            },
            "geometry": {
                "type": "Point",
                "coordinates": [
                    23.349630526034016,
                    53.657542128949935
                ]
            }
        },
        {
            "type": "Feature",
            "properties": {
                "ref:csioz": 1192204,
                "name": "Twoja Apteka",
                "addr:street": "Hugona Kołłątaja",
                "addr:housenumber": "5",
                "addr:city": "Dąbrowa Białostocka",
                "addr:postcode": "16-200",
                "amenity": "pharmacy",
                "dispensing": "yes"
            },
            "geometry": {
                "type": "Point",
                "coordinates": [
                    23.34795167672219,
                    53.6559713149877
                ]
            }
        },
        {
            "type": "Feature",
            "properties": {
                "ref:csioz": 1212016,
                "name": "\"Apteka 'Arnika'\"",
                "addr:street": "Zielone",
                "addr:housenumber": "3",
                "addr:city": "Sokółka",
                "addr:postcode": "16-100",
                "amenity": "pharmacy",
                "dispensing": "yes"
            },
            "geometry": {
                "type": "Point",
                "coordinates": [
                    23.521537291670075,
                    53.39782457816362
                ]
            }
        },
        {
            "type": "Feature",
            "properties": {
                "ref:csioz": 1216747,
                "name": "\"Apteka 'Aloes' Marta Siemieniuk\"",
                "addr:street": "Rynek",
                "addr:housenumber": "9",
                "addr:city": "Korycin",
                "addr:postcode": "16-140",
                "amenity": "pharmacy",
                "dispensing": "yes"
            },
            "geometry": {
                "type": "Point",
                "coordinates": [
                    23.091539033963112,
                    53.444148898854365
                ]
            }
        },
        {
            "type": "Feature",
            "properties": {
                "ref:csioz": 1221639,
                "name": "Twój Punkt Apteczny",
                "addr:street": "Kościelna",
                "addr:housenumber": "1",
                "addr:city": "Nowy Dwór",
                "addr:postcode": "16-205",
                "amenity": "pharmacy",
                "dispensing": "yes"
            },
            "geometry": {
                "type": "Point",
                "coordinates": [
                    23.54122506769176,
                    53.63172483695255
                ]
            }
        },
        {
            "type": "Feature",
            "properties": {
                "ref:csioz": 1221815,
                "name": "Zdrówko",
                "addr:street": "Sokólska",
                "addr:housenumber": "26",
                "addr:city": "Kuźnica",
                "addr:postcode": "16-123",
                "amenity": "pharmacy",
                "dispensing": "yes"
            },
            "geometry": {
                "type": "Point",
                "coordinates": [
                    23.6432570484896,
                    53.51064269720354
                ]
            }
        },
        {
            "type": "Feature",
            "properties": {
                "ref:csioz": 1021929,
                "name": "\"Apteka \"\"Melissa\"\" S.C. A. Piasecka S. Piasecki\"",
                "addr:street": "marsz. Józefa Piłsudskiego",
                "addr:housenumber": "9A",
                "addr:city": "Sokółka",
                "addr:postcode": "16-100",
                "amenity": "pharmacy",
                "dispensing": "yes"
            },
            "geometry": {
                "type": "Point",
                "coordinates": [
                    23.494418165442024,
                    53.40894602724055
                ]
            }
        },
        {
            "type": "Feature",
            "properties": {
                "ref:csioz": 1019519,
                "name": "\"Apteka \"\"Vita\"\" S.C.\"",
                "addr:street": "Rynek",
                "addr:housenumber": "12",
                "addr:city": "Korycin",
                "addr:postcode": "16-140",
                "amenity": "pharmacy",
                "dispensing": "yes"
            },
            "geometry": {
                "type": "Point",
                "coordinates": [
                    23.0906291136511,
                    53.44410829407185
                ]
            }
        }
    ]
}