{
    "type": "FeatureCollection",
    "name": "JPT_KOD_JE_1808",
    "features": [
        {
            "type": "Feature",
            "properties": {
                "ref:csioz": 1138263,
                "name": "Apteka Szpitalna Spzoz",
                "addr:street": "Leśna",
                "addr:housenumber": "22",
                "addr:city": "Leżajsk",
                "addr:postcode": "37-300",
                "amenity": "pharmacy"
            },
            "geometry": {
                "type": "Point",
                "coordinates": [
                    22.40148182445639,
                    50.27182913712933
                ]
            }
        },
        {
            "type": "Feature",
            "properties": {
                "ref:csioz": 1145274,
                "addr:street": "Tadeusza Kościuszki",
                "addr:housenumber": "37",
                "addr:city": "Nowa Sarzyna",
                "addr:postcode": "37-310",
                "amenity": "pharmacy"
            },
            "geometry": {
                "type": "Point",
                "coordinates": [
                    22.336806867150315,
                    50.33347311886778
                ]
            }
        },
        {
            "type": "Feature",
            "properties": {
                "ref:csioz": 1164532,
                "name": "Leżajska",
                "addr:street": "Adama Mickiewicza",
                "addr:housenumber": "78",
                "addr:city": "Leżajsk",
                "addr:postcode": "37-300",
                "amenity": "pharmacy"
            },
            "geometry": {
                "type": "Point",
                "coordinates": [
                    22.417841952769603,
                    50.263468830895484
                ]
            }
        },
        {
            "type": "Feature",
            "properties": {
                "ref:csioz": 1187323,
                "name": "Apteka Lafarma",
                "addr:street": "1 Maja",
                "addr:housenumber": "7",
                "addr:city": "Nowa Sarzyna",
                "addr:postcode": "37-310",
                "amenity": "pharmacy"
            },
            "geometry": {
                "type": "Point",
                "coordinates": [
                    22.34334842308426,
                    50.31994145696851
                ]
            }
        },
        {
            "type": "Feature",
            "properties": {
                "ref:csioz": 1209954,
                "addr:housenumber": "387",
                "addr:postcode": "37-300",
                "amenity": "pharmacy",
                "addr:place": "Wierzawice"
            },
            "geometry": {
                "type": "Point",
                "coordinates": [
                    22.451644845203653,
                    50.23558701860035
                ]
            }
        },
        {
            "type": "Feature",
            "properties": {
                "ref:csioz": 1145154,
                "addr:street": "Leśna",
                "addr:housenumber": "11A",
                "addr:city": "Leżajsk",
                "addr:postcode": "37-300",
                "amenity": "pharmacy"
            },
            "geometry": {
                "type": "Point",
                "coordinates": [
                    22.3995110000401,
                    50.27140400001324
                ]
            }
        },
        {
            "type": "Feature",
            "properties": {
                "ref:csioz": 1145165,
                "name": "Apteka Prywatna",
                "addr:street": "Marii Curie-Skłodowskiej",
                "addr:housenumber": "4B",
                "addr:city": "Leżajsk",
                "addr:postcode": "37-300",
                "amenity": "pharmacy"
            },
            "geometry": {
                "type": "Point",
                "coordinates": [
                    22.415007627775182,
                    50.261256797267066
                ]
            }
        },
        {
            "type": "Feature",
            "properties": {
                "ref:csioz": 1145230,
                "addr:housenumber": "530A",
                "addr:postcode": "37-303",
                "amenity": "pharmacy",
                "addr:place": "Kuryłówka"
            },
            "geometry": {
                "type": "Point",
                "coordinates": [
                    22.46843610683521,
                    50.29954537902904
                ]
            }
        },
        {
            "type": "Feature",
            "properties": {
                "ref:csioz": 1145249,
                "name": "Apteka Pod Gwiazdą",
                "addr:street": "Azalii Pontyjskiej",
                "addr:housenumber": "2A",
                "addr:city": "Nowa Sarzyna",
                "addr:postcode": "37-310",
                "amenity": "pharmacy"
            },
            "geometry": {
                "type": "Point",
                "coordinates": [
                    22.345360000036752,
                    50.31821900001327
                ]
            }
        },
        {
            "type": "Feature",
            "properties": {
                "ref:csioz": 1145133,
                "name": "\"Apteka \"\"Pod Klasztorem\"\"\"",
                "addr:street": "Klasztorna",
                "addr:housenumber": "2D",
                "addr:city": "Leżajsk",
                "addr:postcode": "37-300",
                "amenity": "pharmacy"
            },
            "geometry": {
                "type": "Point",
                "coordinates": [
                    22.410915619751755,
                    50.26879274949915
                ]
            }
        },
        {
            "type": "Feature",
            "properties": {
                "ref:csioz": 1145263,
                "name": "Apteka Szwajcarska",
                "addr:street": "Marii Konopnickiej",
                "addr:housenumber": "4",
                "addr:city": "Nowa Sarzyna",
                "addr:postcode": "37-310",
                "amenity": "pharmacy"
            },
            "geometry": {
                "type": "Point",
                "coordinates": [
                    22.340194504006444,
                    50.3176949990626
                ]
            }
        },
        {
            "type": "Feature",
            "properties": {
                "ref:csioz": 1145198,
                "name": "Apteka Pod Kasztanami",
                "addr:street": "Adama Mickiewicza",
                "addr:housenumber": "66",
                "addr:city": "Leżajsk",
                "addr:postcode": "37-300",
                "amenity": "pharmacy"
            },
            "geometry": {
                "type": "Point",
                "coordinates": [
                    22.419530057055205,
                    50.261607027690246
                ]
            }
        },
        {
            "type": "Feature",
            "properties": {
                "ref:csioz": 1145179,
                "name": "Pod Gwiazdą",
                "addr:street": "Adama Mickiewicza",
                "addr:housenumber": "22",
                "addr:city": "Leżajsk",
                "addr:postcode": "37-300",
                "amenity": "pharmacy"
            },
            "geometry": {
                "type": "Point",
                "coordinates": [
                    22.42176454569972,
                    50.25515125477366
                ]
            }
        },
        {
            "type": "Feature",
            "properties": {
                "ref:csioz": 1145140,
                "name": "Apteka Szwajcarska",
                "addr:street": "Kopernika",
                "addr:housenumber": "5A",
                "addr:city": "Leżajsk",
                "addr:postcode": "37-300",
                "amenity": "pharmacy"
            },
            "geometry": {
                "type": "Point",
                "coordinates": [
                    22.416658582004523,
                    50.26098949915896
                ]
            }
        },
        {
            "type": "Feature",
            "properties": {
                "ref:csioz": 1166432,
                "name": "Miła",
                "addr:housenumber": "208",
                "addr:postcode": "37-310",
                "amenity": "pharmacy",
                "addr:place": "Sarzyna"
            },
            "geometry": {
                "type": "Point",
                "coordinates": [
                    22.34710979361239,
                    50.34535517939239
                ]
            }
        },
        {
            "type": "Feature",
            "properties": {
                "ref:csioz": 1171466,
                "name": "Apteka Z Sercem",
                "addr:street": "Podleśna",
                "addr:housenumber": "27",
                "addr:city": "Leżajsk",
                "addr:postcode": "37-300",
                "amenity": "pharmacy"
            },
            "geometry": {
                "type": "Point",
                "coordinates": [
                    22.404668076110365,
                    50.269252135761015
                ]
            }
        },
        {
            "type": "Feature",
            "properties": {
                "ref:csioz": 1181609,
                "name": "Apteka Rodzinna",
                "addr:housenumber": "125C",
                "addr:postcode": "37-306",
                "amenity": "pharmacy",
                "addr:place": "Grodzisko Dolne"
            },
            "geometry": {
                "type": "Point",
                "coordinates": [
                    22.466950371671622,
                    50.16136182801494
                ]
            }
        },
        {
            "type": "Feature",
            "properties": {
                "ref:csioz": 1189682,
                "addr:housenumber": "482",
                "addr:postcode": "37-307",
                "amenity": "pharmacy",
                "addr:place": "Brzóza Królewska"
            },
            "geometry": {
                "type": "Point",
                "coordinates": [
                    22.32171358784776,
                    50.24288336084211
                ]
            }
        },
        {
            "type": "Feature",
            "properties": {
                "ref:csioz": 1213134,
                "addr:street": "Hugo Kołłątaja",
                "addr:housenumber": "1",
                "addr:city": "Leżajsk",
                "addr:postcode": "37-300",
                "amenity": "pharmacy"
            },
            "geometry": {
                "type": "Point",
                "coordinates": [
                    22.418943624191485,
                    50.25798625418117
                ]
            }
        },
        {
            "type": "Feature",
            "properties": {
                "ref:csioz": 1219374,
                "name": "Różana",
                "addr:street": "Adama Mickiewicza",
                "addr:housenumber": "11",
                "addr:city": "Leżajsk",
                "addr:postcode": "37-300",
                "amenity": "pharmacy"
            },
            "geometry": {
                "type": "Point",
                "coordinates": [
                    22.42174386236646,
                    50.254154204098185
                ]
            }
        },
        {
            "type": "Feature",
            "properties": {
                "ref:csioz": 1221127,
                "addr:housenumber": "338",
                "addr:postcode": "37-300",
                "amenity": "pharmacy",
                "addr:place": "Giedlarowa"
            },
            "geometry": {
                "type": "Point",
                "coordinates": [
                    22.401029842050615,
                    50.22652351882052
                ]
            }
        },
        {
            "type": "Feature",
            "properties": {
                "ref:csioz": 1145187,
                "name": "Dr.Max",
                "addr:street": "Adama Mickiewicza",
                "addr:housenumber": "57",
                "addr:city": "Leżajsk",
                "addr:postcode": "37-300",
                "amenity": "pharmacy"
            },
            "geometry": {
                "type": "Point",
                "coordinates": [
                    22.419580773258954,
                    50.260195438007614
                ]
            }
        },
        {
            "type": "Feature",
            "properties": {
                "ref:csioz": 1145225,
                "name": "Berberis",
                "addr:housenumber": "126G",
                "addr:postcode": "37-306",
                "amenity": "pharmacy",
                "addr:place": "Grodzisko Dolne"
            },
            "geometry": {
                "type": "Point",
                "coordinates": [
                    22.464155036882644,
                    50.16125277300779
                ]
            }
        },
        {
            "type": "Feature",
            "properties": {
                "ref:csioz": 1145217,
                "name": "\"Apteka \"\"Zdravila\"\"\"",
                "addr:street": "Rynek",
                "addr:housenumber": "23",
                "addr:city": "Leżajsk",
                "addr:postcode": "37-300",
                "amenity": "pharmacy"
            },
            "geometry": {
                "type": "Point",
                "coordinates": [
                    22.422956905345252,
                    50.25262473589333
                ]
            }
        },
        {
            "type": "Feature",
            "properties": {
                "ref:csioz": 1230776,
                "addr:housenumber": "110",
                "addr:postcode": "37-300",
                "amenity": "pharmacy",
                "addr:place": "PISKOROWICE"
            },
            "geometry": {
                "type": "Point",
                "coordinates": [
                    22.528145872243538,
                    50.23538947971762
                ]
            }
        },
        {
            "type": "Feature",
            "properties": {
                "ref:csioz": 1125603,
                "addr:housenumber": "310A",
                "addr:flats": "2",
                "addr:postcode": "37-051",
                "amenity": "pharmacy",
                "addr:place": "Łętownia"
            },
            "geometry": {
                "type": "Point",
                "coordinates": [
                    22.23450445360087,
                    50.32486161419796
                ]
            }
        },
        {
            "type": "Feature",
            "properties": {
                "ref:csioz": 1145296,
                "addr:housenumber": "147C",
                "addr:postcode": "37-311",
                "amenity": "pharmacy",
                "addr:place": "Wola Zarczycka"
            },
            "geometry": {
                "type": "Point",
                "coordinates": [
                    22.246592620081636,
                    50.29201093396461
                ]
            }
        },
        {
            "type": "Feature",
            "properties": {
                "ref:csioz": 1223139,
                "name": "Wolańska",
                "addr:housenumber": "405 E",
                "addr:postcode": "37-310",
                "amenity": "pharmacy",
                "addr:place": "Wola Zarczycka"
            },
            "geometry": {
                "type": "Point",
                "coordinates": [
                    22.24974622293644,
                    50.29082943541592
                ]
            }
        }
    ]
}