{
    "type": "FeatureCollection",
    "name": "JPT_KOD_JE_1425",
    "features": [
        {
            "type": "Feature",
            "properties": {
                "ref:csioz": 1118921,
                "name": "Przyjazna",
                "addr:street": "Adama Mickiewicza",
                "addr:housenumber": "4",
                "addr:city": "Pionki",
                "addr:postcode": "26-670",
                "amenity": "pharmacy"
            },
            "geometry": {
                "type": "Point",
                "coordinates": [
                    21.446485940782804,
                    51.476606759798024
                ]
            }
        },
        {
            "type": "Feature",
            "properties": {
                "ref:csioz": 1095892,
                "addr:street": "Niepodległości",
                "addr:housenumber": "2C",
                "addr:city": "Pionki",
                "addr:postcode": "26-670",
                "amenity": "pharmacy"
            },
            "geometry": {
                "type": "Point",
                "coordinates": [
                    21.444822765474722,
                    51.47447031860437
                ]
            }
        },
        {
            "type": "Feature",
            "properties": {
                "ref:csioz": 1095934,
                "name": "Dbam O Zdrowie",
                "addr:street": "Henryka Sienkiewicza",
                "addr:housenumber": "25",
                "addr:city": "Pionki",
                "addr:postcode": "26-670",
                "amenity": "pharmacy"
            },
            "geometry": {
                "type": "Point",
                "coordinates": [
                    21.44774898290442,
                    51.47773221200255
                ]
            }
        },
        {
            "type": "Feature",
            "properties": {
                "ref:csioz": 1095942,
                "name": "Apteka Codzienna",
                "addr:street": "Henryka Sienkiewicza",
                "addr:housenumber": "36",
                "addr:city": "Pionki",
                "addr:postcode": "26-670",
                "amenity": "pharmacy"
            },
            "geometry": {
                "type": "Point",
                "coordinates": [
                    21.44413626411121,
                    51.47838616500716
                ]
            }
        },
        {
            "type": "Feature",
            "properties": {
                "ref:csioz": 1152954,
                "name": "Apteka Szpitalna",
                "addr:street": "Niepodległości",
                "addr:housenumber": "1",
                "addr:city": "Pionki",
                "addr:postcode": "26-670",
                "amenity": "pharmacy"
            },
            "geometry": {
                "type": "Point",
                "coordinates": [
                    21.444556048142235,
                    51.47507341235199
                ]
            }
        },
        {
            "type": "Feature",
            "properties": {
                "ref:csioz": 1095813,
                "addr:street": "Stanisława Staszica",
                "addr:housenumber": "10",
                "addr:city": "Iłża",
                "addr:postcode": "27-100",
                "amenity": "pharmacy"
            },
            "geometry": {
                "type": "Point",
                "coordinates": [
                    21.233943269013455,
                    51.15912860327195
                ]
            }
        },
        {
            "type": "Feature",
            "properties": {
                "ref:csioz": 1095821,
                "name": "\"Cef@Rm 36,6\"",
                "addr:street": "Jana Kochanowskiego",
                "addr:housenumber": "3",
                "addr:city": "Iłża",
                "addr:postcode": "27-100",
                "amenity": "pharmacy"
            },
            "geometry": {
                "type": "Point",
                "coordinates": [
                    21.235757082561616,
                    51.16335036580194
                ]
            }
        },
        {
            "type": "Feature",
            "properties": {
                "ref:csioz": 1095859,
                "name": "Flos",
                "addr:street": "Warecka",
                "addr:housenumber": "1C",
                "addr:city": "Jedlińsk",
                "addr:postcode": "26-660",
                "amenity": "pharmacy"
            },
            "geometry": {
                "type": "Point",
                "coordinates": [
                    21.12305585266005,
                    51.51324877726384
                ]
            }
        },
        {
            "type": "Feature",
            "properties": {
                "ref:csioz": 1095868,
                "addr:street": "1 Maja",
                "addr:housenumber": "6",
                "addr:city": "Jedlnia-Letnisko",
                "addr:postcode": "26-630",
                "amenity": "pharmacy"
            },
            "geometry": {
                "type": "Point",
                "coordinates": [
                    21.33009557107753,
                    51.43101028258984
                ]
            }
        },
        {
            "type": "Feature",
            "properties": {
                "ref:csioz": 1095876,
                "name": "Doz Apteka. Dbam O Zdrowie",
                "addr:street": "Radomska",
                "addr:housenumber": "49",
                "addr:city": "Jedlnia-Letnisko",
                "addr:postcode": "26-630",
                "amenity": "pharmacy"
            },
            "geometry": {
                "type": "Point",
                "coordinates": [
                    21.342233474516185,
                    51.42922268059447
                ]
            }
        },
        {
            "type": "Feature",
            "properties": {
                "ref:csioz": 1095884,
                "addr:housenumber": "90",
                "addr:postcode": "26-624",
                "amenity": "pharmacy",
                "addr:place": "Kowala-Stępocina"
            },
            "geometry": {
                "type": "Point",
                "coordinates": [
                    21.07232445076579,
                    51.324273803728666
                ]
            }
        },
        {
            "type": "Feature",
            "properties": {
                "ref:csioz": 1096007,
                "addr:street": "Adama Mickiewicza",
                "addr:housenumber": "16",
                "addr:city": "Skaryszew",
                "addr:postcode": "26-640",
                "amenity": "pharmacy"
            },
            "geometry": {
                "type": "Point",
                "coordinates": [
                    21.250358359586166,
                    51.310153773922295
                ]
            }
        },
        {
            "type": "Feature",
            "properties": {
                "ref:csioz": 1096029,
                "addr:street": "Ignacego Krasickiego",
                "addr:housenumber": "28",
                "addr:flats": "5",
                "addr:city": "Wierzbica",
                "addr:postcode": "26-680",
                "amenity": "pharmacy"
            },
            "geometry": {
                "type": "Point",
                "coordinates": [
                    21.068240000003424,
                    51.249011000014335
                ]
            }
        },
        {
            "type": "Feature",
            "properties": {
                "ref:csioz": 1096384,
                "addr:housenumber": "79",
                "addr:postcode": "27-100",
                "amenity": "pharmacy",
                "addr:place": "Jasieniec Iłżecki Górny"
            },
            "geometry": {
                "type": "Point",
                "coordinates": [
                    21.185349561568724,
                    51.11892180224231
                ]
            }
        },
        {
            "type": "Feature",
            "properties": {
                "ref:csioz": 1118889,
                "name": "Farmacja 24",
                "addr:street": "Bodzentyńska",
                "addr:housenumber": "26",
                "addr:city": "Iłża",
                "addr:postcode": "27-100",
                "amenity": "pharmacy"
            },
            "geometry": {
                "type": "Point",
                "coordinates": [
                    21.23378709277456,
                    51.16149233231162
                ]
            }
        },
        {
            "type": "Feature",
            "properties": {
                "ref:csioz": 1152911,
                "name": "Apteka Szpitalna",
                "addr:street": "\"Danuty Siedzikówny \"\"Inki\"\"\"",
                "addr:housenumber": "4",
                "addr:city": "Iłża",
                "addr:postcode": "27-100",
                "amenity": "pharmacy"
            },
            "geometry": {
                "type": "Point",
                "coordinates": [
                    21.233329256965757,
                    51.165418001687854
                ]
            }
        },
        {
            "type": "Feature",
            "properties": {
                "ref:csioz": 1201189,
                "name": "Witamina",
                "addr:street": "Rynek",
                "addr:housenumber": "13",
                "addr:city": "Skaryszew",
                "addr:postcode": "26-640",
                "amenity": "pharmacy"
            },
            "geometry": {
                "type": "Point",
                "coordinates": [
                    21.253616491537688,
                    51.31040326359816
                ]
            }
        },
        {
            "type": "Feature",
            "properties": {
                "ref:csioz": 1095785,
                "addr:street": "Lekarska",
                "addr:housenumber": "4",
                "addr:city": "Gózd",
                "addr:postcode": "36-634",
                "amenity": "pharmacy"
            },
            "geometry": {
                "type": "Point",
                "coordinates": [
                    21.381074415267793,
                    51.376604898558696
                ]
            }
        },
        {
            "type": "Feature",
            "properties": {
                "ref:csioz": 1095916,
                "name": "Nasza",
                "addr:street": "Bohaterów Studzianek",
                "addr:housenumber": "7",
                "addr:city": "Pionki",
                "addr:postcode": "26-670",
                "amenity": "pharmacy"
            },
            "geometry": {
                "type": "Point",
                "coordinates": [
                    21.457830076705406,
                    51.48430025904114
                ]
            }
        },
        {
            "type": "Feature",
            "properties": {
                "ref:csioz": 1095927,
                "name": "Nasza",
                "addr:street": "Konstytucji 3 Maja",
                "addr:housenumber": "1",
                "addr:city": "Pionki",
                "addr:postcode": "26-670",
                "amenity": "pharmacy"
            },
            "geometry": {
                "type": "Point",
                "coordinates": [
                    21.443831924310555,
                    51.47110530444731
                ]
            }
        },
        {
            "type": "Feature",
            "properties": {
                "ref:csioz": 1095969,
                "addr:street": "Warszawska",
                "addr:housenumber": "3",
                "addr:city": "Przytyk",
                "addr:postcode": "26-650",
                "amenity": "pharmacy"
            },
            "geometry": {
                "type": "Point",
                "coordinates": [
                    20.905770482256873,
                    51.46554084802369
                ]
            }
        },
        {
            "type": "Feature",
            "properties": {
                "ref:csioz": 1096041,
                "name": "Wolanów",
                "addr:street": "Radomska",
                "addr:housenumber": "1",
                "addr:city": "Wolanów",
                "addr:postcode": "26-625",
                "amenity": "pharmacy"
            },
            "geometry": {
                "type": "Point",
                "coordinates": [
                    20.97684771136121,
                    51.38145934283753
                ]
            }
        },
        {
            "type": "Feature",
            "properties": {
                "ref:csioz": 1118150,
                "addr:street": "Kościelna",
                "addr:housenumber": "4",
                "addr:city": "Podgajek",
                "addr:postcode": "26-650",
                "amenity": "pharmacy"
            },
            "geometry": {
                "type": "Point",
                "coordinates": [
                    20.903132660910106,
                    51.468327461830754
                ]
            }
        },
        {
            "type": "Feature",
            "properties": {
                "ref:csioz": 1192744,
                "name": "Doz Apteka Dbam O Zdrowie",
                "addr:street": "Adama Mickiewicza",
                "addr:housenumber": "6",
                "addr:city": "Pionki",
                "addr:postcode": "26-670",
                "amenity": "pharmacy"
            },
            "geometry": {
                "type": "Point",
                "coordinates": [
                    21.446473000007114,
                    51.476567000014704
                ]
            }
        },
        {
            "type": "Feature",
            "properties": {
                "ref:csioz": 1195088,
                "name": "Zakrzew Em-Farm Jarosław Stępień",
                "addr:housenumber": "41A",
                "addr:postcode": "26-652",
                "amenity": "pharmacy",
                "addr:place": "Zakrzew"
            },
            "geometry": {
                "type": "Point",
                "coordinates": [
                    20.999553021895764,
                    51.44107144346144
                ]
            }
        },
        {
            "type": "Feature",
            "properties": {
                "ref:csioz": 1212557,
                "name": "Codzienna",
                "addr:street": "dr Anki",
                "addr:housenumber": "16AB",
                "addr:city": "Iłża",
                "addr:postcode": "27-100",
                "amenity": "pharmacy"
            },
            "geometry": {
                "type": "Point",
                "coordinates": [
                    21.233456000004818,
                    51.1687150000142
                ]
            }
        },
        {
            "type": "Feature",
            "properties": {
                "ref:csioz": 1205122,
                "name": "Przyjazna",
                "addr:street": "Radomska",
                "addr:housenumber": "50",
                "addr:city": "Gózd",
                "addr:postcode": "26-634",
                "amenity": "pharmacy"
            },
            "geometry": {
                "type": "Point",
                "coordinates": [
                    21.38223446335975,
                    51.37795582172693
                ]
            }
        },
        {
            "type": "Feature",
            "properties": {
                "ref:csioz": 1208581,
                "name": "Apteka Od Serca",
                "addr:street": "Warecka",
                "addr:housenumber": "11/13",
                "addr:city": "Jedlińsk",
                "addr:postcode": "26-660",
                "amenity": "pharmacy"
            },
            "geometry": {
                "type": "Point",
                "coordinates": [
                    21.121481000003758,
                    51.51165300001474
                ]
            }
        },
        {
            "type": "Feature",
            "properties": {
                "ref:csioz": 1228687,
                "name": "Apteka Martyna Wiącek",
                "addr:street": "Polna",
                "addr:housenumber": "27",
                "addr:city": "Wolanów",
                "addr:postcode": "26-625",
                "amenity": "pharmacy"
            },
            "geometry": {
                "type": "Point",
                "coordinates": [
                    20.97478564461676,
                    51.37608966802639
                ]
            }
        },
        {
            "type": "Feature",
            "properties": {
                "ref:csioz": 1230389,
                "name": "Punkt Apteczny Od Serca",
                "addr:housenumber": "77A",
                "addr:postcode": "26-670",
                "amenity": "pharmacy",
                "addr:place": "Jedlnia"
            },
            "geometry": {
                "type": "Point",
                "coordinates": [
                    21.363288993796733,
                    51.46354907099075
                ]
            }
        }
    ]
}