{
    "type": "FeatureCollection",
    "name": "JPT_KOD_JE_1407",
    "features": [
        {
            "type": "Feature",
            "properties": {
                "ref:csioz": 1188954,
                "addr:street": "Kozienicka",
                "addr:housenumber": "4",
                "addr:city": "Sieciechów",
                "addr:postcode": "26-922",
                "amenity": "pharmacy"
            },
            "geometry": {
                "type": "Point",
                "coordinates": [
                    21.74353492942356,
                    51.540917294264624
                ]
            }
        },
        {
            "type": "Feature",
            "properties": {
                "ref:csioz": 1219923,
                "name": "Punkt Apteczny Rosa",
                "addr:street": "28 Pułku Artylerii Lekkiej",
                "addr:housenumber": "7A",
                "addr:city": "Zajezierze",
                "addr:postcode": "26-922",
                "amenity": "pharmacy"
            },
            "geometry": {
                "type": "Point",
                "coordinates": [
                    21.813772944330122,
                    51.542607239259326
                ]
            }
        },
        {
            "type": "Feature",
            "properties": {
                "ref:csioz": 1094770,
                "addr:street": "Lubelska",
                "addr:housenumber": "20",
                "addr:city": "Gniewoszów",
                "addr:postcode": "26-920",
                "amenity": "pharmacy"
            },
            "geometry": {
                "type": "Point",
                "coordinates": [
                    21.814106186099874,
                    51.47242228225545
                ]
            }
        },
        {
            "type": "Feature",
            "properties": {
                "ref:csioz": 1094743,
                "addr:street": "Jana Kochanowskiego",
                "addr:housenumber": "97A",
                "addr:city": "Garbatka-Letnisko",
                "addr:postcode": "26-930",
                "amenity": "pharmacy"
            },
            "geometry": {
                "type": "Point",
                "coordinates": [
                    21.626265976414782,
                    51.490756525809054
                ]
            }
        },
        {
            "type": "Feature",
            "properties": {
                "ref:csioz": 1192236,
                "name": "Lawenda",
                "addr:street": "Spółdzielcza",
                "addr:housenumber": "2",
                "addr:city": "Garbatka-Letnisko",
                "addr:postcode": "26-930",
                "amenity": "pharmacy"
            },
            "geometry": {
                "type": "Point",
                "coordinates": [
                    21.625261811708253,
                    51.49057809702347
                ]
            }
        },
        {
            "type": "Feature",
            "properties": {
                "ref:csioz": 1229009,
                "name": "Nzoz Ośrodek Readaptacyjny Dla Osób Uzależnionych W Radomiu Filia Nr 2",
                "addr:housenumber": "81A",
                "addr:postcode": "26-930",
                "amenity": "pharmacy",
                "addr:place": "Bogucin"
            },
            "geometry": {
                "type": "Point",
                "coordinates": [
                    21.564858259633894,
                    51.48641736880993
                ]
            }
        },
        {
            "type": "Feature",
            "properties": {
                "ref:csioz": 1094762,
                "addr:street": "Warecka",
                "addr:housenumber": "13",
                "addr:city": "Głowaczów",
                "addr:postcode": "26-903",
                "amenity": "pharmacy"
            },
            "geometry": {
                "type": "Point",
                "coordinates": [
                    21.317285280004405,
                    51.62625123167811
                ]
            }
        },
        {
            "type": "Feature",
            "properties": {
                "ref:csioz": 1094781,
                "addr:street": "Mikołaja Kopernika",
                "addr:housenumber": "7B",
                "addr:flats": "4",
                "addr:city": "Kozienice",
                "addr:postcode": "26-900",
                "amenity": "pharmacy"
            },
            "geometry": {
                "type": "Point",
                "coordinates": [
                    21.53806341347215,
                    51.59099299130597
                ]
            }
        },
        {
            "type": "Feature",
            "properties": {
                "ref:csioz": 1119084,
                "name": "Apteka Codzienna",
                "addr:street": "Nowy Świat",
                "addr:housenumber": "19",
                "addr:city": "Kozienice",
                "addr:postcode": "26-900",
                "amenity": "pharmacy"
            },
            "geometry": {
                "type": "Point",
                "coordinates": [
                    21.55247820105844,
                    51.58101449473275
                ]
            }
        },
        {
            "type": "Feature",
            "properties": {
                "ref:csioz": 1152922,
                "name": "Apteka Szpitalna",
                "addr:street": "Władysława Sikorskiego",
                "addr:housenumber": "10",
                "addr:city": "Kozienice",
                "addr:postcode": "26-900",
                "amenity": "pharmacy"
            },
            "geometry": {
                "type": "Point",
                "coordinates": [
                    21.524711000008153,
                    51.59160400001488
                ]
            }
        },
        {
            "type": "Feature",
            "properties": {
                "ref:csioz": 1201240,
                "addr:street": "Radomska",
                "addr:housenumber": "1",
                "addr:flats": "1",
                "addr:city": "Brzóza",
                "addr:postcode": "26-903",
                "amenity": "pharmacy"
            },
            "geometry": {
                "type": "Point",
                "coordinates": [
                    21.347864603006023,
                    51.597790329374675
                ]
            }
        },
        {
            "type": "Feature",
            "properties": {
                "ref:csioz": 1094797,
                "name": "Apteka Lek Sp. J",
                "addr:street": "Kopernika",
                "addr:housenumber": "8",
                "addr:city": "Kozienice",
                "addr:postcode": "26-900",
                "amenity": "pharmacy"
            },
            "geometry": {
                "type": "Point",
                "coordinates": [
                    21.538714586269037,
                    51.591102732389245
                ]
            }
        },
        {
            "type": "Feature",
            "properties": {
                "ref:csioz": 1094802,
                "addr:street": "Lubelska",
                "addr:housenumber": "6",
                "addr:city": "Kozienice",
                "addr:postcode": "26-900",
                "amenity": "pharmacy"
            },
            "geometry": {
                "type": "Point",
                "coordinates": [
                    21.552290695723784,
                    51.584642489209486
                ]
            }
        },
        {
            "type": "Feature",
            "properties": {
                "ref:csioz": 1094828,
                "name": "Vita",
                "addr:street": "Radomska",
                "addr:housenumber": "30",
                "addr:city": "Kozienice",
                "addr:postcode": "26-900",
                "amenity": "pharmacy"
            },
            "geometry": {
                "type": "Point",
                "coordinates": [
                    21.54861219880239,
                    51.584046427264255
                ]
            }
        },
        {
            "type": "Feature",
            "properties": {
                "ref:csioz": 1094831,
                "addr:street": "Warszawska",
                "addr:housenumber": "6",
                "addr:city": "Kozienice",
                "addr:postcode": "26-900",
                "amenity": "pharmacy"
            },
            "geometry": {
                "type": "Point",
                "coordinates": [
                    21.548917016807106,
                    51.58718289237341
                ]
            }
        },
        {
            "type": "Feature",
            "properties": {
                "ref:csioz": 1094844,
                "name": "Apteka Centrum",
                "addr:street": "Warszawska",
                "addr:housenumber": "9",
                "addr:city": "Kozienice",
                "addr:postcode": "26-900",
                "amenity": "pharmacy"
            },
            "geometry": {
                "type": "Point",
                "coordinates": [
                    21.550083127239915,
                    51.58609626330652
                ]
            }
        },
        {
            "type": "Feature",
            "properties": {
                "ref:csioz": 1094853,
                "name": "Gemini",
                "addr:street": "Warszawska",
                "addr:housenumber": "13",
                "addr:city": "Kozienice",
                "addr:postcode": "26-900",
                "amenity": "pharmacy"
            },
            "geometry": {
                "type": "Point",
                "coordinates": [
                    21.54924073387668,
                    51.58661710200574
                ]
            }
        },
        {
            "type": "Feature",
            "properties": {
                "ref:csioz": 1094866,
                "name": "Plus",
                "addr:street": "Władysława Sikorskiego",
                "addr:housenumber": "10",
                "addr:city": "Kozienice",
                "addr:postcode": "26-900",
                "amenity": "pharmacy"
            },
            "geometry": {
                "type": "Point",
                "coordinates": [
                    21.524711000008153,
                    51.59160400001488
                ]
            }
        },
        {
            "type": "Feature",
            "properties": {
                "ref:csioz": 1098524,
                "name": "Dział Farmacji Szpitalnej",
                "addr:street": "Władysława Sikorskiego",
                "addr:housenumber": "10 Z",
                "addr:city": "Kozienice",
                "addr:postcode": "26-900",
                "amenity": "pharmacy"
            },
            "geometry": {
                "type": "Point",
                "coordinates": [
                    21.524617000008146,
                    51.591594000014865
                ]
            }
        },
        {
            "type": "Feature",
            "properties": {
                "ref:csioz": 1211619,
                "addr:housenumber": "55",
                "addr:flats": "2",
                "addr:postcode": "26-900",
                "amenity": "pharmacy",
                "addr:place": "Świerże Górne"
            },
            "geometry": {
                "type": "Point",
                "coordinates": [
                    21.483361609556454,
                    51.65507695212065
                ]
            }
        },
        {
            "type": "Feature",
            "properties": {
                "ref:csioz": 1230069,
                "name": "Multilek",
                "addr:street": "Warszawska",
                "addr:housenumber": "59D",
                "addr:flats": "3",
                "addr:city": "Kozienice",
                "addr:postcode": "26-900",
                "amenity": "pharmacy"
            },
            "geometry": {
                "type": "Point",
                "coordinates": [
                    21.533197857429464,
                    51.595055987241814
                ]
            }
        },
        {
            "type": "Feature",
            "properties": {
                "ref:csioz": 1096288,
                "addr:housenumber": "18",
                "addr:postcode": "26-914",
                "amenity": "pharmacy",
                "addr:place": "Mniszew"
            },
            "geometry": {
                "type": "Point",
                "coordinates": [
                    21.303896000005274,
                    51.834210000015226
                ]
            }
        },
        {
            "type": "Feature",
            "properties": {
                "ref:csioz": 1096453,
                "addr:street": "Kazimierza Pułaskiego",
                "addr:housenumber": "49",
                "addr:city": "Grabów nad Pilicą",
                "addr:postcode": "26-902",
                "amenity": "pharmacy"
            },
            "geometry": {
                "type": "Point",
                "coordinates": [
                    21.227457958649282,
                    51.72329074503691
                ]
            }
        },
        {
            "type": "Feature",
            "properties": {
                "ref:csioz": 1094877,
                "addr:street": "Klonowa",
                "addr:housenumber": "14A",
                "addr:city": "Magnuszew",
                "addr:postcode": "26-910",
                "amenity": "pharmacy"
            },
            "geometry": {
                "type": "Point",
                "coordinates": [
                    21.38012000000613,
                    51.76071300001512
                ]
            }
        }
    ]
}