{
    "type": "FeatureCollection",
    "name": "JPT_KOD_JE_0804",
    "features": [
        {
            "type": "Feature",
            "properties": {
                "ref:csioz": 1077796,
                "name": "Max",
                "addr:street": "Konstytucji 3 Maja",
                "addr:housenumber": "5",
                "addr:city": "Nowa Sól",
                "addr:postcode": "67-100",
                "amenity": "pharmacy"
            },
            "geometry": {
                "type": "Point",
                "coordinates": [
                    15.696066640606457,
                    51.80330149809407
                ]
            }
        },
        {
            "type": "Feature",
            "properties": {
                "ref:csioz": 1111420,
                "name": "Ardmed",
                "addr:street": "Zielonogórska",
                "addr:housenumber": "59A",
                "addr:city": "Nowa Sól",
                "addr:postcode": "67-100",
                "amenity": "pharmacy"
            },
            "geometry": {
                "type": "Point",
                "coordinates": [
                    15.709414288931088,
                    51.823551620181924
                ]
            }
        },
        {
            "type": "Feature",
            "properties": {
                "ref:csioz": 1148535,
                "name": "\"'Dr. Max'\"",
                "addr:street": "marsz. Józefa Piłsudskiego",
                "addr:housenumber": "10",
                "addr:city": "Nowa Sól",
                "addr:postcode": "67-100",
                "amenity": "pharmacy"
            },
            "geometry": {
                "type": "Point",
                "coordinates": [
                    15.71692459875562,
                    51.80450514446958
                ]
            }
        },
        {
            "type": "Feature",
            "properties": {
                "ref:csioz": 1148543,
                "addr:street": "Wyzwolenia",
                "addr:housenumber": "2",
                "addr:city": "Nowa Sól",
                "addr:postcode": "67-100",
                "amenity": "pharmacy"
            },
            "geometry": {
                "type": "Point",
                "coordinates": [
                    15.717988557531339,
                    51.80160631688566
                ]
            }
        },
        {
            "type": "Feature",
            "properties": {
                "ref:csioz": 1148556,
                "name": "Eskulap",
                "addr:street": "Wyzwolenia",
                "addr:housenumber": "5",
                "addr:city": "Nowa Sól",
                "addr:postcode": "67-100",
                "amenity": "pharmacy"
            },
            "geometry": {
                "type": "Point",
                "coordinates": [
                    15.717173993993027,
                    51.80197192137311
                ]
            }
        },
        {
            "type": "Feature",
            "properties": {
                "ref:csioz": 1148570,
                "name": "Pod Wagą- Rodzinna",
                "addr:street": "Wojska Polskiego",
                "addr:housenumber": "43",
                "addr:city": "Nowa Sól",
                "addr:postcode": "67-100",
                "amenity": "pharmacy"
            },
            "geometry": {
                "type": "Point",
                "coordinates": [
                    15.705974768136437,
                    51.80069187958428
                ]
            }
        },
        {
            "type": "Feature",
            "properties": {
                "ref:csioz": 1150838,
                "addr:street": "Głogowska",
                "addr:housenumber": "22",
                "addr:city": "Siedlisko",
                "addr:postcode": "67-112",
                "amenity": "pharmacy"
            },
            "geometry": {
                "type": "Point",
                "coordinates": [
                    15.81544975596628,
                    51.76916356496227
                ]
            }
        },
        {
            "type": "Feature",
            "properties": {
                "ref:csioz": 1167055,
                "addr:street": "Chałubińskiego",
                "addr:housenumber": "7",
                "addr:city": "Nowa Sól",
                "addr:postcode": "67-100",
                "amenity": "pharmacy"
            },
            "geometry": {
                "type": "Point",
                "coordinates": [
                    15.687707639280559,
                    51.80698800487414
                ]
            }
        },
        {
            "type": "Feature",
            "properties": {
                "ref:csioz": 1180023,
                "name": "Stylowa",
                "addr:street": "marsz. Józefa Piłsudskiego",
                "addr:housenumber": "3",
                "addr:city": "Nowa Sól",
                "addr:postcode": "67-100",
                "amenity": "pharmacy"
            },
            "geometry": {
                "type": "Point",
                "coordinates": [
                    15.716658695132864,
                    51.80427486150385
                ]
            }
        },
        {
            "type": "Feature",
            "properties": {
                "ref:csioz": 1180539,
                "name": "Euro-Apteka",
                "addr:street": "1 Maja",
                "addr:housenumber": "30",
                "addr:city": "Nowa Sól",
                "addr:postcode": "67-100",
                "amenity": "pharmacy"
            },
            "geometry": {
                "type": "Point",
                "coordinates": [
                    15.693373999970998,
                    51.80193600001547
                ]
            }
        },
        {
            "type": "Feature",
            "properties": {
                "ref:csioz": 1181771,
                "name": "Medinet Nowa Sól",
                "addr:street": "Chałubińskiego",
                "addr:housenumber": "7",
                "addr:city": "Nowa Sól",
                "addr:postcode": "67-100",
                "amenity": "pharmacy"
            },
            "geometry": {
                "type": "Point",
                "coordinates": [
                    15.713746049019102,
                    51.82608213223833
                ]
            }
        },
        {
            "type": "Feature",
            "properties": {
                "ref:csioz": 1185653,
                "name": "Dr.Max",
                "addr:street": "Chałubińskiego",
                "addr:housenumber": "2",
                "addr:city": "Nowa Sól",
                "addr:postcode": "67-100",
                "amenity": "pharmacy"
            },
            "geometry": {
                "type": "Point",
                "coordinates": [
                    15.694581952185143,
                    51.80724138654628
                ]
            }
        },
        {
            "type": "Feature",
            "properties": {
                "ref:csioz": 1138821,
                "addr:street": "Rynek",
                "addr:housenumber": "13/14",
                "addr:city": "Bytom Odrzański",
                "addr:postcode": "67-115",
                "amenity": "pharmacy"
            },
            "geometry": {
                "type": "Point",
                "coordinates": [
                    15.827680678263754,
                    51.73083504480632
                ]
            }
        },
        {
            "type": "Feature",
            "properties": {
                "ref:csioz": 1138837,
                "name": "Vita",
                "addr:street": "Rynek",
                "addr:housenumber": "27",
                "addr:city": "Bytom Odrzański",
                "addr:postcode": "67-115",
                "amenity": "pharmacy"
            },
            "geometry": {
                "type": "Point",
                "coordinates": [
                    15.826453833354437,
                    51.730634068501594
                ]
            }
        },
        {
            "type": "Feature",
            "properties": {
                "ref:csioz": 1148607,
                "addr:street": "Piaskowa",
                "addr:housenumber": "3",
                "addr:city": "Nowe Miasteczko",
                "addr:postcode": "67-124",
                "amenity": "pharmacy"
            },
            "geometry": {
                "type": "Point",
                "coordinates": [
                    15.733243859284736,
                    51.68898116057678
                ]
            }
        },
        {
            "type": "Feature",
            "properties": {
                "ref:csioz": 1148200,
                "addr:street": "22 Lipca 1807",
                "addr:housenumber": "5",
                "addr:city": "Kożuchów",
                "addr:postcode": "67-120",
                "amenity": "pharmacy"
            },
            "geometry": {
                "type": "Point",
                "coordinates": [
                    15.606661147833538,
                    51.74534488906519
                ]
            }
        },
        {
            "type": "Feature",
            "properties": {
                "ref:csioz": 1148213,
                "name": "Apteka Od Serca",
                "addr:street": "Legnicka",
                "addr:housenumber": "19",
                "addr:city": "Kożuchów",
                "addr:postcode": "67-120",
                "amenity": "pharmacy"
            },
            "geometry": {
                "type": "Point",
                "coordinates": [
                    15.596541510102,
                    51.74583131665542
                ]
            }
        },
        {
            "type": "Feature",
            "properties": {
                "ref:csioz": 1148237,
                "name": "Apteka Od Serca",
                "addr:street": "Szprotawska",
                "addr:housenumber": "19",
                "addr:city": "Kożuchów",
                "addr:postcode": "67-120",
                "amenity": "pharmacy"
            },
            "geometry": {
                "type": "Point",
                "coordinates": [
                    15.597381785612207,
                    51.741333001974716
                ]
            }
        },
        {
            "type": "Feature",
            "properties": {
                "ref:csioz": 1148451,
                "name": "Ewel",
                "addr:street": "Kupiecka",
                "addr:housenumber": "10",
                "addr:city": "Nowa Sól",
                "addr:postcode": "67-100",
                "amenity": "pharmacy"
            },
            "geometry": {
                "type": "Point",
                "coordinates": [
                    15.711822747209482,
                    51.804322906038365
                ]
            }
        },
        {
            "type": "Feature",
            "properties": {
                "ref:csioz": 1148472,
                "name": "Lubuska",
                "addr:street": "Parafialna",
                "addr:housenumber": "2",
                "addr:city": "Nowa Sól",
                "addr:postcode": "67-100",
                "amenity": "pharmacy"
            },
            "geometry": {
                "type": "Point",
                "coordinates": [
                    15.718376894048243,
                    51.80540010514612
                ]
            }
        },
        {
            "type": "Feature",
            "properties": {
                "ref:csioz": 1148495,
                "addr:street": "Piaskowa",
                "addr:housenumber": "3",
                "addr:city": "Nowa Sól",
                "addr:postcode": "67-100",
                "amenity": "pharmacy"
            },
            "geometry": {
                "type": "Point",
                "coordinates": [
                    15.725339918673615,
                    51.7810828982413
                ]
            }
        },
        {
            "type": "Feature",
            "properties": {
                "ref:csioz": 1148597,
                "name": "Copernicus",
                "addr:street": "Kopernika",
                "addr:housenumber": "2",
                "addr:city": "Nowe Miasteczko",
                "addr:postcode": "67-124",
                "amenity": "pharmacy"
            },
            "geometry": {
                "type": "Point",
                "coordinates": [
                    15.737003481180912,
                    51.687403579755845
                ]
            }
        },
        {
            "type": "Feature",
            "properties": {
                "ref:csioz": 1182406,
                "name": "Ziko Apteka",
                "addr:street": "Staszica",
                "addr:housenumber": "6",
                "addr:flats": "11",
                "addr:city": "Nowa Sól",
                "addr:postcode": "67-100",
                "amenity": "pharmacy"
            },
            "geometry": {
                "type": "Point",
                "coordinates": [
                    15.700468608314065,
                    51.808386730514115
                ]
            }
        },
        {
            "type": "Feature",
            "properties": {
                "ref:csioz": 1183842,
                "name": "Punkt Apteczny Farmacja",
                "addr:street": "Nowa",
                "addr:housenumber": "20",
                "addr:city": "Otyń",
                "addr:postcode": "67-106",
                "amenity": "pharmacy"
            },
            "geometry": {
                "type": "Point",
                "coordinates": [
                    15.707443126832018,
                    51.84197708987485
                ]
            }
        },
        {
            "type": "Feature",
            "properties": {
                "ref:csioz": 1184253,
                "name": "Dział Farmacji Szpitalnej",
                "addr:street": "1 Maja",
                "addr:housenumber": "30",
                "addr:city": "Nowa Sól",
                "addr:postcode": "67-100",
                "amenity": "pharmacy"
            },
            "geometry": {
                "type": "Point",
                "coordinates": [
                    15.714275246096088,
                    51.773801430825564
                ]
            }
        },
        {
            "type": "Feature",
            "properties": {
                "ref:csioz": 1220122,
                "name": "\"Apteka 37,5\"",
                "addr:street": "Kupiecka",
                "addr:housenumber": "1",
                "addr:city": "Nowa Sól",
                "addr:postcode": "67-100",
                "amenity": "pharmacy"
            },
            "geometry": {
                "type": "Point",
                "coordinates": [
                    15.71325252493221,
                    51.8031978210876
                ]
            }
        },
        {
            "type": "Feature",
            "properties": {
                "ref:csioz": 1220624,
                "name": "Juljus",
                "addr:street": "Rynek",
                "addr:housenumber": "13",
                "addr:city": "Nowe Miasteczko",
                "addr:postcode": "67-124",
                "amenity": "pharmacy"
            },
            "geometry": {
                "type": "Point",
                "coordinates": [
                    15.730938999972198,
                    51.6901480000153
                ]
            }
        },
        {
            "type": "Feature",
            "properties": {
                "ref:csioz": 1223775,
                "name": "\"Apteka \"\"Dr. Max\"\"\"",
                "addr:street": "Parkowa",
                "addr:housenumber": "2",
                "addr:city": "Nowa Sól",
                "addr:postcode": "67-100",
                "amenity": "pharmacy"
            },
            "geometry": {
                "type": "Point",
                "coordinates": [
                    15.713470311948186,
                    51.806311170230536
                ]
            }
        },
        {
            "type": "Feature",
            "properties": {
                "ref:csioz": 1148221,
                "name": "Dr. Max",
                "addr:street": "Rynek",
                "addr:housenumber": "16/17",
                "addr:city": "Kożuchów",
                "addr:postcode": "67-120",
                "amenity": "pharmacy"
            },
            "geometry": {
                "type": "Point",
                "coordinates": [
                    15.59494499996627,
                    51.74508200001547
                ]
            }
        },
        {
            "type": "Feature",
            "properties": {
                "ref:csioz": 1199342,
                "name": "\"Apteka \"\"Miód Malina \"\"\"",
                "addr:street": "1 Maja",
                "addr:housenumber": "3M",
                "addr:city": "Nowa Sól",
                "addr:postcode": "67-100",
                "amenity": "pharmacy"
            },
            "geometry": {
                "type": "Point",
                "coordinates": [
                    15.704574454996385,
                    51.798656061162156
                ]
            }
        },
        {
            "type": "Feature",
            "properties": {
                "ref:csioz": 1166826,
                "addr:street": "Krótka",
                "addr:housenumber": "2",
                "addr:city": "Kolsko",
                "addr:postcode": "67-415",
                "amenity": "pharmacy"
            },
            "geometry": {
                "type": "Point",
                "coordinates": [
                    15.966489458204336,
                    51.960574482370546
                ]
            }
        },
        {
            "type": "Feature",
            "properties": {
                "ref:csioz": 1166839,
                "name": "Aminek",
                "addr:street": "Nowosolska",
                "addr:housenumber": "25",
                "addr:city": "Konotop",
                "addr:postcode": "66-134",
                "amenity": "pharmacy"
            },
            "geometry": {
                "type": "Point",
                "coordinates": [
                    15.902103743790496,
                    51.92900572858795
                ]
            }
        },
        {
            "type": "Feature",
            "properties": {
                "ref:csioz": 1166852,
                "name": "Eskulap",
                "addr:housenumber": "26",
                "addr:postcode": "67-108",
                "amenity": "pharmacy",
                "addr:place": "Lubięcin"
            },
            "geometry": {
                "type": "Point",
                "coordinates": [
                    15.881068656172848,
                    51.894649566481135
                ]
            }
        }
    ]
}