{
    "type": "FeatureCollection",
    "name": "JPT_KOD_JE_0412",
    "features": [
        {
            "type": "Feature",
            "properties": {
                "ref:csioz": 1105464,
                "addr:housenumber": "6",
                "addr:postcode": "87-522",
                "amenity": "pharmacy",
                "addr:place": "Ostrowite",
                "dispensing": "yes"
            },
            "geometry": {
                "type": "Point",
                "coordinates": [
                    19.290045399529916,
                    53.066786145573836
                ]
            }
        },
        {
            "type": "Feature",
            "properties": {
                "ref:csioz": 1202775,
                "name": "Rodzinny",
                "addr:housenumber": "20A",
                "addr:postcode": "87-337",
                "amenity": "pharmacy",
                "addr:place": "Wąpielsk",
                "dispensing": "yes"
            },
            "geometry": {
                "type": "Point",
                "coordinates": [
                    19.27724800000011,
                    53.13800300001729
                ]
            }
        },
        {
            "type": "Feature",
            "properties": {
                "ref:csioz": 1102857,
                "name": "Przy Przychodni",
                "addr:street": "Księdza Czesława Lissowskiego",
                "addr:housenumber": "16",
                "addr:city": "Rypin",
                "addr:postcode": "87-500",
                "amenity": "pharmacy",
                "dispensing": "yes"
            },
            "geometry": {
                "type": "Point",
                "coordinates": [
                    19.41710398402907,
                    53.06227742728561
                ]
            }
        },
        {
            "type": "Feature",
            "properties": {
                "ref:csioz": 1104710,
                "name": "Przy Szpitalu",
                "addr:street": "3 Maja",
                "addr:housenumber": "2",
                "addr:city": "Rypin",
                "addr:postcode": "87-500",
                "amenity": "pharmacy",
                "dispensing": "yes"
            },
            "geometry": {
                "type": "Point",
                "coordinates": [
                    19.415902221333358,
                    53.067228339580836
                ]
            }
        },
        {
            "type": "Feature",
            "properties": {
                "ref:csioz": 1105441,
                "addr:housenumber": "44",
                "addr:postcode": "87-515",
                "amenity": "pharmacy",
                "addr:place": "Rogowo",
                "dispensing": "yes"
            },
            "geometry": {
                "type": "Point",
                "coordinates": [
                    19.384574553321023,
                    52.976247586105934
                ]
            }
        },
        {
            "type": "Feature",
            "properties": {
                "ref:csioz": 1105591,
                "name": "Przy Przychodni",
                "addr:housenumber": "137",
                "addr:postcode": "87-510",
                "amenity": "pharmacy",
                "addr:place": "Okalewo",
                "dispensing": "yes"
            },
            "geometry": {
                "type": "Point",
                "coordinates": [
                    19.609715930983974,
                    53.057622407811344
                ]
            }
        },
        {
            "type": "Feature",
            "properties": {
                "ref:csioz": 1200081,
                "name": "Doz Apteka Dbam O Zdrowie",
                "addr:street": "Warszawska",
                "addr:housenumber": "14",
                "addr:city": "Rypin",
                "addr:postcode": "87-500",
                "amenity": "pharmacy",
                "dispensing": "yes"
            },
            "geometry": {
                "type": "Point",
                "coordinates": [
                    19.409695553754982,
                    53.06450387394528
                ]
            }
        },
        {
            "type": "Feature",
            "properties": {
                "ref:csioz": 1104344,
                "name": "Pod Gryfem",
                "addr:street": "Mławska",
                "addr:housenumber": "30",
                "addr:city": "Rypin",
                "addr:postcode": "87-500",
                "amenity": "pharmacy",
                "dispensing": "yes"
            },
            "geometry": {
                "type": "Point",
                "coordinates": [
                    19.417718408162983,
                    53.065517386370686
                ]
            }
        },
        {
            "type": "Feature",
            "properties": {
                "ref:csioz": 1104353,
                "addr:street": "Jana Kilińskiego",
                "addr:housenumber": "7",
                "addr:city": "Rypin",
                "addr:postcode": "87-500",
                "amenity": "pharmacy",
                "dispensing": "yes"
            },
            "geometry": {
                "type": "Point",
                "coordinates": [
                    19.40749300000016,
                    53.06653100001718
                ]
            }
        },
        {
            "type": "Feature",
            "properties": {
                "ref:csioz": 1104366,
                "name": "Pod Łabędziem",
                "addr:street": "Kasztanowa",
                "addr:housenumber": "2",
                "addr:city": "Skrwilno",
                "addr:postcode": "87-510",
                "amenity": "pharmacy",
                "dispensing": "yes"
            },
            "geometry": {
                "type": "Point",
                "coordinates": [
                    19.61833526426208,
                    53.02110500033973
                ]
            }
        },
        {
            "type": "Feature",
            "properties": {
                "ref:csioz": 1104390,
                "name": "Pod Eskulapem",
                "addr:street": "Ogrodowa",
                "addr:housenumber": "36",
                "addr:city": "Rypin",
                "addr:postcode": "87-500",
                "amenity": "pharmacy",
                "dispensing": "yes"
            },
            "geometry": {
                "type": "Point",
                "coordinates": [
                    19.42441290326804,
                    53.06190252022231
                ]
            }
        },
        {
            "type": "Feature",
            "properties": {
                "ref:csioz": 1153501,
                "name": "Apteka Szpitalna Samodzielnego Publicznego Zakładu Opieki Zdrowotnej W Rypinie",
                "addr:street": "3 Maja",
                "addr:housenumber": "2",
                "addr:city": "Rypin",
                "addr:postcode": "87-500",
                "amenity": "pharmacy",
                "dispensing": "yes"
            },
            "geometry": {
                "type": "Point",
                "coordinates": [
                    19.415902221333358,
                    53.067198339580834
                ]
            }
        },
        {
            "type": "Feature",
            "properties": {
                "ref:csioz": 1184679,
                "name": "Apteka Społeczna Na Mławskiej Grupa Nowa Farmacja",
                "addr:street": "Mławska",
                "addr:housenumber": "1E",
                "addr:city": "Rypin",
                "addr:postcode": "87-500",
                "amenity": "pharmacy",
                "dispensing": "yes"
            },
            "geometry": {
                "type": "Point",
                "coordinates": [
                    19.410205015174927,
                    53.06595806464239
                ]
            }
        },
        {
            "type": "Feature",
            "properties": {
                "ref:csioz": 1208508,
                "name": "Doz Apteka. Dbam O Zdrowie. Remedium",
                "addr:street": "ul. Koszarowa",
                "addr:housenumber": "3",
                "addr:city": "Rypin",
                "addr:postcode": "87-500",
                "amenity": "pharmacy",
                "dispensing": "yes"
            },
            "geometry": {
                "type": "Point",
                "coordinates": [
                    19.42219319817629,
                    53.070424990024875
                ]
            }
        }
    ]
}