{
    "type": "FeatureCollection",
    "name": "JPT_KOD_JE_0419",
    "features": [
        {
            "type": "Feature",
            "properties": {
                "ref:csioz": 1099435,
                "name": "Im. Leszka Białego",
                "addr:street": "Rynek",
                "addr:housenumber": "3",
                "addr:city": "Gąsawa",
                "addr:postcode": "88-410",
                "amenity": "pharmacy"
            },
            "geometry": {
                "type": "Point",
                "coordinates": [
                    17.75701164977556,
                    52.76889691836798
                ]
            }
        },
        {
            "type": "Feature",
            "properties": {
                "ref:csioz": 1099536,
                "addr:street": "Tysiąclecia",
                "addr:housenumber": "3",
                "addr:city": "Żnin",
                "addr:postcode": "88-400",
                "amenity": "pharmacy"
            },
            "geometry": {
                "type": "Point",
                "coordinates": [
                    17.717824109018686,
                    52.85177253508528
                ]
            }
        },
        {
            "type": "Feature",
            "properties": {
                "ref:csioz": 1099613,
                "name": "Witaminka",
                "addr:street": "Powstańców Wielkopolskich",
                "addr:housenumber": "24",
                "addr:city": "Rogowo",
                "addr:postcode": "88-420",
                "amenity": "pharmacy"
            },
            "geometry": {
                "type": "Point",
                "coordinates": [
                    17.651979863692322,
                    52.723588025605025
                ]
            }
        },
        {
            "type": "Feature",
            "properties": {
                "ref:csioz": 1100329,
                "name": "Eskulap",
                "addr:street": "Gnieźnieńska",
                "addr:housenumber": "4",
                "addr:city": "Janowiec Wielkopolski",
                "addr:postcode": "88-430",
                "amenity": "pharmacy"
            },
            "geometry": {
                "type": "Point",
                "coordinates": [
                    17.489292676880616,
                    52.754395908239815
                ]
            }
        },
        {
            "type": "Feature",
            "properties": {
                "ref:csioz": 1101995,
                "name": "Apteka Pod Feniksem",
                "addr:street": "Gnieźnieńska",
                "addr:housenumber": "1F",
                "addr:city": "Żnin",
                "addr:postcode": "88-400",
                "amenity": "pharmacy"
            },
            "geometry": {
                "type": "Point",
                "coordinates": [
                    17.740794178073347,
                    52.84651067917474
                ]
            }
        },
        {
            "type": "Feature",
            "properties": {
                "ref:csioz": 1116050,
                "name": "Centrum Zdrowia",
                "addr:street": "Kościuszki",
                "addr:housenumber": "11",
                "addr:city": "Żnin",
                "addr:postcode": "88-400",
                "amenity": "pharmacy"
            },
            "geometry": {
                "type": "Point",
                "coordinates": [
                    17.721892747562677,
                    52.84901622520852
                ]
            }
        },
        {
            "type": "Feature",
            "properties": {
                "ref:csioz": 1169831,
                "name": "Pałuckie Centrum Zdrowia Spółka Z Ograniczoną Odpowiedzialnością",
                "addr:street": "Szpitalna",
                "addr:housenumber": "30",
                "addr:city": "Żnin",
                "addr:postcode": "88-400",
                "amenity": "pharmacy"
            },
            "geometry": {
                "type": "Point",
                "coordinates": [
                    17.717320293000913,
                    52.84679918130602
                ]
            }
        },
        {
            "type": "Feature",
            "properties": {
                "ref:csioz": 1199327,
                "name": "Alba",
                "addr:street": "Wolności",
                "addr:housenumber": "13",
                "addr:city": "Żnin",
                "addr:postcode": "88-400",
                "amenity": "pharmacy"
            },
            "geometry": {
                "type": "Point",
                "coordinates": [
                    17.724331309937767,
                    52.84676732190593
                ]
            }
        },
        {
            "type": "Feature",
            "properties": {
                "ref:csioz": 1099906,
                "name": "Salus",
                "addr:street": "Klemensa Janickiego",
                "addr:housenumber": "4",
                "addr:city": "Żnin",
                "addr:postcode": "88-400",
                "amenity": "pharmacy"
            },
            "geometry": {
                "type": "Point",
                "coordinates": [
                    17.73917787164976,
                    52.84847375997163
                ]
            }
        },
        {
            "type": "Feature",
            "properties": {
                "ref:csioz": 1101052,
                "name": "Nova",
                "addr:street": "Aliantów",
                "addr:housenumber": "1c",
                "addr:city": "Żnin",
                "addr:postcode": "88-400",
                "amenity": "pharmacy"
            },
            "geometry": {
                "type": "Point",
                "coordinates": [
                    17.71703853769706,
                    52.84928161608405
                ]
            }
        },
        {
            "type": "Feature",
            "properties": {
                "ref:csioz": 1123250,
                "name": "Prima",
                "addr:street": "Plac Wolności",
                "addr:housenumber": "5",
                "addr:city": "Janowiec Wielkopolski",
                "addr:postcode": "88-430",
                "amenity": "pharmacy"
            },
            "geometry": {
                "type": "Point",
                "coordinates": [
                    17.488598809654707,
                    52.75706845611408
                ]
            }
        },
        {
            "type": "Feature",
            "properties": {
                "ref:csioz": 1183869,
                "name": "Prima",
                "addr:street": "Aliantów",
                "addr:housenumber": "14B",
                "addr:city": "Żnin",
                "addr:postcode": "88-400",
                "amenity": "pharmacy"
            },
            "geometry": {
                "type": "Point",
                "coordinates": [
                    17.713471653459063,
                    52.84975587475713
                ]
            }
        },
        {
            "type": "Feature",
            "properties": {
                "ref:csioz": 1214612,
                "name": "Apteka Feniks",
                "addr:street": "Żnińska",
                "addr:housenumber": "3",
                "addr:city": "Gąsawa",
                "addr:postcode": "88-410",
                "amenity": "pharmacy"
            },
            "geometry": {
                "type": "Point",
                "coordinates": [
                    17.756254782175706,
                    52.769644260098026
                ]
            }
        },
        {
            "type": "Feature",
            "properties": {
                "ref:csioz": 1216609,
                "name": "Prima",
                "addr:street": "Powstańców Wielkopolskich",
                "addr:housenumber": "23",
                "addr:city": "Rogowo",
                "addr:postcode": "88-420",
                "amenity": "pharmacy"
            },
            "geometry": {
                "type": "Point",
                "coordinates": [
                    17.65160995280362,
                    52.72376298051244
                ]
            }
        },
        {
            "type": "Feature",
            "properties": {
                "ref:csioz": 1221036,
                "name": "Nova 2",
                "addr:street": "700-lecia",
                "addr:housenumber": "32",
                "addr:city": "Żnin",
                "addr:postcode": "88-400",
                "amenity": "pharmacy"
            },
            "geometry": {
                "type": "Point",
                "coordinates": [
                    17.732704086553213,
                    52.84750360810653
                ]
            }
        },
        {
            "type": "Feature",
            "properties": {
                "ref:csioz": 1098990,
                "name": "Apteka Dbam O Zdrowie",
                "addr:street": "Powstańców Wielkopolskich",
                "addr:housenumber": "17",
                "addr:city": "Łabiszyn",
                "addr:postcode": "89-210",
                "amenity": "pharmacy"
            },
            "geometry": {
                "type": "Point",
                "coordinates": [
                    17.911955589388295,
                    52.9516679487688
                ]
            }
        },
        {
            "type": "Feature",
            "properties": {
                "ref:csioz": 1099456,
                "name": "Chirofarm",
                "addr:street": "1 Maja",
                "addr:housenumber": "13",
                "addr:city": "Barcin",
                "addr:postcode": "88-190",
                "amenity": "pharmacy"
            },
            "geometry": {
                "type": "Point",
                "coordinates": [
                    17.9449194575006,
                    52.86428926730419
                ]
            }
        },
        {
            "type": "Feature",
            "properties": {
                "ref:csioz": 1102007,
                "name": "Apteka Na Górce",
                "addr:street": "Artylerzystów",
                "addr:housenumber": "1G",
                "addr:city": "Barcin",
                "addr:postcode": "88-190",
                "amenity": "pharmacy"
            },
            "geometry": {
                "type": "Point",
                "coordinates": [
                    17.940502779258566,
                    52.85470107197375
                ]
            }
        },
        {
            "type": "Feature",
            "properties": {
                "ref:csioz": 1198640,
                "name": "Lawenda",
                "addr:street": "4 Stycznia",
                "addr:housenumber": "43b",
                "addr:city": "Barcin",
                "addr:postcode": "88-190",
                "amenity": "pharmacy"
            },
            "geometry": {
                "type": "Point",
                "coordinates": [
                    17.943199849349458,
                    52.8583282547578
                ]
            }
        },
        {
            "type": "Feature",
            "properties": {
                "ref:csioz": 1099922,
                "name": "Apteka Notecka",
                "addr:street": "Szubińska",
                "addr:housenumber": "6",
                "addr:city": "Łabiszyn",
                "addr:postcode": "89-210",
                "amenity": "pharmacy"
            },
            "geometry": {
                "type": "Point",
                "coordinates": [
                    17.920343790192195,
                    52.95299170573193
                ]
            }
        },
        {
            "type": "Feature",
            "properties": {
                "ref:csioz": 1185769,
                "name": "Doz Apteka Dbam O Zdrowie",
                "addr:street": "11 Listopada",
                "addr:housenumber": "2D",
                "addr:city": "Piechcin",
                "addr:postcode": "88-192",
                "amenity": "pharmacy"
            },
            "geometry": {
                "type": "Point",
                "coordinates": [
                    18.038485999999587,
                    52.820663000016786
                ]
            }
        },
        {
            "type": "Feature",
            "properties": {
                "ref:csioz": 1198588,
                "name": "Apteka Chirofarm Im. Mgr Maksymiliana",
                "addr:street": "Polna",
                "addr:housenumber": "2A",
                "addr:city": "Barcin",
                "addr:postcode": "88-190",
                "amenity": "pharmacy"
            },
            "geometry": {
                "type": "Point",
                "coordinates": [
                    17.941260610015668,
                    52.85823288948195
                ]
            }
        },
        {
            "type": "Feature",
            "properties": {
                "ref:csioz": 1213797,
                "name": "Bliska",
                "addr:street": "Poznańska",
                "addr:housenumber": "22a",
                "addr:city": "Łabiszyn",
                "addr:postcode": "89-210",
                "amenity": "pharmacy"
            },
            "geometry": {
                "type": "Point",
                "coordinates": [
                    17.912563920359283,
                    52.94999787443996
                ]
            }
        }
    ]
}