{
    "type": "FeatureCollection",
    "name": "JPT_KOD_JE_0218",
    "features": [
        {
            "type": "Feature",
            "properties": {
                "ref:csioz": 1135324,
                "name": "\"Punkt Apteczny \"\"Słonecznik\"\"\"",
                "addr:street": "Piastowska",
                "addr:housenumber": "2",
                "addr:city": "Mrozów",
                "addr:postcode": "55-028",
                "amenity": "pharmacy",
                "dispensing": "yes"
            },
            "geometry": {
                "type": "Point",
                "coordinates": [
                    16.784676006178447,
                    51.18937976248118
                ]
            }
        },
        {
            "type": "Feature",
            "properties": {
                "ref:csioz": 1195858,
                "name": "Dział Farmacji Szpitalnej W Zakładzie Opiekuńczo-Leczniczym Dla Dorosłych Prowadzonym Przez Zgromadzenie Sióstr Albertynek Posługujących Ubogim",
                "addr:street": "Zamkowa",
                "addr:housenumber": "1",
                "addr:city": "Mrozów",
                "addr:postcode": "55-330",
                "amenity": "pharmacy",
                "dispensing": "yes"
            },
            "geometry": {
                "type": "Point",
                "coordinates": [
                    16.789931895789323,
                    51.18711850454718
                ]
            }
        },
        {
            "type": "Feature",
            "properties": {
                "ref:csioz": 1220405,
                "name": "Apteka Lutyńska",
                "addr:street": "Kościuszki",
                "addr:housenumber": "43",
                "addr:city": "Lutynia",
                "addr:postcode": "55-330",
                "amenity": "pharmacy",
                "dispensing": "yes"
            },
            "geometry": {
                "type": "Point",
                "coordinates": [
                    16.782026727223514,
                    51.134926570191055
                ]
            }
        },
        {
            "type": "Feature",
            "properties": {
                "ref:csioz": 1211884,
                "name": "Punkt Apteczny Pisarzowicki",
                "addr:street": "Wrocławska",
                "addr:housenumber": "22/3",
                "addr:city": "Pisarzowice",
                "addr:postcode": "55-330",
                "amenity": "pharmacy",
                "dispensing": "yes"
            },
            "geometry": {
                "type": "Point",
                "coordinates": [
                    16.85115699999595,
                    51.20975500001427
                ]
            }
        },
        {
            "type": "Feature",
            "properties": {
                "ref:csioz": 1127781,
                "name": "Melisa",
                "addr:street": "Udanin",
                "addr:housenumber": "21",
                "addr:city": "Udanin",
                "addr:postcode": "59-258",
                "amenity": "pharmacy",
                "dispensing": "yes"
            },
            "geometry": {
                "type": "Point",
                "coordinates": [
                    16.451328999991045,
                    51.03734500001405
                ]
            }
        },
        {
            "type": "Feature",
            "properties": {
                "ref:csioz": 1127530,
                "name": "Apteka Dbam O Zdrowie",
                "addr:street": "Wolności",
                "addr:housenumber": "56",
                "addr:city": "Środa Śląska",
                "addr:postcode": "55-300",
                "amenity": "pharmacy",
                "dispensing": "yes"
            },
            "geometry": {
                "type": "Point",
                "coordinates": [
                    16.595291272736958,
                    51.16343226241867
                ]
            }
        },
        {
            "type": "Feature",
            "properties": {
                "ref:csioz": 1129053,
                "name": "Malwa",
                "addr:street": "Konstytucji 3 Maja",
                "addr:housenumber": "7",
                "addr:city": "Środa Śląska",
                "addr:postcode": "55-300",
                "amenity": "pharmacy",
                "dispensing": "yes"
            },
            "geometry": {
                "type": "Point",
                "coordinates": [
                    16.597388999993278,
                    51.16571900001423
                ]
            }
        },
        {
            "type": "Feature",
            "properties": {
                "ref:csioz": 1130288,
                "name": "Konwalia",
                "addr:street": "Legnicka",
                "addr:housenumber": "26/28",
                "addr:city": "Środa Śląska",
                "addr:postcode": "55-300",
                "amenity": "pharmacy",
                "dispensing": "yes"
            },
            "geometry": {
                "type": "Point",
                "coordinates": [
                    16.585711047068944,
                    51.164094475611726
                ]
            }
        },
        {
            "type": "Feature",
            "properties": {
                "ref:csioz": 1137311,
                "name": "Apteka Nowa",
                "addr:street": "Rynek",
                "addr:housenumber": "12C",
                "addr:city": "Kostomłoty",
                "addr:postcode": "55-311",
                "amenity": "pharmacy",
                "dispensing": "yes"
            },
            "geometry": {
                "type": "Point",
                "coordinates": [
                    16.61341627017658,
                    51.04459706517771
                ]
            }
        },
        {
            "type": "Feature",
            "properties": {
                "ref:csioz": 1160972,
                "name": "Polskie Centrum Zdrowia W Środzie Śląskiej",
                "addr:street": "Kolejowa",
                "addr:housenumber": "16",
                "addr:city": "Środa Śląska",
                "addr:postcode": "55-300",
                "amenity": "pharmacy",
                "dispensing": "yes"
            },
            "geometry": {
                "type": "Point",
                "coordinates": [
                    16.593456065172326,
                    51.166494614713244
                ]
            }
        },
        {
            "type": "Feature",
            "properties": {
                "ref:csioz": 1172930,
                "name": "Pinus",
                "addr:street": "1 Maja",
                "addr:housenumber": "56B",
                "addr:city": "Malczyce",
                "addr:postcode": "55-320",
                "amenity": "pharmacy",
                "dispensing": "yes"
            },
            "geometry": {
                "type": "Point",
                "coordinates": [
                    16.492956999991844,
                    51.218285000014305
                ]
            }
        },
        {
            "type": "Feature",
            "properties": {
                "ref:csioz": 1209366,
                "name": "Centrum",
                "addr:street": "1  Maja",
                "addr:housenumber": "35",
                "addr:city": "Malczyce",
                "addr:postcode": "55-320",
                "amenity": "pharmacy",
                "dispensing": "yes"
            },
            "geometry": {
                "type": "Point",
                "coordinates": [
                    16.493580640417015,
                    51.220127468546934
                ]
            }
        },
        {
            "type": "Feature",
            "properties": {
                "ref:csioz": 1126809,
                "name": "Grodzka",
                "addr:street": "Wolności",
                "addr:housenumber": "34",
                "addr:city": "Środa Śląska",
                "addr:postcode": "55-300",
                "amenity": "pharmacy",
                "dispensing": "yes"
            },
            "geometry": {
                "type": "Point",
                "coordinates": [
                    16.593891274286218,
                    51.16371777520391
                ]
            }
        },
        {
            "type": "Feature",
            "properties": {
                "ref:csioz": 1128604,
                "name": "Apteka Cedrus",
                "addr:street": "Wolności",
                "addr:housenumber": "76",
                "addr:city": "Środa Śląska",
                "addr:postcode": "55-300",
                "amenity": "pharmacy",
                "dispensing": "yes"
            },
            "geometry": {
                "type": "Point",
                "coordinates": [
                    16.596571475360957,
                    51.163275902215936
                ]
            }
        },
        {
            "type": "Feature",
            "properties": {
                "ref:csioz": 1128784,
                "name": "\"'Orchidea'\"",
                "addr:street": "Legnicka",
                "addr:housenumber": "21",
                "addr:city": "Środa Śląska",
                "addr:postcode": "55-300",
                "amenity": "pharmacy",
                "dispensing": "yes"
            },
            "geometry": {
                "type": "Point",
                "coordinates": [
                    16.590236151347227,
                    51.16430976413797
                ]
            }
        },
        {
            "type": "Feature",
            "properties": {
                "ref:csioz": 1201425,
                "name": "Rakoszycki",
                "addr:street": "Średzka",
                "addr:housenumber": "1",
                "addr:city": "Rakoszyce",
                "addr:postcode": "55-330",
                "amenity": "pharmacy",
                "dispensing": "yes"
            },
            "geometry": {
                "type": "Point",
                "coordinates": [
                    16.65254549930777,
                    51.09144181251779
                ]
            }
        },
        {
            "type": "Feature",
            "properties": {
                "ref:csioz": 1211044,
                "name": "Dr. Max",
                "addr:street": "Jana Kilińskiego",
                "addr:housenumber": "26C",
                "addr:city": "Środa Śląska",
                "addr:postcode": "55-300",
                "amenity": "pharmacy",
                "dispensing": "yes"
            },
            "geometry": {
                "type": "Point",
                "coordinates": [
                    16.59700199999328,
                    51.165794000014216
                ]
            }
        },
        {
            "type": "Feature",
            "properties": {
                "ref:csioz": 1205258,
                "name": "\"Apteka \"\"W Rynku\"\"\"",
                "addr:street": "Adama Mickiewicza",
                "addr:housenumber": "1a",
                "addr:city": "Malczyce",
                "addr:postcode": "55-320",
                "amenity": "pharmacy",
                "dispensing": "yes"
            },
            "geometry": {
                "type": "Point",
                "coordinates": [
                    16.473310291819942,
                    51.22434024709402
                ]
            }
        },
        {
            "type": "Feature",
            "properties": {
                "ref:csioz": 1135182,
                "name": "\"Punkt Apteczny \"\"Agat\"\"\"",
                "addr:street": "Średzka",
                "addr:housenumber": "19",
                "addr:city": "Szczepanów",
                "addr:postcode": "55-300",
                "amenity": "pharmacy",
                "dispensing": "yes"
            },
            "geometry": {
                "type": "Point",
                "coordinates": [
                    16.610265625459164,
                    51.200023361945895
                ]
            }
        }
    ]
}