{
    "type": "FeatureCollection",
    "name": "JPT_KOD_JE_0223",
    "features": [
        {
            "type": "Feature",
            "properties": {
                "ref:csioz": 1127406,
                "name": "Malwa",
                "addr:street": "Kolejowa",
                "addr:housenumber": "27",
                "addr:city": "Mietków",
                "addr:postcode": "55-080",
                "amenity": "pharmacy"
            },
            "geometry": {
                "type": "Point",
                "coordinates": [
                    16.650698222476887,
                    50.97867996144106
                ]
            }
        },
        {
            "type": "Feature",
            "properties": {
                "ref:csioz": 1127913,
                "name": "Miła",
                "addr:street": "Kolejowa",
                "addr:housenumber": "15",
                "addr:city": "Siechnice",
                "addr:postcode": "55-011",
                "amenity": "pharmacy"
            },
            "geometry": {
                "type": "Point",
                "coordinates": [
                    17.14080807156904,
                    51.037212232071525
                ]
            }
        },
        {
            "type": "Feature",
            "properties": {
                "ref:csioz": 1128924,
                "name": "Malinowa",
                "addr:street": "Malinowa",
                "addr:housenumber": "2",
                "addr:city": "Kamieniec Wrocławski",
                "addr:postcode": "55-002",
                "amenity": "pharmacy"
            },
            "geometry": {
                "type": "Point",
                "coordinates": [
                    17.17411999999794,
                    51.07844000001406
                ]
            }
        },
        {
            "type": "Feature",
            "properties": {
                "ref:csioz": 1135343,
                "name": "\"Punkt Apteczny \"\"Słoneczny\"\"\"",
                "addr:street": "Trzebnicka",
                "addr:housenumber": "26",
                "addr:city": "Szczodre",
                "addr:postcode": "55-095",
                "amenity": "pharmacy"
            },
            "geometry": {
                "type": "Point",
                "coordinates": [
                    17.182695377217776,
                    51.19438666357983
                ]
            }
        },
        {
            "type": "Feature",
            "properties": {
                "ref:csioz": 1210082,
                "name": "Apteka Zdrowa",
                "addr:street": "Zdrowa",
                "addr:housenumber": "3",
                "addr:city": "Kiełczów",
                "addr:postcode": "55-093",
                "amenity": "pharmacy"
            },
            "geometry": {
                "type": "Point",
                "coordinates": [
                    17.165522410145503,
                    51.141342144588585
                ]
            }
        },
        {
            "type": "Feature",
            "properties": {
                "ref:csioz": 1126867,
                "name": "Pod Modrzewiem",
                "addr:street": "Modrzewiowa",
                "addr:housenumber": "19",
                "addr:city": "Siechnice",
                "addr:postcode": "55-011",
                "amenity": "pharmacy"
            },
            "geometry": {
                "type": "Point",
                "coordinates": [
                    17.152481032243628,
                    51.03025831724242
                ]
            }
        },
        {
            "type": "Feature",
            "properties": {
                "ref:csioz": 1126964,
                "name": "Apteka Pomarańczowa",
                "addr:street": "Władysława Broniewskiego",
                "addr:housenumber": "1",
                "addr:city": "Długołęka",
                "addr:postcode": "55-095",
                "amenity": "pharmacy"
            },
            "geometry": {
                "type": "Point",
                "coordinates": [
                    17.192208518286897,
                    51.17344624003018
                ]
            }
        },
        {
            "type": "Feature",
            "properties": {
                "ref:csioz": 1127214,
                "name": "Kiełczowska",
                "addr:street": "Wilczycka",
                "addr:housenumber": "14",
                "addr:city": "Kiełczów",
                "addr:postcode": "55-093",
                "amenity": "pharmacy"
            },
            "geometry": {
                "type": "Point",
                "coordinates": [
                    17.177201700659946,
                    51.13661969327428
                ]
            }
        },
        {
            "type": "Feature",
            "properties": {
                "ref:csioz": 1136251,
                "name": "Apteka Melisa",
                "addr:street": "Wrocławska",
                "addr:housenumber": "14",
                "addr:city": "Żerniki Wrocławskie",
                "addr:postcode": "55-010",
                "amenity": "pharmacy"
            },
            "geometry": {
                "type": "Point",
                "coordinates": [
                    17.055409388618482,
                    51.032778169734854
                ]
            }
        },
        {
            "type": "Feature",
            "properties": {
                "ref:csioz": 1186766,
                "name": "Farmacja",
                "addr:street": "Adama Asnyka",
                "addr:housenumber": "8",
                "addr:city": "Długołęka",
                "addr:postcode": "55-095",
                "amenity": "pharmacy"
            },
            "geometry": {
                "type": "Point",
                "coordinates": [
                    17.18543330709927,
                    51.17734350220215
                ]
            }
        },
        {
            "type": "Feature",
            "properties": {
                "ref:csioz": 1135207,
                "name": "\"Punkt Apteczny \"\"Kasztanek\"\"\"",
                "addr:street": "Krótka",
                "addr:housenumber": "3",
                "addr:city": "Brzezia Łąka",
                "addr:postcode": "56-405",
                "amenity": "pharmacy"
            },
            "geometry": {
                "type": "Point",
                "coordinates": [
                    17.248973804977748,
                    51.124563700421824
                ]
            }
        },
        {
            "type": "Feature",
            "properties": {
                "ref:csioz": 1212462,
                "name": "Apteka Radwanicka",
                "addr:street": "ul. Kolejowa",
                "addr:housenumber": "3 i 3A",
                "addr:city": "Radwanice",
                "addr:postcode": "55-015",
                "amenity": "pharmacy"
            },
            "geometry": {
                "type": "Point",
                "coordinates": [
                    17.10560820093528,
                    51.05577771307122
                ]
            }
        },
        {
            "type": "Feature",
            "properties": {
                "ref:csioz": 1220876,
                "name": "Wratislavia Vii",
                "addr:street": "Kolejowa",
                "addr:housenumber": "19",
                "addr:city": "Dobrzykowice",
                "addr:postcode": "55-002",
                "amenity": "pharmacy"
            },
            "geometry": {
                "type": "Point",
                "coordinates": [
                    17.189720214393372,
                    51.09271177490631
                ]
            }
        },
        {
            "type": "Feature",
            "properties": {
                "ref:csioz": 1228100,
                "name": "Apteka Czernicka",
                "addr:street": "Wojska Polskiego",
                "addr:housenumber": "9",
                "addr:city": "Czernica",
                "addr:postcode": "55-003",
                "amenity": "pharmacy"
            },
            "geometry": {
                "type": "Point",
                "coordinates": [
                    17.247420523536178,
                    51.048373030129824
                ]
            }
        },
        {
            "type": "Feature",
            "properties": {
                "ref:csioz": 1130538,
                "name": "Apteka W Siedlcu",
                "addr:street": "Osiedlowa",
                "addr:housenumber": "1",
                "addr:city": "Siedlec",
                "addr:postcode": "55-095",
                "amenity": "pharmacy"
            },
            "geometry": {
                "type": "Point",
                "coordinates": [
                    17.122027292206415,
                    51.23370183090647
                ]
            }
        },
        {
            "type": "Feature",
            "properties": {
                "ref:csioz": 1129380,
                "name": "\"Apteka \"\"Kamieniecka\"\"\"",
                "addr:street": "Wrocławska",
                "addr:housenumber": "140",
                "addr:city": "Kamieniec Wrocławski",
                "addr:postcode": "55-002",
                "amenity": "pharmacy"
            },
            "geometry": {
                "type": "Point",
                "coordinates": [
                    17.17263158366669,
                    51.07627244068708
                ]
            }
        },
        {
            "type": "Feature",
            "properties": {
                "ref:csioz": 1127411,
                "name": "\"Apteka Leków Gotowych \"\"Magnolia\"\"\"",
                "addr:street": "Milicka",
                "addr:housenumber": "16",
                "addr:flats": "2",
                "addr:city": "Łozina",
                "addr:postcode": "55-095",
                "amenity": "pharmacy"
            },
            "geometry": {
                "type": "Point",
                "coordinates": [
                    17.18179766212667,
                    51.23470405159893
                ]
            }
        },
        {
            "type": "Feature",
            "properties": {
                "ref:csioz": 1183199,
                "name": "\"Apteka \"\"Ziółko\"\"\"",
                "addr:street": "Jana Pawła II",
                "addr:housenumber": "26",
                "addr:city": "Siechnice",
                "addr:postcode": "55-011",
                "amenity": "pharmacy"
            },
            "geometry": {
                "type": "Point",
                "coordinates": [
                    17.149590999997823,
                    51.032247000013996
                ]
            }
        },
        {
            "type": "Feature",
            "properties": {
                "ref:csioz": 1135985,
                "name": "Apteka Dla Zdrowia",
                "addr:street": "Radosna",
                "addr:housenumber": "6A",
                "addr:city": "Wysoka",
                "addr:postcode": "52-200",
                "amenity": "pharmacy"
            },
            "geometry": {
                "type": "Point",
                "coordinates": [
                    17.000076944541636,
                    51.04925587611542
                ]
            }
        },
        {
            "type": "Feature",
            "properties": {
                "ref:csioz": 1126846,
                "name": "Pod Cedrem",
                "addr:street": "Rynek",
                "addr:housenumber": "15",
                "addr:city": "Kąty Wrocławskie",
                "addr:postcode": "55-080",
                "amenity": "pharmacy"
            },
            "geometry": {
                "type": "Point",
                "coordinates": [
                    16.771919999995188,
                    51.029989000014005
                ]
            }
        },
        {
            "type": "Feature",
            "properties": {
                "ref:csioz": 1127272,
                "name": "\"'Słowiańska'\"",
                "addr:street": "Świdnicka",
                "addr:housenumber": "6",
                "addr:city": "Sobótka",
                "addr:postcode": "55-050",
                "amenity": "pharmacy"
            },
            "geometry": {
                "type": "Point",
                "coordinates": [
                    16.74266499999484,
                    50.89994600001382
                ]
            }
        },
        {
            "type": "Feature",
            "properties": {
                "ref:csioz": 1127332,
                "name": "Gniechowicka",
                "addr:street": "Wrocławska",
                "addr:housenumber": "57",
                "addr:city": "Gniechowice",
                "addr:postcode": "55-042",
                "amenity": "pharmacy"
            },
            "geometry": {
                "type": "Point",
                "coordinates": [
                    16.834615999995744,
                    50.98742700001394
                ]
            }
        },
        {
            "type": "Feature",
            "properties": {
                "ref:csioz": 1129031,
                "name": "Słoneczna",
                "addr:street": "Strzelców",
                "addr:housenumber": "2",
                "addr:city": "Sobótka",
                "addr:postcode": "55-050",
                "amenity": "pharmacy"
            },
            "geometry": {
                "type": "Point",
                "coordinates": [
                    16.735034950737614,
                    50.898565186648604
                ]
            }
        },
        {
            "type": "Feature",
            "properties": {
                "ref:csioz": 1129471,
                "name": "Apteka Dbam O Zdrowie",
                "addr:street": "Zdrowa",
                "addr:housenumber": "6",
                "addr:city": "Wojkowice",
                "addr:postcode": "55-020",
                "amenity": "pharmacy"
            },
            "geometry": {
                "type": "Point",
                "coordinates": [
                    17.07106733594986,
                    50.980516173154314
                ]
            }
        },
        {
            "type": "Feature",
            "properties": {
                "ref:csioz": 1129624,
                "name": "Herba",
                "addr:street": "Żeromskiego",
                "addr:housenumber": "1",
                "addr:city": "Święta Katarzyna",
                "addr:postcode": "55-010",
                "amenity": "pharmacy"
            },
            "geometry": {
                "type": "Point",
                "coordinates": [
                    17.11905107449522,
                    51.02982418396041
                ]
            }
        },
        {
            "type": "Feature",
            "properties": {
                "ref:csioz": 1130156,
                "name": "Apteka Przyjazna",
                "addr:street": "Staszica",
                "addr:housenumber": "20",
                "addr:city": "Kąty Wrocławskie",
                "addr:postcode": "55-080",
                "amenity": "pharmacy"
            },
            "geometry": {
                "type": "Point",
                "coordinates": [
                    16.767520999995146,
                    51.03376600001402
                ]
            }
        },
        {
            "type": "Feature",
            "properties": {
                "ref:csioz": 1165388,
                "name": "Zakład Opiekuńczo Leczniczy Dla Dzieci",
                "addr:street": "Lipowa",
                "addr:housenumber": "44",
                "addr:city": "Wierzbice Wrocławskie",
                "addr:postcode": "55-040",
                "amenity": "pharmacy"
            },
            "geometry": {
                "type": "Point",
                "coordinates": [
                    16.891942901399215,
                    50.95385031944234
                ]
            }
        },
        {
            "type": "Feature",
            "properties": {
                "ref:csioz": 1177239,
                "name": "Apteka Express Pharm Iii",
                "addr:street": "Warszawska",
                "addr:housenumber": "9A",
                "addr:city": "Sobótka",
                "addr:postcode": "55-050",
                "amenity": "pharmacy"
            },
            "geometry": {
                "type": "Point",
                "coordinates": [
                    16.7478899999949,
                    50.89883300001382
                ]
            }
        },
        {
            "type": "Feature",
            "properties": {
                "ref:csioz": 1183990,
                "name": "Przyjazna",
                "addr:street": "Adama Mickiewicza",
                "addr:housenumber": "1A",
                "addr:city": "Sobótka",
                "addr:postcode": "55-050",
                "amenity": "pharmacy"
            },
            "geometry": {
                "type": "Point",
                "coordinates": [
                    16.74633999999488,
                    50.89823800001382
                ]
            }
        },
        {
            "type": "Feature",
            "properties": {
                "ref:csioz": 1126559,
                "name": "Pod Orłem",
                "addr:street": "Robotnicza",
                "addr:housenumber": "12",
                "addr:city": "Kobierzyce",
                "addr:postcode": "55-040",
                "amenity": "pharmacy"
            },
            "geometry": {
                "type": "Point",
                "coordinates": [
                    16.929606982776395,
                    50.97051328484474
                ]
            }
        },
        {
            "type": "Feature",
            "properties": {
                "ref:csioz": 1126993,
                "name": "\"Apteka Cef@Rm 36,6\"",
                "addr:street": "Stanisława Staszica",
                "addr:housenumber": "1b",
                "addr:city": "Kąty Wrocławskie",
                "addr:postcode": "55-080",
                "amenity": "pharmacy"
            },
            "geometry": {
                "type": "Point",
                "coordinates": [
                    16.76605299999513,
                    51.032431000014
                ]
            }
        },
        {
            "type": "Feature",
            "properties": {
                "ref:csioz": 1127004,
                "name": "Pod Jesionem",
                "addr:street": "Urzędnicza",
                "addr:housenumber": "11",
                "addr:city": "Żórawina",
                "addr:postcode": "55-020",
                "amenity": "pharmacy"
            },
            "geometry": {
                "type": "Point",
                "coordinates": [
                    17.042774539007453,
                    50.98154237968471
                ]
            }
        },
        {
            "type": "Feature",
            "properties": {
                "ref:csioz": 1127708,
                "name": "Domowa",
                "addr:street": "Wrocławska",
                "addr:housenumber": "15",
                "addr:city": "Bielany Wrocławskie",
                "addr:postcode": "55-075",
                "amenity": "pharmacy"
            },
            "geometry": {
                "type": "Point",
                "coordinates": [
                    16.969283999996804,
                    51.03969400001401
                ]
            }
        },
        {
            "type": "Feature",
            "properties": {
                "ref:csioz": 1127762,
                "name": "Libra",
                "addr:street": "Wrocławska",
                "addr:housenumber": "46",
                "addr:city": "Jordanów Śląski",
                "addr:postcode": "55-065",
                "amenity": "pharmacy"
            },
            "geometry": {
                "type": "Point",
                "coordinates": [
                    16.868615168575555,
                    50.86371259046574
                ]
            }
        },
        {
            "type": "Feature",
            "properties": {
                "ref:csioz": 1128287,
                "name": "Tyniecka",
                "addr:street": "Nowa",
                "addr:housenumber": "5",
                "addr:city": "Tyniec Mały",
                "addr:postcode": "55-041",
                "amenity": "pharmacy"
            },
            "geometry": {
                "type": "Point",
                "coordinates": [
                    16.924793711349352,
                    51.02188112940639
                ]
            }
        },
        {
            "type": "Feature",
            "properties": {
                "ref:csioz": 1129230,
                "name": "Inter Apteka",
                "addr:street": "Witosa",
                "addr:housenumber": "5",
                "addr:city": "Kobierzyce",
                "addr:postcode": "55-040",
                "amenity": "pharmacy"
            },
            "geometry": {
                "type": "Point",
                "coordinates": [
                    16.931805394184654,
                    50.97012616532312
                ]
            }
        },
        {
            "type": "Feature",
            "properties": {
                "ref:csioz": 1130181,
                "name": "\"Apteka Cef@Rm 36,6\"",
                "addr:street": "Hugona Kołłątaja",
                "addr:housenumber": "13",
                "addr:city": "Kąty Wrocławskie",
                "addr:postcode": "55-080",
                "amenity": "pharmacy"
            },
            "geometry": {
                "type": "Point",
                "coordinates": [
                    16.762865999995103,
                    51.033463000013995
                ]
            }
        },
        {
            "type": "Feature",
            "properties": {
                "ref:csioz": 1137420,
                "name": "Dział Farmacji Szpitalnej W Orthos Szpital Wielospecjalistyczny Spółka Z Ograniczoną Odpowiedzialnością",
                "addr:street": "Wrocławska",
                "addr:housenumber": "2A",
                "addr:city": "Komorowice",
                "addr:postcode": "52-229",
                "amenity": "pharmacy"
            },
            "geometry": {
                "type": "Point",
                "coordinates": [
                    17.001995005350338,
                    51.01806336644027
                ]
            }
        },
        {
            "type": "Feature",
            "properties": {
                "ref:csioz": 1170760,
                "name": "Zakład Opiekuńczo-Leczniczy Prowadzony Przez Zgromadzenie Sióstr Pasterek Od Opatrznosci Bożej",
                "addr:street": "gen. Henryka Dąbrowskiego",
                "addr:housenumber": "8",
                "addr:city": "Święta Katarzyna",
                "addr:postcode": "55-010",
                "amenity": "pharmacy"
            },
            "geometry": {
                "type": "Point",
                "coordinates": [
                    17.116131392834102,
                    51.01919015199288
                ]
            }
        },
        {
            "type": "Feature",
            "properties": {
                "ref:csioz": 1129593,
                "name": "Apteka Rumiankowa",
                "addr:street": "Romana Zmorskiego",
                "addr:housenumber": "1",
                "addr:city": "Sobótka",
                "addr:postcode": "55-050",
                "amenity": "pharmacy"
            },
            "geometry": {
                "type": "Point",
                "coordinates": [
                    16.704362670100668,
                    50.90125856937034
                ]
            }
        },
        {
            "type": "Feature",
            "properties": {
                "ref:csioz": 1128177,
                "name": "Smolecka",
                "addr:street": "Wierzbowa",
                "addr:housenumber": "9",
                "addr:city": "Smolec",
                "addr:postcode": "55-070",
                "amenity": "pharmacy"
            },
            "geometry": {
                "type": "Point",
                "coordinates": [
                    16.881106312151122,
                    51.076415371888004
                ]
            }
        },
        {
            "type": "Feature",
            "properties": {
                "ref:csioz": 1127683,
                "name": "\"Apteka \"\"Verbena\"\"\"",
                "addr:street": "Główna",
                "addr:housenumber": "37",
                "addr:city": "Smolec",
                "addr:postcode": "55-080",
                "amenity": "pharmacy"
            },
            "geometry": {
                "type": "Point",
                "coordinates": [
                    16.879468391344922,
                    51.07204104779033
                ]
            }
        },
        {
            "type": "Feature",
            "properties": {
                "ref:csioz": 1128699,
                "name": "Super Pharm",
                "addr:street": "Czekoladowa",
                "addr:housenumber": "9",
                "addr:city": "Bielany Wrocławskie",
                "addr:postcode": "55-040",
                "amenity": "pharmacy"
            },
            "geometry": {
                "type": "Point",
                "coordinates": [
                    16.962614833112415,
                    51.04840623575616
                ]
            }
        },
        {
            "type": "Feature",
            "properties": {
                "ref:csioz": 1129813,
                "name": "Pod Aeroplanem",
                "addr:street": "Bukowa",
                "addr:housenumber": "1",
                "addr:city": "Smolec",
                "addr:postcode": "55-080",
                "amenity": "pharmacy"
            },
            "geometry": {
                "type": "Point",
                "coordinates": [
                    16.907189718295385,
                    51.08527527090961
                ]
            }
        },
        {
            "type": "Feature",
            "properties": {
                "ref:csioz": 1136921,
                "name": "Zakład Opiekuńczo-Leczniczy Dla Dzieci Im. Jana Pawła Ii Prowadzony Przez Zgromadzenie Sióstr Maryi Niepokalanej",
                "addr:housenumber": "21",
                "addr:postcode": "55-080",
                "amenity": "pharmacy",
                "addr:place": "Jaszkotle"
            },
            "geometry": {
                "type": "Point",
                "coordinates": [
                    16.90232148868245,
                    51.05693578611607
                ]
            }
        }
    ]
}