{
    "type": "FeatureCollection",
    "name": "JPT_KOD_JE_2817",
    "features": [
        {
            "type": "Feature",
            "properties": {
                "ref:csioz": 1039652,
                "addr:street": "Pocztowa",
                "addr:housenumber": "3",
                "addr:city": "Pasym",
                "addr:postcode": "12-130",
                "amenity": "pharmacy"
            },
            "geometry": {
                "type": "Point",
                "coordinates": [
                    20.79253111126843,
                    53.65135014334788
                ]
            }
        },
        {
            "type": "Feature",
            "properties": {
                "ref:csioz": 1188793,
                "name": "Apteki Polskie",
                "addr:street": "Rynek",
                "addr:housenumber": "5",
                "addr:city": "Pasym",
                "addr:postcode": "12-130",
                "amenity": "pharmacy"
            },
            "geometry": {
                "type": "Point",
                "coordinates": [
                    20.7912961935261,
                    53.65214737582332
                ]
            }
        },
        {
            "type": "Feature",
            "properties": {
                "ref:csioz": 1039134,
                "addr:street": "Wielbarska",
                "addr:housenumber": "5",
                "addr:city": "Jedwabno",
                "addr:postcode": "12-122",
                "amenity": "pharmacy"
            },
            "geometry": {
                "type": "Point",
                "coordinates": [
                    20.731825660668626,
                    53.53036499360392
                ]
            }
        },
        {
            "type": "Feature",
            "properties": {
                "ref:csioz": 1016532,
                "name": "Punkt Apteczny Zdrowie",
                "addr:housenumber": "71",
                "addr:postcode": "12-100",
                "amenity": "pharmacy",
                "addr:place": "Lipowiec"
            },
            "geometry": {
                "type": "Point",
                "coordinates": [
                    21.138177755890265,
                    53.46195317673311
                ]
            }
        },
        {
            "type": "Feature",
            "properties": {
                "ref:csioz": 1039945,
                "name": "Na Zdrowie",
                "addr:street": "Mikołaja Kopernika",
                "addr:housenumber": "1",
                "addr:city": "Wielbark",
                "addr:postcode": "12-160",
                "amenity": "pharmacy"
            },
            "geometry": {
                "type": "Point",
                "coordinates": [
                    20.942290598611045,
                    53.40055626453879
                ]
            }
        },
        {
            "type": "Feature",
            "properties": {
                "ref:csioz": 1111235,
                "name": "Apteka Nowa",
                "addr:street": "Rynek",
                "addr:housenumber": "24C",
                "addr:city": "Rozogi",
                "addr:postcode": "12-114",
                "amenity": "pharmacy"
            },
            "geometry": {
                "type": "Point",
                "coordinates": [
                    21.36060459470895,
                    53.48153011703627
                ]
            }
        },
        {
            "type": "Feature",
            "properties": {
                "ref:csioz": 1039959,
                "name": "Superapteka",
                "addr:street": "Władysława Jagiełły",
                "addr:housenumber": "22A",
                "addr:city": "Wielbark",
                "addr:postcode": "12-160",
                "amenity": "pharmacy"
            },
            "geometry": {
                "type": "Point",
                "coordinates": [
                    20.943864186820203,
                    53.39972942530963
                ]
            }
        },
        {
            "type": "Feature",
            "properties": {
                "ref:csioz": 1217767,
                "name": "Apteka Mazurska",
                "addr:street": "Rynek",
                "addr:housenumber": "1",
                "addr:city": "Rozogi",
                "addr:postcode": "12-114",
                "amenity": "pharmacy"
            },
            "geometry": {
                "type": "Point",
                "coordinates": [
                    21.35964147371537,
                    53.48303964642665
                ]
            }
        },
        {
            "type": "Feature",
            "properties": {
                "ref:csioz": 1014017,
                "addr:street": "Marii Curie-Skłodowskiej",
                "addr:housenumber": "12",
                "addr:city": "Szczytno",
                "addr:postcode": "12-100",
                "amenity": "pharmacy"
            },
            "geometry": {
                "type": "Point",
                "coordinates": [
                    20.983972478851342,
                    53.558508804389994
                ]
            }
        },
        {
            "type": "Feature",
            "properties": {
                "ref:csioz": 1039844,
                "name": "Apteka Przyjazna",
                "addr:street": "marsz. Józefa Piłsudskiego",
                "addr:housenumber": "30",
                "addr:city": "Szczytno",
                "addr:postcode": "12-100",
                "amenity": "pharmacy"
            },
            "geometry": {
                "type": "Point",
                "coordinates": [
                    21.01821476479271,
                    53.56054898176376
                ]
            }
        },
        {
            "type": "Feature",
            "properties": {
                "ref:csioz": 1039853,
                "name": "Apteka Zdrowie",
                "addr:street": "Polska",
                "addr:housenumber": "35",
                "addr:city": "Szczytno",
                "addr:postcode": "12-100",
                "amenity": "pharmacy"
            },
            "geometry": {
                "type": "Point",
                "coordinates": [
                    20.998989441447304,
                    53.561838309764966
                ]
            }
        },
        {
            "type": "Feature",
            "properties": {
                "ref:csioz": 1039877,
                "name": "Stara Apteka",
                "addr:street": "Jana Lipperta",
                "addr:housenumber": "1",
                "addr:city": "Szczytno",
                "addr:postcode": "12-100",
                "amenity": "pharmacy"
            },
            "geometry": {
                "type": "Point",
                "coordinates": [
                    20.992709884516835,
                    53.56224843204839
                ]
            }
        },
        {
            "type": "Feature",
            "properties": {
                "ref:csioz": 1039900,
                "name": "Doz Apteka Dbam O Zdrowie",
                "addr:street": "Gnieźnieńska",
                "addr:housenumber": "2",
                "addr:city": "Szczytno",
                "addr:postcode": "12-100",
                "amenity": "pharmacy"
            },
            "geometry": {
                "type": "Point",
                "coordinates": [
                    20.96565627182582,
                    53.56140079885819
                ]
            }
        },
        {
            "type": "Feature",
            "properties": {
                "ref:csioz": 1039913,
                "name": "Apteka Dbam O Zdrowie",
                "addr:street": "Bolesława Chrobrego",
                "addr:housenumber": "5",
                "addr:city": "Szczytno",
                "addr:postcode": "12-100",
                "amenity": "pharmacy"
            },
            "geometry": {
                "type": "Point",
                "coordinates": [
                    20.986273577997377,
                    53.56293582910843
                ]
            }
        },
        {
            "type": "Feature",
            "properties": {
                "ref:csioz": 1039921,
                "name": "Apteka Zdrowie",
                "addr:street": "Grunwaldzka",
                "addr:housenumber": "13C",
                "addr:city": "Świętajno",
                "addr:postcode": "12-140",
                "amenity": "pharmacy"
            },
            "geometry": {
                "type": "Point",
                "coordinates": [
                    21.219905818185953,
                    53.56283957211243
                ]
            }
        },
        {
            "type": "Feature",
            "properties": {
                "ref:csioz": 1117458,
                "name": "Doz Apteka Dbam O Zdrowie",
                "addr:street": "Tadeusza Kościuszki",
                "addr:housenumber": "20",
                "addr:city": "Szczytno",
                "addr:postcode": "12-100",
                "amenity": "pharmacy"
            },
            "geometry": {
                "type": "Point",
                "coordinates": [
                    20.98709795888785,
                    53.565125383983656
                ]
            }
        },
        {
            "type": "Feature",
            "properties": {
                "ref:csioz": 1118647,
                "addr:street": "Mazurska",
                "addr:housenumber": "5",
                "addr:city": "Spychowo",
                "addr:postcode": "12-150",
                "amenity": "pharmacy"
            },
            "geometry": {
                "type": "Point",
                "coordinates": [
                    21.34585280746258,
                    53.59860407658082
                ]
            }
        },
        {
            "type": "Feature",
            "properties": {
                "ref:csioz": 1212613,
                "name": "Apteka Dyżurna",
                "addr:street": "Odrodzenia",
                "addr:housenumber": "23-25",
                "addr:city": "Szczytno",
                "addr:postcode": "12-100",
                "amenity": "pharmacy"
            },
            "geometry": {
                "type": "Point",
                "coordinates": [
                    20.992820801114465,
                    53.564237965485034
                ]
            }
        },
        {
            "type": "Feature",
            "properties": {
                "ref:csioz": 1039797,
                "name": "Apteka Prima",
                "addr:street": "Odrodzenia",
                "addr:housenumber": "39",
                "addr:city": "Szczytno",
                "addr:postcode": "12-100",
                "amenity": "pharmacy"
            },
            "geometry": {
                "type": "Point",
                "coordinates": [
                    20.991766292935495,
                    53.56491003587857
                ]
            }
        },
        {
            "type": "Feature",
            "properties": {
                "ref:csioz": 1039802,
                "name": "Apteka Dbam O Zdrowie",
                "addr:street": "Bolesława Chrobrego",
                "addr:housenumber": "22",
                "addr:city": "Szczytno",
                "addr:postcode": "12-100",
                "amenity": "pharmacy"
            },
            "geometry": {
                "type": "Point",
                "coordinates": [
                    20.987169299925736,
                    53.56408246524453
                ]
            }
        },
        {
            "type": "Feature",
            "properties": {
                "ref:csioz": 1179508,
                "name": "Centrum Leków Nowa Farmacja Na Polskiej",
                "addr:street": "Polska",
                "addr:housenumber": "36",
                "addr:city": "Szczytno",
                "addr:postcode": "12-100",
                "amenity": "pharmacy"
            },
            "geometry": {
                "type": "Point",
                "coordinates": [
                    21.00118309941227,
                    53.5602737248763
                ]
            }
        },
        {
            "type": "Feature",
            "properties": {
                "ref:csioz": 1181343,
                "name": "Promocyjna",
                "addr:street": "Bolesława Chrobrego",
                "addr:housenumber": "10",
                "addr:city": "Szczytno",
                "addr:postcode": "12-100",
                "amenity": "pharmacy"
            },
            "geometry": {
                "type": "Point",
                "coordinates": [
                    20.989090549695412,
                    53.56332236947892
                ]
            }
        },
        {
            "type": "Feature",
            "properties": {
                "ref:csioz": 1181356,
                "name": "Osiedlowa",
                "addr:street": "Nauczycielska",
                "addr:housenumber": "18",
                "addr:city": "Szczytno",
                "addr:postcode": "12-100",
                "amenity": "pharmacy"
            },
            "geometry": {
                "type": "Point",
                "coordinates": [
                    21.005167600560625,
                    53.56509488051799
                ]
            }
        },
        {
            "type": "Feature",
            "properties": {
                "ref:csioz": 1183902,
                "name": "Gemini",
                "addr:street": "Tadeusza Kościuszki",
                "addr:housenumber": "19",
                "addr:city": "Szczytno",
                "addr:postcode": "12-100",
                "amenity": "pharmacy"
            },
            "geometry": {
                "type": "Point",
                "coordinates": [
                    20.98709200000258,
                    53.56433500001801
                ]
            }
        },
        {
            "type": "Feature",
            "properties": {
                "ref:csioz": 1225599,
                "name": "Doz Punkt Apteczny Dbam O Zdrowie",
                "addr:street": "Szczycieńska",
                "addr:housenumber": "16A",
                "addr:city": "Dźwierzuty",
                "addr:postcode": "12-120",
                "amenity": "pharmacy"
            },
            "geometry": {
                "type": "Point",
                "coordinates": [
                    20.96052665981858,
                    53.697870032660155
                ]
            }
        }
    ]
}