{
    "type": "FeatureCollection",
    "name": "JPT_KOD_JE_3007",
    "features": [
        {
            "type": "Feature",
            "properties": {
                "ref:csioz": 1026965,
                "name": "Retiro",
                "addr:street": "KALISKA",
                "addr:housenumber": "1A",
                "addr:city": "GODZIESZE",
                "addr:postcode": "62-872",
                "amenity": "pharmacy"
            },
            "geometry": {
                "type": "Point",
                "coordinates": [
                    18.171721999999697,
                    51.64498500001492
                ]
            }
        },
        {
            "type": "Feature",
            "properties": {
                "ref:csioz": 1052222,
                "name": "Melisa",
                "addr:street": "KALISKA",
                "addr:housenumber": "10",
                "addr:city": "GODZIESZE",
                "addr:postcode": "62-872",
                "amenity": "pharmacy"
            },
            "geometry": {
                "type": "Point",
                "coordinates": [
                    18.17174373716856,
                    51.644840240432316
                ]
            }
        },
        {
            "type": "Feature",
            "properties": {
                "ref:csioz": 1053421,
                "addr:street": "1000 LECIA",
                "addr:housenumber": "10",
                "addr:city": "BRZEZINY",
                "addr:postcode": "62-874",
                "amenity": "pharmacy"
            },
            "geometry": {
                "type": "Point",
                "coordinates": [
                    18.25618499999974,
                    51.594076000014844
                ]
            }
        },
        {
            "type": "Feature",
            "properties": {
                "ref:csioz": 1173474,
                "addr:street": "KSIĘDZA AUGUSTYNA KORDECKIEGO",
                "addr:housenumber": "2A",
                "addr:city": "Iwanowice",
                "addr:postcode": "62-865",
                "amenity": "pharmacy"
            },
            "geometry": {
                "type": "Point",
                "coordinates": [
                    18.32957167511471,
                    51.653674390312574
                ]
            }
        },
        {
            "type": "Feature",
            "properties": {
                "ref:csioz": 1194804,
                "name": "Familijna",
                "addr:street": "ks. Józefa Kurzawy",
                "addr:housenumber": "2A",
                "addr:city": "Brzeziny",
                "addr:postcode": "62-874",
                "amenity": "pharmacy"
            },
            "geometry": {
                "type": "Point",
                "coordinates": [
                    18.25609747335658,
                    51.595851874017285
                ]
            }
        },
        {
            "type": "Feature",
            "properties": {
                "ref:csioz": 1051830,
                "name": "Medykon",
                "addr:housenumber": "73A",
                "addr:postcode": "62-812",
                "amenity": "pharmacy",
                "addr:place": "JASTRZĘBNIKI"
            },
            "geometry": {
                "type": "Point",
                "coordinates": [
                    18.038680852537137,
                    51.84455026681434
                ]
            }
        },
        {
            "type": "Feature",
            "properties": {
                "ref:csioz": 1052067,
                "name": "Rodzinna",
                "addr:street": "STAROŚCIŃSKA",
                "addr:housenumber": "12",
                "addr:city": "STAWISZYN",
                "addr:postcode": "62-820",
                "amenity": "pharmacy"
            },
            "geometry": {
                "type": "Point",
                "coordinates": [
                    18.106722419071822,
                    51.91780671857314
                ]
            }
        },
        {
            "type": "Feature",
            "properties": {
                "ref:csioz": 1053110,
                "name": "Retiro",
                "addr:street": "KS. W. BLIZIŃSKIEGO",
                "addr:housenumber": "41",
                "addr:city": "LISKÓW",
                "addr:postcode": "62-850",
                "amenity": "pharmacy"
            },
            "geometry": {
                "type": "Point",
                "coordinates": [
                    18.397059999999797,
                    51.83231700001521
                ]
            }
        },
        {
            "type": "Feature",
            "properties": {
                "ref:csioz": 1053273,
                "name": "Medicamen",
                "addr:street": "Plac Wolności",
                "addr:housenumber": "11",
                "addr:flats": "1A",
                "addr:city": "Stawiszyn",
                "addr:postcode": "62-820",
                "amenity": "pharmacy"
            },
            "geometry": {
                "type": "Point",
                "coordinates": [
                    18.110698241998847,
                    51.918298398810535
                ]
            }
        },
        {
            "type": "Feature",
            "properties": {
                "ref:csioz": 1053468,
                "addr:housenumber": "116",
                "addr:postcode": "62-831",
                "amenity": "pharmacy",
                "addr:place": "KORZENIEW"
            },
            "geometry": {
                "type": "Point",
                "coordinates": [
                    18.216337215268556,
                    51.944483391040954
                ]
            }
        },
        {
            "type": "Feature",
            "properties": {
                "ref:csioz": 1053476,
                "name": "Stylowy",
                "addr:housenumber": "54",
                "addr:postcode": "62-814",
                "amenity": "pharmacy",
                "addr:place": "Blizanów"
            },
            "geometry": {
                "type": "Point",
                "coordinates": [
                    18.00364247836666,
                    51.89436127468349
                ]
            }
        },
        {
            "type": "Feature",
            "properties": {
                "ref:csioz": 1195520,
                "name": "Stylowy",
                "addr:housenumber": "171 B",
                "addr:postcode": "62-830",
                "amenity": "pharmacy",
                "addr:place": "Zbiersk-Cukrownia"
            },
            "geometry": {
                "type": "Point",
                "coordinates": [
                    18.140784119743135,
                    51.95319475626988
                ]
            }
        },
        {
            "type": "Feature",
            "properties": {
                "ref:csioz": 1053766,
                "name": "Vita",
                "addr:housenumber": "134C",
                "addr:postcode": "62-817",
                "amenity": "pharmacy",
                "addr:place": "ŻELAZKÓW"
            },
            "geometry": {
                "type": "Point",
                "coordinates": [
                    18.177354190558976,
                    51.853853202876834
                ]
            }
        },
        {
            "type": "Feature",
            "properties": {
                "ref:csioz": 1053777,
                "addr:housenumber": "109",
                "addr:postcode": "62-817",
                "amenity": "pharmacy",
                "addr:place": "ŻELAZKÓW"
            },
            "geometry": {
                "type": "Point",
                "coordinates": [
                    18.175083680308543,
                    51.8500667420463
                ]
            }
        },
        {
            "type": "Feature",
            "properties": {
                "ref:csioz": 1053808,
                "name": "Pod Lwem",
                "addr:housenumber": "17B",
                "addr:postcode": "62-834",
                "amenity": "pharmacy",
                "addr:place": "Ceków-Kolonia"
            },
            "geometry": {
                "type": "Point",
                "coordinates": [
                    18.29745748161582,
                    51.88927053021977
                ]
            }
        },
        {
            "type": "Feature",
            "properties": {
                "ref:csioz": 1181667,
                "name": "Stylowy",
                "addr:housenumber": "22",
                "addr:postcode": "62-831",
                "amenity": "pharmacy",
                "addr:place": "Mycielin"
            },
            "geometry": {
                "type": "Point",
                "coordinates": [
                    18.24493195286918,
                    51.95307083991154
                ]
            }
        },
        {
            "type": "Feature",
            "properties": {
                "ref:csioz": 1227229,
                "name": "Punkt Apteczny W Kamieniu",
                "addr:housenumber": "2",
                "addr:postcode": "62-834",
                "amenity": "pharmacy",
                "addr:place": "Kamień"
            },
            "geometry": {
                "type": "Point",
                "coordinates": [
                    18.22730840321935,
                    51.821371054955776
                ]
            }
        },
        {
            "type": "Feature",
            "properties": {
                "ref:csioz": 1230003,
                "name": "Rodzinny",
                "addr:housenumber": "246",
                "addr:postcode": "62-830",
                "amenity": "pharmacy",
                "addr:place": "Zbiersk-Cukrownia"
            },
            "geometry": {
                "type": "Point",
                "coordinates": [
                    18.133397330704756,
                    51.954376348549815
                ]
            }
        },
        {
            "type": "Feature",
            "properties": {
                "ref:csioz": 1053437,
                "name": "Prywatna",
                "addr:street": "Kościelna",
                "addr:housenumber": "2",
                "addr:city": "Opatówek",
                "addr:postcode": "62-860",
                "amenity": "pharmacy"
            },
            "geometry": {
                "type": "Point",
                "coordinates": [
                    18.214311053408483,
                    51.738837046319254
                ]
            }
        },
        {
            "type": "Feature",
            "properties": {
                "ref:csioz": 1053856,
                "addr:street": "KOŚCIUSZKI",
                "addr:housenumber": "3",
                "addr:city": "KOŹMINEK",
                "addr:postcode": "62-840",
                "amenity": "pharmacy"
            },
            "geometry": {
                "type": "Point",
                "coordinates": [
                    18.337618899613798,
                    51.799004727878675
                ]
            }
        },
        {
            "type": "Feature",
            "properties": {
                "ref:csioz": 1188585,
                "name": "Stylowa",
                "addr:street": "Szkolna",
                "addr:housenumber": "3",
                "addr:city": "Opatówek",
                "addr:postcode": "62-860",
                "amenity": "pharmacy"
            },
            "geometry": {
                "type": "Point",
                "coordinates": [
                    18.20501017969665,
                    51.73859946485251
                ]
            }
        },
        {
            "type": "Feature",
            "properties": {
                "ref:csioz": 1191558,
                "addr:housenumber": "113",
                "addr:postcode": "62-872",
                "amenity": "pharmacy",
                "addr:place": "Wolica"
            },
            "geometry": {
                "type": "Point",
                "coordinates": [
                    18.147400041767966,
                    51.6985586117136
                ]
            }
        },
        {
            "type": "Feature",
            "properties": {
                "ref:csioz": 1215730,
                "addr:street": "Szkolna",
                "addr:housenumber": "1",
                "addr:city": "Staw",
                "addr:postcode": "62-865",
                "amenity": "pharmacy"
            },
            "geometry": {
                "type": "Point",
                "coordinates": [
                    18.37918548071825,
                    51.70628245669639
                ]
            }
        },
        {
            "type": "Feature",
            "properties": {
                "ref:csioz": 1052685,
                "name": "Pod Bliźniętami",
                "addr:street": "KOPERNIKA",
                "addr:housenumber": "10",
                "addr:city": "KOŹMINEK",
                "addr:postcode": "62-840",
                "amenity": "pharmacy"
            },
            "geometry": {
                "type": "Point",
                "coordinates": [
                    18.333800782786287,
                    51.79811387745901
                ]
            }
        },
        {
            "type": "Feature",
            "properties": {
                "ref:csioz": 1052571,
                "name": "Zdrowie",
                "addr:street": "PLAC WOLNOŚCI",
                "addr:housenumber": "2",
                "addr:city": "OPATÓWEK",
                "addr:postcode": "62-860",
                "amenity": "pharmacy"
            },
            "geometry": {
                "type": "Point",
                "coordinates": [
                    18.214137730885945,
                    51.73983969579856
                ]
            }
        },
        {
            "type": "Feature",
            "properties": {
                "ref:csioz": 1208891,
                "name": "Punkt Apteczny Szczytniki",
                "addr:housenumber": "31",
                "addr:postcode": "62-865",
                "amenity": "pharmacy",
                "addr:place": "Szczytniki"
            },
            "geometry": {
                "type": "Point",
                "coordinates": [
                    18.32967976871199,
                    51.68598921359934
                ]
            }
        },
        {
            "type": "Feature",
            "properties": {
                "ref:csioz": 1214552,
                "name": "Stylowa 2",
                "addr:street": "Łódzka",
                "addr:housenumber": "1",
                "addr:city": "Opatówek",
                "addr:postcode": "62-860",
                "amenity": "pharmacy"
            },
            "geometry": {
                "type": "Point",
                "coordinates": [
                    18.216494999999725,
                    51.74007800001505
                ]
            }
        },
        {
            "type": "Feature",
            "properties": {
                "ref:csioz": 1228145,
                "name": "Punkt Apteczny Wolica",
                "addr:housenumber": "62",
                "addr:postcode": "62-872",
                "amenity": "pharmacy",
                "addr:place": "Wolica"
            },
            "geometry": {
                "type": "Point",
                "coordinates": [
                    18.159886999545826,
                    51.70166806088235
                ]
            }
        }
    ]
}