{
    "type": "FeatureCollection",
    "name": "JPT_KOD_JE_1405",
    "features": [
        {
            "type": "Feature",
            "properties": {
                "ref:csioz": 1087687,
                "name": "Dr. Max",
                "addr:street": "Króla Zygmunta Starego",
                "addr:housenumber": "9A",
                "addr:city": "Grodzisk Mazowiecki",
                "addr:postcode": "05-825",
                "amenity": "pharmacy"
            },
            "geometry": {
                "type": "Point",
                "coordinates": [
                    20.620775352843605,
                    52.1037260557729
                ]
            }
        },
        {
            "type": "Feature",
            "properties": {
                "ref:csioz": 1087709,
                "name": "Zachodnia",
                "addr:street": "Daleka",
                "addr:housenumber": "23",
                "addr:city": "Grodzisk Mazowiecki",
                "addr:postcode": "05-825",
                "amenity": "pharmacy"
            },
            "geometry": {
                "type": "Point",
                "coordinates": [
                    20.617375438169258,
                    52.09967188076473
                ]
            }
        },
        {
            "type": "Feature",
            "properties": {
                "ref:csioz": 1087723,
                "name": "Nova",
                "addr:street": "Piaskowa",
                "addr:housenumber": "17A/17",
                "addr:city": "Grodzisk Mazowiecki",
                "addr:postcode": "05-825",
                "amenity": "pharmacy"
            },
            "geometry": {
                "type": "Point",
                "coordinates": [
                    20.65070900000139,
                    52.10235500001563
                ]
            }
        },
        {
            "type": "Feature",
            "properties": {
                "ref:csioz": 1087805,
                "name": "Centralna",
                "addr:street": "Piłsudskiego",
                "addr:housenumber": "19",
                "addr:city": "Milanówek",
                "addr:postcode": "05-822",
                "amenity": "pharmacy"
            },
            "geometry": {
                "type": "Point",
                "coordinates": [
                    20.6673295947278,
                    52.122064414559
                ]
            }
        },
        {
            "type": "Feature",
            "properties": {
                "ref:csioz": 1089728,
                "name": "Dr. Max",
                "addr:street": "Daleka",
                "addr:housenumber": "11",
                "addr:city": "Grodzisk Mazowiecki",
                "addr:postcode": "05-825",
                "amenity": "pharmacy"
            },
            "geometry": {
                "type": "Point",
                "coordinates": [
                    20.616431915635133,
                    52.0948679795269
                ]
            }
        },
        {
            "type": "Feature",
            "properties": {
                "ref:csioz": 1174118,
                "name": "Cosmedica",
                "addr:street": "Nowowiejska",
                "addr:housenumber": "2A",
                "addr:city": "Milanówek",
                "addr:postcode": "05-822",
                "amenity": "pharmacy"
            },
            "geometry": {
                "type": "Point",
                "coordinates": [
                    20.672673449154225,
                    52.11737293108006
                ]
            }
        },
        {
            "type": "Feature",
            "properties": {
                "ref:csioz": 1187111,
                "name": "Drive-Thru",
                "addr:street": "Podwiejska",
                "addr:housenumber": "39",
                "addr:flats": "15",
                "addr:city": "Milanówek",
                "addr:postcode": "05-822",
                "amenity": "pharmacy"
            },
            "geometry": {
                "type": "Point",
                "coordinates": [
                    20.69078691283165,
                    52.12718021403164
                ]
            }
        },
        {
            "type": "Feature",
            "properties": {
                "ref:csioz": 1212205,
                "addr:street": "H. Sienkiewicza",
                "addr:housenumber": "46/50",
                "addr:flats": "0.11",
                "addr:city": "Grodzisk Mazowiecki",
                "addr:postcode": "05-825",
                "amenity": "pharmacy"
            },
            "geometry": {
                "type": "Point",
                "coordinates": [
                    20.6237784254646,
                    52.104163606345935
                ]
            }
        },
        {
            "type": "Feature",
            "properties": {
                "ref:csioz": 1090534,
                "name": "Jaktorowska",
                "addr:street": "Warszawska",
                "addr:housenumber": "20",
                "addr:city": "Chylice-Kolonia",
                "addr:postcode": "96-313",
                "amenity": "pharmacy"
            },
            "geometry": {
                "type": "Point",
                "coordinates": [
                    20.55395342016536,
                    52.086137086382934
                ]
            }
        },
        {
            "type": "Feature",
            "properties": {
                "ref:csioz": 1090550,
                "addr:street": "Armii Krajowej",
                "addr:housenumber": "53",
                "addr:city": "Baranów",
                "addr:postcode": "96-314",
                "amenity": "pharmacy"
            },
            "geometry": {
                "type": "Point",
                "coordinates": [
                    20.47162026399266,
                    52.12260863840318
                ]
            }
        },
        {
            "type": "Feature",
            "properties": {
                "ref:csioz": 1090569,
                "addr:street": "Partyzantów",
                "addr:housenumber": "7",
                "addr:city": "Międzyborów",
                "addr:postcode": "96-316",
                "amenity": "pharmacy"
            },
            "geometry": {
                "type": "Point",
                "coordinates": [
                    20.483584060213083,
                    52.062532073576996
                ]
            }
        },
        {
            "type": "Feature",
            "properties": {
                "ref:csioz": 1092955,
                "addr:street": "Warszawska",
                "addr:housenumber": "15",
                "addr:city": "Żabia Wola",
                "addr:postcode": "96-321",
                "amenity": "pharmacy"
            },
            "geometry": {
                "type": "Point",
                "coordinates": [
                    20.685859314235937,
                    52.03062952081552
                ]
            }
        },
        {
            "type": "Feature",
            "properties": {
                "ref:csioz": 1098394,
                "name": "Apteka Szpitalna",
                "addr:street": "Daleka",
                "addr:housenumber": "11",
                "addr:city": "Grodzisk Mazowiecki",
                "addr:postcode": "05-825",
                "amenity": "pharmacy"
            },
            "geometry": {
                "type": "Point",
                "coordinates": [
                    20.616431915635133,
                    52.0948679795269
                ]
            }
        },
        {
            "type": "Feature",
            "properties": {
                "ref:csioz": 1114728,
                "name": "Farmacja 24",
                "addr:housenumber": "50",
                "addr:city": "Gole",
                "addr:postcode": "96-314",
                "amenity": "pharmacy"
            },
            "geometry": {
                "type": "Point",
                "coordinates": [
                    20.510734617557134,
                    52.16427392690832
                ]
            }
        },
        {
            "type": "Feature",
            "properties": {
                "ref:csioz": 1115093,
                "name": "Farma",
                "addr:street": "R. Traugutta",
                "addr:housenumber": "30",
                "addr:city": "Grodzisk Mazowiecki",
                "addr:postcode": "05-825",
                "amenity": "pharmacy"
            },
            "geometry": {
                "type": "Point",
                "coordinates": [
                    20.621028976482023,
                    52.11513797145351
                ]
            }
        },
        {
            "type": "Feature",
            "properties": {
                "ref:csioz": 1217575,
                "name": "Mgr Farm. Alina Zalewska",
                "addr:street": "Partyzantów",
                "addr:housenumber": "2",
                "addr:city": "Międzyborów",
                "addr:postcode": "96-316",
                "amenity": "pharmacy"
            },
            "geometry": {
                "type": "Point",
                "coordinates": [
                    20.482228332733374,
                    52.063076143420105
                ]
            }
        },
        {
            "type": "Feature",
            "properties": {
                "ref:csioz": 1219492,
                "name": "Centralna",
                "addr:street": "Armii Krajowej",
                "addr:housenumber": "15",
                "addr:city": "Grodzisk Mazowiecki",
                "addr:postcode": "05-825",
                "amenity": "pharmacy"
            },
            "geometry": {
                "type": "Point",
                "coordinates": [
                    20.633431816196385,
                    52.10831858821429
                ]
            }
        },
        {
            "type": "Feature",
            "properties": {
                "ref:csioz": 1081483,
                "name": "Latoszek",
                "addr:street": "Gołębia",
                "addr:housenumber": "26",
                "addr:flats": "4B",
                "addr:city": "Podkowa Leśna",
                "addr:postcode": "05-807",
                "amenity": "pharmacy"
            },
            "geometry": {
                "type": "Point",
                "coordinates": [
                    20.709812601547963,
                    52.12939328370637
                ]
            }
        },
        {
            "type": "Feature",
            "properties": {
                "ref:csioz": 1087772,
                "addr:street": "Grudowska",
                "addr:housenumber": "3",
                "addr:city": "Milanówek",
                "addr:postcode": "05-822",
                "amenity": "pharmacy"
            },
            "geometry": {
                "type": "Point",
                "coordinates": [
                    20.670407322781326,
                    52.1247013203461
                ]
            }
        },
        {
            "type": "Feature",
            "properties": {
                "ref:csioz": 1087826,
                "name": "Apteka Podkowiańska",
                "addr:street": "Brwinowska",
                "addr:housenumber": "9",
                "addr:city": "Podkowa Leśna",
                "addr:postcode": "05-807",
                "amenity": "pharmacy"
            },
            "geometry": {
                "type": "Point",
                "coordinates": [
                    20.723265970866034,
                    52.12422008311539
                ]
            }
        },
        {
            "type": "Feature",
            "properties": {
                "ref:csioz": 1120294,
                "name": "Goldenfarm. Złoty Standard Opieki.",
                "addr:street": "Krakowska",
                "addr:housenumber": "11B",
                "addr:city": "Milanówek",
                "addr:postcode": "05-822",
                "amenity": "pharmacy"
            },
            "geometry": {
                "type": "Point",
                "coordinates": [
                    20.666228297744688,
                    52.12499652458438
                ]
            }
        },
        {
            "type": "Feature",
            "properties": {
                "ref:csioz": 1115135,
                "name": "Apteka Główna",
                "addr:street": "Słowicza",
                "addr:housenumber": "1G",
                "addr:city": "Podkowa Leśna",
                "addr:postcode": "05-807",
                "amenity": "pharmacy"
            },
            "geometry": {
                "type": "Point",
                "coordinates": [
                    20.724582757322644,
                    52.1227828465978
                ]
            }
        },
        {
            "type": "Feature",
            "properties": {
                "ref:csioz": 1208347,
                "name": "Centralna",
                "addr:street": "Krakowska",
                "addr:housenumber": "10/1",
                "addr:city": "Milanówek",
                "addr:postcode": "05-822",
                "amenity": "pharmacy"
            },
            "geometry": {
                "type": "Point",
                "coordinates": [
                    20.66738473847253,
                    52.12529859741307
                ]
            }
        },
        {
            "type": "Feature",
            "properties": {
                "ref:csioz": 1087698,
                "name": "Centralna",
                "addr:street": "11 Listopada",
                "addr:housenumber": "43",
                "addr:city": "Grodzisk Mazowiecki",
                "addr:postcode": "05-825",
                "amenity": "pharmacy"
            },
            "geometry": {
                "type": "Point",
                "coordinates": [
                    20.621499969665173,
                    52.10903454208712
                ]
            }
        },
        {
            "type": "Feature",
            "properties": {
                "ref:csioz": 1087714,
                "addr:street": "M. Kopernika",
                "addr:housenumber": "10A",
                "addr:city": "Grodzisk Mazowiecki",
                "addr:postcode": "05-825",
                "amenity": "pharmacy"
            },
            "geometry": {
                "type": "Point",
                "coordinates": [
                    20.63577352887152,
                    52.107491869609326
                ]
            }
        },
        {
            "type": "Feature",
            "properties": {
                "ref:csioz": 1087767,
                "name": "Farmacja 24",
                "addr:street": "L. Zondka",
                "addr:housenumber": "3",
                "addr:city": "Grodzisk Mazowiecki",
                "addr:postcode": "05-825",
                "amenity": "pharmacy"
            },
            "geometry": {
                "type": "Point",
                "coordinates": [
                    20.624253636009968,
                    52.10774163522377
                ]
            }
        },
        {
            "type": "Feature",
            "properties": {
                "ref:csioz": 1089897,
                "name": "W Książenicach",
                "addr:street": "Mazowiecka",
                "addr:housenumber": "136A",
                "addr:city": "Książenice",
                "addr:postcode": "05-825",
                "amenity": "pharmacy"
            },
            "geometry": {
                "type": "Point",
                "coordinates": [
                    20.694047223965168,
                    52.08028717044358
                ]
            }
        },
        {
            "type": "Feature",
            "properties": {
                "ref:csioz": 1090410,
                "name": "Omega",
                "addr:street": "Warszawska",
                "addr:housenumber": "27B",
                "addr:city": "Jaktorów",
                "addr:postcode": "96-313",
                "amenity": "pharmacy"
            },
            "geometry": {
                "type": "Point",
                "coordinates": [
                    20.553647000001142,
                    52.08678900001561
                ]
            }
        },
        {
            "type": "Feature",
            "properties": {
                "ref:csioz": 1117962,
                "name": "Dr. Optima",
                "addr:street": "Królewska",
                "addr:housenumber": "59A",
                "addr:flats": "2",
                "addr:city": "Grodzisk Mazowiecki",
                "addr:postcode": "05-825",
                "amenity": "pharmacy"
            },
            "geometry": {
                "type": "Point",
                "coordinates": [
                    20.64181535784952,
                    52.107857593841885
                ]
            }
        },
        {
            "type": "Feature",
            "properties": {
                "ref:csioz": 1190179,
                "name": "Centralna",
                "addr:street": "H. Sienkiewicza",
                "addr:housenumber": "54",
                "addr:city": "Grodzisk Mazowiecki",
                "addr:postcode": "05-825",
                "amenity": "pharmacy"
            },
            "geometry": {
                "type": "Point",
                "coordinates": [
                    20.622678615280304,
                    52.10413202291866
                ]
            }
        },
        {
            "type": "Feature",
            "properties": {
                "ref:csioz": 1089675,
                "name": "Doz Apteka Dbam O Zdrowie",
                "addr:street": "1 Maja",
                "addr:housenumber": "11",
                "addr:city": "Grodzisk Mazowiecki",
                "addr:postcode": "05-825",
                "amenity": "pharmacy"
            },
            "geometry": {
                "type": "Point",
                "coordinates": [
                    20.62384289103027,
                    52.109736983946156
                ]
            }
        },
        {
            "type": "Feature",
            "properties": {
                "ref:csioz": 1110966,
                "name": "Herbarium",
                "addr:street": "Młodości",
                "addr:housenumber": "2A",
                "addr:flats": "1",
                "addr:city": "Książenice",
                "addr:postcode": "05-825",
                "amenity": "pharmacy"
            },
            "geometry": {
                "type": "Point",
                "coordinates": [
                    20.69605214276394,
                    52.072492565285856
                ]
            }
        },
        {
            "type": "Feature",
            "properties": {
                "ref:csioz": 1115119,
                "name": "Apteka Na Deptaku S.C Wanda I Tadeusz Dębowscy",
                "addr:street": "11 Listopada",
                "addr:housenumber": "38",
                "addr:city": "Grodzisk Mazowiecki",
                "addr:postcode": "05-825",
                "amenity": "pharmacy"
            },
            "geometry": {
                "type": "Point",
                "coordinates": [
                    20.622129986863385,
                    52.10835217412943
                ]
            }
        },
        {
            "type": "Feature",
            "properties": {
                "ref:csioz": 1217361,
                "name": "Pod Kopułą",
                "addr:street": "Spełnionych Marzeń",
                "addr:housenumber": "1",
                "addr:city": "Żelechów",
                "addr:postcode": "96-321",
                "amenity": "pharmacy"
            },
            "geometry": {
                "type": "Point",
                "coordinates": [
                    20.727846577233215,
                    52.037298698398565
                ]
            }
        }
    ]
}