{
    "type": "FeatureCollection",
    "name": "JPT_KOD_JE_1608",
    "features": [
        {
            "type": "Feature",
            "properties": {
                "ref:csioz": 1106886,
                "name": "Apteka Medika",
                "addr:street": "Opolska",
                "addr:housenumber": "5",
                "addr:city": "Dobrodzień",
                "addr:postcode": "46-380",
                "amenity": "pharmacy"
            },
            "geometry": {
                "type": "Point",
                "coordinates": [
                    18.44185774311646,
                    50.727825202673294
                ]
            }
        },
        {
            "type": "Feature",
            "properties": {
                "ref:csioz": 1106893,
                "name": "Apteka Rodzinna - Mgr Ryszard Konik",
                "addr:street": "Wolności",
                "addr:housenumber": "2",
                "addr:city": "Dobrodzień",
                "addr:postcode": "46-380",
                "amenity": "pharmacy"
            },
            "geometry": {
                "type": "Point",
                "coordinates": [
                    18.444452523637636,
                    50.7282501517156
                ]
            }
        },
        {
            "type": "Feature",
            "properties": {
                "ref:csioz": 1106908,
                "addr:street": "Wolności",
                "addr:housenumber": "16",
                "addr:city": "Dobrodzień",
                "addr:postcode": "46-380",
                "amenity": "pharmacy"
            },
            "geometry": {
                "type": "Point",
                "coordinates": [
                    18.442815041316763,
                    50.72865747769181
                ]
            }
        },
        {
            "type": "Feature",
            "properties": {
                "ref:csioz": 1109690,
                "addr:street": "Oleska",
                "addr:housenumber": "23A",
                "addr:city": "Zębowice",
                "addr:postcode": "46-048",
                "amenity": "pharmacy"
            },
            "geometry": {
                "type": "Point",
                "coordinates": [
                    18.343750096836224,
                    50.764731668434685
                ]
            }
        },
        {
            "type": "Feature",
            "properties": {
                "ref:csioz": 1116109,
                "name": "W Samodzielnym Publicznym Zakładzie Opiekuńczo - Leczniczym Im. Królowej Karoli",
                "addr:street": "Oleska",
                "addr:housenumber": "5",
                "addr:city": "Dobrodzień",
                "addr:postcode": "46-380",
                "amenity": "pharmacy"
            },
            "geometry": {
                "type": "Point",
                "coordinates": [
                    18.444474704882513,
                    50.730612416503995
                ]
            }
        },
        {
            "type": "Feature",
            "properties": {
                "ref:csioz": 1195027,
                "name": "Na Dobre I Na Złe",
                "addr:street": "Parkowa",
                "addr:housenumber": "2",
                "addr:city": "Dobrodzień",
                "addr:postcode": "46-380",
                "amenity": "pharmacy"
            },
            "geometry": {
                "type": "Point",
                "coordinates": [
                    18.447660704245543,
                    50.72671121567505
                ]
            }
        },
        {
            "type": "Feature",
            "properties": {
                "ref:csioz": 1109333,
                "name": "\"Apteka S.C. Mgr Farm. Beata Borecka, Wiesław Borecki\"",
                "addr:street": "Częstochowska",
                "addr:housenumber": "30",
                "addr:city": "Rudniki",
                "addr:postcode": "46-325",
                "amenity": "pharmacy"
            },
            "geometry": {
                "type": "Point",
                "coordinates": [
                    18.601204612091763,
                    51.03798316843569
                ]
            }
        },
        {
            "type": "Feature",
            "properties": {
                "ref:csioz": 1109322,
                "name": "\"Apteka \"\"Pod Świerkami\"\"\"",
                "addr:street": "Częstochowska",
                "addr:housenumber": "2",
                "addr:city": "Rudniki",
                "addr:postcode": "46-325",
                "amenity": "pharmacy"
            },
            "geometry": {
                "type": "Point",
                "coordinates": [
                    18.598159708763234,
                    51.03852747193918
                ]
            }
        },
        {
            "type": "Feature",
            "properties": {
                "ref:csioz": 1227207,
                "name": "Punkt Apteczny Magnolia",
                "addr:housenumber": "180",
                "addr:city": "Żytniów",
                "addr:postcode": "46-325",
                "amenity": "pharmacy"
            },
            "geometry": {
                "type": "Point",
                "coordinates": [
                    18.56895328829457,
                    51.01401165541812
                ]
            }
        },
        {
            "type": "Feature",
            "properties": {
                "ref:csioz": 1229745,
                "name": "Apfarm",
                "addr:street": "Długa",
                "addr:housenumber": "3",
                "addr:city": "Radłów",
                "addr:postcode": "46-331",
                "amenity": "pharmacy"
            },
            "geometry": {
                "type": "Point",
                "coordinates": [
                    18.536262226154328,
                    50.93352728072819
                ]
            }
        },
        {
            "type": "Feature",
            "properties": {
                "ref:csioz": 1107157,
                "addr:street": "Rynek",
                "addr:housenumber": "3",
                "addr:city": "Gorzów Śląski",
                "addr:postcode": "46-310",
                "amenity": "pharmacy"
            },
            "geometry": {
                "type": "Point",
                "coordinates": [
                    18.42240644849741,
                    51.0278637925581
                ]
            }
        },
        {
            "type": "Feature",
            "properties": {
                "ref:csioz": 1107161,
                "addr:street": "Rynek",
                "addr:housenumber": "8",
                "addr:city": "Gorzów Śląski",
                "addr:postcode": "46-310",
                "amenity": "pharmacy"
            },
            "geometry": {
                "type": "Point",
                "coordinates": [
                    18.421693324084508,
                    51.028309278974774
                ]
            }
        },
        {
            "type": "Feature",
            "properties": {
                "ref:csioz": 1108416,
                "name": "Na Dobre I Na Złe",
                "addr:street": "Małe Przedmieście",
                "addr:housenumber": "28",
                "addr:city": "Olesno",
                "addr:postcode": "46-300",
                "amenity": "pharmacy"
            },
            "geometry": {
                "type": "Point",
                "coordinates": [
                    18.41832580936932,
                    50.87702843788693
                ]
            }
        },
        {
            "type": "Feature",
            "properties": {
                "ref:csioz": 1108427,
                "addr:street": "Pieloka",
                "addr:housenumber": "3",
                "addr:city": "Olesno",
                "addr:postcode": "46-300",
                "amenity": "pharmacy"
            },
            "geometry": {
                "type": "Point",
                "coordinates": [
                    18.421189471284436,
                    50.877495795623325
                ]
            }
        },
        {
            "type": "Feature",
            "properties": {
                "ref:csioz": 1108434,
                "addr:street": "Pieloka",
                "addr:housenumber": "8",
                "addr:city": "Olesno",
                "addr:postcode": "46-300",
                "amenity": "pharmacy"
            },
            "geometry": {
                "type": "Point",
                "coordinates": [
                    18.421466944473806,
                    50.87807380773456
                ]
            }
        },
        {
            "type": "Feature",
            "properties": {
                "ref:csioz": 1108469,
                "name": "Osiedlowa",
                "addr:street": "Słowackiego",
                "addr:housenumber": "18",
                "addr:city": "Olesno",
                "addr:postcode": "46-300",
                "amenity": "pharmacy"
            },
            "geometry": {
                "type": "Point",
                "coordinates": [
                    18.416570971751575,
                    50.87766555162717
                ]
            }
        },
        {
            "type": "Feature",
            "properties": {
                "ref:csioz": 1108475,
                "name": "Apteka Dbam O Zdrowie",
                "addr:street": "Wolności",
                "addr:housenumber": "1",
                "addr:city": "Olesno",
                "addr:postcode": "46-300",
                "amenity": "pharmacy"
            },
            "geometry": {
                "type": "Point",
                "coordinates": [
                    18.420824185734155,
                    50.876448990925425
                ]
            }
        },
        {
            "type": "Feature",
            "properties": {
                "ref:csioz": 1109160,
                "name": "Lekfarm",
                "addr:street": "Kościuszki",
                "addr:housenumber": "15",
                "addr:city": "Praszka",
                "addr:postcode": "46-320",
                "amenity": "pharmacy"
            },
            "geometry": {
                "type": "Point",
                "coordinates": [
                    18.44848965724305,
                    51.0541685680458
                ]
            }
        },
        {
            "type": "Feature",
            "properties": {
                "ref:csioz": 1109171,
                "name": "Apteka Magnolia",
                "addr:street": "Listopadowa",
                "addr:housenumber": "14",
                "addr:city": "Praszka",
                "addr:postcode": "46-320",
                "amenity": "pharmacy"
            },
            "geometry": {
                "type": "Point",
                "coordinates": [
                    18.452064196163878,
                    51.05318004458243
                ]
            }
        },
        {
            "type": "Feature",
            "properties": {
                "ref:csioz": 1109183,
                "addr:street": "Grunwaldzki",
                "addr:housenumber": "1",
                "addr:city": "Praszka",
                "addr:postcode": "46-320",
                "amenity": "pharmacy"
            },
            "geometry": {
                "type": "Point",
                "coordinates": [
                    18.450699836529857,
                    51.056825949659924
                ]
            }
        },
        {
            "type": "Feature",
            "properties": {
                "ref:csioz": 1110161,
                "name": "Apteka Szpitalna Szpitala Zespołu Opieki Zdrowotnej W Oleśnie",
                "addr:street": "Klonowa",
                "addr:housenumber": "1",
                "addr:city": "Olesno",
                "addr:postcode": "46-300",
                "amenity": "pharmacy"
            },
            "geometry": {
                "type": "Point",
                "coordinates": [
                    18.41352859664999,
                    50.88060208605476
                ]
            }
        },
        {
            "type": "Feature",
            "properties": {
                "ref:csioz": 1121253,
                "name": "Apteka Przyjazna Lekfarm",
                "addr:street": "Kaliska",
                "addr:housenumber": "35",
                "addr:city": "Praszka",
                "addr:postcode": "46-320",
                "amenity": "pharmacy"
            },
            "geometry": {
                "type": "Point",
                "coordinates": [
                    18.452484429758673,
                    51.06024757499481
                ]
            }
        },
        {
            "type": "Feature",
            "properties": {
                "ref:csioz": 1108397,
                "name": "Na Zdrowie",
                "addr:street": "Klonowa",
                "addr:housenumber": "1",
                "addr:city": "Olesno",
                "addr:postcode": "46-300",
                "amenity": "pharmacy"
            },
            "geometry": {
                "type": "Point",
                "coordinates": [
                    18.41352859664999,
                    50.88060208605476
                ]
            }
        },
        {
            "type": "Feature",
            "properties": {
                "ref:csioz": 1108403,
                "name": "Malwa",
                "addr:street": "Małe Przedmieście",
                "addr:housenumber": "5B",
                "addr:city": "Olesno",
                "addr:postcode": "46-300",
                "amenity": "pharmacy"
            },
            "geometry": {
                "type": "Point",
                "coordinates": [
                    18.42029799999983,
                    50.87809300001377
                ]
            }
        },
        {
            "type": "Feature",
            "properties": {
                "ref:csioz": 1121159,
                "name": "\"Apteki Burchacińscy; Wejdź Po Zdrowie\"",
                "addr:street": "Senatorska",
                "addr:housenumber": "31",
                "addr:city": "Praszka",
                "addr:postcode": "46-320",
                "amenity": "pharmacy"
            },
            "geometry": {
                "type": "Point",
                "coordinates": [
                    18.448389866045645,
                    51.05525531841771
                ]
            }
        },
        {
            "type": "Feature",
            "properties": {
                "ref:csioz": 1177109,
                "name": "Apteka Magnolia",
                "addr:street": "Towarowa",
                "addr:housenumber": "1",
                "addr:city": "Gorzów Śląski",
                "addr:postcode": "46-310",
                "amenity": "pharmacy"
            },
            "geometry": {
                "type": "Point",
                "coordinates": [
                    18.424451125987883,
                    51.02477156259026
                ]
            }
        },
        {
            "type": "Feature",
            "properties": {
                "ref:csioz": 1188710,
                "name": "Na Dobre I Na Złe",
                "addr:street": "Jana Pieloka",
                "addr:housenumber": "13",
                "addr:city": "Olesno",
                "addr:postcode": "46-300",
                "amenity": "pharmacy"
            },
            "geometry": {
                "type": "Point",
                "coordinates": [
                    18.420603419644024,
                    50.87895621706513
                ]
            }
        },
        {
            "type": "Feature",
            "properties": {
                "ref:csioz": 1203475,
                "name": "Twoja Apteka",
                "addr:street": "Jana Pieloka",
                "addr:housenumber": "15F",
                "addr:flats": "1",
                "addr:city": "Olesno",
                "addr:postcode": "46-300",
                "amenity": "pharmacy"
            },
            "geometry": {
                "type": "Point",
                "coordinates": [
                    18.42029292079086,
                    50.87949989960649
                ]
            }
        }
    ]
}