{
    "type": "FeatureCollection",
    "name": "JPT_KOD_JE_1861",
    "features": [
        {
            "type": "Feature",
            "properties": {
                "ref:csioz": 1142105,
                "name": "Doz Apteka. Dbam O Zdrowie. Piguła",
                "addr:street": "Bohaterów Westerplatte",
                "addr:housenumber": "18a",
                "addr:city": "Krosno",
                "addr:postcode": "38-400",
                "amenity": "pharmacy"
            },
            "geometry": {
                "type": "Point",
                "coordinates": [
                    21.77655854967192,
                    49.68293244919524
                ]
            }
        },
        {
            "type": "Feature",
            "properties": {
                "ref:csioz": 1142152,
                "name": "Centrum",
                "addr:street": "Stefana Kisielewskiego",
                "addr:housenumber": "2",
                "addr:city": "Krosno",
                "addr:postcode": "38-400",
                "amenity": "pharmacy"
            },
            "geometry": {
                "type": "Point",
                "coordinates": [
                    21.757812505423427,
                    49.683711327329256
                ]
            }
        },
        {
            "type": "Feature",
            "properties": {
                "ref:csioz": 1142183,
                "addr:street": "Kolejowa",
                "addr:housenumber": "2A",
                "addr:city": "Krosno",
                "addr:postcode": "38-400",
                "amenity": "pharmacy"
            },
            "geometry": {
                "type": "Point",
                "coordinates": [
                    21.75331017511263,
                    49.69690220680393
                ]
            }
        },
        {
            "type": "Feature",
            "properties": {
                "ref:csioz": 1142208,
                "name": "Pod Gwiazdą",
                "addr:street": "Korczyńska",
                "addr:housenumber": "57",
                "addr:city": "Krosno",
                "addr:postcode": "38-400",
                "amenity": "pharmacy"
            },
            "geometry": {
                "type": "Point",
                "coordinates": [
                    21.783013000015554,
                    49.70143000001216
                ]
            }
        },
        {
            "type": "Feature",
            "properties": {
                "ref:csioz": 1142219,
                "addr:street": "Krakowska",
                "addr:housenumber": "187",
                "addr:city": "Krosno",
                "addr:postcode": "38-400",
                "amenity": "pharmacy"
            },
            "geometry": {
                "type": "Point",
                "coordinates": [
                    21.73119223662504,
                    49.70933142682181
                ]
            }
        },
        {
            "type": "Feature",
            "properties": {
                "ref:csioz": 1142171,
                "name": "Dr.Max",
                "addr:street": "Kolejowa",
                "addr:housenumber": "2",
                "addr:city": "Krosno",
                "addr:postcode": "38-400",
                "amenity": "pharmacy"
            },
            "geometry": {
                "type": "Point",
                "coordinates": [
                    21.753322767838643,
                    49.69639867698457
                ]
            }
        },
        {
            "type": "Feature",
            "properties": {
                "ref:csioz": 1142118,
                "name": "Dr.Max",
                "addr:street": "Feliksa Czajkowskiego",
                "addr:housenumber": "1",
                "addr:city": "Krosno",
                "addr:postcode": "38-400",
                "amenity": "pharmacy"
            },
            "geometry": {
                "type": "Point",
                "coordinates": [
                    21.76640840343901,
                    49.692117718613815
                ]
            }
        },
        {
            "type": "Feature",
            "properties": {
                "ref:csioz": 1142333,
                "name": "Apteka Alpina",
                "addr:street": "Kazimierza Pużaka",
                "addr:housenumber": "49",
                "addr:city": "Krosno",
                "addr:postcode": "38-400",
                "amenity": "pharmacy"
            },
            "geometry": {
                "type": "Point",
                "coordinates": [
                    21.752408867062627,
                    49.69200072782158
                ]
            }
        },
        {
            "type": "Feature",
            "properties": {
                "ref:csioz": 1142340,
                "addr:street": "Rzeszowska",
                "addr:housenumber": "1",
                "addr:city": "Krosno",
                "addr:postcode": "38-400",
                "amenity": "pharmacy"
            },
            "geometry": {
                "type": "Point",
                "coordinates": [
                    21.715848672657508,
                    49.718532456650955
                ]
            }
        },
        {
            "type": "Feature",
            "properties": {
                "ref:csioz": 1142354,
                "addr:street": "Składowa",
                "addr:housenumber": "1",
                "addr:city": "Krosno",
                "addr:postcode": "38-400",
                "amenity": "pharmacy"
            },
            "geometry": {
                "type": "Point",
                "coordinates": [
                    21.752644609545047,
                    49.68724156767082
                ]
            }
        },
        {
            "type": "Feature",
            "properties": {
                "ref:csioz": 1142365,
                "name": "Alba",
                "addr:street": "ks. Stanisława Staszica",
                "addr:housenumber": "16",
                "addr:city": "Krosno",
                "addr:postcode": "38-400",
                "amenity": "pharmacy"
            },
            "geometry": {
                "type": "Point",
                "coordinates": [
                    21.7232949785527,
                    49.70011009434275
                ]
            }
        },
        {
            "type": "Feature",
            "properties": {
                "ref:csioz": 1142387,
                "addr:street": "Wincentego Witosa",
                "addr:housenumber": "1",
                "addr:city": "Krosno",
                "addr:postcode": "38-400",
                "amenity": "pharmacy"
            },
            "geometry": {
                "type": "Point",
                "coordinates": [
                    21.75996207794511,
                    49.68120400318013
                ]
            }
        },
        {
            "type": "Feature",
            "properties": {
                "ref:csioz": 1142420,
                "name": "Millenium",
                "addr:street": "hetm. Stanisława Żółkiewskiego",
                "addr:housenumber": "142",
                "addr:city": "Krosno",
                "addr:postcode": "38-400",
                "amenity": "pharmacy"
            },
            "geometry": {
                "type": "Point",
                "coordinates": [
                    21.774672853431305,
                    49.69619588376039
                ]
            }
        },
        {
            "type": "Feature",
            "properties": {
                "ref:csioz": 1142404,
                "name": "Dr.Max",
                "addr:street": "Wojska Polskiego",
                "addr:housenumber": "41",
                "addr:city": "Krosno",
                "addr:postcode": "38-400",
                "amenity": "pharmacy"
            },
            "geometry": {
                "type": "Point",
                "coordinates": [
                    21.774768359423152,
                    49.68291974608449
                ]
            }
        },
        {
            "type": "Feature",
            "properties": {
                "ref:csioz": 1172097,
                "name": "Niebieska",
                "addr:street": "Hutnicza",
                "addr:housenumber": "20",
                "addr:city": "Krosno",
                "addr:postcode": "38-400",
                "amenity": "pharmacy"
            },
            "geometry": {
                "type": "Point",
                "coordinates": [
                    21.73409950321362,
                    49.703464997790086
                ]
            }
        },
        {
            "type": "Feature",
            "properties": {
                "ref:csioz": 1213563,
                "name": "Apteka Rodzinna",
                "addr:street": "Grodzka",
                "addr:housenumber": "68a",
                "addr:city": "Krosno",
                "addr:postcode": "38-400",
                "amenity": "pharmacy"
            },
            "geometry": {
                "type": "Point",
                "coordinates": [
                    21.76492644104966,
                    49.684268174467825
                ]
            }
        },
        {
            "type": "Feature",
            "properties": {
                "ref:csioz": 1136756,
                "addr:street": "Grodzka",
                "addr:housenumber": "45a",
                "addr:city": "Krosno",
                "addr:postcode": "38-400",
                "amenity": "pharmacy"
            },
            "geometry": {
                "type": "Point",
                "coordinates": [
                    21.765404378364615,
                    49.68388574398503
                ]
            }
        },
        {
            "type": "Feature",
            "properties": {
                "ref:csioz": 1136802,
                "addr:street": "Korczyńska",
                "addr:housenumber": "57",
                "addr:city": "Krosno",
                "addr:postcode": "38-400",
                "amenity": "pharmacy"
            },
            "geometry": {
                "type": "Point",
                "coordinates": [
                    21.783013000015554,
                    49.70143000001216
                ]
            }
        },
        {
            "type": "Feature",
            "properties": {
                "ref:csioz": 1138380,
                "addr:street": "Korczyńska",
                "addr:housenumber": "57",
                "addr:city": "Krosno",
                "addr:postcode": "38-400",
                "amenity": "pharmacy"
            },
            "geometry": {
                "type": "Point",
                "coordinates": [
                    21.783013000015554,
                    49.70143000001216
                ]
            }
        },
        {
            "type": "Feature",
            "properties": {
                "ref:csioz": 1142224,
                "name": "Apteka Niebieska",
                "addr:street": "ks. Jerzego Popiełuszki",
                "addr:housenumber": "81",
                "addr:city": "Krosno",
                "addr:postcode": "38-400",
                "amenity": "pharmacy"
            },
            "geometry": {
                "type": "Point",
                "coordinates": [
                    21.72369877132618,
                    49.70381297357443
                ]
            }
        },
        {
            "type": "Feature",
            "properties": {
                "ref:csioz": 1142235,
                "addr:street": "Legionów",
                "addr:housenumber": "17",
                "addr:city": "Krosno",
                "addr:postcode": "38-400",
                "amenity": "pharmacy"
            },
            "geometry": {
                "type": "Point",
                "coordinates": [
                    21.77273051409164,
                    49.69235795933258
                ]
            }
        },
        {
            "type": "Feature",
            "properties": {
                "ref:csioz": 1142256,
                "name": "Apteka Piastowska",
                "addr:street": "Augusta Lewakowskiego",
                "addr:housenumber": "35",
                "addr:city": "Krosno",
                "addr:postcode": "38-400",
                "amenity": "pharmacy"
            },
            "geometry": {
                "type": "Point",
                "coordinates": [
                    21.753009107451472,
                    49.694400502084214
                ]
            }
        },
        {
            "type": "Feature",
            "properties": {
                "ref:csioz": 1142262,
                "name": "Apteka Słoneczna",
                "addr:street": "Jana i Stanisława Magurów",
                "addr:housenumber": "4",
                "addr:city": "Krosno",
                "addr:postcode": "38-400",
                "amenity": "pharmacy"
            },
            "geometry": {
                "type": "Point",
                "coordinates": [
                    21.749697752510038,
                    49.69853642784702
                ]
            }
        },
        {
            "type": "Feature",
            "properties": {
                "ref:csioz": 1142270,
                "addr:street": "Naftowa",
                "addr:housenumber": "21",
                "addr:city": "Krosno",
                "addr:postcode": "38-400",
                "amenity": "pharmacy"
            },
            "geometry": {
                "type": "Point",
                "coordinates": [
                    21.74790616752052,
                    49.695195798945576
                ]
            }
        },
        {
            "type": "Feature",
            "properties": {
                "ref:csioz": 1142281,
                "addr:street": "Niepodległości",
                "addr:housenumber": "16B",
                "addr:city": "Krosno",
                "addr:postcode": "38-400",
                "amenity": "pharmacy"
            },
            "geometry": {
                "type": "Point",
                "coordinates": [
                    21.77316681675506,
                    49.687060516868186
                ]
            }
        },
        {
            "type": "Feature",
            "properties": {
                "ref:csioz": 1164868,
                "name": "Pod Dębami",
                "addr:street": "Henryka Wieniawskiego",
                "addr:housenumber": "4",
                "addr:city": "Krosno",
                "addr:postcode": "38-400",
                "amenity": "pharmacy"
            },
            "geometry": {
                "type": "Point",
                "coordinates": [
                    21.78262539207617,
                    49.68109397191096
                ]
            }
        },
        {
            "type": "Feature",
            "properties": {
                "ref:csioz": 1165829,
                "name": "Panaceum",
                "addr:street": "Kolejowa",
                "addr:housenumber": "21",
                "addr:city": "Krosno",
                "addr:postcode": "38-400",
                "amenity": "pharmacy"
            },
            "geometry": {
                "type": "Point",
                "coordinates": [
                    21.750686189636166,
                    49.69521818546273
                ]
            }
        },
        {
            "type": "Feature",
            "properties": {
                "ref:csioz": 1165776,
                "name": "Doz Apteka. Dbam O Zdrowie. Vita",
                "addr:street": "Stefana Kisielewskiego",
                "addr:housenumber": "1",
                "addr:city": "Krosno",
                "addr:postcode": "38-400",
                "amenity": "pharmacy"
            },
            "geometry": {
                "type": "Point",
                "coordinates": [
                    21.75870370113217,
                    49.68375341854964
                ]
            }
        },
        {
            "type": "Feature",
            "properties": {
                "ref:csioz": 1166385,
                "name": "W Rynku",
                "addr:street": "Rynek",
                "addr:housenumber": "21",
                "addr:city": "Krosno",
                "addr:postcode": "38-400",
                "amenity": "pharmacy"
            },
            "geometry": {
                "type": "Point",
                "coordinates": [
                    21.764260711809715,
                    49.69361393260143
                ]
            }
        },
        {
            "type": "Feature",
            "properties": {
                "ref:csioz": 1174311,
                "name": "Apteka Słoneczna",
                "addr:street": "Adama Mickiewicza",
                "addr:housenumber": "31/3",
                "addr:city": "Krosno",
                "addr:postcode": "38-400",
                "amenity": "pharmacy"
            },
            "geometry": {
                "type": "Point",
                "coordinates": [
                    21.780015000015496,
                    49.68542400001214
                ]
            }
        },
        {
            "type": "Feature",
            "properties": {
                "ref:csioz": 1174398,
                "addr:street": "Grodzka",
                "addr:housenumber": "47a",
                "addr:city": "Krosno",
                "addr:postcode": "38-400",
                "amenity": "pharmacy"
            },
            "geometry": {
                "type": "Point",
                "coordinates": [
                    21.76639941042175,
                    49.68343586872305
                ]
            }
        },
        {
            "type": "Feature",
            "properties": {
                "ref:csioz": 1184930,
                "name": "Alba-Bis",
                "addr:street": "Tysiąclecia",
                "addr:housenumber": "6",
                "addr:city": "Krosno",
                "addr:postcode": "38-400",
                "amenity": "pharmacy"
            },
            "geometry": {
                "type": "Point",
                "coordinates": [
                    21.749318388867987,
                    49.696827214477004
                ]
            }
        },
        {
            "type": "Feature",
            "properties": {
                "ref:csioz": 1200772,
                "name": "Galicjanka",
                "addr:street": "Wojska Polskiego",
                "addr:housenumber": "32A",
                "addr:city": "Krosno",
                "addr:postcode": "38-400",
                "amenity": "pharmacy"
            },
            "geometry": {
                "type": "Point",
                "coordinates": [
                    21.774480739822334,
                    49.68529321655617
                ]
            }
        },
        {
            "type": "Feature",
            "properties": {
                "ref:csioz": 1207587,
                "addr:street": "Korczyńska",
                "addr:housenumber": "57",
                "addr:city": "Krosno",
                "addr:postcode": "38-400",
                "amenity": "pharmacy"
            },
            "geometry": {
                "type": "Point",
                "coordinates": [
                    21.783013000015554,
                    49.70143000001216
                ]
            }
        },
        {
            "type": "Feature",
            "properties": {
                "ref:csioz": 1212707,
                "name": "Alba Iii",
                "addr:street": "Grodzka",
                "addr:housenumber": "47b",
                "addr:city": "Krosno",
                "addr:postcode": "38-400",
                "amenity": "pharmacy"
            },
            "geometry": {
                "type": "Point",
                "coordinates": [
                    21.766530000015127,
                    49.683614000012135
                ]
            }
        },
        {
            "type": "Feature",
            "properties": {
                "ref:csioz": 1224658,
                "addr:street": "Bieszczadzka",
                "addr:housenumber": "29",
                "addr:city": "Krosno",
                "addr:postcode": "38-400",
                "amenity": "pharmacy"
            },
            "geometry": {
                "type": "Point",
                "coordinates": [
                    21.774830744917626,
                    49.67451063004463
                ]
            }
        },
        {
            "type": "Feature",
            "properties": {
                "ref:csioz": 1142297,
                "name": "Dr.Max",
                "addr:street": "Ignacego Jana Paderewskiego",
                "addr:housenumber": "6a",
                "addr:city": "Krosno",
                "addr:postcode": "38-400",
                "amenity": "pharmacy"
            },
            "geometry": {
                "type": "Point",
                "coordinates": [
                    21.76181200001498,
                    49.69448500001215
                ]
            }
        }
    ]
}