{
    "type": "FeatureCollection",
    "name": "JPT_KOD_JE_0417",
    "features": [
        {
            "type": "Feature",
            "properties": {
                "ref:csioz": 1103346,
                "name": "Pod Arniką",
                "addr:street": "Wolności",
                "addr:housenumber": "10",
                "addr:city": "Wąbrzeźno",
                "addr:postcode": "87-200",
                "amenity": "pharmacy"
            },
            "geometry": {
                "type": "Point",
                "coordinates": [
                    18.9470519968152,
                    53.27855302870927
                ]
            }
        },
        {
            "type": "Feature",
            "properties": {
                "ref:csioz": 1105100,
                "name": "Eskulap",
                "addr:housenumber": "42A",
                "addr:postcode": "87-214",
                "amenity": "pharmacy",
                "addr:place": "Płużnica"
            },
            "geometry": {
                "type": "Point",
                "coordinates": [
                    18.776275619188198,
                    53.2964819773715
                ]
            }
        },
        {
            "type": "Feature",
            "properties": {
                "ref:csioz": 1208276,
                "name": "Dr. Max",
                "addr:street": "Jana Pawła II",
                "addr:housenumber": "11",
                "addr:city": "Wąbrzeźno",
                "addr:postcode": "87-200",
                "amenity": "pharmacy"
            },
            "geometry": {
                "type": "Point",
                "coordinates": [
                    18.94644654419271,
                    53.279758093500185
                ]
            }
        },
        {
            "type": "Feature",
            "properties": {
                "ref:csioz": 1099109,
                "name": "Apteka Dbam O Zdrowie",
                "addr:street": "Wolności",
                "addr:housenumber": "38",
                "addr:city": "Wąbrzeźno",
                "addr:postcode": "87-200",
                "amenity": "pharmacy"
            },
            "geometry": {
                "type": "Point",
                "coordinates": [
                    18.946568295479945,
                    53.27607396821257
                ]
            }
        },
        {
            "type": "Feature",
            "properties": {
                "ref:csioz": 1101835,
                "name": "Centralna",
                "addr:street": "Jana Pawła II",
                "addr:housenumber": "4",
                "addr:city": "Wąbrzeźno",
                "addr:postcode": "87-200",
                "amenity": "pharmacy"
            },
            "geometry": {
                "type": "Point",
                "coordinates": [
                    18.947316229773623,
                    53.27959008048743
                ]
            }
        },
        {
            "type": "Feature",
            "properties": {
                "ref:csioz": 1101843,
                "name": "Majowa",
                "addr:street": "Mickiewicza",
                "addr:housenumber": "11",
                "addr:city": "Wąbrzeźno",
                "addr:postcode": "87-200",
                "amenity": "pharmacy"
            },
            "geometry": {
                "type": "Point",
                "coordinates": [
                    18.94982203218055,
                    53.280108480420594
                ]
            }
        },
        {
            "type": "Feature",
            "properties": {
                "ref:csioz": 1103351,
                "name": "Stokrotka",
                "addr:street": "Niedziałkowskiego",
                "addr:housenumber": "8",
                "addr:city": "Wąbrzeźno",
                "addr:postcode": "87-200",
                "amenity": "pharmacy"
            },
            "geometry": {
                "type": "Point",
                "coordinates": [
                    18.950020512620245,
                    53.27683571657561
                ]
            }
        },
        {
            "type": "Feature",
            "properties": {
                "ref:csioz": 1122597,
                "name": "Apteka Puls Vi",
                "addr:street": "Niedziałkowskiego",
                "addr:housenumber": "5",
                "addr:city": "Wąbrzeźno",
                "addr:postcode": "87-200",
                "amenity": "pharmacy"
            },
            "geometry": {
                "type": "Point",
                "coordinates": [
                    18.95028690567158,
                    53.27524885218239
                ]
            }
        },
        {
            "type": "Feature",
            "properties": {
                "ref:csioz": 1153479,
                "name": "Apteka Szpitalna Niepubliczny Zakładu Opieki Zdrowotnej Nowy Szpital W Wąbrzeźnie",
                "addr:street": "Wolności",
                "addr:housenumber": "27",
                "addr:city": "Wąbrzeźno",
                "addr:postcode": "87-200",
                "amenity": "pharmacy"
            },
            "geometry": {
                "type": "Point",
                "coordinates": [
                    18.947469999999978,
                    53.276042000017526
                ]
            }
        },
        {
            "type": "Feature",
            "properties": {
                "ref:csioz": 1188151,
                "name": "\"'Pod Dębami'\"",
                "addr:housenumber": "23",
                "addr:postcode": "87-207",
                "amenity": "pharmacy",
                "addr:place": "Dębowa Łąka"
            },
            "geometry": {
                "type": "Point",
                "coordinates": [
                    19.097880965643565,
                    53.25648695735033
                ]
            }
        },
        {
            "type": "Feature",
            "properties": {
                "ref:csioz": 1226451,
                "name": "Stokrotka",
                "addr:street": "ks. Kujawskiego",
                "addr:housenumber": "8",
                "addr:city": "Książki",
                "addr:postcode": "87-222",
                "amenity": "pharmacy"
            },
            "geometry": {
                "type": "Point",
                "coordinates": [
                    19.07181117187601,
                    53.3280248401997
                ]
            }
        },
        {
            "type": "Feature",
            "properties": {
                "ref:csioz": 1105176,
                "addr:street": "Mikołaja Ryńskiego",
                "addr:housenumber": "21",
                "addr:city": "Ryńsk",
                "addr:postcode": "87-213",
                "amenity": "pharmacy"
            },
            "geometry": {
                "type": "Point",
                "coordinates": [
                    18.82305189936948,
                    53.2297109147917
                ]
            }
        }
    ]
}