{
    "type": "FeatureCollection",
    "name": "JPT_KOD_JE_1604",
    "features": [
        {
            "type": "Feature",
            "properties": {
                "ref:csioz": 1105958,
                "addr:street": "Rynek",
                "addr:housenumber": "1",
                "addr:city": "Byczyna",
                "addr:postcode": "46-220",
                "amenity": "pharmacy",
                "dispensing": "yes"
            },
            "geometry": {
                "type": "Point",
                "coordinates": [
                    18.21433905359575,
                    51.11408101673701
                ]
            }
        },
        {
            "type": "Feature",
            "properties": {
                "ref:csioz": 1105963,
                "addr:street": "Kościelna",
                "addr:housenumber": "2",
                "addr:city": "Byczyna",
                "addr:postcode": "46-220",
                "amenity": "pharmacy",
                "dispensing": "yes"
            },
            "geometry": {
                "type": "Point",
                "coordinates": [
                    18.213183999999732,
                    51.11423500001414
                ]
            }
        },
        {
            "type": "Feature",
            "properties": {
                "ref:csioz": 1107581,
                "name": "Libra",
                "addr:street": "Byczyńska",
                "addr:housenumber": "20",
                "addr:city": "Kluczbork",
                "addr:postcode": "46-200",
                "amenity": "pharmacy",
                "dispensing": "yes"
            },
            "geometry": {
                "type": "Point",
                "coordinates": [
                    18.205392959917774,
                    50.97610562228358
                ]
            }
        },
        {
            "type": "Feature",
            "properties": {
                "ref:csioz": 1107629,
                "name": "Apteka Dbam O Zdrowie",
                "addr:street": "Jagiellońska",
                "addr:housenumber": "14",
                "addr:city": "Kluczbork",
                "addr:postcode": "46-200",
                "amenity": "pharmacy",
                "dispensing": "yes"
            },
            "geometry": {
                "type": "Point",
                "coordinates": [
                    18.21727859952767,
                    50.976451037236934
                ]
            }
        },
        {
            "type": "Feature",
            "properties": {
                "ref:csioz": 1107678,
                "name": "\"Apteka \"\"Rodzinna\"\"\"",
                "addr:street": "Podwale",
                "addr:housenumber": "24",
                "addr:city": "Kluczbork",
                "addr:postcode": "46-200",
                "amenity": "pharmacy",
                "dispensing": "yes"
            },
            "geometry": {
                "type": "Point",
                "coordinates": [
                    18.213352956499584,
                    50.97407495604578
                ]
            }
        },
        {
            "type": "Feature",
            "properties": {
                "ref:csioz": 1107597,
                "name": "Dr. Max",
                "addr:street": "Byczyńska",
                "addr:housenumber": "101",
                "addr:city": "Kluczbork",
                "addr:postcode": "46-203",
                "amenity": "pharmacy",
                "dispensing": "yes"
            },
            "geometry": {
                "type": "Point",
                "coordinates": [
                    18.213240691108137,
                    50.9887106024005
                ]
            }
        },
        {
            "type": "Feature",
            "properties": {
                "ref:csioz": 1107610,
                "name": "Apteka Gemini",
                "addr:street": "Grunwaldzka",
                "addr:housenumber": "20",
                "addr:city": "Kluczbork",
                "addr:postcode": "46-200",
                "amenity": "pharmacy",
                "dispensing": "yes"
            },
            "geometry": {
                "type": "Point",
                "coordinates": [
                    18.211817571660422,
                    50.97535992685447
                ]
            }
        },
        {
            "type": "Feature",
            "properties": {
                "ref:csioz": 1107888,
                "addr:housenumber": "99A",
                "addr:postcode": "46-282",
                "amenity": "pharmacy",
                "addr:place": "Lasowice Wielkie",
                "dispensing": "yes"
            },
            "geometry": {
                "type": "Point",
                "coordinates": [
                    18.21357636508694,
                    50.870511886411435
                ]
            }
        },
        {
            "type": "Feature",
            "properties": {
                "ref:csioz": 1109559,
                "addr:street": "Byczyńska",
                "addr:housenumber": "2",
                "addr:city": "Wołczyn",
                "addr:postcode": "46-250",
                "amenity": "pharmacy",
                "dispensing": "yes"
            },
            "geometry": {
                "type": "Point",
                "coordinates": [
                    18.050311137027467,
                    51.0191373790042
                ]
            }
        },
        {
            "type": "Feature",
            "properties": {
                "ref:csioz": 1109568,
                "addr:street": "Dworcowa",
                "addr:housenumber": "9",
                "addr:city": "Wołczyn",
                "addr:postcode": "46-250",
                "amenity": "pharmacy",
                "dispensing": "yes"
            },
            "geometry": {
                "type": "Point",
                "coordinates": [
                    18.048221999999647,
                    51.01643900001395
                ]
            }
        },
        {
            "type": "Feature",
            "properties": {
                "ref:csioz": 1109576,
                "addr:street": "Partyzantów",
                "addr:housenumber": "4",
                "addr:city": "Wołczyn",
                "addr:postcode": "46-250",
                "amenity": "pharmacy",
                "dispensing": "yes"
            },
            "geometry": {
                "type": "Point",
                "coordinates": [
                    18.048608257141048,
                    51.01882016787271
                ]
            }
        },
        {
            "type": "Feature",
            "properties": {
                "ref:csioz": 1109584,
                "name": "Apteka Na Rogu",
                "addr:street": "Powstańców",
                "addr:housenumber": "2",
                "addr:city": "Wołczyn",
                "addr:postcode": "46-250",
                "amenity": "pharmacy",
                "dispensing": "yes"
            },
            "geometry": {
                "type": "Point",
                "coordinates": [
                    18.050696573801588,
                    51.01810000460503
                ]
            }
        },
        {
            "type": "Feature",
            "properties": {
                "ref:csioz": 1109907,
                "name": "Zdrowie",
                "addr:street": "Odrodzenia",
                "addr:housenumber": "28",
                "addr:city": "Lasowice Małe",
                "addr:postcode": "46-280",
                "amenity": "pharmacy",
                "dispensing": "yes"
            },
            "geometry": {
                "type": "Point",
                "coordinates": [
                    18.25879870380712,
                    50.9056375117147
                ]
            }
        },
        {
            "type": "Feature",
            "properties": {
                "ref:csioz": 1110268,
                "name": "Dział Farmacji Szpitalnej Kluczborskie Centrum Kardiologii",
                "addr:street": "Skłodowskiej-Curie",
                "addr:housenumber": "23",
                "addr:city": "Kluczbork",
                "addr:postcode": "46-200",
                "amenity": "pharmacy",
                "dispensing": "yes"
            },
            "geometry": {
                "type": "Point",
                "coordinates": [
                    18.21734468663651,
                    50.96773330350839
                ]
            }
        },
        {
            "type": "Feature",
            "properties": {
                "ref:csioz": 1121043,
                "name": "Apteka Na Dobre I Na Złe",
                "addr:street": "Wołczyńska",
                "addr:housenumber": "4",
                "addr:city": "Kluczbork",
                "addr:postcode": "46-200",
                "amenity": "pharmacy",
                "dispensing": "yes"
            },
            "geometry": {
                "type": "Point",
                "coordinates": [
                    18.200810041103573,
                    50.973363020178
                ]
            }
        },
        {
            "type": "Feature",
            "properties": {
                "ref:csioz": 1121847,
                "name": "Apteka Goździkowej",
                "addr:street": "Katowicka",
                "addr:housenumber": "26",
                "addr:city": "Kluczbork",
                "addr:postcode": "46-200",
                "amenity": "pharmacy",
                "dispensing": "yes"
            },
            "geometry": {
                "type": "Point",
                "coordinates": [
                    18.225189868428874,
                    50.97394128940133
                ]
            }
        },
        {
            "type": "Feature",
            "properties": {
                "ref:csioz": 1183245,
                "name": "Dr. Max",
                "addr:street": "Podwale",
                "addr:housenumber": "8",
                "addr:city": "Kluczbork",
                "addr:postcode": "46-200",
                "amenity": "pharmacy",
                "dispensing": "yes"
            },
            "geometry": {
                "type": "Point",
                "coordinates": [
                    18.215391833315024,
                    50.973768337893524
                ]
            }
        },
        {
            "type": "Feature",
            "properties": {
                "ref:csioz": 1105795,
                "name": "\"\"\"Jagódka\"\" S.C.\"",
                "addr:street": "Wolności",
                "addr:housenumber": "6",
                "addr:city": "Bogacica",
                "addr:postcode": "46-243",
                "amenity": "pharmacy",
                "dispensing": "yes"
            },
            "geometry": {
                "type": "Point",
                "coordinates": [
                    18.134685831734085,
                    50.966776740766
                ]
            }
        },
        {
            "type": "Feature",
            "properties": {
                "ref:csioz": 1107686,
                "name": "Apteka Dbam O Zdrowie",
                "addr:street": "Rynek",
                "addr:housenumber": "21",
                "addr:city": "Kluczbork",
                "addr:postcode": "46-200",
                "amenity": "pharmacy",
                "dispensing": "yes"
            },
            "geometry": {
                "type": "Point",
                "coordinates": [
                    18.215005411024162,
                    50.97329174481361
                ]
            }
        },
        {
            "type": "Feature",
            "properties": {
                "ref:csioz": 1107701,
                "name": "Ziko Apteka",
                "addr:street": "Waryńskiego",
                "addr:housenumber": "2",
                "addr:city": "Kluczbork",
                "addr:postcode": "46-203",
                "amenity": "pharmacy",
                "dispensing": "yes"
            },
            "geometry": {
                "type": "Point",
                "coordinates": [
                    18.21156151312811,
                    50.97559250939273
                ]
            }
        },
        {
            "type": "Feature",
            "properties": {
                "ref:csioz": 1159193,
                "name": "Apteka Szpitalna",
                "addr:street": "Skłodowskiej-Curie",
                "addr:housenumber": "23",
                "addr:city": "Kluczbork",
                "addr:postcode": "46-200",
                "amenity": "pharmacy",
                "dispensing": "yes"
            },
            "geometry": {
                "type": "Point",
                "coordinates": [
                    18.21734468663651,
                    50.96773330350839
                ]
            }
        },
        {
            "type": "Feature",
            "properties": {
                "ref:csioz": 1187748,
                "name": "Dział Farmacji Szpitalnej Vital Medic Leczenie Szpitalne",
                "addr:street": "Skłodowskiej-Curie",
                "addr:housenumber": "21",
                "addr:city": "Kluczbork",
                "addr:postcode": "46-200",
                "amenity": "pharmacy",
                "dispensing": "yes"
            },
            "geometry": {
                "type": "Point",
                "coordinates": [
                    18.2167987412046,
                    50.96873569601827
                ]
            }
        },
        {
            "type": "Feature",
            "properties": {
                "ref:csioz": 1192909,
                "name": "Apteka Zdrowit",
                "addr:street": "ks. Ściegiennego",
                "addr:housenumber": "5",
                "addr:city": "Kluczbork",
                "addr:postcode": "46-200",
                "amenity": "pharmacy",
                "dispensing": "yes"
            },
            "geometry": {
                "type": "Point",
                "coordinates": [
                    18.213349009584373,
                    50.97355010964644
                ]
            }
        },
        {
            "type": "Feature",
            "properties": {
                "ref:csioz": 1195366,
                "name": "Apteka Społeczna Na Krakowskiej Grupa Nowa Farmacja",
                "addr:street": "Krakowska",
                "addr:housenumber": "20",
                "addr:city": "Kluczbork",
                "addr:postcode": "46-200",
                "amenity": "pharmacy",
                "dispensing": "yes"
            },
            "geometry": {
                "type": "Point",
                "coordinates": [
                    18.217637322227876,
                    50.97248621122117
                ]
            }
        },
        {
            "type": "Feature",
            "properties": {
                "ref:csioz": 1228772,
                "name": "Domowy Punkt Apteczny",
                "addr:street": "Wołczyńska",
                "addr:housenumber": "41",
                "addr:city": "Skałągi",
                "addr:postcode": "46-262",
                "amenity": "pharmacy",
                "dispensing": "yes"
            },
            "geometry": {
                "type": "Point",
                "coordinates": [
                    18.122494428389338,
                    51.050609541612246
                ]
            }
        },
        {
            "type": "Feature",
            "properties": {
                "ref:csioz": 1209741,
                "name": "Ziko Apteka",
                "addr:street": "Ligonia",
                "addr:housenumber": "14A",
                "addr:city": "Kluczbork",
                "addr:postcode": "46-203",
                "amenity": "pharmacy",
                "dispensing": "yes"
            },
            "geometry": {
                "type": "Point",
                "coordinates": [
                    18.210510208110303,
                    50.97985380428583
                ]
            }
        },
        {
            "type": "Feature",
            "properties": {
                "ref:csioz": 1221498,
                "name": "Ziko Apteka",
                "addr:street": "Marszałka Piłsudskiego",
                "addr:housenumber": "12",
                "addr:city": "Kluczbork",
                "addr:postcode": "46-200",
                "amenity": "pharmacy",
                "dispensing": "yes"
            },
            "geometry": {
                "type": "Point",
                "coordinates": [
                    18.211568335161967,
                    50.973010164947176
                ]
            }
        }
    ]
}