{
    "type": "FeatureCollection",
    "name": "JPT_KOD_JE_1006",
    "features": [
        {
            "type": "Feature",
            "properties": {
                "ref:csioz": 1012633,
                "name": "Apteka Dbam O Zdrowie",
                "addr:street": "Żwirki",
                "addr:housenumber": "2",
                "addr:city": "Koluszki",
                "addr:postcode": "95-040",
                "amenity": "pharmacy"
            },
            "geometry": {
                "type": "Point",
                "coordinates": [
                    19.823659459378558,
                    51.74556439418327
                ]
            }
        },
        {
            "type": "Feature",
            "properties": {
                "ref:csioz": 1013981,
                "name": "Apteka Dbam O Zdrowie",
                "addr:street": "Ogrodowa",
                "addr:housenumber": "11A",
                "addr:city": "Rzgów",
                "addr:postcode": "95-030",
                "amenity": "pharmacy"
            },
            "geometry": {
                "type": "Point",
                "coordinates": [
                    19.493865818787345,
                    51.66087927781197
                ]
            }
        },
        {
            "type": "Feature",
            "properties": {
                "ref:csioz": 1209896,
                "name": "Lawenda",
                "addr:street": "Stropowa",
                "addr:housenumber": "4",
                "addr:city": "Starowa Góra",
                "addr:postcode": "95-030",
                "amenity": "pharmacy"
            },
            "geometry": {
                "type": "Point",
                "coordinates": [
                    19.476654120683108,
                    51.6911100120351
                ]
            }
        },
        {
            "type": "Feature",
            "properties": {
                "ref:csioz": 1215394,
                "name": "Apteka Lawenda",
                "addr:street": "Rzemieślnicza",
                "addr:housenumber": "35",
                "addr:city": "Rzgów",
                "addr:postcode": "95-030",
                "amenity": "pharmacy"
            },
            "geometry": {
                "type": "Point",
                "coordinates": [
                    19.488787153994565,
                    51.650497579117896
                ]
            }
        },
        {
            "type": "Feature",
            "properties": {
                "ref:csioz": 1218551,
                "name": "Pulspharma",
                "addr:street": "500-lecia",
                "addr:housenumber": "13",
                "addr:city": "Rzgów",
                "addr:postcode": "95-030",
                "amenity": "pharmacy"
            },
            "geometry": {
                "type": "Point",
                "coordinates": [
                    19.492112278188472,
                    51.66255929945107
                ]
            }
        },
        {
            "type": "Feature",
            "properties": {
                "ref:csioz": 1012289,
                "addr:street": "Pl. Reymonta",
                "addr:housenumber": "4",
                "addr:city": "Tuszyn",
                "addr:postcode": "95-080",
                "amenity": "pharmacy"
            },
            "geometry": {
                "type": "Point",
                "coordinates": [
                    19.54497887966593,
                    51.60214892145221
                ]
            }
        },
        {
            "type": "Feature",
            "properties": {
                "ref:csioz": 1013177,
                "addr:street": "Rokicińska",
                "addr:housenumber": "124",
                "addr:city": "Andrespol",
                "addr:postcode": "95-020",
                "amenity": "pharmacy"
            },
            "geometry": {
                "type": "Point",
                "coordinates": [
                    19.638886698529618,
                    51.72513397796982
                ]
            }
        },
        {
            "type": "Feature",
            "properties": {
                "ref:csioz": 1013222,
                "name": "Melisa",
                "addr:street": "Żeromskiego",
                "addr:housenumber": "24/26",
                "addr:city": "Tuszyn",
                "addr:postcode": "95-080",
                "amenity": "pharmacy"
            },
            "geometry": {
                "type": "Point",
                "coordinates": [
                    19.5503807977126,
                    51.60156452319942
                ]
            }
        },
        {
            "type": "Feature",
            "properties": {
                "ref:csioz": 1013737,
                "name": "Apteka Dbam O Zdrowie",
                "addr:street": "Projektowana",
                "addr:housenumber": "16",
                "addr:city": "Andrespol",
                "addr:postcode": "95-020",
                "amenity": "pharmacy"
            },
            "geometry": {
                "type": "Point",
                "coordinates": [
                    19.637704261340154,
                    51.72852501050307
                ]
            }
        },
        {
            "type": "Feature",
            "properties": {
                "ref:csioz": 1014955,
                "addr:street": "Głowackiego",
                "addr:housenumber": "20",
                "addr:city": "Koluszki",
                "addr:postcode": "95-040",
                "amenity": "pharmacy"
            },
            "geometry": {
                "type": "Point",
                "coordinates": [
                    19.82015805090718,
                    51.741167208583235
                ]
            }
        },
        {
            "type": "Feature",
            "properties": {
                "ref:csioz": 1016367,
                "addr:housenumber": "41A",
                "addr:postcode": "95-006",
                "amenity": "pharmacy",
                "addr:place": "Brójce"
            },
            "geometry": {
                "type": "Point",
                "coordinates": [
                    19.648979287420165,
                    51.66569420571797
                ]
            }
        },
        {
            "type": "Feature",
            "properties": {
                "ref:csioz": 1016916,
                "name": "Apteka Rodzinna",
                "addr:street": "11 Listopada",
                "addr:housenumber": "33",
                "addr:city": "Koluszki",
                "addr:postcode": "95-040",
                "amenity": "pharmacy"
            },
            "geometry": {
                "type": "Point",
                "coordinates": [
                    19.82539267628488,
                    51.740055386977474
                ]
            }
        },
        {
            "type": "Feature",
            "properties": {
                "ref:csioz": 1020891,
                "name": "\"Apteka \"\"Bio\"\"\"",
                "addr:street": "3 Maja",
                "addr:housenumber": "19G",
                "addr:city": "Koluszki",
                "addr:postcode": "95-040",
                "amenity": "pharmacy"
            },
            "geometry": {
                "type": "Point",
                "coordinates": [
                    19.817865606167473,
                    51.74530552556164
                ]
            }
        },
        {
            "type": "Feature",
            "properties": {
                "ref:csioz": 1021235,
                "name": "\"Apteka 'Rumianek'\"",
                "addr:street": "3 Maja",
                "addr:housenumber": "8",
                "addr:city": "Koluszki",
                "addr:postcode": "95-040",
                "amenity": "pharmacy"
            },
            "geometry": {
                "type": "Point",
                "coordinates": [
                    19.816962687022027,
                    51.74419957472677
                ]
            }
        },
        {
            "type": "Feature",
            "properties": {
                "ref:csioz": 1025779,
                "addr:street": "Brzezińska",
                "addr:housenumber": "54",
                "addr:city": "Koluszki",
                "addr:postcode": "95-040",
                "amenity": "pharmacy"
            },
            "geometry": {
                "type": "Point",
                "coordinates": [
                    19.808246174229016,
                    51.74767981662352
                ]
            }
        },
        {
            "type": "Feature",
            "properties": {
                "ref:csioz": 1118393,
                "name": "Lawenda",
                "addr:street": "Pabianicka",
                "addr:housenumber": "6",
                "addr:city": "Kurowice",
                "addr:postcode": "95-006",
                "amenity": "pharmacy"
            },
            "geometry": {
                "type": "Point",
                "coordinates": [
                    19.686825299059503,
                    51.6648624480799
                ]
            }
        },
        {
            "type": "Feature",
            "properties": {
                "ref:csioz": 1196079,
                "name": "Apteka Nowomiejska",
                "addr:street": "Henryka Sienkiewicza",
                "addr:housenumber": "2B",
                "addr:city": "Tuszyn",
                "addr:postcode": "95-080",
                "amenity": "pharmacy"
            },
            "geometry": {
                "type": "Point",
                "coordinates": [
                    19.517248019142315,
                    51.615779579179744
                ]
            }
        },
        {
            "type": "Feature",
            "properties": {
                "ref:csioz": 1010442,
                "name": "Apteka Św. Huberta",
                "addr:street": "gen. Władysława Sikorskiego",
                "addr:housenumber": "6A",
                "addr:city": "Koluszki",
                "addr:postcode": "95-040",
                "amenity": "pharmacy"
            },
            "geometry": {
                "type": "Point",
                "coordinates": [
                    19.82304144540865,
                    51.738585122820346
                ]
            }
        },
        {
            "type": "Feature",
            "properties": {
                "ref:csioz": 1012399,
                "name": "Familypharm",
                "addr:street": "Przejazd",
                "addr:housenumber": "6",
                "addr:city": "Koluszki",
                "addr:postcode": "95-040",
                "amenity": "pharmacy"
            },
            "geometry": {
                "type": "Point",
                "coordinates": [
                    19.8131381576732,
                    51.73991865383004
                ]
            }
        },
        {
            "type": "Feature",
            "properties": {
                "ref:csioz": 1013051,
                "name": "Super Apteka",
                "addr:street": "Korczaka",
                "addr:housenumber": "5",
                "addr:city": "Koluszki",
                "addr:postcode": "95-040",
                "amenity": "pharmacy"
            },
            "geometry": {
                "type": "Point",
                "coordinates": [
                    19.822802625895136,
                    51.73769573218216
                ]
            }
        },
        {
            "type": "Feature",
            "properties": {
                "ref:csioz": 1021436,
                "name": "Passiflora",
                "addr:street": "Króla Władysława Jagiełły",
                "addr:housenumber": "5",
                "addr:city": "Tuszyn",
                "addr:postcode": "95-080",
                "amenity": "pharmacy"
            },
            "geometry": {
                "type": "Point",
                "coordinates": [
                    19.54417231119256,
                    51.60401583040767
                ]
            }
        },
        {
            "type": "Feature",
            "properties": {
                "ref:csioz": 1022471,
                "name": "Farm-Med",
                "addr:street": "Łódzka",
                "addr:housenumber": "37",
                "addr:city": "Justynów",
                "addr:postcode": "95-020",
                "amenity": "pharmacy"
            },
            "geometry": {
                "type": "Point",
                "coordinates": [
                    19.67132647594005,
                    51.729607824474414
                ]
            }
        },
        {
            "type": "Feature",
            "properties": {
                "ref:csioz": 1164395,
                "name": "Apteka-Sieciowa",
                "addr:street": "Rokicińska",
                "addr:housenumber": "146",
                "addr:city": "Andrespol",
                "addr:postcode": "95-020",
                "amenity": "pharmacy"
            },
            "geometry": {
                "type": "Point",
                "coordinates": [
                    19.633620076594987,
                    51.7278250475166
                ]
            }
        },
        {
            "type": "Feature",
            "properties": {
                "ref:csioz": 1189064,
                "name": "Nasza Hydra",
                "addr:street": "Łowicka",
                "addr:housenumber": "1",
                "addr:city": "Tuszyn",
                "addr:postcode": "95-080",
                "amenity": "pharmacy"
            },
            "geometry": {
                "type": "Point",
                "coordinates": [
                    19.544707977039277,
                    51.60322121021181
                ]
            }
        },
        {
            "type": "Feature",
            "properties": {
                "ref:csioz": 1193775,
                "name": "Familypharm",
                "addr:street": "DZIECI POLSKICH",
                "addr:housenumber": "25",
                "addr:city": "Gałków Duży",
                "addr:postcode": "95-041",
                "amenity": "pharmacy"
            },
            "geometry": {
                "type": "Point",
                "coordinates": [
                    19.724680769292963,
                    51.73541231061566
                ]
            }
        },
        {
            "type": "Feature",
            "properties": {
                "ref:csioz": 1198550,
                "name": "Nzoz Prywatna Klinika Psychiatryczna Invetiva",
                "addr:street": "Polna",
                "addr:housenumber": "16",
                "addr:city": "Tuszyn",
                "addr:postcode": "95-080",
                "amenity": "pharmacy"
            },
            "geometry": {
                "type": "Point",
                "coordinates": [
                    19.54523398022131,
                    51.60660995804779
                ]
            }
        },
        {
            "type": "Feature",
            "properties": {
                "ref:csioz": 1199784,
                "name": "Apteka Najlepsza Dla Ciebie",
                "addr:street": "Rokicińska",
                "addr:housenumber": "125D",
                "addr:city": "Andrespol",
                "addr:postcode": "95-020",
                "amenity": "pharmacy"
            },
            "geometry": {
                "type": "Point",
                "coordinates": [
                    19.639937866590323,
                    51.71889468931137
                ]
            }
        },
        {
            "type": "Feature",
            "properties": {
                "ref:csioz": 1219511,
                "name": "Punkt Apteczny Na Szóstkę",
                "addr:street": "Dzieci Polskich",
                "addr:housenumber": "6C",
                "addr:city": "Gałków Duży",
                "addr:postcode": "95-041",
                "amenity": "pharmacy"
            },
            "geometry": {
                "type": "Point",
                "coordinates": [
                    19.724365890349517,
                    51.73218954920563
                ]
            }
        }
    ]
}