{
    "type": "FeatureCollection",
    "name": "JPT_KOD_JE_1411",
    "features": [
        {
            "type": "Feature",
            "properties": {
                "ref:csioz": 1090738,
                "name": "Flos",
                "addr:street": "Szkolna",
                "addr:housenumber": "29",
                "addr:city": "Karniewo",
                "addr:postcode": "06-425",
                "amenity": "pharmacy"
            },
            "geometry": {
                "type": "Point",
                "coordinates": [
                    20.996190329714324,
                    52.837759816343414
                ]
            }
        },
        {
            "type": "Feature",
            "properties": {
                "ref:csioz": 1090751,
                "name": "Dbam O Zdrowie",
                "addr:street": "Adama Mickiewicza",
                "addr:housenumber": "25",
                "addr:city": "Maków Mazowiecki",
                "addr:postcode": "06-200",
                "amenity": "pharmacy"
            },
            "geometry": {
                "type": "Point",
                "coordinates": [
                    21.09580885032706,
                    52.86477627942332
                ]
            }
        },
        {
            "type": "Feature",
            "properties": {
                "ref:csioz": 1090767,
                "addr:street": "Rynek",
                "addr:housenumber": "15",
                "addr:city": "Maków Mazowiecki",
                "addr:postcode": "06-200",
                "amenity": "pharmacy"
            },
            "geometry": {
                "type": "Point",
                "coordinates": [
                    21.103103655788722,
                    52.86535593545663
                ]
            }
        },
        {
            "type": "Feature",
            "properties": {
                "ref:csioz": 1091737,
                "addr:housenumber": "41A",
                "addr:postcode": "06-232",
                "amenity": "pharmacy",
                "addr:place": "Czerwonka Włościańska"
            },
            "geometry": {
                "type": "Point",
                "coordinates": [
                    21.221546655486932,
                    52.89295286359993
                ]
            }
        },
        {
            "type": "Feature",
            "properties": {
                "ref:csioz": 1115812,
                "addr:street": "Polna",
                "addr:housenumber": "11",
                "addr:city": "Maków Mazowiecki",
                "addr:postcode": "06-200",
                "amenity": "pharmacy"
            },
            "geometry": {
                "type": "Point",
                "coordinates": [
                    21.09256439907962,
                    52.86364338957991
                ]
            }
        },
        {
            "type": "Feature",
            "properties": {
                "ref:csioz": 1091482,
                "addr:housenumber": "22",
                "addr:postcode": "06-225",
                "amenity": "pharmacy",
                "addr:place": "Rzewnie"
            },
            "geometry": {
                "type": "Point",
                "coordinates": [
                    21.33783889461672,
                    52.835380804393296
                ]
            }
        },
        {
            "type": "Feature",
            "properties": {
                "ref:csioz": 1091334,
                "name": "Dr. Max",
                "addr:street": "Stanisława Moniuszki",
                "addr:housenumber": "46",
                "addr:city": "Maków Mazowiecki",
                "addr:postcode": "06-200",
                "amenity": "pharmacy"
            },
            "geometry": {
                "type": "Point",
                "coordinates": [
                    21.098002509798807,
                    52.860068227708936
                ]
            }
        },
        {
            "type": "Feature",
            "properties": {
                "ref:csioz": 1091604,
                "name": "Makofarm Maciej Libchaber",
                "addr:street": "Mostowa",
                "addr:housenumber": "9",
                "addr:city": "Krasnosielc",
                "addr:postcode": "06-212",
                "amenity": "pharmacy"
            },
            "geometry": {
                "type": "Point",
                "coordinates": [
                    21.156182807372343,
                    53.02279254103791
                ]
            }
        },
        {
            "type": "Feature",
            "properties": {
                "ref:csioz": 1091612,
                "addr:street": "Władysława Broniewskiego",
                "addr:housenumber": "2C/3",
                "addr:city": "Sypniewo",
                "addr:postcode": "06-216",
                "amenity": "pharmacy"
            },
            "geometry": {
                "type": "Point",
                "coordinates": [
                    21.30440637233878,
                    53.0044725378014
                ]
            }
        },
        {
            "type": "Feature",
            "properties": {
                "ref:csioz": 1116252,
                "addr:street": "Kościelny",
                "addr:housenumber": "1",
                "addr:city": "Krasnosielc",
                "addr:postcode": "06-212",
                "amenity": "pharmacy"
            },
            "geometry": {
                "type": "Point",
                "coordinates": [
                    21.154361073552835,
                    53.03073372323724
                ]
            }
        },
        {
            "type": "Feature",
            "properties": {
                "ref:csioz": 1116271,
                "name": "\"Apteka S.C Mgr Farm. Wiesława Dobrosielska, Bronisław Dobrosielski\"",
                "addr:street": "1 Maja",
                "addr:housenumber": "12",
                "addr:city": "Maków Mazowiecki",
                "addr:postcode": "06-200",
                "amenity": "pharmacy"
            },
            "geometry": {
                "type": "Point",
                "coordinates": [
                    21.098110581044978,
                    52.86471453943908
                ]
            }
        },
        {
            "type": "Feature",
            "properties": {
                "ref:csioz": 1122284,
                "name": "Przyjazna",
                "addr:street": "Wincentego Witosa",
                "addr:housenumber": "2",
                "addr:city": "Maków Mazowiecki",
                "addr:postcode": "06-200",
                "amenity": "pharmacy"
            },
            "geometry": {
                "type": "Point",
                "coordinates": [
                    21.086298494919365,
                    52.86140167684697
                ]
            }
        },
        {
            "type": "Feature",
            "properties": {
                "ref:csioz": 1153214,
                "name": "Apteka Szpitalna",
                "addr:street": "Wincentego Witosa",
                "addr:housenumber": "2",
                "addr:city": "Maków Mazowiecki",
                "addr:postcode": "06-200",
                "amenity": "pharmacy"
            },
            "geometry": {
                "type": "Point",
                "coordinates": [
                    21.086298494919365,
                    52.86140167684697
                ]
            }
        },
        {
            "type": "Feature",
            "properties": {
                "ref:csioz": 1212435,
                "name": "Kurpiowska Iv",
                "addr:housenumber": "58A",
                "addr:postcode": "06-214",
                "amenity": "pharmacy",
                "addr:place": "Drążdżewo"
            },
            "geometry": {
                "type": "Point",
                "coordinates": [
                    21.12424867792953,
                    53.08943535364467
                ]
            }
        },
        {
            "type": "Feature",
            "properties": {
                "ref:csioz": 1212786,
                "name": "Lawendowa",
                "addr:housenumber": "98",
                "addr:postcode": "06-211",
                "amenity": "pharmacy",
                "addr:place": "Szczuki"
            },
            "geometry": {
                "type": "Point",
                "coordinates": [
                    20.99362241482432,
                    52.933811031467926
                ]
            }
        },
        {
            "type": "Feature",
            "properties": {
                "ref:csioz": 1225252,
                "addr:housenumber": "45",
                "addr:postcode": "06-220",
                "amenity": "pharmacy",
                "addr:place": "Stary Szelków"
            },
            "geometry": {
                "type": "Point",
                "coordinates": [
                    21.20679400000407,
                    52.822314000016796
                ]
            }
        },
        {
            "type": "Feature",
            "properties": {
                "ref:csioz": 1230797,
                "name": "Makofarm Maciej Libchaber",
                "addr:housenumber": "84a",
                "addr:postcode": "06-210",
                "amenity": "pharmacy",
                "addr:place": "Płoniawy-Bramura"
            },
            "geometry": {
                "type": "Point",
                "coordinates": [
                    21.056681260487313,
                    52.98026158750308
                ]
            }
        },
        {
            "type": "Feature",
            "properties": {
                "ref:csioz": 1116377,
                "addr:street": "Wileńska",
                "addr:housenumber": "3",
                "addr:city": "Różan",
                "addr:postcode": "06-230",
                "amenity": "pharmacy"
            },
            "geometry": {
                "type": "Point",
                "coordinates": [
                    21.396944659004816,
                    52.889787851700255
                ]
            }
        },
        {
            "type": "Feature",
            "properties": {
                "ref:csioz": 1171595,
                "name": "Na Gdańskiej",
                "addr:street": "Gdańska",
                "addr:housenumber": "7",
                "addr:city": "Różan",
                "addr:postcode": "06-230",
                "amenity": "pharmacy"
            },
            "geometry": {
                "type": "Point",
                "coordinates": [
                    21.398327221772284,
                    52.88847583860311
                ]
            }
        },
        {
            "type": "Feature",
            "properties": {
                "ref:csioz": 1229430,
                "name": "Rodzinny",
                "addr:street": "Ostrołęcka",
                "addr:housenumber": "7a",
                "addr:city": "Młynarze",
                "addr:postcode": "06-213",
                "amenity": "pharmacy"
            },
            "geometry": {
                "type": "Point",
                "coordinates": [
                    21.405255955923085,
                    52.950802110603234
                ]
            }
        }
    ]
}