{
    "type": "FeatureCollection",
    "name": "JPT_KOD_JE_3064",
    "features": [
        {
            "type": "Feature",
            "properties": {
                "ref:csioz": 1046980,
                "name": "Vita -Salus",
                "addr:street": "Chojnicka",
                "addr:housenumber": "58",
                "addr:city": "Poznań",
                "addr:postcode": "60-480",
                "amenity": "pharmacy"
            },
            "geometry": {
                "type": "Point",
                "coordinates": [
                    16.784916355763418,
                    52.477427176745685
                ]
            }
        },
        {
            "type": "Feature",
            "properties": {
                "ref:csioz": 1188366,
                "name": "Pod Złotą Wagą",
                "addr:street": "Chojnicka",
                "addr:housenumber": "51",
                "addr:city": "Poznań",
                "addr:postcode": "60-480",
                "amenity": "pharmacy"
            },
            "geometry": {
                "type": "Point",
                "coordinates": [
                    16.782535151591965,
                    52.47755998130624
                ]
            }
        },
        {
            "type": "Feature",
            "properties": {
                "ref:csioz": 1045499,
                "name": "Św. Kosmy I Damiana",
                "addr:street": "Rusa",
                "addr:housenumber": "57",
                "addr:city": "Poznań",
                "addr:postcode": "61-245",
                "amenity": "pharmacy"
            },
            "geometry": {
                "type": "Point",
                "coordinates": [
                    16.984130493455698,
                    52.38798387172677
                ]
            }
        },
        {
            "type": "Feature",
            "properties": {
                "ref:csioz": 1046363,
                "name": "Na Szczepankowie",
                "addr:street": "Skibowa",
                "addr:housenumber": "11",
                "addr:city": "Poznań",
                "addr:postcode": "61-312",
                "amenity": "pharmacy"
            },
            "geometry": {
                "type": "Point",
                "coordinates": [
                    17.00820685120993,
                    52.363603865865215
                ]
            }
        },
        {
            "type": "Feature",
            "properties": {
                "ref:csioz": 1050885,
                "name": "Dobrofarm",
                "addr:street": "Przemysława",
                "addr:housenumber": "8C",
                "addr:city": "Poznań-Nowe Miasto",
                "addr:postcode": "61-060",
                "amenity": "pharmacy"
            },
            "geometry": {
                "type": "Point",
                "coordinates": [
                    17.002467991551466,
                    52.38970985837821
                ]
            }
        },
        {
            "type": "Feature",
            "properties": {
                "ref:csioz": 1055149,
                "name": "Przyjazna",
                "addr:street": "Mścibora",
                "addr:housenumber": "67",
                "addr:city": "Poznań",
                "addr:postcode": "61-062",
                "amenity": "pharmacy"
            },
            "geometry": {
                "type": "Point",
                "coordinates": [
                    17.014399551443788,
                    52.40620995496821
                ]
            }
        },
        {
            "type": "Feature",
            "properties": {
                "ref:csioz": 1179610,
                "name": "Doz Apteka Dbam O Zdrowie Na Warszawskim",
                "addr:street": "Łomżyńska",
                "addr:housenumber": "3",
                "addr:city": "Poznań",
                "addr:postcode": "61-048",
                "amenity": "pharmacy"
            },
            "geometry": {
                "type": "Point",
                "coordinates": [
                    16.985673411859175,
                    52.40908079773203
                ]
            }
        },
        {
            "type": "Feature",
            "properties": {
                "ref:csioz": 1194947,
                "name": "Na Rusa",
                "addr:street": "Bliźniąt",
                "addr:housenumber": "12",
                "addr:city": "Poznań",
                "addr:postcode": "61-244",
                "amenity": "pharmacy"
            },
            "geometry": {
                "type": "Point",
                "coordinates": [
                    16.98491466887888,
                    52.39257978635037
                ]
            }
        },
        {
            "type": "Feature",
            "properties": {
                "ref:csioz": 1202537,
                "name": "Św. Wojciecha",
                "addr:street": "Bolesława Krzywoustego",
                "addr:housenumber": "114",
                "addr:city": "Poznań",
                "addr:postcode": "61-144",
                "amenity": "pharmacy"
            },
            "geometry": {
                "type": "Point",
                "coordinates": [
                    16.992349985330236,
                    52.36218293191681
                ]
            }
        },
        {
            "type": "Feature",
            "properties": {
                "ref:csioz": 1044385,
                "addr:street": "SZWAJCARSKA",
                "addr:housenumber": "3",
                "addr:city": "POZNAŃ",
                "addr:postcode": "61-285",
                "amenity": "pharmacy"
            },
            "geometry": {
                "type": "Point",
                "coordinates": [
                    16.99520127178003,
                    52.38969774326218
                ]
            }
        },
        {
            "type": "Feature",
            "properties": {
                "ref:csioz": 1044429,
                "addr:street": "Mogileńska",
                "addr:housenumber": "42",
                "addr:city": "Poznań",
                "addr:postcode": "61-044",
                "amenity": "pharmacy"
            },
            "geometry": {
                "type": "Point",
                "coordinates": [
                    16.99354394163792,
                    52.41152847544647
                ]
            }
        },
        {
            "type": "Feature",
            "properties": {
                "ref:csioz": 1045993,
                "name": "Nasza",
                "addr:street": "Szwajcarska",
                "addr:housenumber": "3",
                "addr:city": "Poznań",
                "addr:postcode": "61-285",
                "amenity": "pharmacy"
            },
            "geometry": {
                "type": "Point",
                "coordinates": [
                    16.99520127178003,
                    52.38969774326218
                ]
            }
        },
        {
            "type": "Feature",
            "properties": {
                "ref:csioz": 1046220,
                "name": "Apteka Iluminata",
                "addr:street": "Kostrzyńska",
                "addr:housenumber": "5",
                "addr:city": "Poznań",
                "addr:postcode": "61-042",
                "amenity": "pharmacy"
            },
            "geometry": {
                "type": "Point",
                "coordinates": [
                    16.986079464845567,
                    52.4105235848096
                ]
            }
        },
        {
            "type": "Feature",
            "properties": {
                "ref:csioz": 1047712,
                "name": "Pod Zodiakiem",
                "addr:street": "RUSA",
                "addr:housenumber": "12",
                "addr:city": "POZNAŃ",
                "addr:postcode": "61-245",
                "amenity": "pharmacy"
            },
            "geometry": {
                "type": "Point",
                "coordinates": [
                    16.98277262453377,
                    52.392786786879
                ]
            }
        },
        {
            "type": "Feature",
            "properties": {
                "ref:csioz": 1051016,
                "name": "Św. Kamila",
                "addr:street": "Toruńska",
                "addr:housenumber": "23",
                "addr:city": "Poznań",
                "addr:postcode": "61-045",
                "amenity": "pharmacy"
            },
            "geometry": {
                "type": "Point",
                "coordinates": [
                    16.983416023103082,
                    52.41225629663166
                ]
            }
        },
        {
            "type": "Feature",
            "properties": {
                "ref:csioz": 1051218,
                "name": "Św. Kamila",
                "addr:street": "Mogileńska",
                "addr:housenumber": "10",
                "addr:city": "Poznań",
                "addr:postcode": "61-052",
                "amenity": "pharmacy"
            },
            "geometry": {
                "type": "Point",
                "coordinates": [
                    16.993808228109998,
                    52.40683874428472
                ]
            }
        },
        {
            "type": "Feature",
            "properties": {
                "ref:csioz": 1055343,
                "name": "Apteka Szczepankowo",
                "addr:street": "Skibowa",
                "addr:housenumber": "15C",
                "addr:city": "Poznań",
                "addr:postcode": "61-312",
                "amenity": "pharmacy"
            },
            "geometry": {
                "type": "Point",
                "coordinates": [
                    17.010117306116452,
                    52.36460522107854
                ]
            }
        },
        {
            "type": "Feature",
            "properties": {
                "ref:csioz": 1055397,
                "name": "Melissa",
                "addr:street": "Szczepankowo",
                "addr:housenumber": "57",
                "addr:city": "Poznań",
                "addr:postcode": "61-311",
                "amenity": "pharmacy"
            },
            "geometry": {
                "type": "Point",
                "coordinates": [
                    17.001727586060237,
                    52.3687480566526
                ]
            }
        },
        {
            "type": "Feature",
            "properties": {
                "ref:csioz": 1055898,
                "name": "Dr Zdrowie",
                "addr:street": "Szwajcarska",
                "addr:housenumber": "14",
                "addr:city": "Poznań",
                "addr:postcode": "61-285",
                "amenity": "pharmacy"
            },
            "geometry": {
                "type": "Point",
                "coordinates": [
                    16.99661132362115,
                    52.38326788589649
                ]
            }
        },
        {
            "type": "Feature",
            "properties": {
                "ref:csioz": 1123861,
                "name": "Krzesiny",
                "addr:street": "Jarosławska",
                "addr:housenumber": "4",
                "addr:city": "Poznań",
                "addr:postcode": "61-321",
                "amenity": "pharmacy"
            },
            "geometry": {
                "type": "Point",
                "coordinates": [
                    16.98550613106762,
                    52.34198102994703
                ]
            }
        },
        {
            "type": "Feature",
            "properties": {
                "ref:csioz": 1208371,
                "addr:street": "Bolesława Krzywoustego",
                "addr:housenumber": "114",
                "addr:city": "Poznań",
                "addr:postcode": "61-144",
                "amenity": "pharmacy"
            },
            "geometry": {
                "type": "Point",
                "coordinates": [
                    16.992349985330236,
                    52.36218293191681
                ]
            }
        },
        {
            "type": "Feature",
            "properties": {
                "ref:csioz": 1225389,
                "name": "Franowo",
                "addr:street": "Szwedzka",
                "addr:housenumber": "6A",
                "addr:city": "Poznań",
                "addr:postcode": "61-285",
                "amenity": "pharmacy"
            },
            "geometry": {
                "type": "Point",
                "coordinates": [
                    16.98331499291676,
                    52.379854202308756
                ]
            }
        },
        {
            "type": "Feature",
            "properties": {
                "ref:csioz": 1226989,
                "addr:street": "Barana",
                "addr:housenumber": "13",
                "addr:city": "Poznań",
                "addr:postcode": "61-244",
                "amenity": "pharmacy"
            },
            "geometry": {
                "type": "Point",
                "coordinates": [
                    16.990581999993356,
                    52.39292700000329
                ]
            }
        },
        {
            "type": "Feature",
            "properties": {
                "ref:csioz": 1044751,
                "name": "Centrum Leków",
                "addr:street": "Władysława Łokietka",
                "addr:housenumber": "115",
                "addr:city": "Poznań",
                "addr:postcode": "61-616",
                "amenity": "pharmacy"
            },
            "geometry": {
                "type": "Point",
                "coordinates": [
                    16.94280194203287,
                    52.448603522284465
                ]
            }
        },
        {
            "type": "Feature",
            "properties": {
                "ref:csioz": 1045126,
                "name": "Wielkopolska",
                "addr:street": "Serbska",
                "addr:housenumber": "7",
                "addr:city": "Poznań-Stare Miasto",
                "addr:postcode": "61-696",
                "amenity": "pharmacy"
            },
            "geometry": {
                "type": "Point",
                "coordinates": [
                    16.9507396120143,
                    52.432061045524506
                ]
            }
        },
        {
            "type": "Feature",
            "properties": {
                "ref:csioz": 1045545,
                "name": "Doz Apteka Dbam O Zdrowie",
                "addr:street": "28 CZERWCA 1956 R.",
                "addr:housenumber": "151",
                "addr:city": "Poznań",
                "addr:postcode": "61-525",
                "amenity": "pharmacy"
            },
            "geometry": {
                "type": "Point",
                "coordinates": [
                    16.94612945380675,
                    52.444802097146585
                ]
            }
        },
        {
            "type": "Feature",
            "properties": {
                "ref:csioz": 1046923,
                "name": "Pharmacon",
                "addr:street": "Naramowicka",
                "addr:housenumber": "176",
                "addr:city": "Poznań",
                "addr:postcode": "61-601",
                "amenity": "pharmacy"
            },
            "geometry": {
                "type": "Point",
                "coordinates": [
                    16.948258999996916,
                    52.45254100001619
                ]
            }
        },
        {
            "type": "Feature",
            "properties": {
                "ref:csioz": 1047111,
                "name": "Aspirynka",
                "addr:street": "Stare Żegrze",
                "addr:housenumber": "34",
                "addr:city": "Poznań",
                "addr:postcode": "61-249",
                "amenity": "pharmacy"
            },
            "geometry": {
                "type": "Point",
                "coordinates": [
                    16.95767056330456,
                    52.38020137622798
                ]
            }
        },
        {
            "type": "Feature",
            "properties": {
                "ref:csioz": 1047263,
                "name": "Apteka Dbam O Zdrowie",
                "addr:street": "Orła Białego",
                "addr:housenumber": "75",
                "addr:city": "Poznań-Nowe Miasto",
                "addr:postcode": "61-251",
                "amenity": "pharmacy"
            },
            "geometry": {
                "type": "Point",
                "coordinates": [
                    16.970027510542064,
                    52.37906372067532
                ]
            }
        },
        {
            "type": "Feature",
            "properties": {
                "ref:csioz": 1047471,
                "name": "Apteka Gemini",
                "addr:street": "Piastowskie",
                "addr:housenumber": "75",
                "addr:city": "Poznań",
                "addr:postcode": "61-159",
                "amenity": "pharmacy"
            },
            "geometry": {
                "type": "Point",
                "coordinates": [
                    16.94537416943514,
                    52.389624810626024
                ]
            }
        },
        {
            "type": "Feature",
            "properties": {
                "ref:csioz": 1047483,
                "name": "Apteka Galenica",
                "addr:street": "Rzeczypospolitej",
                "addr:housenumber": "6A",
                "addr:city": "Poznań",
                "addr:postcode": "61-397",
                "amenity": "pharmacy"
            },
            "geometry": {
                "type": "Point",
                "coordinates": [
                    16.95095642004387,
                    52.388667487050995
                ]
            }
        },
        {
            "type": "Feature",
            "properties": {
                "ref:csioz": 1047507,
                "name": "Apteka Pod Złotym Lwem",
                "addr:street": "Wilczak",
                "addr:housenumber": "12",
                "addr:city": "Poznań",
                "addr:postcode": "61-623",
                "amenity": "pharmacy"
            },
            "geometry": {
                "type": "Point",
                "coordinates": [
                    16.949726061987825,
                    52.42921469523561
                ]
            }
        },
        {
            "type": "Feature",
            "properties": {
                "ref:csioz": 1047608,
                "name": "Elixir",
                "addr:street": "Pod Lipami",
                "addr:housenumber": "104",
                "addr:city": "Poznań",
                "addr:postcode": "61-630",
                "amenity": "pharmacy"
            },
            "geometry": {
                "type": "Point",
                "coordinates": [
                    16.941554779464727,
                    52.42983317468537
                ]
            }
        },
        {
            "type": "Feature",
            "properties": {
                "ref:csioz": 1049918,
                "name": "Na Zawadach",
                "addr:street": "Stanisława Małachowskiego",
                "addr:housenumber": "27",
                "addr:city": "Poznań",
                "addr:postcode": "61-129",
                "amenity": "pharmacy"
            },
            "geometry": {
                "type": "Point",
                "coordinates": [
                    16.960126482923922,
                    52.412992253611314
                ]
            }
        },
        {
            "type": "Feature",
            "properties": {
                "ref:csioz": 1050275,
                "name": "Alium",
                "addr:street": "Armii Krajowej",
                "addr:housenumber": "98",
                "addr:city": "Poznań",
                "addr:postcode": "61-381",
                "amenity": "pharmacy"
            },
            "geometry": {
                "type": "Point",
                "coordinates": [
                    16.95196092308242,
                    52.37984143383041
                ]
            }
        },
        {
            "type": "Feature",
            "properties": {
                "ref:csioz": 1051676,
                "name": "Familijna",
                "addr:street": "Wójtowska",
                "addr:housenumber": "34A",
                "addr:city": "Poznań",
                "addr:postcode": "61-654",
                "amenity": "pharmacy"
            },
            "geometry": {
                "type": "Point",
                "coordinates": [
                    16.939768667453606,
                    52.42971282514983
                ]
            }
        },
        {
            "type": "Feature",
            "properties": {
                "ref:csioz": 1055450,
                "name": "Medkon",
                "addr:street": "Powstań Narodowych",
                "addr:housenumber": "35",
                "addr:city": "Poznań",
                "addr:postcode": "61-215",
                "amenity": "pharmacy"
            },
            "geometry": {
                "type": "Point",
                "coordinates": [
                    16.953889720843396,
                    52.388661217850334
                ]
            }
        },
        {
            "type": "Feature",
            "properties": {
                "ref:csioz": 1055833,
                "name": "Convallaria",
                "addr:street": "Orła Białego",
                "addr:housenumber": "103",
                "addr:city": "Poznań",
                "addr:postcode": "61-251",
                "amenity": "pharmacy"
            },
            "geometry": {
                "type": "Point",
                "coordinates": [
                    16.96998171334119,
                    52.3818269025044
                ]
            }
        },
        {
            "type": "Feature",
            "properties": {
                "ref:csioz": 1175605,
                "name": "Kocanka",
                "addr:street": "28 CZERWCA 1956",
                "addr:housenumber": "261",
                "addr:city": "Poznań",
                "addr:postcode": "61-485",
                "amenity": "pharmacy"
            },
            "geometry": {
                "type": "Point",
                "coordinates": [
                    16.946295318057754,
                    52.46054526114521
                ]
            }
        },
        {
            "type": "Feature",
            "properties": {
                "ref:csioz": 1177504,
                "name": "Orle Gniazdo",
                "addr:street": "Lecha",
                "addr:housenumber": "43",
                "addr:city": "Poznań",
                "addr:postcode": "61-294",
                "amenity": "pharmacy"
            },
            "geometry": {
                "type": "Point",
                "coordinates": [
                    16.975044131138286,
                    52.39048978872897
                ]
            }
        },
        {
            "type": "Feature",
            "properties": {
                "ref:csioz": 1182866,
                "name": "Dom Leków",
                "addr:street": "Naramowicka",
                "addr:housenumber": "164",
                "addr:city": "Poznań",
                "addr:postcode": "61-619",
                "amenity": "pharmacy"
            },
            "geometry": {
                "type": "Point",
                "coordinates": [
                    16.94808397930509,
                    52.45036970801873
                ]
            }
        },
        {
            "type": "Feature",
            "properties": {
                "ref:csioz": 1212027,
                "name": "Medkon",
                "addr:street": "Naramowicka",
                "addr:housenumber": "47",
                "addr:city": "Poznań",
                "addr:postcode": "61-664",
                "amenity": "pharmacy"
            },
            "geometry": {
                "type": "Point",
                "coordinates": [
                    16.944774058668678,
                    52.43176403229208
                ]
            }
        },
        {
            "type": "Feature",
            "properties": {
                "ref:csioz": 1044534,
                "addr:street": "GROBLA",
                "addr:housenumber": "26",
                "addr:city": "POZNAŃ",
                "addr:postcode": "61-858",
                "amenity": "pharmacy"
            },
            "geometry": {
                "type": "Point",
                "coordinates": [
                    16.940129920961052,
                    52.405982861857126
                ]
            }
        },
        {
            "type": "Feature",
            "properties": {
                "ref:csioz": 1044982,
                "name": "Apteka Nad Wartą",
                "addr:street": "Piastowskie",
                "addr:housenumber": "22",
                "addr:city": "Poznań",
                "addr:postcode": "61-148",
                "amenity": "pharmacy"
            },
            "geometry": {
                "type": "Point",
                "coordinates": [
                    16.945117386812615,
                    52.39476949662437
                ]
            }
        },
        {
            "type": "Feature",
            "properties": {
                "ref:csioz": 1045270,
                "name": "Pod Smokiem",
                "addr:street": "Średnia",
                "addr:housenumber": "1",
                "addr:city": "Poznań",
                "addr:postcode": "61-011",
                "amenity": "pharmacy"
            },
            "geometry": {
                "type": "Point",
                "coordinates": [
                    16.969984717326074,
                    52.42159258946726
                ]
            }
        },
        {
            "type": "Feature",
            "properties": {
                "ref:csioz": 1045895,
                "name": "Apteka 112",
                "addr:street": "Bohaterów II Wojny Światowej",
                "addr:housenumber": "31",
                "addr:city": "Poznań",
                "addr:postcode": "61-386",
                "amenity": "pharmacy"
            },
            "geometry": {
                "type": "Point",
                "coordinates": [
                    16.952014430664146,
                    52.38380312373745
                ]
            }
        },
        {
            "type": "Feature",
            "properties": {
                "ref:csioz": 1046071,
                "name": "Wielkopolska",
                "addr:street": "Piastowskie",
                "addr:housenumber": "17",
                "addr:city": "Poznań-Nowe Miasto",
                "addr:postcode": "61-688",
                "amenity": "pharmacy"
            },
            "geometry": {
                "type": "Point",
                "coordinates": [
                    16.94514882527858,
                    52.396377700345006
                ]
            }
        },
        {
            "type": "Feature",
            "properties": {
                "ref:csioz": 1046382,
                "name": "Dla Ciebie",
                "addr:street": "Jagiellońskie",
                "addr:housenumber": "121D",
                "addr:city": "Poznań",
                "addr:postcode": "61-222",
                "amenity": "pharmacy"
            },
            "geometry": {
                "type": "Point",
                "coordinates": [
                    16.95297286240799,
                    52.3908053274254
                ]
            }
        },
        {
            "type": "Feature",
            "properties": {
                "ref:csioz": 1046476,
                "name": "Super-Pharm",
                "addr:street": "Maltańska",
                "addr:housenumber": "1",
                "addr:city": "Poznań",
                "addr:postcode": "61-131",
                "amenity": "pharmacy"
            },
            "geometry": {
                "type": "Point",
                "coordinates": [
                    16.959786833416143,
                    52.40120292434254
                ]
            }
        },
        {
            "type": "Feature",
            "properties": {
                "ref:csioz": 1047044,
                "name": "Wielkopolska",
                "addr:street": "Kórnicka",
                "addr:housenumber": "24",
                "addr:city": "Poznań-Nowe Miasto",
                "addr:postcode": "61-141",
                "amenity": "pharmacy"
            },
            "geometry": {
                "type": "Point",
                "coordinates": [
                    16.950287691437474,
                    52.39974606617504
                ]
            }
        },
        {
            "type": "Feature",
            "properties": {
                "ref:csioz": 1050162,
                "name": "Agatom Ii",
                "addr:street": "Katowicka",
                "addr:housenumber": "55",
                "addr:city": "Poznań",
                "addr:postcode": "61-131",
                "amenity": "pharmacy"
            },
            "geometry": {
                "type": "Point",
                "coordinates": [
                    16.96357099999699,
                    52.39661000001611
                ]
            }
        },
        {
            "type": "Feature",
            "properties": {
                "ref:csioz": 1050820,
                "name": "Apteka Naramowicka Plewa Szafran Spółka Jawna",
                "addr:street": "Naramowicka",
                "addr:housenumber": "172",
                "addr:city": "Poznań",
                "addr:postcode": "61-611",
                "amenity": "pharmacy"
            },
            "geometry": {
                "type": "Point",
                "coordinates": [
                    16.94828450565773,
                    52.45148651152812
                ]
            }
        },
        {
            "type": "Feature",
            "properties": {
                "ref:csioz": 1051042,
                "name": "Apteka Agatom",
                "addr:street": "Katowicka",
                "addr:housenumber": "35",
                "addr:city": "Poznań",
                "addr:postcode": "61-131",
                "amenity": "pharmacy"
            },
            "geometry": {
                "type": "Point",
                "coordinates": [
                    16.962684242926397,
                    52.3980132615498
                ]
            }
        },
        {
            "type": "Feature",
            "properties": {
                "ref:csioz": 1051167,
                "name": "Apteka Pod Jemiołą",
                "addr:street": "Zdobywców Monte Cassino",
                "addr:housenumber": "54",
                "addr:city": "Poznań",
                "addr:postcode": "61-695",
                "amenity": "pharmacy"
            },
            "geometry": {
                "type": "Point",
                "coordinates": [
                    16.954405698246966,
                    52.43741104323892
                ]
            }
        },
        {
            "type": "Feature",
            "properties": {
                "ref:csioz": 1051239,
                "name": "Tysiąclecia",
                "addr:street": "Tysiąclecia",
                "addr:housenumber": "30 BOX P",
                "addr:city": "Poznań",
                "addr:postcode": "61-255",
                "amenity": "pharmacy"
            },
            "geometry": {
                "type": "Point",
                "coordinates": [
                    16.975847999997068,
                    52.3952150000161
                ]
            }
        },
        {
            "type": "Feature",
            "properties": {
                "ref:csioz": 1051389,
                "name": "Apteka Wielkopolska",
                "addr:street": "Kosmonautów",
                "addr:housenumber": "104",
                "addr:city": "Poznań",
                "addr:postcode": "61-642",
                "amenity": "pharmacy"
            },
            "geometry": {
                "type": "Point",
                "coordinates": [
                    16.94176799679057,
                    52.438420301541136
                ]
            }
        },
        {
            "type": "Feature",
            "properties": {
                "ref:csioz": 1051536,
                "name": "Prima",
                "addr:street": "Czecha",
                "addr:housenumber": "73",
                "addr:city": "Poznań",
                "addr:postcode": "61-289",
                "amenity": "pharmacy"
            },
            "geometry": {
                "type": "Point",
                "coordinates": [
                    16.977317613475496,
                    52.38592128664156
                ]
            }
        },
        {
            "type": "Feature",
            "properties": {
                "ref:csioz": 1055182,
                "name": "Apteka Główna",
                "addr:street": "Główna",
                "addr:housenumber": "53",
                "addr:city": "Poznań",
                "addr:postcode": "61-019",
                "amenity": "pharmacy"
            },
            "geometry": {
                "type": "Point",
                "coordinates": [
                    16.973780770431183,
                    52.42206186390243
                ]
            }
        },
        {
            "type": "Feature",
            "properties": {
                "ref:csioz": 1055207,
                "addr:street": "Oświecenia",
                "addr:housenumber": "57",
                "addr:city": "Poznań",
                "addr:postcode": "61-208",
                "amenity": "pharmacy"
            },
            "geometry": {
                "type": "Point",
                "coordinates": [
                    16.958068966115516,
                    52.39041040313458
                ]
            }
        },
        {
            "type": "Feature",
            "properties": {
                "ref:csioz": 1055577,
                "name": "Vita-Farm",
                "addr:street": "Stare Żegrze",
                "addr:housenumber": "110",
                "addr:city": "Poznań",
                "addr:postcode": "61-249",
                "amenity": "pharmacy"
            },
            "geometry": {
                "type": "Point",
                "coordinates": [
                    16.967367454178813,
                    52.383683718605475
                ]
            }
        },
        {
            "type": "Feature",
            "properties": {
                "ref:csioz": 1055589,
                "name": "Piotra I Pawła",
                "addr:street": "Sarmacka",
                "addr:housenumber": "15",
                "addr:city": "Poznań",
                "addr:postcode": "61-615",
                "amenity": "pharmacy"
            },
            "geometry": {
                "type": "Point",
                "coordinates": [
                    16.940388362934428,
                    52.4455743468089
                ]
            }
        },
        {
            "type": "Feature",
            "properties": {
                "ref:csioz": 1055794,
                "name": "Apteka Dbam O Zdrowie",
                "addr:street": "Lecha",
                "addr:housenumber": "120",
                "addr:city": "Poznań",
                "addr:postcode": "61-298",
                "amenity": "pharmacy"
            },
            "geometry": {
                "type": "Point",
                "coordinates": [
                    16.9747988567246,
                    52.38734255304923
                ]
            }
        },
        {
            "type": "Feature",
            "properties": {
                "ref:csioz": 1055936,
                "name": "Pamiątkowa",
                "addr:street": "Jagiellońskie",
                "addr:housenumber": "12",
                "addr:city": "Poznań",
                "addr:postcode": "61-227",
                "amenity": "pharmacy"
            },
            "geometry": {
                "type": "Point",
                "coordinates": [
                    16.9498571191331,
                    52.39336106146222
                ]
            }
        },
        {
            "type": "Feature",
            "properties": {
                "ref:csioz": 1190494,
                "name": "Apteka Iluminata 2",
                "addr:street": "Rubież",
                "addr:housenumber": "14",
                "addr:city": "Poznań",
                "addr:postcode": "61-612",
                "amenity": "pharmacy"
            },
            "geometry": {
                "type": "Point",
                "coordinates": [
                    16.95001928073552,
                    52.448069413006124
                ]
            }
        },
        {
            "type": "Feature",
            "properties": {
                "ref:csioz": 1175797,
                "name": "Polan",
                "addr:street": "Polan",
                "addr:housenumber": "100",
                "addr:city": "Poznań",
                "addr:postcode": "61-253",
                "amenity": "pharmacy"
            },
            "geometry": {
                "type": "Point",
                "coordinates": [
                    16.960031890438675,
                    52.383717639908916
                ]
            }
        },
        {
            "type": "Feature",
            "properties": {
                "ref:csioz": 1179033,
                "name": "Apteka Św. Kamila",
                "addr:street": "Ludwika Zamenhofa",
                "addr:housenumber": "133",
                "addr:city": "Poznań",
                "addr:postcode": "61-131",
                "amenity": "pharmacy"
            },
            "geometry": {
                "type": "Point",
                "coordinates": [
                    16.945357320539884,
                    52.38208502220344
                ]
            }
        },
        {
            "type": "Feature",
            "properties": {
                "ref:csioz": 1186476,
                "name": "Medkon",
                "addr:street": "Blacharska",
                "addr:housenumber": "2",
                "addr:city": "Poznań",
                "addr:postcode": "61-006",
                "amenity": "pharmacy"
            },
            "geometry": {
                "type": "Point",
                "coordinates": [
                    16.96837642820756,
                    52.420408898016994
                ]
            }
        },
        {
            "type": "Feature",
            "properties": {
                "ref:csioz": 1186492,
                "name": "Medkon",
                "addr:street": "Milczańska",
                "addr:housenumber": "1",
                "addr:city": "Poznań",
                "addr:postcode": "61-131",
                "amenity": "pharmacy"
            },
            "geometry": {
                "type": "Point",
                "coordinates": [
                    16.962657534590672,
                    52.395963085506466
                ]
            }
        },
        {
            "type": "Feature",
            "properties": {
                "ref:csioz": 1186522,
                "name": "Wielkopolska",
                "addr:street": "Piastowskie",
                "addr:housenumber": "58",
                "addr:city": "Poznań-Nowe Miasto",
                "addr:postcode": "61-156",
                "amenity": "pharmacy"
            },
            "geometry": {
                "type": "Point",
                "coordinates": [
                    16.943471216961576,
                    52.39193045583623
                ]
            }
        },
        {
            "type": "Feature",
            "properties": {
                "ref:csioz": 1194216,
                "name": "Dom Leków",
                "addr:street": "Piastowskie",
                "addr:housenumber": "77",
                "addr:city": "Poznań",
                "addr:postcode": "61-159",
                "amenity": "pharmacy"
            },
            "geometry": {
                "type": "Point",
                "coordinates": [
                    16.94491182429661,
                    52.39028569483742
                ]
            }
        },
        {
            "type": "Feature",
            "properties": {
                "ref:csioz": 1199115,
                "name": "Wasza",
                "addr:street": "Piotra Tomickiego",
                "addr:housenumber": "35",
                "addr:city": "Poznań",
                "addr:postcode": "61-117",
                "amenity": "pharmacy"
            },
            "geometry": {
                "type": "Point",
                "coordinates": [
                    16.961240139234025,
                    52.41263641996395
                ]
            }
        },
        {
            "type": "Feature",
            "properties": {
                "ref:csioz": 1206392,
                "name": "Medicover",
                "addr:street": "abpa Antoniego Baraniaka",
                "addr:housenumber": "88",
                "addr:city": "Poznań",
                "addr:postcode": "61-131",
                "amenity": "pharmacy"
            },
            "geometry": {
                "type": "Point",
                "coordinates": [
                    16.96410758475537,
                    52.40141271158147
                ]
            }
        },
        {
            "type": "Feature",
            "properties": {
                "ref:csioz": 1208213,
                "addr:street": "Chwaliszewo",
                "addr:housenumber": "19A",
                "addr:city": "Poznań",
                "addr:postcode": "61-105",
                "amenity": "pharmacy"
            },
            "geometry": {
                "type": "Point",
                "coordinates": [
                    16.94274699999688,
                    52.409250000016115
                ]
            }
        },
        {
            "type": "Feature",
            "properties": {
                "ref:csioz": 1209987,
                "addr:street": "Wenecjańska",
                "addr:housenumber": "8",
                "addr:city": "Poznań-Stare Miasto",
                "addr:postcode": "61-101",
                "amenity": "pharmacy"
            },
            "geometry": {
                "type": "Point",
                "coordinates": [
                    16.94055831890347,
                    52.408901812000536
                ]
            }
        },
        {
            "type": "Feature",
            "properties": {
                "ref:csioz": 1210559,
                "name": "Super-Pharm Apteka",
                "addr:street": "Pleszewska",
                "addr:housenumber": "1",
                "addr:city": "Poznań-Nowe Miasto",
                "addr:postcode": "61-136",
                "amenity": "pharmacy"
            },
            "geometry": {
                "type": "Point",
                "coordinates": [
                    16.95437362780104,
                    52.397990554663856
                ]
            }
        },
        {
            "type": "Feature",
            "properties": {
                "ref:csioz": 1212933,
                "name": "Pamiątkowa",
                "addr:street": "os. Czecha",
                "addr:housenumber": "79",
                "addr:city": "Poznań-Nowe Miasto",
                "addr:postcode": "61-289",
                "amenity": "pharmacy"
            },
            "geometry": {
                "type": "Point",
                "coordinates": [
                    16.979612653151804,
                    52.387372791969526
                ]
            }
        },
        {
            "type": "Feature",
            "properties": {
                "ref:csioz": 1213976,
                "name": "Pharmacon",
                "addr:street": "Budzisława",
                "addr:housenumber": "1",
                "addr:city": "Poznań",
                "addr:postcode": "61-608",
                "amenity": "pharmacy"
            },
            "geometry": {
                "type": "Point",
                "coordinates": [
                    16.948186713479753,
                    52.45538722356782
                ]
            }
        },
        {
            "type": "Feature",
            "properties": {
                "ref:csioz": 1219540,
                "name": "Apteka Gemini",
                "addr:street": "Wichrowe Wzgórze",
                "addr:housenumber": "105",
                "addr:city": "Poznań",
                "addr:postcode": "61-699",
                "amenity": "pharmacy"
            },
            "geometry": {
                "type": "Point",
                "coordinates": [
                    16.940146240878562,
                    52.438600723224994
                ]
            }
        },
        {
            "type": "Feature",
            "properties": {
                "ref:csioz": 1219995,
                "name": "Centrum Leków",
                "addr:street": "Lecha",
                "addr:housenumber": "121",
                "addr:city": "Poznań",
                "addr:postcode": "61-298",
                "amenity": "pharmacy"
            },
            "geometry": {
                "type": "Point",
                "coordinates": [
                    16.975341699232807,
                    52.386534131092645
                ]
            }
        },
        {
            "type": "Feature",
            "properties": {
                "ref:csioz": 1227084,
                "name": "Medkon",
                "addr:street": "Krańcowa",
                "addr:housenumber": "62",
                "addr:city": "Poznań",
                "addr:postcode": "61-036",
                "amenity": "pharmacy"
            },
            "geometry": {
                "type": "Point",
                "coordinates": [
                    16.979413166307012,
                    52.409979357208734
                ]
            }
        },
        {
            "type": "Feature",
            "properties": {
                "ref:csioz": 1228215,
                "name": "Medkon",
                "addr:street": "Stare Żegrze",
                "addr:housenumber": "14",
                "addr:city": "Poznań",
                "addr:postcode": "61-249",
                "amenity": "pharmacy"
            },
            "geometry": {
                "type": "Point",
                "coordinates": [
                    16.962687643519537,
                    52.3806176118551
                ]
            }
        },
        {
            "type": "Feature",
            "properties": {
                "ref:csioz": 1230833,
                "name": "Różany Potok",
                "addr:street": "Drewsa Romana",
                "addr:housenumber": "1",
                "addr:city": "Poznań",
                "addr:postcode": "61-606",
                "amenity": "pharmacy"
            },
            "geometry": {
                "type": "Point",
                "coordinates": [
                    16.938480216007417,
                    52.46766314702194
                ]
            }
        },
        {
            "type": "Feature",
            "properties": {
                "ref:csioz": 1055403,
                "name": "Komandoria P.W.Św.Jana Jerozolimskiego",
                "addr:street": "Warszawska",
                "addr:housenumber": "47",
                "addr:city": "Poznań",
                "addr:postcode": "60-028",
                "amenity": "pharmacy"
            },
            "geometry": {
                "type": "Point",
                "coordinates": [
                    16.967918766193584,
                    52.40937400955271
                ]
            }
        },
        {
            "type": "Feature",
            "properties": {
                "ref:csioz": 1044930,
                "addr:street": "Leszczyńska",
                "addr:housenumber": "170",
                "addr:city": "Poznań",
                "addr:postcode": "61-411",
                "amenity": "pharmacy"
            },
            "geometry": {
                "type": "Point",
                "coordinates": [
                    16.880562132524457,
                    52.35979916812419
                ]
            }
        },
        {
            "type": "Feature",
            "properties": {
                "ref:csioz": 1045791,
                "name": "Zdrowa Wielkopolska",
                "addr:street": "Osinowa",
                "addr:housenumber": "14",
                "addr:city": "Poznań",
                "addr:postcode": "61-451",
                "amenity": "pharmacy"
            },
            "geometry": {
                "type": "Point",
                "coordinates": [
                    16.91206393704023,
                    52.36759416135979
                ]
            }
        },
        {
            "type": "Feature",
            "properties": {
                "ref:csioz": 1046110,
                "name": "Verus",
                "addr:street": "Jesionowa",
                "addr:housenumber": "25",
                "addr:city": "Poznań",
                "addr:postcode": "61-432",
                "amenity": "pharmacy"
            },
            "geometry": {
                "type": "Point",
                "coordinates": [
                    16.895800999996556,
                    52.36755500001606
                ]
            }
        },
        {
            "type": "Feature",
            "properties": {
                "ref:csioz": 1047077,
                "name": "Różana",
                "addr:street": "Książęca",
                "addr:housenumber": "1A",
                "addr:city": "Poznań",
                "addr:postcode": "61-361",
                "amenity": "pharmacy"
            },
            "geometry": {
                "type": "Point",
                "coordinates": [
                    16.93053099999678,
                    52.36687600001605
                ]
            }
        },
        {
            "type": "Feature",
            "properties": {
                "ref:csioz": 1050119,
                "name": "Dr. Max",
                "addr:street": "Starołęcka",
                "addr:housenumber": "79",
                "addr:city": "Poznań",
                "addr:postcode": "61-341",
                "amenity": "pharmacy"
            },
            "geometry": {
                "type": "Point",
                "coordinates": [
                    16.92789104998231,
                    52.36458162843193
                ]
            }
        },
        {
            "type": "Feature",
            "properties": {
                "ref:csioz": 1050722,
                "name": "Na Tarasie",
                "addr:street": "Łozowa",
                "addr:housenumber": "92",
                "addr:city": "Poznań",
                "addr:postcode": "61-443",
                "amenity": "pharmacy"
            },
            "geometry": {
                "type": "Point",
                "coordinates": [
                    16.907273319439803,
                    52.36465378893888
                ]
            }
        },
        {
            "type": "Feature",
            "properties": {
                "ref:csioz": 1051123,
                "name": "Apis",
                "addr:street": "Dębina",
                "addr:housenumber": "14",
                "addr:city": "Poznań",
                "addr:postcode": "61-450",
                "amenity": "pharmacy"
            },
            "geometry": {
                "type": "Point",
                "coordinates": [
                    16.90716499999664,
                    52.362078000016034
                ]
            }
        },
        {
            "type": "Feature",
            "properties": {
                "ref:csioz": 1191332,
                "name": "Przyjazna",
                "addr:street": "Starołęcka",
                "addr:housenumber": "42",
                "addr:city": "Poznań",
                "addr:postcode": "61-361",
                "amenity": "pharmacy"
            },
            "geometry": {
                "type": "Point",
                "coordinates": [
                    16.93246519971012,
                    52.36943739969877
                ]
            }
        },
        {
            "type": "Feature",
            "properties": {
                "ref:csioz": 1227381,
                "name": "Szpital I Przychodnia Medica Celsus Spółka Z Ograniczoną Odpowiedzialnością Spółka Komandytowa",
                "addr:street": "Unii Lubelskiej",
                "addr:housenumber": "1",
                "addr:city": "Poznań",
                "addr:postcode": "61-249",
                "amenity": "pharmacy"
            },
            "geometry": {
                "type": "Point",
                "coordinates": [
                    16.95488844600014,
                    52.37500411776354
                ]
            }
        },
        {
            "type": "Feature",
            "properties": {
                "ref:csioz": 1044714,
                "name": "Apteka Dbam O Zdrowie",
                "addr:street": "św. Szczepana",
                "addr:housenumber": "7",
                "addr:city": "Poznań",
                "addr:postcode": "61-465",
                "amenity": "pharmacy"
            },
            "geometry": {
                "type": "Point",
                "coordinates": [
                    16.90776688005179,
                    52.37246578387267
                ]
            }
        },
        {
            "type": "Feature",
            "properties": {
                "ref:csioz": 1045872,
                "name": "Gardenia",
                "addr:street": "Głuszyna",
                "addr:housenumber": "206",
                "addr:city": "Poznań",
                "addr:postcode": "61-329",
                "amenity": "pharmacy"
            },
            "geometry": {
                "type": "Point",
                "coordinates": [
                    16.966808132308056,
                    52.313246490586224
                ]
            }
        },
        {
            "type": "Feature",
            "properties": {
                "ref:csioz": 1045907,
                "name": "Przyjazna",
                "addr:street": "Falista",
                "addr:housenumber": "4A",
                "addr:city": "Poznań",
                "addr:postcode": "61-249",
                "amenity": "pharmacy"
            },
            "geometry": {
                "type": "Point",
                "coordinates": [
                    16.947689826869823,
                    52.36943544221043
                ]
            }
        },
        {
            "type": "Feature",
            "properties": {
                "ref:csioz": 1046808,
                "name": "Apteka Dbam O Zdrowie",
                "addr:street": "Jaworowa",
                "addr:housenumber": "66",
                "addr:city": "Poznań",
                "addr:postcode": "61-454",
                "amenity": "pharmacy"
            },
            "geometry": {
                "type": "Point",
                "coordinates": [
                    16.905057534039695,
                    52.367318596523404
                ]
            }
        },
        {
            "type": "Feature",
            "properties": {
                "ref:csioz": 1047681,
                "name": "Zdrowa Wielkopolska",
                "addr:street": "28 Czerwca 1956 r.",
                "addr:housenumber": "349",
                "addr:city": "Poznań",
                "addr:postcode": "61-437",
                "amenity": "pharmacy"
            },
            "geometry": {
                "type": "Point",
                "coordinates": [
                    16.90439482660959,
                    52.36711939498957
                ]
            }
        },
        {
            "type": "Feature",
            "properties": {
                "ref:csioz": 1048069,
                "addr:street": "Ostatnia",
                "addr:housenumber": "45",
                "addr:city": "Poznań",
                "addr:postcode": "60-102",
                "amenity": "pharmacy"
            },
            "geometry": {
                "type": "Point",
                "coordinates": [
                    16.87497902382307,
                    52.37179563845265
                ]
            }
        },
        {
            "type": "Feature",
            "properties": {
                "ref:csioz": 1050580,
                "name": "Apteka A2",
                "addr:street": "Głogowska",
                "addr:housenumber": "432",
                "addr:city": "Poznań",
                "addr:postcode": "60-004",
                "amenity": "pharmacy"
            },
            "geometry": {
                "type": "Point",
                "coordinates": [
                    16.83640441853287,
                    52.35443864649114
                ]
            }
        },
        {
            "type": "Feature",
            "properties": {
                "ref:csioz": 1051435,
                "name": "Bukowa",
                "addr:street": "Bukowa",
                "addr:housenumber": "2A",
                "addr:city": "Poznań",
                "addr:postcode": "61-445",
                "amenity": "pharmacy"
            },
            "geometry": {
                "type": "Point",
                "coordinates": [
                    16.90473618145396,
                    52.365357243665244
                ]
            }
        },
        {
            "type": "Feature",
            "properties": {
                "ref:csioz": 1051302,
                "name": "Mercurius",
                "addr:street": "Trzebawska",
                "addr:housenumber": "22",
                "addr:city": "Poznań",
                "addr:postcode": "61-102",
                "amenity": "pharmacy"
            },
            "geometry": {
                "type": "Point",
                "coordinates": [
                    16.86720173080445,
                    52.37015187399149
                ]
            }
        },
        {
            "type": "Feature",
            "properties": {
                "ref:csioz": 1182844,
                "name": "Dom Leków",
                "addr:street": "28 Czerwca 1956 r.",
                "addr:housenumber": "384",
                "addr:city": "Poznań",
                "addr:postcode": "61-441",
                "amenity": "pharmacy"
            },
            "geometry": {
                "type": "Point",
                "coordinates": [
                    16.902929783149414,
                    52.36297594774478
                ]
            }
        },
        {
            "type": "Feature",
            "properties": {
                "ref:csioz": 1195443,
                "name": "Doz Apteka Dbam O Zdrowie Zielona",
                "addr:street": "Orła Białego",
                "addr:housenumber": "45",
                "addr:city": "Poznań",
                "addr:postcode": "61-251",
                "amenity": "pharmacy"
            },
            "geometry": {
                "type": "Point",
                "coordinates": [
                    16.9630742670884,
                    52.375919550714904
                ]
            }
        },
        {
            "type": "Feature",
            "properties": {
                "ref:csioz": 1200958,
                "name": "Avena",
                "addr:street": "Opolska",
                "addr:housenumber": "17",
                "addr:city": "Poznań",
                "addr:postcode": "61-471",
                "amenity": "pharmacy"
            },
            "geometry": {
                "type": "Point",
                "coordinates": [
                    16.899288255159668,
                    52.36906869606866
                ]
            }
        },
        {
            "type": "Feature",
            "properties": {
                "ref:csioz": 1201505,
                "name": "Dom Leków",
                "addr:street": "Głogowska",
                "addr:housenumber": "\"440, 442\"",
                "addr:city": "Poznań",
                "addr:postcode": "63-440",
                "amenity": "pharmacy"
            },
            "geometry": {
                "type": "Point",
                "coordinates": [
                    16.840839164594183,
                    52.35297477095865
                ]
            }
        },
        {
            "type": "Feature",
            "properties": {
                "ref:csioz": 1212302,
                "name": "Amfora Przy Figurce",
                "addr:street": "Starołęcka",
                "addr:housenumber": "235",
                "addr:city": "Poznań",
                "addr:postcode": "61-341",
                "amenity": "pharmacy"
            },
            "geometry": {
                "type": "Point",
                "coordinates": [
                    16.918153142944387,
                    52.34168100638003
                ]
            }
        },
        {
            "type": "Feature",
            "properties": {
                "ref:csioz": 1212315,
                "name": "Apteka Verus",
                "addr:street": "Limbowa",
                "addr:housenumber": "3",
                "addr:city": "Poznań",
                "addr:postcode": "61-446",
                "amenity": "pharmacy"
            },
            "geometry": {
                "type": "Point",
                "coordinates": [
                    16.905506234091632,
                    52.36547151355255
                ]
            }
        },
        {
            "type": "Feature",
            "properties": {
                "ref:csioz": 1213103,
                "name": "Ziko Apteka",
                "addr:street": "Opolska",
                "addr:housenumber": "24",
                "addr:city": "Poznań",
                "addr:postcode": "61-433",
                "amenity": "pharmacy"
            },
            "geometry": {
                "type": "Point",
                "coordinates": [
                    16.90089403979499,
                    52.3707668068791
                ]
            }
        },
        {
            "type": "Feature",
            "properties": {
                "ref:csioz": 1217244,
                "name": "Centrum Leków",
                "addr:street": "ul. Czechosłowacka",
                "addr:housenumber": "46",
                "addr:city": "Poznań",
                "addr:postcode": "61-461",
                "amenity": "pharmacy"
            },
            "geometry": {
                "type": "Point",
                "coordinates": [
                    16.904691301514983,
                    52.36977168736501
                ]
            }
        },
        {
            "type": "Feature",
            "properties": {
                "ref:csioz": 1044336,
                "addr:street": "SZPITALNA",
                "addr:housenumber": "27",
                "addr:city": "POZNAŃ",
                "addr:postcode": "60-572",
                "amenity": "pharmacy"
            },
            "geometry": {
                "type": "Point",
                "coordinates": [
                    16.877719999996447,
                    52.41196800001613
                ]
            }
        },
        {
            "type": "Feature",
            "properties": {
                "ref:csioz": 1044266,
                "addr:street": "POLNA",
                "addr:housenumber": "33",
                "addr:city": "POZNAŃ",
                "addr:postcode": "60-572",
                "amenity": "pharmacy"
            },
            "geometry": {
                "type": "Point",
                "coordinates": [
                    16.895105132428455,
                    52.40971564771528
                ]
            }
        },
        {
            "type": "Feature",
            "properties": {
                "ref:csioz": 1044304,
                "name": "\"Lokalizacja: Poznań, Ul. Długa 1/2, Poznań, Ul. Szamarzewskiego 82/84\"",
                "addr:street": "DŁUGA",
                "addr:housenumber": "1",
                "addr:city": "POZNAŃ",
                "addr:postcode": "61-848",
                "amenity": "pharmacy"
            },
            "geometry": {
                "type": "Point",
                "coordinates": [
                    16.93782394983818,
                    52.396571131829546
                ]
            }
        },
        {
            "type": "Feature",
            "properties": {
                "ref:csioz": 1044348,
                "addr:street": "GARBARY",
                "addr:housenumber": "15",
                "addr:city": "POZNAŃ",
                "addr:postcode": "61-866",
                "amenity": "pharmacy"
            },
            "geometry": {
                "type": "Point",
                "coordinates": [
                    16.93631497732465,
                    52.4022589146664
                ]
            }
        },
        {
            "type": "Feature",
            "properties": {
                "ref:csioz": 1044780,
                "name": "Dr.Max",
                "addr:street": "Józefa Łukaszewicza",
                "addr:housenumber": "34/36",
                "addr:city": "Poznań",
                "addr:postcode": "60-279",
                "amenity": "pharmacy"
            },
            "geometry": {
                "type": "Point",
                "coordinates": [
                    16.902504999996616,
                    52.39167300001609
                ]
            }
        },
        {
            "type": "Feature",
            "properties": {
                "ref:csioz": 1044958,
                "name": "Kresowa",
                "addr:street": "Franciszka Stróżyńskiego",
                "addr:housenumber": "29",
                "addr:city": "Poznań",
                "addr:postcode": "60-688",
                "amenity": "pharmacy"
            },
            "geometry": {
                "type": "Point",
                "coordinates": [
                    16.90332726603258,
                    52.46318903410328
                ]
            }
        },
        {
            "type": "Feature",
            "properties": {
                "ref:csioz": 1045365,
                "name": "Botaniqa",
                "addr:street": "Grunwaldzka",
                "addr:housenumber": "31C",
                "addr:city": "Poznań-Grunwald",
                "addr:postcode": "60-783",
                "amenity": "pharmacy"
            },
            "geometry": {
                "type": "Point",
                "coordinates": [
                    16.89482545481222,
                    52.404235294133976
                ]
            }
        },
        {
            "type": "Feature",
            "properties": {
                "ref:csioz": 1045379,
                "name": "Pamiątkowa",
                "addr:street": "Arnolda Szylinga",
                "addr:housenumber": "1",
                "addr:city": "Poznań",
                "addr:postcode": "60-787",
                "amenity": "pharmacy"
            },
            "geometry": {
                "type": "Point",
                "coordinates": [
                    16.899635037098296,
                    52.405671299712274
                ]
            }
        },
        {
            "type": "Feature",
            "properties": {
                "ref:csioz": 1045436,
                "name": "Centrum",
                "addr:street": "Głogowska",
                "addr:housenumber": "53",
                "addr:city": "Poznań",
                "addr:postcode": "60-738",
                "amenity": "pharmacy"
            },
            "geometry": {
                "type": "Point",
                "coordinates": [
                    16.902863678408313,
                    52.3976335364798
                ]
            }
        },
        {
            "type": "Feature",
            "properties": {
                "ref:csioz": 1045461,
                "name": "Apteka111",
                "addr:street": "Ziębicka",
                "addr:housenumber": "19",
                "addr:city": "Poznań",
                "addr:postcode": "60-164",
                "amenity": "pharmacy"
            },
            "geometry": {
                "type": "Point",
                "coordinates": [
                    16.84457028908768,
                    52.384321207763286
                ]
            }
        },
        {
            "type": "Feature",
            "properties": {
                "ref:csioz": 1045769,
                "name": "Apteka Od Serca",
                "addr:street": "Wielkopolski",
                "addr:housenumber": "3A",
                "addr:city": "Poznań",
                "addr:postcode": "61-746",
                "amenity": "pharmacy"
            },
            "geometry": {
                "type": "Point",
                "coordinates": [
                    16.930831136413392,
                    52.41088899245534
                ]
            }
        },
        {
            "type": "Feature",
            "properties": {
                "ref:csioz": 1045941,
                "name": "Promienna",
                "addr:street": "Macieja Palacza",
                "addr:housenumber": "96",
                "addr:city": "Poznań",
                "addr:postcode": "60-274",
                "amenity": "pharmacy"
            },
            "geometry": {
                "type": "Point",
                "coordinates": [
                    16.87683652309587,
                    52.39191718884604
                ]
            }
        },
        {
            "type": "Feature",
            "properties": {
                "ref:csioz": 1045978,
                "name": "Wielkopolska",
                "addr:street": "Wichrowe Wzgórze",
                "addr:housenumber": "121A",
                "addr:city": "Poznań-Stare Miasto",
                "addr:postcode": "61-699",
                "amenity": "pharmacy"
            },
            "geometry": {
                "type": "Point",
                "coordinates": [
                    16.931320999994615,
                    52.43891000000857
                ]
            }
        },
        {
            "type": "Feature",
            "properties": {
                "ref:csioz": 1046522,
                "name": "Adamus",
                "addr:street": "Bukowska",
                "addr:housenumber": "100",
                "addr:city": "Poznań",
                "addr:postcode": "60-577",
                "amenity": "pharmacy"
            },
            "geometry": {
                "type": "Point",
                "coordinates": [
                    16.882743285779256,
                    52.41012822524525
                ]
            }
        },
        {
            "type": "Feature",
            "properties": {
                "ref:csioz": 1046598,
                "name": "Pod Klonami",
                "addr:street": "Górna Wilda",
                "addr:housenumber": "82",
                "addr:city": "Poznań-Wilda",
                "addr:postcode": "61-654",
                "amenity": "pharmacy"
            },
            "geometry": {
                "type": "Point",
                "coordinates": [
                    16.92459424753121,
                    52.39686505359642
                ]
            }
        },
        {
            "type": "Feature",
            "properties": {
                "ref:csioz": 1046691,
                "name": "Hebeapteka",
                "addr:street": "Sokoła",
                "addr:housenumber": "26",
                "addr:city": "Poznań",
                "addr:postcode": "60-644",
                "amenity": "pharmacy"
            },
            "geometry": {
                "type": "Point",
                "coordinates": [
                    16.91198592370432,
                    52.426261420311604
                ]
            }
        },
        {
            "type": "Feature",
            "properties": {
                "ref:csioz": 1046728,
                "name": "Z Sercem",
                "addr:street": "Strzeszyńska",
                "addr:housenumber": "63",
                "addr:city": "Poznań",
                "addr:postcode": "60-479",
                "amenity": "pharmacy"
            },
            "geometry": {
                "type": "Point",
                "coordinates": [
                    16.89397521082916,
                    52.44892812874624
                ]
            }
        },
        {
            "type": "Feature",
            "properties": {
                "ref:csioz": 1046881,
                "name": "W Przychodni",
                "addr:street": "Wichrowe Wzgórze",
                "addr:housenumber": "122",
                "addr:city": "Poznań",
                "addr:postcode": "61-669",
                "amenity": "pharmacy"
            },
            "geometry": {
                "type": "Point",
                "coordinates": [
                    16.932680678054655,
                    52.4384075702551
                ]
            }
        },
        {
            "type": "Feature",
            "properties": {
                "ref:csioz": 1046897,
                "name": "Nova",
                "addr:street": "Jana Ostroroga",
                "addr:housenumber": "36",
                "addr:city": "Poznań",
                "addr:postcode": "60-349",
                "amenity": "pharmacy"
            },
            "geometry": {
                "type": "Point",
                "coordinates": [
                    16.881102762672228,
                    52.40428641473589
                ]
            }
        },
        {
            "type": "Feature",
            "properties": {
                "ref:csioz": 1046951,
                "name": "Rosa",
                "addr:street": "Łazarski",
                "addr:housenumber": "7",
                "addr:city": "Poznań",
                "addr:postcode": "60-731",
                "amenity": "pharmacy"
            },
            "geometry": {
                "type": "Point",
                "coordinates": [
                    16.902250889083344,
                    52.39496105680412
                ]
            }
        },
        {
            "type": "Feature",
            "properties": {
                "ref:csioz": 1047066,
                "name": "Pod Złotym Lwem",
                "addr:street": "Stary Rynek",
                "addr:housenumber": "75",
                "addr:city": "Poznań",
                "addr:postcode": "61-772",
                "amenity": "pharmacy"
            },
            "geometry": {
                "type": "Point",
                "coordinates": [
                    16.932463430996936,
                    52.408149873284295
                ]
            }
        },
        {
            "type": "Feature",
            "properties": {
                "ref:csioz": 1047258,
                "name": "Prima",
                "addr:street": "Augustyna Szamarzewskiego",
                "addr:housenumber": "44",
                "addr:city": "Poznań",
                "addr:postcode": "60-522",
                "amenity": "pharmacy"
            },
            "geometry": {
                "type": "Point",
                "coordinates": [
                    16.89358599999656,
                    52.41170200001613
                ]
            }
        },
        {
            "type": "Feature",
            "properties": {
                "ref:csioz": 1047426,
                "name": "Apteka Im. I. Łukasiewicza",
                "addr:street": "Szpitalna",
                "addr:housenumber": "2",
                "addr:city": "Poznań",
                "addr:postcode": "60-584",
                "amenity": "pharmacy"
            },
            "geometry": {
                "type": "Point",
                "coordinates": [
                    16.88185648759705,
                    52.417204969156494
                ]
            }
        },
        {
            "type": "Feature",
            "properties": {
                "ref:csioz": 1047452,
                "name": "Farmasol",
                "addr:street": "Muszkowska",
                "addr:housenumber": "1",
                "addr:city": "Poznań",
                "addr:postcode": "60-443",
                "amenity": "pharmacy"
            },
            "geometry": {
                "type": "Point",
                "coordinates": [
                    16.826883600627195,
                    52.433947004114145
                ]
            }
        },
        {
            "type": "Feature",
            "properties": {
                "ref:csioz": 1047619,
                "name": "Winogradzka",
                "addr:street": "Przyjaźni",
                "addr:housenumber": "141B",
                "addr:city": "Poznań",
                "addr:postcode": "61-689",
                "amenity": "pharmacy"
            },
            "geometry": {
                "type": "Point",
                "coordinates": [
                    16.921129023347333,
                    52.43013203016988
                ]
            }
        },
        {
            "type": "Feature",
            "properties": {
                "ref:csioz": 1047635,
                "name": "Apteka Wielkolpolska",
                "addr:street": "Marysieńki",
                "addr:housenumber": "25",
                "addr:city": "Poznań-Stare Miasto",
                "addr:postcode": "60-683",
                "amenity": "pharmacy"
            },
            "geometry": {
                "type": "Point",
                "coordinates": [
                    16.902854190983845,
                    52.46023539987994
                ]
            }
        },
        {
            "type": "Feature",
            "properties": {
                "ref:csioz": 1047643,
                "addr:street": "Bolesława Chrobrego",
                "addr:housenumber": "118",
                "addr:city": "Poznań",
                "addr:postcode": "60-681",
                "amenity": "pharmacy"
            },
            "geometry": {
                "type": "Point",
                "coordinates": [
                    16.91525961900722,
                    52.44969194309156
                ]
            }
        },
        {
            "type": "Feature",
            "properties": {
                "ref:csioz": 1047662,
                "name": "Doz Apteka Dbam O Zdrowie",
                "addr:street": "28 Czerwca 1956 r.",
                "addr:housenumber": "138/140",
                "addr:city": "Poznań",
                "addr:postcode": "61-525",
                "amenity": "pharmacy"
            },
            "geometry": {
                "type": "Point",
                "coordinates": [
                    16.918395418212068,
                    52.389622075485796
                ]
            }
        },
        {
            "type": "Feature",
            "properties": {
                "ref:csioz": 1047670,
                "name": "Pod Koroną",
                "addr:street": "Górna Wilda",
                "addr:housenumber": "107",
                "addr:city": "Poznań",
                "addr:postcode": "61-567",
                "amenity": "pharmacy"
            },
            "geometry": {
                "type": "Point",
                "coordinates": [
                    16.92199936536634,
                    52.393639226344675
                ]
            }
        },
        {
            "type": "Feature",
            "properties": {
                "ref:csioz": 1049885,
                "name": "Leszczyńska",
                "addr:street": "Leszczyńska",
                "addr:housenumber": "3-5",
                "addr:city": "Poznań",
                "addr:postcode": "60-115",
                "amenity": "pharmacy"
            },
            "geometry": {
                "type": "Point",
                "coordinates": [
                    16.880801641079195,
                    52.377392602056624
                ]
            }
        },
        {
            "type": "Feature",
            "properties": {
                "ref:csioz": 1049899,
                "name": "Apteka Dbam O Zdrowie",
                "addr:street": "Jana Henryka Dąbrowskiego",
                "addr:housenumber": "44",
                "addr:city": "Poznań",
                "addr:postcode": "60-843",
                "amenity": "pharmacy"
            },
            "geometry": {
                "type": "Point",
                "coordinates": [
                    16.90585136396663,
                    52.41209562708749
                ]
            }
        },
        {
            "type": "Feature",
            "properties": {
                "ref:csioz": 1050242,
                "name": "Adamus",
                "addr:street": "Bolesława Śmiałego",
                "addr:housenumber": "104",
                "addr:city": "Poznań",
                "addr:postcode": "60-682",
                "amenity": "pharmacy"
            },
            "geometry": {
                "type": "Point",
                "coordinates": [
                    16.92406415421405,
                    52.45320677543376
                ]
            }
        },
        {
            "type": "Feature",
            "properties": {
                "ref:csioz": 1050490,
                "name": "Super - Pharm",
                "addr:street": "Bukowska",
                "addr:housenumber": "156",
                "addr:city": "Poznań",
                "addr:postcode": "60-197",
                "amenity": "pharmacy"
            },
            "geometry": {
                "type": "Point",
                "coordinates": [
                    16.861549847512904,
                    52.411345134191414
                ]
            }
        },
        {
            "type": "Feature",
            "properties": {
                "ref:csioz": 1050546,
                "name": "Apteka Wielkopolska",
                "addr:street": "28  Czerwca 1956 r.",
                "addr:housenumber": "194",
                "addr:city": "Poznań-Wilda",
                "addr:postcode": "61-485",
                "amenity": "pharmacy"
            },
            "geometry": {
                "type": "Point",
                "coordinates": [
                    16.912444934238835,
                    52.383155346584914
                ]
            }
        },
        {
            "type": "Feature",
            "properties": {
                "ref:csioz": 1050706,
                "name": "Literacka",
                "addr:street": "Rzeszowska",
                "addr:housenumber": "1A",
                "addr:city": "Poznań",
                "addr:postcode": "60-468",
                "amenity": "pharmacy"
            },
            "geometry": {
                "type": "Point",
                "coordinates": [
                    16.850714999996274,
                    52.4533520000162
                ]
            }
        },
        {
            "type": "Feature",
            "properties": {
                "ref:csioz": 1050733,
                "name": "Sagittarius",
                "addr:street": "Cześnikowska",
                "addr:housenumber": "2",
                "addr:city": "Poznań",
                "addr:postcode": "60-330",
                "amenity": "pharmacy"
            },
            "geometry": {
                "type": "Point",
                "coordinates": [
                    16.874463133026897,
                    52.39941927405975
                ]
            }
        },
        {
            "type": "Feature",
            "properties": {
                "ref:csioz": 1050952,
                "name": "Ab - Lek",
                "addr:street": "Wojska Polskiego",
                "addr:housenumber": "6",
                "addr:city": "Poznań",
                "addr:postcode": "60-637",
                "amenity": "pharmacy"
            },
            "geometry": {
                "type": "Point",
                "coordinates": [
                    16.90930680500169,
                    52.42482672917188
                ]
            }
        },
        {
            "type": "Feature",
            "properties": {
                "ref:csioz": 1051088,
                "name": "Apteka Miodowa",
                "addr:street": "Miodowa",
                "addr:housenumber": "4",
                "addr:city": "Poznań",
                "addr:postcode": "60-591",
                "amenity": "pharmacy"
            },
            "geometry": {
                "type": "Point",
                "coordinates": [
                    16.877173395036507,
                    52.41304244004455
                ]
            }
        },
        {
            "type": "Feature",
            "properties": {
                "ref:csioz": 1051091,
                "name": "Św. Jerzego",
                "addr:street": "Jerzego św.",
                "addr:housenumber": "7",
                "addr:city": "Poznań",
                "addr:postcode": "61-546",
                "amenity": "pharmacy"
            },
            "geometry": {
                "type": "Point",
                "coordinates": [
                    16.92214419353501,
                    52.39187371391205
                ]
            }
        },
        {
            "type": "Feature",
            "properties": {
                "ref:csioz": 1051247,
                "name": "U Złotego Źródła",
                "addr:street": "Władysława Jagiełły",
                "addr:housenumber": "17",
                "addr:city": "Poznań",
                "addr:postcode": "60-694",
                "amenity": "pharmacy"
            },
            "geometry": {
                "type": "Point",
                "coordinates": [
                    16.905654375162932,
                    52.456746762977914
                ]
            }
        },
        {
            "type": "Feature",
            "properties": {
                "ref:csioz": 1051283,
                "name": "Św. Jadwigi",
                "addr:street": "Kosińskiego Antoniego",
                "addr:housenumber": "28",
                "addr:city": "Poznań",
                "addr:postcode": "61-522",
                "amenity": "pharmacy"
            },
            "geometry": {
                "type": "Point",
                "coordinates": [
                    16.916072377202486,
                    52.38895268007408
                ]
            }
        },
        {
            "type": "Feature",
            "properties": {
                "ref:csioz": 1051294,
                "name": "Apteka Od Serca",
                "addr:street": "Słowiańska",
                "addr:housenumber": "38H",
                "addr:city": "Poznań",
                "addr:postcode": "61-664",
                "amenity": "pharmacy"
            },
            "geometry": {
                "type": "Point",
                "coordinates": [
                    16.927736443288502,
                    52.42933379570414
                ]
            }
        },
        {
            "type": "Feature",
            "properties": {
                "ref:csioz": 1051443,
                "name": "Doz Apteka Dbam O Zdrowie. Kaja",
                "addr:street": "Macieja Palacza",
                "addr:housenumber": "141",
                "addr:city": "Poznań",
                "addr:postcode": "60-279",
                "amenity": "pharmacy"
            },
            "geometry": {
                "type": "Point",
                "coordinates": [
                    16.86994467258262,
                    52.395071775209836
                ]
            }
        },
        {
            "type": "Feature",
            "properties": {
                "ref:csioz": 1055130,
                "name": "Akademicka",
                "addr:street": "Jana Henryka Dąbrowskiego",
                "addr:housenumber": "79",
                "addr:city": "Poznań",
                "addr:postcode": "61-701",
                "amenity": "pharmacy"
            },
            "geometry": {
                "type": "Point",
                "coordinates": [
                    16.89970363296184,
                    52.41385798116332
                ]
            }
        },
        {
            "type": "Feature",
            "properties": {
                "ref:csioz": 1055531,
                "name": "Złotowska",
                "addr:street": "Złotowska",
                "addr:housenumber": "21",
                "addr:city": "Poznań",
                "addr:postcode": "60-189",
                "amenity": "pharmacy"
            },
            "geometry": {
                "type": "Point",
                "coordinates": [
                    16.828521389917142,
                    52.411117560801415
                ]
            }
        },
        {
            "type": "Feature",
            "properties": {
                "ref:csioz": 1055718,
                "addr:street": "Sporna",
                "addr:housenumber": "16",
                "addr:city": "Poznań",
                "addr:postcode": "61-709",
                "amenity": "pharmacy"
            },
            "geometry": {
                "type": "Point",
                "coordinates": [
                    16.92099386172215,
                    52.415068299147045
                ]
            }
        },
        {
            "type": "Feature",
            "properties": {
                "ref:csioz": 1055752,
                "name": "Verbena",
                "addr:street": "Długa",
                "addr:housenumber": "1",
                "addr:city": "Poznań",
                "addr:postcode": "61-848",
                "amenity": "pharmacy"
            },
            "geometry": {
                "type": "Point",
                "coordinates": [
                    16.93782394983818,
                    52.396571131829546
                ]
            }
        },
        {
            "type": "Feature",
            "properties": {
                "ref:csioz": 1055822,
                "name": "Apteka Zakątek",
                "addr:street": "Galla Anonima",
                "addr:housenumber": "4",
                "addr:city": "Poznań",
                "addr:postcode": "60-547",
                "amenity": "pharmacy"
            },
            "geometry": {
                "type": "Point",
                "coordinates": [
                    16.89536928329669,
                    52.41328449495609
                ]
            }
        },
        {
            "type": "Feature",
            "properties": {
                "ref:csioz": 1055854,
                "name": "Lutycka",
                "addr:street": "Juraszów",
                "addr:housenumber": "7",
                "addr:city": "Poznań",
                "addr:postcode": "60-479",
                "amenity": "pharmacy"
            },
            "geometry": {
                "type": "Point",
                "coordinates": [
                    16.90630399999665,
                    52.44107400001617
                ]
            }
        },
        {
            "type": "Feature",
            "properties": {
                "ref:csioz": 1123368,
                "name": "Verus",
                "addr:street": "Henryka Łowmiańskiego",
                "addr:housenumber": "2",
                "addr:city": "Poznań",
                "addr:postcode": "60-685",
                "amenity": "pharmacy"
            },
            "geometry": {
                "type": "Point",
                "coordinates": [
                    16.915112372526377,
                    52.44906917697423
                ]
            }
        },
        {
            "type": "Feature",
            "properties": {
                "ref:csioz": 1123466,
                "name": "Doz Apteka Dbam O Zdrowie Kwiaty Polne",
                "addr:street": "Sokoła",
                "addr:housenumber": "24",
                "addr:city": "Poznań",
                "addr:postcode": "60-644",
                "amenity": "pharmacy"
            },
            "geometry": {
                "type": "Point",
                "coordinates": [
                    16.911869461643548,
                    52.42594568499064
                ]
            }
        },
        {
            "type": "Feature",
            "properties": {
                "ref:csioz": 1123477,
                "name": "Betula",
                "addr:street": "Wojskowa",
                "addr:housenumber": "3B",
                "addr:city": "Poznań",
                "addr:postcode": "60-792",
                "amenity": "pharmacy"
            },
            "geometry": {
                "type": "Point",
                "coordinates": [
                    16.892663516698384,
                    52.40050756865873
                ]
            }
        },
        {
            "type": "Feature",
            "properties": {
                "ref:csioz": 1123960,
                "name": "Witaminka Centrum Leków",
                "addr:street": "OPIEŃSKIEGO",
                "addr:housenumber": "1",
                "addr:city": "POZNAŃ",
                "addr:postcode": "60-685",
                "amenity": "pharmacy"
            },
            "geometry": {
                "type": "Point",
                "coordinates": [
                    16.919317954481766,
                    52.46113762761022
                ]
            }
        },
        {
            "type": "Feature",
            "properties": {
                "ref:csioz": 1124158,
                "name": "Alga",
                "addr:street": "Druskienicka",
                "addr:housenumber": "12A",
                "addr:city": "Poznań",
                "addr:postcode": "60-476",
                "amenity": "pharmacy"
            },
            "geometry": {
                "type": "Point",
                "coordinates": [
                    16.89049821483159,
                    52.44680769483509
                ]
            }
        },
        {
            "type": "Feature",
            "properties": {
                "ref:csioz": 1124343,
                "name": "Ziko Apteka",
                "addr:street": "ŚW. MARCIN",
                "addr:housenumber": "58",
                "addr:city": "POZNAŃ",
                "addr:postcode": "61-807",
                "amenity": "pharmacy"
            },
            "geometry": {
                "type": "Point",
                "coordinates": [
                    16.92245099999675,
                    52.40710700001611
                ]
            }
        },
        {
            "type": "Feature",
            "properties": {
                "ref:csioz": 1124531,
                "name": "Apteka Cosmedica",
                "addr:street": "BUKOWSKA",
                "addr:housenumber": "156",
                "addr:city": "POZNAŃ",
                "addr:postcode": "60-198",
                "amenity": "pharmacy"
            },
            "geometry": {
                "type": "Point",
                "coordinates": [
                    16.861549847512904,
                    52.411345134191414
                ]
            }
        },
        {
            "type": "Feature",
            "properties": {
                "ref:csioz": 1124752,
                "addr:street": "Stefana Batorego",
                "addr:housenumber": "80D",
                "addr:city": "Poznań",
                "addr:postcode": "60-687",
                "amenity": "pharmacy"
            },
            "geometry": {
                "type": "Point",
                "coordinates": [
                    16.920157222925937,
                    52.46430772459774
                ]
            }
        },
        {
            "type": "Feature",
            "properties": {
                "ref:csioz": 1124948,
                "name": "\"Andrzej Stefaniak, Grazyna Wojciechowska Stefaniak S.C.\"",
                "addr:street": "DOLNA WILDA",
                "addr:housenumber": "16",
                "addr:city": "POZNAŃ",
                "addr:postcode": "61-552",
                "amenity": "pharmacy"
            },
            "geometry": {
                "type": "Point",
                "coordinates": [
                    16.926261999996775,
                    52.396783000016086
                ]
            }
        },
        {
            "type": "Feature",
            "properties": {
                "ref:csioz": 1182853,
                "name": "Dom Leków",
                "addr:street": "Jana Henryka Dąbrowskiego",
                "addr:housenumber": "57",
                "addr:city": "Poznań",
                "addr:postcode": "60-842",
                "amenity": "pharmacy"
            },
            "geometry": {
                "type": "Point",
                "coordinates": [
                    16.903890648209682,
                    52.412784269448835
                ]
            }
        },
        {
            "type": "Feature",
            "properties": {
                "ref:csioz": 1184361,
                "name": "Dom Leków",
                "addr:street": "Heweliusza",
                "addr:housenumber": "1 E",
                "addr:city": "Poznań",
                "addr:postcode": "60-281",
                "amenity": "pharmacy"
            },
            "geometry": {
                "type": "Point",
                "coordinates": [
                    16.872181999996403,
                    52.39432200001612
                ]
            }
        },
        {
            "type": "Feature",
            "properties": {
                "ref:csioz": 1185322,
                "name": "Prima",
                "addr:street": "Słowiańska",
                "addr:housenumber": "53B",
                "addr:city": "Poznań",
                "addr:postcode": "61-664",
                "amenity": "pharmacy"
            },
            "geometry": {
                "type": "Point",
                "coordinates": [
                    16.934179906617423,
                    52.43117747585633
                ]
            }
        },
        {
            "type": "Feature",
            "properties": {
                "ref:csioz": 1186005,
                "name": "Dom Leków",
                "addr:street": "28 Czerwca 1956 r.",
                "addr:housenumber": "144",
                "addr:city": "Poznań",
                "addr:postcode": "61-485",
                "amenity": "pharmacy"
            },
            "geometry": {
                "type": "Point",
                "coordinates": [
                    16.91797459931789,
                    52.38909701754075
                ]
            }
        },
        {
            "type": "Feature",
            "properties": {
                "ref:csioz": 1186026,
                "name": "Dom Leków",
                "addr:street": "Półwiejska",
                "addr:housenumber": "17",
                "addr:city": "Poznań",
                "addr:postcode": "61-885",
                "amenity": "pharmacy"
            },
            "geometry": {
                "type": "Point",
                "coordinates": [
                    16.930241875391474,
                    52.40340686662052
                ]
            }
        },
        {
            "type": "Feature",
            "properties": {
                "ref:csioz": 1187447,
                "name": "Nasza",
                "addr:street": "Jana Henryka Dąbrowskiego",
                "addr:housenumber": "399",
                "addr:city": "Poznań",
                "addr:postcode": "60-438",
                "amenity": "pharmacy"
            },
            "geometry": {
                "type": "Point",
                "coordinates": [
                    16.8327901211794,
                    52.43243230677364
                ]
            }
        },
        {
            "type": "Feature",
            "properties": {
                "ref:csioz": 1190140,
                "name": "Dr. Max",
                "addr:street": "Święty Marcin",
                "addr:housenumber": "61",
                "addr:city": "Poznań",
                "addr:postcode": "61-809",
                "amenity": "pharmacy"
            },
            "geometry": {
                "type": "Point",
                "coordinates": [
                    16.921935028439428,
                    52.40679855365295
                ]
            }
        },
        {
            "type": "Feature",
            "properties": {
                "ref:csioz": 1192459,
                "name": "Królewska",
                "addr:street": "Stefana Batorego",
                "addr:housenumber": "17",
                "addr:city": "Poznań",
                "addr:postcode": "60-687",
                "amenity": "pharmacy"
            },
            "geometry": {
                "type": "Point",
                "coordinates": [
                    16.922073485208724,
                    52.45710093330963
                ]
            }
        },
        {
            "type": "Feature",
            "properties": {
                "ref:csioz": 1201552,
                "name": "Dom Leków",
                "addr:street": "Grochowska",
                "addr:housenumber": "83",
                "addr:city": "Poznań",
                "addr:postcode": "60-266",
                "amenity": "pharmacy"
            },
            "geometry": {
                "type": "Point",
                "coordinates": [
                    16.874990999996434,
                    52.40515000001611
                ]
            }
        },
        {
            "type": "Feature",
            "properties": {
                "ref:csioz": 1202139,
                "name": "Doz Apteka. Dbam O Zdrowie Farmacjanna",
                "addr:street": "Jana Keplera",
                "addr:housenumber": "1",
                "addr:city": "Poznań",
                "addr:postcode": "60-158",
                "amenity": "pharmacy"
            },
            "geometry": {
                "type": "Point",
                "coordinates": [
                    16.864353914364642,
                    52.39053026636745
                ]
            }
        },
        {
            "type": "Feature",
            "properties": {
                "ref:csioz": 1203370,
                "name": "Vivre Moja Apteka",
                "addr:street": "Jana Henryka Dąbrowskiego",
                "addr:housenumber": "77A",
                "addr:city": "Poznań",
                "addr:postcode": "60-539",
                "amenity": "pharmacy"
            },
            "geometry": {
                "type": "Point",
                "coordinates": [
                    16.900819987272932,
                    52.41391087819739
                ]
            }
        },
        {
            "type": "Feature",
            "properties": {
                "ref:csioz": 1203381,
                "name": "Panaceum",
                "addr:street": "Macieja Palacza",
                "addr:housenumber": "36",
                "addr:city": "Poznań",
                "addr:postcode": "60-241",
                "amenity": "pharmacy"
            },
            "geometry": {
                "type": "Point",
                "coordinates": [
                    16.884769562899038,
                    52.38841620093923
                ]
            }
        },
        {
            "type": "Feature",
            "properties": {
                "ref:csioz": 1205282,
                "name": "Ziko Apteka",
                "addr:street": "Jana Henryka Dąbrowskiego",
                "addr:housenumber": "7",
                "addr:city": "Poznań",
                "addr:postcode": "60-838",
                "amenity": "pharmacy"
            },
            "geometry": {
                "type": "Point",
                "coordinates": [
                    16.912046093415963,
                    52.411025271442725
                ]
            }
        },
        {
            "type": "Feature",
            "properties": {
                "ref:csioz": 1211608,
                "name": "Dr Zdrowie",
                "addr:street": "Kaspra Drużbickiego",
                "addr:housenumber": "2",
                "addr:city": "Poznań",
                "addr:postcode": "61-693",
                "amenity": "pharmacy"
            },
            "geometry": {
                "type": "Point",
                "coordinates": [
                    16.91870531955793,
                    52.44042572518356
                ]
            }
        },
        {
            "type": "Feature",
            "properties": {
                "ref:csioz": 1044373,
                "addr:street": "MICKIEWICZA",
                "addr:housenumber": "2",
                "addr:city": "POZNAŃ",
                "addr:postcode": "60-834",
                "amenity": "pharmacy"
            },
            "geometry": {
                "type": "Point",
                "coordinates": [
                    16.912905723102195,
                    52.41347103941141
                ]
            }
        },
        {
            "type": "Feature",
            "properties": {
                "ref:csioz": 1044654,
                "addr:street": "MŁYŃSKA",
                "addr:housenumber": "1",
                "addr:city": "POZNAŃ",
                "addr:postcode": "61-279",
                "amenity": "pharmacy"
            },
            "geometry": {
                "type": "Point",
                "coordinates": [
                    16.927820249003673,
                    52.41155468705165
                ]
            }
        },
        {
            "type": "Feature",
            "properties": {
                "ref:csioz": 1044542,
                "addr:street": "RYCERSKA",
                "addr:housenumber": "10",
                "addr:city": "POZNAŃ",
                "addr:postcode": "60-346",
                "amenity": "pharmacy"
            },
            "geometry": {
                "type": "Point",
                "coordinates": [
                    16.874444954760477,
                    52.402547063904905
                ]
            }
        },
        {
            "type": "Feature",
            "properties": {
                "ref:csioz": 1044410,
                "addr:street": "SZAMARZEWSKIEGO",
                "addr:housenumber": "62",
                "addr:city": "POZNAŃ",
                "addr:postcode": "60-569",
                "amenity": "pharmacy"
            },
            "geometry": {
                "type": "Point",
                "coordinates": [
                    16.887700890143815,
                    52.41235641459096
                ]
            }
        },
        {
            "type": "Feature",
            "properties": {
                "ref:csioz": 1044312,
                "name": "\"Lokalizacja: Poznań, Ul. Przybyszewskiego 49, Poznań, Ul. Grunwaldzka 16/18\"",
                "addr:street": "PRZYBYSZEWSKIEGO",
                "addr:housenumber": "49",
                "addr:city": "POZNAŃ",
                "addr:postcode": "60-355",
                "amenity": "pharmacy"
            },
            "geometry": {
                "type": "Point",
                "coordinates": [
                    16.88783168633375,
                    52.40357524741046
                ]
            }
        },
        {
            "type": "Feature",
            "properties": {
                "ref:csioz": 1044320,
                "addr:housenumber": "135/147",
                "addr:postcode": "61-545",
                "amenity": "pharmacy",
                "addr:place": "Poznań"
            },
            "geometry": {
                "type": "Point",
                "coordinates": [
                    16.91915656430263,
                    52.389422046756415
                ]
            }
        },
        {
            "type": "Feature",
            "properties": {
                "ref:csioz": 1044361,
                "name": "\"Lokalizacja: Poznań, Ul. Juraszów 7/19, Kowanówko,Ul. Sanatoryjna 34                \"",
                "addr:street": "JURASZÓW",
                "addr:housenumber": "7",
                "addr:city": "POZNAŃ",
                "addr:postcode": "60-479",
                "amenity": "pharmacy"
            },
            "geometry": {
                "type": "Point",
                "coordinates": [
                    16.90630399999665,
                    52.44107400001617
                ]
            }
        },
        {
            "type": "Feature",
            "properties": {
                "ref:csioz": 1044399,
                "addr:street": "28 CZERWCA 1956 R",
                "addr:housenumber": "194",
                "addr:city": "POZNAŃ",
                "addr:postcode": "61-485",
                "amenity": "pharmacy"
            },
            "geometry": {
                "type": "Point",
                "coordinates": [
                    16.912499999996673,
                    52.38333000001607
                ]
            }
        },
        {
            "type": "Feature",
            "properties": {
                "ref:csioz": 1044407,
                "addr:street": "KRYSIEWICZA",
                "addr:housenumber": "7",
                "addr:city": "POZNAŃ",
                "addr:postcode": "61-825",
                "amenity": "pharmacy"
            },
            "geometry": {
                "type": "Point",
                "coordinates": [
                    16.92957399999679,
                    52.40435600001611
                ]
            }
        },
        {
            "type": "Feature",
            "properties": {
                "ref:csioz": 1044633,
                "addr:street": "DOJAZD",
                "addr:housenumber": "34",
                "addr:city": "Poznań",
                "addr:postcode": "60-631",
                "amenity": "pharmacy"
            },
            "geometry": {
                "type": "Point",
                "coordinates": [
                    16.90505838111759,
                    52.43681576487708
                ]
            }
        },
        {
            "type": "Feature",
            "properties": {
                "ref:csioz": 1044665,
                "addr:street": "GRUNWALDZKA",
                "addr:housenumber": "16",
                "addr:city": "POZNAŃ",
                "addr:postcode": "60-780",
                "amenity": "pharmacy"
            },
            "geometry": {
                "type": "Point",
                "coordinates": [
                    16.898757999996594,
                    52.40527400001613
                ]
            }
        },
        {
            "type": "Feature",
            "properties": {
                "ref:csioz": 1044723,
                "name": "Żeń-Szeń",
                "addr:street": "Izaaka Newtona",
                "addr:housenumber": "14",
                "addr:city": "Poznań",
                "addr:postcode": "61-161",
                "amenity": "pharmacy"
            },
            "geometry": {
                "type": "Point",
                "coordinates": [
                    16.865125274891028,
                    52.3847989846055
                ]
            }
        },
        {
            "type": "Feature",
            "properties": {
                "ref:csioz": 1044917,
                "name": "Słoneczna",
                "addr:street": "Orężna",
                "addr:housenumber": "13",
                "addr:city": "Poznań",
                "addr:postcode": "60-289",
                "amenity": "pharmacy"
            },
            "geometry": {
                "type": "Point",
                "coordinates": [
                    16.882826141669653,
                    52.399444048942506
                ]
            }
        },
        {
            "type": "Feature",
            "properties": {
                "ref:csioz": 1044974,
                "name": "Helianthus",
                "addr:street": "Horacego",
                "addr:housenumber": "27A",
                "addr:city": "Poznań",
                "addr:postcode": "60-461",
                "amenity": "pharmacy"
            },
            "geometry": {
                "type": "Point",
                "coordinates": [
                    16.877328999996454,
                    52.44847200001619
                ]
            }
        },
        {
            "type": "Feature",
            "properties": {
                "ref:csioz": 1045025,
                "name": "Słoneczna Ii",
                "addr:street": "Swoboda",
                "addr:housenumber": "22",
                "addr:city": "Poznań",
                "addr:postcode": "60-391",
                "amenity": "pharmacy"
            },
            "geometry": {
                "type": "Point",
                "coordinates": [
                    16.871984999996414,
                    52.40945000001612
                ]
            }
        },
        {
            "type": "Feature",
            "properties": {
                "ref:csioz": 1045105,
                "name": "Na Starówce",
                "addr:street": "WROCŁAWSKA",
                "addr:housenumber": "20",
                "addr:city": "POZNAŃ",
                "addr:postcode": "61-838",
                "amenity": "pharmacy"
            },
            "geometry": {
                "type": "Point",
                "coordinates": [
                    16.932712992887474,
                    52.40589033976598
                ]
            }
        },
        {
            "type": "Feature",
            "properties": {
                "ref:csioz": 1045208,
                "name": "Doz Apteka Dbam O Zdrowie.Kaja",
                "addr:street": "Grunwaldzka",
                "addr:housenumber": "138",
                "addr:city": "Poznań",
                "addr:postcode": "60-309",
                "amenity": "pharmacy"
            },
            "geometry": {
                "type": "Point",
                "coordinates": [
                    16.86342321188913,
                    52.39550133678133
                ]
            }
        },
        {
            "type": "Feature",
            "properties": {
                "ref:csioz": 1045297,
                "name": "Prima",
                "addr:street": "GALILEUSZA",
                "addr:housenumber": "8",
                "addr:city": "POZNAŃ",
                "addr:postcode": "60-159",
                "amenity": "pharmacy"
            },
            "geometry": {
                "type": "Point",
                "coordinates": [
                    16.86160781459529,
                    52.38726281029192
                ]
            }
        },
        {
            "type": "Feature",
            "properties": {
                "ref:csioz": 1046026,
                "name": "Dyżurna",
                "addr:street": "Głogowska",
                "addr:housenumber": "111",
                "addr:city": "Poznań",
                "addr:postcode": "60-266",
                "amenity": "pharmacy"
            },
            "geometry": {
                "type": "Point",
                "coordinates": [
                    16.895521237342546,
                    52.39099700165234
                ]
            }
        },
        {
            "type": "Feature",
            "properties": {
                "ref:csioz": 1046257,
                "name": "Lawenda",
                "addr:street": "Augustyna Szamarzewskiego",
                "addr:housenumber": "82/84",
                "addr:city": "Poznań",
                "addr:postcode": "60-569",
                "amenity": "pharmacy"
            },
            "geometry": {
                "type": "Point",
                "coordinates": [
                    16.879678999996464,
                    52.41411900001612
                ]
            }
        },
        {
            "type": "Feature",
            "properties": {
                "ref:csioz": 1046374,
                "name": "Apteka Wielkopolska",
                "addr:street": "Marcelińska",
                "addr:housenumber": "23",
                "addr:city": "Poznań",
                "addr:postcode": "60-801",
                "amenity": "pharmacy"
            },
            "geometry": {
                "type": "Point",
                "coordinates": [
                    16.890586853664395,
                    52.40527413635639
                ]
            }
        },
        {
            "type": "Feature",
            "properties": {
                "ref:csioz": 1046400,
                "name": "Apteka Przy Matejki",
                "addr:street": "Jana Matejki",
                "addr:housenumber": "2",
                "addr:city": "Poznań",
                "addr:postcode": "60-766",
                "amenity": "pharmacy"
            },
            "geometry": {
                "type": "Point",
                "coordinates": [
                    16.900382059733346,
                    52.40520288279226
                ]
            }
        },
        {
            "type": "Feature",
            "properties": {
                "ref:csioz": 1046437,
                "name": "Szarotka",
                "addr:street": "Jana Henryka Dąbrowskiego",
                "addr:housenumber": "66",
                "addr:city": "Poznań",
                "addr:postcode": "60-522",
                "amenity": "pharmacy"
            },
            "geometry": {
                "type": "Point",
                "coordinates": [
                    16.901169587760425,
                    52.41312742177675
                ]
            }
        },
        {
            "type": "Feature",
            "properties": {
                "ref:csioz": 1046445,
                "name": "Verus",
                "addr:street": "Głogowska",
                "addr:housenumber": "29",
                "addr:city": "Poznań",
                "addr:postcode": "60-702",
                "amenity": "pharmacy"
            },
            "geometry": {
                "type": "Point",
                "coordinates": [
                    16.906285982935,
                    52.400081636066254
                ]
            }
        },
        {
            "type": "Feature",
            "properties": {
                "ref:csioz": 1046766,
                "name": "Centrum Leków",
                "addr:street": "Głogowska",
                "addr:housenumber": "146",
                "addr:city": "Poznań",
                "addr:postcode": "60-205",
                "amenity": "pharmacy"
            },
            "geometry": {
                "type": "Point",
                "coordinates": [
                    16.89037231813264,
                    52.3868290901179
                ]
            }
        },
        {
            "type": "Feature",
            "properties": {
                "ref:csioz": 1047002,
                "name": "Koniczynka",
                "addr:street": "Wergiliusza",
                "addr:housenumber": "2C",
                "addr:city": "Poznań",
                "addr:postcode": "60-461",
                "amenity": "pharmacy"
            },
            "geometry": {
                "type": "Point",
                "coordinates": [
                    16.874958286805786,
                    52.44557255026188
                ]
            }
        },
        {
            "type": "Feature",
            "properties": {
                "ref:csioz": 1047140,
                "name": "Apteka Dbam O Zdrowie",
                "addr:street": "Jana Gorczyczewskiego",
                "addr:housenumber": "1",
                "addr:city": "Poznań",
                "addr:postcode": "60-554",
                "amenity": "pharmacy"
            },
            "geometry": {
                "type": "Point",
                "coordinates": [
                    16.892377867543917,
                    52.4093725864085
                ]
            }
        },
        {
            "type": "Feature",
            "properties": {
                "ref:csioz": 1047179,
                "name": "Remedium",
                "addr:street": "Strzeszyńska",
                "addr:housenumber": "139",
                "addr:city": "Poznań",
                "addr:postcode": "60-479",
                "amenity": "pharmacy"
            },
            "geometry": {
                "type": "Point",
                "coordinates": [
                    16.8832059999965,
                    52.4543850000162
                ]
            }
        },
        {
            "type": "Feature",
            "properties": {
                "ref:csioz": 1047201,
                "name": "Alga",
                "addr:street": "Tatrzańska",
                "addr:housenumber": "1",
                "addr:city": "Poznań",
                "addr:postcode": "60-413",
                "amenity": "pharmacy"
            },
            "geometry": {
                "type": "Point",
                "coordinates": [
                    16.848780999996254,
                    52.42985800001617
                ]
            }
        },
        {
            "type": "Feature",
            "properties": {
                "ref:csioz": 1047225,
                "name": "Doz Apteka Dbam O Zdrowie A I B",
                "addr:street": "Szarych Szeregów",
                "addr:housenumber": "12",
                "addr:city": "Poznań",
                "addr:postcode": "60-462",
                "amenity": "pharmacy"
            },
            "geometry": {
                "type": "Point",
                "coordinates": [
                    16.87995933533103,
                    52.45888610529395
                ]
            }
        },
        {
            "type": "Feature",
            "properties": {
                "ref:csioz": 1047296,
                "name": "Super-Pharm",
                "addr:street": "Półwiejska",
                "addr:housenumber": "42",
                "addr:city": "Poznań",
                "addr:postcode": "61-888",
                "amenity": "pharmacy"
            },
            "geometry": {
                "type": "Point",
                "coordinates": [
                    16.928267548816628,
                    52.40112341965735
                ]
            }
        },
        {
            "type": "Feature",
            "properties": {
                "ref:csioz": 1047314,
                "name": "Wielkopolska",
                "addr:street": "Zwycięstwa",
                "addr:housenumber": "110",
                "addr:city": "Poznań-Stare Miasto",
                "addr:postcode": "61-646",
                "amenity": "pharmacy"
            },
            "geometry": {
                "type": "Point",
                "coordinates": [
                    16.921812897785024,
                    52.43863308310644
                ]
            }
        },
        {
            "type": "Feature",
            "properties": {
                "ref:csioz": 1047351,
                "name": "Zdrowie",
                "addr:street": "Piotra Ściegiennego",
                "addr:housenumber": "50",
                "addr:city": "Poznań",
                "addr:postcode": "60-128",
                "amenity": "pharmacy"
            },
            "geometry": {
                "type": "Point",
                "coordinates": [
                    16.877493932202427,
                    52.38847271091649
                ]
            }
        },
        {
            "type": "Feature",
            "properties": {
                "ref:csioz": 1047367,
                "name": "Doz Apteka. Dbam O Zdrowie. Apteka Św. Łazarza",
                "addr:street": "Głogowska",
                "addr:housenumber": "107/109",
                "addr:city": "Poznań",
                "addr:postcode": "60-266",
                "amenity": "pharmacy"
            },
            "geometry": {
                "type": "Point",
                "coordinates": [
                    16.895927999996577,
                    52.39130400001609
                ]
            }
        },
        {
            "type": "Feature",
            "properties": {
                "ref:csioz": 1047380,
                "name": "Wielkopolska",
                "addr:street": "Grochowska",
                "addr:housenumber": "116",
                "addr:city": "Poznań-Grunwald",
                "addr:postcode": "60-335",
                "amenity": "pharmacy"
            },
            "geometry": {
                "type": "Point",
                "coordinates": [
                    16.875687327434367,
                    52.40743948184706
                ]
            }
        },
        {
            "type": "Feature",
            "properties": {
                "ref:csioz": 1047405,
                "name": "Zdrowie",
                "addr:street": "Galileusza",
                "addr:housenumber": "8",
                "addr:city": "Poznań",
                "addr:postcode": "60-158",
                "amenity": "pharmacy"
            },
            "geometry": {
                "type": "Point",
                "coordinates": [
                    16.86160781459529,
                    52.38726281029192
                ]
            }
        },
        {
            "type": "Feature",
            "properties": {
                "ref:csioz": 1047418,
                "name": "Dr. Max",
                "addr:street": "Mickiewicza Adama",
                "addr:housenumber": "22",
                "addr:city": "Poznań",
                "addr:postcode": "60-836",
                "amenity": "pharmacy"
            },
            "geometry": {
                "type": "Point",
                "coordinates": [
                    16.911353634183836,
                    52.41078305611385
                ]
            }
        },
        {
            "type": "Feature",
            "properties": {
                "ref:csioz": 1047555,
                "name": "Przy Grobli",
                "addr:street": "Garbary",
                "addr:housenumber": "52",
                "addr:city": "Poznań",
                "addr:postcode": "61-869",
                "amenity": "pharmacy"
            },
            "geometry": {
                "type": "Point",
                "coordinates": [
                    16.937963538992527,
                    52.40695900193255
                ]
            }
        },
        {
            "type": "Feature",
            "properties": {
                "ref:csioz": 1047593,
                "name": "Arnika",
                "addr:street": "Franciszka Ratajczaka",
                "addr:housenumber": "45",
                "addr:city": "Poznań",
                "addr:postcode": "61-728",
                "amenity": "pharmacy"
            },
            "geometry": {
                "type": "Point",
                "coordinates": [
                    16.92497194989009,
                    52.40852814441332
                ]
            }
        },
        {
            "type": "Feature",
            "properties": {
                "ref:csioz": 1047697,
                "name": "Hibiscus",
                "addr:street": "Hetmańska",
                "addr:housenumber": "104",
                "addr:city": "Poznań",
                "addr:postcode": "61-493",
                "amenity": "pharmacy"
            },
            "geometry": {
                "type": "Point",
                "coordinates": [
                    16.918331669126825,
                    52.38374468405913
                ]
            }
        },
        {
            "type": "Feature",
            "properties": {
                "ref:csioz": 1047821,
                "name": "Słowiańska",
                "addr:street": "gen. Stanisława Maczka",
                "addr:housenumber": "12",
                "addr:city": "Poznań",
                "addr:postcode": "60-651",
                "amenity": "pharmacy"
            },
            "geometry": {
                "type": "Point",
                "coordinates": [
                    16.91371149981363,
                    52.423470929916796
                ]
            }
        },
        {
            "type": "Feature",
            "properties": {
                "ref:csioz": 1047991,
                "name": "Na Woli",
                "addr:street": "Jana Henryka Dąbrowskiego",
                "addr:housenumber": "294",
                "addr:city": "Poznań",
                "addr:postcode": "60-406",
                "amenity": "pharmacy"
            },
            "geometry": {
                "type": "Point",
                "coordinates": [
                    16.857559560772373,
                    52.42647942270452
                ]
            }
        },
        {
            "type": "Feature",
            "properties": {
                "ref:csioz": 1048027,
                "name": "Apteka Wielkopolska",
                "addr:street": "Dojazd",
                "addr:housenumber": "34",
                "addr:city": "Poznań",
                "addr:postcode": "60-631",
                "amenity": "pharmacy"
            },
            "geometry": {
                "type": "Point",
                "coordinates": [
                    16.90505838111759,
                    52.43681576487708
                ]
            }
        },
        {
            "type": "Feature",
            "properties": {
                "ref:csioz": 1048075,
                "name": "Apteka Gemini",
                "addr:street": "Półwiejska",
                "addr:housenumber": "5",
                "addr:city": "Poznań",
                "addr:postcode": "61-885",
                "amenity": "pharmacy"
            },
            "geometry": {
                "type": "Point",
                "coordinates": [
                    16.930984851793426,
                    52.40458011834021
                ]
            }
        },
        {
            "type": "Feature",
            "properties": {
                "ref:csioz": 1048109,
                "name": "Koniczynka",
                "addr:street": "Powstańców Wielkopolskich",
                "addr:housenumber": "14B",
                "addr:city": "Poznań",
                "addr:postcode": "61-656",
                "amenity": "pharmacy"
            },
            "geometry": {
                "type": "Point",
                "coordinates": [
                    16.922109999996746,
                    52.40444000001613
                ]
            }
        },
        {
            "type": "Feature",
            "properties": {
                "ref:csioz": 1048114,
                "name": "Pamiątkowa",
                "addr:street": "Solna",
                "addr:housenumber": "21",
                "addr:city": "Poznań",
                "addr:postcode": "61-736",
                "amenity": "pharmacy"
            },
            "geometry": {
                "type": "Point",
                "coordinates": [
                    16.924655737604446,
                    52.41265895169497
                ]
            }
        },
        {
            "type": "Feature",
            "properties": {
                "ref:csioz": 1049994,
                "name": "Pod Słońcem",
                "addr:street": "Keplera Jana",
                "addr:housenumber": "1",
                "addr:city": "Poznań",
                "addr:postcode": "60-158",
                "amenity": "pharmacy"
            },
            "geometry": {
                "type": "Point",
                "coordinates": [
                    16.864353914364642,
                    52.39053026636745
                ]
            }
        },
        {
            "type": "Feature",
            "properties": {
                "ref:csioz": 1050203,
                "name": "Nasza",
                "addr:street": "Umultowska",
                "addr:housenumber": "32",
                "addr:city": "Poznań",
                "addr:postcode": "61-614",
                "amenity": "pharmacy"
            },
            "geometry": {
                "type": "Point",
                "coordinates": [
                    16.928918669511784,
                    52.45146604780468
                ]
            }
        },
        {
            "type": "Feature",
            "properties": {
                "ref:csioz": 1050477,
                "name": "Euro Apteka",
                "addr:street": "Józefa Kraszewskiego",
                "addr:housenumber": "3",
                "addr:city": "Poznań",
                "addr:postcode": "60-501",
                "amenity": "pharmacy"
            },
            "geometry": {
                "type": "Point",
                "coordinates": [
                    16.903559235005492,
                    52.412148991354336
                ]
            }
        },
        {
            "type": "Feature",
            "properties": {
                "ref:csioz": 1050428,
                "name": "Przyjazna",
                "addr:street": "Przyjaźni",
                "addr:housenumber": "132B",
                "addr:city": "Poznań",
                "addr:postcode": "61-686",
                "amenity": "pharmacy"
            },
            "geometry": {
                "type": "Point",
                "coordinates": [
                    16.925641989612217,
                    52.42957291430162
                ]
            }
        },
        {
            "type": "Feature",
            "properties": {
                "ref:csioz": 1050551,
                "name": "Doz Apteka Dbam O Zdrowie Medicus",
                "addr:street": "Tomasza Drobnika",
                "addr:housenumber": "47",
                "addr:city": "Poznań",
                "addr:postcode": "60-693",
                "amenity": "pharmacy"
            },
            "geometry": {
                "type": "Point",
                "coordinates": [
                    16.907435035563594,
                    52.450744109400944
                ]
            }
        },
        {
            "type": "Feature",
            "properties": {
                "ref:csioz": 1050567,
                "name": "Nasza",
                "addr:street": "Zwycięstwa",
                "addr:housenumber": "108",
                "addr:city": "Poznań",
                "addr:postcode": "61-653",
                "amenity": "pharmacy"
            },
            "geometry": {
                "type": "Point",
                "coordinates": [
                    16.922756335474446,
                    52.44147885568129
                ]
            }
        },
        {
            "type": "Feature",
            "properties": {
                "ref:csioz": 1050601,
                "name": "Dr. Max Apteka Ludzie Dla Ludzi",
                "addr:street": "Garbary",
                "addr:housenumber": "5",
                "addr:city": "Poznań",
                "addr:postcode": "61-866",
                "amenity": "pharmacy"
            },
            "geometry": {
                "type": "Point",
                "coordinates": [
                    16.9359367779131,
                    52.40135340278328
                ]
            }
        },
        {
            "type": "Feature",
            "properties": {
                "ref:csioz": 1050836,
                "name": "Apteka Bajkowa",
                "addr:street": "Rumcajsa",
                "addr:housenumber": "2A",
                "addr:city": "Poznań",
                "addr:postcode": "60-195",
                "amenity": "pharmacy"
            },
            "geometry": {
                "type": "Point",
                "coordinates": [
                    16.832888938115392,
                    52.410777784019174
                ]
            }
        },
        {
            "type": "Feature",
            "properties": {
                "ref:csioz": 1050994,
                "name": "Apteka Wielkopolska",
                "addr:street": "Aleje Solidarności",
                "addr:housenumber": "42",
                "addr:city": "Poznań-Stare Miasto",
                "addr:postcode": "61-696",
                "amenity": "pharmacy"
            },
            "geometry": {
                "type": "Point",
                "coordinates": [
                    16.927761479325696,
                    52.435208804810095
                ]
            }
        },
        {
            "type": "Feature",
            "properties": {
                "ref:csioz": 1051003,
                "name": "\"36,6 O C\"",
                "addr:street": "Zakopiańska",
                "addr:housenumber": "37",
                "addr:city": "Poznań",
                "addr:postcode": "60-474",
                "amenity": "pharmacy"
            },
            "geometry": {
                "type": "Point",
                "coordinates": [
                    16.88522694303597,
                    52.44907419149421
                ]
            }
        },
        {
            "type": "Feature",
            "properties": {
                "ref:csioz": 1051034,
                "name": "Zakopiańska",
                "addr:street": "Zakopiańska",
                "addr:housenumber": "66",
                "addr:city": "Poznań",
                "addr:postcode": "60-467",
                "amenity": "pharmacy"
            },
            "geometry": {
                "type": "Point",
                "coordinates": [
                    16.88310132909631,
                    52.45141720961776
                ]
            }
        },
        {
            "type": "Feature",
            "properties": {
                "ref:csioz": 1051408,
                "name": "Raszyńska",
                "addr:street": "Piotra Ściegiennego",
                "addr:housenumber": "65",
                "addr:city": "Poznań",
                "addr:postcode": "60-136",
                "amenity": "pharmacy"
            },
            "geometry": {
                "type": "Point",
                "coordinates": [
                    16.874725994823198,
                    52.38994728177253
                ]
            }
        },
        {
            "type": "Feature",
            "properties": {
                "ref:csioz": 1051512,
                "name": "Melissa-Bis",
                "addr:street": "Franciszka Morawskiego",
                "addr:housenumber": "1",
                "addr:city": "Poznań",
                "addr:postcode": "60-239",
                "amenity": "pharmacy"
            },
            "geometry": {
                "type": "Point",
                "coordinates": [
                    16.895514932649583,
                    52.39392708117156
                ]
            }
        },
        {
            "type": "Feature",
            "properties": {
                "ref:csioz": 1051613,
                "name": "U Piotra I Pawła",
                "addr:street": "Promienista",
                "addr:housenumber": "160",
                "addr:city": "Poznań",
                "addr:postcode": "60-142",
                "amenity": "pharmacy"
            },
            "geometry": {
                "type": "Point",
                "coordinates": [
                    16.864470522581218,
                    52.386713682720995
                ]
            }
        },
        {
            "type": "Feature",
            "properties": {
                "ref:csioz": 1051621,
                "name": "Apteka Studencka",
                "addr:street": "Piątkowska",
                "addr:housenumber": "94",
                "addr:city": "Poznań",
                "addr:postcode": "60-649",
                "amenity": "pharmacy"
            },
            "geometry": {
                "type": "Point",
                "coordinates": [
                    16.916693253654902,
                    52.429942817143896
                ]
            }
        },
        {
            "type": "Feature",
            "properties": {
                "ref:csioz": 1051710,
                "name": "Wrzosowa",
                "addr:street": "Winiary",
                "addr:housenumber": "54",
                "addr:city": "Poznań",
                "addr:postcode": "60-656",
                "amenity": "pharmacy"
            },
            "geometry": {
                "type": "Point",
                "coordinates": [
                    16.910594871791826,
                    52.43359785532822
                ]
            }
        },
        {
            "type": "Feature",
            "properties": {
                "ref:csioz": 1051729,
                "name": "Wrzosowa",
                "addr:street": "Błękitna",
                "addr:housenumber": "7",
                "addr:city": "Poznań",
                "addr:postcode": "60-656",
                "amenity": "pharmacy"
            },
            "geometry": {
                "type": "Point",
                "coordinates": [
                    16.904576999996628,
                    52.43048400001616
                ]
            }
        },
        {
            "type": "Feature",
            "properties": {
                "ref:csioz": 1055324,
                "name": "Przy Parku Wilsona",
                "addr:street": "Śniadeckich",
                "addr:housenumber": "1",
                "addr:city": "Poznań",
                "addr:postcode": "60-773",
                "amenity": "pharmacy"
            },
            "geometry": {
                "type": "Point",
                "coordinates": [
                    16.90481455405961,
                    52.39974876403673
                ]
            }
        },
        {
            "type": "Feature",
            "properties": {
                "ref:csioz": 1055356,
                "name": "Fontana",
                "addr:street": "Święty Marcin",
                "addr:housenumber": "23",
                "addr:city": "Poznań",
                "addr:postcode": "61-804",
                "amenity": "pharmacy"
            },
            "geometry": {
                "type": "Point",
                "coordinates": [
                    16.92664750634305,
                    52.40602803492453
                ]
            }
        },
        {
            "type": "Feature",
            "properties": {
                "ref:csioz": 1055362,
                "name": "Junikowska",
                "addr:street": "Junikowska",
                "addr:housenumber": "13",
                "addr:city": "Poznań",
                "addr:postcode": "60-163",
                "amenity": "pharmacy"
            },
            "geometry": {
                "type": "Point",
                "coordinates": [
                    16.84652207060826,
                    52.38454861144378
                ]
            }
        },
        {
            "type": "Feature",
            "properties": {
                "ref:csioz": 1055427,
                "name": "Apteka Gemini",
                "addr:street": "Bolesława Chrobrego",
                "addr:housenumber": "101",
                "addr:city": "Poznań",
                "addr:postcode": "60-681",
                "amenity": "pharmacy"
            },
            "geometry": {
                "type": "Point",
                "coordinates": [
                    16.912514647529882,
                    52.45835773233261
                ]
            }
        },
        {
            "type": "Feature",
            "properties": {
                "ref:csioz": 1055771,
                "name": "Apteka Dbam O Zdrowie",
                "addr:street": "23 Lutego",
                "addr:housenumber": "18",
                "addr:city": "Poznań",
                "addr:postcode": "61-742",
                "amenity": "pharmacy"
            },
            "geometry": {
                "type": "Point",
                "coordinates": [
                    16.92766206273659,
                    52.40999898726954
                ]
            }
        },
        {
            "type": "Feature",
            "properties": {
                "ref:csioz": 1055783,
                "name": "Apteka Dbam O Zdrowie",
                "addr:street": "Jana Henryka Dąbrowskiego",
                "addr:housenumber": "140",
                "addr:city": "Poznań",
                "addr:postcode": "60-577",
                "amenity": "pharmacy"
            },
            "geometry": {
                "type": "Point",
                "coordinates": [
                    16.887493093629413,
                    52.41603462538762
                ]
            }
        },
        {
            "type": "Feature",
            "properties": {
                "ref:csioz": 1055912,
                "name": "Pod Dębem",
                "addr:street": "Jana Matejki",
                "addr:housenumber": "56",
                "addr:city": "Poznań",
                "addr:postcode": "60-770",
                "amenity": "pharmacy"
            },
            "geometry": {
                "type": "Point",
                "coordinates": [
                    16.90004734985334,
                    52.40033823606033
                ]
            }
        },
        {
            "type": "Feature",
            "properties": {
                "ref:csioz": 1055999,
                "name": "Ziko Apteka",
                "addr:street": "Rycerska",
                "addr:housenumber": "35A",
                "addr:city": "Poznań",
                "addr:postcode": "60-345",
                "amenity": "pharmacy"
            },
            "geometry": {
                "type": "Point",
                "coordinates": [
                    16.87201499999641,
                    52.40287600001612
                ]
            }
        },
        {
            "type": "Feature",
            "properties": {
                "ref:csioz": 1056048,
                "name": "Ziko Apteka",
                "addr:street": "Głogowska",
                "addr:housenumber": "132",
                "addr:city": "Poznań",
                "addr:postcode": "60-243",
                "amenity": "pharmacy"
            },
            "geometry": {
                "type": "Point",
                "coordinates": [
                    16.89119899999653,
                    52.38816900001609
                ]
            }
        },
        {
            "type": "Feature",
            "properties": {
                "ref:csioz": 1123313,
                "name": "Super-Pharm Apteka",
                "addr:street": "Półwiejska",
                "addr:housenumber": "42",
                "addr:city": "Poznań",
                "addr:postcode": "61-888",
                "amenity": "pharmacy"
            },
            "geometry": {
                "type": "Point",
                "coordinates": [
                    16.928267548816628,
                    52.40112341965735
                ]
            }
        },
        {
            "type": "Feature",
            "properties": {
                "ref:csioz": 1123580,
                "name": "Doz Apteka Dbam O Zdrowie Grochowska",
                "addr:street": "Grochowska",
                "addr:housenumber": "49",
                "addr:city": "Poznań",
                "addr:postcode": "60-332",
                "amenity": "pharmacy"
            },
            "geometry": {
                "type": "Point",
                "coordinates": [
                    16.87560981086199,
                    52.39960491065561
                ]
            }
        },
        {
            "type": "Feature",
            "properties": {
                "ref:csioz": 1123617,
                "name": "Super-Pharm Apteka",
                "addr:street": "Stanisława Matyi",
                "addr:housenumber": "2",
                "addr:city": "Poznań",
                "addr:postcode": "61-586",
                "amenity": "pharmacy"
            },
            "geometry": {
                "type": "Point",
                "coordinates": [
                    16.913860846192257,
                    52.402048542261774
                ]
            }
        },
        {
            "type": "Feature",
            "properties": {
                "ref:csioz": 1123857,
                "name": "Hebeapteka",
                "addr:street": "Święty Marcin",
                "addr:housenumber": "24",
                "addr:city": "Poznań",
                "addr:postcode": "61-805",
                "amenity": "pharmacy"
            },
            "geometry": {
                "type": "Point",
                "coordinates": [
                    16.92775747261913,
                    52.40617984553966
                ]
            }
        },
        {
            "type": "Feature",
            "properties": {
                "ref:csioz": 1124092,
                "name": "Apteka Green Point",
                "addr:street": "Hetmańska",
                "addr:housenumber": "91",
                "addr:city": "Poznań-Grunwald",
                "addr:postcode": "60-218",
                "amenity": "pharmacy"
            },
            "geometry": {
                "type": "Point",
                "coordinates": [
                    16.91280114191591,
                    52.38620389620989
                ]
            }
        },
        {
            "type": "Feature",
            "properties": {
                "ref:csioz": 1124822,
                "addr:street": "OBORNICKA",
                "addr:housenumber": "262",
                "addr:city": "POZNAŃ",
                "addr:postcode": "60-693",
                "amenity": "pharmacy"
            },
            "geometry": {
                "type": "Point",
                "coordinates": [
                    16.907932076359668,
                    52.4480871476682
                ]
            }
        },
        {
            "type": "Feature",
            "properties": {
                "ref:csioz": 1124833,
                "addr:street": "GRUNWALDZKA",
                "addr:housenumber": "324",
                "addr:city": "POZNAŃ",
                "addr:postcode": "60-166",
                "amenity": "pharmacy"
            },
            "geometry": {
                "type": "Point",
                "coordinates": [
                    16.83755935959111,
                    52.3840197653874
                ]
            }
        },
        {
            "type": "Feature",
            "properties": {
                "ref:csioz": 1124904,
                "name": "Niepubliczny Zakład Opieki Zdrowotnej Klinika Promienista",
                "addr:street": "PROMIENISTA",
                "addr:housenumber": "98",
                "addr:city": "POZNAŃ",
                "addr:postcode": "60-142",
                "amenity": "pharmacy"
            },
            "geometry": {
                "type": "Point",
                "coordinates": [
                    16.8749366572176,
                    52.39090047579005
                ]
            }
        },
        {
            "type": "Feature",
            "properties": {
                "ref:csioz": 1124912,
                "name": "Nzoz Ty I Dziecko",
                "addr:street": "JANA III SOBIESKIEGO",
                "addr:housenumber": "103",
                "addr:city": "POZNAŃ",
                "addr:postcode": "60-688",
                "amenity": "pharmacy"
            },
            "geometry": {
                "type": "Point",
                "coordinates": [
                    16.906487832949786,
                    52.46341027454527
                ]
            }
        },
        {
            "type": "Feature",
            "properties": {
                "ref:csioz": 1124920,
                "name": "Rehasport Clinic",
                "addr:street": "JASIELSKA",
                "addr:housenumber": "14",
                "addr:city": "POZNAŃ",
                "addr:postcode": "60-476",
                "amenity": "pharmacy"
            },
            "geometry": {
                "type": "Point",
                "coordinates": [
                    16.896065758879462,
                    52.444535460977676
                ]
            }
        },
        {
            "type": "Feature",
            "properties": {
                "ref:csioz": 1148065,
                "addr:street": "ALEJE SOLIDARNOŚCI",
                "addr:housenumber": "36",
                "addr:city": "POZNAŃ",
                "addr:postcode": "61-696",
                "amenity": "pharmacy"
            },
            "geometry": {
                "type": "Point",
                "coordinates": [
                    16.933913160066343,
                    52.43378602405624
                ]
            }
        },
        {
            "type": "Feature",
            "properties": {
                "ref:csioz": 1175828,
                "name": "Euro Apteka",
                "addr:street": "Górecka",
                "addr:housenumber": "30",
                "addr:city": "Poznań",
                "addr:postcode": "60-201",
                "amenity": "pharmacy"
            },
            "geometry": {
                "type": "Point",
                "coordinates": [
                    16.89534999999656,
                    52.38087600001608
                ]
            }
        },
        {
            "type": "Feature",
            "properties": {
                "ref:csioz": 1176452,
                "name": "Hebeapteka",
                "addr:street": "Wierzbięcice",
                "addr:housenumber": "36",
                "addr:city": "Poznań",
                "addr:postcode": "61-568",
                "amenity": "pharmacy"
            },
            "geometry": {
                "type": "Point",
                "coordinates": [
                    16.92155190774655,
                    52.39499914170282
                ]
            }
        },
        {
            "type": "Feature",
            "properties": {
                "ref:csioz": 1176483,
                "name": "Apteka Dbam O Zdrowie",
                "addr:street": "Aleje Solidarności",
                "addr:housenumber": "47",
                "addr:city": "Poznań",
                "addr:postcode": "61-693",
                "amenity": "pharmacy"
            },
            "geometry": {
                "type": "Point",
                "coordinates": [
                    16.91742586782419,
                    52.43726649455849
                ]
            }
        },
        {
            "type": "Feature",
            "properties": {
                "ref:csioz": 1176507,
                "name": "Optima",
                "addr:street": "Cyryla Ratajskiego",
                "addr:housenumber": "4",
                "addr:city": "Poznań",
                "addr:postcode": "61-726",
                "amenity": "pharmacy"
            },
            "geometry": {
                "type": "Point",
                "coordinates": [
                    16.92344099999675,
                    52.409536000016125
                ]
            }
        },
        {
            "type": "Feature",
            "properties": {
                "ref:csioz": 1176988,
                "name": "Medkon",
                "addr:street": "Słowiańska",
                "addr:housenumber": "36A",
                "addr:city": "Poznań",
                "addr:postcode": "61-664",
                "amenity": "pharmacy"
            },
            "geometry": {
                "type": "Point",
                "coordinates": [
                    16.925249044174823,
                    52.427985782686456
                ]
            }
        },
        {
            "type": "Feature",
            "properties": {
                "ref:csioz": 1179562,
                "name": "Ziko Apteka",
                "addr:street": "Wierzbięcice",
                "addr:housenumber": "36",
                "addr:city": "Poznań",
                "addr:postcode": "61-568",
                "amenity": "pharmacy"
            },
            "geometry": {
                "type": "Point",
                "coordinates": [
                    16.92155190774655,
                    52.39499914170282
                ]
            }
        },
        {
            "type": "Feature",
            "properties": {
                "ref:csioz": 1182802,
                "name": "Dr. Max",
                "addr:street": "Piątkowska",
                "addr:housenumber": "87A",
                "addr:city": "Poznań",
                "addr:postcode": "60-648",
                "amenity": "pharmacy"
            },
            "geometry": {
                "type": "Point",
                "coordinates": [
                    16.91610799802824,
                    52.42835038627771
                ]
            }
        },
        {
            "type": "Feature",
            "properties": {
                "ref:csioz": 1182815,
                "name": "Apteka Dr. Optima",
                "addr:street": "Strzelecka",
                "addr:housenumber": "48A",
                "addr:city": "Poznań",
                "addr:postcode": "61-846",
                "amenity": "pharmacy"
            },
            "geometry": {
                "type": "Point",
                "coordinates": [
                    16.93525399999683,
                    52.39985500001611
                ]
            }
        },
        {
            "type": "Feature",
            "properties": {
                "ref:csioz": 1182828,
                "name": "Dr. Max",
                "addr:street": "Głogowska",
                "addr:housenumber": "120",
                "addr:city": "Poznań",
                "addr:postcode": "60-243",
                "amenity": "pharmacy"
            },
            "geometry": {
                "type": "Point",
                "coordinates": [
                    16.893288979334883,
                    52.38952224278807
                ]
            }
        },
        {
            "type": "Feature",
            "properties": {
                "ref:csioz": 1182889,
                "name": "Wielkopolska",
                "addr:street": "Polna",
                "addr:housenumber": "40",
                "addr:city": "Poznań-Jeżyce",
                "addr:postcode": "60-533",
                "amenity": "pharmacy"
            },
            "geometry": {
                "type": "Point",
                "coordinates": [
                    16.895473521060133,
                    52.41101846351854
                ]
            }
        },
        {
            "type": "Feature",
            "properties": {
                "ref:csioz": 1184772,
                "name": "Verus",
                "addr:street": "Marcina Kasprzaka",
                "addr:housenumber": "16",
                "addr:city": "Poznań",
                "addr:postcode": "60-237",
                "amenity": "pharmacy"
            },
            "geometry": {
                "type": "Point",
                "coordinates": [
                    16.895215163946432,
                    52.393346898122296
                ]
            }
        },
        {
            "type": "Feature",
            "properties": {
                "ref:csioz": 1185941,
                "name": "Dom Leków",
                "addr:street": "Gwarna",
                "addr:housenumber": "5",
                "addr:city": "Poznań",
                "addr:postcode": "61-702",
                "amenity": "pharmacy"
            },
            "geometry": {
                "type": "Point",
                "coordinates": [
                    16.92105675750117,
                    52.407594953043706
                ]
            }
        },
        {
            "type": "Feature",
            "properties": {
                "ref:csioz": 1186141,
                "name": "Ziko Apteka",
                "addr:street": "Jana Henryka Dąbrowskiego",
                "addr:housenumber": "47",
                "addr:city": "Poznań",
                "addr:postcode": "60-842",
                "amenity": "pharmacy"
            },
            "geometry": {
                "type": "Point",
                "coordinates": [
                    16.905132873762042,
                    52.4125134717926
                ]
            }
        },
        {
            "type": "Feature",
            "properties": {
                "ref:csioz": 1186468,
                "name": "Medkon",
                "addr:street": "Franciszka Stróżyńskiego",
                "addr:housenumber": "13",
                "addr:city": "Poznań",
                "addr:postcode": "60-688",
                "amenity": "pharmacy"
            },
            "geometry": {
                "type": "Point",
                "coordinates": [
                    16.904018744040425,
                    52.455544692096005
                ]
            }
        },
        {
            "type": "Feature",
            "properties": {
                "ref:csioz": 1186484,
                "name": "Medkon",
                "addr:street": "Franciszka Morawskiego",
                "addr:housenumber": "2 B",
                "addr:city": "Poznań",
                "addr:postcode": "60-239",
                "amenity": "pharmacy"
            },
            "geometry": {
                "type": "Point",
                "coordinates": [
                    16.894882999996558,
                    52.394426000016104
                ]
            }
        },
        {
            "type": "Feature",
            "properties": {
                "ref:csioz": 1186506,
                "name": "Medkon",
                "addr:street": "Garbary",
                "addr:housenumber": "71",
                "addr:city": "Poznań",
                "addr:postcode": "61-758",
                "amenity": "pharmacy"
            },
            "geometry": {
                "type": "Point",
                "coordinates": [
                    16.93801090247365,
                    52.40903768165734
                ]
            }
        },
        {
            "type": "Feature",
            "properties": {
                "ref:csioz": 1186533,
                "name": "Zdrowa Wielkopolska",
                "addr:street": "Kącik",
                "addr:housenumber": "5",
                "addr:city": "Poznań-Grunwald",
                "addr:postcode": "60-732",
                "amenity": "pharmacy"
            },
            "geometry": {
                "type": "Point",
                "coordinates": [
                    16.901816433641343,
                    52.39378958756724
                ]
            }
        },
        {
            "type": "Feature",
            "properties": {
                "ref:csioz": 1186728,
                "name": "Ziko Apteka",
                "addr:street": "Wiosny Ludów",
                "addr:housenumber": "2",
                "addr:city": "Poznań",
                "addr:postcode": "61-831",
                "amenity": "pharmacy"
            },
            "geometry": {
                "type": "Point",
                "coordinates": [
                    16.931508370228443,
                    52.40542862884151
                ]
            }
        },
        {
            "type": "Feature",
            "properties": {
                "ref:csioz": 1187773,
                "name": "Ziko Apteka",
                "addr:street": "Głogowska",
                "addr:housenumber": "83",
                "addr:city": "Poznań",
                "addr:postcode": "60-739",
                "amenity": "pharmacy"
            },
            "geometry": {
                "type": "Point",
                "coordinates": [
                    16.899635041901753,
                    52.39470934236806
                ]
            }
        },
        {
            "type": "Feature",
            "properties": {
                "ref:csioz": 1188729,
                "name": "Dr. Max",
                "addr:street": "Marcelińska",
                "addr:housenumber": "80",
                "addr:city": "Poznań",
                "addr:postcode": "60-341",
                "amenity": "pharmacy"
            },
            "geometry": {
                "type": "Point",
                "coordinates": [
                    16.871931190872107,
                    52.404065602325424
                ]
            }
        },
        {
            "type": "Feature",
            "properties": {
                "ref:csioz": 1189595,
                "name": "Adamus",
                "addr:street": "Bolesława Śmiałego",
                "addr:housenumber": "31",
                "addr:city": "Poznań",
                "addr:postcode": "60-682",
                "amenity": "pharmacy"
            },
            "geometry": {
                "type": "Point",
                "coordinates": [
                    16.923121612520166,
                    52.44827253947346
                ]
            }
        },
        {
            "type": "Feature",
            "properties": {
                "ref:csioz": 1189617,
                "name": "Przy Palmiarni",
                "addr:street": "Artura Grottgera",
                "addr:housenumber": "5",
                "addr:city": "Poznań",
                "addr:postcode": "60-757",
                "amenity": "pharmacy"
            },
            "geometry": {
                "type": "Point",
                "coordinates": [
                    16.897761370112587,
                    52.40154864021531
                ]
            }
        },
        {
            "type": "Feature",
            "properties": {
                "ref:csioz": 1190681,
                "name": "Pod Sasanką",
                "addr:street": "Krakowska",
                "addr:housenumber": "32",
                "addr:city": "Poznań",
                "addr:postcode": "61-893",
                "amenity": "pharmacy"
            },
            "geometry": {
                "type": "Point",
                "coordinates": [
                    16.92899462708486,
                    52.40069823298499
                ]
            }
        },
        {
            "type": "Feature",
            "properties": {
                "ref:csioz": 1190892,
                "name": "Nasza",
                "addr:street": "Stanisława Przybyszewskiego",
                "addr:housenumber": "49",
                "addr:city": "Poznań",
                "addr:postcode": "60-355",
                "amenity": "pharmacy"
            },
            "geometry": {
                "type": "Point",
                "coordinates": [
                    16.88783168633375,
                    52.40357524741046
                ]
            }
        },
        {
            "type": "Feature",
            "properties": {
                "ref:csioz": 1191797,
                "addr:street": "Grunwaldzka",
                "addr:housenumber": "374",
                "addr:city": "Poznań",
                "addr:postcode": "60-173",
                "amenity": "pharmacy"
            },
            "geometry": {
                "type": "Point",
                "coordinates": [
                    16.830934692413717,
                    52.38132698008084
                ]
            }
        },
        {
            "type": "Feature",
            "properties": {
                "ref:csioz": 1191866,
                "name": "Pod Jemiołą",
                "addr:street": "Sielska",
                "addr:housenumber": "32",
                "addr:city": "Poznań",
                "addr:postcode": "60-129",
                "amenity": "pharmacy"
            },
            "geometry": {
                "type": "Point",
                "coordinates": [
                    16.884254999996493,
                    52.38589600001608
                ]
            }
        },
        {
            "type": "Feature",
            "properties": {
                "ref:csioz": 1192094,
                "name": "Apteka Wielkopolska",
                "addr:street": "Aleje Solidarności",
                "addr:housenumber": "36",
                "addr:city": "Poznań-Stare Miasto",
                "addr:postcode": "61-696",
                "amenity": "pharmacy"
            },
            "geometry": {
                "type": "Point",
                "coordinates": [
                    16.933913160066343,
                    52.43378602405624
                ]
            }
        },
        {
            "type": "Feature",
            "properties": {
                "ref:csioz": 1195778,
                "name": "Literacka",
                "addr:street": "Literacka",
                "addr:housenumber": "43",
                "addr:city": "Poznań",
                "addr:postcode": "60-461",
                "amenity": "pharmacy"
            },
            "geometry": {
                "type": "Point",
                "coordinates": [
                    16.873883999996433,
                    52.44597800001618
                ]
            }
        },
        {
            "type": "Feature",
            "properties": {
                "ref:csioz": 1201539,
                "name": "Apteka Marcelin",
                "addr:street": "Marcelińska",
                "addr:housenumber": "102",
                "addr:city": "Poznań",
                "addr:postcode": "60-324",
                "amenity": "pharmacy"
            },
            "geometry": {
                "type": "Point",
                "coordinates": [
                    16.859121510952377,
                    52.40474906604203
                ]
            }
        },
        {
            "type": "Feature",
            "properties": {
                "ref:csioz": 1206300,
                "name": "Apteka Wasza",
                "addr:street": "Królowej Jadwigi",
                "addr:housenumber": "58A",
                "addr:city": "Poznań",
                "addr:postcode": "61-873",
                "amenity": "pharmacy"
            },
            "geometry": {
                "type": "Point",
                "coordinates": [
                    16.928881866062515,
                    52.400051435438286
                ]
            }
        },
        {
            "type": "Feature",
            "properties": {
                "ref:csioz": 1208259,
                "addr:street": "Druskienicka",
                "addr:housenumber": "17",
                "addr:city": "Poznań",
                "addr:postcode": "60-476",
                "amenity": "pharmacy"
            },
            "geometry": {
                "type": "Point",
                "coordinates": [
                    16.887842679593444,
                    52.44513924180629
                ]
            }
        },
        {
            "type": "Feature",
            "properties": {
                "ref:csioz": 1209710,
                "name": "Bona Prima",
                "addr:street": "Kosynierska",
                "addr:housenumber": "6-8",
                "addr:city": "Poznań-Grunwald",
                "addr:postcode": "60-241",
                "amenity": "pharmacy"
            },
            "geometry": {
                "type": "Point",
                "coordinates": [
                    16.888667249307577,
                    52.38581972928909
                ]
            }
        },
        {
            "type": "Feature",
            "properties": {
                "ref:csioz": 1211179,
                "name": "Apteka Passiflora",
                "addr:street": "Brzask",
                "addr:housenumber": "10A",
                "addr:city": "Poznań",
                "addr:postcode": "60-369",
                "amenity": "pharmacy"
            },
            "geometry": {
                "type": "Point",
                "coordinates": [
                    16.87880267884295,
                    52.407386379808116
                ]
            }
        },
        {
            "type": "Feature",
            "properties": {
                "ref:csioz": 1212940,
                "name": "Pamiątkowa",
                "addr:street": "ul. 28 Czerwca 1956 r.",
                "addr:housenumber": "122/122A",
                "addr:city": "Poznań-Wilda",
                "addr:postcode": "61-526",
                "amenity": "pharmacy"
            },
            "geometry": {
                "type": "Point",
                "coordinates": [
                    16.920118999994433,
                    52.391555000008296
                ]
            }
        },
        {
            "type": "Feature",
            "properties": {
                "ref:csioz": 1212954,
                "name": "Pamiątkowa",
                "addr:street": "ul. 28 Czerwca 1956 r.",
                "addr:housenumber": "168",
                "addr:city": "Poznań-Wilda",
                "addr:postcode": "61-507",
                "amenity": "pharmacy"
            },
            "geometry": {
                "type": "Point",
                "coordinates": [
                    16.91563096266937,
                    52.386523974154606
                ]
            }
        },
        {
            "type": "Feature",
            "properties": {
                "ref:csioz": 1214254,
                "name": "Zdrowoteka",
                "addr:street": "Jana Henryka Dąbrowskiego",
                "addr:housenumber": "86",
                "addr:city": "Poznań",
                "addr:postcode": "60-576",
                "amenity": "pharmacy"
            },
            "geometry": {
                "type": "Point",
                "coordinates": [
                    16.89707282555528,
                    52.41402616743118
                ]
            }
        },
        {
            "type": "Feature",
            "properties": {
                "ref:csioz": 1214430,
                "name": "Apteka Dla Ciebie",
                "addr:street": "ul. Ognik",
                "addr:housenumber": "18",
                "addr:city": "Poznań",
                "addr:postcode": "60-386",
                "amenity": "pharmacy"
            },
            "geometry": {
                "type": "Point",
                "coordinates": [
                    16.870364413119322,
                    52.4066360043229
                ]
            }
        },
        {
            "type": "Feature",
            "properties": {
                "ref:csioz": 1215472,
                "name": "Medkon",
                "addr:street": "Jutrzenka",
                "addr:housenumber": "8",
                "addr:city": "Poznań",
                "addr:postcode": "60-335",
                "amenity": "pharmacy"
            },
            "geometry": {
                "type": "Point",
                "coordinates": [
                    16.877435689643008,
                    52.41056194334229
                ]
            }
        },
        {
            "type": "Feature",
            "properties": {
                "ref:csioz": 1215763,
                "name": "Topfarm",
                "addr:street": "ul. Garbary",
                "addr:housenumber": "16",
                "addr:city": "Poznań",
                "addr:postcode": "61-067",
                "amenity": "pharmacy"
            },
            "geometry": {
                "type": "Point",
                "coordinates": [
                    16.93684137711782,
                    52.402428307257175
                ]
            }
        },
        {
            "type": "Feature",
            "properties": {
                "ref:csioz": 1216651,
                "name": "Przyjazna",
                "addr:street": "ul. Obornicka",
                "addr:housenumber": "260",
                "addr:city": "Poznań",
                "addr:postcode": "60-693",
                "amenity": "pharmacy"
            },
            "geometry": {
                "type": "Point",
                "coordinates": [
                    16.908055747460644,
                    52.44776158328723
                ]
            }
        },
        {
            "type": "Feature",
            "properties": {
                "ref:csioz": 1217215,
                "name": "Passiflora",
                "addr:street": "Jana III Sobieskiego",
                "addr:housenumber": "52",
                "addr:city": "Poznań",
                "addr:postcode": "60-688",
                "amenity": "pharmacy"
            },
            "geometry": {
                "type": "Point",
                "coordinates": [
                    16.91266528436093,
                    52.462360109892785
                ]
            }
        },
        {
            "type": "Feature",
            "properties": {
                "ref:csioz": 1218010,
                "name": "Ziko Apteka",
                "addr:street": "ul. Konfederacka",
                "addr:housenumber": "2",
                "addr:city": "Poznań",
                "addr:postcode": "60-281",
                "amenity": "pharmacy"
            },
            "geometry": {
                "type": "Point",
                "coordinates": [
                    16.871395438071318,
                    52.397367301702545
                ]
            }
        },
        {
            "type": "Feature",
            "properties": {
                "ref:csioz": 1219047,
                "addr:street": "Wierzbięcice",
                "addr:housenumber": "25",
                "addr:city": "Poznań",
                "addr:postcode": "61-561",
                "amenity": "pharmacy"
            },
            "geometry": {
                "type": "Point",
                "coordinates": [
                    16.921113524151128,
                    52.39669672131952
                ]
            }
        },
        {
            "type": "Feature",
            "properties": {
                "ref:csioz": 1219083,
                "addr:street": "Zofii Nałkowskiej",
                "addr:housenumber": "59",
                "addr:city": "Poznań",
                "addr:postcode": "61-533",
                "amenity": "pharmacy"
            },
            "geometry": {
                "type": "Point",
                "coordinates": [
                    16.925122051193583,
                    52.395206652774334
                ]
            }
        },
        {
            "type": "Feature",
            "properties": {
                "ref:csioz": 1222261,
                "name": "Dobra",
                "addr:street": "Jana III Sobieskiego",
                "addr:housenumber": "103",
                "addr:city": "Poznań",
                "addr:postcode": "60-688",
                "amenity": "pharmacy"
            },
            "geometry": {
                "type": "Point",
                "coordinates": [
                    16.906487832949786,
                    52.46341027454527
                ]
            }
        },
        {
            "type": "Feature",
            "properties": {
                "ref:csioz": 1224625,
                "name": "Dom Leków",
                "addr:street": "im. Karola Kurpińskiego",
                "addr:housenumber": "10",
                "addr:city": "Poznań",
                "addr:postcode": "60-681",
                "amenity": "pharmacy"
            },
            "geometry": {
                "type": "Point",
                "coordinates": [
                    16.913605999996697,
                    52.45015400001619
                ]
            }
        },
        {
            "type": "Feature",
            "properties": {
                "ref:csioz": 1226472,
                "name": "Doz Apteka Dbam O Zdrowie",
                "addr:street": "Stanisława Matyi",
                "addr:housenumber": "2",
                "addr:city": "Poznań",
                "addr:postcode": "61-586",
                "amenity": "pharmacy"
            },
            "geometry": {
                "type": "Point",
                "coordinates": [
                    16.913860846192257,
                    52.402048542261774
                ]
            }
        },
        {
            "type": "Feature",
            "properties": {
                "ref:csioz": 1227416,
                "addr:street": "Obornicka",
                "addr:housenumber": "262",
                "addr:city": "Poznań",
                "addr:postcode": "60-963",
                "amenity": "pharmacy"
            },
            "geometry": {
                "type": "Point",
                "coordinates": [
                    16.907932076359668,
                    52.4480871476682
                ]
            }
        },
        {
            "type": "Feature",
            "properties": {
                "ref:csioz": 1227752,
                "name": "Doz Apteka Dbam O Zdrowie Kwiaty Polne",
                "addr:street": "Stefana Batorego",
                "addr:housenumber": "79",
                "addr:city": "Poznań",
                "addr:postcode": "60-687",
                "amenity": "pharmacy"
            },
            "geometry": {
                "type": "Point",
                "coordinates": [
                    16.918255502361724,
                    52.463398313289524
                ]
            }
        },
        {
            "type": "Feature",
            "properties": {
                "ref:csioz": 1227865,
                "addr:street": "Marcelińska",
                "addr:housenumber": "44",
                "addr:city": "Poznań",
                "addr:postcode": "60-354",
                "amenity": "pharmacy"
            },
            "geometry": {
                "type": "Point",
                "coordinates": [
                    16.883156347830003,
                    52.404289565600926
                ]
            }
        },
        {
            "type": "Feature",
            "properties": {
                "ref:csioz": 1230548,
                "addr:street": "Grunwaldzka",
                "addr:housenumber": "156",
                "addr:city": "Poznań",
                "addr:postcode": "60-309",
                "amenity": "pharmacy"
            },
            "geometry": {
                "type": "Point",
                "coordinates": [
                    16.859920682625667,
                    52.39265709009574
                ]
            }
        },
        {
            "type": "Feature",
            "properties": {
                "ref:csioz": 1050905,
                "name": "Krzyżowniki",
                "addr:street": "Sianowska",
                "addr:housenumber": "151A",
                "addr:city": "Poznań",
                "addr:postcode": "60-453",
                "amenity": "pharmacy"
            },
            "geometry": {
                "type": "Point",
                "coordinates": [
                    16.809540711109168,
                    52.43489590296865
                ]
            }
        },
        {
            "type": "Feature",
            "properties": {
                "ref:csioz": 1046261,
                "name": "Wichrowa",
                "addr:street": "Wichrowa",
                "addr:housenumber": "1A",
                "addr:city": "Poznań-Jeżyce",
                "addr:postcode": "60-449",
                "amenity": "pharmacy"
            },
            "geometry": {
                "type": "Point",
                "coordinates": [
                    16.808595179101083,
                    52.431366903279056
                ]
            }
        }
    ]
}