{
    "type": "FeatureCollection",
    "name": "JPT_KOD_JE_0217",
    "features": [
        {
            "type": "Feature",
            "properties": {
                "ref:csioz": 1129258,
                "name": "Inter Apteka",
                "addr:street": "Piłsudskiego",
                "addr:housenumber": "26",
                "addr:city": "Strzelin",
                "addr:postcode": "57-100",
                "amenity": "pharmacy",
                "dispensing": "yes"
            },
            "geometry": {
                "type": "Point",
                "coordinates": [
                    17.06877298472649,
                    50.78593747215008
                ]
            }
        },
        {
            "type": "Feature",
            "properties": {
                "ref:csioz": 1129884,
                "name": "Kalina",
                "addr:street": "Bolka I Świdnickiego",
                "addr:housenumber": "8",
                "addr:city": "Strzelin",
                "addr:postcode": "57-100",
                "amenity": "pharmacy",
                "dispensing": "yes"
            },
            "geometry": {
                "type": "Point",
                "coordinates": [
                    17.063203272860704,
                    50.78279232195547
                ]
            }
        },
        {
            "type": "Feature",
            "properties": {
                "ref:csioz": 1130428,
                "name": "Pod Złotym Strzelcem",
                "addr:street": "Dzierżoniowska",
                "addr:housenumber": "16c",
                "addr:city": "Strzelin",
                "addr:postcode": "57-100",
                "amenity": "pharmacy",
                "dispensing": "yes"
            },
            "geometry": {
                "type": "Point",
                "coordinates": [
                    17.060589501243125,
                    50.78264889579648
                ]
            }
        },
        {
            "type": "Feature",
            "properties": {
                "ref:csioz": 1135264,
                "name": "\"Punkt Apteczny \"\"Pod Gromnikiem\"\"\"",
                "addr:street": "Ogrodowa",
                "addr:housenumber": "1",
                "addr:city": "Przeworno",
                "addr:postcode": "57-130",
                "amenity": "pharmacy",
                "dispensing": "yes"
            },
            "geometry": {
                "type": "Point",
                "coordinates": [
                    17.166770658212528,
                    50.68813793761436
                ]
            }
        },
        {
            "type": "Feature",
            "properties": {
                "ref:csioz": 1198818,
                "name": "Centrum Zdrowia",
                "addr:street": "Dzierżoniowska",
                "addr:housenumber": "5",
                "addr:city": "Strzelin",
                "addr:postcode": "57-100",
                "amenity": "pharmacy",
                "dispensing": "yes"
            },
            "geometry": {
                "type": "Point",
                "coordinates": [
                    17.061231623587492,
                    50.78146471734826
                ]
            }
        },
        {
            "type": "Feature",
            "properties": {
                "ref:csioz": 1126485,
                "name": "\"Apteka 'Pod Paprocią'\"",
                "addr:street": "Rynek",
                "addr:housenumber": "8",
                "addr:city": "Strzelin",
                "addr:postcode": "57-100",
                "amenity": "pharmacy",
                "dispensing": "yes"
            },
            "geometry": {
                "type": "Point",
                "coordinates": [
                    17.070330138055127,
                    50.78129498683351
                ]
            }
        },
        {
            "type": "Feature",
            "properties": {
                "ref:csioz": 1127945,
                "name": "Apteka Pod Złotym Lwem",
                "addr:street": "Wolności",
                "addr:housenumber": "1",
                "addr:city": "Strzelin",
                "addr:postcode": "57-100",
                "amenity": "pharmacy",
                "dispensing": "yes"
            },
            "geometry": {
                "type": "Point",
                "coordinates": [
                    17.064617692240553,
                    50.781622831447656
                ]
            }
        },
        {
            "type": "Feature",
            "properties": {
                "ref:csioz": 1129608,
                "name": "Herbowa",
                "addr:street": "Wolności",
                "addr:housenumber": "18A",
                "addr:city": "Wiązów",
                "addr:postcode": "57-120",
                "amenity": "pharmacy",
                "dispensing": "yes"
            },
            "geometry": {
                "type": "Point",
                "coordinates": [
                    17.201200999998044,
                    50.81429300001368
                ]
            }
        },
        {
            "type": "Feature",
            "properties": {
                "ref:csioz": 1129619,
                "name": "\"Apteka 'Magnolia'\"",
                "addr:street": "Adama Mickiewicza",
                "addr:housenumber": "5",
                "addr:city": "Strzelin",
                "addr:postcode": "57-100",
                "amenity": "pharmacy",
                "dispensing": "yes"
            },
            "geometry": {
                "type": "Point",
                "coordinates": [
                    17.06345192579218,
                    50.78354946395698
                ]
            }
        },
        {
            "type": "Feature",
            "properties": {
                "ref:csioz": 1126666,
                "name": "Arnica",
                "addr:street": "Strzelińska",
                "addr:housenumber": "12",
                "addr:city": "Borek Strzeliński",
                "addr:postcode": "57-160",
                "amenity": "pharmacy",
                "dispensing": "yes"
            },
            "geometry": {
                "type": "Point",
                "coordinates": [
                    17.066212048563255,
                    50.86625185559529
                ]
            }
        },
        {
            "type": "Feature",
            "properties": {
                "ref:csioz": 1135335,
                "name": "\"Punkt Apteczny \"\"Słonecznik\"\"\"",
                "addr:housenumber": "26",
                "addr:postcode": "57-100",
                "amenity": "pharmacy",
                "addr:place": "Biały Kościół",
                "dispensing": "yes"
            },
            "geometry": {
                "type": "Point",
                "coordinates": [
                    17.04403015442185,
                    50.730392227711654
                ]
            }
        },
        {
            "type": "Feature",
            "properties": {
                "ref:csioz": 1160967,
                "name": "Niepubliczny Zakład Opieki Zdrowotnej Strzelińskie Centrum Medyczne-Szpital",
                "addr:street": "Wrocławska",
                "addr:housenumber": "46",
                "addr:city": "Strzelin",
                "addr:postcode": "57-100",
                "amenity": "pharmacy",
                "dispensing": "yes"
            },
            "geometry": {
                "type": "Point",
                "coordinates": [
                    17.069363427365936,
                    50.78775377639524
                ]
            }
        },
        {
            "type": "Feature",
            "properties": {
                "ref:csioz": 1224250,
                "name": "Apteka Ogólnodostępna",
                "addr:street": "Starowiejska",
                "addr:housenumber": "2",
                "addr:city": "Borów",
                "addr:postcode": "57-160",
                "amenity": "pharmacy",
                "dispensing": "yes"
            },
            "geometry": {
                "type": "Point",
                "coordinates": [
                    16.98870402862862,
                    50.882558644134114
                ]
            }
        },
        {
            "type": "Feature",
            "properties": {
                "ref:csioz": 1230707,
                "name": "Punkt Apteczny Centrum Zdrowia",
                "addr:street": "Kościelna",
                "addr:housenumber": "5",
                "addr:city": "Prusy",
                "addr:postcode": "57-150",
                "amenity": "pharmacy",
                "dispensing": "yes"
            },
            "geometry": {
                "type": "Point",
                "coordinates": [
                    16.93564159917915,
                    50.755493532246234
                ]
            }
        },
        {
            "type": "Feature",
            "properties": {
                "ref:csioz": 1128303,
                "name": "Nova",
                "addr:street": "Grahama Bella",
                "addr:housenumber": "3",
                "addr:city": "Strzelin",
                "addr:postcode": "57-100",
                "amenity": "pharmacy",
                "dispensing": "yes"
            },
            "geometry": {
                "type": "Point",
                "coordinates": [
                    17.066675125434653,
                    50.78151492837058
                ]
            }
        }
    ]
}