{
    "type": "FeatureCollection",
    "name": "JPT_KOD_JE_2475",
    "features": [
        {
            "type": "Feature",
            "properties": {
                "ref:csioz": 1177911,
                "name": "Dar Zdrowia",
                "addr:street": "Krzysztofa Kamila Baczyńskiego",
                "addr:housenumber": "14",
                "addr:city": "Sosnowiec",
                "addr:postcode": "41-203",
                "amenity": "pharmacy",
                "dispensing": "yes"
            },
            "geometry": {
                "type": "Point",
                "coordinates": [
                    19.079551474882397,
                    50.29120711583354
                ]
            }
        },
        {
            "type": "Feature",
            "properties": {
                "ref:csioz": 1057365,
                "name": "\"Centrum Profilaktyki, Leczenia I Opieki \"\"Medico\"\" Niepubliczny Zakład Opieki Zdrowotnej Spółka Z Ograniczoną Odpowiedzialnością\"",
                "addr:street": "Odrodzenia",
                "addr:housenumber": "9",
                "addr:city": "Sosnowiec",
                "addr:postcode": "41-209",
                "amenity": "pharmacy",
                "dispensing": "yes"
            },
            "geometry": {
                "type": "Point",
                "coordinates": [
                    19.11647775418957,
                    50.2820455743316
                ]
            }
        },
        {
            "type": "Feature",
            "properties": {
                "ref:csioz": 1069187,
                "name": "Apteka Na Kilińskiego",
                "addr:street": "Jana Kilińskiego",
                "addr:housenumber": "40",
                "addr:city": "Sosnowiec",
                "addr:postcode": "41-200",
                "amenity": "pharmacy",
                "dispensing": "yes"
            },
            "geometry": {
                "type": "Point",
                "coordinates": [
                    19.124617797893425,
                    50.28039702492826
                ]
            }
        },
        {
            "type": "Feature",
            "properties": {
                "ref:csioz": 1069201,
                "name": "Na Górce",
                "addr:street": "Klimontowska",
                "addr:housenumber": "23",
                "addr:city": "Sosnowiec",
                "addr:postcode": "41-200",
                "amenity": "pharmacy",
                "dispensing": "yes"
            },
            "geometry": {
                "type": "Point",
                "coordinates": [
                    19.15367748236364,
                    50.27722194955374
                ]
            }
        },
        {
            "type": "Feature",
            "properties": {
                "ref:csioz": 1068893,
                "name": "Na Rogu",
                "addr:street": "11 Listopada",
                "addr:housenumber": "10",
                "addr:city": "Sosnowiec",
                "addr:postcode": "41-200",
                "amenity": "pharmacy",
                "dispensing": "yes"
            },
            "geometry": {
                "type": "Point",
                "coordinates": [
                    19.176297735325804,
                    50.26852019420208
                ]
            }
        },
        {
            "type": "Feature",
            "properties": {
                "ref:csioz": 1068908,
                "name": "Anet-Med",
                "addr:street": "11 Listopada",
                "addr:housenumber": "171",
                "addr:city": "Sosnowiec",
                "addr:postcode": "41-219",
                "amenity": "pharmacy",
                "dispensing": "yes"
            },
            "geometry": {
                "type": "Point",
                "coordinates": [
                    19.18170276752386,
                    50.28141394723353
                ]
            }
        },
        {
            "type": "Feature",
            "properties": {
                "ref:csioz": 1068924,
                "name": "Apteka Na Al. Zwycięstwa",
                "addr:street": "Aleja Zwycięstwa",
                "addr:housenumber": "3",
                "addr:city": "Sosnowiec",
                "addr:postcode": "41-200",
                "amenity": "pharmacy",
                "dispensing": "yes"
            },
            "geometry": {
                "type": "Point",
                "coordinates": [
                    19.13030169789629,
                    50.27897287067225
                ]
            }
        },
        {
            "type": "Feature",
            "properties": {
                "ref:csioz": 1068970,
                "name": "Lawendowa",
                "addr:street": "Braci Mieroszewskich",
                "addr:housenumber": "120",
                "addr:city": "Sosnowiec",
                "addr:postcode": "41-200",
                "amenity": "pharmacy",
                "dispensing": "yes"
            },
            "geometry": {
                "type": "Point",
                "coordinates": [
                    19.189797000000045,
                    50.30513900001293
                ]
            }
        },
        {
            "type": "Feature",
            "properties": {
                "ref:csioz": 1068981,
                "name": "Dr. Max",
                "addr:street": "Braci Mieroszewskich",
                "addr:housenumber": "2 A",
                "addr:city": "Sosnowiec",
                "addr:postcode": "41-200",
                "amenity": "pharmacy",
                "dispensing": "yes"
            },
            "geometry": {
                "type": "Point",
                "coordinates": [
                    19.183542571685724,
                    50.29248101463543
                ]
            }
        },
        {
            "type": "Feature",
            "properties": {
                "ref:csioz": 1069002,
                "name": "Doz Apteka. Dbam O Zdrowie",
                "addr:street": "Jana Długosza",
                "addr:housenumber": "1",
                "addr:city": "Sosnowiec",
                "addr:postcode": "41-219",
                "amenity": "pharmacy",
                "dispensing": "yes"
            },
            "geometry": {
                "type": "Point",
                "coordinates": [
                    19.185963670812335,
                    50.30286177456084
                ]
            }
        },
        {
            "type": "Feature",
            "properties": {
                "ref:csioz": 1069015,
                "name": "Brak",
                "addr:street": "Romana Dmowskiego",
                "addr:housenumber": "6A",
                "addr:city": "Sosnowiec",
                "addr:postcode": "41-219",
                "amenity": "pharmacy",
                "dispensing": "yes"
            },
            "geometry": {
                "type": "Point",
                "coordinates": [
                    19.192151078130436,
                    50.3022282943822
                ]
            }
        },
        {
            "type": "Feature",
            "properties": {
                "ref:csioz": 1069066,
                "name": "Apteka Hallera 16 Centrum Tanich Leków",
                "addr:street": "gen. Józefa Hallera",
                "addr:housenumber": "16",
                "addr:city": "Sosnowiec",
                "addr:postcode": "41-200",
                "amenity": "pharmacy",
                "dispensing": "yes"
            },
            "geometry": {
                "type": "Point",
                "coordinates": [
                    19.114003067119587,
                    50.2896003278392
                ]
            }
        },
        {
            "type": "Feature",
            "properties": {
                "ref:csioz": 1069090,
                "name": "Apteka Na Gospodarczej",
                "addr:street": "Gospodarcza",
                "addr:housenumber": "32",
                "addr:city": "Sosnowiec",
                "addr:postcode": "41-200",
                "amenity": "pharmacy",
                "dispensing": "yes"
            },
            "geometry": {
                "type": "Point",
                "coordinates": [
                    19.11828135908839,
                    50.29075953408664
                ]
            }
        },
        {
            "type": "Feature",
            "properties": {
                "ref:csioz": 1069106,
                "name": "Pogońska",
                "addr:street": "gen. Stefana Grota-Roweckiego",
                "addr:housenumber": "36A",
                "addr:city": "Sosnowiec",
                "addr:postcode": "41-200",
                "amenity": "pharmacy",
                "dispensing": "yes"
            },
            "geometry": {
                "type": "Point",
                "coordinates": [
                    19.12327226612525,
                    50.28656676920524
                ]
            }
        },
        {
            "type": "Feature",
            "properties": {
                "ref:csioz": 1069133,
                "name": "Świętej Królowej Jadwigi",
                "addr:street": "Jagiellońska",
                "addr:housenumber": "9",
                "addr:city": "Sosnowiec",
                "addr:postcode": "41-208",
                "amenity": "pharmacy",
                "dispensing": "yes"
            },
            "geometry": {
                "type": "Point",
                "coordinates": [
                    19.130474120613734,
                    50.26879926236125
                ]
            }
        },
        {
            "type": "Feature",
            "properties": {
                "ref:csioz": 1069154,
                "name": "Wawel 2",
                "addr:street": "Kaliska",
                "addr:housenumber": "47",
                "addr:city": "Sosnowiec",
                "addr:postcode": "41-200",
                "amenity": "pharmacy",
                "dispensing": "yes"
            },
            "geometry": {
                "type": "Point",
                "coordinates": [
                    19.147156237832917,
                    50.27756916800771
                ]
            }
        },
        {
            "type": "Feature",
            "properties": {
                "ref:csioz": 1069165,
                "name": "B D",
                "addr:street": "Jana Kiepury",
                "addr:housenumber": "2",
                "addr:city": "Sosnowiec",
                "addr:postcode": "41-209",
                "amenity": "pharmacy",
                "dispensing": "yes"
            },
            "geometry": {
                "type": "Point",
                "coordinates": [
                    19.118412470894725,
                    50.281021277124424
                ]
            }
        },
        {
            "type": "Feature",
            "properties": {
                "ref:csioz": 1069217,
                "name": "Apteka Na Teatralnej Marian Wójcik",
                "addr:street": "Hugo Kołłątaja",
                "addr:housenumber": "17",
                "addr:city": "Sosnowiec",
                "addr:postcode": "41-200",
                "amenity": "pharmacy",
                "dispensing": "yes"
            },
            "geometry": {
                "type": "Point",
                "coordinates": [
                    19.124949687568918,
                    50.27331847964313
                ]
            }
        },
        {
            "type": "Feature",
            "properties": {
                "ref:csioz": 1069323,
                "name": "Ziko Apteka",
                "addr:street": "Modrzejowska",
                "addr:housenumber": "16",
                "addr:city": "Sosnowiec",
                "addr:postcode": "41-200",
                "amenity": "pharmacy",
                "dispensing": "yes"
            },
            "geometry": {
                "type": "Point",
                "coordinates": [
                    19.129163921387242,
                    50.27669499077447
                ]
            }
        },
        {
            "type": "Feature",
            "properties": {
                "ref:csioz": 1069338,
                "name": "Apteka Blisko Ciebie",
                "addr:street": "Modrzejowska",
                "addr:housenumber": "26",
                "addr:city": "Sosnowiec",
                "addr:postcode": "41-200",
                "amenity": "pharmacy",
                "dispensing": "yes"
            },
            "geometry": {
                "type": "Point",
                "coordinates": [
                    19.13059051460351,
                    50.27606185017111
                ]
            }
        },
        {
            "type": "Feature",
            "properties": {
                "ref:csioz": 1069346,
                "name": "Główna",
                "addr:street": "Modrzejowska",
                "addr:housenumber": "32A",
                "addr:city": "Sosnowiec",
                "addr:postcode": "41-200",
                "amenity": "pharmacy",
                "dispensing": "yes"
            },
            "geometry": {
                "type": "Point",
                "coordinates": [
                    19.131396781872187,
                    50.27570787888717
                ]
            }
        },
        {
            "type": "Feature",
            "properties": {
                "ref:csioz": 1069372,
                "name": "Apteka Akacja",
                "addr:street": "Naftowa",
                "addr:housenumber": "35 A-E",
                "addr:city": "Sosnowiec",
                "addr:postcode": "41-200",
                "amenity": "pharmacy",
                "dispensing": "yes"
            },
            "geometry": {
                "type": "Point",
                "coordinates": [
                    19.123182225608964,
                    50.26859954808149
                ]
            }
        },
        {
            "type": "Feature",
            "properties": {
                "ref:csioz": 1069380,
                "name": "Apteka Św. Kamila",
                "addr:street": "Naftowa",
                "addr:housenumber": "4",
                "addr:city": "Sosnowiec",
                "addr:postcode": "41-200",
                "amenity": "pharmacy",
                "dispensing": "yes"
            },
            "geometry": {
                "type": "Point",
                "coordinates": [
                    19.121501643837348,
                    50.27102932125557
                ]
            }
        },
        {
            "type": "Feature",
            "properties": {
                "ref:csioz": 1069426,
                "name": "Brak",
                "addr:street": "Nowopogońska",
                "addr:housenumber": "57",
                "addr:city": "Sosnowiec",
                "addr:postcode": "41-200",
                "amenity": "pharmacy",
                "dispensing": "yes"
            },
            "geometry": {
                "type": "Point",
                "coordinates": [
                    19.134097589752354,
                    50.29098735981551
                ]
            }
        },
        {
            "type": "Feature",
            "properties": {
                "ref:csioz": 1069447,
                "name": "Na Orlej",
                "addr:street": "Orla",
                "addr:housenumber": "30",
                "addr:city": "Sosnowiec",
                "addr:postcode": "41-200",
                "amenity": "pharmacy",
                "dispensing": "yes"
            },
            "geometry": {
                "type": "Point",
                "coordinates": [
                    19.132183000000033,
                    50.290426000012914
                ]
            }
        },
        {
            "type": "Feature",
            "properties": {
                "ref:csioz": 1069460,
                "name": "Maxfarm Apteka",
                "addr:street": "Medyków",
                "addr:housenumber": "1",
                "addr:city": "Sosnowiec",
                "addr:postcode": "41-214",
                "amenity": "pharmacy",
                "dispensing": "yes"
            },
            "geometry": {
                "type": "Point",
                "coordinates": [
                    19.122924332431214,
                    50.304604078167536
                ]
            }
        },
        {
            "type": "Feature",
            "properties": {
                "ref:csioz": 1069471,
                "name": "Gwiezdna",
                "addr:street": "Marszałka Edwarda Rydza-Śmigłego",
                "addr:housenumber": "7",
                "addr:city": "Sosnowiec",
                "addr:postcode": "41-219",
                "amenity": "pharmacy",
                "dispensing": "yes"
            },
            "geometry": {
                "type": "Point",
                "coordinates": [
                    19.185483828914226,
                    50.283835489206176
                ]
            }
        },
        {
            "type": "Feature",
            "properties": {
                "ref:csioz": 1069532,
                "name": "Na Juliuszu",
                "addr:street": "Spadochroniarzy",
                "addr:housenumber": "4",
                "addr:city": "Sosnowiec",
                "addr:postcode": "41-216",
                "amenity": "pharmacy",
                "dispensing": "yes"
            },
            "geometry": {
                "type": "Point",
                "coordinates": [
                    19.229589460834383,
                    50.270359507079895
                ]
            }
        },
        {
            "type": "Feature",
            "properties": {
                "ref:csioz": 1069564,
                "name": "Apteka Melisa Pharm",
                "addr:street": "Stanisława Staszica",
                "addr:housenumber": "8 B",
                "addr:city": "Sosnowiec",
                "addr:postcode": "41-207",
                "amenity": "pharmacy",
                "dispensing": "yes"
            },
            "geometry": {
                "type": "Point",
                "coordinates": [
                    19.150466299281955,
                    50.29009273958405
                ]
            }
        },
        {
            "type": "Feature",
            "properties": {
                "ref:csioz": 1069578,
                "name": "Apteka Ksar",
                "addr:street": "Stoczniowców",
                "addr:housenumber": "4",
                "addr:city": "Sosnowiec",
                "addr:postcode": "41-208",
                "amenity": "pharmacy",
                "dispensing": "yes"
            },
            "geometry": {
                "type": "Point",
                "coordinates": [
                    19.16201361826868,
                    50.243882076198446
                ]
            }
        },
        {
            "type": "Feature",
            "properties": {
                "ref:csioz": 1069608,
                "name": "Apteka Centralna - Apteka Blisko Ciebie",
                "addr:street": "Warszawska",
                "addr:housenumber": "10",
                "addr:city": "Sosnowiec",
                "addr:postcode": "41-200",
                "amenity": "pharmacy",
                "dispensing": "yes"
            },
            "geometry": {
                "type": "Point",
                "coordinates": [
                    19.127803315718605,
                    50.277978632111314
                ]
            }
        },
        {
            "type": "Feature",
            "properties": {
                "ref:csioz": 1069619,
                "name": "Brak",
                "addr:street": "Wawel",
                "addr:housenumber": "15",
                "addr:city": "Sosnowiec",
                "addr:postcode": "41-200",
                "amenity": "pharmacy",
                "dispensing": "yes"
            },
            "geometry": {
                "type": "Point",
                "coordinates": [
                    19.142421969895885,
                    50.27959599655568
                ]
            }
        },
        {
            "type": "Feature",
            "properties": {
                "ref:csioz": 1069624,
                "name": "Brak",
                "addr:street": "Stanisława Witkiewicza",
                "addr:housenumber": "16",
                "addr:city": "Sosnowiec",
                "addr:postcode": "41-200",
                "amenity": "pharmacy",
                "dispensing": "yes"
            },
            "geometry": {
                "type": "Point",
                "coordinates": [
                    19.153636974028014,
                    50.2950059156115
                ]
            }
        },
        {
            "type": "Feature",
            "properties": {
                "ref:csioz": 1069681,
                "name": "Apteka Medialis Pharm",
                "addr:street": "Zuzanny",
                "addr:housenumber": "20",
                "addr:city": "Sosnowiec",
                "addr:postcode": "41-207",
                "amenity": "pharmacy",
                "dispensing": "yes"
            },
            "geometry": {
                "type": "Point",
                "coordinates": [
                    19.160773291301517,
                    50.302420817084105
                ]
            }
        },
        {
            "type": "Feature",
            "properties": {
                "ref:csioz": 1069697,
                "name": "Św. Krzyża",
                "addr:street": "Stefana Żeromskiego",
                "addr:housenumber": "14",
                "addr:city": "Sosnowiec",
                "addr:postcode": "41-200",
                "amenity": "pharmacy",
                "dispensing": "yes"
            },
            "geometry": {
                "type": "Point",
                "coordinates": [
                    19.132555246730362,
                    50.286928889733986
                ]
            }
        },
        {
            "type": "Feature",
            "properties": {
                "ref:csioz": 1119502,
                "name": "\"Apteka Turkusowa 2'\"",
                "addr:street": "Seweryna Goszczyńskiego",
                "addr:housenumber": "17",
                "addr:city": "Sosnowiec",
                "addr:postcode": "41-200",
                "amenity": "pharmacy",
                "dispensing": "yes"
            },
            "geometry": {
                "type": "Point",
                "coordinates": [
                    19.161544660002303,
                    50.29448050726553
                ]
            }
        },
        {
            "type": "Feature",
            "properties": {
                "ref:csioz": 1178005,
                "name": "Apteka Zdrowit",
                "addr:street": "ks. Franciszka Blachnickiego",
                "addr:housenumber": "3",
                "addr:city": "Sosnowiec",
                "addr:postcode": "41-219",
                "amenity": "pharmacy",
                "dispensing": "yes"
            },
            "geometry": {
                "type": "Point",
                "coordinates": [
                    19.17960268610757,
                    50.290776193690476
                ]
            }
        },
        {
            "type": "Feature",
            "properties": {
                "ref:csioz": 1181811,
                "name": "Dr. Max",
                "addr:street": "Wojska Polskiego",
                "addr:housenumber": "27B",
                "addr:city": "Sosnowiec",
                "addr:postcode": "41-208",
                "amenity": "pharmacy",
                "dispensing": "yes"
            },
            "geometry": {
                "type": "Point",
                "coordinates": [
                    19.16001400000004,
                    50.243080000012846
                ]
            }
        },
        {
            "type": "Feature",
            "properties": {
                "ref:csioz": 1190532,
                "name": "Apteka Słoneczna",
                "addr:street": "Modrzejowska",
                "addr:housenumber": "13",
                "addr:city": "Sosnowiec",
                "addr:postcode": "41-200",
                "amenity": "pharmacy",
                "dispensing": "yes"
            },
            "geometry": {
                "type": "Point",
                "coordinates": [
                    19.128376297534828,
                    50.27688917364558
                ]
            }
        },
        {
            "type": "Feature",
            "properties": {
                "ref:csioz": 1202473,
                "name": "Apteka Turkusowa",
                "addr:street": "Prusa Bolesława",
                "addr:housenumber": "53",
                "addr:city": "Sosnowiec",
                "addr:postcode": "41-200",
                "amenity": "pharmacy",
                "dispensing": "yes"
            },
            "geometry": {
                "type": "Point",
                "coordinates": [
                    19.155890779750692,
                    50.295674408110685
                ]
            }
        },
        {
            "type": "Feature",
            "properties": {
                "ref:csioz": 1213169,
                "name": "Apteka Słoneczna",
                "addr:street": "ul. Stefana Kisielewskiego",
                "addr:housenumber": "6",
                "addr:city": "Sosnowiec",
                "addr:postcode": "41-219",
                "amenity": "pharmacy",
                "dispensing": "yes"
            },
            "geometry": {
                "type": "Point",
                "coordinates": [
                    19.177542992905767,
                    50.28796003512948
                ]
            }
        },
        {
            "type": "Feature",
            "properties": {
                "ref:csioz": 1218663,
                "name": "Ziko Apteka",
                "addr:street": "11 Listopada",
                "addr:housenumber": "122",
                "addr:city": "Sosnowiec",
                "addr:postcode": "41-219",
                "amenity": "pharmacy",
                "dispensing": "yes"
            },
            "geometry": {
                "type": "Point",
                "coordinates": [
                    19.175895297504134,
                    50.28238453259221
                ]
            }
        },
        {
            "type": "Feature",
            "properties": {
                "ref:csioz": 1219248,
                "name": "Apteka Przyjazna",
                "addr:street": "Wojska Polskiego",
                "addr:housenumber": "25",
                "addr:city": "Sosnowiec",
                "addr:postcode": "41-208",
                "amenity": "pharmacy",
                "dispensing": "yes"
            },
            "geometry": {
                "type": "Point",
                "coordinates": [
                    19.15940646106576,
                    50.24129733237737
                ]
            }
        },
        {
            "type": "Feature",
            "properties": {
                "ref:csioz": 1057354,
                "name": "\"Szpital Niepubliczny Zakład Opieki Zdrowotnej Polskiej Grupy Medycznej Im. Polonii Świata, Sosnowieckie Centrum Kardiologii\"",
                "addr:street": "Szpitalna",
                "addr:housenumber": "1",
                "addr:city": "Sosnowiec",
                "addr:postcode": "41-219",
                "amenity": "pharmacy",
                "dispensing": "yes"
            },
            "geometry": {
                "type": "Point",
                "coordinates": [
                    19.181790078320134,
                    50.29765030872599
                ]
            }
        },
        {
            "type": "Feature",
            "properties": {
                "ref:csioz": 1069225,
                "name": "Amaris",
                "addr:street": "Juliusza Kossaka",
                "addr:housenumber": "10A",
                "addr:city": "Sosnowiec",
                "addr:postcode": "41-219",
                "amenity": "pharmacy",
                "dispensing": "yes"
            },
            "geometry": {
                "type": "Point",
                "coordinates": [
                    19.151272670601315,
                    50.29642554898614
                ]
            }
        },
        {
            "type": "Feature",
            "properties": {
                "ref:csioz": 1069230,
                "name": "Apteka Niebieska",
                "addr:street": "Koszalińska",
                "addr:housenumber": "25",
                "addr:city": "Sosnowiec",
                "addr:postcode": "41-219",
                "amenity": "pharmacy",
                "dispensing": "yes"
            },
            "geometry": {
                "type": "Point",
                "coordinates": [
                    19.187130648526438,
                    50.28634677661872
                ]
            }
        },
        {
            "type": "Feature",
            "properties": {
                "ref:csioz": 1069249,
                "name": "Apteka Blisko Ciebie",
                "addr:street": "Kościelna",
                "addr:housenumber": "44",
                "addr:city": "Sosnowiec",
                "addr:postcode": "41-200",
                "amenity": "pharmacy",
                "dispensing": "yes"
            },
            "geometry": {
                "type": "Point",
                "coordinates": [
                    19.128521417004972,
                    50.27201522345175
                ]
            }
        },
        {
            "type": "Feature",
            "properties": {
                "ref:csioz": 1069258,
                "name": "Maczki",
                "addr:street": "Krakowska",
                "addr:housenumber": "13",
                "addr:city": "Sosnowiec",
                "addr:postcode": "41-217",
                "amenity": "pharmacy",
                "dispensing": "yes"
            },
            "geometry": {
                "type": "Point",
                "coordinates": [
                    19.26846828373547,
                    50.26199380916326
                ]
            }
        },
        {
            "type": "Feature",
            "properties": {
                "ref:csioz": 1069263,
                "name": "Hedelix",
                "addr:street": "Józefa Ignacego Kraszewskiego",
                "addr:housenumber": "8",
                "addr:city": "Sosnowiec",
                "addr:postcode": "41-218",
                "amenity": "pharmacy",
                "dispensing": "yes"
            },
            "geometry": {
                "type": "Point",
                "coordinates": [
                    19.192488097262338,
                    50.27397609046631
                ]
            }
        },
        {
            "type": "Feature",
            "properties": {
                "ref:csioz": 1069274,
                "name": "Echinacea",
                "addr:street": "Legionów",
                "addr:housenumber": "7 A",
                "addr:city": "Sosnowiec",
                "addr:postcode": "41-200",
                "amenity": "pharmacy",
                "dispensing": "yes"
            },
            "geometry": {
                "type": "Point",
                "coordinates": [
                    19.140619035827683,
                    50.275821598595165
                ]
            }
        },
        {
            "type": "Feature",
            "properties": {
                "ref:csioz": 1069282,
                "name": "Brak",
                "addr:street": "Teofila Lenartowicza",
                "addr:housenumber": "108",
                "addr:city": "Sosnowiec",
                "addr:postcode": "41-200",
                "amenity": "pharmacy",
                "dispensing": "yes"
            },
            "geometry": {
                "type": "Point",
                "coordinates": [
                    19.19275050949475,
                    50.293779156768245
                ]
            }
        },
        {
            "type": "Feature",
            "properties": {
                "ref:csioz": 1069296,
                "name": "Vita",
                "addr:street": "Stanisława Małachowskiego",
                "addr:housenumber": "14 B",
                "addr:city": "Sosnowiec",
                "addr:postcode": "41-200",
                "amenity": "pharmacy",
                "dispensing": "yes"
            },
            "geometry": {
                "type": "Point",
                "coordinates": [
                    19.131014213434284,
                    50.277601780250336
                ]
            }
        },
        {
            "type": "Feature",
            "properties": {
                "ref:csioz": 1069314,
                "name": "Apteka Św. Barbary",
                "addr:street": "Mjr Henryka Hubala-Dobrzańskiego",
                "addr:housenumber": "124",
                "addr:city": "Sosnowiec",
                "addr:postcode": "42-550",
                "amenity": "pharmacy",
                "dispensing": "yes"
            },
            "geometry": {
                "type": "Point",
                "coordinates": [
                    19.19534436762445,
                    50.27435073343537
                ]
            }
        },
        {
            "type": "Feature",
            "properties": {
                "ref:csioz": 1069483,
                "name": "Centrum",
                "addr:street": "Henryka Sienkiewicza",
                "addr:housenumber": "16",
                "addr:city": "Sosnowiec",
                "addr:postcode": "41-200",
                "amenity": "pharmacy",
                "dispensing": "yes"
            },
            "geometry": {
                "type": "Point",
                "coordinates": [
                    19.132184886590622,
                    50.273676894189194
                ]
            }
        },
        {
            "type": "Feature",
            "properties": {
                "ref:csioz": 1069494,
                "name": "Apteka Dr Zdrowie",
                "addr:street": "Henryka Sienkiewicza",
                "addr:housenumber": "2",
                "addr:city": "Sosnowiec",
                "addr:postcode": "41-200",
                "amenity": "pharmacy",
                "dispensing": "yes"
            },
            "geometry": {
                "type": "Point",
                "coordinates": [
                    19.127603668362557,
                    50.274737665439034
                ]
            }
        },
        {
            "type": "Feature",
            "properties": {
                "ref:csioz": 1069704,
                "name": "Dr. Max",
                "addr:street": "Żytnia",
                "addr:housenumber": "17",
                "addr:city": "Sosnowiec",
                "addr:postcode": "41-200",
                "amenity": "pharmacy",
                "dispensing": "yes"
            },
            "geometry": {
                "type": "Point",
                "coordinates": [
                    19.13174929496993,
                    50.290698186697746
                ]
            }
        },
        {
            "type": "Feature",
            "properties": {
                "ref:csioz": 1074366,
                "name": "Apteka Szpitalna",
                "addr:street": "Gabrieli Zapolskiej",
                "addr:housenumber": "3",
                "addr:city": "Sosnowiec",
                "addr:postcode": "41-218",
                "amenity": "pharmacy",
                "dispensing": "yes"
            },
            "geometry": {
                "type": "Point",
                "coordinates": [
                    19.197815025928335,
                    50.273490084156194
                ]
            }
        },
        {
            "type": "Feature",
            "properties": {
                "ref:csioz": 1074377,
                "name": "Wojewódzki Szpital Specjalistyczny Nr 5 Im. Św Barbary",
                "addr:street": "PL. MEDYKÓW",
                "addr:housenumber": "1",
                "addr:city": "SOSNOWIEC",
                "addr:postcode": "41-200",
                "amenity": "pharmacy",
                "dispensing": "yes"
            },
            "geometry": {
                "type": "Point",
                "coordinates": [
                    19.122924332431214,
                    50.304604078167536
                ]
            }
        },
        {
            "type": "Feature",
            "properties": {
                "ref:csioz": 1110875,
                "name": "Dr. Max",
                "addr:street": "Aleja Józefa Mireckiego",
                "addr:housenumber": "23",
                "addr:city": "Sosnowiec",
                "addr:postcode": "41-200",
                "amenity": "pharmacy",
                "dispensing": "yes"
            },
            "geometry": {
                "type": "Point",
                "coordinates": [
                    19.119825249932056,
                    50.28132595259158
                ]
            }
        },
        {
            "type": "Feature",
            "properties": {
                "ref:csioz": 1173539,
                "name": "Apteka Topfarm",
                "addr:street": "Kościelna",
                "addr:housenumber": "58",
                "addr:city": "Sosnowiec",
                "addr:postcode": "41-200",
                "amenity": "pharmacy",
                "dispensing": "yes"
            },
            "geometry": {
                "type": "Point",
                "coordinates": [
                    19.12722083994643,
                    50.27057314091957
                ]
            }
        },
        {
            "type": "Feature",
            "properties": {
                "ref:csioz": 1176662,
                "name": "Apteka Przy Biedronce",
                "addr:street": "Braci Mieroszewskich",
                "addr:housenumber": "2",
                "addr:city": "Sosnowiec",
                "addr:postcode": "41-219",
                "amenity": "pharmacy",
                "dispensing": "yes"
            },
            "geometry": {
                "type": "Point",
                "coordinates": [
                    19.179315245798815,
                    50.28634061609568
                ]
            }
        },
        {
            "type": "Feature",
            "properties": {
                "ref:csioz": 1183543,
                "name": "Apteka Nova",
                "addr:street": "Sucha",
                "addr:housenumber": "9",
                "addr:city": "Sosnowiec",
                "addr:postcode": "41-200",
                "amenity": "pharmacy",
                "dispensing": "yes"
            },
            "geometry": {
                "type": "Point",
                "coordinates": [
                    19.131720721116455,
                    50.29598655975895
                ]
            }
        },
        {
            "type": "Feature",
            "properties": {
                "ref:csioz": 1185183,
                "name": "Apteka Nova",
                "addr:street": "Gabriela Narutowicza",
                "addr:housenumber": "54",
                "addr:city": "Sosnowiec",
                "addr:postcode": "41-200",
                "amenity": "pharmacy",
                "dispensing": "yes"
            },
            "geometry": {
                "type": "Point",
                "coordinates": [
                    19.147744550156872,
                    50.28418253272825
                ]
            }
        },
        {
            "type": "Feature",
            "properties": {
                "ref:csioz": 1187555,
                "name": "Apteka Na Maliny",
                "addr:street": "Mariana Maliny",
                "addr:housenumber": "39",
                "addr:city": "Sosnowiec",
                "addr:postcode": "41-200",
                "amenity": "pharmacy",
                "dispensing": "yes"
            },
            "geometry": {
                "type": "Point",
                "coordinates": [
                    19.168290381536437,
                    50.26640860577728
                ]
            }
        },
        {
            "type": "Feature",
            "properties": {
                "ref:csioz": 1187494,
                "name": "Apteka Zdrowit",
                "addr:street": "Wincentego Witosa",
                "addr:housenumber": "12",
                "addr:city": "Sosnowiec",
                "addr:postcode": "41-200",
                "amenity": "pharmacy",
                "dispensing": "yes"
            },
            "geometry": {
                "type": "Point",
                "coordinates": [
                    19.144677501167802,
                    50.275239067324556
                ]
            }
        },
        {
            "type": "Feature",
            "properties": {
                "ref:csioz": 1193139,
                "name": "Apteka Isofarm",
                "addr:street": "Główna",
                "addr:housenumber": "21",
                "addr:city": "Sosnowiec",
                "addr:postcode": "41-215",
                "amenity": "pharmacy",
                "dispensing": "yes"
            },
            "geometry": {
                "type": "Point",
                "coordinates": [
                    19.239644395850164,
                    50.293367523792305
                ]
            }
        },
        {
            "type": "Feature",
            "properties": {
                "ref:csioz": 1196011,
                "name": "Apteka Niebieska",
                "addr:street": "Szpitalna",
                "addr:housenumber": "1",
                "addr:city": "Sosnowiec",
                "addr:postcode": "41-219",
                "amenity": "pharmacy",
                "dispensing": "yes"
            },
            "geometry": {
                "type": "Point",
                "coordinates": [
                    19.181790078320134,
                    50.29765030872599
                ]
            }
        },
        {
            "type": "Feature",
            "properties": {
                "ref:csioz": 1196774,
                "name": "Apteka Nova",
                "addr:street": "Jana Sobieskiego",
                "addr:housenumber": "29",
                "addr:city": "Sosnowiec",
                "addr:postcode": "41-200",
                "amenity": "pharmacy",
                "dispensing": "yes"
            },
            "geometry": {
                "type": "Point",
                "coordinates": [
                    19.113859000000026,
                    50.2754620000129
                ]
            }
        },
        {
            "type": "Feature",
            "properties": {
                "ref:csioz": 1196782,
                "name": "Niezapominajka Dla Całej Rodziny",
                "addr:street": "Koszalińska",
                "addr:housenumber": "1a",
                "addr:city": "Sosnowiec",
                "addr:postcode": "31-219",
                "amenity": "pharmacy",
                "dispensing": "yes"
            },
            "geometry": {
                "type": "Point",
                "coordinates": [
                    19.185816372798755,
                    50.28426574240902
                ]
            }
        },
        {
            "type": "Feature",
            "properties": {
                "ref:csioz": 1207691,
                "name": "Apteka Blisko Ciebie",
                "addr:street": "ul. gen. Stefana Grota-Roweckiego",
                "addr:housenumber": "37",
                "addr:city": "Sosnowiec",
                "addr:postcode": "41-214",
                "amenity": "pharmacy",
                "dispensing": "yes"
            },
            "geometry": {
                "type": "Point",
                "coordinates": [
                    19.12178400265765,
                    50.28726501751673
                ]
            }
        },
        {
            "type": "Feature",
            "properties": {
                "ref:csioz": 1215629,
                "name": "Prima",
                "addr:street": "ul. Bohaterów Monte Cassino",
                "addr:housenumber": "50",
                "addr:city": "Sosnowiec",
                "addr:postcode": "41-219",
                "amenity": "pharmacy",
                "dispensing": "yes"
            },
            "geometry": {
                "type": "Point",
                "coordinates": [
                    19.175169767414996,
                    50.29249389335705
                ]
            }
        },
        {
            "type": "Feature",
            "properties": {
                "ref:csioz": 1225470,
                "addr:street": "Mjr Henryka Hubala-Dobrzańskiego",
                "addr:housenumber": "131",
                "addr:city": "Sosnowiec",
                "addr:postcode": "41-200",
                "amenity": "pharmacy",
                "dispensing": "yes"
            },
            "geometry": {
                "type": "Point",
                "coordinates": [
                    19.21173359148506,
                    50.273738182421134
                ]
            }
        },
        {
            "type": "Feature",
            "properties": {
                "ref:csioz": 1227434,
                "name": "Apteka Kasztanowa",
                "addr:street": "Stanisława Małachowskiego",
                "addr:housenumber": "44",
                "addr:city": "Sosnowiec",
                "addr:postcode": "41-200",
                "amenity": "pharmacy",
                "dispensing": "yes"
            },
            "geometry": {
                "type": "Point",
                "coordinates": [
                    19.13325593928638,
                    50.275314701060516
                ]
            }
        },
        {
            "type": "Feature",
            "properties": {
                "ref:csioz": 1229832,
                "name": "Dział Farmacji Szpitalnej",
                "addr:street": "Stanisława Moniuszki",
                "addr:housenumber": "19",
                "addr:city": "Sosnowiec",
                "addr:postcode": "41-200",
                "amenity": "pharmacy",
                "dispensing": "yes"
            },
            "geometry": {
                "type": "Point",
                "coordinates": [
                    19.11212048375852,
                    50.28263872060966
                ]
            }
        },
        {
            "type": "Feature",
            "properties": {
                "ref:csioz": 1230239,
                "name": "Dział Farmacji Szpitalnej",
                "addr:street": "Wojska Polskiego",
                "addr:housenumber": "8a",
                "addr:city": "Sosnowiec",
                "addr:postcode": "41-208",
                "amenity": "pharmacy",
                "dispensing": "yes"
            },
            "geometry": {
                "type": "Point",
                "coordinates": [
                    19.15660401570225,
                    50.24081254261148
                ]
            }
        },
        {
            "type": "Feature",
            "properties": {
                "ref:csioz": 1073837,
                "name": "\"Szpital \"\"Zagórze\"\"\"",
                "addr:street": "SZPITALNA",
                "addr:housenumber": "1",
                "addr:city": "SOSNOWIEC",
                "addr:postcode": "41-219",
                "amenity": "pharmacy",
                "dispensing": "yes"
            },
            "geometry": {
                "type": "Point",
                "coordinates": [
                    19.180092069906703,
                    50.29821307353467
                ]
            }
        }
    ]
}