{
    "type": "FeatureCollection",
    "name": "JPT_KOD_JE_1430",
    "features": [
        {
            "type": "Feature",
            "properties": {
                "ref:csioz": 1096431,
                "addr:housenumber": "27",
                "addr:city": "Wysoka",
                "addr:postcode": "26-500",
                "amenity": "pharmacy"
            },
            "geometry": {
                "type": "Point",
                "coordinates": [
                    20.880041543121294,
                    51.29089666746507
                ]
            }
        },
        {
            "type": "Feature",
            "properties": {
                "ref:csioz": 1118937,
                "name": "Miętowa",
                "addr:street": "Szkolna",
                "addr:housenumber": "9A",
                "addr:city": "Chlewiska",
                "addr:postcode": "26-510",
                "amenity": "pharmacy"
            },
            "geometry": {
                "type": "Point",
                "coordinates": [
                    20.758475281051382,
                    51.2434244030317
                ]
            }
        },
        {
            "type": "Feature",
            "properties": {
                "ref:csioz": 1119163,
                "name": "\"Apteka \"\"Rynek\"\"\"",
                "addr:street": "Radomska",
                "addr:housenumber": "12",
                "addr:city": "Szydłowiec",
                "addr:postcode": "26-500",
                "amenity": "pharmacy"
            },
            "geometry": {
                "type": "Point",
                "coordinates": [
                    20.858079241524198,
                    51.22512244810283
                ]
            }
        },
        {
            "type": "Feature",
            "properties": {
                "ref:csioz": 1096078,
                "addr:housenumber": "27",
                "addr:city": "Mirówek",
                "addr:postcode": "26-503",
                "amenity": "pharmacy"
            },
            "geometry": {
                "type": "Point",
                "coordinates": [
                    21.037230254374517,
                    51.2145860427976
                ]
            }
        },
        {
            "type": "Feature",
            "properties": {
                "ref:csioz": 1096108,
                "name": "Na Wschodniej",
                "addr:street": "Wschodnia",
                "addr:housenumber": "52",
                "addr:city": "Szydłowiec",
                "addr:postcode": "26-500",
                "amenity": "pharmacy"
            },
            "geometry": {
                "type": "Point",
                "coordinates": [
                    20.863697203159145,
                    51.22606246729372
                ]
            }
        },
        {
            "type": "Feature",
            "properties": {
                "ref:csioz": 1096119,
                "name": "Pod Kościołem",
                "addr:street": "Kielecka",
                "addr:housenumber": "6",
                "addr:city": "Szydłowiec",
                "addr:postcode": "26-600",
                "amenity": "pharmacy"
            },
            "geometry": {
                "type": "Point",
                "coordinates": [
                    20.85854775811099,
                    51.22304410617129
                ]
            }
        },
        {
            "type": "Feature",
            "properties": {
                "ref:csioz": 1118844,
                "name": "Codzienna",
                "addr:street": "Stanisława Staszica",
                "addr:housenumber": "17",
                "addr:city": "Szydłowiec",
                "addr:postcode": "26-500",
                "amenity": "pharmacy"
            },
            "geometry": {
                "type": "Point",
                "coordinates": [
                    20.868409999492872,
                    51.22815842075344
                ]
            }
        },
        {
            "type": "Feature",
            "properties": {
                "ref:csioz": 1118853,
                "name": "Bliska",
                "addr:street": "Tadeusza Kościuszki",
                "addr:housenumber": "213A",
                "addr:city": "Szydłowiec",
                "addr:postcode": "26-500",
                "amenity": "pharmacy"
            },
            "geometry": {
                "type": "Point",
                "coordinates": [
                    20.861122830697962,
                    51.22948062756823
                ]
            }
        },
        {
            "type": "Feature",
            "properties": {
                "ref:csioz": 1119045,
                "name": "Miętowa",
                "addr:street": "Stanisława Staszica",
                "addr:housenumber": "3C",
                "addr:city": "Szydłowiec",
                "addr:postcode": "26-500",
                "amenity": "pharmacy"
            },
            "geometry": {
                "type": "Point",
                "coordinates": [
                    20.864290493435142,
                    51.227840952146394
                ]
            }
        },
        {
            "type": "Feature",
            "properties": {
                "ref:csioz": 1192554,
                "addr:street": "Brandta",
                "addr:housenumber": "11A",
                "addr:city": "Orońsko",
                "addr:postcode": "26-505",
                "amenity": "pharmacy"
            },
            "geometry": {
                "type": "Point",
                "coordinates": [
                    20.988154000002883,
                    51.31354100001442
                ]
            }
        },
        {
            "type": "Feature",
            "properties": {
                "ref:csioz": 1229612,
                "name": "Flora-Farm",
                "addr:housenumber": "25",
                "addr:city": "Majdów",
                "addr:postcode": "26-500",
                "amenity": "pharmacy"
            },
            "geometry": {
                "type": "Point",
                "coordinates": [
                    20.78108616012761,
                    51.160150626343565
                ]
            }
        },
        {
            "type": "Feature",
            "properties": {
                "ref:csioz": 1230456,
                "name": "Zakład Pielęgnacyjno- Opiekuńczy",
                "addr:street": "Kolejowa",
                "addr:housenumber": "78",
                "addr:city": "Szydłowiec",
                "addr:postcode": "26-500",
                "amenity": "pharmacy"
            },
            "geometry": {
                "type": "Point",
                "coordinates": [
                    20.88490433347595,
                    51.21610982566055
                ]
            }
        },
        {
            "type": "Feature",
            "properties": {
                "ref:csioz": 1096093,
                "name": "Apteka Flora-Farm",
                "addr:street": "Zamkowa",
                "addr:housenumber": "4",
                "addr:city": "Szydłowiec",
                "addr:postcode": "26-500",
                "amenity": "pharmacy"
            },
            "geometry": {
                "type": "Point",
                "coordinates": [
                    20.860187503397906,
                    51.2280383647829
                ]
            }
        }
    ]
}