{
    "type": "FeatureCollection",
    "name": "JPT_KOD_JE_2461",
    "features": [
        {
            "type": "Feature",
            "properties": {
                "ref:csioz": 1016697,
                "name": "Szpital",
                "addr:street": "Olszówka",
                "addr:housenumber": "102",
                "addr:city": "Bielsko-Biała",
                "addr:postcode": "43-309",
                "amenity": "pharmacy"
            },
            "geometry": {
                "type": "Point",
                "coordinates": [
                    19.035658127909755,
                    49.783396305074966
                ]
            }
        },
        {
            "type": "Feature",
            "properties": {
                "ref:csioz": 1057017,
                "name": "Szpital Nzoz Beskidzkie Centrum Medyczne Sp. Z O.O.",
                "addr:street": "Młodzieżowa",
                "addr:housenumber": "21",
                "addr:city": "Bielsko-Biała",
                "addr:postcode": "43-309",
                "amenity": "pharmacy"
            },
            "geometry": {
                "type": "Point",
                "coordinates": [
                    19.03183967621131,
                    49.78530311240297
                ]
            }
        },
        {
            "type": "Feature",
            "properties": {
                "ref:csioz": 1057690,
                "name": "Ziko Apteka",
                "addr:street": "11 Listopada",
                "addr:housenumber": "37",
                "addr:city": "Bielsko-Biała",
                "addr:postcode": "43-300",
                "amenity": "pharmacy"
            },
            "geometry": {
                "type": "Point",
                "coordinates": [
                    19.05275426161501,
                    49.823196188169064
                ]
            }
        },
        {
            "type": "Feature",
            "properties": {
                "ref:csioz": 1057703,
                "name": "Pod Aniołem",
                "addr:street": "11 Listopada",
                "addr:housenumber": "80",
                "addr:city": "Bielsko-Biała",
                "addr:postcode": "43-300",
                "amenity": "pharmacy"
            },
            "geometry": {
                "type": "Point",
                "coordinates": [
                    19.056484096596066,
                    49.82251778732266
                ]
            }
        },
        {
            "type": "Feature",
            "properties": {
                "ref:csioz": 1057734,
                "name": "Apteka Z Uśmiechem",
                "addr:street": "Aleja Armii Krajowej",
                "addr:housenumber": "101",
                "addr:city": "Bielsko-Biała",
                "addr:postcode": "43-316",
                "amenity": "pharmacy"
            },
            "geometry": {
                "type": "Point",
                "coordinates": [
                    19.038693997641523,
                    49.79260839807532
                ]
            }
        },
        {
            "type": "Feature",
            "properties": {
                "ref:csioz": 1057742,
                "name": "Pod Dębowcem",
                "addr:street": "Aleja Armii Krajowej",
                "addr:housenumber": "132",
                "addr:city": "Bielsko-Biała",
                "addr:postcode": "43-300",
                "amenity": "pharmacy"
            },
            "geometry": {
                "type": "Point",
                "coordinates": [
                    19.034545744480873,
                    49.789592033439504
                ]
            }
        },
        {
            "type": "Feature",
            "properties": {
                "ref:csioz": 1057775,
                "name": "Apteka Centrum Leków Pod Koroną",
                "addr:street": "Cechowa",
                "addr:housenumber": "4",
                "addr:city": "Bielsko-Biała",
                "addr:postcode": "43-300",
                "amenity": "pharmacy"
            },
            "geometry": {
                "type": "Point",
                "coordinates": [
                    19.04687146943317,
                    49.823042589893504
                ]
            }
        },
        {
            "type": "Feature",
            "properties": {
                "ref:csioz": 1057788,
                "name": "Apteka Pharma-Land Kraina Niskich Cen",
                "addr:street": "Cieszyńska",
                "addr:housenumber": "132",
                "addr:city": "Bielsko-Biała",
                "addr:postcode": "43-303",
                "amenity": "pharmacy"
            },
            "geometry": {
                "type": "Point",
                "coordinates": [
                    19.017882281232534,
                    49.81447702271267
                ]
            }
        },
        {
            "type": "Feature",
            "properties": {
                "ref:csioz": 1057791,
                "name": "W Wapienicy",
                "addr:street": "Cieszyńska",
                "addr:housenumber": "421",
                "addr:city": "Bielsko-Biała",
                "addr:postcode": "43-300",
                "amenity": "pharmacy"
            },
            "geometry": {
                "type": "Point",
                "coordinates": [
                    18.980127667817587,
                    49.80746985006376
                ]
            }
        },
        {
            "type": "Feature",
            "properties": {
                "ref:csioz": 1057809,
                "name": "Klimczok",
                "addr:street": "Cyniarska",
                "addr:housenumber": "11",
                "addr:city": "Bielsko-Biała",
                "addr:postcode": "43-300",
                "amenity": "pharmacy"
            },
            "geometry": {
                "type": "Point",
                "coordinates": [
                    19.05032926571991,
                    49.82434597146349
                ]
            }
        },
        {
            "type": "Feature",
            "properties": {
                "ref:csioz": 1057823,
                "name": "Pod Arkadami",
                "addr:street": "Ignacego Daszyńskiego",
                "addr:housenumber": "126",
                "addr:city": "Bielsko-Biała",
                "addr:postcode": "43-300",
                "amenity": "pharmacy"
            },
            "geometry": {
                "type": "Point",
                "coordinates": [
                    19.048756358574604,
                    49.856826958003964
                ]
            }
        },
        {
            "type": "Feature",
            "properties": {
                "ref:csioz": 1057838,
                "name": "Św. Mikołaja",
                "addr:street": "gen. Władysława Sikorskiego",
                "addr:housenumber": "2",
                "addr:city": "Bielsko-Biała",
                "addr:postcode": "43-300",
                "amenity": "pharmacy"
            },
            "geometry": {
                "type": "Point",
                "coordinates": [
                    19.04126435528108,
                    49.81994999051943
                ]
            }
        },
        {
            "type": "Feature",
            "properties": {
                "ref:csioz": 1057851,
                "name": "Apteka Agaty",
                "addr:street": "Górska",
                "addr:housenumber": "158",
                "addr:city": "Bielsko-Biała",
                "addr:postcode": "43-300",
                "amenity": "pharmacy"
            },
            "geometry": {
                "type": "Point",
                "coordinates": [
                    19.096190298532814,
                    49.79560506954416
                ]
            }
        },
        {
            "type": "Feature",
            "properties": {
                "ref:csioz": 1058002,
                "name": "Św. Anny",
                "addr:street": "ks. Stanisława Stojałowskiego",
                "addr:housenumber": "55",
                "addr:city": "Bielsko-Biała",
                "addr:postcode": "43-300",
                "amenity": "pharmacy"
            },
            "geometry": {
                "type": "Point",
                "coordinates": [
                    19.055380597062214,
                    49.821832813139295
                ]
            }
        },
        {
            "type": "Feature",
            "properties": {
                "ref:csioz": 1058015,
                "name": "Ziko Apteka",
                "addr:street": "Leszczyńska",
                "addr:housenumber": "20",
                "addr:city": "Bielsko-Biała",
                "addr:postcode": "43-300",
                "amenity": "pharmacy"
            },
            "geometry": {
                "type": "Point",
                "coordinates": [
                    19.051359262707436,
                    49.8032630788848
                ]
            }
        },
        {
            "type": "Feature",
            "properties": {
                "ref:csioz": 1058028,
                "name": "Apteka Sante",
                "addr:street": "Listopadowa",
                "addr:housenumber": "91",
                "addr:city": "Bielsko-Biała",
                "addr:postcode": "43-300",
                "amenity": "pharmacy"
            },
            "geometry": {
                "type": "Point",
                "coordinates": [
                    19.03340802486979,
                    49.82773754102118
                ]
            }
        },
        {
            "type": "Feature",
            "properties": {
                "ref:csioz": 1058053,
                "name": "Apteka Dbam O Zdrowie",
                "addr:street": "prof. dr. Mieczysława Michałowicza",
                "addr:housenumber": "20",
                "addr:city": "Bielsko-Biała",
                "addr:postcode": "43-300",
                "amenity": "pharmacy"
            },
            "geometry": {
                "type": "Point",
                "coordinates": [
                    19.035094000000008,
                    49.81392200001224
                ]
            }
        },
        {
            "type": "Feature",
            "properties": {
                "ref:csioz": 1058066,
                "name": "Św. Barbary",
                "addr:street": "prof. dr. Mieczysława Michałowicza",
                "addr:housenumber": "41",
                "addr:city": "Bielsko-Biała",
                "addr:postcode": "43-300",
                "amenity": "pharmacy"
            },
            "geometry": {
                "type": "Point",
                "coordinates": [
                    19.036853468813717,
                    49.813630970423574
                ]
            }
        },
        {
            "type": "Feature",
            "properties": {
                "ref:csioz": 1058089,
                "name": "Pod Zamkiem",
                "addr:street": "Adama Mickiewicza",
                "addr:housenumber": "6",
                "addr:city": "Bielsko-Biała",
                "addr:postcode": "43-300",
                "amenity": "pharmacy"
            },
            "geometry": {
                "type": "Point",
                "coordinates": [
                    19.04451524092116,
                    49.823059483125384
                ]
            }
        },
        {
            "type": "Feature",
            "properties": {
                "ref:csioz": 1058090,
                "name": "Małgorzata",
                "addr:street": "Międzyrzecka",
                "addr:housenumber": "7",
                "addr:city": "Bielsko-Biała",
                "addr:postcode": "43-300",
                "amenity": "pharmacy"
            },
            "geometry": {
                "type": "Point",
                "coordinates": [
                    18.981898749811982,
                    49.80862031903034
                ]
            }
        },
        {
            "type": "Feature",
            "properties": {
                "ref:csioz": 1058111,
                "name": "Dr. Max",
                "addr:street": "Bohaterów Monte Cassino",
                "addr:housenumber": "421",
                "addr:city": "Bielsko-Biała",
                "addr:postcode": "43-300",
                "amenity": "pharmacy"
            },
            "geometry": {
                "type": "Point",
                "coordinates": [
                    18.983306060917236,
                    49.8324931955217
                ]
            }
        },
        {
            "type": "Feature",
            "properties": {
                "ref:csioz": 1058187,
                "name": "Farmacja",
                "addr:street": "Pięciu Stawów",
                "addr:housenumber": "6",
                "addr:city": "Bielsko-Biała",
                "addr:postcode": "43-316",
                "amenity": "pharmacy"
            },
            "geometry": {
                "type": "Point",
                "coordinates": [
                    19.033877528629052,
                    49.806170656674105
                ]
            }
        },
        {
            "type": "Feature",
            "properties": {
                "ref:csioz": 1058198,
                "name": "Pod Złotym Lwem",
                "addr:street": "Józefa Niemczyka",
                "addr:housenumber": "6",
                "addr:city": "Bielsko-Biała",
                "addr:postcode": "43-300",
                "amenity": "pharmacy"
            },
            "geometry": {
                "type": "Point",
                "coordinates": [
                    19.042096001818507,
                    49.852521482515996
                ]
            }
        },
        {
            "type": "Feature",
            "properties": {
                "ref:csioz": 1058217,
                "name": "Apteka Główna",
                "addr:street": "Żwirki i Wigury",
                "addr:housenumber": "9",
                "addr:city": "Bielsko-Biała",
                "addr:postcode": "43-300",
                "amenity": "pharmacy"
            },
            "geometry": {
                "type": "Point",
                "coordinates": [
                    19.044271339988693,
                    49.81966162666449
                ]
            }
        },
        {
            "type": "Feature",
            "properties": {
                "ref:csioz": 1058225,
                "name": "Cygański Las",
                "addr:street": "Pocztowa",
                "addr:housenumber": "19",
                "addr:city": "Bielsko-Biała",
                "addr:postcode": "43-309",
                "amenity": "pharmacy"
            },
            "geometry": {
                "type": "Point",
                "coordinates": [
                    19.05304241006634,
                    49.78654102256144
                ]
            }
        },
        {
            "type": "Feature",
            "properties": {
                "ref:csioz": 1058309,
                "name": "Brak",
                "addr:street": "Teodora Sixta",
                "addr:housenumber": "11",
                "addr:city": "Bielsko-Biała",
                "addr:postcode": "43-300",
                "amenity": "pharmacy"
            },
            "geometry": {
                "type": "Point",
                "coordinates": [
                    19.042963177219534,
                    49.82722776052268
                ]
            }
        },
        {
            "type": "Feature",
            "properties": {
                "ref:csioz": 1058314,
                "addr:street": "Jana Sobieskiego",
                "addr:housenumber": "64A",
                "addr:city": "Bielsko-Biała",
                "addr:postcode": "43-300",
                "amenity": "pharmacy"
            },
            "geometry": {
                "type": "Point",
                "coordinates": [
                    19.032022000000005,
                    49.82044300001226
                ]
            }
        },
        {
            "type": "Feature",
            "properties": {
                "ref:csioz": 1058338,
                "name": "Doz Apteka Dbam O Zdrowie Centauria",
                "addr:street": "Spółdzielców",
                "addr:housenumber": "50",
                "addr:city": "Bielsko-Biała",
                "addr:postcode": "43-300",
                "amenity": "pharmacy"
            },
            "geometry": {
                "type": "Point",
                "coordinates": [
                    19.0053427816943,
                    49.81605795806062
                ]
            }
        },
        {
            "type": "Feature",
            "properties": {
                "ref:csioz": 1058346,
                "name": "Beskid",
                "addr:street": "Sternicza",
                "addr:housenumber": "26A",
                "addr:city": "Bielsko-Biała",
                "addr:postcode": "43-300",
                "amenity": "pharmacy"
            },
            "geometry": {
                "type": "Point",
                "coordinates": [
                    19.02557404583555,
                    49.80812746330985
                ]
            }
        },
        {
            "type": "Feature",
            "properties": {
                "ref:csioz": 1058351,
                "name": "Elena",
                "addr:street": "Szarotki",
                "addr:housenumber": "10",
                "addr:city": "Bielsko-Biała",
                "addr:postcode": "43-300",
                "amenity": "pharmacy"
            },
            "geometry": {
                "type": "Point",
                "coordinates": [
                    19.01263100000001,
                    49.81164800001225
                ]
            }
        },
        {
            "type": "Feature",
            "properties": {
                "ref:csioz": 1058372,
                "name": "Galen",
                "addr:street": "Warszawska",
                "addr:housenumber": "180",
                "addr:city": "Bielsko-Biała",
                "addr:postcode": "43-300",
                "amenity": "pharmacy"
            },
            "geometry": {
                "type": "Point",
                "coordinates": [
                    19.0356811316699,
                    49.8457239020566
                ]
            }
        },
        {
            "type": "Feature",
            "properties": {
                "ref:csioz": 1058380,
                "name": "Apteka Na Dworcu",
                "addr:street": "Warszawska",
                "addr:housenumber": "2",
                "addr:city": "Bielsko-Biała",
                "addr:postcode": "43-300",
                "amenity": "pharmacy"
            },
            "geometry": {
                "type": "Point",
                "coordinates": [
                    19.044775859135086,
                    49.829742616052236
                ]
            }
        },
        {
            "type": "Feature",
            "properties": {
                "ref:csioz": 1058395,
                "name": "Ziko Apteka",
                "addr:street": "Warszawska",
                "addr:housenumber": "5",
                "addr:city": "Bielsko-Biała",
                "addr:postcode": "43-300",
                "amenity": "pharmacy"
            },
            "geometry": {
                "type": "Point",
                "coordinates": [
                    19.04369792005592,
                    49.83015833545322
                ]
            }
        },
        {
            "type": "Feature",
            "properties": {
                "ref:csioz": 1058405,
                "name": "Apteka Na Błoniach",
                "addr:street": "Willowa",
                "addr:housenumber": "2A",
                "addr:city": "Bielsko-Biała",
                "addr:postcode": "43-300",
                "amenity": "pharmacy"
            },
            "geometry": {
                "type": "Point",
                "coordinates": [
                    19.059871528029905,
                    49.78384809968465
                ]
            }
        },
        {
            "type": "Feature",
            "properties": {
                "ref:csioz": 1058418,
                "name": "W Hałcnowie",
                "addr:street": "Wyzwolenia",
                "addr:housenumber": "367",
                "addr:city": "Bielsko-Biała",
                "addr:postcode": "43-300",
                "amenity": "pharmacy"
            },
            "geometry": {
                "type": "Point",
                "coordinates": [
                    19.09711869281743,
                    49.85127691834403
                ]
            }
        },
        {
            "type": "Feature",
            "properties": {
                "ref:csioz": 1112187,
                "name": "Apteka Świętego Łukasza",
                "addr:street": "Bystrzańska",
                "addr:housenumber": "94B",
                "addr:city": "Bielsko-Biała",
                "addr:postcode": "43-309",
                "amenity": "pharmacy"
            },
            "geometry": {
                "type": "Point",
                "coordinates": [
                    19.066970690304785,
                    49.78238875462678
                ]
            }
        },
        {
            "type": "Feature",
            "properties": {
                "ref:csioz": 1113373,
                "name": "Szpital Św. Łukasza",
                "addr:street": "Bystrzańska",
                "addr:housenumber": "94B",
                "addr:city": "Bielsko-Biała",
                "addr:postcode": "43-309",
                "amenity": "pharmacy"
            },
            "geometry": {
                "type": "Point",
                "coordinates": [
                    19.066970690304785,
                    49.78238875462678
                ]
            }
        },
        {
            "type": "Feature",
            "properties": {
                "ref:csioz": 1120825,
                "name": "Ziko Apteka",
                "addr:street": "Mostowa",
                "addr:housenumber": "5",
                "addr:city": "Bielsko-Biała",
                "addr:postcode": "43-300",
                "amenity": "pharmacy"
            },
            "geometry": {
                "type": "Point",
                "coordinates": [
                    19.048919631875087,
                    49.82661370283417
                ]
            }
        },
        {
            "type": "Feature",
            "properties": {
                "ref:csioz": 1171551,
                "name": "Apteka Słoneczna",
                "addr:street": "11 Listopada",
                "addr:housenumber": "11",
                "addr:city": "Bielsko-Biała",
                "addr:postcode": "43-300",
                "amenity": "pharmacy"
            },
            "geometry": {
                "type": "Point",
                "coordinates": [
                    19.047755460153024,
                    49.82328696826807
                ]
            }
        },
        {
            "type": "Feature",
            "properties": {
                "ref:csioz": 1179796,
                "name": "Doz Apteka Dbam O Zdrowie",
                "addr:street": "Jutrzenki",
                "addr:housenumber": "20",
                "addr:city": "Bielsko-Biała",
                "addr:postcode": "43-300",
                "amenity": "pharmacy"
            },
            "geometry": {
                "type": "Point",
                "coordinates": [
                    19.06251955125189,
                    49.808030871256165
                ]
            }
        },
        {
            "type": "Feature",
            "properties": {
                "ref:csioz": 1179816,
                "name": "Apteka Bądź Zdrów",
                "addr:street": "Cyniarska",
                "addr:housenumber": "30",
                "addr:city": "Bielsko-Biała",
                "addr:postcode": "43-300",
                "amenity": "pharmacy"
            },
            "geometry": {
                "type": "Point",
                "coordinates": [
                    19.049565468700088,
                    49.825083761713955
                ]
            }
        },
        {
            "type": "Feature",
            "properties": {
                "ref:csioz": 1220418,
                "name": "Apteka Św. Mikołaja Marta Piskorz",
                "addr:street": "Jutrzenki",
                "addr:housenumber": "8",
                "addr:city": "Bielsko-Biała",
                "addr:postcode": "43-300",
                "amenity": "pharmacy"
            },
            "geometry": {
                "type": "Point",
                "coordinates": [
                    19.062262349380642,
                    49.81037405996037
                ]
            }
        },
        {
            "type": "Feature",
            "properties": {
                "ref:csioz": 1057880,
                "name": "Św. Łukasza",
                "addr:street": "Janowicka",
                "addr:housenumber": "11",
                "addr:city": "Bielsko-Biała",
                "addr:postcode": "43-344",
                "amenity": "pharmacy"
            },
            "geometry": {
                "type": "Point",
                "coordinates": [
                    19.087191271025954,
                    49.85056434531672
                ]
            }
        },
        {
            "type": "Feature",
            "properties": {
                "ref:csioz": 1056968,
                "name": "\"Centrum Medyczne \"\"Esculap\"\" Spółka Z O.O.\"",
                "addr:street": "Cieszyńska",
                "addr:housenumber": "472",
                "addr:city": "Bielsko-Biała",
                "addr:postcode": "43-382",
                "amenity": "pharmacy"
            },
            "geometry": {
                "type": "Point",
                "coordinates": [
                    18.972565469513537,
                    49.807559700742914
                ]
            }
        },
        {
            "type": "Feature",
            "properties": {
                "ref:csioz": 1058426,
                "name": "Pod Magurką",
                "addr:street": "Żywiecka",
                "addr:housenumber": "92",
                "addr:city": "Bielsko-Biała",
                "addr:postcode": "43-300",
                "amenity": "pharmacy"
            },
            "geometry": {
                "type": "Point",
                "coordinates": [
                    19.0557311608641,
                    49.80766221830684
                ]
            }
        },
        {
            "type": "Feature",
            "properties": {
                "ref:csioz": 1057867,
                "name": "Na Harcerskiej",
                "addr:street": "Harcerska",
                "addr:housenumber": "6A",
                "addr:city": "Bielsko-Biała",
                "addr:postcode": "43-300",
                "amenity": "pharmacy"
            },
            "geometry": {
                "type": "Point",
                "coordinates": [
                    19.023398134164403,
                    49.81945737466885
                ]
            }
        },
        {
            "type": "Feature",
            "properties": {
                "ref:csioz": 1057895,
                "name": "Apteka Pod Eskulapem",
                "addr:street": "Jesionowa",
                "addr:housenumber": "13",
                "addr:city": "Bielsko-Biała",
                "addr:postcode": "43-300",
                "amenity": "pharmacy"
            },
            "geometry": {
                "type": "Point",
                "coordinates": [
                    19.01476357352756,
                    49.815942122992915
                ]
            }
        },
        {
            "type": "Feature",
            "properties": {
                "ref:csioz": 1057910,
                "name": "Złote Łany",
                "addr:street": "Jutrzenki",
                "addr:housenumber": "24",
                "addr:city": "Bielsko-Biała",
                "addr:postcode": "43-300",
                "amenity": "pharmacy"
            },
            "geometry": {
                "type": "Point",
                "coordinates": [
                    19.06220295954153,
                    49.807323922963654
                ]
            }
        },
        {
            "type": "Feature",
            "properties": {
                "ref:csioz": 1057932,
                "name": "Apteka Pod Kasztanami",
                "addr:street": "Kasztanowa",
                "addr:housenumber": "5",
                "addr:city": "Bielsko-Biała",
                "addr:postcode": "43-300",
                "amenity": "pharmacy"
            },
            "geometry": {
                "type": "Point",
                "coordinates": [
                    19.0234364210102,
                    49.82303190958576
                ]
            }
        },
        {
            "type": "Feature",
            "properties": {
                "ref:csioz": 1074003,
                "name": "Szpital Wojewódzki",
                "addr:street": "Aleja Armii Krajowej",
                "addr:housenumber": "101",
                "addr:city": "Bielsko-Biała",
                "addr:postcode": "43-300",
                "amenity": "pharmacy"
            },
            "geometry": {
                "type": "Point",
                "coordinates": [
                    19.038693997641523,
                    49.79260839807532
                ]
            }
        },
        {
            "type": "Feature",
            "properties": {
                "ref:csioz": 1074016,
                "name": "Szpital Pediatryczny",
                "addr:street": "Jana Sobieskiego",
                "addr:housenumber": "83",
                "addr:city": "Bielsko-Biała",
                "addr:postcode": "43-300",
                "amenity": "pharmacy"
            },
            "geometry": {
                "type": "Point",
                "coordinates": [
                    19.02879533480296,
                    49.820998795318054
                ]
            }
        },
        {
            "type": "Feature",
            "properties": {
                "ref:csioz": 1074034,
                "name": "Beskidzkie Centrum Onkologii - Szpital Miejski Im. Jana Pawła Ii W Bielsku-Białej",
                "addr:street": "Wyzwolenia",
                "addr:housenumber": "18",
                "addr:city": "Bielsko-Biała",
                "addr:postcode": "43-300",
                "amenity": "pharmacy"
            },
            "geometry": {
                "type": "Point",
                "coordinates": [
                    19.057113007969512,
                    49.82446208884499
                ]
            }
        },
        {
            "type": "Feature",
            "properties": {
                "ref:csioz": 1112111,
                "name": "Apteka Sante W Mikuszowicach",
                "addr:street": "Żywiecka",
                "addr:housenumber": "312",
                "addr:city": "Bielsko-Biała",
                "addr:postcode": "43-300",
                "amenity": "pharmacy"
            },
            "geometry": {
                "type": "Point",
                "coordinates": [
                    19.073720568908378,
                    49.785110430814775
                ]
            }
        },
        {
            "type": "Feature",
            "properties": {
                "ref:csioz": 1112681,
                "name": "Apteka Familia W Lipniku",
                "addr:street": "Podgórna",
                "addr:housenumber": "13",
                "addr:city": "Bielsko-Biała",
                "addr:postcode": "43-300",
                "amenity": "pharmacy"
            },
            "geometry": {
                "type": "Point",
                "coordinates": [
                    19.083468309356018,
                    49.8210734356591
                ]
            }
        },
        {
            "type": "Feature",
            "properties": {
                "ref:csioz": 1113121,
                "name": "Pediatryczne Centrum Zabiegowe - M. M. Gwinner Spółka Jawna - Szpital",
                "addr:street": "Cyniarska",
                "addr:housenumber": "24",
                "addr:city": "Bielsko-Biała",
                "addr:postcode": "43-300",
                "amenity": "pharmacy"
            },
            "geometry": {
                "type": "Point",
                "coordinates": [
                    19.04941717102706,
                    49.8257533637533
                ]
            }
        },
        {
            "type": "Feature",
            "properties": {
                "ref:csioz": 1113145,
                "name": "Okulus Plus - Szpital",
                "addr:street": "Górska",
                "addr:housenumber": "19",
                "addr:city": "Bielsko-Biała",
                "addr:postcode": "43-300",
                "amenity": "pharmacy"
            },
            "geometry": {
                "type": "Point",
                "coordinates": [
                    19.08015159964446,
                    49.8021935509752
                ]
            }
        },
        {
            "type": "Feature",
            "properties": {
                "ref:csioz": 1113159,
                "name": "Euroklinika Spółka Z O.O.",
                "addr:street": "Stanisława Żółkiewskiego",
                "addr:housenumber": "40",
                "addr:city": "Bielsko-Biała",
                "addr:postcode": "43-300",
                "amenity": "pharmacy"
            },
            "geometry": {
                "type": "Point",
                "coordinates": [
                    19.023513419955215,
                    49.826351110415665
                ]
            }
        },
        {
            "type": "Feature",
            "properties": {
                "ref:csioz": 1114358,
                "name": "Wapienickie Centrum Leków",
                "addr:street": "Cieszyńska",
                "addr:housenumber": "418",
                "addr:city": "Bielsko-Biała",
                "addr:postcode": "43-300",
                "amenity": "pharmacy"
            },
            "geometry": {
                "type": "Point",
                "coordinates": [
                    18.980860070527726,
                    49.808241228921716
                ]
            }
        },
        {
            "type": "Feature",
            "properties": {
                "ref:csioz": 1172432,
                "name": "Apteka Familia",
                "addr:street": "Trzech Diamentów",
                "addr:housenumber": "8",
                "addr:city": "Bielsko-Biała",
                "addr:postcode": "43-300",
                "amenity": "pharmacy"
            },
            "geometry": {
                "type": "Point",
                "coordinates": [
                    18.999432042137887,
                    49.811476439716
                ]
            }
        },
        {
            "type": "Feature",
            "properties": {
                "ref:csioz": 1173342,
                "name": "Apteka Dbam O Zdrowie",
                "addr:street": "Adama Mickiewicza",
                "addr:housenumber": "40",
                "addr:city": "Bielsko-Biała",
                "addr:postcode": "43-300",
                "amenity": "pharmacy"
            },
            "geometry": {
                "type": "Point",
                "coordinates": [
                    19.043559425964688,
                    49.82810984848182
                ]
            }
        },
        {
            "type": "Feature",
            "properties": {
                "ref:csioz": 1178603,
                "name": "\"'Szpital Pod Bukami'\"",
                "addr:street": "Szara",
                "addr:housenumber": "5",
                "addr:city": "Bielsko-Biała",
                "addr:postcode": "43-300",
                "amenity": "pharmacy"
            },
            "geometry": {
                "type": "Point",
                "coordinates": [
                    19.046546613825473,
                    49.80079467922621
                ]
            }
        },
        {
            "type": "Feature",
            "properties": {
                "ref:csioz": 1178835,
                "name": "Apteka Evita",
                "addr:street": "Komorowicka",
                "addr:housenumber": "314",
                "addr:city": "Bielsko-Biała",
                "addr:postcode": "43-346",
                "amenity": "pharmacy"
            },
            "geometry": {
                "type": "Point",
                "coordinates": [
                    19.042768507777378,
                    49.8553672417131
                ]
            }
        },
        {
            "type": "Feature",
            "properties": {
                "ref:csioz": 1179888,
                "name": "Szpital Chirurgii Małoinwazyjnej I Rekonstrukcyjnej - Cmr",
                "addr:street": "Armii Krajowej",
                "addr:housenumber": "180",
                "addr:city": "Bielsko-Biała",
                "addr:postcode": "43-316",
                "amenity": "pharmacy"
            },
            "geometry": {
                "type": "Point",
                "coordinates": [
                    19.029770995332257,
                    49.78553644672345
                ]
            }
        },
        {
            "type": "Feature",
            "properties": {
                "ref:csioz": 1181196,
                "addr:street": "Armii Krajowej",
                "addr:housenumber": "101",
                "addr:city": "Bielsko-Biała",
                "addr:postcode": "43-316",
                "amenity": "pharmacy"
            },
            "geometry": {
                "type": "Point",
                "coordinates": [
                    19.038693997641523,
                    49.79260839807532
                ]
            }
        },
        {
            "type": "Feature",
            "properties": {
                "ref:csioz": 1182440,
                "name": "Ziko Apteka",
                "addr:street": "Kolista",
                "addr:housenumber": "23",
                "addr:city": "Bielsko-Biała",
                "addr:postcode": "43-300",
                "amenity": "pharmacy"
            },
            "geometry": {
                "type": "Point",
                "coordinates": [
                    19.02942474673678,
                    49.8030420787458
                ]
            }
        },
        {
            "type": "Feature",
            "properties": {
                "ref:csioz": 1185932,
                "name": "Apteka Isofarm",
                "addr:street": "Żywiecka",
                "addr:housenumber": "115",
                "addr:city": "Bielsko-Biała",
                "addr:postcode": "43-300",
                "amenity": "pharmacy"
            },
            "geometry": {
                "type": "Point",
                "coordinates": [
                    19.058501161481246,
                    49.80333816253868
                ]
            }
        },
        {
            "type": "Feature",
            "properties": {
                "ref:csioz": 1193208,
                "name": "\"Szpital Im. Matki Ewy, Oddział Leczenia Zespołów Abstynencyjnych\"",
                "addr:street": "Karola Miarki",
                "addr:housenumber": "11",
                "addr:city": "Bielsko-Biała",
                "addr:postcode": "43-300",
                "amenity": "pharmacy"
            },
            "geometry": {
                "type": "Point",
                "coordinates": [
                    19.04771295679019,
                    49.81814721612442
                ]
            }
        },
        {
            "type": "Feature",
            "properties": {
                "ref:csioz": 1194649,
                "name": "Ziko Apteka",
                "addr:street": "Norberta Barlickiego",
                "addr:housenumber": "7",
                "addr:city": "Bielsko-Biała",
                "addr:postcode": "43-300",
                "amenity": "pharmacy"
            },
            "geometry": {
                "type": "Point",
                "coordinates": [
                    19.045892632652688,
                    49.82321031204763
                ]
            }
        },
        {
            "type": "Feature",
            "properties": {
                "ref:csioz": 1198894,
                "name": "Apteka Św. Mikołaja",
                "addr:street": "Klemensa Matusiaka",
                "addr:housenumber": "3",
                "addr:city": "Bielsko-Biała",
                "addr:postcode": "43-316",
                "amenity": "pharmacy"
            },
            "geometry": {
                "type": "Point",
                "coordinates": [
                    19.02846860664678,
                    49.80268748712007
                ]
            }
        },
        {
            "type": "Feature",
            "properties": {
                "ref:csioz": 1203324,
                "name": "Bielskie Centrum Leków",
                "addr:street": "Władysława Broniewskiego",
                "addr:housenumber": "39",
                "addr:city": "Bielsko-Biała",
                "addr:postcode": "43-300",
                "amenity": "pharmacy"
            },
            "geometry": {
                "type": "Point",
                "coordinates": [
                    19.051273651795338,
                    49.81376497740264
                ]
            }
        },
        {
            "type": "Feature",
            "properties": {
                "ref:csioz": 1204251,
                "name": "Ziko Apteka",
                "addr:street": "Józefa Piłsudskiego",
                "addr:housenumber": "12",
                "addr:city": "Bielsko-Biała",
                "addr:postcode": "43-300",
                "amenity": "pharmacy"
            },
            "geometry": {
                "type": "Point",
                "coordinates": [
                    19.05079435814366,
                    49.82523809074232
                ]
            }
        },
        {
            "type": "Feature",
            "properties": {
                "ref:csioz": 1209863,
                "name": "Hospicjum Im. Św. Jana Pawła Ii",
                "addr:street": "Zdrojowa",
                "addr:housenumber": "10",
                "addr:city": "Bielsko-Biała",
                "addr:postcode": "43-300",
                "amenity": "pharmacy"
            },
            "geometry": {
                "type": "Point",
                "coordinates": [
                    19.04012535645565,
                    49.81704923414345
                ]
            }
        },
        {
            "type": "Feature",
            "properties": {
                "ref:csioz": 1210354,
                "name": "Centrum Pod Białym Orłem",
                "addr:street": "Wojska Polskiego",
                "addr:housenumber": "17",
                "addr:city": "Bielsko-Biała",
                "addr:postcode": "43-300",
                "amenity": "pharmacy"
            },
            "geometry": {
                "type": "Point",
                "coordinates": [
                    19.051578258532018,
                    49.823188493197584
                ]
            }
        },
        {
            "type": "Feature",
            "properties": {
                "ref:csioz": 1212389,
                "name": "Super-Pharm Apteka",
                "addr:street": "Mostowa",
                "addr:housenumber": "5",
                "addr:city": "Bielsko-Biała",
                "addr:postcode": "43-300",
                "amenity": "pharmacy"
            },
            "geometry": {
                "type": "Point",
                "coordinates": [
                    19.048919631875087,
                    49.82661370283417
                ]
            }
        },
        {
            "type": "Feature",
            "properties": {
                "ref:csioz": 1213660,
                "name": "Okulistyka Klepacki - Oddział Leczenia Jednego Dnia",
                "addr:street": "Górska",
                "addr:housenumber": "66",
                "addr:city": "Bielsko-Biała",
                "addr:postcode": "43-318",
                "amenity": "pharmacy"
            },
            "geometry": {
                "type": "Point",
                "coordinates": [
                    19.086992567271494,
                    49.80081380158164
                ]
            }
        },
        {
            "type": "Feature",
            "properties": {
                "ref:csioz": 1217963,
                "name": "Apteka Europejska",
                "addr:street": "Sarni Stok",
                "addr:housenumber": "2",
                "addr:city": "Bielsko-Biała",
                "addr:postcode": "43-300",
                "amenity": "pharmacy"
            },
            "geometry": {
                "type": "Point",
                "coordinates": [
                    19.032751922604472,
                    49.83852349692521
                ]
            }
        },
        {
            "type": "Feature",
            "properties": {
                "ref:csioz": 1224674,
                "name": "Dr. Max",
                "addr:street": "Aleja gen. Władysława Andersa",
                "addr:housenumber": "81",
                "addr:city": "Bielsko-Biała",
                "addr:postcode": "43-300",
                "amenity": "pharmacy"
            },
            "geometry": {
                "type": "Point",
                "coordinates": [
                    19.031968065409906,
                    49.80048628597233
                ]
            }
        },
        {
            "type": "Feature",
            "properties": {
                "ref:csioz": 1122112,
                "name": "\"Centrum Medyczne \"\"Poli-Med\"\" - Szpital\"",
                "addr:street": "Żywiecka",
                "addr:housenumber": "71",
                "addr:city": "Bielsko-Biała",
                "addr:postcode": "43-300",
                "amenity": "pharmacy"
            },
            "geometry": {
                "type": "Point",
                "coordinates": [
                    19.056073021787547,
                    49.810154487973264
                ]
            }
        }
    ]
}