{
    "type": "FeatureCollection",
    "name": "JPT_KOD_JE_1410",
    "features": [
        {
            "type": "Feature",
            "properties": {
                "ref:csioz": 1096779,
                "addr:housenumber": "76A",
                "addr:postcode": "08-206",
                "amenity": "pharmacy",
                "addr:place": "Huszlew"
            },
            "geometry": {
                "type": "Point",
                "coordinates": [
                    22.839880766957688,
                    52.137460474014745
                ]
            }
        },
        {
            "type": "Feature",
            "properties": {
                "ref:csioz": 1096798,
                "name": "Dbam O Zdrowie",
                "addr:street": "Berka Joselewicza",
                "addr:housenumber": "13",
                "addr:city": "Łosice",
                "addr:postcode": "08-200",
                "amenity": "pharmacy"
            },
            "geometry": {
                "type": "Point",
                "coordinates": [
                    22.714848193599103,
                    52.2109111946784
                ]
            }
        },
        {
            "type": "Feature",
            "properties": {
                "ref:csioz": 1098120,
                "addr:housenumber": "30A",
                "addr:postcode": "08-207",
                "amenity": "pharmacy",
                "addr:place": "Olszanka"
            },
            "geometry": {
                "type": "Point",
                "coordinates": [
                    22.66449757732789,
                    52.14731405831562
                ]
            }
        },
        {
            "type": "Feature",
            "properties": {
                "ref:csioz": 1181207,
                "name": "Nasze Apteki",
                "addr:street": "Rynek",
                "addr:housenumber": "10",
                "addr:city": "Łosice",
                "addr:postcode": "08-200",
                "amenity": "pharmacy"
            },
            "geometry": {
                "type": "Point",
                "coordinates": [
                    22.718023701508884,
                    52.21182852802839
                ]
            }
        },
        {
            "type": "Feature",
            "properties": {
                "ref:csioz": 1096804,
                "addr:street": "Kolejowa",
                "addr:housenumber": "1b",
                "addr:city": "Łosice",
                "addr:postcode": "08-200",
                "amenity": "pharmacy"
            },
            "geometry": {
                "type": "Point",
                "coordinates": [
                    22.709937615235408,
                    52.21510581208481
                ]
            }
        },
        {
            "type": "Feature",
            "properties": {
                "ref:csioz": 1096812,
                "addr:street": "Rynek",
                "addr:housenumber": "29",
                "addr:city": "Łosice",
                "addr:postcode": "08-200",
                "amenity": "pharmacy"
            },
            "geometry": {
                "type": "Point",
                "coordinates": [
                    22.716309511638343,
                    52.21134306207324
                ]
            }
        },
        {
            "type": "Feature",
            "properties": {
                "ref:csioz": 1096820,
                "name": "Centrum",
                "addr:street": "Rynek",
                "addr:housenumber": "1",
                "addr:city": "Łosice",
                "addr:postcode": "08-200",
                "amenity": "pharmacy"
            },
            "geometry": {
                "type": "Point",
                "coordinates": [
                    22.716397923557672,
                    52.211716363906646
                ]
            }
        },
        {
            "type": "Feature",
            "properties": {
                "ref:csioz": 1096836,
                "name": "Rodzinna",
                "addr:street": "Narutowicza",
                "addr:housenumber": "5",
                "addr:city": "Łosice",
                "addr:postcode": "08-200",
                "amenity": "pharmacy"
            },
            "geometry": {
                "type": "Point",
                "coordinates": [
                    22.715117656845507,
                    52.209301596972516
                ]
            }
        },
        {
            "type": "Feature",
            "properties": {
                "ref:csioz": 1096848,
                "name": "Bliska",
                "addr:street": "Rynek",
                "addr:housenumber": "12",
                "addr:city": "Łosice",
                "addr:postcode": "08-200",
                "amenity": "pharmacy"
            },
            "geometry": {
                "type": "Point",
                "coordinates": [
                    22.718325125050033,
                    52.21173817646398
                ]
            }
        },
        {
            "type": "Feature",
            "properties": {
                "ref:csioz": 1096857,
                "name": "Pod Lipą",
                "addr:street": "3 Maja",
                "addr:housenumber": "1",
                "addr:city": "Platerów",
                "addr:postcode": "08-210",
                "amenity": "pharmacy"
            },
            "geometry": {
                "type": "Point",
                "coordinates": [
                    22.818941988658217,
                    52.302106101380126
                ]
            }
        },
        {
            "type": "Feature",
            "properties": {
                "ref:csioz": 1096861,
                "name": "Nowakiewicz I Wspólnicy Sp. J",
                "addr:street": "Jana Kilińskiego",
                "addr:housenumber": "4A",
                "addr:city": "Sarnaki",
                "addr:postcode": "08-220",
                "amenity": "pharmacy"
            },
            "geometry": {
                "type": "Point",
                "coordinates": [
                    22.889576259002524,
                    52.31294232795638
                ]
            }
        },
        {
            "type": "Feature",
            "properties": {
                "ref:csioz": 1096873,
                "addr:housenumber": "284",
                "addr:postcode": "08-205",
                "amenity": "pharmacy",
                "addr:place": "Stara Kornica"
            },
            "geometry": {
                "type": "Point",
                "coordinates": [
                    22.93854067082237,
                    52.18585748061156
                ]
            }
        },
        {
            "type": "Feature",
            "properties": {
                "ref:csioz": 1153310,
                "name": "Apteka Szpitalna",
                "addr:street": "Słoneczna",
                "addr:housenumber": "1",
                "addr:city": "Łosice",
                "addr:postcode": "08-200",
                "amenity": "pharmacy"
            },
            "geometry": {
                "type": "Point",
                "coordinates": [
                    22.707851055221337,
                    52.215572230666886
                ]
            }
        },
        {
            "type": "Feature",
            "properties": {
                "ref:csioz": 1195069,
                "name": "Doz Apteka. Dbam O Zdrowie",
                "addr:housenumber": "23A",
                "addr:postcode": "08-205",
                "amenity": "pharmacy",
                "addr:place": "Nowa Kornica"
            },
            "geometry": {
                "type": "Point",
                "coordinates": [
                    22.933915763559888,
                    52.18688284322907
                ]
            }
        }
    ]
}