{
    "type": "FeatureCollection",
    "name": "JPT_KOD_JE_1015",
    "features": [
        {
            "type": "Feature",
            "properties": {
                "ref:csioz": 1010182,
                "name": "\"Apteka \"\"Maria\"\"\"",
                "addr:street": "Klonowa",
                "addr:housenumber": "16",
                "addr:city": "Głuchów",
                "addr:postcode": "96-130",
                "amenity": "pharmacy"
            },
            "geometry": {
                "type": "Point",
                "coordinates": [
                    20.076522967922383,
                    51.781731937429
                ]
            }
        },
        {
            "type": "Feature",
            "properties": {
                "ref:csioz": 1012516,
                "name": "Kruszyna",
                "addr:housenumber": "74",
                "addr:flats": "Gminny Ośrodek Zdrowia",
                "addr:postcode": "96-111",
                "amenity": "pharmacy",
                "addr:place": "Kowiesy"
            },
            "geometry": {
                "type": "Point",
                "coordinates": [
                    20.42401940572836,
                    51.89042883553099
                ]
            }
        },
        {
            "type": "Feature",
            "properties": {
                "ref:csioz": 1014690,
                "name": "Rodzinna",
                "addr:street": "Główna",
                "addr:housenumber": "20",
                "addr:city": "Maków",
                "addr:postcode": "96-124",
                "amenity": "pharmacy"
            },
            "geometry": {
                "type": "Point",
                "coordinates": [
                    20.047999526660735,
                    51.94748963563698
                ]
            }
        },
        {
            "type": "Feature",
            "properties": {
                "ref:csioz": 1015660,
                "addr:street": "Tadeusza Kościuszki",
                "addr:housenumber": "82",
                "addr:city": "Godzianów",
                "addr:postcode": "96-126",
                "amenity": "pharmacy"
            },
            "geometry": {
                "type": "Point",
                "coordinates": [
                    20.03916218547836,
                    51.89355714102405
                ]
            }
        },
        {
            "type": "Feature",
            "properties": {
                "ref:csioz": 1018819,
                "name": "Nagietek",
                "addr:street": "Starowiejska",
                "addr:housenumber": "2",
                "addr:city": "Głuchów",
                "addr:postcode": "96-130",
                "amenity": "pharmacy"
            },
            "geometry": {
                "type": "Point",
                "coordinates": [
                    20.076030334657936,
                    51.77921937423922
                ]
            }
        },
        {
            "type": "Feature",
            "properties": {
                "ref:csioz": 1011572,
                "addr:street": "Reymonta",
                "addr:housenumber": "25",
                "addr:city": "Lipce Reymontowskie",
                "addr:postcode": "96-127",
                "amenity": "pharmacy"
            },
            "geometry": {
                "type": "Point",
                "coordinates": [
                    19.94163346525935,
                    51.89953305999091
                ]
            }
        },
        {
            "type": "Feature",
            "properties": {
                "ref:csioz": 1182085,
                "name": "Punkt Apteczny - Słoneczko",
                "addr:housenumber": "133",
                "addr:postcode": "96-128",
                "amenity": "pharmacy",
                "addr:place": "Słupia"
            },
            "geometry": {
                "type": "Point",
                "coordinates": [
                    19.967200019045148,
                    51.85636475107431
                ]
            }
        },
        {
            "type": "Feature",
            "properties": {
                "ref:csioz": 1177793,
                "addr:housenumber": "1",
                "addr:postcode": "96-115",
                "amenity": "pharmacy",
                "addr:place": "Nowy Kawęczyn"
            },
            "geometry": {
                "type": "Point",
                "coordinates": [
                    20.2459365685957,
                    51.88608072201794
                ]
            }
        },
        {
            "type": "Feature",
            "properties": {
                "ref:csioz": 1020394,
                "name": "\"Apteka \"\"Słoneczna\"\"\"",
                "addr:street": "Łowicka",
                "addr:housenumber": "10A",
                "addr:city": "Bolimów",
                "addr:postcode": "99-417",
                "amenity": "pharmacy"
            },
            "geometry": {
                "type": "Point",
                "coordinates": [
                    20.161549690302017,
                    52.076366321179826
                ]
            }
        }
    ]
}