{
    "type": "FeatureCollection",
    "name": "JPT_KOD_JE_2206",
    "features": [
        {
            "type": "Feature",
            "properties": {
                "ref:csioz": 1032936,
                "name": "Apteka Wielewska",
                "addr:street": "Główna",
                "addr:housenumber": "10",
                "addr:city": "Wiele",
                "addr:postcode": "83-441",
                "amenity": "pharmacy",
                "dispensing": "yes"
            },
            "geometry": {
                "type": "Point",
                "coordinates": [
                    17.86296606200429,
                    53.92322451646361
                ]
            }
        },
        {
            "type": "Feature",
            "properties": {
                "ref:csioz": 1027636,
                "name": "Dr. Max",
                "addr:street": "Adama Mickiewicza",
                "addr:housenumber": "2",
                "addr:city": "Kościerzyna",
                "addr:postcode": "83-400",
                "amenity": "pharmacy",
                "dispensing": "yes"
            },
            "geometry": {
                "type": "Point",
                "coordinates": [
                    17.969427999999464,
                    54.12283100001895
                ]
            }
        },
        {
            "type": "Feature",
            "properties": {
                "ref:csioz": 1028142,
                "name": "Słoneczna",
                "addr:street": "Szkolna",
                "addr:housenumber": "1",
                "addr:city": "Wielki Klincz",
                "addr:postcode": "83-423",
                "amenity": "pharmacy",
                "dispensing": "yes"
            },
            "geometry": {
                "type": "Point",
                "coordinates": [
                    18.062288834339483,
                    54.101105350479756
                ]
            }
        },
        {
            "type": "Feature",
            "properties": {
                "ref:csioz": 1028828,
                "name": "Apteka Pod Akacjami",
                "addr:street": "Zakładowa",
                "addr:housenumber": "1",
                "addr:city": "Łubiana",
                "addr:postcode": "83-407",
                "amenity": "pharmacy",
                "dispensing": "yes"
            },
            "geometry": {
                "type": "Point",
                "coordinates": [
                    17.86961927054836,
                    54.1174712653172
                ]
            }
        },
        {
            "type": "Feature",
            "properties": {
                "ref:csioz": 1029158,
                "name": "Apteka Od Serca",
                "addr:street": "Stanisława Staszica",
                "addr:housenumber": "2",
                "addr:city": "Kościerzyna",
                "addr:postcode": "83-400",
                "amenity": "pharmacy",
                "dispensing": "yes"
            },
            "geometry": {
                "type": "Point",
                "coordinates": [
                    17.96925899999947,
                    54.12156900001895
                ]
            }
        },
        {
            "type": "Feature",
            "properties": {
                "ref:csioz": 1029356,
                "name": "Magnolia",
                "addr:housenumber": "27",
                "addr:postcode": "83-420",
                "amenity": "pharmacy",
                "addr:place": "Lubieszyn",
                "dispensing": "yes"
            },
            "geometry": {
                "type": "Point",
                "coordinates": [
                    18.235740589309053,
                    54.10529978930536
                ]
            }
        },
        {
            "type": "Feature",
            "properties": {
                "ref:csioz": 1029566,
                "name": "Apteka Od Serca",
                "addr:street": "Wyzwolenia",
                "addr:housenumber": "12",
                "addr:city": "Stara Kiszewa",
                "addr:postcode": "83-430",
                "amenity": "pharmacy",
                "dispensing": "yes"
            },
            "geometry": {
                "type": "Point",
                "coordinates": [
                    18.17163300819271,
                    53.98530636548354
                ]
            }
        },
        {
            "type": "Feature",
            "properties": {
                "ref:csioz": 1029609,
                "name": "Dr. Max",
                "addr:street": "Wyzwolenia",
                "addr:housenumber": "13A",
                "addr:city": "Dziemiany",
                "addr:postcode": "83-425",
                "amenity": "pharmacy",
                "dispensing": "yes"
            },
            "geometry": {
                "type": "Point",
                "coordinates": [
                    17.771381445871437,
                    54.00843522337862
                ]
            }
        },
        {
            "type": "Feature",
            "properties": {
                "ref:csioz": 1029771,
                "name": "Św. Michał",
                "addr:street": "Długa",
                "addr:housenumber": "21",
                "addr:city": "Kościerzyna",
                "addr:postcode": "83-400",
                "amenity": "pharmacy",
                "dispensing": "yes"
            },
            "geometry": {
                "type": "Point",
                "coordinates": [
                    17.97466594072884,
                    54.12078435049662
                ]
            }
        },
        {
            "type": "Feature",
            "properties": {
                "ref:csioz": 1029806,
                "name": "Dr. Max",
                "addr:street": "Alojzego Piechowskiego",
                "addr:housenumber": "36",
                "addr:city": "Kościerzyna",
                "addr:postcode": "83-400",
                "amenity": "pharmacy",
                "dispensing": "yes"
            },
            "geometry": {
                "type": "Point",
                "coordinates": [
                    17.949795382450187,
                    54.121189749734626
                ]
            }
        },
        {
            "type": "Feature",
            "properties": {
                "ref:csioz": 1030299,
                "name": "Przyjazna",
                "addr:street": "A. Majkowskiego",
                "addr:housenumber": "23",
                "addr:city": "Nowa Karczma",
                "addr:postcode": "83-404",
                "amenity": "pharmacy",
                "dispensing": "yes"
            },
            "geometry": {
                "type": "Point",
                "coordinates": [
                    18.200176025702277,
                    54.13138421419788
                ]
            }
        },
        {
            "type": "Feature",
            "properties": {
                "ref:csioz": 1031305,
                "name": "Apteka Od Serca",
                "addr:street": "Marii Skłodowskiej-Curie",
                "addr:housenumber": "7",
                "addr:city": "Kościerzyna",
                "addr:postcode": "83-400",
                "amenity": "pharmacy",
                "dispensing": "yes"
            },
            "geometry": {
                "type": "Point",
                "coordinates": [
                    17.971946404616663,
                    54.12243885208376
                ]
            }
        },
        {
            "type": "Feature",
            "properties": {
                "ref:csioz": 1113407,
                "name": "Kaszubska",
                "addr:street": "Młyńska",
                "addr:housenumber": "6",
                "addr:city": "Lipusz",
                "addr:postcode": "83-424",
                "amenity": "pharmacy",
                "dispensing": "yes"
            },
            "geometry": {
                "type": "Point",
                "coordinates": [
                    17.784866712157815,
                    54.098736847995966
                ]
            }
        },
        {
            "type": "Feature",
            "properties": {
                "ref:csioz": 1198312,
                "name": "Pela",
                "addr:street": "Kościerska",
                "addr:housenumber": "7",
                "addr:city": "Nowa Karczma",
                "addr:postcode": "83-404",
                "amenity": "pharmacy",
                "dispensing": "yes"
            },
            "geometry": {
                "type": "Point",
                "coordinates": [
                    18.2007986350789,
                    54.13250126271683
                ]
            }
        },
        {
            "type": "Feature",
            "properties": {
                "ref:csioz": 1026676,
                "name": "Wracam Do Zdrowia",
                "addr:street": "Rynek",
                "addr:housenumber": "19",
                "addr:city": "Kościerzyna",
                "addr:postcode": "83-400",
                "amenity": "pharmacy",
                "dispensing": "yes"
            },
            "geometry": {
                "type": "Point",
                "coordinates": [
                    17.978059163396075,
                    54.12172227617036
                ]
            }
        },
        {
            "type": "Feature",
            "properties": {
                "ref:csioz": 1026817,
                "name": "Herba",
                "addr:street": "A. Majkowskiego",
                "addr:housenumber": "12",
                "addr:city": "Nowa Karczma",
                "addr:postcode": "83-404",
                "amenity": "pharmacy",
                "dispensing": "yes"
            },
            "geometry": {
                "type": "Point",
                "coordinates": [
                    18.19922963623899,
                    54.131670330571254
                ]
            }
        },
        {
            "type": "Feature",
            "properties": {
                "ref:csioz": 1027935,
                "addr:street": "Świerkowa",
                "addr:housenumber": "2",
                "addr:city": "Karsin",
                "addr:postcode": "83-440",
                "amenity": "pharmacy",
                "dispensing": "yes"
            },
            "geometry": {
                "type": "Point",
                "coordinates": [
                    17.922463067916624,
                    53.90588713241578
                ]
            }
        },
        {
            "type": "Feature",
            "properties": {
                "ref:csioz": 1030616,
                "name": "Centrum",
                "addr:street": "Stanisława Staszica",
                "addr:housenumber": "13",
                "addr:city": "Kościerzyna",
                "addr:postcode": "83-400",
                "amenity": "pharmacy",
                "dispensing": "yes"
            },
            "geometry": {
                "type": "Point",
                "coordinates": [
                    17.956985306177263,
                    54.121890559829225
                ]
            }
        },
        {
            "type": "Feature",
            "properties": {
                "ref:csioz": 1198121,
                "name": "Dom Leków",
                "addr:street": "Mazurka Dąbrowskiego",
                "addr:housenumber": "1-2",
                "addr:city": "Kościerzyna",
                "addr:postcode": "83-400",
                "amenity": "pharmacy",
                "dispensing": "yes"
            },
            "geometry": {
                "type": "Point",
                "coordinates": [
                    17.976969876768337,
                    54.118825724158945
                ]
            }
        },
        {
            "type": "Feature",
            "properties": {
                "ref:csioz": 1199657,
                "name": "Farmacja24",
                "addr:street": "Świętojańska",
                "addr:housenumber": "18",
                "addr:city": "Kościerzyna",
                "addr:postcode": "83-400",
                "amenity": "pharmacy",
                "dispensing": "yes"
            },
            "geometry": {
                "type": "Point",
                "coordinates": [
                    17.97793014034776,
                    54.12292874552609
                ]
            }
        },
        {
            "type": "Feature",
            "properties": {
                "ref:csioz": 1207129,
                "name": "Apteka Od Serca",
                "addr:street": "Rzemieślnicza",
                "addr:housenumber": "29",
                "addr:city": "Kościerzyna",
                "addr:postcode": "83-400",
                "amenity": "pharmacy",
                "dispensing": "yes"
            },
            "geometry": {
                "type": "Point",
                "coordinates": [
                    17.97054609020214,
                    54.12148068295701
                ]
            }
        },
        {
            "type": "Feature",
            "properties": {
                "ref:csioz": 1217633,
                "name": "Apteka Szpitalna W Zakładzie Leczniczym: Szpitalna Opieka Stacjonarna I Całodobowa",
                "addr:street": "Alojzego Piechowskiego",
                "addr:housenumber": "36",
                "addr:city": "Kościerzyna",
                "addr:postcode": "83-400",
                "amenity": "pharmacy",
                "dispensing": "yes"
            },
            "geometry": {
                "type": "Point",
                "coordinates": [
                    17.949795382450187,
                    54.121189749734626
                ]
            }
        }
    ]
}