{
    "type": "FeatureCollection",
    "name": "JPT_KOD_JE_1202",
    "features": [
        {
            "type": "Feature",
            "properties": {
                "ref:csioz": 1078343,
                "addr:street": "Ogrodowa",
                "addr:housenumber": "13",
                "addr:city": "Brzesko",
                "addr:postcode": "32-800",
                "amenity": "pharmacy",
                "dispensing": "yes"
            },
            "geometry": {
                "type": "Point",
                "coordinates": [
                    20.60353221104612,
                    49.970440112331865
                ]
            }
        },
        {
            "type": "Feature",
            "properties": {
                "ref:csioz": 1078450,
                "name": "\"'Malwa'\"",
                "addr:housenumber": "124",
                "addr:postcode": "32-583",
                "amenity": "pharmacy",
                "addr:place": "Łysa Góra",
                "dispensing": "yes"
            },
            "geometry": {
                "type": "Point",
                "coordinates": [
                    20.73603565972868,
                    49.93447668190332
                ]
            }
        },
        {
            "type": "Feature",
            "properties": {
                "ref:csioz": 1078416,
                "name": "\"Apteka Prywatna \"\"Pod Dębem\"\"\"",
                "addr:housenumber": "600",
                "addr:postcode": "32-864",
                "amenity": "pharmacy",
                "addr:place": "Gnojnik",
                "dispensing": "yes"
            },
            "geometry": {
                "type": "Point",
                "coordinates": [
                    20.606265356551383,
                    49.89438099175186
                ]
            }
        },
        {
            "type": "Feature",
            "properties": {
                "ref:csioz": 1078427,
                "name": "\"Apteka \"\"Vita 2\"\" - D.F. Krupa - Spółka Jawna\"",
                "addr:street": "Środkowa",
                "addr:housenumber": "2",
                "addr:city": "Jadowniki",
                "addr:postcode": "32-851",
                "amenity": "pharmacy",
                "dispensing": "yes"
            },
            "geometry": {
                "type": "Point",
                "coordinates": [
                    20.644716202039458,
                    49.96895446241202
                ]
            }
        },
        {
            "type": "Feature",
            "properties": {
                "ref:csioz": 1079666,
                "name": "\"Punkt Apteczny \"\"Szczepanów\"\"\"",
                "addr:street": "Rynek Szczepanowski",
                "addr:housenumber": "16",
                "addr:city": "Szczepanów",
                "addr:postcode": "32-823",
                "amenity": "pharmacy",
                "dispensing": "yes"
            },
            "geometry": {
                "type": "Point",
                "coordinates": [
                    20.650918875496703,
                    50.00539827691717
                ]
            }
        },
        {
            "type": "Feature",
            "properties": {
                "ref:csioz": 1148519,
                "name": "Samodzielny Publiczny Zespół Opieki Zdrowotnej W Brzesku",
                "addr:street": "Tadeusza Kościuszki",
                "addr:housenumber": "68",
                "addr:city": "Brzesko",
                "addr:postcode": "32-800",
                "amenity": "pharmacy",
                "dispensing": "yes"
            },
            "geometry": {
                "type": "Point",
                "coordinates": [
                    20.590227076044478,
                    49.96940127418501
                ]
            }
        },
        {
            "type": "Feature",
            "properties": {
                "ref:csioz": 1166569,
                "name": "Dział Farmacji Szpitalnej",
                "addr:street": "Tadeusza Kościuszki",
                "addr:housenumber": "33",
                "addr:city": "Brzesko",
                "addr:postcode": "32-800",
                "amenity": "pharmacy",
                "dispensing": "yes"
            },
            "geometry": {
                "type": "Point",
                "coordinates": [
                    20.6019410487825,
                    49.96958729218551
                ]
            }
        },
        {
            "type": "Feature",
            "properties": {
                "ref:csioz": 1190720,
                "name": "Punkt Apteczny Bliski",
                "addr:housenumber": "311",
                "addr:postcode": "32-854",
                "amenity": "pharmacy",
                "addr:place": "Porąbka Uszewska",
                "dispensing": "yes"
            },
            "geometry": {
                "type": "Point",
                "coordinates": [
                    20.678673579762116,
                    49.93480761920644
                ]
            }
        },
        {
            "type": "Feature",
            "properties": {
                "ref:csioz": 1192248,
                "name": "Apteka Bliska",
                "addr:housenumber": "380",
                "addr:postcode": "32-852",
                "amenity": "pharmacy",
                "addr:place": "Dębno",
                "dispensing": "yes"
            },
            "geometry": {
                "type": "Point",
                "coordinates": [
                    20.698765871801996,
                    49.965938620477644
                ]
            }
        },
        {
            "type": "Feature",
            "properties": {
                "ref:csioz": 1078232,
                "name": "\"Apteka Cef@Rm 36,6\"",
                "addr:street": "Browarna",
                "addr:housenumber": "5C",
                "addr:city": "Brzesko",
                "addr:postcode": "32-800",
                "amenity": "pharmacy",
                "dispensing": "yes"
            },
            "geometry": {
                "type": "Point",
                "coordinates": [
                    20.600673820331064,
                    49.96198024834933
                ]
            }
        },
        {
            "type": "Feature",
            "properties": {
                "ref:csioz": 1078264,
                "name": "\"Apteka Cef@Rm 36,6\"",
                "addr:street": "Bartosza Głowackiego",
                "addr:housenumber": "26B",
                "addr:city": "Brzesko",
                "addr:postcode": "32-800",
                "amenity": "pharmacy",
                "dispensing": "yes"
            },
            "geometry": {
                "type": "Point",
                "coordinates": [
                    20.613313696263504,
                    49.96854906299539
                ]
            }
        },
        {
            "type": "Feature",
            "properties": {
                "ref:csioz": 1078286,
                "name": "Pod Gwiazdą",
                "addr:street": "Bartosza Głowackiego",
                "addr:housenumber": "45",
                "addr:city": "Brzesko",
                "addr:postcode": "32-800",
                "amenity": "pharmacy",
                "dispensing": "yes"
            },
            "geometry": {
                "type": "Point",
                "coordinates": [
                    20.610952991062963,
                    49.96844800285985
                ]
            }
        },
        {
            "type": "Feature",
            "properties": {
                "ref:csioz": 1078229,
                "name": "\"Apteka \"\"Remedium\"\"\"",
                "addr:street": "Kazimierza Wielkiego",
                "addr:housenumber": "3",
                "addr:city": "Brzesko",
                "addr:postcode": "32-800",
                "amenity": "pharmacy",
                "dispensing": "yes"
            },
            "geometry": {
                "type": "Point",
                "coordinates": [
                    20.606350170694327,
                    49.96959747467031
                ]
            }
        },
        {
            "type": "Feature",
            "properties": {
                "ref:csioz": 1078293,
                "name": "Doz Apteka. Dbam O Zdrowie",
                "addr:street": "Adama Mickiewicza",
                "addr:housenumber": "29",
                "addr:city": "Brzesko",
                "addr:postcode": "32-800",
                "amenity": "pharmacy",
                "dispensing": "yes"
            },
            "geometry": {
                "type": "Point",
                "coordinates": [
                    20.60175525740272,
                    49.96506424656034
                ]
            }
        },
        {
            "type": "Feature",
            "properties": {
                "ref:csioz": 1078308,
                "name": "\"Apteka \"\"Vita\"\"\"",
                "addr:street": "Tadeusza Kościuszki",
                "addr:housenumber": "6",
                "addr:city": "Brzesko",
                "addr:postcode": "32-800",
                "amenity": "pharmacy",
                "dispensing": "yes"
            },
            "geometry": {
                "type": "Point",
                "coordinates": [
                    20.60575958620977,
                    49.96825299752985
                ]
            }
        },
        {
            "type": "Feature",
            "properties": {
                "ref:csioz": 1117526,
                "name": "Zdrowe Ceny",
                "addr:housenumber": "87B",
                "addr:postcode": "32-825",
                "amenity": "pharmacy",
                "addr:place": "Borzęcin",
                "dispensing": "yes"
            },
            "geometry": {
                "type": "Point",
                "coordinates": [
                    20.703437398361917,
                    50.06291610989621
                ]
            }
        },
        {
            "type": "Feature",
            "properties": {
                "ref:csioz": 1118223,
                "name": "Apteka Bliska I Tania",
                "addr:housenumber": "563B",
                "addr:postcode": "32-825",
                "amenity": "pharmacy",
                "addr:place": "Borzęcin",
                "dispensing": "yes"
            },
            "geometry": {
                "type": "Point",
                "coordinates": [
                    20.70996526028073,
                    50.067626384385754
                ]
            }
        },
        {
            "type": "Feature",
            "properties": {
                "ref:csioz": 1179213,
                "name": "Punkt Apteczny Bliski",
                "addr:housenumber": "460",
                "addr:postcode": "32-865",
                "amenity": "pharmacy",
                "addr:place": "Uszew",
                "dispensing": "yes"
            },
            "geometry": {
                "type": "Point",
                "coordinates": [
                    20.600290959986314,
                    49.917911269170986
                ]
            }
        },
        {
            "type": "Feature",
            "properties": {
                "ref:csioz": 1179221,
                "name": "Apteka Niskich Cen",
                "addr:street": "Krakowska",
                "addr:housenumber": "14A",
                "addr:city": "Szczurowa",
                "addr:postcode": "32-820",
                "amenity": "pharmacy",
                "dispensing": "yes"
            },
            "geometry": {
                "type": "Point",
                "coordinates": [
                    20.636254000001387,
                    50.11981200001267
                ]
            }
        },
        {
            "type": "Feature",
            "properties": {
                "ref:csioz": 1183928,
                "name": "Hygieia",
                "addr:street": "Władysława Jagiełły",
                "addr:housenumber": "15",
                "addr:city": "Brzesko",
                "addr:postcode": "32-800",
                "amenity": "pharmacy",
                "dispensing": "yes"
            },
            "geometry": {
                "type": "Point",
                "coordinates": [
                    20.60180600000128,
                    49.97431800001246
                ]
            }
        },
        {
            "type": "Feature",
            "properties": {
                "ref:csioz": 1183931,
                "name": "Dr. Max",
                "addr:street": "Henryka Sienkiewicza",
                "addr:housenumber": "5",
                "addr:city": "Brzesko",
                "addr:postcode": "32-800",
                "amenity": "pharmacy",
                "dispensing": "yes"
            },
            "geometry": {
                "type": "Point",
                "coordinates": [
                    20.60596466785583,
                    49.9693213976375
                ]
            }
        },
        {
            "type": "Feature",
            "properties": {
                "ref:csioz": 1189041,
                "name": "Apteka Mojej Mamy",
                "addr:street": "Tadeusza Kościuszki",
                "addr:housenumber": "56",
                "addr:city": "Brzesko",
                "addr:postcode": "32-800",
                "amenity": "pharmacy",
                "dispensing": "yes"
            },
            "geometry": {
                "type": "Point",
                "coordinates": [
                    20.600416695320177,
                    49.96965205005781
                ]
            }
        },
        {
            "type": "Feature",
            "properties": {
                "ref:csioz": 1198949,
                "name": "Niezapominajka Dla Całej Rodziny",
                "addr:street": "Żwirki i Wigury",
                "addr:housenumber": "1",
                "addr:city": "Brzesko",
                "addr:postcode": "32-800",
                "amenity": "pharmacy",
                "dispensing": "yes"
            },
            "geometry": {
                "type": "Point",
                "coordinates": [
                    20.610220166389364,
                    49.968790465324545
                ]
            }
        },
        {
            "type": "Feature",
            "properties": {
                "ref:csioz": 1217019,
                "addr:housenumber": "172",
                "addr:postcode": "32-852",
                "amenity": "pharmacy",
                "addr:place": "Wola Dębińska",
                "dispensing": "yes"
            },
            "geometry": {
                "type": "Point",
                "coordinates": [
                    20.714902136227224,
                    49.967520496299
                ]
            }
        },
        {
            "type": "Feature",
            "properties": {
                "ref:csioz": 1203210,
                "name": "Apteka Słoneczna",
                "addr:street": "Tadeusza Kościuszki",
                "addr:housenumber": "70",
                "addr:city": "Brzesko",
                "addr:postcode": "32-800",
                "amenity": "pharmacy",
                "dispensing": "yes"
            },
            "geometry": {
                "type": "Point",
                "coordinates": [
                    20.59120687889957,
                    49.970443975790204
                ]
            }
        },
        {
            "type": "Feature",
            "properties": {
                "ref:csioz": 1210750,
                "name": "Punkt Apteczny Bliski",
                "addr:housenumber": "90",
                "addr:postcode": "32-821",
                "amenity": "pharmacy",
                "addr:place": "Zaborów",
                "dispensing": "yes"
            },
            "geometry": {
                "type": "Point",
                "coordinates": [
                    20.694584464354396,
                    50.146304490565484
                ]
            }
        },
        {
            "type": "Feature",
            "properties": {
                "ref:csioz": 1223690,
                "name": "Apteka Infarm",
                "addr:street": "Świętego Brata Alberta",
                "addr:housenumber": "6",
                "addr:city": "Brzesko",
                "addr:postcode": "32-800",
                "amenity": "pharmacy",
                "dispensing": "yes"
            },
            "geometry": {
                "type": "Point",
                "coordinates": [
                    20.605762863861912,
                    49.977060059408615
                ]
            }
        },
        {
            "type": "Feature",
            "properties": {
                "ref:csioz": 1078278,
                "name": "\"Apteka Cef@Rm 36,6\"",
                "addr:street": "Królowej Jadwigi",
                "addr:housenumber": "3",
                "addr:city": "Brzesko",
                "addr:postcode": "32-800",
                "amenity": "pharmacy",
                "dispensing": "yes"
            },
            "geometry": {
                "type": "Point",
                "coordinates": [
                    20.60340848144586,
                    49.972895994075806
                ]
            }
        },
        {
            "type": "Feature",
            "properties": {
                "ref:csioz": 1229737,
                "name": "Apteka Rumianek",
                "addr:housenumber": "527",
                "addr:postcode": "32-864",
                "amenity": "pharmacy",
                "addr:place": "Gnojnik",
                "dispensing": "yes"
            },
            "geometry": {
                "type": "Point",
                "coordinates": [
                    20.606509472563687,
                    49.89479059759176
                ]
            }
        },
        {
            "type": "Feature",
            "properties": {
                "ref:csioz": 1078362,
                "name": "Nad Dunajcem",
                "addr:street": "Sądecka",
                "addr:housenumber": "183",
                "addr:city": "Czchów",
                "addr:postcode": "32-860",
                "amenity": "pharmacy",
                "dispensing": "yes"
            },
            "geometry": {
                "type": "Point",
                "coordinates": [
                    20.677783158431232,
                    49.822986947282736
                ]
            }
        },
        {
            "type": "Feature",
            "properties": {
                "ref:csioz": 1078442,
                "name": "\"Apteka \"\"Rumianek\"\"\"",
                "addr:housenumber": "109",
                "addr:postcode": "32-862",
                "amenity": "pharmacy",
                "addr:place": "Porąbka Iwkowska",
                "dispensing": "yes"
            },
            "geometry": {
                "type": "Point",
                "coordinates": [
                    20.596984864816534,
                    49.79730677252851
                ]
            }
        },
        {
            "type": "Feature",
            "properties": {
                "ref:csioz": 1178094,
                "name": "Apteka Rumianek",
                "addr:street": "Krakowska",
                "addr:housenumber": "17",
                "addr:city": "Czchów",
                "addr:postcode": "32-860",
                "amenity": "pharmacy",
                "dispensing": "yes"
            },
            "geometry": {
                "type": "Point",
                "coordinates": [
                    20.681440720055047,
                    49.84411108572562
                ]
            }
        },
        {
            "type": "Feature",
            "properties": {
                "ref:csioz": 1186039,
                "name": "Dział Farmacji Szpitalnej",
                "addr:street": "Sądecka",
                "addr:housenumber": "183",
                "addr:city": "Czchów",
                "addr:postcode": "32-860",
                "amenity": "pharmacy",
                "dispensing": "yes"
            },
            "geometry": {
                "type": "Point",
                "coordinates": [
                    20.677783158431232,
                    49.822956947282734
                ]
            }
        },
        {
            "type": "Feature",
            "properties": {
                "ref:csioz": 1198687,
                "name": "Apteka Rumianek",
                "addr:housenumber": "829",
                "addr:postcode": "32-861",
                "amenity": "pharmacy",
                "addr:place": "Iwkowa",
                "dispensing": "yes"
            },
            "geometry": {
                "type": "Point",
                "coordinates": [
                    20.592326634172235,
                    49.81525930512512
                ]
            }
        },
        {
            "type": "Feature",
            "properties": {
                "ref:csioz": 1213411,
                "name": "Apteka Św. Justa",
                "addr:housenumber": "379",
                "addr:postcode": "32-860",
                "amenity": "pharmacy",
                "addr:place": "Jurków",
                "dispensing": "yes"
            },
            "geometry": {
                "type": "Point",
                "coordinates": [
                    20.683813048232214,
                    49.85132382220803
                ]
            }
        }
    ]
}