{
    "type": "FeatureCollection",
    "name": "JPT_KOD_JE_3010",
    "features": [
        {
            "type": "Feature",
            "properties": {
                "ref:csioz": 1048353,
                "name": "Floriańska",
                "addr:street": "STRAŻACKA",
                "addr:housenumber": "7",
                "addr:city": "GOLINA",
                "addr:postcode": "62-590",
                "amenity": "pharmacy"
            },
            "geometry": {
                "type": "Point",
                "coordinates": [
                    18.09739910116133,
                    52.24439128204446
                ]
            }
        },
        {
            "type": "Feature",
            "properties": {
                "ref:csioz": 1048328,
                "name": "Eskulap",
                "addr:street": "GŁÓWNA",
                "addr:housenumber": "17",
                "addr:city": "KRZYMÓW",
                "addr:postcode": "62-513",
                "amenity": "pharmacy"
            },
            "geometry": {
                "type": "Point",
                "coordinates": [
                    18.437898434423897,
                    52.19452691480642
                ]
            }
        },
        {
            "type": "Feature",
            "properties": {
                "ref:csioz": 1048504,
                "addr:street": "RYNEK",
                "addr:housenumber": "3",
                "addr:city": "KRAMSK",
                "addr:postcode": "62-511",
                "amenity": "pharmacy"
            },
            "geometry": {
                "type": "Point",
                "coordinates": [
                    18.427608008503785,
                    52.26578250795975
                ]
            }
        },
        {
            "type": "Feature",
            "properties": {
                "ref:csioz": 1048520,
                "name": "Doz Apteka. Dbam O Zdrowie. Medica",
                "addr:street": "ŻWIRKI I WIGURY",
                "addr:housenumber": "18",
                "addr:city": "ŚLESIN",
                "addr:postcode": "63-561",
                "amenity": "pharmacy"
            },
            "geometry": {
                "type": "Point",
                "coordinates": [
                    18.30612907047719,
                    52.369062235368816
                ]
            }
        },
        {
            "type": "Feature",
            "properties": {
                "ref:csioz": 1048676,
                "name": "Złota",
                "addr:street": "KOLEJOWA",
                "addr:housenumber": "32",
                "addr:city": "GOLINA",
                "addr:postcode": "62-590",
                "amenity": "pharmacy"
            },
            "geometry": {
                "type": "Point",
                "coordinates": [
                    18.093841033595844,
                    52.247424473488294
                ]
            }
        },
        {
            "type": "Feature",
            "properties": {
                "ref:csioz": 1048710,
                "addr:street": "KONIŃSKA",
                "addr:housenumber": "13",
                "addr:city": "RYCHWAŁ",
                "addr:postcode": "62-570",
                "amenity": "pharmacy"
            },
            "geometry": {
                "type": "Point",
                "coordinates": [
                    18.165554817937824,
                    52.071251467415976
                ]
            }
        },
        {
            "type": "Feature",
            "properties": {
                "ref:csioz": 1048863,
                "name": "Gemini",
                "addr:street": "WĘGLEWSKA",
                "addr:housenumber": "3",
                "addr:city": "KAZIMIERZ BISKUPI",
                "addr:postcode": "62-530",
                "amenity": "pharmacy"
            },
            "geometry": {
                "type": "Point",
                "coordinates": [
                    18.165437180505986,
                    52.308571847210324
                ]
            }
        },
        {
            "type": "Feature",
            "properties": {
                "ref:csioz": 1048987,
                "name": "Pod Złotą Wagą",
                "addr:street": "KAZIMIERZA WIELKIEGO",
                "addr:housenumber": "21",
                "addr:city": "GOLINA",
                "addr:postcode": "62-590",
                "amenity": "pharmacy"
            },
            "geometry": {
                "type": "Point",
                "coordinates": [
                    18.09567692509375,
                    52.242358158895435
                ]
            }
        },
        {
            "type": "Feature",
            "properties": {
                "ref:csioz": 1049007,
                "name": "Pod Złotą Wagą",
                "addr:street": "KONIŃSKA",
                "addr:housenumber": "19",
                "addr:city": "RYCHWAŁ",
                "addr:postcode": "62-570",
                "amenity": "pharmacy"
            },
            "geometry": {
                "type": "Point",
                "coordinates": [
                    18.165555999999683,
                    52.07123400001558
                ]
            }
        },
        {
            "type": "Feature",
            "properties": {
                "ref:csioz": 1049376,
                "name": "Prima",
                "addr:street": "50-LECIA KWB",
                "addr:housenumber": "14",
                "addr:city": "KLECZEW",
                "addr:postcode": "62-540",
                "amenity": "pharmacy"
            },
            "geometry": {
                "type": "Point",
                "coordinates": [
                    18.18337099999968,
                    52.36602000001603
                ]
            }
        },
        {
            "type": "Feature",
            "properties": {
                "ref:csioz": 1049630,
                "name": "Libra",
                "addr:street": "WŁOCŁAWSKA",
                "addr:housenumber": "10",
                "addr:city": "SKULSK",
                "addr:postcode": "62-560",
                "amenity": "pharmacy"
            },
            "geometry": {
                "type": "Point",
                "coordinates": [
                    18.332709755350397,
                    52.48141810240958
                ]
            }
        },
        {
            "type": "Feature",
            "properties": {
                "ref:csioz": 1049706,
                "addr:street": "GOLIŃSKA",
                "addr:housenumber": "1",
                "addr:city": "KAZIMIERZ BISKUPI",
                "addr:postcode": "62-530",
                "amenity": "pharmacy"
            },
            "geometry": {
                "type": "Point",
                "coordinates": [
                    18.163801973251847,
                    52.31299884552168
                ]
            }
        },
        {
            "type": "Feature",
            "properties": {
                "ref:csioz": 1049722,
                "name": "Fiołek",
                "addr:street": "SŁONECZNE",
                "addr:housenumber": "77",
                "addr:city": "ŻYCHLIN",
                "addr:postcode": "62-571",
                "amenity": "pharmacy"
            },
            "geometry": {
                "type": "Point",
                "coordinates": [
                    18.27186284430506,
                    52.17790608106023
                ]
            }
        },
        {
            "type": "Feature",
            "properties": {
                "ref:csioz": 1180685,
                "name": "Grodzki",
                "addr:street": "Wiśniowa",
                "addr:housenumber": "1",
                "addr:city": "Sławsk",
                "addr:postcode": "62-586",
                "amenity": "pharmacy"
            },
            "geometry": {
                "type": "Point",
                "coordinates": [
                    18.157180507094143,
                    52.198524020446236
                ]
            }
        },
        {
            "type": "Feature",
            "properties": {
                "ref:csioz": 1212987,
                "name": "Pamiątkowa",
                "addr:street": "Strażacka",
                "addr:housenumber": "1",
                "addr:city": "Kleczew",
                "addr:postcode": "62-540",
                "amenity": "pharmacy"
            },
            "geometry": {
                "type": "Point",
                "coordinates": [
                    18.178246437620043,
                    52.36969388209059
                ]
            }
        },
        {
            "type": "Feature",
            "properties": {
                "ref:csioz": 1221976,
                "name": "Medica",
                "addr:housenumber": "7",
                "addr:postcode": "62-619",
                "amenity": "pharmacy",
                "addr:place": "Sadlno"
            },
            "geometry": {
                "type": "Point",
                "coordinates": [
                    18.464108735382258,
                    52.445395491729776
                ]
            }
        },
        {
            "type": "Feature",
            "properties": {
                "ref:csioz": 1230831,
                "name": "\"\"\"Zdrowie I Uroda\"\"\"",
                "addr:housenumber": "112",
                "addr:postcode": "62-619",
                "amenity": "pharmacy",
                "addr:place": "Wierzbinek"
            },
            "geometry": {
                "type": "Point",
                "coordinates": [
                    18.50820722113854,
                    52.439497731407755
                ]
            }
        },
        {
            "type": "Feature",
            "properties": {
                "ref:csioz": 1049595,
                "name": "Apteka Kramsk",
                "addr:street": "KONIŃSKA",
                "addr:housenumber": "15",
                "addr:city": "KRAMSK",
                "addr:postcode": "62-511",
                "amenity": "pharmacy"
            },
            "geometry": {
                "type": "Point",
                "coordinates": [
                    18.422264906511213,
                    52.26302364261485
                ]
            }
        },
        {
            "type": "Feature",
            "properties": {
                "ref:csioz": 1048123,
                "name": "Św. Jana Pawła Ii",
                "addr:street": "KAROLKOWA",
                "addr:housenumber": "7",
                "addr:city": "WILCZYN",
                "addr:postcode": "62-550",
                "amenity": "pharmacy"
            },
            "geometry": {
                "type": "Point",
                "coordinates": [
                    18.161364844637706,
                    52.48864096184664
                ]
            }
        },
        {
            "type": "Feature",
            "properties": {
                "ref:csioz": 1048408,
                "name": "Apteka Aloes",
                "addr:street": "WOLNOŚCI",
                "addr:housenumber": "14",
                "addr:city": "SOMPOLNO",
                "addr:postcode": "62-610",
                "amenity": "pharmacy"
            },
            "geometry": {
                "type": "Point",
                "coordinates": [
                    18.503666764531253,
                    52.38796564496404
                ]
            }
        },
        {
            "type": "Feature",
            "properties": {
                "ref:csioz": 1049135,
                "name": "Vita-Pharm",
                "addr:street": "OGRODOWA",
                "addr:housenumber": "31A",
                "addr:city": "STARE MIASTO",
                "addr:postcode": "62-571",
                "amenity": "pharmacy"
            },
            "geometry": {
                "type": "Point",
                "coordinates": [
                    18.23037248228649,
                    52.18389765504178
                ]
            }
        },
        {
            "type": "Feature",
            "properties": {
                "ref:csioz": 1049156,
                "name": "Rodzinna",
                "addr:street": "ŻWIRKI I WIGURY",
                "addr:housenumber": "3",
                "addr:city": "ŚLESIN",
                "addr:postcode": "62-561",
                "amenity": "pharmacy"
            },
            "geometry": {
                "type": "Point",
                "coordinates": [
                    18.306489828209873,
                    52.369996910259786
                ]
            }
        },
        {
            "type": "Feature",
            "properties": {
                "ref:csioz": 1049337,
                "name": "Dars",
                "addr:street": "TARGOWA",
                "addr:housenumber": "23",
                "addr:city": "ŚLESIN",
                "addr:postcode": "62-561",
                "amenity": "pharmacy"
            },
            "geometry": {
                "type": "Point",
                "coordinates": [
                    18.306733128106867,
                    52.366735426981414
                ]
            }
        },
        {
            "type": "Feature",
            "properties": {
                "ref:csioz": 1049345,
                "name": "Dars",
                "addr:street": "WOLNOŚCI",
                "addr:housenumber": "16",
                "addr:city": "SOMPOLNO",
                "addr:postcode": "62-610",
                "amenity": "pharmacy"
            },
            "geometry": {
                "type": "Point",
                "coordinates": [
                    18.50323249535822,
                    52.387779390196826
                ]
            }
        },
        {
            "type": "Feature",
            "properties": {
                "ref:csioz": 1049359,
                "name": "Dars",
                "addr:street": "Konińska",
                "addr:housenumber": "56",
                "addr:city": "LICHEŃ STARY",
                "addr:postcode": "62-563",
                "amenity": "pharmacy"
            },
            "geometry": {
                "type": "Point",
                "coordinates": [
                    18.355883732110996,
                    52.31713323207426
                ]
            }
        },
        {
            "type": "Feature",
            "properties": {
                "ref:csioz": 1049489,
                "name": "Prima",
                "addr:street": "OLCHOWA",
                "addr:housenumber": "3",
                "addr:city": "STARE MIASTO",
                "addr:postcode": "62-571",
                "amenity": "pharmacy"
            },
            "geometry": {
                "type": "Point",
                "coordinates": [
                    18.218018958376366,
                    52.1820612076541
                ]
            }
        },
        {
            "type": "Feature",
            "properties": {
                "ref:csioz": 1119948,
                "name": "Twoja",
                "addr:street": "KLECZEWSKA",
                "addr:housenumber": "12A",
                "addr:city": "ŚLESIN",
                "addr:postcode": "62-561",
                "amenity": "pharmacy"
            },
            "geometry": {
                "type": "Point",
                "coordinates": [
                    18.30484384654461,
                    52.370784499648295
                ]
            }
        },
        {
            "type": "Feature",
            "properties": {
                "ref:csioz": 1119999,
                "name": "Pod Złotą Wagą",
                "addr:street": "GŁÓWNA",
                "addr:housenumber": "34",
                "addr:city": "GRODZIEC",
                "addr:postcode": "62-580",
                "amenity": "pharmacy"
            },
            "geometry": {
                "type": "Point",
                "coordinates": [
                    18.053908717186836,
                    52.0389412122755
                ]
            }
        },
        {
            "type": "Feature",
            "properties": {
                "ref:csioz": 1120016,
                "name": "Propolis",
                "addr:street": "KONIŃSKA",
                "addr:housenumber": "19E",
                "addr:city": "RZGÓW",
                "addr:postcode": "62-586",
                "amenity": "pharmacy"
            },
            "geometry": {
                "type": "Point",
                "coordinates": [
                    18.053903028576812,
                    52.155763879170024
                ]
            }
        },
        {
            "type": "Feature",
            "properties": {
                "ref:csioz": 1123135,
                "name": "Spem Donare",
                "addr:street": "Klasztorna",
                "addr:housenumber": "4",
                "addr:city": "Licheń Stary",
                "addr:postcode": "62-563",
                "amenity": "pharmacy"
            },
            "geometry": {
                "type": "Point",
                "coordinates": [
                    18.35436305386953,
                    52.3186211719935
                ]
            }
        },
        {
            "type": "Feature",
            "properties": {
                "ref:csioz": 1123242,
                "name": "Św. Alberta",
                "addr:street": "TUWIMA",
                "addr:housenumber": "6B",
                "addr:city": "POSADA",
                "addr:postcode": "62-530",
                "amenity": "pharmacy"
            },
            "geometry": {
                "type": "Point",
                "coordinates": [
                    18.233068973560492,
                    52.25599520948199
                ]
            }
        },
        {
            "type": "Feature",
            "properties": {
                "ref:csioz": 1191498,
                "name": "Vita",
                "addr:housenumber": "6",
                "addr:postcode": "62-590",
                "amenity": "pharmacy",
                "addr:place": "Kawnice"
            },
            "geometry": {
                "type": "Point",
                "coordinates": [
                    18.149674909131132,
                    52.24325893636971
                ]
            }
        },
        {
            "type": "Feature",
            "properties": {
                "ref:csioz": 1198159,
                "name": "Grodzki",
                "addr:street": "Długa",
                "addr:housenumber": "3",
                "addr:city": "Lisiec Wielki",
                "addr:postcode": "62-571",
                "amenity": "pharmacy"
            },
            "geometry": {
                "type": "Point",
                "coordinates": [
                    18.239057689419006,
                    52.121676028316244
                ]
            }
        },
        {
            "type": "Feature",
            "properties": {
                "ref:csioz": 1209778,
                "name": "Na Rynku",
                "addr:street": "Rynek",
                "addr:housenumber": "1",
                "addr:city": "Wilczyn",
                "addr:postcode": "62-550",
                "amenity": "pharmacy"
            },
            "geometry": {
                "type": "Point",
                "coordinates": [
                    18.167071032710613,
                    52.483813326868855
                ]
            }
        },
        {
            "type": "Feature",
            "properties": {
                "ref:csioz": 1210814,
                "name": "Pamiątkowa",
                "addr:street": "Wilczyńska",
                "addr:housenumber": "26",
                "addr:city": "Budzisław Kościelny",
                "addr:postcode": "62-541",
                "amenity": "pharmacy"
            },
            "geometry": {
                "type": "Point",
                "coordinates": [
                    18.085785934158267,
                    52.43931988609569
                ]
            }
        },
        {
            "type": "Feature",
            "properties": {
                "ref:csioz": 1217665,
                "name": "Arnika",
                "addr:street": "Konińska",
                "addr:housenumber": "26",
                "addr:city": "Skulsk",
                "addr:postcode": "62-560",
                "amenity": "pharmacy"
            },
            "geometry": {
                "type": "Point",
                "coordinates": [
                    18.33088102111123,
                    52.47823286963881
                ]
            }
        },
        {
            "type": "Feature",
            "properties": {
                "ref:csioz": 1219642,
                "name": "Aloes",
                "addr:street": "Kleczewska",
                "addr:housenumber": "29",
                "addr:city": "Ślesin",
                "addr:postcode": "62-561",
                "amenity": "pharmacy"
            },
            "geometry": {
                "type": "Point",
                "coordinates": [
                    18.299981582207643,
                    52.37108105405711
                ]
            }
        },
        {
            "type": "Feature",
            "properties": {
                "ref:csioz": 1229768,
                "addr:street": "Główna",
                "addr:housenumber": "10A",
                "addr:city": "Brzeźno",
                "addr:postcode": "62-513",
                "amenity": "pharmacy"
            },
            "geometry": {
                "type": "Point",
                "coordinates": [
                    18.3071123893343,
                    52.19314273301475
                ]
            }
        }
    ]
}