{
    "type": "FeatureCollection",
    "name": "JPT_KOD_JE_1802",
    "features": [
        {
            "type": "Feature",
            "properties": {
                "ref:csioz": 1140591,
                "name": "Pod Ratuszem",
                "addr:street": "Adama Mickiewicza",
                "addr:housenumber": "9",
                "addr:city": "Brzozów",
                "addr:postcode": "36-200",
                "amenity": "pharmacy"
            },
            "geometry": {
                "type": "Point",
                "coordinates": [
                    22.021858671380933,
                    49.69683749276616
                ]
            }
        },
        {
            "type": "Feature",
            "properties": {
                "ref:csioz": 1140606,
                "name": "Apteka Rodzinna",
                "addr:street": "Adama Mickiewicza",
                "addr:housenumber": "22",
                "addr:city": "Brzozów",
                "addr:postcode": "36-200",
                "amenity": "pharmacy"
            },
            "geometry": {
                "type": "Point",
                "coordinates": [
                    22.018925801763267,
                    49.69472706947002
                ]
            }
        },
        {
            "type": "Feature",
            "properties": {
                "ref:csioz": 1140622,
                "name": "\"Apteka Cef@Rm 36,6\"",
                "addr:street": "Podwale",
                "addr:housenumber": "2",
                "addr:city": "Brzozów",
                "addr:postcode": "36-200",
                "amenity": "pharmacy"
            },
            "geometry": {
                "type": "Point",
                "coordinates": [
                    22.021544956215536,
                    49.69514477506457
                ]
            }
        },
        {
            "type": "Feature",
            "properties": {
                "ref:csioz": 1140611,
                "name": "Dr.Max",
                "addr:street": "Adama Mickiewicza",
                "addr:housenumber": "27",
                "addr:city": "Brzozów",
                "addr:postcode": "36-200",
                "amenity": "pharmacy"
            },
            "geometry": {
                "type": "Point",
                "coordinates": [
                    22.01974366052373,
                    49.69587852599405
                ]
            }
        },
        {
            "type": "Feature",
            "properties": {
                "ref:csioz": 1199350,
                "addr:street": "Grunwaldzki",
                "addr:housenumber": "5A",
                "addr:city": "Brzozów",
                "addr:postcode": "36-200",
                "amenity": "pharmacy"
            },
            "geometry": {
                "type": "Point",
                "coordinates": [
                    22.02127440080738,
                    49.69412140967829
                ]
            }
        },
        {
            "type": "Feature",
            "properties": {
                "ref:csioz": 1215199,
                "name": "Pod Dębami",
                "addr:housenumber": "84A",
                "addr:postcode": "36-213",
                "amenity": "pharmacy",
                "addr:place": "Haczów"
            },
            "geometry": {
                "type": "Point",
                "coordinates": [
                    21.895252905101813,
                    49.671347456888704
                ]
            }
        },
        {
            "type": "Feature",
            "properties": {
                "ref:csioz": 1138418,
                "addr:street": "Ks. J.Bielawskiego",
                "addr:housenumber": "18",
                "addr:city": "Brzozów",
                "addr:postcode": "36-200",
                "amenity": "pharmacy"
            },
            "geometry": {
                "type": "Point",
                "coordinates": [
                    22.024772000023635,
                    49.692529000012215
                ]
            }
        },
        {
            "type": "Feature",
            "properties": {
                "ref:csioz": 1140569,
                "name": "Panax",
                "addr:street": "Józefa Bema",
                "addr:housenumber": "12",
                "addr:city": "Brzozów",
                "addr:postcode": "36-200",
                "amenity": "pharmacy"
            },
            "geometry": {
                "type": "Point",
                "coordinates": [
                    22.015867360143,
                    49.701881373657656
                ]
            }
        },
        {
            "type": "Feature",
            "properties": {
                "ref:csioz": 1140575,
                "name": "\"Apteka Cef@Rm 36,6\"",
                "addr:street": "ks. Józefa Bielawskiego",
                "addr:housenumber": "12",
                "addr:city": "Brzozów",
                "addr:postcode": "36-200",
                "amenity": "pharmacy"
            },
            "geometry": {
                "type": "Point",
                "coordinates": [
                    22.02274706942033,
                    49.69322252199701
                ]
            }
        },
        {
            "type": "Feature",
            "properties": {
                "ref:csioz": 1140588,
                "name": "Omega",
                "addr:street": "Tadeusza Kościuszki",
                "addr:housenumber": "2",
                "addr:city": "Brzozów",
                "addr:postcode": "36-200",
                "amenity": "pharmacy"
            },
            "geometry": {
                "type": "Point",
                "coordinates": [
                    22.02277744864562,
                    49.69723519443514
                ]
            }
        },
        {
            "type": "Feature",
            "properties": {
                "ref:csioz": 1140654,
                "name": "Pod Dębami",
                "addr:housenumber": "95",
                "addr:postcode": "36-213",
                "amenity": "pharmacy",
                "addr:place": "Haczów"
            },
            "geometry": {
                "type": "Point",
                "coordinates": [
                    21.893511959432193,
                    49.669724322704816
                ]
            }
        },
        {
            "type": "Feature",
            "properties": {
                "ref:csioz": 1140679,
                "addr:housenumber": "471",
                "addr:postcode": "36-221",
                "amenity": "pharmacy",
                "addr:place": "Blizne"
            },
            "geometry": {
                "type": "Point",
                "coordinates": [
                    21.980665419888652,
                    49.748131495514244
                ]
            }
        },
        {
            "type": "Feature",
            "properties": {
                "ref:csioz": 1140709,
                "name": "Remedium",
                "addr:housenumber": "53",
                "addr:postcode": "36-206",
                "amenity": "pharmacy",
                "addr:place": "Humniska"
            },
            "geometry": {
                "type": "Point",
                "coordinates": [
                    22.034757677930028,
                    49.68797147005956
                ]
            }
        },
        {
            "type": "Feature",
            "properties": {
                "ref:csioz": 1140751,
                "name": "Danfarm",
                "addr:housenumber": "143A",
                "addr:postcode": "36-204",
                "amenity": "pharmacy",
                "addr:place": "Niebocko"
            },
            "geometry": {
                "type": "Point",
                "coordinates": [
                    22.106199484011835,
                    49.67715748565915
                ]
            }
        },
        {
            "type": "Feature",
            "properties": {
                "ref:csioz": 1165560,
                "addr:street": "3-go Maja",
                "addr:housenumber": "41",
                "addr:city": "Brzozów",
                "addr:postcode": "36-200",
                "amenity": "pharmacy"
            },
            "geometry": {
                "type": "Point",
                "coordinates": [
                    22.027235745709927,
                    49.68805947987371
                ]
            }
        },
        {
            "type": "Feature",
            "properties": {
                "ref:csioz": 1175563,
                "name": "Danfarm Apteka Dydnia",
                "addr:housenumber": "312",
                "addr:postcode": "36-204",
                "amenity": "pharmacy",
                "addr:place": "Dydnia"
            },
            "geometry": {
                "type": "Point",
                "coordinates": [
                    22.146208826670286,
                    49.697441637109876
                ]
            }
        },
        {
            "type": "Feature",
            "properties": {
                "ref:csioz": 1182341,
                "name": "Apteka Omega",
                "addr:housenumber": "216",
                "addr:postcode": "36-220",
                "amenity": "pharmacy",
                "addr:place": "Jasienica Rosielna"
            },
            "geometry": {
                "type": "Point",
                "coordinates": [
                    21.935151537124955,
                    49.749060512114006
                ]
            }
        },
        {
            "type": "Feature",
            "properties": {
                "ref:csioz": 1205662,
                "name": "Danfarm Punkt Apteczny",
                "addr:housenumber": "379",
                "addr:postcode": "36-203",
                "amenity": "pharmacy",
                "addr:place": "Izdebki"
            },
            "geometry": {
                "type": "Point",
                "coordinates": [
                    22.116513364849247,
                    49.751635199212
                ]
            }
        },
        {
            "type": "Feature",
            "properties": {
                "ref:csioz": 1211090,
                "name": "Apteka Rodzinna",
                "addr:street": "Juliusza Słowackiego",
                "addr:housenumber": "4",
                "addr:city": "Brzozów",
                "addr:postcode": "36-200",
                "amenity": "pharmacy"
            },
            "geometry": {
                "type": "Point",
                "coordinates": [
                    22.020312544854875,
                    49.69522421508175
                ]
            }
        },
        {
            "type": "Feature",
            "properties": {
                "ref:csioz": 1217958,
                "name": "\"Apteka 'Omega'\"",
                "addr:housenumber": "676",
                "addr:postcode": "36-200",
                "amenity": "pharmacy",
                "addr:place": "Przysietnica"
            },
            "geometry": {
                "type": "Point",
                "coordinates": [
                    22.05183813451108,
                    49.73001545013882
                ]
            }
        },
        {
            "type": "Feature",
            "properties": {
                "ref:csioz": 1229417,
                "name": "Danfarm Punkt Apteczny Stara Wieś",
                "addr:housenumber": "621A",
                "addr:postcode": "36-200",
                "amenity": "pharmacy",
                "addr:place": "Stara Wieś"
            },
            "geometry": {
                "type": "Point",
                "coordinates": [
                    22.01175846467562,
                    49.71763486388518
                ]
            }
        },
        {
            "type": "Feature",
            "properties": {
                "ref:csioz": 1140633,
                "name": "Arjed",
                "addr:housenumber": "323",
                "addr:postcode": "36-230",
                "amenity": "pharmacy",
                "addr:place": "Domaradz"
            },
            "geometry": {
                "type": "Point",
                "coordinates": [
                    21.943219266905864,
                    49.78840896669387
                ]
            }
        },
        {
            "type": "Feature",
            "properties": {
                "ref:csioz": 1202160,
                "name": "Arjed",
                "addr:housenumber": "71",
                "addr:postcode": "36-230",
                "amenity": "pharmacy",
                "addr:place": "Golcowa"
            },
            "geometry": {
                "type": "Point",
                "coordinates": [
                    22.025235135507437,
                    49.7712537585605
                ]
            }
        },
        {
            "type": "Feature",
            "properties": {
                "ref:csioz": 1140767,
                "addr:housenumber": "230",
                "addr:postcode": "38-245",
                "amenity": "pharmacy",
                "addr:place": "Nozdrzec"
            },
            "geometry": {
                "type": "Point",
                "coordinates": [
                    22.206935840045194,
                    49.77435459933518
                ]
            }
        },
        {
            "type": "Feature",
            "properties": {
                "ref:csioz": 1140780,
                "addr:housenumber": "432A",
                "addr:postcode": "36-233",
                "amenity": "pharmacy",
                "addr:place": "Wesoła"
            },
            "geometry": {
                "type": "Point",
                "coordinates": [
                    22.098661620865116,
                    49.801621647931064
                ]
            }
        },
        {
            "type": "Feature",
            "properties": {
                "ref:csioz": 1151249,
                "name": "Danfarm",
                "addr:housenumber": "275",
                "addr:postcode": "36-200",
                "amenity": "pharmacy",
                "addr:place": "Grabownica Starzeńska"
            },
            "geometry": {
                "type": "Point",
                "coordinates": [
                    22.078196340062753,
                    49.65780412346043
                ]
            }
        },
        {
            "type": "Feature",
            "properties": {
                "ref:csioz": 1140698,
                "addr:housenumber": "396",
                "addr:postcode": "36-207",
                "amenity": "pharmacy",
                "addr:place": "Grabownica Starzeńska"
            },
            "geometry": {
                "type": "Point",
                "coordinates": [
                    22.07944271130724,
                    49.6569062239193
                ]
            }
        },
        {
            "type": "Feature",
            "properties": {
                "ref:csioz": 1140738,
                "name": "Danfarm",
                "addr:housenumber": "282A",
                "addr:postcode": "36-211",
                "amenity": "pharmacy",
                "addr:place": "Jasionów"
            },
            "geometry": {
                "type": "Point",
                "coordinates": [
                    21.983858049863176,
                    49.6526273773627
                ]
            }
        },
        {
            "type": "Feature",
            "properties": {
                "ref:csioz": 1140795,
                "addr:housenumber": "87a",
                "addr:postcode": "36-212",
                "amenity": "pharmacy",
                "addr:place": "Trześniów"
            },
            "geometry": {
                "type": "Point",
                "coordinates": [
                    21.946058115530132,
                    49.64489897378881
                ]
            }
        }
    ]
}