{
    "type": "FeatureCollection",
    "name": "JPT_KOD_JE_2610",
    "features": [
        {
            "type": "Feature",
            "properties": {
                "ref:csioz": 1180009,
                "addr:housenumber": "1C",
                "addr:postcode": "26-140",
                "amenity": "pharmacy",
                "addr:place": "Kamionki"
            },
            "geometry": {
                "type": "Point",
                "coordinates": [
                    20.79764875402418,
                    50.99359703472028
                ]
            }
        },
        {
            "type": "Feature",
            "properties": {
                "ref:csioz": 1229388,
                "name": "Bluemed",
                "addr:housenumber": "87A",
                "addr:postcode": "26-140",
                "amenity": "pharmacy",
                "addr:place": "Łączna"
            },
            "geometry": {
                "type": "Point",
                "coordinates": [
                    20.796368715258893,
                    50.99564814746286
                ]
            }
        },
        {
            "type": "Feature",
            "properties": {
                "ref:csioz": 1000031,
                "addr:street": "Emilii Peck",
                "addr:housenumber": "9",
                "addr:city": "Suchedniów",
                "addr:postcode": "26-130",
                "amenity": "pharmacy"
            },
            "geometry": {
                "type": "Point",
                "coordinates": [
                    20.834504871595897,
                    51.0476034410542
                ]
            }
        },
        {
            "type": "Feature",
            "properties": {
                "ref:csioz": 1000452,
                "addr:street": "Szkolna",
                "addr:housenumber": "2",
                "addr:city": "Bliżyn",
                "addr:postcode": "26-120",
                "amenity": "pharmacy"
            },
            "geometry": {
                "type": "Point",
                "coordinates": [
                    20.761800268918975,
                    51.106193792982374
                ]
            }
        },
        {
            "type": "Feature",
            "properties": {
                "ref:csioz": 1000608,
                "addr:street": "Kościelna",
                "addr:housenumber": "2a",
                "addr:city": "Skarżysko Kościelne",
                "addr:postcode": "26-115",
                "amenity": "pharmacy"
            },
            "geometry": {
                "type": "Point",
                "coordinates": [
                    20.911983953741114,
                    51.137027032234506
                ]
            }
        },
        {
            "type": "Feature",
            "properties": {
                "ref:csioz": 1000799,
                "name": "Apteka Gemini",
                "addr:street": "Sokola",
                "addr:housenumber": "2",
                "addr:flats": "5A",
                "addr:city": "Skarżysko-Kamienna",
                "addr:postcode": "26-110",
                "amenity": "pharmacy"
            },
            "geometry": {
                "type": "Point",
                "coordinates": [
                    20.88044132289785,
                    51.11726886930933
                ]
            }
        },
        {
            "type": "Feature",
            "properties": {
                "ref:csioz": 1001020,
                "addr:street": "Spółdzielcza",
                "addr:housenumber": "34B",
                "addr:city": "Skarżysko-Kamienna",
                "addr:postcode": "26-110",
                "amenity": "pharmacy"
            },
            "geometry": {
                "type": "Point",
                "coordinates": [
                    20.873554588804065,
                    51.12211797688517
                ]
            }
        },
        {
            "type": "Feature",
            "properties": {
                "ref:csioz": 1001223,
                "name": "Apteka Polska",
                "addr:street": "1 Maja",
                "addr:housenumber": "34",
                "addr:city": "Skarżysko-Kamienna",
                "addr:postcode": "26-110",
                "amenity": "pharmacy"
            },
            "geometry": {
                "type": "Point",
                "coordinates": [
                    20.884544236136467,
                    51.114974793165004
                ]
            }
        },
        {
            "type": "Feature",
            "properties": {
                "ref:csioz": 1001802,
                "name": "\"Apteka \"\"Na Zachodnim\"\"\"",
                "addr:street": "Legionów",
                "addr:housenumber": "104",
                "addr:city": "Skarżysko-Kamienna",
                "addr:postcode": "26-110",
                "amenity": "pharmacy"
            },
            "geometry": {
                "type": "Point",
                "coordinates": [
                    20.85632275933022,
                    51.10281801575673
                ]
            }
        },
        {
            "type": "Feature",
            "properties": {
                "ref:csioz": 1002598,
                "addr:street": "Apteczna",
                "addr:housenumber": "8",
                "addr:city": "Skarżysko-Kamienna",
                "addr:postcode": "26-110",
                "amenity": "pharmacy"
            },
            "geometry": {
                "type": "Point",
                "coordinates": [
                    20.856579187644435,
                    51.11334794151746
                ]
            }
        },
        {
            "type": "Feature",
            "properties": {
                "ref:csioz": 1002675,
                "addr:street": "Powstańców Warszawy",
                "addr:housenumber": "7",
                "addr:city": "Skarżysko-Kamienna",
                "addr:postcode": "26-110",
                "amenity": "pharmacy"
            },
            "geometry": {
                "type": "Point",
                "coordinates": [
                    20.864687881717863,
                    51.119050588800626
                ]
            }
        },
        {
            "type": "Feature",
            "properties": {
                "ref:csioz": 1002835,
                "name": "Apteka Plus",
                "addr:street": "Sokola",
                "addr:housenumber": "50",
                "addr:city": "SKARŻYSKO-KAMIENNA",
                "addr:postcode": "26-100",
                "amenity": "pharmacy"
            },
            "geometry": {
                "type": "Point",
                "coordinates": [
                    20.876722509258972,
                    51.12651846205081
                ]
            }
        },
        {
            "type": "Feature",
            "properties": {
                "ref:csioz": 1003235,
                "name": "Arnika",
                "addr:street": "Sokola",
                "addr:housenumber": "18",
                "addr:city": "Skarżysko-Kamienna",
                "addr:postcode": "26-110",
                "amenity": "pharmacy"
            },
            "geometry": {
                "type": "Point",
                "coordinates": [
                    20.877002326195473,
                    51.11933754898396
                ]
            }
        },
        {
            "type": "Feature",
            "properties": {
                "ref:csioz": 1003631,
                "name": "\"Apteka \"\"Na Bugaju\"\"\"",
                "addr:street": "Bugaj",
                "addr:housenumber": "12",
                "addr:city": "Suchedniów",
                "addr:postcode": "26-130",
                "amenity": "pharmacy"
            },
            "geometry": {
                "type": "Point",
                "coordinates": [
                    20.845789104497776,
                    51.04870320587219
                ]
            }
        },
        {
            "type": "Feature",
            "properties": {
                "ref:csioz": 1004216,
                "name": "Apteka Elżanowska Spółka Jawna",
                "addr:street": "Rejowska",
                "addr:housenumber": "54",
                "addr:city": "SKARŻYSKO-KAMIENNA",
                "addr:postcode": "26-110",
                "amenity": "pharmacy"
            },
            "geometry": {
                "type": "Point",
                "coordinates": [
                    20.881214000002316,
                    51.12257900001413
                ]
            }
        },
        {
            "type": "Feature",
            "properties": {
                "ref:csioz": 1004242,
                "name": "Apteka Centrum",
                "addr:street": "Mickiewicza",
                "addr:housenumber": "20",
                "addr:city": "Suchedniów",
                "addr:postcode": "26-130",
                "amenity": "pharmacy"
            },
            "geometry": {
                "type": "Point",
                "coordinates": [
                    20.831600299107247,
                    51.04781476900252
                ]
            }
        },
        {
            "type": "Feature",
            "properties": {
                "ref:csioz": 1112053,
                "name": "\"Apteka \"\"Przy Ul. Norwida\"\"\"",
                "addr:street": "Norwida",
                "addr:housenumber": "7",
                "addr:city": "Skarżysko-Kamienna",
                "addr:postcode": "26-110",
                "amenity": "pharmacy"
            },
            "geometry": {
                "type": "Point",
                "coordinates": [
                    20.85731149314549,
                    51.11689518810923
                ]
            }
        },
        {
            "type": "Feature",
            "properties": {
                "ref:csioz": 1122629,
                "name": "\"Apteka \"\"Codzienna\"\"\"",
                "addr:street": "Krasińskiego",
                "addr:housenumber": "20",
                "addr:city": "Skarżysko-Kamienna",
                "addr:postcode": "26-110",
                "amenity": "pharmacy"
            },
            "geometry": {
                "type": "Point",
                "coordinates": [
                    20.861024000002224,
                    51.11484600001412
                ]
            }
        },
        {
            "type": "Feature",
            "properties": {
                "ref:csioz": 1002881,
                "name": "Arnika",
                "addr:street": "Słowackiego",
                "addr:housenumber": "44",
                "addr:city": "Skarżysko-Kamienna",
                "addr:postcode": "26-110",
                "amenity": "pharmacy"
            },
            "geometry": {
                "type": "Point",
                "coordinates": [
                    20.866532793839784,
                    51.111808346755275
                ]
            }
        },
        {
            "type": "Feature",
            "properties": {
                "ref:csioz": 1004086,
                "addr:street": "Metalowców",
                "addr:housenumber": "5",
                "addr:city": "Skarżysko-Kamienna",
                "addr:postcode": "26-110",
                "amenity": "pharmacy"
            },
            "geometry": {
                "type": "Point",
                "coordinates": [
                    20.85214049831338,
                    51.111329341510924
                ]
            }
        },
        {
            "type": "Feature",
            "properties": {
                "ref:csioz": 1138028,
                "name": "Apteka Szpitalna",
                "addr:street": "Szpitalna",
                "addr:housenumber": "1",
                "addr:city": "Skarżysko-Kamienna",
                "addr:postcode": "26-110",
                "amenity": "pharmacy"
            },
            "geometry": {
                "type": "Point",
                "coordinates": [
                    20.870154902210356,
                    51.12612811432826
                ]
            }
        },
        {
            "type": "Feature",
            "properties": {
                "ref:csioz": 1180430,
                "name": "Przyjazna",
                "addr:street": "1 Maja",
                "addr:housenumber": "55",
                "addr:city": "Skarżysko-Kamienna",
                "addr:postcode": "26-110",
                "amenity": "pharmacy"
            },
            "geometry": {
                "type": "Point",
                "coordinates": [
                    20.89101885653484,
                    51.11665139202118
                ]
            }
        },
        {
            "type": "Feature",
            "properties": {
                "ref:csioz": 1185500,
                "name": "Apteka Miętowa",
                "addr:street": "Niepodległości",
                "addr:housenumber": "88",
                "addr:city": "Skarżysko-Kamienna",
                "addr:postcode": "26-110",
                "amenity": "pharmacy"
            },
            "geometry": {
                "type": "Point",
                "coordinates": [
                    20.880307837306002,
                    51.11617121430528
                ]
            }
        },
        {
            "type": "Feature",
            "properties": {
                "ref:csioz": 1185742,
                "name": "Nasza Apteka",
                "addr:street": "Marszałka Józefa Piłsudskiego",
                "addr:housenumber": "21",
                "addr:city": "Skarżysko-Kamienna",
                "addr:postcode": "26-110",
                "amenity": "pharmacy"
            },
            "geometry": {
                "type": "Point",
                "coordinates": [
                    20.856739992072715,
                    51.11758011021978
                ]
            }
        },
        {
            "type": "Feature",
            "properties": {
                "ref:csioz": 1187624,
                "name": "Nasza Apteka",
                "addr:street": "Żeromskiego",
                "addr:housenumber": "31",
                "addr:city": "Skarżysko-Kamienna",
                "addr:postcode": "26-110",
                "amenity": "pharmacy"
            },
            "geometry": {
                "type": "Point",
                "coordinates": [
                    20.869116000002254,
                    51.11788900001411
                ]
            }
        },
        {
            "type": "Feature",
            "properties": {
                "ref:csioz": 1190799,
                "name": "Nasza Apteka",
                "addr:street": "1 Maja",
                "addr:housenumber": "65",
                "addr:city": "Skarżysko-Kamienna",
                "addr:postcode": "26-110",
                "amenity": "pharmacy"
            },
            "geometry": {
                "type": "Point",
                "coordinates": [
                    20.89247935656755,
                    51.11698368639156
                ]
            }
        },
        {
            "type": "Feature",
            "properties": {
                "ref:csioz": 1214189,
                "name": "Verbena",
                "addr:street": "VI Wieków Bliżyna",
                "addr:housenumber": "6",
                "addr:city": "Bliżyn",
                "addr:postcode": "26-120",
                "amenity": "pharmacy"
            },
            "geometry": {
                "type": "Point",
                "coordinates": [
                    20.762523936251476,
                    51.10614518482536
                ]
            }
        },
        {
            "type": "Feature",
            "properties": {
                "ref:csioz": 1216416,
                "name": "Doz Apteka Dbam O Zdrowie",
                "addr:street": "Sokola",
                "addr:housenumber": "17A",
                "addr:city": "Skarżysko-Kamienna",
                "addr:postcode": "26-100",
                "amenity": "pharmacy"
            },
            "geometry": {
                "type": "Point",
                "coordinates": [
                    20.875800911876244,
                    51.119438091110275
                ]
            }
        },
        {
            "type": "Feature",
            "properties": {
                "ref:csioz": 1123203,
                "name": "\"Zakład Opieki Długoterminowej \"\"Anna\"\" A. Koneczna-Barwicka, D. Sorbian Spółka Jawna\"",
                "addr:street": "Kościelna",
                "addr:housenumber": "16 A",
                "addr:city": "Skarżysko Kościelne",
                "addr:postcode": "26-115",
                "amenity": "pharmacy"
            },
            "geometry": {
                "type": "Point",
                "coordinates": [
                    20.911340987895997,
                    51.13500453384801
                ]
            }
        }
    ]
}