{
    "type": "FeatureCollection",
    "name": "JPT_KOD_JE_1814",
    "features": [
        {
            "type": "Feature",
            "properties": {
                "ref:csioz": 1138296,
                "name": "Apteka Szpitalna Spzoz",
                "addr:street": "Szpitalna",
                "addr:housenumber": "16",
                "addr:city": "Przeworsk",
                "addr:postcode": "37-200",
                "amenity": "pharmacy"
            },
            "geometry": {
                "type": "Point",
                "coordinates": [
                    22.47895951410002,
                    50.06486696370382
                ]
            }
        },
        {
            "type": "Feature",
            "properties": {
                "ref:csioz": 1140145,
                "name": "A-W-Med.",
                "addr:street": "Bernardyńska",
                "addr:housenumber": "1",
                "addr:city": "Przeworsk",
                "addr:postcode": "37-200",
                "amenity": "pharmacy"
            },
            "geometry": {
                "type": "Point",
                "coordinates": [
                    22.495984340909594,
                    50.056080685361366
                ]
            }
        },
        {
            "type": "Feature",
            "properties": {
                "ref:csioz": 1140159,
                "addr:street": "Konopnickiej",
                "addr:housenumber": "15",
                "addr:city": "Przeworsk",
                "addr:postcode": "37-200",
                "amenity": "pharmacy"
            },
            "geometry": {
                "type": "Point",
                "coordinates": [
                    22.490469223330276,
                    50.05961927815545
                ]
            }
        },
        {
            "type": "Feature",
            "properties": {
                "ref:csioz": 1140215,
                "name": "Przeworska",
                "addr:street": "Plac Mickiewicza",
                "addr:housenumber": "5",
                "addr:city": "Przeworsk",
                "addr:postcode": "37-200",
                "amenity": "pharmacy"
            },
            "geometry": {
                "type": "Point",
                "coordinates": [
                    22.495757215552086,
                    50.05644763290796
                ]
            }
        },
        {
            "type": "Feature",
            "properties": {
                "ref:csioz": 1140244,
                "addr:street": "Szpitalna",
                "addr:housenumber": "16",
                "addr:city": "Przeworsk",
                "addr:postcode": "37-200",
                "amenity": "pharmacy"
            },
            "geometry": {
                "type": "Point",
                "coordinates": [
                    22.47895951410002,
                    50.06486696370382
                ]
            }
        },
        {
            "type": "Feature",
            "properties": {
                "ref:csioz": 1140228,
                "name": "Dr.Max",
                "addr:street": "Rynek",
                "addr:housenumber": "20",
                "addr:city": "Przeworsk",
                "addr:postcode": "37-200",
                "amenity": "pharmacy"
            },
            "geometry": {
                "type": "Point",
                "coordinates": [
                    22.49297188888362,
                    50.057292544616246
                ]
            }
        },
        {
            "type": "Feature",
            "properties": {
                "ref:csioz": 1141327,
                "addr:street": "Węgierska",
                "addr:housenumber": "3",
                "addr:city": "Kańczuga",
                "addr:postcode": "37-220",
                "amenity": "pharmacy"
            },
            "geometry": {
                "type": "Point",
                "coordinates": [
                    22.41153514585903,
                    49.98250570890443
                ]
            }
        },
        {
            "type": "Feature",
            "properties": {
                "ref:csioz": 1141375,
                "addr:housenumber": "375",
                "addr:city": "Tryńcza",
                "addr:postcode": "37-204",
                "amenity": "pharmacy"
            },
            "geometry": {
                "type": "Point",
                "coordinates": [
                    22.552169952907203,
                    50.15830573500302
                ]
            }
        },
        {
            "type": "Feature",
            "properties": {
                "ref:csioz": 1141401,
                "addr:housenumber": "137A",
                "addr:city": "Białoboki",
                "addr:postcode": "37-207",
                "amenity": "pharmacy"
            },
            "geometry": {
                "type": "Point",
                "coordinates": [
                    22.385084944294135,
                    50.02689397009276
                ]
            }
        },
        {
            "type": "Feature",
            "properties": {
                "ref:csioz": 1141430,
                "name": "Twoje Zdrowie",
                "addr:housenumber": "139",
                "addr:city": "Manasterz",
                "addr:postcode": "37-232",
                "amenity": "pharmacy"
            },
            "geometry": {
                "type": "Point",
                "coordinates": [
                    22.347901825193016,
                    49.934428448239096
                ]
            }
        },
        {
            "type": "Feature",
            "properties": {
                "ref:csioz": 1141316,
                "name": "Kraina Leków",
                "addr:housenumber": "215",
                "addr:city": "Jawornik Polski",
                "addr:postcode": "37-232",
                "amenity": "pharmacy"
            },
            "geometry": {
                "type": "Point",
                "coordinates": [
                    22.284469358405772,
                    49.88946088208366
                ]
            }
        },
        {
            "type": "Feature",
            "properties": {
                "ref:csioz": 1165211,
                "name": "Im. A.Mańkowskiego Tadeusz Biernat",
                "addr:street": "Rynek",
                "addr:housenumber": "4a",
                "addr:city": "Sieniawa",
                "addr:postcode": "37-530",
                "amenity": "pharmacy"
            },
            "geometry": {
                "type": "Point",
                "coordinates": [
                    22.608796754995684,
                    50.17784571382181
                ]
            }
        },
        {
            "type": "Feature",
            "properties": {
                "ref:csioz": 1165233,
                "name": "Rupfarm",
                "addr:street": "Długa",
                "addr:housenumber": "2",
                "addr:city": "Zarzecze",
                "addr:postcode": "37-205",
                "amenity": "pharmacy"
            },
            "geometry": {
                "type": "Point",
                "coordinates": [
                    22.537079232156074,
                    49.98604394777233
                ]
            }
        },
        {
            "type": "Feature",
            "properties": {
                "ref:csioz": 1187282,
                "name": "Rodzinny",
                "addr:housenumber": "484",
                "addr:city": "Urzejowice",
                "addr:postcode": "37-200",
                "amenity": "pharmacy"
            },
            "geometry": {
                "type": "Point",
                "coordinates": [
                    22.462103513988815,
                    50.0098586737271
                ]
            }
        },
        {
            "type": "Feature",
            "properties": {
                "ref:csioz": 1230785,
                "addr:housenumber": "599",
                "addr:city": "Rozbórz",
                "addr:postcode": "37-200",
                "amenity": "pharmacy"
            },
            "geometry": {
                "type": "Point",
                "coordinates": [
                    22.544082389212686,
                    50.055546054845806
                ]
            }
        },
        {
            "type": "Feature",
            "properties": {
                "ref:csioz": 1225684,
                "name": "Niezapominajka Dla Całej Rodziny",
                "addr:street": "Ignacego Krasickiego",
                "addr:housenumber": "2",
                "addr:flats": "1",
                "addr:city": "Przeworsk",
                "addr:postcode": "37-200",
                "amenity": "pharmacy"
            },
            "geometry": {
                "type": "Point",
                "coordinates": [
                    22.495473565032885,
                    50.06034445811037
                ]
            }
        },
        {
            "type": "Feature",
            "properties": {
                "ref:csioz": 1186445,
                "name": "Rupfam",
                "addr:housenumber": "227",
                "addr:city": "Siennów",
                "addr:postcode": "37-205",
                "amenity": "pharmacy"
            },
            "geometry": {
                "type": "Point",
                "coordinates": [
                    22.488546079658683,
                    49.962689681097
                ]
            }
        },
        {
            "type": "Feature",
            "properties": {
                "ref:csioz": 1187028,
                "name": "Lafarma",
                "addr:street": "Rynek",
                "addr:housenumber": "23",
                "addr:city": "Kańczuga",
                "addr:postcode": "37-220",
                "amenity": "pharmacy"
            },
            "geometry": {
                "type": "Point",
                "coordinates": [
                    22.412037271179305,
                    49.98318470571603
                ]
            }
        },
        {
            "type": "Feature",
            "properties": {
                "ref:csioz": 1187296,
                "name": "Rodzinna",
                "addr:street": "Słowackiego",
                "addr:housenumber": "1a",
                "addr:city": "Kańczuga",
                "addr:postcode": "37-220",
                "amenity": "pharmacy"
            },
            "geometry": {
                "type": "Point",
                "coordinates": [
                    22.412342514142043,
                    49.98264488563515
                ]
            }
        },
        {
            "type": "Feature",
            "properties": {
                "ref:csioz": 1187309,
                "name": "Apteka Rodzinna W Galerii",
                "addr:street": "Węgierska",
                "addr:housenumber": "39A",
                "addr:city": "Kańczuga",
                "addr:postcode": "37-220",
                "amenity": "pharmacy"
            },
            "geometry": {
                "type": "Point",
                "coordinates": [
                    22.41190460691306,
                    49.97817610687183
                ]
            }
        },
        {
            "type": "Feature",
            "properties": {
                "ref:csioz": 1195874,
                "name": "Różana",
                "addr:street": "Lwowska",
                "addr:housenumber": "3",
                "addr:flats": "2",
                "addr:city": "Przeworsk",
                "addr:postcode": "37-200",
                "amenity": "pharmacy"
            },
            "geometry": {
                "type": "Point",
                "coordinates": [
                    22.496025417101553,
                    50.05717335370275
                ]
            }
        },
        {
            "type": "Feature",
            "properties": {
                "ref:csioz": 1200746,
                "name": "Moja Apteka",
                "addr:street": "Rynek",
                "addr:housenumber": "4C",
                "addr:city": "Sieniawa",
                "addr:postcode": "37-530",
                "amenity": "pharmacy"
            },
            "geometry": {
                "type": "Point",
                "coordinates": [
                    22.609299969472545,
                    50.17781516495191
                ]
            }
        },
        {
            "type": "Feature",
            "properties": {
                "ref:csioz": 1216985,
                "name": "\"Apteka 'Pod Gwiazdą'\"",
                "addr:street": "Ignacego Krasickiego",
                "addr:housenumber": "2F",
                "addr:city": "Przeworsk",
                "addr:postcode": "37-200",
                "amenity": "pharmacy"
            },
            "geometry": {
                "type": "Point",
                "coordinates": [
                    22.495181219794237,
                    50.05991936077907
                ]
            }
        },
        {
            "type": "Feature",
            "properties": {
                "ref:csioz": 1218947,
                "name": "Apteka Lafarma",
                "addr:street": "Kościuszki",
                "addr:housenumber": "2a",
                "addr:city": "Przeworsk",
                "addr:postcode": "37-200",
                "amenity": "pharmacy"
            },
            "geometry": {
                "type": "Point",
                "coordinates": [
                    22.495753438522744,
                    50.05751041027351
                ]
            }
        },
        {
            "type": "Feature",
            "properties": {
                "ref:csioz": 1218952,
                "name": "Apteka Lafarma",
                "addr:street": "Szpitalna",
                "addr:housenumber": "12",
                "addr:city": "Przeworsk",
                "addr:postcode": "37-200",
                "amenity": "pharmacy"
            },
            "geometry": {
                "type": "Point",
                "coordinates": [
                    22.47961384088848,
                    50.06286076416406
                ]
            }
        },
        {
            "type": "Feature",
            "properties": {
                "ref:csioz": 1219060,
                "name": "Kamelka",
                "addr:street": "Misiągiewicza",
                "addr:housenumber": "28",
                "addr:city": "Przeworsk",
                "addr:postcode": "37-200",
                "amenity": "pharmacy"
            },
            "geometry": {
                "type": "Point",
                "coordinates": [
                    22.507587739068523,
                    50.06005900518302
                ]
            }
        },
        {
            "type": "Feature",
            "properties": {
                "ref:csioz": 1220028,
                "name": "Apteka Lafarma",
                "addr:housenumber": "643",
                "addr:city": "Gniewczyna Łańcucka",
                "addr:postcode": "37-203",
                "amenity": "pharmacy"
            },
            "geometry": {
                "type": "Point",
                "coordinates": [
                    22.497026577929518,
                    50.10892211767411
                ]
            }
        },
        {
            "type": "Feature",
            "properties": {
                "ref:csioz": 1220031,
                "name": "Apteka Lafarma",
                "addr:street": "Józefa Piłsudskiego",
                "addr:housenumber": "6",
                "addr:city": "Sieniawa",
                "addr:postcode": "37-530",
                "amenity": "pharmacy"
            },
            "geometry": {
                "type": "Point",
                "coordinates": [
                    22.611670719823678,
                    50.17741176317883
                ]
            }
        },
        {
            "type": "Feature",
            "properties": {
                "ref:csioz": 1220619,
                "addr:street": "Kilińskiego",
                "addr:housenumber": "2",
                "addr:city": "Przeworsk",
                "addr:postcode": "37-200",
                "amenity": "pharmacy"
            },
            "geometry": {
                "type": "Point",
                "coordinates": [
                    22.496740340231774,
                    50.05657428765241
                ]
            }
        },
        {
            "type": "Feature",
            "properties": {
                "ref:csioz": 1221549,
                "name": "Medex",
                "addr:street": "Świętego Jana Pawła II",
                "addr:housenumber": "12",
                "addr:city": "Zarzecze",
                "addr:postcode": "37-205",
                "amenity": "pharmacy"
            },
            "geometry": {
                "type": "Point",
                "coordinates": [
                    22.537166548218686,
                    49.98765511626143
                ]
            }
        },
        {
            "type": "Feature",
            "properties": {
                "ref:csioz": 1222299,
                "name": "Apteka Słoneczko",
                "addr:street": "Lwowska",
                "addr:housenumber": "6",
                "addr:city": "Przeworsk",
                "addr:postcode": "37-200",
                "amenity": "pharmacy"
            },
            "geometry": {
                "type": "Point",
                "coordinates": [
                    22.496589353524897,
                    50.05737655010479
                ]
            }
        },
        {
            "type": "Feature",
            "properties": {
                "ref:csioz": 1227739,
                "name": "Rodzinny",
                "addr:housenumber": "96",
                "addr:city": "Sietesz",
                "addr:postcode": "37-206",
                "amenity": "pharmacy"
            },
            "geometry": {
                "type": "Point",
                "coordinates": [
                    22.355213538299815,
                    49.99917758195425
                ]
            }
        }
    ]
}