{
    "type": "FeatureCollection",
    "name": "JPT_KOD_JE_3262",
    "features": [
        {
            "type": "Feature",
            "properties": {
                "ref:csioz": 1126096,
                "name": "\"Apteka Cef@Rm 36,6 \"",
                "addr:street": "Joachima Lelewela",
                "addr:housenumber": "1",
                "addr:city": "Szczecin",
                "addr:postcode": "71-717",
                "amenity": "pharmacy",
                "dispensing": "yes"
            },
            "geometry": {
                "type": "Point",
                "coordinates": [
                    14.502619282534853,
                    53.442490764809115
                ]
            }
        },
        {
            "type": "Feature",
            "properties": {
                "ref:csioz": 1126147,
                "name": "Pogodna",
                "addr:street": "Adama Mickiewicza",
                "addr:housenumber": "101",
                "addr:city": "Szczecin",
                "addr:postcode": "71-281",
                "amenity": "pharmacy",
                "dispensing": "yes"
            },
            "geometry": {
                "type": "Point",
                "coordinates": [
                    14.510504260812834,
                    53.4417435953391
                ]
            }
        },
        {
            "type": "Feature",
            "properties": {
                "ref:csioz": 1140289,
                "name": "Libra",
                "addr:street": "Sebastiana Klonowica",
                "addr:housenumber": "11a",
                "addr:city": "Szczecin",
                "addr:postcode": "71-241",
                "amenity": "pharmacy",
                "dispensing": "yes"
            },
            "geometry": {
                "type": "Point",
                "coordinates": [
                    14.501996896024945,
                    53.451203720461784
                ]
            }
        },
        {
            "type": "Feature",
            "properties": {
                "ref:csioz": 1140304,
                "name": "Doz Apteka Dbam O Zdrowie",
                "addr:street": "Robotnicza",
                "addr:housenumber": "20a",
                "addr:city": "Szczecin",
                "addr:postcode": "71-712",
                "amenity": "pharmacy",
                "dispensing": "yes"
            },
            "geometry": {
                "type": "Point",
                "coordinates": [
                    14.581061716179263,
                    53.45881982451418
                ]
            }
        },
        {
            "type": "Feature",
            "properties": {
                "ref:csioz": 1147382,
                "addr:street": "Jagiellońska",
                "addr:housenumber": "44",
                "addr:city": "Szczecin",
                "addr:postcode": "70-382",
                "amenity": "pharmacy",
                "dispensing": "yes"
            },
            "geometry": {
                "type": "Point",
                "coordinates": [
                    14.524302105898458,
                    53.43460159635132
                ]
            }
        },
        {
            "type": "Feature",
            "properties": {
                "ref:csioz": 1147400,
                "addr:street": "Kaszubska",
                "addr:housenumber": "28",
                "addr:city": "Szczecin",
                "addr:postcode": "70-952",
                "amenity": "pharmacy",
                "dispensing": "yes"
            },
            "geometry": {
                "type": "Point",
                "coordinates": [
                    14.54792670925295,
                    53.423009959622185
                ]
            }
        },
        {
            "type": "Feature",
            "properties": {
                "ref:csioz": 1147396,
                "name": "109 Szpital Wojskowy Z Przychodnią - Samodzielny Publiczny Zakład Opieki Zdrowotnej",
                "addr:street": "ks. Piotra Skargi",
                "addr:housenumber": "9-11",
                "addr:city": "Szczecin",
                "addr:postcode": "71-422",
                "amenity": "pharmacy",
                "dispensing": "yes"
            },
            "geometry": {
                "type": "Point",
                "coordinates": [
                    14.541563404904375,
                    53.44280329835795
                ]
            }
        },
        {
            "type": "Feature",
            "properties": {
                "ref:csioz": 1151452,
                "name": "\"Apteka Cef@Rm 36,6 \"",
                "addr:street": "Wyzwolenia",
                "addr:housenumber": "11",
                "addr:city": "Szczecin",
                "addr:postcode": "70-552",
                "amenity": "pharmacy",
                "dispensing": "yes"
            },
            "geometry": {
                "type": "Point",
                "coordinates": [
                    14.553712999906251,
                    53.43054300002086
                ]
            }
        },
        {
            "type": "Feature",
            "properties": {
                "ref:csioz": 1151460,
                "name": "\"Apteka Cef@Rm 36,6\"",
                "addr:street": "Batalionów Chłopskich",
                "addr:housenumber": "56",
                "addr:city": "Szczecin",
                "addr:postcode": "70-770",
                "amenity": "pharmacy",
                "dispensing": "yes"
            },
            "geometry": {
                "type": "Point",
                "coordinates": [
                    14.636902060689307,
                    53.38312572812546
                ]
            }
        },
        {
            "type": "Feature",
            "properties": {
                "ref:csioz": 1151471,
                "name": "\"Apteka Cef@Rm 36,6\"",
                "addr:street": "św. Marcina",
                "addr:housenumber": "1",
                "addr:city": "Szczecin",
                "addr:postcode": "71-544",
                "amenity": "pharmacy",
                "dispensing": "yes"
            },
            "geometry": {
                "type": "Point",
                "coordinates": [
                    14.558733331014302,
                    53.44444736237916
                ]
            }
        },
        {
            "type": "Feature",
            "properties": {
                "ref:csioz": 1151813,
                "name": "Pod Filarami",
                "addr:street": "Jasna",
                "addr:housenumber": "3",
                "addr:city": "Szczecin",
                "addr:postcode": "70-777",
                "amenity": "pharmacy",
                "dispensing": "yes"
            },
            "geometry": {
                "type": "Point",
                "coordinates": [
                    14.653130938845267,
                    53.382121903849445
                ]
            }
        },
        {
            "type": "Feature",
            "properties": {
                "ref:csioz": 1151761,
                "addr:street": "Teofila Starzyńskiego",
                "addr:housenumber": "2",
                "addr:city": "Szczecin",
                "addr:postcode": "70-506",
                "amenity": "pharmacy",
                "dispensing": "yes"
            },
            "geometry": {
                "type": "Point",
                "coordinates": [
                    14.560033248839897,
                    53.42961512306331
                ]
            }
        },
        {
            "type": "Feature",
            "properties": {
                "ref:csioz": 1151773,
                "name": "Leśna",
                "addr:street": "Bałtycka",
                "addr:housenumber": "33",
                "addr:city": "Szczecin",
                "addr:postcode": "70-880",
                "amenity": "pharmacy",
                "dispensing": "yes"
            },
            "geometry": {
                "type": "Point",
                "coordinates": [
                    14.765303951761116,
                    53.39272565794312
                ]
            }
        },
        {
            "type": "Feature",
            "properties": {
                "ref:csioz": 1151785,
                "name": "Modra",
                "addr:street": "Modra",
                "addr:housenumber": "33",
                "addr:city": "Szczecin",
                "addr:postcode": "71-220",
                "amenity": "pharmacy",
                "dispensing": "yes"
            },
            "geometry": {
                "type": "Point",
                "coordinates": [
                    14.47537648485769,
                    53.45413473581256
                ]
            }
        },
        {
            "type": "Feature",
            "properties": {
                "ref:csioz": 1151799,
                "name": "Apteka Na Zakolu",
                "addr:street": "Fryderyka Chopina",
                "addr:housenumber": "22",
                "addr:city": "Szczecin",
                "addr:postcode": "71-450",
                "amenity": "pharmacy",
                "dispensing": "yes"
            },
            "geometry": {
                "type": "Point",
                "coordinates": [
                    14.534749253963419,
                    53.4553798715439
                ]
            }
        },
        {
            "type": "Feature",
            "properties": {
                "ref:csioz": 1151800,
                "name": "Panaceum",
                "addr:street": "Staromłyńska",
                "addr:housenumber": "21",
                "addr:city": "Szczecin",
                "addr:postcode": "70-561",
                "amenity": "pharmacy",
                "dispensing": "yes"
            },
            "geometry": {
                "type": "Point",
                "coordinates": [
                    14.554873999906306,
                    53.42725800002085
                ]
            }
        },
        {
            "type": "Feature",
            "properties": {
                "ref:csioz": 1151988,
                "addr:street": "Łucznicza",
                "addr:housenumber": "64",
                "addr:city": "Szczecin",
                "addr:postcode": "71-472",
                "amenity": "pharmacy",
                "dispensing": "yes"
            },
            "geometry": {
                "type": "Point",
                "coordinates": [
                    14.547867220356162,
                    53.453749586297704
                ]
            }
        },
        {
            "type": "Feature",
            "properties": {
                "ref:csioz": 1151991,
                "name": "Flo-Mar",
                "addr:street": "Ku Słońcu",
                "addr:housenumber": "43",
                "addr:city": "Szczecin",
                "addr:postcode": "71-046",
                "amenity": "pharmacy",
                "dispensing": "yes"
            },
            "geometry": {
                "type": "Point",
                "coordinates": [
                    14.497397539795335,
                    53.42256715790386
                ]
            }
        },
        {
            "type": "Feature",
            "properties": {
                "ref:csioz": 1152003,
                "name": "Medicament",
                "addr:street": "bł. Wincentego Kadłubka",
                "addr:housenumber": "10",
                "addr:city": "Szczecin",
                "addr:postcode": "71-521",
                "amenity": "pharmacy",
                "dispensing": "yes"
            },
            "geometry": {
                "type": "Point",
                "coordinates": [
                    14.552868602720938,
                    53.445353273331605
                ]
            }
        },
        {
            "type": "Feature",
            "properties": {
                "ref:csioz": 1152088,
                "name": "Doz Apteka. Dbam O Zdrowie. Przyjazna",
                "addr:street": "Emilii Gierczak",
                "addr:housenumber": "24/25",
                "addr:city": "Szczecin",
                "addr:postcode": "70-825",
                "amenity": "pharmacy",
                "dispensing": "yes"
            },
            "geometry": {
                "type": "Point",
                "coordinates": [
                    14.667191999916342,
                    53.396100000020255
                ]
            }
        },
        {
            "type": "Feature",
            "properties": {
                "ref:csioz": 1152167,
                "name": "Apteka Im. Łukasiewicza",
                "addr:street": "Niemierzyńska",
                "addr:housenumber": "11",
                "addr:city": "Szczecin",
                "addr:postcode": "71-436",
                "amenity": "pharmacy",
                "dispensing": "yes"
            },
            "geometry": {
                "type": "Point",
                "coordinates": [
                    14.541301814189293,
                    53.44671525852729
                ]
            }
        },
        {
            "type": "Feature",
            "properties": {
                "ref:csioz": 1152218,
                "name": "Super-Pharm",
                "addr:street": "Wyzwolenia",
                "addr:housenumber": "18",
                "addr:city": "Szczecin",
                "addr:postcode": "70-532",
                "amenity": "pharmacy",
                "dispensing": "yes"
            },
            "geometry": {
                "type": "Point",
                "coordinates": [
                    14.55494242100233,
                    53.433641506061626
                ]
            }
        },
        {
            "type": "Feature",
            "properties": {
                "ref:csioz": 1152315,
                "name": "Na Pętli",
                "addr:street": "Kwiatowa",
                "addr:housenumber": "5",
                "addr:city": "Szczecin",
                "addr:postcode": "71-045",
                "amenity": "pharmacy",
                "dispensing": "yes"
            },
            "geometry": {
                "type": "Point",
                "coordinates": [
                    14.490189991163989,
                    53.42346860846894
                ]
            }
        },
        {
            "type": "Feature",
            "properties": {
                "ref:csioz": 1152344,
                "name": "Pod Asklepiosem",
                "addr:street": "Emila Zegadłowicza",
                "addr:housenumber": "4",
                "addr:city": "Szczecin",
                "addr:postcode": "71-370",
                "amenity": "pharmacy",
                "dispensing": "yes"
            },
            "geometry": {
                "type": "Point",
                "coordinates": [
                    14.485439808765785,
                    53.47540435693577
                ]
            }
        },
        {
            "type": "Feature",
            "properties": {
                "ref:csioz": 1152462,
                "name": "Dbam O Zdrowie",
                "addr:street": "Wojska Polskiego",
                "addr:housenumber": "28",
                "addr:city": "Szczecin",
                "addr:postcode": "70-475",
                "amenity": "pharmacy",
                "dispensing": "yes"
            },
            "geometry": {
                "type": "Point",
                "coordinates": [
                    14.542797580422187,
                    53.42913408223536
                ]
            }
        },
        {
            "type": "Feature",
            "properties": {
                "ref:csioz": 1164323,
                "name": "Turzynka",
                "addr:street": "Bolesława Krzywoustego",
                "addr:housenumber": "29",
                "addr:city": "Szczecin",
                "addr:postcode": "70-316",
                "amenity": "pharmacy",
                "dispensing": "yes"
            },
            "geometry": {
                "type": "Point",
                "coordinates": [
                    14.532593262876217,
                    53.42811092278214
                ]
            }
        },
        {
            "type": "Feature",
            "properties": {
                "ref:csioz": 1164975,
                "name": "Apteka Rubinowa",
                "addr:street": "Antoniego Ledóchowskiego",
                "addr:housenumber": "16",
                "addr:city": "Szczecin",
                "addr:postcode": "71-004",
                "amenity": "pharmacy",
                "dispensing": "yes"
            },
            "geometry": {
                "type": "Point",
                "coordinates": [
                    14.500248992704694,
                    53.406117307902655
                ]
            }
        },
        {
            "type": "Feature",
            "properties": {
                "ref:csioz": 1164991,
                "name": "Centrum Narodzian Mamma",
                "addr:street": "Sowia",
                "addr:housenumber": "38",
                "addr:city": "Szczecin",
                "addr:postcode": "70-792",
                "amenity": "pharmacy",
                "dispensing": "yes"
            },
            "geometry": {
                "type": "Point",
                "coordinates": [
                    14.694321573692342,
                    53.37507683802691
                ]
            }
        },
        {
            "type": "Feature",
            "properties": {
                "ref:csioz": 1165458,
                "addr:street": "Arkońska",
                "addr:housenumber": "4",
                "addr:city": "Szczecin",
                "addr:postcode": "71-455",
                "amenity": "pharmacy",
                "dispensing": "yes"
            },
            "geometry": {
                "type": "Point",
                "coordinates": [
                    14.526182498195315,
                    53.45213256867226
                ]
            }
        },
        {
            "type": "Feature",
            "properties": {
                "ref:csioz": 1165636,
                "name": "Hebeapteka",
                "addr:street": "Wiosenna",
                "addr:housenumber": "32",
                "addr:city": "Szczecin",
                "addr:postcode": "70-473",
                "amenity": "pharmacy",
                "dispensing": "yes"
            },
            "geometry": {
                "type": "Point",
                "coordinates": [
                    14.661419113681566,
                    53.38568618874864
                ]
            }
        },
        {
            "type": "Feature",
            "properties": {
                "ref:csioz": 1166081,
                "name": "Zdrowie",
                "addr:street": "bł. Wincentego Kadłubka",
                "addr:housenumber": "39",
                "addr:city": "Szczecin",
                "addr:postcode": "71-520",
                "amenity": "pharmacy",
                "dispensing": "yes"
            },
            "geometry": {
                "type": "Point",
                "coordinates": [
                    14.553815750590724,
                    53.443760756224314
                ]
            }
        },
        {
            "type": "Feature",
            "properties": {
                "ref:csioz": 1166687,
                "name": "Libra",
                "addr:street": "9 Maja",
                "addr:housenumber": "11",
                "addr:city": "Szczecin",
                "addr:postcode": "70-136",
                "amenity": "pharmacy",
                "dispensing": "yes"
            },
            "geometry": {
                "type": "Point",
                "coordinates": [
                    14.519609880376292,
                    53.40267413769732
                ]
            }
        },
        {
            "type": "Feature",
            "properties": {
                "ref:csioz": 1167156,
                "name": "Bałtycka",
                "addr:street": "Adama Mickiewicza",
                "addr:housenumber": "128a",
                "addr:city": "Szczecin",
                "addr:postcode": "71-140",
                "amenity": "pharmacy",
                "dispensing": "yes"
            },
            "geometry": {
                "type": "Point",
                "coordinates": [
                    14.509821212159503,
                    53.44145605045367
                ]
            }
        },
        {
            "type": "Feature",
            "properties": {
                "ref:csioz": 1167162,
                "name": "Eliksir",
                "addr:street": "Hrubieszowska",
                "addr:housenumber": "16",
                "addr:city": "Szczecin",
                "addr:postcode": "71-047",
                "amenity": "pharmacy",
                "dispensing": "yes"
            },
            "geometry": {
                "type": "Point",
                "coordinates": [
                    14.4830157992991,
                    53.424589975273186
                ]
            }
        },
        {
            "type": "Feature",
            "properties": {
                "ref:csioz": 1167170,
                "name": "\"Apteka Cef@Rm 36,6\"",
                "addr:street": "Lucjana Rydla",
                "addr:housenumber": "50",
                "addr:city": "Szczecin",
                "addr:postcode": "70-783",
                "amenity": "pharmacy",
                "dispensing": "yes"
            },
            "geometry": {
                "type": "Point",
                "coordinates": [
                    14.656739198367278,
                    53.381653718301585
                ]
            }
        },
        {
            "type": "Feature",
            "properties": {
                "ref:csioz": 1167197,
                "name": "Apteka Puls",
                "addr:street": "Warcisława I",
                "addr:housenumber": "27a",
                "addr:city": "Szczecin",
                "addr:postcode": "71-667",
                "amenity": "pharmacy",
                "dispensing": "yes"
            },
            "geometry": {
                "type": "Point",
                "coordinates": [
                    14.549750836644867,
                    53.45364793039623
                ]
            }
        },
        {
            "type": "Feature",
            "properties": {
                "ref:csioz": 1167490,
                "name": "Alfa",
                "addr:street": "Bazarowa",
                "addr:housenumber": "26",
                "addr:city": "Szczecin",
                "addr:postcode": "71-614",
                "amenity": "pharmacy",
                "dispensing": "yes"
            },
            "geometry": {
                "type": "Point",
                "coordinates": [
                    14.557942503374456,
                    53.43676669058877
                ]
            }
        },
        {
            "type": "Feature",
            "properties": {
                "ref:csioz": 1167509,
                "name": "Zdrowie",
                "addr:street": "Piastów",
                "addr:housenumber": "16",
                "addr:city": "Szczecin",
                "addr:postcode": "70-333",
                "amenity": "pharmacy",
                "dispensing": "yes"
            },
            "geometry": {
                "type": "Point",
                "coordinates": [
                    14.536750931343134,
                    53.4276261711409
                ]
            }
        },
        {
            "type": "Feature",
            "properties": {
                "ref:csioz": 1167711,
                "name": "Przy Kortach",
                "addr:street": "Wojska Polskiego",
                "addr:housenumber": "134",
                "addr:city": "Szczecin",
                "addr:postcode": "70-490",
                "amenity": "pharmacy",
                "dispensing": "yes"
            },
            "geometry": {
                "type": "Point",
                "coordinates": [
                    14.527987683423472,
                    53.4424774146786
                ]
            }
        },
        {
            "type": "Feature",
            "properties": {
                "ref:csioz": 1167733,
                "name": "Pod Paprocią",
                "addr:street": "Włościańska",
                "addr:housenumber": "1",
                "addr:city": "Szczecin",
                "addr:postcode": "70-021",
                "amenity": "pharmacy",
                "dispensing": "yes"
            },
            "geometry": {
                "type": "Point",
                "coordinates": [
                    14.52571815931981,
                    53.39790521254521
                ]
            }
        },
        {
            "type": "Feature",
            "properties": {
                "ref:csioz": 1167722,
                "name": "Pod Orłem",
                "addr:street": "5 Lipca",
                "addr:housenumber": "36b",
                "addr:city": "Szczecin",
                "addr:postcode": "70-375",
                "amenity": "pharmacy",
                "dispensing": "yes"
            },
            "geometry": {
                "type": "Point",
                "coordinates": [
                    14.531966912602824,
                    53.43519577586842
                ]
            }
        },
        {
            "type": "Feature",
            "properties": {
                "ref:csioz": 1167899,
                "name": "Apteka Z Sercem",
                "addr:street": "Bolesława Krzywoustego",
                "addr:housenumber": "9-10",
                "addr:city": "Szczecin",
                "addr:postcode": "70-250",
                "amenity": "pharmacy",
                "dispensing": "yes"
            },
            "geometry": {
                "type": "Point",
                "coordinates": [
                    14.542347631216137,
                    53.42657605427794
                ]
            }
        },
        {
            "type": "Feature",
            "properties": {
                "ref:csioz": 1168096,
                "name": "Medica 2",
                "addr:street": "ks. Hugona Kołłątaja",
                "addr:housenumber": "27",
                "addr:city": "Szczecin",
                "addr:postcode": "71-525",
                "amenity": "pharmacy",
                "dispensing": "yes"
            },
            "geometry": {
                "type": "Point",
                "coordinates": [
                    14.549180065291374,
                    53.4458327935987
                ]
            }
        },
        {
            "type": "Feature",
            "properties": {
                "ref:csioz": 1168473,
                "name": "Podjuchy",
                "addr:street": "Wolności",
                "addr:housenumber": "5",
                "addr:city": "Szczecin",
                "addr:postcode": "70-748",
                "amenity": "pharmacy",
                "dispensing": "yes"
            },
            "geometry": {
                "type": "Point",
                "coordinates": [
                    14.599867574034718,
                    53.36853183762637
                ]
            }
        },
        {
            "type": "Feature",
            "properties": {
                "ref:csioz": 1168281,
                "name": "Na Warszewie",
                "addr:street": "Duńska",
                "addr:housenumber": "66",
                "addr:city": "Szczecin",
                "addr:postcode": "71-771",
                "amenity": "pharmacy",
                "dispensing": "yes"
            },
            "geometry": {
                "type": "Point",
                "coordinates": [
                    14.541764584482385,
                    53.462275320963066
                ]
            }
        },
        {
            "type": "Feature",
            "properties": {
                "ref:csioz": 1168461,
                "name": "Apteka Na Skarpie",
                "addr:street": "Metalowa",
                "addr:housenumber": "6",
                "addr:city": "Szczecin",
                "addr:postcode": "70-744",
                "amenity": "pharmacy",
                "dispensing": "yes"
            },
            "geometry": {
                "type": "Point",
                "coordinates": [
                    14.598046653822244,
                    53.36748467939667
                ]
            }
        },
        {
            "type": "Feature",
            "properties": {
                "ref:csioz": 1168653,
                "name": "Eureka",
                "addr:street": "Stanisława Dubois",
                "addr:housenumber": "1",
                "addr:city": "Szczecin",
                "addr:postcode": "71-610",
                "amenity": "pharmacy",
                "dispensing": "yes"
            },
            "geometry": {
                "type": "Point",
                "coordinates": [
                    14.569277811266794,
                    53.436886383218976
                ]
            }
        },
        {
            "type": "Feature",
            "properties": {
                "ref:csioz": 1168666,
                "name": "Euro-Apteka",
                "addr:street": "Milczańska",
                "addr:housenumber": "31F",
                "addr:city": "Szczecin",
                "addr:postcode": "70-107",
                "amenity": "pharmacy",
                "dispensing": "yes"
            },
            "geometry": {
                "type": "Point",
                "coordinates": [
                    14.517845177591731,
                    53.40708177844582
                ]
            }
        },
        {
            "type": "Feature",
            "properties": {
                "ref:csioz": 1168851,
                "addr:street": "Stołczyńska",
                "addr:housenumber": "105",
                "addr:city": "Szczecin",
                "addr:postcode": "71-869",
                "amenity": "pharmacy",
                "dispensing": "yes"
            },
            "geometry": {
                "type": "Point",
                "coordinates": [
                    14.613769676287607,
                    53.517014151385936
                ]
            }
        },
        {
            "type": "Feature",
            "properties": {
                "ref:csioz": 1169004,
                "name": "Amicus",
                "addr:street": "Jagiellońska",
                "addr:housenumber": "34a",
                "addr:city": "Szczecin",
                "addr:postcode": "70-382",
                "amenity": "pharmacy",
                "dispensing": "yes"
            },
            "geometry": {
                "type": "Point",
                "coordinates": [
                    14.530861727915937,
                    53.433662060508574
                ]
            }
        },
        {
            "type": "Feature",
            "properties": {
                "ref:csioz": 1169020,
                "name": "Galenica",
                "addr:street": "Przyjaciół Żołnierza",
                "addr:housenumber": "39",
                "addr:city": "Szczecin",
                "addr:postcode": "71-670",
                "amenity": "pharmacy",
                "dispensing": "yes"
            },
            "geometry": {
                "type": "Point",
                "coordinates": [
                    14.558736984228473,
                    53.453165195248
                ]
            }
        },
        {
            "type": "Feature",
            "properties": {
                "ref:csioz": 1169169,
                "name": "Europejska",
                "addr:street": "Niepodległości",
                "addr:housenumber": "36",
                "addr:city": "Szczecin",
                "addr:postcode": "70-404",
                "amenity": "pharmacy",
                "dispensing": "yes"
            },
            "geometry": {
                "type": "Point",
                "coordinates": [
                    14.55160582175676,
                    53.42848788698099
                ]
            }
        },
        {
            "type": "Feature",
            "properties": {
                "ref:csioz": 1169175,
                "name": "Dbam O Zdrowie",
                "addr:street": "Unii Lubelskiej",
                "addr:housenumber": "1",
                "addr:city": "Szczecin",
                "addr:postcode": "71-252",
                "amenity": "pharmacy",
                "dispensing": "yes"
            },
            "geometry": {
                "type": "Point",
                "coordinates": [
                    14.50499499990176,
                    53.44964400002115
                ]
            }
        },
        {
            "type": "Feature",
            "properties": {
                "ref:csioz": 1169188,
                "name": "Dbam O Zdrowie",
                "addr:street": "Lucjana Rydla",
                "addr:housenumber": "51",
                "addr:city": "Szczecin",
                "addr:postcode": "70-783",
                "amenity": "pharmacy",
                "dispensing": "yes"
            },
            "geometry": {
                "type": "Point",
                "coordinates": [
                    14.655164761514117,
                    53.38220049609591
                ]
            }
        },
        {
            "type": "Feature",
            "properties": {
                "ref:csioz": 1170705,
                "name": "\"'Apteki Centrum - Szczecińskie Centrum Leków'\"",
                "addr:street": "Rostocka",
                "addr:housenumber": "15",
                "addr:city": "Szczecin",
                "addr:postcode": "71-779",
                "amenity": "pharmacy",
                "dispensing": "yes"
            },
            "geometry": {
                "type": "Point",
                "coordinates": [
                    14.572181754545952,
                    53.43633140520139
                ]
            }
        },
        {
            "type": "Feature",
            "properties": {
                "ref:csioz": 1180636,
                "name": "Apteka Gemini",
                "addr:street": "marsz. Józefa Piłsudskiego",
                "addr:housenumber": "1a",
                "addr:city": "Szczecin",
                "addr:postcode": "71-432",
                "amenity": "pharmacy",
                "dispensing": "yes"
            },
            "geometry": {
                "type": "Point",
                "coordinates": [
                    14.553823290177265,
                    53.43226757050507
                ]
            }
        },
        {
            "type": "Feature",
            "properties": {
                "ref:csioz": 1178766,
                "name": "Apteka Zdrowie",
                "addr:street": "Santocka",
                "addr:housenumber": "18",
                "addr:city": "Szczecin",
                "addr:postcode": "71-113",
                "amenity": "pharmacy",
                "dispensing": "yes"
            },
            "geometry": {
                "type": "Point",
                "coordinates": [
                    14.572635435800848,
                    53.43688170871619
                ]
            }
        },
        {
            "type": "Feature",
            "properties": {
                "ref:csioz": 1187258,
                "name": "Dom Leków",
                "addr:street": "Teofila Firlika",
                "addr:housenumber": "42",
                "addr:city": "Szczecin",
                "addr:postcode": "71-637",
                "amenity": "pharmacy",
                "dispensing": "yes"
            },
            "geometry": {
                "type": "Point",
                "coordinates": [
                    14.57314426741903,
                    53.441357992409685
                ]
            }
        },
        {
            "type": "Feature",
            "properties": {
                "ref:csioz": 1188247,
                "name": "Dom Leków",
                "addr:street": "Lucjana Rydla",
                "addr:housenumber": "38",
                "addr:city": "Szczecin",
                "addr:postcode": "70-783",
                "amenity": "pharmacy",
                "dispensing": "yes"
            },
            "geometry": {
                "type": "Point",
                "coordinates": [
                    14.656129875216541,
                    53.37830974766638
                ]
            }
        },
        {
            "type": "Feature",
            "properties": {
                "ref:csioz": 1192052,
                "name": "Doz Apteka. Dbam O Zdrowie. Apteka Stoczniowa",
                "addr:street": "Stanisława Dubois",
                "addr:housenumber": "27",
                "addr:city": "Szczecin",
                "addr:postcode": "71-610",
                "amenity": "pharmacy",
                "dispensing": "yes"
            },
            "geometry": {
                "type": "Point",
                "coordinates": [
                    14.575854010233698,
                    53.43765699848097
                ]
            }
        },
        {
            "type": "Feature",
            "properties": {
                "ref:csioz": 1192603,
                "name": "Apteka Z Sercem",
                "addr:street": "św. Barbary",
                "addr:housenumber": "1A",
                "addr:city": "Szczecin",
                "addr:postcode": "71-516",
                "amenity": "pharmacy",
                "dispensing": "yes"
            },
            "geometry": {
                "type": "Point",
                "coordinates": [
                    14.549225240333127,
                    53.44409158977416
                ]
            }
        },
        {
            "type": "Feature",
            "properties": {
                "ref:csioz": 1200847,
                "name": "Apteka Portowa",
                "addr:street": "Łukasińskiego",
                "addr:housenumber": "110d",
                "addr:city": "Szczecin",
                "addr:postcode": "71-215",
                "amenity": "pharmacy",
                "dispensing": "yes"
            },
            "geometry": {
                "type": "Point",
                "coordinates": [
                    14.479072263623316,
                    53.43990171546905
                ]
            }
        },
        {
            "type": "Feature",
            "properties": {
                "ref:csioz": 1214713,
                "name": "Centrum Zdrowia",
                "addr:street": "Wojska Polskiego",
                "addr:housenumber": "63",
                "addr:city": "Szczecin",
                "addr:postcode": "70-476",
                "amenity": "pharmacy",
                "dispensing": "yes"
            },
            "geometry": {
                "type": "Point",
                "coordinates": [
                    14.540827570128663,
                    53.432717118996166
                ]
            }
        },
        {
            "type": "Feature",
            "properties": {
                "ref:csioz": 1217852,
                "name": "Świat Zdrowia",
                "addr:street": "Karola Miarki",
                "addr:housenumber": "3A",
                "addr:city": "Szczecin",
                "addr:postcode": "71-076",
                "amenity": "pharmacy",
                "dispensing": "yes"
            },
            "geometry": {
                "type": "Point",
                "coordinates": [
                    14.515588096616677,
                    53.42126080801361
                ]
            }
        },
        {
            "type": "Feature",
            "properties": {
                "ref:csioz": 1218649,
                "name": "Apteka Efekt",
                "addr:street": "Jana Karola Chodkiewicza",
                "addr:housenumber": "6A",
                "addr:city": "Szczecin",
                "addr:postcode": "70-344",
                "amenity": "pharmacy",
                "dispensing": "yes"
            },
            "geometry": {
                "type": "Point",
                "coordinates": [
                    14.53445635168009,
                    53.42982002730196
                ]
            }
        },
        {
            "type": "Feature",
            "properties": {
                "ref:csioz": 1126219,
                "name": "Apteka Potulicka",
                "addr:street": "Potulicka",
                "addr:housenumber": "19",
                "addr:city": "Szczecin",
                "addr:postcode": "70-234",
                "amenity": "pharmacy",
                "dispensing": "yes"
            },
            "geometry": {
                "type": "Point",
                "coordinates": [
                    14.543175375544324,
                    53.41588713436982
                ]
            }
        },
        {
            "type": "Feature",
            "properties": {
                "ref:csioz": 1136214,
                "name": "Hospicjum Św. Jana Ewangelisty",
                "addr:street": "Pokoju",
                "addr:housenumber": "77",
                "addr:city": "Szczecin",
                "addr:postcode": "71-740",
                "amenity": "pharmacy",
                "dispensing": "yes"
            },
            "geometry": {
                "type": "Point",
                "coordinates": [
                    14.587886397160652,
                    53.468569292551784
                ]
            }
        },
        {
            "type": "Feature",
            "properties": {
                "ref:csioz": 1137194,
                "name": "Dom Lekarski",
                "addr:street": "Witolda Gombrowicza",
                "addr:housenumber": "23",
                "addr:city": "Szczecin",
                "addr:postcode": "70-785",
                "amenity": "pharmacy",
                "dispensing": "yes"
            },
            "geometry": {
                "type": "Point",
                "coordinates": [
                    14.662551030108261,
                    53.378038452093065
                ]
            }
        },
        {
            "type": "Feature",
            "properties": {
                "ref:csioz": 1147273,
                "addr:street": "Unii Lubelskiej",
                "addr:housenumber": "1",
                "addr:city": "Szczecin",
                "addr:postcode": "71-252",
                "amenity": "pharmacy",
                "dispensing": "yes"
            },
            "geometry": {
                "type": "Point",
                "coordinates": [
                    14.50499499990176,
                    53.44961400002115
                ]
            }
        },
        {
            "type": "Feature",
            "properties": {
                "ref:csioz": 1147299,
                "addr:street": "Powstańców Wielkopolskich",
                "addr:housenumber": "72",
                "addr:city": "Szczecin",
                "addr:postcode": "70-111",
                "amenity": "pharmacy",
                "dispensing": "yes"
            },
            "geometry": {
                "type": "Point",
                "coordinates": [
                    14.529713783515302,
                    53.408416732030126
                ]
            }
        },
        {
            "type": "Feature",
            "properties": {
                "ref:csioz": 1147317,
                "addr:street": "Mączna",
                "addr:housenumber": "4",
                "addr:city": "Szczecin",
                "addr:postcode": "70-780",
                "amenity": "pharmacy",
                "dispensing": "yes"
            },
            "geometry": {
                "type": "Point",
                "coordinates": [
                    14.644112317785439,
                    53.373196074381816
                ]
            }
        },
        {
            "type": "Feature",
            "properties": {
                "ref:csioz": 1147330,
                "addr:street": "Alfreda Sokołowskiego",
                "addr:housenumber": "11",
                "addr:city": "Szczecin",
                "addr:postcode": "70-891",
                "amenity": "pharmacy",
                "dispensing": "yes"
            },
            "geometry": {
                "type": "Point",
                "coordinates": [
                    14.76777135680138,
                    53.379449247559755
                ]
            }
        },
        {
            "type": "Feature",
            "properties": {
                "ref:csioz": 1147358,
                "addr:street": "Strzałowska",
                "addr:housenumber": "22",
                "addr:city": "Szczecin",
                "addr:postcode": "71-730",
                "amenity": "pharmacy",
                "dispensing": "yes"
            },
            "geometry": {
                "type": "Point",
                "coordinates": [
                    14.591777084084791,
                    53.46786962911613
                ]
            }
        },
        {
            "type": "Feature",
            "properties": {
                "ref:csioz": 1147374,
                "addr:street": "Wojska Polskiego",
                "addr:housenumber": "92",
                "addr:city": "Szczecin",
                "addr:postcode": "70-526",
                "amenity": "pharmacy",
                "dispensing": "yes"
            },
            "geometry": {
                "type": "Point",
                "coordinates": [
                    14.53500887504954,
                    53.4384619606108
                ]
            }
        },
        {
            "type": "Feature",
            "properties": {
                "ref:csioz": 1151697,
                "name": "Alfa",
                "addr:street": "Andrzeja Struga",
                "addr:housenumber": "18",
                "addr:city": "Szczecin",
                "addr:postcode": "70-784",
                "amenity": "pharmacy",
                "dispensing": "yes"
            },
            "geometry": {
                "type": "Point",
                "coordinates": [
                    14.660764321235002,
                    53.38273670097077
                ]
            }
        },
        {
            "type": "Feature",
            "properties": {
                "ref:csioz": 1151439,
                "name": "\"Apteka Cef@Rm 36,6\"",
                "addr:street": "Jagiellońska",
                "addr:housenumber": "16a",
                "addr:city": "Szczecin",
                "addr:postcode": "70-362",
                "amenity": "pharmacy",
                "dispensing": "yes"
            },
            "geometry": {
                "type": "Point",
                "coordinates": [
                    14.541931319539497,
                    53.43150744733464
                ]
            }
        },
        {
            "type": "Feature",
            "properties": {
                "ref:csioz": 1151447,
                "name": "\"Apteka Cef@Rm 36,6\"",
                "addr:street": "ks. bp. Adama Naruszewicza",
                "addr:housenumber": "11",
                "addr:city": "Szczecin",
                "addr:postcode": "71-556",
                "amenity": "pharmacy",
                "dispensing": "yes"
            },
            "geometry": {
                "type": "Point",
                "coordinates": [
                    14.549840936253446,
                    53.44761248756
                ]
            }
        },
        {
            "type": "Feature",
            "properties": {
                "ref:csioz": 1151483,
                "name": "\"Apteka Cef@Rm 36,6\"",
                "addr:street": "Papieża Jana Pawła II",
                "addr:housenumber": "42",
                "addr:city": "Szczecin",
                "addr:postcode": "70-427",
                "amenity": "pharmacy",
                "dispensing": "yes"
            },
            "geometry": {
                "type": "Point",
                "coordinates": [
                    14.548561218087697,
                    53.43191356664861
                ]
            }
        },
        {
            "type": "Feature",
            "properties": {
                "ref:csioz": 1151494,
                "name": "\"Apteka Cef@Rm 36,6 \"",
                "addr:street": "Stanisława Więckowskiego",
                "addr:housenumber": "1",
                "addr:city": "Szczecin",
                "addr:postcode": "70-411",
                "amenity": "pharmacy",
                "dispensing": "yes"
            },
            "geometry": {
                "type": "Point",
                "coordinates": [
                    14.546737897045483,
                    53.42670791922972
                ]
            }
        },
        {
            "type": "Feature",
            "properties": {
                "ref:csioz": 1151507,
                "name": "\"Apteka Cef@Rm 36,6\"",
                "addr:street": "Ku Słońcu",
                "addr:housenumber": "22d",
                "addr:city": "Szczecin",
                "addr:postcode": "71-073",
                "amenity": "pharmacy",
                "dispensing": "yes"
            },
            "geometry": {
                "type": "Point",
                "coordinates": [
                    14.523364983590053,
                    53.42152567050199
                ]
            }
        },
        {
            "type": "Feature",
            "properties": {
                "ref:csioz": 1151529,
                "name": "\"Apteka Cef@Rm 36,6\"",
                "addr:street": "ks. kard. Stefana Wyszyńskiego",
                "addr:housenumber": "17",
                "addr:city": "Szczecin",
                "addr:postcode": "70-203",
                "amenity": "pharmacy",
                "dispensing": "yes"
            },
            "geometry": {
                "type": "Point",
                "coordinates": [
                    14.554726686153,
                    53.42461384486937
                ]
            }
        },
        {
            "type": "Feature",
            "properties": {
                "ref:csioz": 1151670,
                "name": "Centrum Zdrowia",
                "addr:street": "Zofii Nałkowskiej",
                "addr:housenumber": "8/U7 i 6/US-6",
                "addr:city": "Szczecin",
                "addr:postcode": "70-785",
                "amenity": "pharmacy",
                "dispensing": "yes"
            },
            "geometry": {
                "type": "Point",
                "coordinates": [
                    14.663890999915692,
                    53.373662000020246
                ]
            }
        },
        {
            "type": "Feature",
            "properties": {
                "ref:csioz": 1151720,
                "name": "Apteka Rodzinna",
                "addr:street": "prof. Krzysztofa Marlicza",
                "addr:housenumber": "26B",
                "addr:city": "Szczecin",
                "addr:postcode": "71-246",
                "amenity": "pharmacy",
                "dispensing": "yes"
            },
            "geometry": {
                "type": "Point",
                "coordinates": [
                    14.49275932275793,
                    53.453658664536384
                ]
            }
        },
        {
            "type": "Feature",
            "properties": {
                "ref:csioz": 1151859,
                "name": "Dbam O Zdrowie",
                "addr:street": "Sebastiana Klonowica",
                "addr:housenumber": "22",
                "addr:city": "Szczecin",
                "addr:postcode": "71-241",
                "amenity": "pharmacy",
                "dispensing": "yes"
            },
            "geometry": {
                "type": "Point",
                "coordinates": [
                    14.499836326878933,
                    53.44987653300354
                ]
            }
        },
        {
            "type": "Feature",
            "properties": {
                "ref:csioz": 1151884,
                "name": "Dbam O Zdrowie",
                "addr:street": "Komuny Paryskiej",
                "addr:housenumber": "40",
                "addr:city": "Szczecin",
                "addr:postcode": "71-680",
                "amenity": "pharmacy",
                "dispensing": "yes"
            },
            "geometry": {
                "type": "Point",
                "coordinates": [
                    14.565209065409586,
                    53.452331217632434
                ]
            }
        },
        {
            "type": "Feature",
            "properties": {
                "ref:csioz": 1151934,
                "name": "Pod Wagą",
                "addr:street": "Bolesława Krzywoustego",
                "addr:housenumber": "7a",
                "addr:city": "Szczecin",
                "addr:postcode": "70-244",
                "amenity": "pharmacy",
                "dispensing": "yes"
            },
            "geometry": {
                "type": "Point",
                "coordinates": [
                    14.543415003870415,
                    53.42648697939888
                ]
            }
        },
        {
            "type": "Feature",
            "properties": {
                "ref:csioz": 1152226,
                "name": "Officina Pharmaceutica",
                "addr:street": "Jarosława Iwaszkiewicza",
                "addr:housenumber": "92",
                "addr:city": "Szczecin",
                "addr:postcode": "70-786",
                "amenity": "pharmacy",
                "dispensing": "yes"
            },
            "geometry": {
                "type": "Point",
                "coordinates": [
                    14.663153284264212,
                    53.377823582386576
                ]
            }
        },
        {
            "type": "Feature",
            "properties": {
                "ref:csioz": 1152260,
                "name": "Medica",
                "addr:street": "Romualda Traugutta",
                "addr:housenumber": "101",
                "addr:city": "Szczecin",
                "addr:postcode": "71-300",
                "amenity": "pharmacy",
                "dispensing": "yes"
            },
            "geometry": {
                "type": "Point",
                "coordinates": [
                    14.514443732054499,
                    53.441723466400276
                ]
            }
        },
        {
            "type": "Feature",
            "properties": {
                "ref:csioz": 1152294,
                "name": "Centrum Zdrowia",
                "addr:street": "Emilii Gierczak",
                "addr:housenumber": "32A",
                "addr:city": "Szczecin",
                "addr:postcode": "70-825",
                "amenity": "pharmacy",
                "dispensing": "yes"
            },
            "geometry": {
                "type": "Point",
                "coordinates": [
                    14.670053805439613,
                    53.39561010149005
                ]
            }
        },
        {
            "type": "Feature",
            "properties": {
                "ref:csioz": 1166633,
                "name": "Zdrowie",
                "addr:street": "Aleksandra Zawadzkiego",
                "addr:housenumber": "141",
                "addr:city": "Szczecin",
                "addr:postcode": "71-246",
                "amenity": "pharmacy",
                "dispensing": "yes"
            },
            "geometry": {
                "type": "Point",
                "coordinates": [
                    14.49687599990106,
                    53.4555500000212
                ]
            }
        },
        {
            "type": "Feature",
            "properties": {
                "ref:csioz": 1167905,
                "name": "Rodzinna",
                "addr:street": "Lucjana Rydla",
                "addr:housenumber": "66a",
                "addr:city": "Szczecin",
                "addr:postcode": "70-783",
                "amenity": "pharmacy",
                "dispensing": "yes"
            },
            "geometry": {
                "type": "Point",
                "coordinates": [
                    14.65724174044516,
                    53.38165530494487
                ]
            }
        },
        {
            "type": "Feature",
            "properties": {
                "ref:csioz": 1167234,
                "name": "Apteka Hipokrates",
                "addr:street": "Kosynierów",
                "addr:housenumber": "13",
                "addr:city": "Szczecin",
                "addr:postcode": "70-786",
                "amenity": "pharmacy",
                "dispensing": "yes"
            },
            "geometry": {
                "type": "Point",
                "coordinates": [
                    14.663854020163974,
                    53.37423038660896
                ]
            }
        },
        {
            "type": "Feature",
            "properties": {
                "ref:csioz": 1167242,
                "name": "Apteka Miła",
                "addr:street": "marsz. Józefa Piłsudskiego",
                "addr:housenumber": "35",
                "addr:city": "Szczecin",
                "addr:postcode": "70-423",
                "amenity": "pharmacy",
                "dispensing": "yes"
            },
            "geometry": {
                "type": "Point",
                "coordinates": [
                    14.550421578239678,
                    53.43225951332328
                ]
            }
        },
        {
            "type": "Feature",
            "properties": {
                "ref:csioz": 1167275,
                "name": "Apteka Na Redzie",
                "addr:street": "Krakowska",
                "addr:housenumber": "67",
                "addr:city": "Szczecin",
                "addr:postcode": "71-017",
                "amenity": "pharmacy",
                "dispensing": "yes"
            },
            "geometry": {
                "type": "Point",
                "coordinates": [
                    14.499886662377184,
                    53.40424037806796
                ]
            }
        },
        {
            "type": "Feature",
            "properties": {
                "ref:csioz": 1167551,
                "name": "Pigułka",
                "addr:street": "Legnicka",
                "addr:housenumber": "3a",
                "addr:city": "Szczecin",
                "addr:postcode": "70-134",
                "amenity": "pharmacy",
                "dispensing": "yes"
            },
            "geometry": {
                "type": "Point",
                "coordinates": [
                    14.524672999973028,
                    53.40592270624949
                ]
            }
        },
        {
            "type": "Feature",
            "properties": {
                "ref:csioz": 1167345,
                "name": "Doz Apteka. Dbam O Zdrowie. Pod Złotym Moździerzem",
                "addr:street": "gen. Augusta Emila Fieldorfa",
                "addr:housenumber": "23",
                "addr:city": "Szczecin",
                "addr:postcode": "71-075",
                "amenity": "pharmacy",
                "dispensing": "yes"
            },
            "geometry": {
                "type": "Point",
                "coordinates": [
                    14.515680537726153,
                    53.42337548462148
                ]
            }
        },
        {
            "type": "Feature",
            "properties": {
                "ref:csioz": 1167376,
                "name": "\"Apteka Cef@Rm 36,6\"",
                "addr:street": "Wyzwolenia",
                "addr:housenumber": "85",
                "addr:city": "Szczecin",
                "addr:postcode": "71-411",
                "amenity": "pharmacy",
                "dispensing": "yes"
            },
            "geometry": {
                "type": "Point",
                "coordinates": [
                    14.551385379359532,
                    53.439691089312745
                ]
            }
        },
        {
            "type": "Feature",
            "properties": {
                "ref:csioz": 1167384,
                "name": "\"Apteka Cef@Rm 36,6\"",
                "addr:street": "Odzieżowa",
                "addr:housenumber": "7",
                "addr:city": "Szczecin",
                "addr:postcode": "71-502",
                "amenity": "pharmacy",
                "dispensing": "yes"
            },
            "geometry": {
                "type": "Point",
                "coordinates": [
                    14.555779598239148,
                    53.43854708611194
                ]
            }
        },
        {
            "type": "Feature",
            "properties": {
                "ref:csioz": 1167392,
                "name": "\"Apteka Cef@Rm 36,6\"",
                "addr:street": "Jagiellońska",
                "addr:housenumber": "44",
                "addr:city": "Szczecin",
                "addr:postcode": "70-382",
                "amenity": "pharmacy",
                "dispensing": "yes"
            },
            "geometry": {
                "type": "Point",
                "coordinates": [
                    14.524302105898458,
                    53.43457159635132
                ]
            }
        },
        {
            "type": "Feature",
            "properties": {
                "ref:csioz": 1167402,
                "name": "Dbam O Zdrowie",
                "addr:street": "Młodzieży Polskiej",
                "addr:housenumber": "30a",
                "addr:city": "Szczecin",
                "addr:postcode": "70-774",
                "amenity": "pharmacy",
                "dispensing": "yes"
            },
            "geometry": {
                "type": "Point",
                "coordinates": [
                    14.633611428637133,
                    53.38142238686631
                ]
            }
        },
        {
            "type": "Feature",
            "properties": {
                "ref:csioz": 1167431,
                "name": "Verbena",
                "addr:street": "Brązowa",
                "addr:housenumber": "16",
                "addr:city": "Szczecin",
                "addr:postcode": "70-781",
                "amenity": "pharmacy",
                "dispensing": "yes"
            },
            "geometry": {
                "type": "Point",
                "coordinates": [
                    14.65470053213727,
                    53.36758850883501
                ]
            }
        },
        {
            "type": "Feature",
            "properties": {
                "ref:csioz": 1167444,
                "name": "Verbena Nad Rudzianką",
                "addr:street": "Swojska",
                "addr:housenumber": "6b",
                "addr:city": "Szczecin",
                "addr:postcode": "70-781",
                "amenity": "pharmacy",
                "dispensing": "yes"
            },
            "geometry": {
                "type": "Point",
                "coordinates": [
                    14.662224368822601,
                    53.367913346826505
                ]
            }
        },
        {
            "type": "Feature",
            "properties": {
                "ref:csioz": 1167546,
                "name": "Akademicka",
                "addr:street": "Piastów",
                "addr:housenumber": "44",
                "addr:city": "Szczecin",
                "addr:postcode": "70-311",
                "amenity": "pharmacy",
                "dispensing": "yes"
            },
            "geometry": {
                "type": "Point",
                "coordinates": [
                    14.53597824845986,
                    53.42327937223685
                ]
            }
        },
        {
            "type": "Feature",
            "properties": {
                "ref:csioz": 1167567,
                "name": "Millenium",
                "addr:street": "Mieszka I",
                "addr:housenumber": "73",
                "addr:city": "Szczecin",
                "addr:postcode": "71-011",
                "amenity": "pharmacy",
                "dispensing": "yes"
            },
            "geometry": {
                "type": "Point",
                "coordinates": [
                    14.52109851018039,
                    53.41138332577439
                ]
            }
        },
        {
            "type": "Feature",
            "properties": {
                "ref:csioz": 1167572,
                "name": "Przy Błoniach",
                "addr:street": "Zygmunta Felczaka",
                "addr:housenumber": "8",
                "addr:city": "Szczecin",
                "addr:postcode": "71-417",
                "amenity": "pharmacy",
                "dispensing": "yes"
            },
            "geometry": {
                "type": "Point",
                "coordinates": [
                    14.545091999905557,
                    53.43878100002091
                ]
            }
        },
        {
            "type": "Feature",
            "properties": {
                "ref:csioz": 1167595,
                "name": "Arkonka",
                "addr:street": "Arkońska",
                "addr:housenumber": "51",
                "addr:city": "Szczecin",
                "addr:postcode": "71-455",
                "amenity": "pharmacy",
                "dispensing": "yes"
            },
            "geometry": {
                "type": "Point",
                "coordinates": [
                    14.52566899311365,
                    53.45196281294412
                ]
            }
        },
        {
            "type": "Feature",
            "properties": {
                "ref:csioz": 1167601,
                "name": "Apteka Portowa",
                "addr:street": "Juliana Ursyna Niemcewicza",
                "addr:housenumber": "24f",
                "addr:city": "Szczecin",
                "addr:postcode": "71-520",
                "amenity": "pharmacy",
                "dispensing": "yes"
            },
            "geometry": {
                "type": "Point",
                "coordinates": [
                    14.556094661426535,
                    53.44653072408119
                ]
            }
        },
        {
            "type": "Feature",
            "properties": {
                "ref:csioz": 1167617,
                "name": "Portowa",
                "addr:street": "Energetyków",
                "addr:housenumber": "2",
                "addr:city": "Szczecin",
                "addr:postcode": "70-656",
                "amenity": "pharmacy",
                "dispensing": "yes"
            },
            "geometry": {
                "type": "Point",
                "coordinates": [
                    14.5619239448096,
                    53.420587694923476
                ]
            }
        },
        {
            "type": "Feature",
            "properties": {
                "ref:csioz": 1167625,
                "name": "Apteka Portowa",
                "addr:street": "Świstacza",
                "addr:housenumber": "43",
                "addr:city": "Szczecin",
                "addr:postcode": "70-798",
                "amenity": "pharmacy",
                "dispensing": "yes"
            },
            "geometry": {
                "type": "Point",
                "coordinates": [
                    14.688282839861909,
                    53.37665427703572
                ]
            }
        },
        {
            "type": "Feature",
            "properties": {
                "ref:csioz": 1167630,
                "name": "Apteka Portowa",
                "addr:street": "Niepodległości",
                "addr:housenumber": "3",
                "addr:city": "Szczecin",
                "addr:postcode": "70-412",
                "amenity": "pharmacy",
                "dispensing": "yes"
            },
            "geometry": {
                "type": "Point",
                "coordinates": [
                    14.55124657905012,
                    53.424234141050825
                ]
            }
        },
        {
            "type": "Feature",
            "properties": {
                "ref:csioz": 1167658,
                "name": "Melisa",
                "addr:street": "Władysława Szafera",
                "addr:housenumber": "192",
                "addr:city": "Szczecin",
                "addr:postcode": "71-245",
                "amenity": "pharmacy",
                "dispensing": "yes"
            },
            "geometry": {
                "type": "Point",
                "coordinates": [
                    14.496263918394288,
                    53.45643598948813
                ]
            }
        },
        {
            "type": "Feature",
            "properties": {
                "ref:csioz": 1167663,
                "name": "Marzanka",
                "addr:street": "Milczańska",
                "addr:housenumber": "7",
                "addr:city": "Szczecin",
                "addr:postcode": "70-117",
                "amenity": "pharmacy",
                "dispensing": "yes"
            },
            "geometry": {
                "type": "Point",
                "coordinates": [
                    14.527063150717723,
                    53.40818887164639
                ]
            }
        },
        {
            "type": "Feature",
            "properties": {
                "ref:csioz": 1167674,
                "name": "Samarytanka",
                "addr:street": "Jasna",
                "addr:housenumber": "78",
                "addr:city": "Szczecin",
                "addr:postcode": "70-777",
                "amenity": "pharmacy",
                "dispensing": "yes"
            },
            "geometry": {
                "type": "Point",
                "coordinates": [
                    14.64869671620504,
                    53.378780213540935
                ]
            }
        },
        {
            "type": "Feature",
            "properties": {
                "ref:csioz": 1167740,
                "name": "Pod Wagą-Osowo",
                "addr:street": "Miodowa",
                "addr:housenumber": "45",
                "addr:city": "Szczecin",
                "addr:postcode": "71-497",
                "amenity": "pharmacy",
                "dispensing": "yes"
            },
            "geometry": {
                "type": "Point",
                "coordinates": [
                    14.515290570230073,
                    53.47931902688029
                ]
            }
        },
        {
            "type": "Feature",
            "properties": {
                "ref:csioz": 1167754,
                "name": "Korona",
                "addr:street": "Bolesława Śmiałego",
                "addr:housenumber": "22",
                "addr:city": "Szczecin",
                "addr:postcode": "70-347",
                "amenity": "pharmacy",
                "dispensing": "yes"
            },
            "geometry": {
                "type": "Point",
                "coordinates": [
                    14.534301911595835,
                    53.427989959567
                ]
            }
        },
        {
            "type": "Feature",
            "properties": {
                "ref:csioz": 1167765,
                "name": "Zdrowie",
                "addr:street": "Milczańska",
                "addr:housenumber": "50",
                "addr:city": "Szczecin",
                "addr:postcode": "70-107",
                "amenity": "pharmacy",
                "dispensing": "yes"
            },
            "geometry": {
                "type": "Point",
                "coordinates": [
                    14.528318196754363,
                    53.407512296710294
                ]
            }
        },
        {
            "type": "Feature",
            "properties": {
                "ref:csioz": 1167779,
                "name": "Apteka Zdrowie",
                "addr:street": "Bohaterów Warszawy",
                "addr:housenumber": "42",
                "addr:city": "Szczecin",
                "addr:postcode": "70-342",
                "amenity": "pharmacy",
                "dispensing": "yes"
            },
            "geometry": {
                "type": "Point",
                "coordinates": [
                    14.530930241818304,
                    53.42606693504371
                ]
            }
        },
        {
            "type": "Feature",
            "properties": {
                "ref:csioz": 1167787,
                "name": "Zdrowie",
                "addr:street": "ks. Hugona Kołłątaja",
                "addr:housenumber": "1",
                "addr:city": "Szczecin",
                "addr:postcode": "71-525",
                "amenity": "pharmacy",
                "dispensing": "yes"
            },
            "geometry": {
                "type": "Point",
                "coordinates": [
                    14.547458267208022,
                    53.4436695681469
                ]
            }
        },
        {
            "type": "Feature",
            "properties": {
                "ref:csioz": 1167798,
                "name": "Zdrowie",
                "addr:street": "Niepodległości",
                "addr:housenumber": "29",
                "addr:city": "Szczecin",
                "addr:postcode": "70-412",
                "amenity": "pharmacy",
                "dispensing": "yes"
            },
            "geometry": {
                "type": "Point",
                "coordinates": [
                    14.552450764344016,
                    53.42744299734221
                ]
            }
        },
        {
            "type": "Feature",
            "properties": {
                "ref:csioz": 1167804,
                "name": "Apteka Zdrowie",
                "addr:street": "Leszczynowa",
                "addr:housenumber": "23",
                "addr:city": "Szczecin",
                "addr:postcode": "70-766",
                "amenity": "pharmacy",
                "dispensing": "yes"
            },
            "geometry": {
                "type": "Point",
                "coordinates": [
                    14.632716266619278,
                    53.38344179002837
                ]
            }
        },
        {
            "type": "Feature",
            "properties": {
                "ref:csioz": 1167812,
                "name": "Dr. Max",
                "addr:street": "Santocka",
                "addr:housenumber": "20",
                "addr:city": "Szczecin",
                "addr:postcode": "71-083",
                "amenity": "pharmacy",
                "dispensing": "yes"
            },
            "geometry": {
                "type": "Point",
                "coordinates": [
                    14.51185507435574,
                    53.43206144609814
                ]
            }
        },
        {
            "type": "Feature",
            "properties": {
                "ref:csioz": 1167820,
                "name": "Dr. Max",
                "addr:street": "Zwycięstwa",
                "addr:housenumber": "1",
                "addr:city": "Szczecin",
                "addr:postcode": "70-233",
                "amenity": "pharmacy",
                "dispensing": "yes"
            },
            "geometry": {
                "type": "Point",
                "coordinates": [
                    14.548610193426994,
                    53.42586181917123
                ]
            }
        },
        {
            "type": "Feature",
            "properties": {
                "ref:csioz": 1167836,
                "name": "Dr. Max",
                "addr:street": "Ku Słońcu",
                "addr:housenumber": "67",
                "addr:city": "Szczecin",
                "addr:postcode": "71-047",
                "amenity": "pharmacy",
                "dispensing": "yes"
            },
            "geometry": {
                "type": "Point",
                "coordinates": [
                    14.48254946687198,
                    53.429144969730324
                ]
            }
        },
        {
            "type": "Feature",
            "properties": {
                "ref:csioz": 1167848,
                "name": "Dr. Max",
                "addr:street": "Przyjaciół Żołnierza",
                "addr:housenumber": "4",
                "addr:city": "Szczecin",
                "addr:postcode": "71-670",
                "amenity": "pharmacy",
                "dispensing": "yes"
            },
            "geometry": {
                "type": "Point",
                "coordinates": [
                    14.562477323568952,
                    53.453847814500854
                ]
            }
        },
        {
            "type": "Feature",
            "properties": {
                "ref:csioz": 1167857,
                "name": "Apteka Portowa",
                "addr:street": "Waleriana Łukasińskiego",
                "addr:housenumber": "38b",
                "addr:city": "Szczecin",
                "addr:postcode": "71-215",
                "amenity": "pharmacy",
                "dispensing": "yes"
            },
            "geometry": {
                "type": "Point",
                "coordinates": [
                    14.490101926991832,
                    53.44146623089093
                ]
            }
        },
        {
            "type": "Feature",
            "properties": {
                "ref:csioz": 1167861,
                "name": "Apteka Z Sercem",
                "addr:street": "Gabriela Narutowicza",
                "addr:housenumber": "13e",
                "addr:city": "Szczecin",
                "addr:postcode": "70-240",
                "amenity": "pharmacy",
                "dispensing": "yes"
            },
            "geometry": {
                "type": "Point",
                "coordinates": [
                    14.538410886258148,
                    53.4223323017021
                ]
            }
        },
        {
            "type": "Feature",
            "properties": {
                "ref:csioz": 1167873,
                "name": "Apteka Z Sercem",
                "addr:street": "Żołnierza Polskiego",
                "addr:housenumber": "18",
                "addr:city": "Szczecin",
                "addr:postcode": "70-551",
                "amenity": "pharmacy",
                "dispensing": "yes"
            },
            "geometry": {
                "type": "Point",
                "coordinates": [
                    14.554101472397589,
                    53.4289130258605
                ]
            }
        },
        {
            "type": "Feature",
            "properties": {
                "ref:csioz": 1167960,
                "name": "Centrum",
                "addr:street": "Bolesława Krzywoustego",
                "addr:housenumber": "56",
                "addr:city": "Szczecin",
                "addr:postcode": "70-315",
                "amenity": "pharmacy",
                "dispensing": "yes"
            },
            "geometry": {
                "type": "Point",
                "coordinates": [
                    14.535350965852897,
                    53.42727664691623
                ]
            }
        },
        {
            "type": "Feature",
            "properties": {
                "ref:csioz": 1167983,
                "name": "Sit Saluti",
                "addr:street": "Batalionów Chłopskich",
                "addr:housenumber": "33",
                "addr:city": "Szczecin",
                "addr:postcode": "70-764",
                "amenity": "pharmacy",
                "dispensing": "yes"
            },
            "geometry": {
                "type": "Point",
                "coordinates": [
                    14.630331112059936,
                    53.38123025457842
                ]
            }
        },
        {
            "type": "Feature",
            "properties": {
                "ref:csioz": 1167994,
                "name": "Tilia",
                "addr:street": "Kaszubska",
                "addr:housenumber": "60",
                "addr:city": "Szczecin",
                "addr:postcode": "70-402",
                "amenity": "pharmacy",
                "dispensing": "yes"
            },
            "geometry": {
                "type": "Point",
                "coordinates": [
                    14.549615555946414,
                    53.42643656645565
                ]
            }
        },
        {
            "type": "Feature",
            "properties": {
                "ref:csioz": 1168513,
                "name": "Jana",
                "addr:street": "Jodłowa",
                "addr:housenumber": "13A",
                "addr:city": "Szczecin",
                "addr:postcode": "71-114",
                "amenity": "pharmacy",
                "dispensing": "yes"
            },
            "geometry": {
                "type": "Point",
                "coordinates": [
                    14.508773266413641,
                    53.43023020551336
                ]
            }
        },
        {
            "type": "Feature",
            "properties": {
                "ref:csioz": 1168545,
                "name": "Dr. Max",
                "addr:street": "Andrzeja Struga",
                "addr:housenumber": "29",
                "addr:city": "Szczecin",
                "addr:postcode": "70-784",
                "amenity": "pharmacy",
                "dispensing": "yes"
            },
            "geometry": {
                "type": "Point",
                "coordinates": [
                    14.658022443355387,
                    53.38434448686935
                ]
            }
        },
        {
            "type": "Feature",
            "properties": {
                "ref:csioz": 1168592,
                "name": "Doz Apteka. Dbam O Zdrowie. Galena",
                "addr:street": "Stanisława Thugutta",
                "addr:housenumber": "2a",
                "addr:city": "Szczecin",
                "addr:postcode": "71-693",
                "amenity": "pharmacy",
                "dispensing": "yes"
            },
            "geometry": {
                "type": "Point",
                "coordinates": [
                    14.556113605868836,
                    53.461237964977826
                ]
            }
        },
        {
            "type": "Feature",
            "properties": {
                "ref:csioz": 1168615,
                "name": "Vita",
                "addr:street": "Jana Kilińskiego",
                "addr:housenumber": "1A",
                "addr:city": "Szczecin",
                "addr:postcode": "71-414",
                "amenity": "pharmacy",
                "dispensing": "yes"
            },
            "geometry": {
                "type": "Point",
                "coordinates": [
                    14.5485609034266,
                    53.44104695971651
                ]
            }
        },
        {
            "type": "Feature",
            "properties": {
                "ref:csioz": 1168769,
                "name": "Super-Pharm",
                "addr:street": "Bohaterów Warszawy",
                "addr:housenumber": "40",
                "addr:city": "Szczecin",
                "addr:postcode": "70-342",
                "amenity": "pharmacy",
                "dispensing": "yes"
            },
            "geometry": {
                "type": "Point",
                "coordinates": [
                    14.531274445257155,
                    53.42732522245834
                ]
            }
        },
        {
            "type": "Feature",
            "properties": {
                "ref:csioz": 1168932,
                "name": "Gryfitów",
                "addr:street": "Policka",
                "addr:housenumber": "51",
                "addr:city": "Szczecin",
                "addr:postcode": "71-837",
                "amenity": "pharmacy",
                "dispensing": "yes"
            },
            "geometry": {
                "type": "Point",
                "coordinates": [
                    14.585099677540027,
                    53.495835380653865
                ]
            }
        },
        {
            "type": "Feature",
            "properties": {
                "ref:csioz": 1169085,
                "name": "Dr. Max",
                "addr:street": "3 Maja",
                "addr:housenumber": "25/27",
                "addr:city": "Szczecin",
                "addr:postcode": "70-215",
                "amenity": "pharmacy",
                "dispensing": "yes"
            },
            "geometry": {
                "type": "Point",
                "coordinates": [
                    14.549931999905713,
                    53.421369000020846
                ]
            }
        },
        {
            "type": "Feature",
            "properties": {
                "ref:csioz": 1170255,
                "name": "Świat Zdrowia",
                "addr:street": "Fryderyka Chopina",
                "addr:housenumber": "15",
                "addr:city": "Szczecin",
                "addr:postcode": "71-450",
                "amenity": "pharmacy",
                "dispensing": "yes"
            },
            "geometry": {
                "type": "Point",
                "coordinates": [
                    14.542370568628167,
                    53.45079882665475
                ]
            }
        },
        {
            "type": "Feature",
            "properties": {
                "ref:csioz": 1174880,
                "name": "Apteka Medyk 24H",
                "addr:street": "ks. bp. Władysława Bandurskiego",
                "addr:housenumber": "98",
                "addr:city": "Szczecin",
                "addr:postcode": "71-685",
                "amenity": "pharmacy",
                "dispensing": "yes"
            },
            "geometry": {
                "type": "Point",
                "coordinates": [
                    14.563452674359558,
                    53.45372166339803
                ]
            }
        },
        {
            "type": "Feature",
            "properties": {
                "ref:csioz": 1179006,
                "name": "Puls - Sieć Dobrych Aptek",
                "addr:street": "Andrzeja Struga",
                "addr:housenumber": "42",
                "addr:city": "Szczecin",
                "addr:postcode": "70-784",
                "amenity": "pharmacy",
                "dispensing": "yes"
            },
            "geometry": {
                "type": "Point",
                "coordinates": [
                    14.671594390006051,
                    53.381474233916684
                ]
            }
        },
        {
            "type": "Feature",
            "properties": {
                "ref:csioz": 1180648,
                "name": "Doz Apteka Dbam O Zdrowie",
                "addr:street": "Maciejkowa",
                "addr:housenumber": "37",
                "addr:city": "Szczecin",
                "addr:postcode": "71-784",
                "amenity": "pharmacy",
                "dispensing": "yes"
            },
            "geometry": {
                "type": "Point",
                "coordinates": [
                    14.542633600913941,
                    53.48189387201118
                ]
            }
        },
        {
            "type": "Feature",
            "properties": {
                "ref:csioz": 1183570,
                "name": "Na Tartacznej",
                "addr:street": "Tartaczna",
                "addr:housenumber": "14",
                "addr:city": "Szczecin",
                "addr:postcode": "70-893",
                "amenity": "pharmacy",
                "dispensing": "yes"
            },
            "geometry": {
                "type": "Point",
                "coordinates": [
                    14.572600457466718,
                    53.43609716524783
                ]
            }
        },
        {
            "type": "Feature",
            "properties": {
                "ref:csioz": 1181865,
                "name": "\"Apteka \"\"Na Kasztanowym\"\"\"",
                "addr:street": "Kasztanowe",
                "addr:housenumber": "50",
                "addr:city": "Szczecin",
                "addr:postcode": "70-895",
                "amenity": "pharmacy",
                "dispensing": "yes"
            },
            "geometry": {
                "type": "Point",
                "coordinates": [
                    14.746851045374463,
                    53.436637745852586
                ]
            }
        },
        {
            "type": "Feature",
            "properties": {
                "ref:csioz": 1184290,
                "addr:street": "Struga",
                "addr:housenumber": "36",
                "addr:city": "Szczecin",
                "addr:postcode": "70-785",
                "amenity": "pharmacy",
                "dispensing": "yes"
            },
            "geometry": {
                "type": "Point",
                "coordinates": [
                    14.554916056062737,
                    53.44436753065071
                ]
            }
        },
        {
            "type": "Feature",
            "properties": {
                "ref:csioz": 1184304,
                "name": "Apteka Muszkieter",
                "addr:street": "Dąbska",
                "addr:housenumber": "103",
                "addr:city": "Szczecin",
                "addr:postcode": "70-789",
                "amenity": "pharmacy",
                "dispensing": "yes"
            },
            "geometry": {
                "type": "Point",
                "coordinates": [
                    14.490245622216015,
                    53.452241557960576
                ]
            }
        },
        {
            "type": "Feature",
            "properties": {
                "ref:csioz": 1187230,
                "name": "Apteka Dla Każdego",
                "addr:street": "Goleniowska",
                "addr:housenumber": "87",
                "addr:city": "Szczecin",
                "addr:postcode": "70-840",
                "amenity": "pharmacy",
                "dispensing": "yes"
            },
            "geometry": {
                "type": "Point",
                "coordinates": [
                    14.678680359437525,
                    53.39860160665953
                ]
            }
        },
        {
            "type": "Feature",
            "properties": {
                "ref:csioz": 1187249,
                "name": "Dom Leków",
                "addr:street": "Wyzwolenia",
                "addr:housenumber": "10",
                "addr:city": "Szczecin",
                "addr:postcode": "70-553",
                "amenity": "pharmacy",
                "dispensing": "yes"
            },
            "geometry": {
                "type": "Point",
                "coordinates": [
                    14.554453103000036,
                    53.430289326890104
                ]
            }
        },
        {
            "type": "Feature",
            "properties": {
                "ref:csioz": 1193986,
                "name": "Gemini",
                "addr:street": "Lucjana Rydla",
                "addr:housenumber": "52",
                "addr:city": "Szczecin",
                "addr:postcode": "70-783",
                "amenity": "pharmacy",
                "dispensing": "yes"
            },
            "geometry": {
                "type": "Point",
                "coordinates": [
                    14.657037179679829,
                    53.38279365104124
                ]
            }
        },
        {
            "type": "Feature",
            "properties": {
                "ref:csioz": 1195075,
                "name": "Twoja Apteka",
                "addr:street": "Strzałowska",
                "addr:housenumber": "21",
                "addr:city": "Szczecin",
                "addr:postcode": "71-733",
                "amenity": "pharmacy",
                "dispensing": "yes"
            },
            "geometry": {
                "type": "Point",
                "coordinates": [
                    14.592664857765623,
                    53.46707724492821
                ]
            }
        },
        {
            "type": "Feature",
            "properties": {
                "ref:csioz": 1195793,
                "name": "Gemini",
                "addr:street": "ks. kard. Stefana Wyszyńskiego",
                "addr:housenumber": "2",
                "addr:city": "Szczecin",
                "addr:postcode": "70-201",
                "amenity": "pharmacy",
                "dispensing": "yes"
            },
            "geometry": {
                "type": "Point",
                "coordinates": [
                    14.551525506192759,
                    53.424576731375936
                ]
            }
        },
        {
            "type": "Feature",
            "properties": {
                "ref:csioz": 1199661,
                "name": "Doz Apteka Dbam O Zdrowie",
                "addr:street": "Kolonistów",
                "addr:housenumber": "81",
                "addr:city": "Szczecin",
                "addr:postcode": "71-806",
                "amenity": "pharmacy",
                "dispensing": "yes"
            },
            "geometry": {
                "type": "Point",
                "coordinates": [
                    14.584768823166756,
                    53.48802431474455
                ]
            }
        },
        {
            "type": "Feature",
            "properties": {
                "ref:csioz": 1200738,
                "name": "Gemini",
                "addr:street": "Santocka",
                "addr:housenumber": "18",
                "addr:city": "Szczecin",
                "addr:postcode": "71-113",
                "amenity": "pharmacy",
                "dispensing": "yes"
            },
            "geometry": {
                "type": "Point",
                "coordinates": [
                    14.512721322454572,
                    53.43286225184343
                ]
            }
        },
        {
            "type": "Feature",
            "properties": {
                "ref:csioz": 1201673,
                "name": "Apteka Osiedlowa",
                "addr:street": "Niedźwiedzia",
                "addr:housenumber": "15",
                "addr:city": "Szczecin",
                "addr:postcode": "70-793",
                "amenity": "pharmacy",
                "dispensing": "yes"
            },
            "geometry": {
                "type": "Point",
                "coordinates": [
                    14.68681750267563,
                    53.37462367334544
                ]
            }
        },
        {
            "type": "Feature",
            "properties": {
                "ref:csioz": 1203130,
                "name": "Dom Leków",
                "addr:street": "Piastów",
                "addr:housenumber": "54",
                "addr:city": "Szczecin",
                "addr:postcode": "70-311",
                "amenity": "pharmacy",
                "dispensing": "yes"
            },
            "geometry": {
                "type": "Point",
                "coordinates": [
                    14.542937044216268,
                    53.483619803743025
                ]
            }
        },
        {
            "type": "Feature",
            "properties": {
                "ref:csioz": 1204103,
                "name": "Apteka Dla Ciebie",
                "addr:street": "Waleriana Łukasińskiego",
                "addr:housenumber": "116A",
                "addr:city": "Szczecin",
                "addr:postcode": "71-215",
                "amenity": "pharmacy",
                "dispensing": "yes"
            },
            "geometry": {
                "type": "Point",
                "coordinates": [
                    14.476253710494717,
                    53.43913463454357
                ]
            }
        },
        {
            "type": "Feature",
            "properties": {
                "ref:csioz": 1205975,
                "addr:street": "Piastów",
                "addr:housenumber": "30",
                "addr:city": "Szczecin",
                "addr:postcode": "71-064",
                "amenity": "pharmacy",
                "dispensing": "yes"
            },
            "geometry": {
                "type": "Point",
                "coordinates": [
                    14.532214490716173,
                    53.41798846668526
                ]
            }
        },
        {
            "type": "Feature",
            "properties": {
                "ref:csioz": 1216101,
                "name": "Apteka Centrum Zdrowia",
                "addr:street": "Władysława Szafera",
                "addr:housenumber": "18",
                "addr:city": "Szczecin",
                "addr:postcode": "71-073",
                "amenity": "pharmacy",
                "dispensing": "yes"
            },
            "geometry": {
                "type": "Point",
                "coordinates": [
                    14.488076310208985,
                    53.455270281301445
                ]
            }
        },
        {
            "type": "Feature",
            "properties": {
                "ref:csioz": 1209302,
                "name": "Apteka Prima",
                "addr:street": "gen. Ludomiła Rayskiego",
                "addr:housenumber": "1",
                "addr:city": "Szczecin",
                "addr:postcode": "70-426",
                "amenity": "pharmacy",
                "dispensing": "yes"
            },
            "geometry": {
                "type": "Point",
                "coordinates": [
                    14.552939228915765,
                    53.43478911673797
                ]
            }
        },
        {
            "type": "Feature",
            "properties": {
                "ref:csioz": 1210171,
                "name": "Efekt",
                "addr:street": "Willowa",
                "addr:housenumber": "8",
                "addr:city": "Szczecin",
                "addr:postcode": "71-650",
                "amenity": "pharmacy",
                "dispensing": "yes"
            },
            "geometry": {
                "type": "Point",
                "coordinates": [
                    14.573283098096487,
                    53.44835245799416
                ]
            }
        },
        {
            "type": "Feature",
            "properties": {
                "ref:csioz": 1211338,
                "name": "Apteka Portowa",
                "addr:street": "Kwiatowa",
                "addr:housenumber": "29",
                "addr:city": "Szczecin",
                "addr:postcode": "71-045",
                "amenity": "pharmacy",
                "dispensing": "yes"
            },
            "geometry": {
                "type": "Point",
                "coordinates": [
                    14.491478352412539,
                    53.421549700360444
                ]
            }
        },
        {
            "type": "Feature",
            "properties": {
                "ref:csioz": 1211346,
                "name": "Na Mącznej",
                "addr:street": "Mączna",
                "addr:housenumber": "30",
                "addr:city": "Szczecin",
                "addr:postcode": "70-780",
                "amenity": "pharmacy",
                "dispensing": "yes"
            },
            "geometry": {
                "type": "Point",
                "coordinates": [
                    14.644641423991775,
                    53.370044938160945
                ]
            }
        },
        {
            "type": "Feature",
            "properties": {
                "ref:csioz": 1211837,
                "name": "Apteka Muszkieter",
                "addr:street": "Fryderyka Chopina",
                "addr:housenumber": "27",
                "addr:city": "Szczecin",
                "addr:postcode": "71-450",
                "amenity": "pharmacy",
                "dispensing": "yes"
            },
            "geometry": {
                "type": "Point",
                "coordinates": [
                    14.54101403373654,
                    53.45100578948797
                ]
            }
        },
        {
            "type": "Feature",
            "properties": {
                "ref:csioz": 1214829,
                "name": "Apteka Maltańska",
                "addr:street": "gen. Ludomiła Rayskiego",
                "addr:housenumber": "21",
                "addr:city": "Szczecin",
                "addr:postcode": "71-102",
                "amenity": "pharmacy",
                "dispensing": "yes"
            },
            "geometry": {
                "type": "Point",
                "coordinates": [
                    14.545567404510585,
                    53.4316082092826
                ]
            }
        },
        {
            "type": "Feature",
            "properties": {
                "ref:csioz": 1216092,
                "name": "Apteka Centrum Zdrowia",
                "addr:street": "Ku Słońcu",
                "addr:housenumber": "24",
                "addr:city": "Szczecin",
                "addr:postcode": "71-073",
                "amenity": "pharmacy",
                "dispensing": "yes"
            },
            "geometry": {
                "type": "Point",
                "coordinates": [
                    14.522435368772928,
                    53.42157602846105
                ]
            }
        },
        {
            "type": "Feature",
            "properties": {
                "ref:csioz": 1217312,
                "name": "Portowa",
                "addr:street": "Szwedzka",
                "addr:housenumber": "28",
                "addr:city": "Szczecin",
                "addr:postcode": "71-791",
                "amenity": "pharmacy",
                "dispensing": "yes"
            },
            "geometry": {
                "type": "Point",
                "coordinates": [
                    14.541602652262398,
                    53.468679957568206
                ]
            }
        },
        {
            "type": "Feature",
            "properties": {
                "ref:csioz": 1217847,
                "name": "Apteka Centrum Zdrowia",
                "addr:street": "Powstańców Wielkopolskich",
                "addr:housenumber": "66",
                "addr:city": "Szczecin",
                "addr:postcode": "70-111",
                "amenity": "pharmacy",
                "dispensing": "yes"
            },
            "geometry": {
                "type": "Point",
                "coordinates": [
                    14.528962999903342,
                    53.40604100002095
                ]
            }
        },
        {
            "type": "Feature",
            "properties": {
                "ref:csioz": 1224682,
                "name": "Apteka Sanfarma",
                "addr:street": "Emilii Plater",
                "addr:housenumber": "18",
                "addr:city": "Szczecin",
                "addr:postcode": "71-632",
                "amenity": "pharmacy",
                "dispensing": "yes"
            },
            "geometry": {
                "type": "Point",
                "coordinates": [
                    14.56724881682428,
                    53.43940338838351
                ]
            }
        },
        {
            "type": "Feature",
            "properties": {
                "ref:csioz": 1224983,
                "addr:street": "Mieczysława Niedziałkowskiego",
                "addr:housenumber": "47",
                "addr:city": "Szczecin",
                "addr:postcode": "71-403",
                "amenity": "pharmacy",
                "dispensing": "yes"
            },
            "geometry": {
                "type": "Point",
                "coordinates": [
                    14.545651013094814,
                    53.43708226478541
                ]
            }
        },
        {
            "type": "Feature",
            "properties": {
                "ref:csioz": 1226495,
                "addr:street": "Wyzwolenia",
                "addr:housenumber": "52",
                "addr:city": "Szczecin",
                "addr:postcode": "71-506",
                "amenity": "pharmacy",
                "dispensing": "yes"
            },
            "geometry": {
                "type": "Point",
                "coordinates": [
                    14.552296851370523,
                    53.440605083867354
                ]
            }
        },
        {
            "type": "Feature",
            "properties": {
                "ref:csioz": 1229072,
                "name": "Apteka Na Żydowcach",
                "addr:street": "Romana Dmowskiego",
                "addr:housenumber": "54",
                "addr:city": "Szczecin",
                "addr:postcode": "70-714",
                "amenity": "pharmacy",
                "dispensing": "yes"
            },
            "geometry": {
                "type": "Point",
                "coordinates": [
                    14.576366100822518,
                    53.35215451242356
                ]
            }
        },
        {
            "type": "Feature",
            "properties": {
                "ref:csioz": 1147325,
                "name": "\"Przedsiębiorstwo Spszoz \"\"Zdroje\"\" - Szpital Przy Ul. Św. Wojciecha\"",
                "addr:street": "św. Wojciecha",
                "addr:housenumber": "7",
                "addr:city": "Szczecin",
                "addr:postcode": "70-410",
                "amenity": "pharmacy",
                "dispensing": "yes"
            },
            "geometry": {
                "type": "Point",
                "coordinates": [
                    14.548472061564114,
                    53.42785273681595
                ]
            }
        },
        {
            "type": "Feature",
            "properties": {
                "ref:csioz": 1229997,
                "name": "Dr Osadowska",
                "addr:street": "Piastów",
                "addr:housenumber": "30",
                "addr:city": "Szczecin",
                "addr:postcode": "71-004",
                "amenity": "pharmacy",
                "dispensing": "yes"
            },
            "geometry": {
                "type": "Point",
                "coordinates": [
                    14.532214490716173,
                    53.417958466685256
                ]
            }
        },
        {
            "type": "Feature",
            "properties": {
                "ref:csioz": 1168063,
                "name": "\"R.T.R.P.K. \"\"Arwizja\"\" Apteka Św. Cyryla I Metodego\"",
                "addr:street": "Matki Teresy z Kalkuty",
                "addr:housenumber": "6",
                "addr:city": "Szczecin",
                "addr:postcode": "71-622",
                "amenity": "pharmacy",
                "dispensing": "yes"
            },
            "geometry": {
                "type": "Point",
                "coordinates": [
                    14.566744990668607,
                    53.438161336849944
                ]
            }
        },
        {
            "type": "Feature",
            "properties": {
                "ref:csioz": 1228168,
                "name": "Regionalne Centrum Krwiodawstwa I Krwiolecznictwa W Szczecinie",
                "addr:street": "Wojska Polskiego",
                "addr:housenumber": "80",
                "addr:city": "Szczecin",
                "addr:postcode": "70-482",
                "amenity": "pharmacy",
                "dispensing": "yes"
            },
            "geometry": {
                "type": "Point",
                "coordinates": [
                    14.583818681680357,
                    53.49258928436334
                ]
            }
        }
    ]
}