{
    "type": "FeatureCollection",
    "name": "JPT_KOD_JE_2479",
    "features": [
        {
            "type": "Feature",
            "properties": {
                "ref:csioz": 1122120,
                "name": "Nszoz Novamed",
                "addr:street": "Osińska",
                "addr:housenumber": "2",
                "addr:city": "Żory",
                "addr:postcode": "44-240",
                "amenity": "pharmacy",
                "dispensing": "yes"
            },
            "geometry": {
                "type": "Point",
                "coordinates": [
                    18.697309203075918,
                    50.042138717496016
                ]
            }
        },
        {
            "type": "Feature",
            "properties": {
                "ref:csioz": 1122655,
                "name": "Niepubliczny Zakład Opieki Zdrowotnej Medyk",
                "addr:street": "Gwarków",
                "addr:housenumber": "3",
                "addr:city": "Żory",
                "addr:postcode": "44-240",
                "amenity": "pharmacy",
                "dispensing": "yes"
            },
            "geometry": {
                "type": "Point",
                "coordinates": [
                    18.630062977295268,
                    50.03735016386948
                ]
            }
        },
        {
            "type": "Feature",
            "properties": {
                "ref:csioz": 1176122,
                "name": "Pharmacon",
                "addr:street": "Aleja Zjednoczonej Europy",
                "addr:housenumber": "35",
                "addr:city": "Żory",
                "addr:postcode": "44-240",
                "amenity": "pharmacy",
                "dispensing": "yes"
            },
            "geometry": {
                "type": "Point",
                "coordinates": [
                    18.68371121859065,
                    50.034107371057026
                ]
            }
        },
        {
            "type": "Feature",
            "properties": {
                "ref:csioz": 1056890,
                "addr:street": "Bankowa",
                "addr:housenumber": "2",
                "addr:city": "Żory",
                "addr:postcode": "44-240",
                "amenity": "pharmacy",
                "dispensing": "yes"
            },
            "geometry": {
                "type": "Point",
                "coordinates": [
                    18.699206859241464,
                    50.029675016751725
                ]
            }
        },
        {
            "type": "Feature",
            "properties": {
                "ref:csioz": 1072170,
                "name": "Apteka Zdrowit",
                "addr:street": "Kościuszki",
                "addr:housenumber": "1",
                "addr:city": "Żory",
                "addr:postcode": "44-240",
                "amenity": "pharmacy",
                "dispensing": "yes"
            },
            "geometry": {
                "type": "Point",
                "coordinates": [
                    18.6953500293291,
                    50.04511541814038
                ]
            }
        },
        {
            "type": "Feature",
            "properties": {
                "ref:csioz": 1072197,
                "name": "Apteka Dbam O Zdrowie",
                "addr:street": "OGRODOWA",
                "addr:housenumber": "18",
                "addr:city": "ŻORY",
                "addr:postcode": "44-240",
                "amenity": "pharmacy",
                "dispensing": "yes"
            },
            "geometry": {
                "type": "Point",
                "coordinates": [
                    18.69137520391936,
                    50.04424087162995
                ]
            }
        },
        {
            "type": "Feature",
            "properties": {
                "ref:csioz": 1072216,
                "name": "Pod Eskulapem",
                "addr:street": "Osiedle 700-lecia Żor",
                "addr:housenumber": "PU-15",
                "addr:city": "Żory",
                "addr:postcode": "44-240",
                "amenity": "pharmacy",
                "dispensing": "yes"
            },
            "geometry": {
                "type": "Point",
                "coordinates": [
                    18.68796699999991,
                    50.04779400001257
                ]
            }
        },
        {
            "type": "Feature",
            "properties": {
                "ref:csioz": 1072288,
                "name": "Pharmacon",
                "addr:street": "WODZISŁAWSKA",
                "addr:housenumber": "14",
                "addr:city": "ŻORY",
                "addr:postcode": "44-240",
                "amenity": "pharmacy",
                "dispensing": "yes"
            },
            "geometry": {
                "type": "Point",
                "coordinates": [
                    18.686290679486557,
                    50.04276522299206
                ]
            }
        },
        {
            "type": "Feature",
            "properties": {
                "ref:csioz": 1073975,
                "name": "Niepubliczny Zakład Opieki Zdrowotnej Szpital Mejski W Żorach Sp. Z O.O.",
                "addr:street": "DĄBROWSKIEGO",
                "addr:housenumber": "20",
                "addr:city": "ŻORY",
                "addr:postcode": "44-240",
                "amenity": "pharmacy",
                "dispensing": "yes"
            },
            "geometry": {
                "type": "Point",
                "coordinates": [
                    18.68361038039015,
                    50.03564740448303
                ]
            }
        },
        {
            "type": "Feature",
            "properties": {
                "ref:csioz": 1172024,
                "name": "Pharmacon",
                "addr:street": "Sądowa",
                "addr:housenumber": "3",
                "addr:city": "Żory",
                "addr:postcode": "44-240",
                "amenity": "pharmacy",
                "dispensing": "yes"
            },
            "geometry": {
                "type": "Point",
                "coordinates": [
                    18.69085513080548,
                    50.03877916370077
                ]
            }
        },
        {
            "type": "Feature",
            "properties": {
                "ref:csioz": 1199430,
                "name": "Apteka Pod Lwem",
                "addr:street": "Górne Przedmieście",
                "addr:housenumber": "8",
                "addr:city": "Żory",
                "addr:postcode": "44-240",
                "amenity": "pharmacy",
                "dispensing": "yes"
            },
            "geometry": {
                "type": "Point",
                "coordinates": [
                    18.689773831290196,
                    50.04376060648173
                ]
            }
        },
        {
            "type": "Feature",
            "properties": {
                "ref:csioz": 1113043,
                "name": "\"Stowarzyszenie Przyjaciół Chorych \"\"Hospicjum Im. Jana Pawła Ii\"\" Oddział Opieki Paliatywnej\"",
                "addr:street": "Promienna",
                "addr:housenumber": "4",
                "addr:city": "Żory",
                "addr:postcode": "44-240",
                "amenity": "pharmacy",
                "dispensing": "yes"
            },
            "geometry": {
                "type": "Point",
                "coordinates": [
                    18.688230532803296,
                    50.02863993604648
                ]
            }
        },
        {
            "type": "Feature",
            "properties": {
                "ref:csioz": 1072108,
                "name": "Na Rondzie",
                "addr:street": "ALEJA WOJSKA POLSKIEGO",
                "addr:housenumber": "3C",
                "addr:city": "ŻORY",
                "addr:postcode": "44-240",
                "amenity": "pharmacy",
                "dispensing": "yes"
            },
            "geometry": {
                "type": "Point",
                "coordinates": [
                    18.68905607962611,
                    50.045295213694516
                ]
            }
        },
        {
            "type": "Feature",
            "properties": {
                "ref:csioz": 1072124,
                "name": "Higieja",
                "addr:street": "DOLNE PRZEDMIEŚCIE",
                "addr:housenumber": "7",
                "addr:city": "ŻORY",
                "addr:postcode": "44-240",
                "amenity": "pharmacy",
                "dispensing": "yes"
            },
            "geometry": {
                "type": "Point",
                "coordinates": [
                    18.697328271635616,
                    50.04705346889069
                ]
            }
        },
        {
            "type": "Feature",
            "properties": {
                "ref:csioz": 1072135,
                "name": "Pharmacon",
                "addr:street": "Dworcowa",
                "addr:housenumber": "19A",
                "addr:city": "Żory",
                "addr:postcode": "44-240",
                "amenity": "pharmacy",
                "dispensing": "yes"
            },
            "geometry": {
                "type": "Point",
                "coordinates": [
                    18.70101513917164,
                    50.048598363603986
                ]
            }
        },
        {
            "type": "Feature",
            "properties": {
                "ref:csioz": 1072143,
                "name": "Pod Eskulapem 2",
                "addr:street": "Folwarecka",
                "addr:housenumber": "2",
                "addr:city": "Żory",
                "addr:postcode": "44-240",
                "amenity": "pharmacy",
                "dispensing": "yes"
            },
            "geometry": {
                "type": "Point",
                "coordinates": [
                    18.688879462661138,
                    50.04335620541124
                ]
            }
        },
        {
            "type": "Feature",
            "properties": {
                "ref:csioz": 1072156,
                "name": "Apteka Dbam O Zdrowie",
                "addr:street": "FRANCUSKA",
                "addr:housenumber": "11",
                "addr:city": "ŻORY",
                "addr:postcode": "44-240",
                "amenity": "pharmacy",
                "dispensing": "yes"
            },
            "geometry": {
                "type": "Point",
                "coordinates": [
                    18.703989433362565,
                    50.039883245411765
                ]
            }
        },
        {
            "type": "Feature",
            "properties": {
                "ref:csioz": 1072203,
                "name": "Dr. Max",
                "addr:street": "OKRĘŻNA",
                "addr:housenumber": "2",
                "addr:city": "ŻORY",
                "addr:postcode": "44-247",
                "amenity": "pharmacy",
                "dispensing": "yes"
            },
            "geometry": {
                "type": "Point",
                "coordinates": [
                    18.699373249711694,
                    50.03147522432436
                ]
            }
        },
        {
            "type": "Feature",
            "properties": {
                "ref:csioz": 1187426,
                "name": "Pharmacon",
                "addr:street": "Promienna",
                "addr:housenumber": "1a",
                "addr:city": "Żory",
                "addr:postcode": "44-240",
                "amenity": "pharmacy",
                "dispensing": "yes"
            },
            "geometry": {
                "type": "Point",
                "coordinates": [
                    18.689062732117684,
                    50.029450020258025
                ]
            }
        },
        {
            "type": "Feature",
            "properties": {
                "ref:csioz": 1190736,
                "name": "Pharmacon",
                "addr:street": "Osiedle Powstańców Śląskich",
                "addr:housenumber": "PU-8",
                "addr:city": "Żory",
                "addr:postcode": "44-241",
                "amenity": "pharmacy",
                "dispensing": "yes"
            },
            "geometry": {
                "type": "Point",
                "coordinates": [
                    18.680726999999916,
                    50.03878500001255
                ]
            }
        },
        {
            "type": "Feature",
            "properties": {
                "ref:csioz": 1072242,
                "name": "Pharmacon",
                "addr:street": "OSIEDLE KSIĘCIA WŁADYSŁAWA",
                "addr:housenumber": "27",
                "addr:city": "ŻORY",
                "addr:postcode": "44-240",
                "amenity": "pharmacy",
                "dispensing": "yes"
            },
            "geometry": {
                "type": "Point",
                "coordinates": [
                    18.684058828006176,
                    50.038094019170224
                ]
            }
        },
        {
            "type": "Feature",
            "properties": {
                "ref:csioz": 1072275,
                "name": "Astra",
                "addr:street": "Osiedle Sikorskiego",
                "addr:housenumber": "44",
                "addr:city": "Żory",
                "addr:postcode": "44-244",
                "amenity": "pharmacy",
                "dispensing": "yes"
            },
            "geometry": {
                "type": "Point",
                "coordinates": [
                    18.690321369121836,
                    50.02964824304245
                ]
            }
        },
        {
            "type": "Feature",
            "properties": {
                "ref:csioz": 1225462,
                "name": "Pharmacon",
                "addr:street": "Osiedle Powstańców Śląskich",
                "addr:housenumber": "22A",
                "addr:city": "Żory",
                "addr:postcode": "44-241",
                "amenity": "pharmacy",
                "dispensing": "yes"
            },
            "geometry": {
                "type": "Point",
                "coordinates": [
                    18.679186517154367,
                    50.036918467349246
                ]
            }
        },
        {
            "type": "Feature",
            "properties": {
                "ref:csioz": 1229482,
                "name": "Dział Farmacji Szpitalnej",
                "addr:street": "Okrężna",
                "addr:housenumber": "11",
                "addr:city": "Żory",
                "addr:postcode": "44-240",
                "amenity": "pharmacy",
                "dispensing": "yes"
            },
            "geometry": {
                "type": "Point",
                "coordinates": [
                    18.702089646409593,
                    50.027832280368365
                ]
            }
        }
    ]
}