{
    "type": "FeatureCollection",
    "name": "JPT_KOD_JE_1062",
    "features": [
        {
            "type": "Feature",
            "properties": {
                "ref:csioz": 1009648,
                "addr:street": "Juliusza Słowackiego",
                "addr:housenumber": "21",
                "addr:city": "Piotrków Trybunalski",
                "addr:postcode": "97-300",
                "amenity": "pharmacy",
                "dispensing": "yes"
            },
            "geometry": {
                "type": "Point",
                "coordinates": [
                    19.68671104795029,
                    51.409233151427344
                ]
            }
        },
        {
            "type": "Feature",
            "properties": {
                "ref:csioz": 1013612,
                "name": "Farma",
                "addr:street": "Leonarda",
                "addr:housenumber": "13/17",
                "addr:city": "Piotrków Trybunalski",
                "addr:postcode": "97-300",
                "amenity": "pharmacy",
                "dispensing": "yes"
            },
            "geometry": {
                "type": "Point",
                "coordinates": [
                    19.706165000000237,
                    51.408088000014544
                ]
            }
        },
        {
            "type": "Feature",
            "properties": {
                "ref:csioz": 1016346,
                "name": "Dr. Max",
                "addr:street": "Wojska Polskiego",
                "addr:housenumber": "121",
                "addr:city": "Piotrków Trybunalski",
                "addr:postcode": "97-300",
                "amenity": "pharmacy",
                "dispensing": "yes"
            },
            "geometry": {
                "type": "Point",
                "coordinates": [
                    19.677663892735882,
                    51.41512831590561
                ]
            }
        },
        {
            "type": "Feature",
            "properties": {
                "ref:csioz": 1016748,
                "name": "Dr. Max",
                "addr:street": "gen. Władysława Sikorskiego",
                "addr:housenumber": "13/17",
                "addr:city": "Piotrków Trybunalski",
                "addr:postcode": "97-300",
                "amenity": "pharmacy",
                "dispensing": "yes"
            },
            "geometry": {
                "type": "Point",
                "coordinates": [
                    19.661917000000212,
                    51.40381700001456
                ]
            }
        },
        {
            "type": "Feature",
            "properties": {
                "ref:csioz": 1018363,
                "name": "Prima",
                "addr:street": "Leonarda",
                "addr:housenumber": "13/17",
                "addr:city": "Piotrków Trybunalski",
                "addr:postcode": "97-300",
                "amenity": "pharmacy",
                "dispensing": "yes"
            },
            "geometry": {
                "type": "Point",
                "coordinates": [
                    19.706165000000237,
                    51.408088000014544
                ]
            }
        },
        {
            "type": "Feature",
            "properties": {
                "ref:csioz": 1019200,
                "name": "Pod Siódemkami",
                "addr:street": "Wojska Polskiego",
                "addr:housenumber": "77",
                "addr:city": "Piotrków Trybunalski",
                "addr:postcode": "97-300",
                "amenity": "pharmacy",
                "dispensing": "yes"
            },
            "geometry": {
                "type": "Point",
                "coordinates": [
                    19.686448030996715,
                    51.412595369608546
                ]
            }
        },
        {
            "type": "Feature",
            "properties": {
                "ref:csioz": 1020054,
                "name": "Na Starówce 2",
                "addr:street": "Trybunalski",
                "addr:housenumber": "3",
                "addr:city": "Piotrków Trybunalski",
                "addr:postcode": "97-300",
                "amenity": "pharmacy",
                "dispensing": "yes"
            },
            "geometry": {
                "type": "Point",
                "coordinates": [
                    19.695771759897802,
                    51.40850005908393
                ]
            }
        },
        {
            "type": "Feature",
            "properties": {
                "ref:csioz": 1020318,
                "name": "Apteka Prima",
                "addr:street": "Juliusza Słowackiego",
                "addr:housenumber": "155/157",
                "addr:city": "Piotrków Trybunalski",
                "addr:postcode": "97-300",
                "amenity": "pharmacy",
                "dispensing": "yes"
            },
            "geometry": {
                "type": "Point",
                "coordinates": [
                    19.66158900000022,
                    51.41064200001456
                ]
            }
        },
        {
            "type": "Feature",
            "properties": {
                "ref:csioz": 1021058,
                "name": "Apteka Dbam O Zdrowie",
                "addr:street": "Krzysztofa Kamila Baczyńskiego",
                "addr:housenumber": "2A",
                "addr:city": "Piotrków Trybunalski",
                "addr:postcode": "97-300",
                "amenity": "pharmacy",
                "dispensing": "yes"
            },
            "geometry": {
                "type": "Point",
                "coordinates": [
                    19.667535197407954,
                    51.40567823389245
                ]
            }
        },
        {
            "type": "Feature",
            "properties": {
                "ref:csioz": 1022154,
                "name": "Apteka Na Szóstkę",
                "addr:street": "Stanisława Wyspiańskiego",
                "addr:housenumber": "14",
                "addr:city": "Piotrków Trybunalski",
                "addr:postcode": "97-300",
                "amenity": "pharmacy",
                "dispensing": "yes"
            },
            "geometry": {
                "type": "Point",
                "coordinates": [
                    19.673545881507014,
                    51.41034090663774
                ]
            }
        },
        {
            "type": "Feature",
            "properties": {
                "ref:csioz": 1023665,
                "addr:street": "Juliusza Słowackiego",
                "addr:housenumber": "123",
                "addr:city": "Piotrków Trybunalski",
                "addr:postcode": "97-300",
                "amenity": "pharmacy",
                "dispensing": "yes"
            },
            "geometry": {
                "type": "Point",
                "coordinates": [
                    19.666966079921085,
                    51.410287821278594
                ]
            }
        },
        {
            "type": "Feature",
            "properties": {
                "ref:csioz": 1024060,
                "name": "Stylowa 2",
                "addr:street": "Juliusza Słowackiego",
                "addr:housenumber": "138A",
                "addr:city": "Piotrków Trybunalski",
                "addr:postcode": "97-300",
                "amenity": "pharmacy",
                "dispensing": "yes"
            },
            "geometry": {
                "type": "Point",
                "coordinates": [
                    19.66735224356822,
                    51.40997425959286
                ]
            }
        },
        {
            "type": "Feature",
            "properties": {
                "ref:csioz": 1121385,
                "name": "Stylowa 4",
                "addr:street": "Henryka Sienkiewicza",
                "addr:housenumber": "19",
                "addr:city": "Piotrków Trybunalski",
                "addr:postcode": "97-300",
                "amenity": "pharmacy",
                "dispensing": "yes"
            },
            "geometry": {
                "type": "Point",
                "coordinates": [
                    19.688500017783486,
                    51.40522517458999
                ]
            }
        },
        {
            "type": "Feature",
            "properties": {
                "ref:csioz": 1164494,
                "addr:street": "Polna",
                "addr:housenumber": "13/13A",
                "addr:city": "Piotrków Trybunalski",
                "addr:postcode": "97-300",
                "amenity": "pharmacy",
                "dispensing": "yes"
            },
            "geometry": {
                "type": "Point",
                "coordinates": [
                    19.678071000000223,
                    51.41340600001457
                ]
            }
        },
        {
            "type": "Feature",
            "properties": {
                "ref:csioz": 1165737,
                "name": "Vita Na Szóstkę",
                "addr:street": "Wojska Polskiego",
                "addr:housenumber": "137/139",
                "addr:city": "Piotrków Trybunalski",
                "addr:postcode": "97-300",
                "amenity": "pharmacy",
                "dispensing": "yes"
            },
            "geometry": {
                "type": "Point",
                "coordinates": [
                    19.674006000000226,
                    51.41693400001457
                ]
            }
        },
        {
            "type": "Feature",
            "properties": {
                "ref:csioz": 1197000,
                "name": "Samodzielny Szpital Wojewódzki Im. M. Kopernika",
                "addr:street": "Rakowska",
                "addr:housenumber": "15",
                "addr:city": "Piotrków Trybunalski",
                "addr:postcode": "97-300",
                "amenity": "pharmacy",
                "dispensing": "yes"
            },
            "geometry": {
                "type": "Point",
                "coordinates": [
                    19.713267602715778,
                    51.419220592348246
                ]
            }
        },
        {
            "type": "Feature",
            "properties": {
                "ref:csioz": 1018204,
                "name": "Apteka Dbam O Zdrowie",
                "addr:street": "Garbarska",
                "addr:housenumber": "10/12",
                "addr:city": "Piotrków Trybunalski",
                "addr:postcode": "97-300",
                "amenity": "pharmacy",
                "dispensing": "yes"
            },
            "geometry": {
                "type": "Point",
                "coordinates": [
                    19.7054491384642,
                    51.40777536230354
                ]
            }
        },
        {
            "type": "Feature",
            "properties": {
                "ref:csioz": 1023348,
                "name": "Stylowa",
                "addr:street": "Młynarska",
                "addr:housenumber": "2",
                "addr:city": "Piotrków Trybunalski",
                "addr:postcode": "97-300",
                "amenity": "pharmacy",
                "dispensing": "yes"
            },
            "geometry": {
                "type": "Point",
                "coordinates": [
                    19.68306951844397,
                    51.40904519334311
                ]
            }
        },
        {
            "type": "Feature",
            "properties": {
                "ref:csioz": 1024358,
                "name": "Kwiaty Polskie",
                "addr:street": "Kostromska",
                "addr:housenumber": "53",
                "addr:city": "Piotrków Trybunalski",
                "addr:postcode": "97-300",
                "amenity": "pharmacy",
                "dispensing": "yes"
            },
            "geometry": {
                "type": "Point",
                "coordinates": [
                    19.669489470135122,
                    51.410810547334634
                ]
            }
        },
        {
            "type": "Feature",
            "properties": {
                "ref:csioz": 1025580,
                "name": "Apteka Z Uśmiechem",
                "addr:street": "Szkolna",
                "addr:housenumber": "37",
                "addr:city": "Piotrków Trybunalski",
                "addr:postcode": "97-300",
                "amenity": "pharmacy",
                "dispensing": "yes"
            },
            "geometry": {
                "type": "Point",
                "coordinates": [
                    19.677941009827908,
                    51.41164814585105
                ]
            }
        },
        {
            "type": "Feature",
            "properties": {
                "ref:csioz": 1025617,
                "name": "Stylowa 3",
                "addr:street": "Juliusza Słowackiego",
                "addr:housenumber": "98/106",
                "addr:city": "Piotrków Trybunalski",
                "addr:postcode": "97-300",
                "amenity": "pharmacy",
                "dispensing": "yes"
            },
            "geometry": {
                "type": "Point",
                "coordinates": [
                    19.67311900000022,
                    51.40951400001457
                ]
            }
        },
        {
            "type": "Feature",
            "properties": {
                "ref:csioz": 1113996,
                "addr:street": "Łódzka",
                "addr:housenumber": "21",
                "addr:city": "Piotrków Trybunalski",
                "addr:postcode": "97-300",
                "amenity": "pharmacy",
                "dispensing": "yes"
            },
            "geometry": {
                "type": "Point",
                "coordinates": [
                    19.680964900792695,
                    51.41529743161301
                ]
            }
        },
        {
            "type": "Feature",
            "properties": {
                "ref:csioz": 1114554,
                "name": "Super Tania Apteka Przyjazna",
                "addr:street": "Rzemieślnicza",
                "addr:housenumber": "33",
                "addr:city": "Piotrków Trybunalski",
                "addr:postcode": "97-300",
                "amenity": "pharmacy",
                "dispensing": "yes"
            },
            "geometry": {
                "type": "Point",
                "coordinates": [
                    19.704124809457063,
                    51.41135823326339
                ]
            }
        },
        {
            "type": "Feature",
            "properties": {
                "ref:csioz": 1173298,
                "name": "Galenica Apteka Samoobsługowa",
                "addr:street": "3 Maja",
                "addr:housenumber": "14",
                "addr:city": "Piotrków Trybunalski",
                "addr:postcode": "97-300",
                "amenity": "pharmacy",
                "dispensing": "yes"
            },
            "geometry": {
                "type": "Point",
                "coordinates": [
                    19.692766366343395,
                    51.404265659705906
                ]
            }
        },
        {
            "type": "Feature",
            "properties": {
                "ref:csioz": 1176845,
                "name": "Stylowa 5",
                "addr:street": "Garbarska",
                "addr:housenumber": "26",
                "addr:city": "Piotrków Trybunalski",
                "addr:postcode": "97-300",
                "amenity": "pharmacy",
                "dispensing": "yes"
            },
            "geometry": {
                "type": "Point",
                "coordinates": [
                    19.70793000000024,
                    51.40744900001455
                ]
            }
        },
        {
            "type": "Feature",
            "properties": {
                "ref:csioz": 1177710,
                "name": "Apteka Na Zdrowie !",
                "addr:street": "Łódzka",
                "addr:housenumber": "60C",
                "addr:city": "Piotrków Trybunalski",
                "addr:postcode": "97-300",
                "amenity": "pharmacy",
                "dispensing": "yes"
            },
            "geometry": {
                "type": "Point",
                "coordinates": [
                    19.67452298117894,
                    51.42211425253171
                ]
            }
        },
        {
            "type": "Feature",
            "properties": {
                "ref:csioz": 1180893,
                "name": "Apteka Przyjazna",
                "addr:street": "Romana Dmowskiego",
                "addr:housenumber": "38",
                "addr:city": "Piotrków Trybunalski",
                "addr:postcode": "97-300",
                "amenity": "pharmacy",
                "dispensing": "yes"
            },
            "geometry": {
                "type": "Point",
                "coordinates": [
                    19.666380452521224,
                    51.40160861709037
                ]
            }
        },
        {
            "type": "Feature",
            "properties": {
                "ref:csioz": 1185592,
                "name": "Prima",
                "addr:street": "Belzacka",
                "addr:housenumber": "69",
                "addr:city": "Piotrków Trybunalski",
                "addr:postcode": "97-300",
                "amenity": "pharmacy",
                "dispensing": "yes"
            },
            "geometry": {
                "type": "Point",
                "coordinates": [
                    19.66872740714758,
                    51.403119003813764
                ]
            }
        },
        {
            "type": "Feature",
            "properties": {
                "ref:csioz": 1196966,
                "name": "Powiatowy Zoz W Piotrkowie Trybunalskim",
                "addr:street": "Franklina Roosevelta",
                "addr:housenumber": "3",
                "addr:city": "Piotrków Trybunalski",
                "addr:postcode": "97-300",
                "amenity": "pharmacy",
                "dispensing": "yes"
            },
            "geometry": {
                "type": "Point",
                "coordinates": [
                    19.69091709134925,
                    51.4005347742037
                ]
            }
        },
        {
            "type": "Feature",
            "properties": {
                "ref:csioz": 1208054,
                "name": "Apteka Słoneczna Centrum Farmaceutyczne",
                "addr:street": "Juliusza Słowackiego",
                "addr:housenumber": "38",
                "addr:city": "Piotrków Trybunalski",
                "addr:postcode": "97-300",
                "amenity": "pharmacy",
                "dispensing": "yes"
            },
            "geometry": {
                "type": "Point",
                "coordinates": [
                    19.68261580764606,
                    51.409200910045755
                ]
            }
        },
        {
            "type": "Feature",
            "properties": {
                "ref:csioz": 1217070,
                "name": "Instytut Zdrowia Medicall",
                "addr:street": "Wojska Polskiego",
                "addr:housenumber": "77",
                "addr:city": "Piotrków Trybunalski",
                "addr:postcode": "97-300",
                "amenity": "pharmacy",
                "dispensing": "yes"
            },
            "geometry": {
                "type": "Point",
                "coordinates": [
                    19.686448030996715,
                    51.412595369608546
                ]
            }
        },
        {
            "type": "Feature",
            "properties": {
                "ref:csioz": 1223235,
                "name": "Apteka Na Szóstkę",
                "addr:street": "Hutnicza",
                "addr:housenumber": "18",
                "addr:city": "Piotrków Trybunalski",
                "addr:postcode": "97-300",
                "amenity": "pharmacy",
                "dispensing": "yes"
            },
            "geometry": {
                "type": "Point",
                "coordinates": [
                    19.680672281621106,
                    51.4167008910346
                ]
            }
        },
        {
            "type": "Feature",
            "properties": {
                "ref:csioz": 1223404,
                "name": "Z Uśmiechem",
                "addr:street": "Polskiej Organizacji Wojskowej",
                "addr:housenumber": "12",
                "addr:city": "Piotrków Trybunalski",
                "addr:postcode": "97-300",
                "amenity": "pharmacy",
                "dispensing": "yes"
            },
            "geometry": {
                "type": "Point",
                "coordinates": [
                    19.685700607556686,
                    51.410758481946054
                ]
            }
        },
        {
            "type": "Feature",
            "properties": {
                "ref:csioz": 1118465,
                "name": "\"Apteka \"\"Kwiaty Polskie\"\"\"",
                "addr:street": "Targowa",
                "addr:housenumber": "2",
                "addr:city": "Piotrków Trybunalski",
                "addr:postcode": "97-300",
                "amenity": "pharmacy",
                "dispensing": "yes"
            },
            "geometry": {
                "type": "Point",
                "coordinates": [
                    19.68769940135992,
                    51.40633996663371
                ]
            }
        },
        {
            "type": "Feature",
            "properties": {
                "ref:csioz": 1230390,
                "addr:street": "Franklina Roosevelta",
                "addr:housenumber": "3",
                "addr:city": "Piotrków Trybunalski",
                "addr:postcode": "97-300",
                "amenity": "pharmacy",
                "dispensing": "yes"
            },
            "geometry": {
                "type": "Point",
                "coordinates": [
                    19.69091709134925,
                    51.4005347742037
                ]
            }
        }
    ]
}