{
    "type": "FeatureCollection",
    "name": "JPT_KOD_JE_3018",
    "features": [
        {
            "type": "Feature",
            "properties": {
                "ref:csioz": 1051786,
                "name": "Retiro",
                "addr:street": "kaliska",
                "addr:housenumber": "4",
                "addr:city": "Grabów nad Prosną",
                "addr:postcode": "63-520",
                "amenity": "pharmacy",
                "dispensing": "yes"
            },
            "geometry": {
                "type": "Point",
                "coordinates": [
                    18.118490770459147,
                    51.507153431297894
                ]
            }
        },
        {
            "type": "Feature",
            "properties": {
                "ref:csioz": 1052131,
                "name": "Rodzinna",
                "addr:street": "MARII KONOPNICKIEJ",
                "addr:housenumber": "1",
                "addr:city": "KOBYLA GÓRA",
                "addr:postcode": "63-507",
                "amenity": "pharmacy",
                "dispensing": "yes"
            },
            "geometry": {
                "type": "Point",
                "coordinates": [
                    17.835953732079247,
                    51.37737196346682
                ]
            }
        },
        {
            "type": "Feature",
            "properties": {
                "ref:csioz": 1052893,
                "name": "Pod Wagą",
                "addr:street": "ZAMKOWA",
                "addr:housenumber": "4",
                "addr:city": "OSTRZESZÓW",
                "addr:postcode": "63-500",
                "amenity": "pharmacy",
                "dispensing": "yes"
            },
            "geometry": {
                "type": "Point",
                "coordinates": [
                    17.932938397763312,
                    51.42658441342621
                ]
            }
        },
        {
            "type": "Feature",
            "properties": {
                "ref:csioz": 1053204,
                "name": "Zamkowa",
                "addr:street": "ZAMKOWA",
                "addr:housenumber": "28",
                "addr:city": "OSTRZESZÓW",
                "addr:postcode": "63-500",
                "amenity": "pharmacy",
                "dispensing": "yes"
            },
            "geometry": {
                "type": "Point",
                "coordinates": [
                    17.92559867891406,
                    51.42831596648831
                ]
            }
        },
        {
            "type": "Feature",
            "properties": {
                "ref:csioz": 1053317,
                "name": "Pharmacon",
                "addr:street": "KALISKA",
                "addr:housenumber": "6",
                "addr:city": "DORUCHÓW",
                "addr:postcode": "63-505",
                "amenity": "pharmacy",
                "dispensing": "yes"
            },
            "geometry": {
                "type": "Point",
                "coordinates": [
                    18.07813228358491,
                    51.417234566031084
                ]
            }
        },
        {
            "type": "Feature",
            "properties": {
                "ref:csioz": 1053914,
                "addr:street": "WIOSNY LUDÓW",
                "addr:housenumber": "2",
                "addr:city": "KOBYLA GÓRA",
                "addr:postcode": "63-507",
                "amenity": "pharmacy",
                "dispensing": "yes"
            },
            "geometry": {
                "type": "Point",
                "coordinates": [
                    17.837798625426505,
                    51.37895227310167
                ]
            }
        },
        {
            "type": "Feature",
            "properties": {
                "ref:csioz": 1183508,
                "name": "Drofarm",
                "addr:street": "Dworcowa",
                "addr:housenumber": "6",
                "addr:city": "Ostrzeszów",
                "addr:postcode": "63-500",
                "amenity": "pharmacy",
                "dispensing": "yes"
            },
            "geometry": {
                "type": "Point",
                "coordinates": [
                    17.94042399999957,
                    51.429305000014594
                ]
            }
        },
        {
            "type": "Feature",
            "properties": {
                "ref:csioz": 1184871,
                "name": "Kwiatowa",
                "addr:street": "Łąkowa",
                "addr:housenumber": "10",
                "addr:city": "Ostrzeszów",
                "addr:postcode": "63-500",
                "amenity": "pharmacy",
                "dispensing": "yes"
            },
            "geometry": {
                "type": "Point",
                "coordinates": [
                    17.93689999999956,
                    51.42416600001458
                ]
            }
        },
        {
            "type": "Feature",
            "properties": {
                "ref:csioz": 1197879,
                "name": "Optima",
                "addr:street": "Wodna",
                "addr:housenumber": "2A",
                "addr:city": "Grabów nad Prosną",
                "addr:postcode": "63-520",
                "amenity": "pharmacy",
                "dispensing": "yes"
            },
            "geometry": {
                "type": "Point",
                "coordinates": [
                    18.119552123538742,
                    51.50828032236918
                ]
            }
        },
        {
            "type": "Feature",
            "properties": {
                "ref:csioz": 1202880,
                "name": "Drofarm",
                "addr:street": "Zamkowa",
                "addr:housenumber": "36",
                "addr:city": "Ostrzeszów",
                "addr:postcode": "63-500",
                "amenity": "pharmacy",
                "dispensing": "yes"
            },
            "geometry": {
                "type": "Point",
                "coordinates": [
                    17.92380306745791,
                    51.42942484756559
                ]
            }
        },
        {
            "type": "Feature",
            "properties": {
                "ref:csioz": 1215928,
                "name": "Klasztorna 2",
                "addr:street": "Wieluńska",
                "addr:housenumber": "24A",
                "addr:city": "Kraszewice",
                "addr:postcode": "63-522",
                "amenity": "pharmacy",
                "dispensing": "yes"
            },
            "geometry": {
                "type": "Point",
                "coordinates": [
                    18.225616547621446,
                    51.51532138216217
                ]
            }
        },
        {
            "type": "Feature",
            "properties": {
                "ref:csioz": 1049567,
                "name": "Borek",
                "addr:street": "DASZYŃSKIEGO",
                "addr:housenumber": "1",
                "addr:city": "OSTRZESZÓW",
                "addr:postcode": "63-500",
                "amenity": "pharmacy",
                "dispensing": "yes"
            },
            "geometry": {
                "type": "Point",
                "coordinates": [
                    17.930476325819704,
                    51.42534626210081
                ]
            }
        },
        {
            "type": "Feature",
            "properties": {
                "ref:csioz": 1052189,
                "name": "Zamkowa",
                "addr:street": "GORGOLEWSKIEGO",
                "addr:housenumber": "4",
                "addr:city": "OSTRZESZÓW",
                "addr:postcode": "63-500",
                "amenity": "pharmacy",
                "dispensing": "yes"
            },
            "geometry": {
                "type": "Point",
                "coordinates": [
                    17.929922403794986,
                    51.426201644148556
                ]
            }
        },
        {
            "type": "Feature",
            "properties": {
                "ref:csioz": 1052211,
                "name": "W Rynku",
                "addr:street": "RYNEK",
                "addr:housenumber": "14",
                "addr:city": "OSTRZESZÓW",
                "addr:postcode": "63-500",
                "amenity": "pharmacy",
                "dispensing": "yes"
            },
            "geometry": {
                "type": "Point",
                "coordinates": [
                    17.933643919848965,
                    51.42590321807531
                ]
            }
        },
        {
            "type": "Feature",
            "properties": {
                "ref:csioz": 1052240,
                "name": "Klasztorna",
                "addr:street": "KALISKA",
                "addr:housenumber": "5",
                "addr:city": "GRABÓW NAD PROSNĄ",
                "addr:postcode": "63-520",
                "amenity": "pharmacy",
                "dispensing": "yes"
            },
            "geometry": {
                "type": "Point",
                "coordinates": [
                    18.11720010243682,
                    51.506859223616324
                ]
            }
        },
        {
            "type": "Feature",
            "properties": {
                "ref:csioz": 1052956,
                "name": "Pod Pelikanem",
                "addr:street": "Kaliska",
                "addr:housenumber": "19",
                "addr:city": "Grabów nad Prosną",
                "addr:postcode": "63-520",
                "amenity": "pharmacy",
                "dispensing": "yes"
            },
            "geometry": {
                "type": "Point",
                "coordinates": [
                    18.118118649660815,
                    51.50755467404452
                ]
            }
        },
        {
            "type": "Feature",
            "properties": {
                "ref:csioz": 1118191,
                "name": "Optima",
                "addr:street": "Krakowska",
                "addr:housenumber": "4",
                "addr:city": "Mikstat",
                "addr:postcode": "63-510",
                "amenity": "pharmacy",
                "dispensing": "yes"
            },
            "geometry": {
                "type": "Point",
                "coordinates": [
                    17.970152454000846,
                    51.530832845532856
                ]
            }
        },
        {
            "type": "Feature",
            "properties": {
                "ref:csioz": 1197158,
                "addr:street": "Aleja Wolności",
                "addr:housenumber": "4",
                "addr:city": "Ostrzeszów",
                "addr:postcode": "63-500",
                "amenity": "pharmacy",
                "dispensing": "yes"
            },
            "geometry": {
                "type": "Point",
                "coordinates": [
                    17.926919560007118,
                    51.42565370108983
                ]
            }
        },
        {
            "type": "Feature",
            "properties": {
                "ref:csioz": 1204890,
                "name": "Zamkowa",
                "addr:street": "Rolna",
                "addr:housenumber": "2",
                "addr:city": "Doruchów",
                "addr:postcode": "63-505",
                "amenity": "pharmacy",
                "dispensing": "yes"
            },
            "geometry": {
                "type": "Point",
                "coordinates": [
                    18.072191076335983,
                    51.417730871769336
                ]
            }
        },
        {
            "type": "Feature",
            "properties": {
                "ref:csioz": 1205586,
                "name": "Optima",
                "addr:street": "Wieluńska",
                "addr:housenumber": "42",
                "addr:city": "Kraszewice",
                "addr:postcode": "63-522",
                "amenity": "pharmacy",
                "dispensing": "yes"
            },
            "geometry": {
                "type": "Point",
                "coordinates": [
                    18.226739509622934,
                    51.51461802490223
                ]
            }
        },
        {
            "type": "Feature",
            "properties": {
                "ref:csioz": 1206415,
                "name": "Na Zdrowie",
                "addr:street": "Krakowska",
                "addr:housenumber": "1",
                "addr:city": "Mikstat",
                "addr:postcode": "63-510",
                "amenity": "pharmacy",
                "dispensing": "yes"
            },
            "geometry": {
                "type": "Point",
                "coordinates": [
                    17.970906208097976,
                    51.53096808864357
                ]
            }
        },
        {
            "type": "Feature",
            "properties": {
                "ref:csioz": 1207938,
                "name": "Prima",
                "addr:street": "Piastowska",
                "addr:housenumber": "1",
                "addr:city": "Ostrzeszów",
                "addr:postcode": "63-500",
                "amenity": "pharmacy",
                "dispensing": "yes"
            },
            "geometry": {
                "type": "Point",
                "coordinates": [
                    17.926359963006714,
                    51.42660069405644
                ]
            }
        },
        {
            "type": "Feature",
            "properties": {
                "ref:csioz": 1222141,
                "name": "Na Zdrowie",
                "addr:street": "Henryka Sienkiewicza",
                "addr:housenumber": "21",
                "addr:city": "Ostrzeszów",
                "addr:postcode": "63-500",
                "amenity": "pharmacy",
                "dispensing": "yes"
            },
            "geometry": {
                "type": "Point",
                "coordinates": [
                    17.936855295446804,
                    51.42616347686755
                ]
            }
        }
    ]
}