{
    "type": "FeatureCollection",
    "name": "JPT_KOD_JE_1201",
    "features": [
        {
            "type": "Feature",
            "properties": {
                "ref:csioz": 1078531,
                "addr:street": "Proszowska",
                "addr:housenumber": "1",
                "addr:city": "Bochnia",
                "addr:postcode": "32-700",
                "amenity": "pharmacy"
            },
            "geometry": {
                "type": "Point",
                "coordinates": [
                    20.42847264513708,
                    49.97872786177935
                ]
            }
        },
        {
            "type": "Feature",
            "properties": {
                "ref:csioz": 1078553,
                "name": "Doz Apteka. Dbam O Zdrowie.",
                "addr:street": "Gołębia",
                "addr:housenumber": "1",
                "addr:city": "Bochnia",
                "addr:postcode": "32-700",
                "amenity": "pharmacy"
            },
            "geometry": {
                "type": "Point",
                "coordinates": [
                    20.427519013249192,
                    49.97010653005182
                ]
            }
        },
        {
            "type": "Feature",
            "properties": {
                "ref:csioz": 1078577,
                "name": "Apteka Floris",
                "addr:street": "Partyzantów",
                "addr:housenumber": "2A",
                "addr:city": "Bochnia",
                "addr:postcode": "32-700",
                "amenity": "pharmacy"
            },
            "geometry": {
                "type": "Point",
                "coordinates": [
                    20.42726348636141,
                    49.978960259029016
                ]
            }
        },
        {
            "type": "Feature",
            "properties": {
                "ref:csioz": 1078589,
                "addr:street": "Gazaris",
                "addr:housenumber": "1B",
                "addr:city": "Bochnia",
                "addr:postcode": "32-700",
                "amenity": "pharmacy"
            },
            "geometry": {
                "type": "Point",
                "coordinates": [
                    20.433338000000873,
                    49.970231000012454
                ]
            }
        },
        {
            "type": "Feature",
            "properties": {
                "ref:csioz": 1078590,
                "name": "\"Apteka Prywatna 'Pod Białym Orłem'\"",
                "addr:street": "Rynek",
                "addr:housenumber": "9",
                "addr:city": "Bochnia",
                "addr:postcode": "32-700",
                "amenity": "pharmacy"
            },
            "geometry": {
                "type": "Point",
                "coordinates": [
                    20.429680564947162,
                    49.96924698298167
                ]
            }
        },
        {
            "type": "Feature",
            "properties": {
                "ref:csioz": 1078609,
                "name": "\"Apteka 'Remedium Ii'\"",
                "addr:street": "Krakowskie Przedmieście",
                "addr:housenumber": "19",
                "addr:city": "Bochnia",
                "addr:postcode": "32-700",
                "amenity": "pharmacy"
            },
            "geometry": {
                "type": "Point",
                "coordinates": [
                    20.413865830309543,
                    49.96479913481634
                ]
            }
        },
        {
            "type": "Feature",
            "properties": {
                "ref:csioz": 1078544,
                "name": "\"Apteka \"\"Floris\"\"\"",
                "addr:street": "Floris",
                "addr:housenumber": "12",
                "addr:city": "Bochnia",
                "addr:postcode": "32-700",
                "amenity": "pharmacy"
            },
            "geometry": {
                "type": "Point",
                "coordinates": [
                    20.43459056633262,
                    49.96951330659151
                ]
            }
        },
        {
            "type": "Feature",
            "properties": {
                "ref:csioz": 1078695,
                "name": "\"Apteka Prywatna 'Pod Orzechem'\"",
                "addr:housenumber": "213",
                "addr:postcode": "32-700",
                "amenity": "pharmacy",
                "addr:place": "Cikowice"
            },
            "geometry": {
                "type": "Point",
                "coordinates": [
                    20.371259825290853,
                    49.98119484828815
                ]
            }
        },
        {
            "type": "Feature",
            "properties": {
                "ref:csioz": 1078718,
                "addr:housenumber": "19",
                "addr:postcode": "32-008",
                "amenity": "pharmacy",
                "addr:place": "Dziewin"
            },
            "geometry": {
                "type": "Point",
                "coordinates": [
                    20.455201378996197,
                    50.074569841369794
                ]
            }
        },
        {
            "type": "Feature",
            "properties": {
                "ref:csioz": 1078739,
                "name": "Apteka Remedium",
                "addr:housenumber": "407",
                "addr:postcode": "32-731",
                "amenity": "pharmacy",
                "addr:place": "Łąkta Górna"
            },
            "geometry": {
                "type": "Point",
                "coordinates": [
                    20.426271242720006,
                    49.82938330808055
                ]
            }
        },
        {
            "type": "Feature",
            "properties": {
                "ref:csioz": 1078747,
                "name": "\"Apteka 'Vita' A.P. Mendrych Spółka Jawna\"",
                "addr:housenumber": "185",
                "addr:postcode": "32-740",
                "amenity": "pharmacy",
                "addr:place": "Łapanów"
            },
            "geometry": {
                "type": "Point",
                "coordinates": [
                    20.288129158503317,
                    49.863702516218765
                ]
            }
        },
        {
            "type": "Feature",
            "properties": {
                "ref:csioz": 1078752,
                "name": "Kinga",
                "addr:housenumber": "204",
                "addr:postcode": "32-744",
                "amenity": "pharmacy",
                "addr:place": "Łapczyca"
            },
            "geometry": {
                "type": "Point",
                "coordinates": [
                    20.370233257856132,
                    49.960143538048904
                ]
            }
        },
        {
            "type": "Feature",
            "properties": {
                "ref:csioz": 1079545,
                "name": "Krokus",
                "addr:housenumber": "25",
                "addr:postcode": "32-740",
                "amenity": "pharmacy",
                "addr:place": "Łapanów"
            },
            "geometry": {
                "type": "Point",
                "coordinates": [
                    20.291024301495327,
                    49.86421455037068
                ]
            }
        },
        {
            "type": "Feature",
            "properties": {
                "ref:csioz": 1079644,
                "addr:housenumber": "444",
                "addr:postcode": "32-015",
                "amenity": "pharmacy",
                "addr:place": "Stanisławice"
            },
            "geometry": {
                "type": "Point",
                "coordinates": [
                    20.35304225679441,
                    49.98751718313307
                ]
            }
        },
        {
            "type": "Feature",
            "properties": {
                "ref:csioz": 1111690,
                "name": "Apteka Farmacja 24",
                "addr:street": "Różana",
                "addr:housenumber": "19",
                "addr:city": "Bochnia",
                "addr:postcode": "32-700",
                "amenity": "pharmacy"
            },
            "geometry": {
                "type": "Point",
                "coordinates": [
                    20.426168201781312,
                    49.96761320733717
                ]
            }
        },
        {
            "type": "Feature",
            "properties": {
                "ref:csioz": 1183467,
                "name": "\"Apteka 'Remedium'\"",
                "addr:housenumber": "548",
                "addr:postcode": "32-700",
                "amenity": "pharmacy",
                "addr:place": "Proszówki"
            },
            "geometry": {
                "type": "Point",
                "coordinates": [
                    20.43000292906247,
                    50.00951462512804
                ]
            }
        },
        {
            "type": "Feature",
            "properties": {
                "ref:csioz": 1190934,
                "name": "\"Apteka 'Remedium'\"",
                "addr:street": "św. Kingi",
                "addr:housenumber": "1",
                "addr:flats": "2",
                "addr:city": "Bochnia",
                "addr:postcode": "32-700",
                "amenity": "pharmacy"
            },
            "geometry": {
                "type": "Point",
                "coordinates": [
                    20.42920198053214,
                    49.969373089608496
                ]
            }
        },
        {
            "type": "Feature",
            "properties": {
                "ref:csioz": 1199046,
                "name": "Remedium",
                "addr:housenumber": "9",
                "addr:postcode": "32-725",
                "amenity": "pharmacy",
                "addr:place": "Rajbrot"
            },
            "geometry": {
                "type": "Point",
                "coordinates": [
                    20.486180078815348,
                    49.82118975082813
                ]
            }
        },
        {
            "type": "Feature",
            "properties": {
                "ref:csioz": 1079689,
                "name": "Rumianek",
                "addr:housenumber": "234",
                "addr:postcode": "32-733",
                "amenity": "pharmacy",
                "addr:place": "Trzciana"
            },
            "geometry": {
                "type": "Point",
                "coordinates": [
                    20.361737559021158,
                    49.84640224351984
                ]
            }
        },
        {
            "type": "Feature",
            "properties": {
                "ref:csioz": 1079690,
                "addr:housenumber": "93",
                "addr:postcode": "32-733",
                "amenity": "pharmacy",
                "addr:place": "Trzciana"
            },
            "geometry": {
                "type": "Point",
                "coordinates": [
                    20.370703718880748,
                    49.845247005574215
                ]
            }
        },
        {
            "type": "Feature",
            "properties": {
                "ref:csioz": 1078614,
                "name": "\"Apteka Prywatna 'Remedium'\"",
                "addr:street": "Kazimierza Wielkiego",
                "addr:housenumber": "13",
                "addr:city": "Bochnia",
                "addr:postcode": "32-700",
                "amenity": "pharmacy"
            },
            "geometry": {
                "type": "Point",
                "coordinates": [
                    20.428489725383155,
                    49.968103869804374
                ]
            }
        },
        {
            "type": "Feature",
            "properties": {
                "ref:csioz": 1078638,
                "addr:street": "Kazimierza Wielkiego",
                "addr:housenumber": "25",
                "addr:city": "Bochnia",
                "addr:postcode": "32-700",
                "amenity": "pharmacy"
            },
            "geometry": {
                "type": "Point",
                "coordinates": [
                    20.427682681062507,
                    49.96772414646272
                ]
            }
        },
        {
            "type": "Feature",
            "properties": {
                "ref:csioz": 1078667,
                "addr:street": "Wojska Polskiego",
                "addr:housenumber": "5",
                "addr:city": "Bochnia",
                "addr:postcode": "32-700",
                "amenity": "pharmacy"
            },
            "geometry": {
                "type": "Point",
                "coordinates": [
                    20.430564021332223,
                    49.97626696493567
                ]
            }
        },
        {
            "type": "Feature",
            "properties": {
                "ref:csioz": 1078680,
                "addr:housenumber": "188",
                "addr:postcode": "32-711",
                "amenity": "pharmacy",
                "addr:place": "Bogucice"
            },
            "geometry": {
                "type": "Point",
                "coordinates": [
                    20.490633756217623,
                    50.05996216349794
                ]
            }
        },
        {
            "type": "Feature",
            "properties": {
                "ref:csioz": 1078771,
                "name": "\"Apteka 'Rumianek'\"",
                "addr:street": "Rynek",
                "addr:housenumber": "20",
                "addr:city": "Nowy Wiśnicz",
                "addr:postcode": "32-720",
                "amenity": "pharmacy"
            },
            "geometry": {
                "type": "Point",
                "coordinates": [
                    20.4630445194675,
                    49.91513479633637
                ]
            }
        },
        {
            "type": "Feature",
            "properties": {
                "ref:csioz": 1078794,
                "name": "Apteka Radix",
                "addr:street": "Wiśniowa",
                "addr:housenumber": "9",
                "addr:city": "Rzezawa",
                "addr:postcode": "32-765",
                "amenity": "pharmacy"
            },
            "geometry": {
                "type": "Point",
                "coordinates": [
                    20.511903510715072,
                    49.99340250273161
                ]
            }
        },
        {
            "type": "Feature",
            "properties": {
                "ref:csioz": 1079716,
                "name": "Wiesiołek",
                "addr:housenumber": "96",
                "addr:postcode": "32-700",
                "amenity": "pharmacy",
                "addr:place": "Zawada"
            },
            "geometry": {
                "type": "Point",
                "coordinates": [
                    20.39509418962938,
                    49.91553076265768
                ]
            }
        },
        {
            "type": "Feature",
            "properties": {
                "ref:csioz": 1115489,
                "name": "Apteka Nova",
                "addr:street": "Długa",
                "addr:housenumber": "9",
                "addr:city": "Rzezawa",
                "addr:postcode": "32-765",
                "amenity": "pharmacy"
            },
            "geometry": {
                "type": "Point",
                "coordinates": [
                    20.51703687358596,
                    49.99056331997152
                ]
            }
        },
        {
            "type": "Feature",
            "properties": {
                "ref:csioz": 1148508,
                "name": "\"Samodzielny Publiczny Zespół Opieki Zdrowotnej W Bochni 'Szpital Powiatowy'\"",
                "addr:street": "Krakowska",
                "addr:housenumber": "31",
                "addr:city": "Bochnia",
                "addr:postcode": "32-700",
                "amenity": "pharmacy"
            },
            "geometry": {
                "type": "Point",
                "coordinates": [
                    20.42121505304064,
                    49.96629544830593
                ]
            }
        },
        {
            "type": "Feature",
            "properties": {
                "ref:csioz": 1171064,
                "name": "Apteka Słoneczna",
                "addr:street": "Kazimierza Wielkiego",
                "addr:housenumber": "37",
                "addr:city": "Bochnia",
                "addr:postcode": "32-700",
                "amenity": "pharmacy"
            },
            "geometry": {
                "type": "Point",
                "coordinates": [
                    20.426092271526734,
                    49.9671865669248
                ]
            }
        },
        {
            "type": "Feature",
            "properties": {
                "ref:csioz": 1182073,
                "name": "Apteka Rumianek",
                "addr:housenumber": "473",
                "addr:flats": "B",
                "addr:postcode": "32-731",
                "amenity": "pharmacy",
                "addr:place": "Żegocina"
            },
            "geometry": {
                "type": "Point",
                "coordinates": [
                    20.417994098372635,
                    49.803419233510084
                ]
            }
        },
        {
            "type": "Feature",
            "properties": {
                "ref:csioz": 1185219,
                "name": "Doz Apteka. Dbam O Zdrowie.",
                "addr:street": "Wygoda",
                "addr:housenumber": "143",
                "addr:flats": "A",
                "addr:city": "Bochnia",
                "addr:postcode": "32-700",
                "amenity": "pharmacy"
            },
            "geometry": {
                "type": "Point",
                "coordinates": [
                    20.43761922421494,
                    49.99188389313867
                ]
            }
        },
        {
            "type": "Feature",
            "properties": {
                "ref:csioz": 1185615,
                "addr:housenumber": "240",
                "addr:postcode": "32-731",
                "amenity": "pharmacy",
                "addr:place": "Żegocina"
            },
            "geometry": {
                "type": "Point",
                "coordinates": [
                    20.420376262077696,
                    49.80351032788243
                ]
            }
        },
        {
            "type": "Feature",
            "properties": {
                "ref:csioz": 1189032,
                "name": "Apteka Słoneczna",
                "addr:street": "Trudna",
                "addr:housenumber": "5",
                "addr:city": "Bochnia",
                "addr:postcode": "32-700",
                "amenity": "pharmacy"
            },
            "geometry": {
                "type": "Point",
                "coordinates": [
                    20.43279267169402,
                    49.97139464148084
                ]
            }
        },
        {
            "type": "Feature",
            "properties": {
                "ref:csioz": 1197544,
                "addr:street": "Rynek",
                "addr:housenumber": "13",
                "addr:city": "Nowy Wiśnicz",
                "addr:postcode": "32-720",
                "amenity": "pharmacy"
            },
            "geometry": {
                "type": "Point",
                "coordinates": [
                    20.462072191496386,
                    49.91577676084658
                ]
            }
        },
        {
            "type": "Feature",
            "properties": {
                "ref:csioz": 1199699,
                "name": "Prima",
                "addr:street": "Krakowska",
                "addr:housenumber": "26",
                "addr:city": "Bochnia",
                "addr:postcode": "32-700",
                "amenity": "pharmacy"
            },
            "geometry": {
                "type": "Point",
                "coordinates": [
                    20.420151031795708,
                    49.96514414199381
                ]
            }
        },
        {
            "type": "Feature",
            "properties": {
                "ref:csioz": 1204267,
                "name": "Vitaminka",
                "addr:housenumber": "253",
                "addr:flats": "2",
                "addr:postcode": "32-744",
                "amenity": "pharmacy",
                "addr:place": "Siedlec"
            },
            "geometry": {
                "type": "Point",
                "coordinates": [
                    20.321577539009816,
                    49.95696511088468
                ]
            }
        },
        {
            "type": "Feature",
            "properties": {
                "ref:csioz": 1209585,
                "name": "Apteka Rumianek",
                "addr:housenumber": "18",
                "addr:postcode": "32-740",
                "amenity": "pharmacy",
                "addr:place": "Łapanów"
            },
            "geometry": {
                "type": "Point",
                "coordinates": [
                    20.29278811489995,
                    49.865153117183375
                ]
            }
        },
        {
            "type": "Feature",
            "properties": {
                "ref:csioz": 1213501,
                "name": "\"Apteka 'Remedium'\"",
                "addr:street": "Krakowska",
                "addr:housenumber": "31",
                "addr:city": "Bochnia",
                "addr:postcode": "32-700",
                "amenity": "pharmacy"
            },
            "geometry": {
                "type": "Point",
                "coordinates": [
                    20.42121505304064,
                    49.96629544830593
                ]
            }
        },
        {
            "type": "Feature",
            "properties": {
                "ref:csioz": 1213959,
                "name": "Ziko Apteka",
                "addr:street": "Tadeusza Kościuszki",
                "addr:housenumber": "1",
                "addr:flats": "2",
                "addr:city": "Bochnia",
                "addr:postcode": "32-700",
                "amenity": "pharmacy"
            },
            "geometry": {
                "type": "Point",
                "coordinates": [
                    20.431466028849744,
                    49.969077821578836
                ]
            }
        },
        {
            "type": "Feature",
            "properties": {
                "ref:csioz": 1226556,
                "name": "Agavit",
                "addr:housenumber": "311",
                "addr:postcode": "32-722",
                "amenity": "pharmacy",
                "addr:place": "Królówka"
            },
            "geometry": {
                "type": "Point",
                "coordinates": [
                    20.418576405706162,
                    49.878220661599684
                ]
            }
        },
        {
            "type": "Feature",
            "properties": {
                "ref:csioz": 1111703,
                "name": "Apteka Rumianek",
                "addr:housenumber": "50",
                "addr:postcode": "32-724",
                "amenity": "pharmacy",
                "addr:place": "Lipnica Murowana"
            },
            "geometry": {
                "type": "Point",
                "coordinates": [
                    20.525206384432188,
                    49.8589227069213
                ]
            }
        },
        {
            "type": "Feature",
            "properties": {
                "ref:csioz": 1187351,
                "name": "\"Apteka 'Remedium'\"",
                "addr:housenumber": "83",
                "addr:postcode": "32-724",
                "amenity": "pharmacy",
                "addr:place": "Lipnica Murowana"
            },
            "geometry": {
                "type": "Point",
                "coordinates": [
                    20.5241569690397,
                    49.85756518793861
                ]
            }
        }
    ]
}