{
    "type": "FeatureCollection",
    "name": "JPT_KOD_JE_2861",
    "features": [
        {
            "type": "Feature",
            "properties": {
                "ref:csioz": 1014171,
                "addr:street": "Królewiecka",
                "addr:housenumber": "146",
                "addr:city": "ELBLĄG",
                "addr:postcode": "82-300",
                "amenity": "pharmacy",
                "dispensing": "yes"
            },
            "geometry": {
                "type": "Point",
                "coordinates": [
                    19.429103022481012,
                    54.179363727277114
                ]
            }
        },
        {
            "type": "Feature",
            "properties": {
                "ref:csioz": 1014666,
                "addr:street": "Stefana Żeromskiego",
                "addr:housenumber": "22",
                "addr:city": "ELBLĄG",
                "addr:postcode": "82-300",
                "amenity": "pharmacy",
                "dispensing": "yes"
            },
            "geometry": {
                "type": "Point",
                "coordinates": [
                    19.421942411708244,
                    54.1573308982463
                ]
            }
        },
        {
            "type": "Feature",
            "properties": {
                "ref:csioz": 1014769,
                "addr:street": "Jana Amosa Komeńskiego",
                "addr:housenumber": "35",
                "addr:city": "ELBLĄG",
                "addr:postcode": "82-300",
                "amenity": "pharmacy",
                "dispensing": "yes"
            },
            "geometry": {
                "type": "Point",
                "coordinates": [
                    19.424731209036402,
                    54.15601533822151
                ]
            }
        },
        {
            "type": "Feature",
            "properties": {
                "ref:csioz": 1040023,
                "name": "Apteka Dyżurna",
                "addr:street": "Hetmańska",
                "addr:housenumber": "30-34",
                "addr:city": "Elbląg",
                "addr:postcode": "82-300",
                "amenity": "pharmacy",
                "dispensing": "yes"
            },
            "geometry": {
                "type": "Point",
                "coordinates": [
                    19.404126517861343,
                    54.15669088528867
                ]
            }
        },
        {
            "type": "Feature",
            "properties": {
                "ref:csioz": 1040038,
                "name": "Apteka Dyżurna",
                "addr:street": "Trybunalska",
                "addr:housenumber": "14-15 abcd",
                "addr:city": "Elbląg",
                "addr:postcode": "82-300",
                "amenity": "pharmacy",
                "dispensing": "yes"
            },
            "geometry": {
                "type": "Point",
                "coordinates": [
                    19.40609200000019,
                    54.162811000019026
                ]
            }
        },
        {
            "type": "Feature",
            "properties": {
                "ref:csioz": 1040046,
                "name": "Dyżurna 1",
                "addr:street": "Robotnicza",
                "addr:housenumber": "81",
                "addr:city": "ELBLĄG",
                "addr:postcode": "82-300",
                "amenity": "pharmacy",
                "dispensing": "yes"
            },
            "geometry": {
                "type": "Point",
                "coordinates": [
                    19.401782510302922,
                    54.17148738164761
                ]
            }
        },
        {
            "type": "Feature",
            "properties": {
                "ref:csioz": 1040051,
                "name": "Dyżurna 2",
                "addr:street": "Gwiezdna",
                "addr:housenumber": "23",
                "addr:city": "ELBLĄG",
                "addr:postcode": "82-300",
                "amenity": "pharmacy",
                "dispensing": "yes"
            },
            "geometry": {
                "type": "Point",
                "coordinates": [
                    19.4035436697606,
                    54.16977879674055
                ]
            }
        },
        {
            "type": "Feature",
            "properties": {
                "ref:csioz": 1040102,
                "name": "Apteka Im. Ojca Klimuszki Michał Meszko",
                "addr:street": "Wyspiańskiego",
                "addr:housenumber": "17A",
                "addr:city": "ELBLĄG",
                "addr:postcode": "82-300",
                "amenity": "pharmacy",
                "dispensing": "yes"
            },
            "geometry": {
                "type": "Point",
                "coordinates": [
                    19.413428568382113,
                    54.15829856251223
                ]
            }
        },
        {
            "type": "Feature",
            "properties": {
                "ref:csioz": 1040115,
                "name": "Apteka Dbam O Zdrowie",
                "addr:street": "Królewiecka",
                "addr:housenumber": "123",
                "addr:city": "ELBLĄG",
                "addr:postcode": "82-300",
                "amenity": "pharmacy",
                "dispensing": "yes"
            },
            "geometry": {
                "type": "Point",
                "coordinates": [
                    19.410101022340932,
                    54.16983792144542
                ]
            }
        },
        {
            "type": "Feature",
            "properties": {
                "ref:csioz": 1040222,
                "name": "Sadowa",
                "addr:street": "Aleja Grunwaldzka",
                "addr:housenumber": "115",
                "addr:city": "ELBLĄG",
                "addr:postcode": "82-300",
                "amenity": "pharmacy",
                "dispensing": "yes"
            },
            "geometry": {
                "type": "Point",
                "coordinates": [
                    19.4259390000002,
                    54.149768000019
                ]
            }
        },
        {
            "type": "Feature",
            "properties": {
                "ref:csioz": 1040240,
                "name": "Apteka W Elblągu",
                "addr:street": "Żeromskiego",
                "addr:housenumber": "2",
                "addr:city": "ELBLĄG",
                "addr:postcode": "82-300",
                "amenity": "pharmacy",
                "dispensing": "yes"
            },
            "geometry": {
                "type": "Point",
                "coordinates": [
                    19.41973074923119,
                    54.15403432960111
                ]
            }
        },
        {
            "type": "Feature",
            "properties": {
                "ref:csioz": 1040254,
                "name": "Za Politechniką",
                "addr:street": "Chełmońskiego",
                "addr:housenumber": "6D",
                "addr:city": "ELBLĄG",
                "addr:postcode": "82-300",
                "amenity": "pharmacy",
                "dispensing": "yes"
            },
            "geometry": {
                "type": "Point",
                "coordinates": [
                    19.433651000000193,
                    54.150226000019
                ]
            }
        },
        {
            "type": "Feature",
            "properties": {
                "ref:csioz": 1040265,
                "name": "Ziołowa",
                "addr:street": "Związku Jaszczurczego",
                "addr:housenumber": "9C",
                "addr:city": "Elbląg",
                "addr:postcode": "82-300",
                "amenity": "pharmacy",
                "dispensing": "yes"
            },
            "geometry": {
                "type": "Point",
                "coordinates": [
                    19.410358000000183,
                    54.15674100001902
                ]
            }
        },
        {
            "type": "Feature",
            "properties": {
                "ref:csioz": 1040279,
                "name": "Apteki Centrum - Elbląskie Centrum Leków",
                "addr:street": "Płk. Dąbka",
                "addr:housenumber": "152",
                "addr:city": "ELBLĄG",
                "addr:postcode": "82-300",
                "amenity": "pharmacy",
                "dispensing": "yes"
            },
            "geometry": {
                "type": "Point",
                "coordinates": [
                    19.406313000000193,
                    54.18539000001906
                ]
            }
        },
        {
            "type": "Feature",
            "properties": {
                "ref:csioz": 1117233,
                "name": "Hospicjum Elbląskie Im. Dr Aleksandry Gabrysiak",
                "addr:street": "Toruńska",
                "addr:housenumber": "17B",
                "addr:city": "ELBLĄG",
                "addr:postcode": "82-300",
                "amenity": "pharmacy",
                "dispensing": "yes"
            },
            "geometry": {
                "type": "Point",
                "coordinates": [
                    19.42952024730204,
                    54.17036040303619
                ]
            }
        },
        {
            "type": "Feature",
            "properties": {
                "ref:csioz": 1117935,
                "name": "Centrum Radioterapii I Usprawniania Szpital Nu-Med Grupa S.A.",
                "addr:street": "Królewiecka",
                "addr:housenumber": "146",
                "addr:city": "ELBLĄG",
                "addr:postcode": "82-300",
                "amenity": "pharmacy",
                "dispensing": "yes"
            },
            "geometry": {
                "type": "Point",
                "coordinates": [
                    19.429103022481012,
                    54.179363727277114
                ]
            }
        },
        {
            "type": "Feature",
            "properties": {
                "ref:csioz": 1121780,
                "name": "Apteki Centrum Elbląskie Centrum Leków",
                "addr:street": "Węgrowska",
                "addr:housenumber": "3",
                "addr:city": "ELBLĄG",
                "addr:postcode": "82-300",
                "amenity": "pharmacy",
                "dispensing": "yes"
            },
            "geometry": {
                "type": "Point",
                "coordinates": [
                    19.404437310780935,
                    54.18451484499599
                ]
            }
        },
        {
            "type": "Feature",
            "properties": {
                "ref:csioz": 1195328,
                "name": "Dom Leków",
                "addr:street": "Grunwaldzka",
                "addr:housenumber": "27",
                "addr:city": "Elbląg",
                "addr:postcode": "82-300",
                "amenity": "pharmacy",
                "dispensing": "yes"
            },
            "geometry": {
                "type": "Point",
                "coordinates": [
                    19.412114307629686,
                    54.154341283703076
                ]
            }
        },
        {
            "type": "Feature",
            "properties": {
                "ref:csioz": 1196842,
                "name": "Apteka Centrum Leków",
                "addr:street": "Ogólna",
                "addr:housenumber": "57",
                "addr:city": "Elbląg",
                "addr:postcode": "82-300",
                "amenity": "pharmacy",
                "dispensing": "yes"
            },
            "geometry": {
                "type": "Point",
                "coordinates": [
                    19.416301263212166,
                    54.18735657956879
                ]
            }
        },
        {
            "type": "Feature",
            "properties": {
                "ref:csioz": 1214745,
                "name": "Apteka Przyjazna",
                "addr:street": "Romualda Mielczarskiego",
                "addr:housenumber": "27",
                "addr:city": "Elbląg",
                "addr:postcode": "82-300",
                "amenity": "pharmacy",
                "dispensing": "yes"
            },
            "geometry": {
                "type": "Point",
                "coordinates": [
                    19.40802092205988,
                    54.147514572676386
                ]
            }
        },
        {
            "type": "Feature",
            "properties": {
                "ref:csioz": 1014788,
                "name": "Ppl Szpital El-Vita",
                "addr:street": "Związku Jaszczurczego",
                "addr:housenumber": "22",
                "addr:city": "ELBLĄG",
                "addr:postcode": "82-300",
                "amenity": "pharmacy",
                "dispensing": "yes"
            },
            "geometry": {
                "type": "Point",
                "coordinates": [
                    19.41143703430094,
                    54.156702841177044
                ]
            }
        },
        {
            "type": "Feature",
            "properties": {
                "ref:csioz": 1039984,
                "name": "Bios",
                "addr:street": "Nowowiejska",
                "addr:housenumber": "3",
                "addr:city": "ELBLĄG",
                "addr:postcode": "82-300",
                "amenity": "pharmacy",
                "dispensing": "yes"
            },
            "geometry": {
                "type": "Point",
                "coordinates": [
                    19.410543027177948,
                    54.16645505875341
                ]
            }
        },
        {
            "type": "Feature",
            "properties": {
                "ref:csioz": 1039992,
                "name": "Dbam O Zdrowie",
                "addr:street": "Teatralna",
                "addr:housenumber": "5",
                "addr:city": "ELBLĄG",
                "addr:postcode": "82-300",
                "amenity": "pharmacy",
                "dispensing": "yes"
            },
            "geometry": {
                "type": "Point",
                "coordinates": [
                    19.402135952567455,
                    54.16587798521031
                ]
            }
        },
        {
            "type": "Feature",
            "properties": {
                "ref:csioz": 1040014,
                "name": "Apteka Dyżurna",
                "addr:street": "Władysława Broniewskiego",
                "addr:housenumber": "51",
                "addr:city": "Elbląg",
                "addr:postcode": "82-300",
                "amenity": "pharmacy",
                "dispensing": "yes"
            },
            "geometry": {
                "type": "Point",
                "coordinates": [
                    19.41976470216013,
                    54.18332276780918
                ]
            }
        },
        {
            "type": "Feature",
            "properties": {
                "ref:csioz": 1040128,
                "name": "Apteka Na Starówce",
                "addr:street": "Stary Rynek",
                "addr:housenumber": "15",
                "addr:city": "ELBLĄG",
                "addr:postcode": "82-300",
                "amenity": "pharmacy",
                "dispensing": "yes"
            },
            "geometry": {
                "type": "Point",
                "coordinates": [
                    19.396017931451507,
                    54.15983517218625
                ]
            }
        },
        {
            "type": "Feature",
            "properties": {
                "ref:csioz": 1040131,
                "name": "Apteka Dbam O Zdrowie",
                "addr:street": "Aleja Odrodzenia",
                "addr:housenumber": "10",
                "addr:city": "Elbląg",
                "addr:postcode": "82-300",
                "amenity": "pharmacy",
                "dispensing": "yes"
            },
            "geometry": {
                "type": "Point",
                "coordinates": [
                    19.39921381334445,
                    54.18688083412717
                ]
            }
        },
        {
            "type": "Feature",
            "properties": {
                "ref:csioz": 1040166,
                "name": "Apteka Przy Alei",
                "addr:street": "Odrodzenia",
                "addr:housenumber": "27",
                "addr:city": "ELBLĄG",
                "addr:postcode": "82-300",
                "amenity": "pharmacy",
                "dispensing": "yes"
            },
            "geometry": {
                "type": "Point",
                "coordinates": [
                    19.403697719866308,
                    54.18698569858649
                ]
            }
        },
        {
            "type": "Feature",
            "properties": {
                "ref:csioz": 1040177,
                "name": "Przy Gildii",
                "addr:street": "Płk. Dąbka",
                "addr:housenumber": "136",
                "addr:city": "ELBLĄG",
                "addr:postcode": "82-300",
                "amenity": "pharmacy",
                "dispensing": "yes"
            },
            "geometry": {
                "type": "Point",
                "coordinates": [
                    19.405325000000193,
                    54.180140000019044
                ]
            }
        },
        {
            "type": "Feature",
            "properties": {
                "ref:csioz": 1040189,
                "name": "Apteka Przy Rynku",
                "addr:street": "Płk. Dąbka",
                "addr:housenumber": "79",
                "addr:city": "ELBLĄG",
                "addr:postcode": "82-300",
                "amenity": "pharmacy",
                "dispensing": "yes"
            },
            "geometry": {
                "type": "Point",
                "coordinates": [
                    19.404290000000188,
                    54.17616400001904
                ]
            }
        },
        {
            "type": "Feature",
            "properties": {
                "ref:csioz": 1040190,
                "name": "Racławicka",
                "addr:street": "Kościuszki",
                "addr:housenumber": "9A",
                "addr:city": "ELBLĄG",
                "addr:postcode": "82-300",
                "amenity": "pharmacy",
                "dispensing": "yes"
            },
            "geometry": {
                "type": "Point",
                "coordinates": [
                    19.41879026464451,
                    54.160083369673956
                ]
            }
        },
        {
            "type": "Feature",
            "properties": {
                "ref:csioz": 1040206,
                "name": "Regenium",
                "addr:street": "Jana Myliusa",
                "addr:housenumber": "20",
                "addr:city": "ELBLĄG",
                "addr:postcode": "82-300",
                "amenity": "pharmacy",
                "dispensing": "yes"
            },
            "geometry": {
                "type": "Point",
                "coordinates": [
                    19.425822707375318,
                    54.18887227749732
                ]
            }
        },
        {
            "type": "Feature",
            "properties": {
                "ref:csioz": 1114702,
                "name": "Apteka Farmacja 24",
                "addr:street": "Królewiecka",
                "addr:housenumber": "146",
                "addr:city": "ELBLĄG",
                "addr:postcode": "82-300",
                "amenity": "pharmacy",
                "dispensing": "yes"
            },
            "geometry": {
                "type": "Point",
                "coordinates": [
                    19.429103022481012,
                    54.179363727277114
                ]
            }
        },
        {
            "type": "Feature",
            "properties": {
                "ref:csioz": 1118671,
                "name": "Dom Leków",
                "addr:street": "Teatralna",
                "addr:housenumber": "29",
                "addr:city": "ELBLĄG",
                "addr:postcode": "82-300",
                "amenity": "pharmacy",
                "dispensing": "yes"
            },
            "geometry": {
                "type": "Point",
                "coordinates": [
                    19.40564768571567,
                    54.16597464594163
                ]
            }
        },
        {
            "type": "Feature",
            "properties": {
                "ref:csioz": 1173482,
                "name": "Apteka Centrum Leków",
                "addr:street": "Malborska",
                "addr:housenumber": "23",
                "addr:city": "Elbląg",
                "addr:postcode": "82-300",
                "amenity": "pharmacy",
                "dispensing": "yes"
            },
            "geometry": {
                "type": "Point",
                "coordinates": [
                    19.429178148430584,
                    54.186451687698614
                ]
            }
        },
        {
            "type": "Feature",
            "properties": {
                "ref:csioz": 1177294,
                "name": "Apteka Dyżurna",
                "addr:street": "Królewiecka",
                "addr:housenumber": "195C",
                "addr:city": "Elbląg",
                "addr:postcode": "82-300",
                "amenity": "pharmacy",
                "dispensing": "yes"
            },
            "geometry": {
                "type": "Point",
                "coordinates": [
                    19.426047883756205,
                    54.17927934531523
                ]
            }
        },
        {
            "type": "Feature",
            "properties": {
                "ref:csioz": 1181278,
                "name": "Apteka Dom Leków",
                "addr:street": "Stefana Żeromskiego",
                "addr:housenumber": "1",
                "addr:city": "Elbląg",
                "addr:postcode": "82-300",
                "amenity": "pharmacy",
                "dispensing": "yes"
            },
            "geometry": {
                "type": "Point",
                "coordinates": [
                    19.418282174849868,
                    54.15322658426487
                ]
            }
        },
        {
            "type": "Feature",
            "properties": {
                "ref:csioz": 1195331,
                "name": "Dom Leków",
                "addr:street": "Hetmańska",
                "addr:housenumber": "6",
                "addr:city": "Elbląg",
                "addr:postcode": "82-300",
                "amenity": "pharmacy",
                "dispensing": "yes"
            },
            "geometry": {
                "type": "Point",
                "coordinates": [
                    19.40409957907888,
                    54.15905860684383
                ]
            }
        },
        {
            "type": "Feature",
            "properties": {
                "ref:csioz": 1201144,
                "name": "Dom Leków",
                "addr:street": "Kosynierów Gdyńskich",
                "addr:housenumber": "54B",
                "addr:city": "Elbląg",
                "addr:postcode": "82-300",
                "amenity": "pharmacy",
                "dispensing": "yes"
            },
            "geometry": {
                "type": "Point",
                "coordinates": [
                    19.407316990838762,
                    54.16350621106101
                ]
            }
        },
        {
            "type": "Feature",
            "properties": {
                "ref:csioz": 1202791,
                "name": "Apteka Społeczna Na 1 Maja 44 Grupa Nowa Farmacja",
                "addr:street": "1 Maja",
                "addr:housenumber": "44",
                "addr:city": "Elbląg",
                "addr:postcode": "82-300",
                "amenity": "pharmacy",
                "dispensing": "yes"
            },
            "geometry": {
                "type": "Point",
                "coordinates": [
                    19.403868568317677,
                    54.15960034761048
                ]
            }
        },
        {
            "type": "Feature",
            "properties": {
                "ref:csioz": 1208352,
                "name": "Apteka Gemini",
                "addr:street": "12 Lutego",
                "addr:housenumber": "34",
                "addr:city": "Elbląg",
                "addr:postcode": "82-300",
                "amenity": "pharmacy",
                "dispensing": "yes"
            },
            "geometry": {
                "type": "Point",
                "coordinates": [
                    19.40661691990039,
                    54.16561229703337
                ]
            }
        },
        {
            "type": "Feature",
            "properties": {
                "ref:csioz": 1211494,
                "name": "Apteka Gemini",
                "addr:street": "Grunwaldzka",
                "addr:housenumber": "31",
                "addr:city": "Elbląg",
                "addr:postcode": "82-300",
                "amenity": "pharmacy",
                "dispensing": "yes"
            },
            "geometry": {
                "type": "Point",
                "coordinates": [
                    19.412598648422378,
                    54.1541900617461
                ]
            }
        },
        {
            "type": "Feature",
            "properties": {
                "ref:csioz": 1222870,
                "name": "Szpital Jednego Dnia Lifeclinica",
                "addr:street": "Węgrowska",
                "addr:housenumber": "3",
                "addr:city": "Elbląg",
                "addr:postcode": "82-300",
                "amenity": "pharmacy",
                "dispensing": "yes"
            },
            "geometry": {
                "type": "Point",
                "coordinates": [
                    19.404437310780935,
                    54.18451484499599
                ]
            }
        },
        {
            "type": "Feature",
            "properties": {
                "ref:csioz": 1224269,
                "name": "Apteka Novum",
                "addr:street": "Generała Józefa Bema",
                "addr:housenumber": "80",
                "addr:city": "Elbląg",
                "addr:postcode": "82-300",
                "amenity": "pharmacy",
                "dispensing": "yes"
            },
            "geometry": {
                "type": "Point",
                "coordinates": [
                    19.43295981786252,
                    54.15777317157341
                ]
            }
        },
        {
            "type": "Feature",
            "properties": {
                "ref:csioz": 1227912,
                "name": "Zakład Pielęgnacyjno-Opiekuńczy",
                "addr:street": "Mazurska",
                "addr:housenumber": "56B",
                "addr:city": "Elbląg",
                "addr:postcode": "82-300",
                "amenity": "pharmacy",
                "dispensing": "yes"
            },
            "geometry": {
                "type": "Point",
                "coordinates": [
                    19.388415114868742,
                    54.20627423414258
                ]
            }
        }
    ]
}