{
    "type": "FeatureCollection",
    "name": "JPT_KOD_JE_1218",
    "features": [
        {
            "type": "Feature",
            "properties": {
                "ref:csioz": 1034892,
                "addr:street": "Krakowska",
                "addr:housenumber": "138",
                "addr:city": "Andrychów",
                "addr:postcode": "34-120",
                "amenity": "pharmacy"
            },
            "geometry": {
                "type": "Point",
                "coordinates": [
                    19.335209857668087,
                    49.855927383927664
                ]
            }
        },
        {
            "type": "Feature",
            "properties": {
                "ref:csioz": 1035009,
                "name": "Apteka W Przychodni Centrum Dla Zdrowia",
                "addr:street": "Wadowicka",
                "addr:housenumber": "3",
                "addr:city": "Wieprz",
                "addr:postcode": "34-122",
                "amenity": "pharmacy"
            },
            "geometry": {
                "type": "Point",
                "coordinates": [
                    19.353068893009954,
                    49.87278347864179
                ]
            }
        },
        {
            "type": "Feature",
            "properties": {
                "ref:csioz": 1035166,
                "name": "Apteka Prywatna Mgr Farm. Gertruda Kawaler",
                "addr:housenumber": "363",
                "addr:postcode": "34-142",
                "amenity": "pharmacy",
                "addr:place": "Leńcze"
            },
            "geometry": {
                "type": "Point",
                "coordinates": [
                    19.73085312639309,
                    49.89442645512611
                ]
            }
        },
        {
            "type": "Feature",
            "properties": {
                "ref:csioz": 1035401,
                "name": "Apfarm Gwarancja Niskich Cen",
                "addr:street": "Legionów",
                "addr:housenumber": "1",
                "addr:city": "Andrychów",
                "addr:postcode": "34-120",
                "amenity": "pharmacy"
            },
            "geometry": {
                "type": "Point",
                "coordinates": [
                    19.34107021982407,
                    49.853453805672366
                ]
            }
        },
        {
            "type": "Feature",
            "properties": {
                "ref:csioz": 1036516,
                "addr:street": "Beskidzka",
                "addr:housenumber": "42",
                "addr:city": "Targanice",
                "addr:postcode": "34-120",
                "amenity": "pharmacy"
            },
            "geometry": {
                "type": "Point",
                "coordinates": [
                    19.329277278948474,
                    49.81332107352535
                ]
            }
        },
        {
            "type": "Feature",
            "properties": {
                "ref:csioz": 1038814,
                "name": "Twoja Apteka",
                "addr:street": "Kościuszki",
                "addr:housenumber": "9",
                "addr:city": "Wadowice",
                "addr:postcode": "34-100",
                "amenity": "pharmacy"
            },
            "geometry": {
                "type": "Point",
                "coordinates": [
                    19.492235371644288,
                    49.88150278080233
                ]
            }
        },
        {
            "type": "Feature",
            "properties": {
                "ref:csioz": 1042020,
                "name": "Twoja Apteka",
                "addr:street": "Jana Pawła II",
                "addr:housenumber": "7",
                "addr:city": "Kalwaria Zebrzydowska",
                "addr:postcode": "34-130",
                "amenity": "pharmacy"
            },
            "geometry": {
                "type": "Point",
                "coordinates": [
                    19.6846886626541,
                    49.869207565110344
                ]
            }
        },
        {
            "type": "Feature",
            "properties": {
                "ref:csioz": 1056797,
                "name": "Apteka Rodzinna Centrum Dla Zdrowia",
                "addr:street": "Podgórska",
                "addr:housenumber": "6",
                "addr:city": "Wadowice",
                "addr:postcode": "34-100",
                "amenity": "pharmacy"
            },
            "geometry": {
                "type": "Point",
                "coordinates": [
                    19.496813938009094,
                    49.8746562559372
                ]
            }
        },
        {
            "type": "Feature",
            "properties": {
                "ref:csioz": 1074741,
                "name": "„Apteka Pod Karmelem”",
                "addr:street": "Wolności",
                "addr:housenumber": "6",
                "addr:city": "Wadowice",
                "addr:postcode": "34-100",
                "amenity": "pharmacy"
            },
            "geometry": {
                "type": "Point",
                "coordinates": [
                    19.490329277677517,
                    49.87871776213343
                ]
            }
        },
        {
            "type": "Feature",
            "properties": {
                "ref:csioz": 1075113,
                "addr:street": "Targowa",
                "addr:housenumber": "2",
                "addr:city": "Kalwaria Zebrzydowska",
                "addr:postcode": "34-130",
                "amenity": "pharmacy"
            },
            "geometry": {
                "type": "Point",
                "coordinates": [
                    19.67712500000018,
                    49.86967200001233
                ]
            }
        },
        {
            "type": "Feature",
            "properties": {
                "ref:csioz": 1075145,
                "name": "Apteka Przy Samolocie Centrum Tanich Leków Marta Piskorz",
                "addr:street": "Krakowska",
                "addr:housenumber": "62",
                "addr:city": "Andrychów",
                "addr:postcode": "34-120",
                "amenity": "pharmacy"
            },
            "geometry": {
                "type": "Point",
                "coordinates": [
                    19.35112752643286,
                    49.85599665944152
                ]
            }
        },
        {
            "type": "Feature",
            "properties": {
                "ref:csioz": 1075974,
                "addr:street": "dr. J. Putka",
                "addr:housenumber": "4",
                "addr:city": "Wadowice",
                "addr:postcode": "34-100",
                "amenity": "pharmacy"
            },
            "geometry": {
                "type": "Point",
                "coordinates": [
                    19.504638591304495,
                    49.87756347212564
                ]
            }
        },
        {
            "type": "Feature",
            "properties": {
                "ref:csioz": 1076350,
                "addr:street": "Stanisława Lenartowicza",
                "addr:housenumber": "40",
                "addr:city": "Andrychów",
                "addr:postcode": "34-120",
                "amenity": "pharmacy"
            },
            "geometry": {
                "type": "Point",
                "coordinates": [
                    19.35482117344153,
                    49.86386714178071
                ]
            }
        },
        {
            "type": "Feature",
            "properties": {
                "ref:csioz": 1077610,
                "name": "\"Apteka \"\"Centrum\"\"\"",
                "addr:street": "Centralna",
                "addr:housenumber": "1",
                "addr:city": "Wieprz",
                "addr:postcode": "34-122",
                "amenity": "pharmacy"
            },
            "geometry": {
                "type": "Point",
                "coordinates": [
                    19.35726808391127,
                    49.89074828023705
                ]
            }
        },
        {
            "type": "Feature",
            "properties": {
                "ref:csioz": 1076518,
                "name": "Doz Apteka. Dbam O Zdrowie. Pod Białym Orłem",
                "addr:street": "Rynek",
                "addr:housenumber": "32",
                "addr:city": "Andrychów",
                "addr:postcode": "34-120",
                "amenity": "pharmacy"
            },
            "geometry": {
                "type": "Point",
                "coordinates": [
                    19.341861472466604,
                    49.85274721975278
                ]
            }
        },
        {
            "type": "Feature",
            "properties": {
                "ref:csioz": 1077570,
                "name": "„Pharmavit”",
                "addr:housenumber": "191B",
                "addr:postcode": "34-105",
                "amenity": "pharmacy",
                "addr:place": "Wysoka"
            },
            "geometry": {
                "type": "Point",
                "coordinates": [
                    19.603874890306713,
                    49.90664882183328
                ]
            }
        },
        {
            "type": "Feature",
            "properties": {
                "ref:csioz": 1113455,
                "name": "Doz Apteka. Dbam O Zdrowie. Pod Białym Orłem",
                "addr:street": "Krakowska",
                "addr:housenumber": "91",
                "addr:city": "Andrychów",
                "addr:postcode": "34-120",
                "amenity": "pharmacy"
            },
            "geometry": {
                "type": "Point",
                "coordinates": [
                    19.331810075440703,
                    49.856325587485216
                ]
            }
        },
        {
            "type": "Feature",
            "properties": {
                "ref:csioz": 1182280,
                "name": "Dr. Max",
                "addr:street": "dr. J. Putka",
                "addr:housenumber": "7",
                "addr:city": "Wadowice",
                "addr:postcode": "34-100",
                "amenity": "pharmacy"
            },
            "geometry": {
                "type": "Point",
                "coordinates": [
                    19.5023879122253,
                    49.87623415004861
                ]
            }
        },
        {
            "type": "Feature",
            "properties": {
                "ref:csioz": 1187837,
                "name": "Animar",
                "addr:street": "Miła",
                "addr:housenumber": "9",
                "addr:city": "Inwałd",
                "addr:postcode": "34-120",
                "amenity": "pharmacy"
            },
            "geometry": {
                "type": "Point",
                "coordinates": [
                    19.388580347501836,
                    49.86019549514172
                ]
            }
        },
        {
            "type": "Feature",
            "properties": {
                "ref:csioz": 1188599,
                "name": "Nowa Dobra",
                "addr:street": "Starowiejska",
                "addr:housenumber": "3",
                "addr:city": "Andrychów",
                "addr:postcode": "34-120",
                "amenity": "pharmacy"
            },
            "geometry": {
                "type": "Point",
                "coordinates": [
                    19.346326685125856,
                    49.856202045829164
                ]
            }
        },
        {
            "type": "Feature",
            "properties": {
                "ref:csioz": 1190975,
                "addr:housenumber": "119A",
                "addr:postcode": "34-124",
                "amenity": "pharmacy",
                "addr:place": "Klecza Górna"
            },
            "geometry": {
                "type": "Point",
                "coordinates": [
                    19.56392840331901,
                    49.86743402386365
                ]
            }
        },
        {
            "type": "Feature",
            "properties": {
                "ref:csioz": 1194905,
                "addr:street": "Górki",
                "addr:housenumber": "1",
                "addr:city": "Bachowice",
                "addr:postcode": "34-116",
                "amenity": "pharmacy"
            },
            "geometry": {
                "type": "Point",
                "coordinates": [
                    19.491308166713324,
                    49.96561102381504
                ]
            }
        },
        {
            "type": "Feature",
            "properties": {
                "ref:csioz": 1196305,
                "addr:street": "Jana Pawła II",
                "addr:housenumber": "12",
                "addr:city": "Wadowice",
                "addr:postcode": "34-100",
                "amenity": "pharmacy"
            },
            "geometry": {
                "type": "Point",
                "coordinates": [
                    19.49180037976922,
                    49.8831907252247
                ]
            }
        },
        {
            "type": "Feature",
            "properties": {
                "ref:csioz": 1213341,
                "name": "Niezapominajka Dla Całej Rodziny",
                "addr:street": "Zatorska",
                "addr:housenumber": "1",
                "addr:city": "Wadowice",
                "addr:postcode": "34-100",
                "amenity": "pharmacy"
            },
            "geometry": {
                "type": "Point",
                "coordinates": [
                    19.491787600003967,
                    49.883912053812445
                ]
            }
        },
        {
            "type": "Feature",
            "properties": {
                "ref:csioz": 1036714,
                "addr:street": "Rynek",
                "addr:housenumber": "26A",
                "addr:city": "Andrychów",
                "addr:postcode": "34-120",
                "amenity": "pharmacy"
            },
            "geometry": {
                "type": "Point",
                "coordinates": [
                    19.34197743801755,
                    49.851836239872334
                ]
            }
        },
        {
            "type": "Feature",
            "properties": {
                "ref:csioz": 1035298,
                "name": "Apteka Krakowska",
                "addr:street": "Krakowska",
                "addr:housenumber": "5",
                "addr:city": "Kalwaria Zebrzydowska",
                "addr:postcode": "34-130",
                "amenity": "pharmacy"
            },
            "geometry": {
                "type": "Point",
                "coordinates": [
                    19.678104674490097,
                    49.86695785949978
                ]
            }
        },
        {
            "type": "Feature",
            "properties": {
                "ref:csioz": 1036455,
                "addr:housenumber": "226",
                "addr:postcode": "34-106",
                "amenity": "pharmacy",
                "addr:place": "Mucharz"
            },
            "geometry": {
                "type": "Point",
                "coordinates": [
                    19.565531499343983,
                    49.80747033832302
                ]
            }
        },
        {
            "type": "Feature",
            "properties": {
                "ref:csioz": 1036478,
                "addr:housenumber": "605",
                "addr:postcode": "34-141",
                "amenity": "pharmacy",
                "addr:place": "Przytkowice"
            },
            "geometry": {
                "type": "Point",
                "coordinates": [
                    19.693176887910738,
                    49.913625302421124
                ]
            }
        },
        {
            "type": "Feature",
            "properties": {
                "ref:csioz": 1036493,
                "addr:street": "Główna",
                "addr:housenumber": "2",
                "addr:city": "Chocznia",
                "addr:postcode": "34-123",
                "amenity": "pharmacy"
            },
            "geometry": {
                "type": "Point",
                "coordinates": [
                    19.4537278495733,
                    49.873738648781845
                ]
            }
        },
        {
            "type": "Feature",
            "properties": {
                "ref:csioz": 1037275,
                "name": "Wadowicka",
                "addr:street": "Lwowska",
                "addr:housenumber": "72A",
                "addr:city": "Wadowice",
                "addr:postcode": "34-100",
                "amenity": "pharmacy"
            },
            "geometry": {
                "type": "Point",
                "coordinates": [
                    19.502924617660504,
                    49.87905050416921
                ]
            }
        },
        {
            "type": "Feature",
            "properties": {
                "ref:csioz": 1056209,
                "addr:street": "Krakowska",
                "addr:housenumber": "10",
                "addr:city": "Lanckorona",
                "addr:postcode": "34-143",
                "amenity": "pharmacy"
            },
            "geometry": {
                "type": "Point",
                "coordinates": [
                    19.719269866444407,
                    49.84547740674366
                ]
            }
        },
        {
            "type": "Feature",
            "properties": {
                "ref:csioz": 1056364,
                "name": "Apteka Bądź Zdrów",
                "addr:street": "Karmelicka",
                "addr:housenumber": "10",
                "addr:city": "Wadowice",
                "addr:postcode": "34-100",
                "amenity": "pharmacy"
            },
            "geometry": {
                "type": "Point",
                "coordinates": [
                    19.49124338987049,
                    49.88127954380695
                ]
            }
        },
        {
            "type": "Feature",
            "properties": {
                "ref:csioz": 1077148,
                "name": "Remedium",
                "addr:street": "Kalwaryjska",
                "addr:housenumber": "1",
                "addr:city": "Brzeźnica",
                "addr:postcode": "34-114",
                "amenity": "pharmacy"
            },
            "geometry": {
                "type": "Point",
                "coordinates": [
                    19.631669476580345,
                    49.96577729246495
                ]
            }
        },
        {
            "type": "Feature",
            "properties": {
                "ref:csioz": 1077200,
                "name": "Apteka Andrychowska Centrum Tanich Leków",
                "addr:street": "Krakowska",
                "addr:housenumber": "83",
                "addr:city": "Andrychów",
                "addr:postcode": "34-120",
                "amenity": "pharmacy"
            },
            "geometry": {
                "type": "Point",
                "coordinates": [
                    19.33433345902021,
                    49.85575243437093
                ]
            }
        },
        {
            "type": "Feature",
            "properties": {
                "ref:csioz": 1113698,
                "name": "Apteka Medicus",
                "addr:street": "Obrońców Westerplatte",
                "addr:housenumber": "4",
                "addr:city": "Wadowice",
                "addr:postcode": "34-100",
                "amenity": "pharmacy"
            },
            "geometry": {
                "type": "Point",
                "coordinates": [
                    19.491489422428334,
                    49.88660777578825
                ]
            }
        },
        {
            "type": "Feature",
            "properties": {
                "ref:csioz": 1115078,
                "name": "Apteka Rodzinna Centrum Dla Zdrowia",
                "addr:housenumber": "626",
                "addr:postcode": "34-146",
                "amenity": "pharmacy",
                "addr:place": "Stryszów"
            },
            "geometry": {
                "type": "Point",
                "coordinates": [
                    19.63791872479685,
                    49.82541530749332
                ]
            }
        },
        {
            "type": "Feature",
            "properties": {
                "ref:csioz": 1115952,
                "name": "Apteka Słoneczna",
                "addr:street": "Kościuszki",
                "addr:housenumber": "22",
                "addr:city": "Wadowice",
                "addr:postcode": "34-100",
                "amenity": "pharmacy"
            },
            "geometry": {
                "type": "Point",
                "coordinates": [
                    19.492274309849975,
                    49.882642292551324
                ]
            }
        },
        {
            "type": "Feature",
            "properties": {
                "ref:csioz": 1117878,
                "addr:street": "Krakowska",
                "addr:housenumber": "37",
                "addr:city": "Łączany",
                "addr:postcode": "34-115",
                "amenity": "pharmacy"
            },
            "geometry": {
                "type": "Point",
                "coordinates": [
                    19.57703417154121,
                    49.98527756534358
                ]
            }
        },
        {
            "type": "Feature",
            "properties": {
                "ref:csioz": 1123093,
                "addr:housenumber": "92",
                "addr:postcode": "34-108",
                "amenity": "pharmacy",
                "addr:place": "Frydrychowice"
            },
            "geometry": {
                "type": "Point",
                "coordinates": [
                    19.414172000000104,
                    49.91574300001239
                ]
            }
        },
        {
            "type": "Feature",
            "properties": {
                "ref:csioz": 1174017,
                "name": "Doz Apteka. Dbam O Zdrowie. Pod Białym Orłem",
                "addr:street": "Włókniarzy",
                "addr:housenumber": "18A",
                "addr:city": "Andrychów",
                "addr:postcode": "34-120",
                "amenity": "pharmacy"
            },
            "geometry": {
                "type": "Point",
                "coordinates": [
                    19.351153767229384,
                    49.86102500565275
                ]
            }
        },
        {
            "type": "Feature",
            "properties": {
                "ref:csioz": 1189170,
                "name": "Apteka Świat Leków",
                "addr:street": "Poprzeczna",
                "addr:housenumber": "10",
                "addr:city": "Wadowice",
                "addr:postcode": "34-100",
                "amenity": "pharmacy"
            },
            "geometry": {
                "type": "Point",
                "coordinates": [
                    19.49532605786477,
                    49.88080078352303
                ]
            }
        },
        {
            "type": "Feature",
            "properties": {
                "ref:csioz": 1193734,
                "name": "Wojewódzki Szpital Psychiatryczny W Andrychowie - Lecznictwo Stacjonarne",
                "addr:street": "Jarosława Dąbrowskiego",
                "addr:housenumber": "19",
                "addr:city": "Andrychów",
                "addr:postcode": "34-120",
                "amenity": "pharmacy"
            },
            "geometry": {
                "type": "Point",
                "coordinates": [
                    19.346822642950873,
                    49.847008882102614
                ]
            }
        },
        {
            "type": "Feature",
            "properties": {
                "ref:csioz": 1193964,
                "name": "Całodobowe Świadczenia Szpitalne",
                "addr:street": "Karmelicka",
                "addr:housenumber": "12b",
                "addr:city": "Wadowice",
                "addr:postcode": "34-100",
                "amenity": "pharmacy"
            },
            "geometry": {
                "type": "Point",
                "coordinates": [
                    19.490725000000133,
                    49.88074800001233
                ]
            }
        },
        {
            "type": "Feature",
            "properties": {
                "ref:csioz": 1195419,
                "name": "Prima",
                "addr:street": "św. Jana Pawła II",
                "addr:housenumber": "12",
                "addr:city": "Nidek",
                "addr:postcode": "34-122",
                "amenity": "pharmacy"
            },
            "geometry": {
                "type": "Point",
                "coordinates": [
                    19.322235969373864,
                    49.90430566707166
                ]
            }
        },
        {
            "type": "Feature",
            "properties": {
                "ref:csioz": 1200901,
                "name": "Apteka Rodzinna",
                "addr:street": "Rynek",
                "addr:housenumber": "16",
                "addr:city": "Spytkowice",
                "addr:postcode": "34-116",
                "amenity": "pharmacy"
            },
            "geometry": {
                "type": "Point",
                "coordinates": [
                    19.511272866567943,
                    49.99723655989185
                ]
            }
        },
        {
            "type": "Feature",
            "properties": {
                "ref:csioz": 1206337,
                "addr:street": "Pałacowa",
                "addr:housenumber": "43",
                "addr:city": "Paszkówka",
                "addr:postcode": "34-113",
                "amenity": "pharmacy"
            },
            "geometry": {
                "type": "Point",
                "coordinates": [
                    19.688292197490725,
                    49.943428471111
                ]
            }
        },
        {
            "type": "Feature",
            "properties": {
                "ref:csioz": 1208597,
                "name": "Hygieia",
                "addr:street": "Wojska Polskiego",
                "addr:housenumber": "14",
                "addr:city": "Wadowice",
                "addr:postcode": "34-100",
                "amenity": "pharmacy"
            },
            "geometry": {
                "type": "Point",
                "coordinates": [
                    19.491467857959446,
                    49.89094758801187
                ]
            }
        },
        {
            "type": "Feature",
            "properties": {
                "ref:csioz": 1208931,
                "name": "Centrum Dla Zdrowia",
                "addr:housenumber": "509",
                "addr:postcode": "34-141",
                "amenity": "pharmacy",
                "addr:place": "Przytkowice"
            },
            "geometry": {
                "type": "Point",
                "coordinates": [
                    19.699306416834855,
                    49.91313929194994
                ]
            }
        },
        {
            "type": "Feature",
            "properties": {
                "ref:csioz": 1210769,
                "name": "Apteka Podhalanin",
                "addr:street": "Wojska Polskiego",
                "addr:housenumber": "17",
                "addr:city": "Wadowice",
                "addr:postcode": "34-100",
                "amenity": "pharmacy"
            },
            "geometry": {
                "type": "Point",
                "coordinates": [
                    19.49015401075116,
                    49.890920367836635
                ]
            }
        },
        {
            "type": "Feature",
            "properties": {
                "ref:csioz": 1217228,
                "name": "Hygieia",
                "addr:street": "Stanisława Lenartowicza",
                "addr:housenumber": "7",
                "addr:city": "Andrychów",
                "addr:postcode": "34-120",
                "amenity": "pharmacy"
            },
            "geometry": {
                "type": "Point",
                "coordinates": [
                    19.353428028897394,
                    49.85861451006612
                ]
            }
        },
        {
            "type": "Feature",
            "properties": {
                "ref:csioz": 1222897,
                "name": "Apteka Centrum Dla Zdrowia",
                "addr:street": "Rynek",
                "addr:housenumber": "32",
                "addr:city": "Spytkowice",
                "addr:postcode": "34-116",
                "amenity": "pharmacy"
            },
            "geometry": {
                "type": "Point",
                "coordinates": [
                    19.510306230194235,
                    49.99590640677462
                ]
            }
        },
        {
            "type": "Feature",
            "properties": {
                "ref:csioz": 1229518,
                "name": "Dr. Max",
                "addr:street": "Krakowska",
                "addr:housenumber": "83 G",
                "addr:city": "Andrychów",
                "addr:postcode": "34-120",
                "amenity": "pharmacy"
            },
            "geometry": {
                "type": "Point",
                "coordinates": [
                    19.334449021923174,
                    49.85516870196392
                ]
            }
        },
        {
            "type": "Feature",
            "properties": {
                "ref:csioz": 1229496,
                "addr:street": "Szkolna",
                "addr:housenumber": "42",
                "addr:city": "Roczyny",
                "addr:postcode": "34-120",
                "amenity": "pharmacy"
            },
            "geometry": {
                "type": "Point",
                "coordinates": [
                    19.306820210488738,
                    49.8403800941568
                ]
            }
        },
        {
            "type": "Feature",
            "properties": {
                "ref:csioz": 1042310,
                "name": "\"Apteka \"\" Nad Cedronem\"\"\"",
                "addr:housenumber": "148",
                "addr:postcode": "34-130",
                "amenity": "pharmacy",
                "addr:place": "Brody"
            },
            "geometry": {
                "type": "Point",
                "coordinates": [
                    19.69560320612721,
                    49.86624934646645
                ]
            }
        },
        {
            "type": "Feature",
            "properties": {
                "ref:csioz": 1075464,
                "name": "Dr. Max",
                "addr:street": "27-go Stycznia",
                "addr:housenumber": "9",
                "addr:city": "Andrychów",
                "addr:postcode": "34-120",
                "amenity": "pharmacy"
            },
            "geometry": {
                "type": "Point",
                "coordinates": [
                    19.344681679132993,
                    49.85625255235934
                ]
            }
        },
        {
            "type": "Feature",
            "properties": {
                "ref:csioz": 1074863,
                "name": "Panaceum",
                "addr:street": "Sienkiewicza",
                "addr:housenumber": "6",
                "addr:city": "Wadowice",
                "addr:postcode": "34-100",
                "amenity": "pharmacy"
            },
            "geometry": {
                "type": "Point",
                "coordinates": [
                    19.49652718992681,
                    49.88232972915229
                ]
            }
        },
        {
            "type": "Feature",
            "properties": {
                "ref:csioz": 1077725,
                "addr:street": "Krakowska",
                "addr:housenumber": "18",
                "addr:city": "Izdebnik",
                "addr:postcode": "34-144",
                "amenity": "pharmacy"
            },
            "geometry": {
                "type": "Point",
                "coordinates": [
                    19.76636367784454,
                    49.87048503292879
                ]
            }
        }
    ]
}