{
    "type": "FeatureCollection",
    "name": "JPT_KOD_JE_1807",
    "features": [
        {
            "type": "Feature",
            "properties": {
                "ref:csioz": 1142537,
                "addr:street": "Ignacego Łukasiewicza",
                "addr:housenumber": "65",
                "addr:city": "Jedlicze",
                "addr:postcode": "38-460",
                "amenity": "pharmacy",
                "dispensing": "yes"
            },
            "geometry": {
                "type": "Point",
                "coordinates": [
                    21.652206745260468,
                    49.709435059667335
                ]
            }
        },
        {
            "type": "Feature",
            "properties": {
                "ref:csioz": 1142742,
                "addr:housenumber": "53",
                "addr:postcode": "38-420",
                "amenity": "pharmacy",
                "addr:place": "Kombornia",
                "dispensing": "yes"
            },
            "geometry": {
                "type": "Point",
                "coordinates": [
                    21.87948599138827,
                    49.70981662639039
                ]
            }
        },
        {
            "type": "Feature",
            "properties": {
                "ref:csioz": 1201388,
                "name": "Apteka Mojej Mamy",
                "addr:street": "Romualda Traugutta",
                "addr:housenumber": "3",
                "addr:city": "Jedlicze",
                "addr:postcode": "38-460",
                "amenity": "pharmacy",
                "dispensing": "yes"
            },
            "geometry": {
                "type": "Point",
                "coordinates": [
                    21.64529402416441,
                    49.71463950151711
                ]
            }
        },
        {
            "type": "Feature",
            "properties": {
                "ref:csioz": 1142576,
                "name": "Apteka Salus",
                "addr:street": "Parkowa",
                "addr:housenumber": "8",
                "addr:city": "Korczyna",
                "addr:postcode": "38-420",
                "amenity": "pharmacy",
                "dispensing": "yes"
            },
            "geometry": {
                "type": "Point",
                "coordinates": [
                    21.807532801949254,
                    49.71200352031016
                ]
            }
        },
        {
            "type": "Feature",
            "properties": {
                "ref:csioz": 1142584,
                "addr:street": "bp. Józefa Sebastiana Pelczara",
                "addr:housenumber": "3",
                "addr:city": "Korczyna",
                "addr:postcode": "38-420",
                "amenity": "pharmacy",
                "dispensing": "yes"
            },
            "geometry": {
                "type": "Point",
                "coordinates": [
                    21.809452626246316,
                    49.715733045843784
                ]
            }
        },
        {
            "type": "Feature",
            "properties": {
                "ref:csioz": 1142592,
                "name": "Apteka Korczyńska Im. Bpa J.S.Pelczara",
                "addr:street": "Rynek",
                "addr:housenumber": "18",
                "addr:city": "Korczyna",
                "addr:postcode": "38-420",
                "amenity": "pharmacy",
                "dispensing": "yes"
            },
            "geometry": {
                "type": "Point",
                "coordinates": [
                    21.8115936395932,
                    49.71434530274591
                ]
            }
        },
        {
            "type": "Feature",
            "properties": {
                "ref:csioz": 1142716,
                "addr:housenumber": "323",
                "addr:postcode": "38-460",
                "amenity": "pharmacy",
                "addr:place": "Jaszczew",
                "dispensing": "yes"
            },
            "geometry": {
                "type": "Point",
                "coordinates": [
                    21.655994540963512,
                    49.73891548052658
                ]
            }
        },
        {
            "type": "Feature",
            "properties": {
                "ref:csioz": 1164876,
                "name": "Werbena Bis",
                "addr:street": "Szkolna",
                "addr:housenumber": "6",
                "addr:city": "Krościenko Wyżne",
                "addr:postcode": "38-422",
                "amenity": "pharmacy",
                "dispensing": "yes"
            },
            "geometry": {
                "type": "Point",
                "coordinates": [
                    21.827164246319402,
                    49.6750247572772
                ]
            }
        },
        {
            "type": "Feature",
            "properties": {
                "ref:csioz": 1171041,
                "name": "Animed",
                "addr:street": "Krośnieńska",
                "addr:housenumber": "3",
                "addr:city": "Odrzykoń",
                "addr:postcode": "38-406",
                "amenity": "pharmacy",
                "dispensing": "yes"
            },
            "geometry": {
                "type": "Point",
                "coordinates": [
                    21.7401260580367,
                    49.73862208254061
                ]
            }
        },
        {
            "type": "Feature",
            "properties": {
                "ref:csioz": 1211263,
                "name": "Apteka Lafarma",
                "addr:street": "Tytusa Trzecieskiego",
                "addr:housenumber": "10",
                "addr:city": "Jedlicze",
                "addr:postcode": "38-460",
                "amenity": "pharmacy",
                "dispensing": "yes"
            },
            "geometry": {
                "type": "Point",
                "coordinates": [
                    21.652240603101873,
                    49.70844569952649
                ]
            }
        },
        {
            "type": "Feature",
            "properties": {
                "ref:csioz": 1142666,
                "name": "Arkadia",
                "addr:housenumber": "31c",
                "addr:postcode": "38-471",
                "amenity": "pharmacy",
                "addr:place": "Wojaszówka",
                "dispensing": "yes"
            },
            "geometry": {
                "type": "Point",
                "coordinates": [
                    21.668259451169455,
                    49.7797172681065
                ]
            }
        },
        {
            "type": "Feature",
            "properties": {
                "ref:csioz": 1125413,
                "addr:street": "Leśna",
                "addr:housenumber": "4",
                "addr:city": "Rymanów Zdrój",
                "addr:postcode": "38-481",
                "amenity": "pharmacy",
                "dispensing": "yes"
            },
            "geometry": {
                "type": "Point",
                "coordinates": [
                    21.85364700001789,
                    49.54261400001196
                ]
            }
        },
        {
            "type": "Feature",
            "properties": {
                "ref:csioz": 1125421,
                "addr:street": "Kulczyńskiego",
                "addr:housenumber": "1",
                "addr:city": "Iwonicz Zdrój",
                "addr:postcode": "38-440",
                "amenity": "pharmacy",
                "dispensing": "yes"
            },
            "geometry": {
                "type": "Point",
                "coordinates": [
                    21.788543895075936,
                    49.56345287579476
                ]
            }
        },
        {
            "type": "Feature",
            "properties": {
                "ref:csioz": 1125396,
                "name": "\"Sanatorium Uzdrowiskowe \"\"Piast\"\"\"",
                "addr:street": "Kulczyńskiego",
                "addr:housenumber": "5",
                "addr:city": "Iwonicz Zdrój",
                "addr:postcode": "38-440",
                "amenity": "pharmacy",
                "dispensing": "yes"
            },
            "geometry": {
                "type": "Point",
                "coordinates": [
                    21.78720300001588,
                    49.56339000001197
                ]
            }
        },
        {
            "type": "Feature",
            "properties": {
                "ref:csioz": 1142436,
                "name": "Urtica",
                "addr:street": "św. Jana z Dukli",
                "addr:housenumber": "1",
                "addr:city": "Dukla",
                "addr:postcode": "38-450",
                "amenity": "pharmacy",
                "dispensing": "yes"
            },
            "geometry": {
                "type": "Point",
                "coordinates": [
                    21.6823707614237,
                    49.55493529030455
                ]
            }
        },
        {
            "type": "Feature",
            "properties": {
                "ref:csioz": 1142461,
                "name": "Apteka Viva",
                "addr:street": "Słowacka",
                "addr:housenumber": "11",
                "addr:city": "Dukla",
                "addr:postcode": "38-450",
                "amenity": "pharmacy",
                "dispensing": "yes"
            },
            "geometry": {
                "type": "Point",
                "coordinates": [
                    21.681505245261164,
                    49.55302694039988
                ]
            }
        },
        {
            "type": "Feature",
            "properties": {
                "ref:csioz": 1142521,
                "addr:street": "Floriańska",
                "addr:housenumber": "1a",
                "addr:city": "Iwonicz",
                "addr:postcode": "38-440",
                "amenity": "pharmacy",
                "dispensing": "yes"
            },
            "geometry": {
                "type": "Point",
                "coordinates": [
                    21.80137274090382,
                    49.603668411934365
                ]
            }
        },
        {
            "type": "Feature",
            "properties": {
                "ref:csioz": 1142750,
                "name": "Avena",
                "addr:housenumber": "57",
                "addr:postcode": "38-459",
                "amenity": "pharmacy",
                "addr:place": "Kopytowa",
                "dispensing": "yes"
            },
            "geometry": {
                "type": "Point",
                "coordinates": [
                    21.610522561067082,
                    49.66537057832168
                ]
            }
        },
        {
            "type": "Feature",
            "properties": {
                "ref:csioz": 1142791,
                "addr:street": "ks. Henryka Domino",
                "addr:housenumber": "25",
                "addr:city": "Rogi",
                "addr:postcode": "38-430",
                "amenity": "pharmacy",
                "dispensing": "yes"
            },
            "geometry": {
                "type": "Point",
                "coordinates": [
                    21.754282339795832,
                    49.61293150625125
                ]
            }
        },
        {
            "type": "Feature",
            "properties": {
                "ref:csioz": 1142809,
                "name": "Remedium",
                "addr:street": "Zdrojowa",
                "addr:housenumber": "38",
                "addr:city": "Rymanów-Zdrój",
                "addr:postcode": "38-481",
                "amenity": "pharmacy",
                "dispensing": "yes"
            },
            "geometry": {
                "type": "Point",
                "coordinates": [
                    21.851570587747386,
                    49.55029825405262
                ]
            }
        },
        {
            "type": "Feature",
            "properties": {
                "ref:csioz": 1142823,
                "addr:street": "Armii Krajowej",
                "addr:housenumber": "12",
                "addr:city": "Targowiska",
                "addr:postcode": "38-430",
                "amenity": "pharmacy",
                "dispensing": "yes"
            },
            "geometry": {
                "type": "Point",
                "coordinates": [
                    21.823091889831694,
                    49.63708176767568
                ]
            }
        },
        {
            "type": "Feature",
            "properties": {
                "ref:csioz": 1142846,
                "name": "Remedium",
                "addr:street": "Kolejowa",
                "addr:housenumber": "12a",
                "addr:city": "Wróblik Szlachecki",
                "addr:postcode": "38-523",
                "amenity": "pharmacy",
                "dispensing": "yes"
            },
            "geometry": {
                "type": "Point",
                "coordinates": [
                    21.875673159100614,
                    49.614703389197544
                ]
            }
        },
        {
            "type": "Feature",
            "properties": {
                "ref:csioz": 1180350,
                "addr:street": "ks. Jana Rąba",
                "addr:housenumber": "3",
                "addr:city": "Iwonicz-Zdrój",
                "addr:postcode": "38-440",
                "amenity": "pharmacy",
                "dispensing": "yes"
            },
            "geometry": {
                "type": "Point",
                "coordinates": [
                    21.787983049595002,
                    49.565994879689924
                ]
            }
        },
        {
            "type": "Feature",
            "properties": {
                "ref:csioz": 1212600,
                "name": "Apteka Piastowska Miejsce Piastowe",
                "addr:street": "Dworska",
                "addr:housenumber": "15",
                "addr:city": "Miejsce Piastowe",
                "addr:postcode": "38-430",
                "amenity": "pharmacy",
                "dispensing": "yes"
            },
            "geometry": {
                "type": "Point",
                "coordinates": [
                    21.78206105307839,
                    49.633269948639104
                ]
            }
        },
        {
            "type": "Feature",
            "properties": {
                "ref:csioz": 1136341,
                "addr:street": "Stanisława Kulczyńskiego",
                "addr:housenumber": "7",
                "addr:city": "Iwonicz-Zdrój",
                "addr:postcode": "38-440",
                "amenity": "pharmacy",
                "dispensing": "yes"
            },
            "geometry": {
                "type": "Point",
                "coordinates": [
                    21.78569460452352,
                    49.56343773901163
                ]
            }
        },
        {
            "type": "Feature",
            "properties": {
                "ref:csioz": 1140640,
                "name": "Avena",
                "addr:street": "św. Jana z Dukli",
                "addr:housenumber": "2",
                "addr:city": "Dukla",
                "addr:postcode": "38-450",
                "amenity": "pharmacy",
                "dispensing": "yes"
            },
            "geometry": {
                "type": "Point",
                "coordinates": [
                    21.682258310105702,
                    49.55517672405886
                ]
            }
        },
        {
            "type": "Feature",
            "properties": {
                "ref:csioz": 1142473,
                "name": "Przy Trakcie",
                "addr:street": "Żwirki i Wigury",
                "addr:housenumber": "1",
                "addr:city": "Dukla",
                "addr:postcode": "38-450",
                "amenity": "pharmacy",
                "dispensing": "yes"
            },
            "geometry": {
                "type": "Point",
                "coordinates": [
                    21.68278186021687,
                    49.557137575712964
                ]
            }
        },
        {
            "type": "Feature",
            "properties": {
                "ref:csioz": 1142485,
                "name": "Ambra",
                "addr:street": "Szkolna",
                "addr:housenumber": "2b",
                "addr:city": "Głowienka",
                "addr:postcode": "38-455",
                "amenity": "pharmacy",
                "dispensing": "yes"
            },
            "geometry": {
                "type": "Point",
                "coordinates": [
                    21.75331128192093,
                    49.661386420960554
                ]
            }
        },
        {
            "type": "Feature",
            "properties": {
                "ref:csioz": 1142513,
                "name": "Apteka Rodzinna",
                "addr:street": "ks. Jana Rąba",
                "addr:housenumber": "8",
                "addr:city": "Iwonicz-Zdrój",
                "addr:postcode": "38-440",
                "amenity": "pharmacy",
                "dispensing": "yes"
            },
            "geometry": {
                "type": "Point",
                "coordinates": [
                    21.790858177097924,
                    49.56542543317791
                ]
            }
        },
        {
            "type": "Feature",
            "properties": {
                "ref:csioz": 1142568,
                "addr:housenumber": "313",
                "addr:postcode": "38-462",
                "amenity": "pharmacy",
                "addr:place": "Kobylany",
                "dispensing": "yes"
            },
            "geometry": {
                "type": "Point",
                "coordinates": [
                    21.646943241508705,
                    49.60921647268372
                ]
            }
        },
        {
            "type": "Feature",
            "properties": {
                "ref:csioz": 1142602,
                "name": "Apteka Lubatowa",
                "addr:housenumber": "291a",
                "addr:postcode": "38-441",
                "amenity": "pharmacy",
                "addr:place": "Lubatowa",
                "dispensing": "yes"
            },
            "geometry": {
                "type": "Point",
                "coordinates": [
                    21.760489662360172,
                    49.54356153184264
                ]
            }
        },
        {
            "type": "Feature",
            "properties": {
                "ref:csioz": 1142615,
                "addr:street": "Jana Pawła II",
                "addr:housenumber": "3",
                "addr:city": "Łężany",
                "addr:postcode": "38-423",
                "amenity": "pharmacy",
                "dispensing": "yes"
            },
            "geometry": {
                "type": "Point",
                "coordinates": [
                    21.81048949980856,
                    49.646884336568135
                ]
            }
        },
        {
            "type": "Feature",
            "properties": {
                "ref:csioz": 1142628,
                "addr:street": "Dworska",
                "addr:housenumber": "14",
                "addr:city": "Miejsce Piastowe",
                "addr:postcode": "38-440",
                "amenity": "pharmacy",
                "dispensing": "yes"
            },
            "geometry": {
                "type": "Point",
                "coordinates": [
                    21.779944459041275,
                    49.63442094988486
                ]
            }
        },
        {
            "type": "Feature",
            "properties": {
                "ref:csioz": 1142631,
                "name": "Malwa",
                "addr:street": "Piłsudskiego",
                "addr:housenumber": "2",
                "addr:city": "Rymanów",
                "addr:postcode": "38-520",
                "amenity": "pharmacy",
                "dispensing": "yes"
            },
            "geometry": {
                "type": "Point",
                "coordinates": [
                    21.867500979633885,
                    49.5746232687614
                ]
            }
        },
        {
            "type": "Feature",
            "properties": {
                "ref:csioz": 1142644,
                "addr:street": "Rynek",
                "addr:housenumber": "21",
                "addr:city": "Rymanów",
                "addr:postcode": "38-520",
                "amenity": "pharmacy",
                "dispensing": "yes"
            },
            "geometry": {
                "type": "Point",
                "coordinates": [
                    21.867056104658086,
                    49.5762936872396
                ]
            }
        },
        {
            "type": "Feature",
            "properties": {
                "ref:csioz": 1142653,
                "name": "Doz Apteka. Dbam O Zdrowie. Zielona",
                "addr:street": "Zdrojowa",
                "addr:housenumber": "41",
                "addr:city": "Rymanów-Zdrój",
                "addr:postcode": "38-521",
                "amenity": "pharmacy",
                "dispensing": "yes"
            },
            "geometry": {
                "type": "Point",
                "coordinates": [
                    21.85207963498502,
                    49.550921327707286
                ]
            }
        },
        {
            "type": "Feature",
            "properties": {
                "ref:csioz": 1142677,
                "name": "Centrum",
                "addr:street": "Łukasiewicza",
                "addr:housenumber": "16",
                "addr:city": "Zręcin",
                "addr:postcode": "38-457",
                "amenity": "pharmacy",
                "dispensing": "yes"
            },
            "geometry": {
                "type": "Point",
                "coordinates": [
                    21.69026382446117,
                    49.6675621344627
                ]
            }
        },
        {
            "type": "Feature",
            "properties": {
                "ref:csioz": 1142689,
                "name": "Im. Ignacego Łukasiewicza",
                "addr:street": "Łukasiewicza",
                "addr:housenumber": "18a",
                "addr:city": "Zręcin",
                "addr:postcode": "38-457",
                "amenity": "pharmacy",
                "dispensing": "yes"
            },
            "geometry": {
                "type": "Point",
                "coordinates": [
                    21.690267000013193,
                    49.6675710000121
                ]
            }
        },
        {
            "type": "Feature",
            "properties": {
                "ref:csioz": 1142727,
                "addr:housenumber": "2",
                "addr:postcode": "38-525",
                "amenity": "pharmacy",
                "addr:place": "Jaśliska",
                "dispensing": "yes"
            },
            "geometry": {
                "type": "Point",
                "coordinates": [
                    21.799630362011946,
                    49.437827427741716
                ]
            }
        },
        {
            "type": "Feature",
            "properties": {
                "ref:csioz": 1164884,
                "name": "Omega",
                "addr:street": "Piękna",
                "addr:housenumber": "5a",
                "addr:city": "Rymanów",
                "addr:postcode": "38-480",
                "amenity": "pharmacy",
                "dispensing": "yes"
            },
            "geometry": {
                "type": "Point",
                "coordinates": [
                    21.866457606987023,
                    49.57704698824251
                ]
            }
        },
        {
            "type": "Feature",
            "properties": {
                "ref:csioz": 1165496,
                "name": "Herbikus",
                "addr:street": "Rynek",
                "addr:housenumber": "17",
                "addr:city": "Dukla",
                "addr:postcode": "38-450",
                "amenity": "pharmacy",
                "dispensing": "yes"
            },
            "geometry": {
                "type": "Point",
                "coordinates": [
                    21.683878069360222,
                    49.55484214107139
                ]
            }
        },
        {
            "type": "Feature",
            "properties": {
                "ref:csioz": 1170021,
                "addr:street": "ks. Jana Rąba",
                "addr:housenumber": "22",
                "addr:city": "Iwonicz-Zdrój",
                "addr:postcode": "38-440",
                "amenity": "pharmacy",
                "dispensing": "yes"
            },
            "geometry": {
                "type": "Point",
                "coordinates": [
                    21.78701422547946,
                    49.56786147605471
                ]
            }
        },
        {
            "type": "Feature",
            "properties": {
                "ref:csioz": 1215774,
                "name": "Doz Apteka. Dbam O Zdrowie. Vita",
                "addr:street": "Floriańska",
                "addr:housenumber": "92a",
                "addr:city": "Iwonicz",
                "addr:postcode": "38-440",
                "amenity": "pharmacy",
                "dispensing": "yes"
            },
            "geometry": {
                "type": "Point",
                "coordinates": [
                    21.805550787959927,
                    49.60694765810539
                ]
            }
        },
        {
            "type": "Feature",
            "properties": {
                "ref:csioz": 1228062,
                "addr:housenumber": "30",
                "addr:postcode": "38-451",
                "amenity": "pharmacy",
                "addr:place": "Równe",
                "dispensing": "yes"
            },
            "geometry": {
                "type": "Point",
                "coordinates": [
                    21.712297728730206,
                    49.59395218328196
                ]
            }
        },
        {
            "type": "Feature",
            "properties": {
                "ref:csioz": 1229962,
                "name": "Almaz",
                "addr:housenumber": "83",
                "addr:postcode": "38-456",
                "amenity": "pharmacy",
                "addr:place": "Łęki Dukielskie",
                "dispensing": "yes"
            },
            "geometry": {
                "type": "Point",
                "coordinates": [
                    21.67106389090285,
                    49.605132408212
                ]
            }
        },
        {
            "type": "Feature",
            "properties": {
                "ref:csioz": 1169890,
                "name": "Zdrowie",
                "addr:street": "Słoneczna",
                "addr:housenumber": "4",
                "addr:city": "Iwonicz-Zdrój",
                "addr:postcode": "38-440",
                "amenity": "pharmacy",
                "dispensing": "yes"
            },
            "geometry": {
                "type": "Point",
                "coordinates": [
                    21.790507614906403,
                    49.56326445954321
                ]
            }
        }
    ]
}