{
    "type": "FeatureCollection",
    "name": "JPT_KOD_JE_1817",
    "features": [
        {
            "type": "Feature",
            "properties": {
                "ref:csioz": 1142978,
                "name": "Apteka Jagiellońska",
                "addr:street": "Jagiellońska",
                "addr:housenumber": "66",
                "addr:city": "Sanok",
                "addr:postcode": "38-500",
                "amenity": "pharmacy"
            },
            "geometry": {
                "type": "Point",
                "coordinates": [
                    22.205728193681484,
                    49.555158431585795
                ]
            }
        },
        {
            "type": "Feature",
            "properties": {
                "ref:csioz": 1142986,
                "name": "Vega",
                "addr:street": "Jana Pawła II",
                "addr:housenumber": "31A",
                "addr:city": "Sanok",
                "addr:postcode": "38-500",
                "amenity": "pharmacy"
            },
            "geometry": {
                "type": "Point",
                "coordinates": [
                    22.196739127586046,
                    49.57117419626807
                ]
            }
        },
        {
            "type": "Feature",
            "properties": {
                "ref:csioz": 1142993,
                "name": "Vega",
                "addr:street": "Kochanowskiego",
                "addr:housenumber": "25",
                "addr:city": "Sanok",
                "addr:postcode": "38-500",
                "amenity": "pharmacy"
            },
            "geometry": {
                "type": "Point",
                "coordinates": [
                    22.210652782140933,
                    49.558086879455644
                ]
            }
        },
        {
            "type": "Feature",
            "properties": {
                "ref:csioz": 1142955,
                "name": "Dr.Max",
                "addr:street": "Daszyńskiego",
                "addr:housenumber": "3",
                "addr:city": "Sanok",
                "addr:postcode": "38-500",
                "amenity": "pharmacy"
            },
            "geometry": {
                "type": "Point",
                "coordinates": [
                    22.202453855619027,
                    49.559522583281264
                ]
            }
        },
        {
            "type": "Feature",
            "properties": {
                "ref:csioz": 1143163,
                "addr:street": "Błonie",
                "addr:housenumber": "1",
                "addr:city": "Besko",
                "addr:postcode": "38-524",
                "amenity": "pharmacy"
            },
            "geometry": {
                "type": "Point",
                "coordinates": [
                    21.948118623729492,
                    49.588560985649494
                ]
            }
        },
        {
            "type": "Feature",
            "properties": {
                "ref:csioz": 1143182,
                "addr:housenumber": "291",
                "addr:postcode": "38-505",
                "amenity": "pharmacy",
                "addr:place": "Bukowsko"
            },
            "geometry": {
                "type": "Point",
                "coordinates": [
                    22.060883769503675,
                    49.47965136496762
                ]
            }
        },
        {
            "type": "Feature",
            "properties": {
                "ref:csioz": 1143207,
                "addr:housenumber": "160",
                "addr:postcode": "38-543",
                "amenity": "pharmacy",
                "addr:place": "Komańcza"
            },
            "geometry": {
                "type": "Point",
                "coordinates": [
                    22.06901813708005,
                    49.33580587384455
                ]
            }
        },
        {
            "type": "Feature",
            "properties": {
                "ref:csioz": 1143210,
                "addr:housenumber": "81",
                "addr:postcode": "38-616",
                "amenity": "pharmacy",
                "addr:place": "Tarnawa Górna"
            },
            "geometry": {
                "type": "Point",
                "coordinates": [
                    22.25335434097155,
                    49.46206848535487
                ]
            }
        },
        {
            "type": "Feature",
            "properties": {
                "ref:csioz": 1143229,
                "addr:street": "Piłsudskiego",
                "addr:housenumber": "18",
                "addr:city": "Zagórz",
                "addr:postcode": "38-540",
                "amenity": "pharmacy"
            },
            "geometry": {
                "type": "Point",
                "coordinates": [
                    22.265110437785268,
                    49.51279572912349
                ]
            }
        },
        {
            "type": "Feature",
            "properties": {
                "ref:csioz": 1143232,
                "name": "Omega",
                "addr:street": "Piłsudskiego",
                "addr:housenumber": "12",
                "addr:city": "Zagórz",
                "addr:postcode": "38-540",
                "amenity": "pharmacy"
            },
            "geometry": {
                "type": "Point",
                "coordinates": [
                    22.265797931188192,
                    49.513430196836424
                ]
            }
        },
        {
            "type": "Feature",
            "properties": {
                "ref:csioz": 1143264,
                "name": "Werbena-Bis",
                "addr:housenumber": "234",
                "addr:postcode": "38-530",
                "amenity": "pharmacy",
                "addr:place": "Jaćmierz"
            },
            "geometry": {
                "type": "Point",
                "coordinates": [
                    22.01851492800578,
                    49.61954821341176
                ]
            }
        },
        {
            "type": "Feature",
            "properties": {
                "ref:csioz": 1203037,
                "name": "Apteka Omega",
                "addr:street": "Bieszczadzka",
                "addr:housenumber": "134",
                "addr:city": "Zarszyn",
                "addr:postcode": "38-530",
                "amenity": "pharmacy"
            },
            "geometry": {
                "type": "Point",
                "coordinates": [
                    22.01856208611886,
                    49.58341998111944
                ]
            }
        },
        {
            "type": "Feature",
            "properties": {
                "ref:csioz": 1136815,
                "addr:street": "Korczaka",
                "addr:housenumber": "15",
                "addr:city": "Sanok",
                "addr:postcode": "38-500",
                "amenity": "pharmacy"
            },
            "geometry": {
                "type": "Point",
                "coordinates": [
                    22.22080074441545,
                    49.55719091502104
                ]
            }
        },
        {
            "type": "Feature",
            "properties": {
                "ref:csioz": 1137208,
                "addr:street": "800-lecia",
                "addr:housenumber": "26",
                "addr:city": "Sanok",
                "addr:postcode": "38-500",
                "amenity": "pharmacy"
            },
            "geometry": {
                "type": "Point",
                "coordinates": [
                    22.198862633245756,
                    49.55191928488626
                ]
            }
        },
        {
            "type": "Feature",
            "properties": {
                "ref:csioz": 1138395,
                "addr:street": "800-lecia",
                "addr:housenumber": "26",
                "addr:city": "Sanok",
                "addr:postcode": "38-500",
                "amenity": "pharmacy"
            },
            "geometry": {
                "type": "Point",
                "coordinates": [
                    22.198862633245756,
                    49.55191928488626
                ]
            }
        },
        {
            "type": "Feature",
            "properties": {
                "ref:csioz": 1142932,
                "name": "Vega Bis",
                "addr:street": "Mateusza Beksińskiego",
                "addr:housenumber": "4",
                "addr:city": "Sanok",
                "addr:postcode": "38-500",
                "amenity": "pharmacy"
            },
            "geometry": {
                "type": "Point",
                "coordinates": [
                    22.21754230199186,
                    49.54840877392096
                ]
            }
        },
        {
            "type": "Feature",
            "properties": {
                "ref:csioz": 1143013,
                "name": "Apteka Omega",
                "addr:street": "Kościuszki",
                "addr:housenumber": "22",
                "addr:city": "Sanok",
                "addr:postcode": "38-500",
                "amenity": "pharmacy"
            },
            "geometry": {
                "type": "Point",
                "coordinates": [
                    22.201929719364113,
                    49.55996548498397
                ]
            }
        },
        {
            "type": "Feature",
            "properties": {
                "ref:csioz": 1143021,
                "name": "Malwa",
                "addr:street": "Kościuszki",
                "addr:housenumber": "27",
                "addr:city": "Sanok",
                "addr:postcode": "38-500",
                "amenity": "pharmacy"
            },
            "geometry": {
                "type": "Point",
                "coordinates": [
                    22.200030718084477,
                    49.56028738622449
                ]
            }
        },
        {
            "type": "Feature",
            "properties": {
                "ref:csioz": 1143037,
                "name": "Panorama",
                "addr:street": "Krakowska",
                "addr:housenumber": "2",
                "addr:city": "Sanok",
                "addr:postcode": "38-500",
                "amenity": "pharmacy"
            },
            "geometry": {
                "type": "Point",
                "coordinates": [
                    22.180644587305274,
                    49.564845626035726
                ]
            }
        },
        {
            "type": "Feature",
            "properties": {
                "ref:csioz": 1143045,
                "name": "Apteka Dbam O Zdrowie",
                "addr:street": "Królowej Bony",
                "addr:housenumber": "10",
                "addr:city": "Sanok",
                "addr:postcode": "38-500",
                "amenity": "pharmacy"
            },
            "geometry": {
                "type": "Point",
                "coordinates": [
                    22.206286798630636,
                    49.56688704520996
                ]
            }
        },
        {
            "type": "Feature",
            "properties": {
                "ref:csioz": 1143059,
                "name": "Dbam O Zdrowie",
                "addr:street": "Lipińskiego",
                "addr:housenumber": "10A",
                "addr:city": "Sanok",
                "addr:postcode": "38-500",
                "amenity": "pharmacy"
            },
            "geometry": {
                "type": "Point",
                "coordinates": [
                    22.207869053451528,
                    49.55337029818007
                ]
            }
        },
        {
            "type": "Feature",
            "properties": {
                "ref:csioz": 1143068,
                "name": "Omega",
                "addr:street": "Lipińskiego",
                "addr:housenumber": "16",
                "addr:city": "Sanok",
                "addr:postcode": "38-500",
                "amenity": "pharmacy"
            },
            "geometry": {
                "type": "Point",
                "coordinates": [
                    22.209074462886456,
                    49.5527265751444
                ]
            }
        },
        {
            "type": "Feature",
            "properties": {
                "ref:csioz": 1143092,
                "name": "Pogodna",
                "addr:street": "Pogodna",
                "addr:housenumber": "1",
                "addr:city": "Sanok",
                "addr:postcode": "38-500",
                "amenity": "pharmacy"
            },
            "geometry": {
                "type": "Point",
                "coordinates": [
                    22.198105629344987,
                    49.554902468894625
                ]
            }
        },
        {
            "type": "Feature",
            "properties": {
                "ref:csioz": 1143101,
                "name": "Pod Kasztanem",
                "addr:street": "Przemyska",
                "addr:housenumber": "24A",
                "addr:city": "Sanok",
                "addr:postcode": "38-500",
                "amenity": "pharmacy"
            },
            "geometry": {
                "type": "Point",
                "coordinates": [
                    22.228721045486896,
                    49.55323222503136
                ]
            }
        },
        {
            "type": "Feature",
            "properties": {
                "ref:csioz": 1143117,
                "name": "Apteka Omega",
                "addr:street": "Rzemieślnicza",
                "addr:housenumber": "9",
                "addr:city": "Sanok",
                "addr:postcode": "38-500",
                "amenity": "pharmacy"
            },
            "geometry": {
                "type": "Point",
                "coordinates": [
                    22.213336659436386,
                    49.54789718352923
                ]
            }
        },
        {
            "type": "Feature",
            "properties": {
                "ref:csioz": 1143125,
                "name": "Apteka Omega",
                "addr:street": "Sadowa",
                "addr:housenumber": "11a",
                "addr:city": "Sanok",
                "addr:postcode": "38-500",
                "amenity": "pharmacy"
            },
            "geometry": {
                "type": "Point",
                "coordinates": [
                    22.195466185933775,
                    49.5705798602088
                ]
            }
        },
        {
            "type": "Feature",
            "properties": {
                "ref:csioz": 1143130,
                "name": "Pod Orłem",
                "addr:street": "3 Maja",
                "addr:housenumber": "17",
                "addr:city": "Sanok",
                "addr:postcode": "38-500",
                "amenity": "pharmacy"
            },
            "geometry": {
                "type": "Point",
                "coordinates": [
                    22.205288892296807,
                    49.56005824334425
                ]
            }
        },
        {
            "type": "Feature",
            "properties": {
                "ref:csioz": 1143278,
                "name": "Panaceum",
                "addr:housenumber": "30",
                "addr:postcode": "38-503",
                "amenity": "pharmacy",
                "addr:place": "Mrzygłód"
            },
            "geometry": {
                "type": "Point",
                "coordinates": [
                    22.272518073724957,
                    49.619283168781756
                ]
            }
        },
        {
            "type": "Feature",
            "properties": {
                "ref:csioz": 1143286,
                "addr:street": "Heleny Gniewosz",
                "addr:housenumber": "85",
                "addr:city": "Nowosielce",
                "addr:postcode": "38-533",
                "amenity": "pharmacy"
            },
            "geometry": {
                "type": "Point",
                "coordinates": [
                    22.074359021484423,
                    49.565943013066175
                ]
            }
        },
        {
            "type": "Feature",
            "properties": {
                "ref:csioz": 1143293,
                "addr:housenumber": "93",
                "addr:postcode": "38-505",
                "amenity": "pharmacy",
                "addr:place": "Nowotaniec"
            },
            "geometry": {
                "type": "Point",
                "coordinates": [
                    22.0293153162317,
                    49.50812737905147
                ]
            }
        },
        {
            "type": "Feature",
            "properties": {
                "ref:csioz": 1164927,
                "name": "Farmacja 24",
                "addr:street": "Traugutta",
                "addr:housenumber": "78",
                "addr:city": "Sanok",
                "addr:postcode": "38-500",
                "amenity": "pharmacy"
            },
            "geometry": {
                "type": "Point",
                "coordinates": [
                    22.197741000031723,
                    49.575740000012125
                ]
            }
        },
        {
            "type": "Feature",
            "properties": {
                "ref:csioz": 1164934,
                "name": "Maja",
                "addr:street": "Mickiewicza",
                "addr:housenumber": "36",
                "addr:city": "Sanok",
                "addr:postcode": "38-500",
                "amenity": "pharmacy"
            },
            "geometry": {
                "type": "Point",
                "coordinates": [
                    22.20514854899423,
                    49.56599075306228
                ]
            }
        },
        {
            "type": "Feature",
            "properties": {
                "ref:csioz": 1166244,
                "name": "Panakeja",
                "addr:street": "gen. Józefa Bema",
                "addr:housenumber": "1 A",
                "addr:city": "Sanok",
                "addr:postcode": "38-500",
                "amenity": "pharmacy"
            },
            "geometry": {
                "type": "Point",
                "coordinates": [
                    22.15677405184642,
                    49.57041872218049
                ]
            }
        },
        {
            "type": "Feature",
            "properties": {
                "ref:csioz": 1174907,
                "addr:housenumber": "1A",
                "addr:postcode": "38-542",
                "amenity": "pharmacy",
                "addr:place": "Rzepedź"
            },
            "geometry": {
                "type": "Point",
                "coordinates": [
                    22.07801398726868,
                    49.39680033305766
                ]
            }
        },
        {
            "type": "Feature",
            "properties": {
                "ref:csioz": 1209911,
                "name": "Apteka Społeczna Na Kościuszki Grupa Nowa Farmacja",
                "addr:street": "Kościuszki",
                "addr:housenumber": "10",
                "addr:city": "Sanok",
                "addr:postcode": "38-500",
                "amenity": "pharmacy"
            },
            "geometry": {
                "type": "Point",
                "coordinates": [
                    22.20326554752176,
                    49.55993864969394
                ]
            }
        },
        {
            "type": "Feature",
            "properties": {
                "ref:csioz": 1212226,
                "name": "Apteka Słoneczna",
                "addr:street": "Jagiellońska",
                "addr:housenumber": "58",
                "addr:city": "Sanok",
                "addr:postcode": "38-500",
                "amenity": "pharmacy"
            },
            "geometry": {
                "type": "Point",
                "coordinates": [
                    22.205268495243097,
                    49.55543927823773
                ]
            }
        },
        {
            "type": "Feature",
            "properties": {
                "ref:csioz": 1218313,
                "name": "Apteka Egida",
                "addr:street": "Podkarpacka",
                "addr:housenumber": "5a",
                "addr:city": "Besko",
                "addr:postcode": "37-524",
                "amenity": "pharmacy"
            },
            "geometry": {
                "type": "Point",
                "coordinates": [
                    21.95081233568277,
                    49.58688678028307
                ]
            }
        },
        {
            "type": "Feature",
            "properties": {
                "ref:csioz": 1218836,
                "name": "Apteka Omega",
                "addr:street": "Bieszczadzka",
                "addr:housenumber": "11",
                "addr:city": "Besko",
                "addr:postcode": "38-524",
                "amenity": "pharmacy"
            },
            "geometry": {
                "type": "Point",
                "coordinates": [
                    21.95790219466398,
                    49.58638396953266
                ]
            }
        },
        {
            "type": "Feature",
            "properties": {
                "ref:csioz": 1224453,
                "name": "Punkt Apteczny W Długiem",
                "addr:street": "Sanocka",
                "addr:housenumber": "147",
                "addr:city": "Długie",
                "addr:postcode": "38-530",
                "amenity": "pharmacy"
            },
            "geometry": {
                "type": "Point",
                "coordinates": [
                    22.04543915217269,
                    49.577354938267064
                ]
            }
        },
        {
            "type": "Feature",
            "properties": {
                "ref:csioz": 1226276,
                "name": "Danfarm Punkt Apteczny Tyrawa Wołoska",
                "addr:housenumber": "238",
                "addr:postcode": "38-535",
                "amenity": "pharmacy",
                "addr:place": "Tyrawa Wołoska"
            },
            "geometry": {
                "type": "Point",
                "coordinates": [
                    22.367352589190233,
                    49.57720274439867
                ]
            }
        },
        {
            "type": "Feature",
            "properties": {
                "ref:csioz": 1143149,
                "name": "Dr.Max",
                "addr:street": "Traugutta",
                "addr:housenumber": "9",
                "addr:city": "Sanok",
                "addr:postcode": "38-500",
                "amenity": "pharmacy"
            },
            "geometry": {
                "type": "Point",
                "coordinates": [
                    22.20065787684462,
                    49.566913208581774
                ]
            }
        },
        {
            "type": "Feature",
            "properties": {
                "ref:csioz": 1143084,
                "name": "Dr.Max",
                "addr:street": "Marszałka Józefa Piłsudskiego",
                "addr:housenumber": "10",
                "addr:city": "Sanok",
                "addr:postcode": "38-500",
                "amenity": "pharmacy"
            },
            "geometry": {
                "type": "Point",
                "coordinates": [
                    22.204048694267158,
                    49.561141712338205
                ]
            }
        },
        {
            "type": "Feature",
            "properties": {
                "ref:csioz": 1142941,
                "name": "Dr.Max",
                "addr:street": "Błonie",
                "addr:housenumber": "1",
                "addr:city": "Sanok",
                "addr:postcode": "38-500",
                "amenity": "pharmacy"
            },
            "geometry": {
                "type": "Point",
                "coordinates": [
                    22.208843134401004,
                    49.558960955604235
                ]
            }
        }
    ]
}