{
    "type": "FeatureCollection",
    "name": "JPT_KOD_JE_0226",
    "features": [
        {
            "type": "Feature",
            "properties": {
                "ref:csioz": 1224798,
                "name": "\"Punkt Apteczny ''Pod Ostrzycą''\"",
                "addr:housenumber": "109F",
                "addr:postcode": "59-524",
                "amenity": "pharmacy",
                "addr:place": "Pielgrzymka"
            },
            "geometry": {
                "type": "Point",
                "coordinates": [
                    15.819151212038173,
                    51.119384525242936
                ]
            }
        },
        {
            "type": "Feature",
            "properties": {
                "ref:csioz": 1132254,
                "addr:street": "Wojska Polskiego",
                "addr:housenumber": "4a",
                "addr:city": "Złotoryja",
                "addr:postcode": "59-500",
                "amenity": "pharmacy"
            },
            "geometry": {
                "type": "Point",
                "coordinates": [
                    15.911773999977523,
                    51.12128000001431
                ]
            }
        },
        {
            "type": "Feature",
            "properties": {
                "ref:csioz": 1132841,
                "name": "Pod Złotą Wagą",
                "addr:street": "Piłsudskiego",
                "addr:housenumber": "27",
                "addr:city": "Złotoryja",
                "addr:postcode": "59-500",
                "amenity": "pharmacy"
            },
            "geometry": {
                "type": "Point",
                "coordinates": [
                    15.917574999977733,
                    51.125805000014324
                ]
            }
        },
        {
            "type": "Feature",
            "properties": {
                "ref:csioz": 1133094,
                "name": "Basztowa",
                "addr:street": "Basztowa",
                "addr:housenumber": "36",
                "addr:flats": "1",
                "addr:city": "Złotoryja",
                "addr:postcode": "59-500",
                "amenity": "pharmacy"
            },
            "geometry": {
                "type": "Point",
                "coordinates": [
                    15.913409201621048,
                    51.12242428263286
                ]
            }
        },
        {
            "type": "Feature",
            "properties": {
                "ref:csioz": 1133071,
                "name": "Apteka Słoneczna",
                "addr:street": "Reymonta",
                "addr:housenumber": "8A",
                "addr:city": "Złotoryja",
                "addr:postcode": "59-500",
                "amenity": "pharmacy"
            },
            "geometry": {
                "type": "Point",
                "coordinates": [
                    15.913566150827686,
                    51.120970327336366
                ]
            }
        },
        {
            "type": "Feature",
            "properties": {
                "ref:csioz": 1133220,
                "name": "Vita",
                "addr:street": "Rynek",
                "addr:housenumber": "6",
                "addr:flats": "1",
                "addr:city": "Złotoryja",
                "addr:postcode": "59-500",
                "amenity": "pharmacy"
            },
            "geometry": {
                "type": "Point",
                "coordinates": [
                    15.915439001490967,
                    51.124092309555515
                ]
            }
        },
        {
            "type": "Feature",
            "properties": {
                "ref:csioz": 1137461,
                "name": "Apteka Nova Nad Zalewem",
                "addr:street": "Kaczawska",
                "addr:housenumber": "2A",
                "addr:city": "Złotoryja",
                "addr:postcode": "59-500",
                "amenity": "pharmacy"
            },
            "geometry": {
                "type": "Point",
                "coordinates": [
                    15.90526087155741,
                    51.1197101701003
                ]
            }
        },
        {
            "type": "Feature",
            "properties": {
                "ref:csioz": 1159511,
                "name": "Pod Arniką",
                "addr:street": "Jana Matejki",
                "addr:housenumber": "11",
                "addr:city": "Złotoryja",
                "addr:postcode": "59-500",
                "amenity": "pharmacy"
            },
            "geometry": {
                "type": "Point",
                "coordinates": [
                    15.918661210043398,
                    51.12606506353738
                ]
            }
        },
        {
            "type": "Feature",
            "properties": {
                "ref:csioz": 1161360,
                "name": "Wojewódzki Szpital Psychiatryczny W Złotoryi Leczenie Stacjonarne",
                "addr:street": "Szpitalna",
                "addr:housenumber": "9",
                "addr:city": "Złotoryja",
                "addr:postcode": "59-500",
                "amenity": "pharmacy"
            },
            "geometry": {
                "type": "Point",
                "coordinates": [
                    15.908168824332451,
                    51.12249771048953
                ]
            }
        },
        {
            "type": "Feature",
            "properties": {
                "ref:csioz": 1211593,
                "name": "Apteka Szpitalna W Szpitalu Powiatowym Im. A.Wolańczyka Spółka Z Ograniczoną Odpowiedzialnością",
                "addr:street": "Hoża",
                "addr:housenumber": "11",
                "addr:city": "Złotoryja",
                "addr:postcode": "59-500",
                "amenity": "pharmacy"
            },
            "geometry": {
                "type": "Point",
                "coordinates": [
                    15.909291008233195,
                    51.1163961896855
                ]
            }
        },
        {
            "type": "Feature",
            "properties": {
                "ref:csioz": 1227854,
                "name": "Na Dobre I Na Złe",
                "addr:housenumber": "56A",
                "addr:postcode": "59-516",
                "amenity": "pharmacy",
                "addr:place": "Zagrodno"
            },
            "geometry": {
                "type": "Point",
                "coordinates": [
                    15.86642746335308,
                    51.19017774818779
                ]
            }
        },
        {
            "type": "Feature",
            "properties": {
                "ref:csioz": 1132303,
                "name": "Rodzinna",
                "addr:street": "Kwiska",
                "addr:housenumber": "1",
                "addr:city": "Złotoryja",
                "addr:postcode": "59-500",
                "amenity": "pharmacy"
            },
            "geometry": {
                "type": "Point",
                "coordinates": [
                    15.904520086460959,
                    51.119243651620856
                ]
            }
        },
        {
            "type": "Feature",
            "properties": {
                "ref:csioz": 1133273,
                "name": "Apteka Centrum",
                "addr:street": "Rynek",
                "addr:housenumber": "7",
                "addr:city": "Złotoryja",
                "addr:postcode": "59-500",
                "amenity": "pharmacy"
            },
            "geometry": {
                "type": "Point",
                "coordinates": [
                    15.915532995998348,
                    51.12417651691787
                ]
            }
        },
        {
            "type": "Feature",
            "properties": {
                "ref:csioz": 1132721,
                "name": "Apteka Dbam O Zdrowie",
                "addr:street": "Hoża",
                "addr:housenumber": "11",
                "addr:city": "Złotoryja",
                "addr:postcode": "59-500",
                "amenity": "pharmacy"
            },
            "geometry": {
                "type": "Point",
                "coordinates": [
                    15.909291008233195,
                    51.1163961896855
                ]
            }
        },
        {
            "type": "Feature",
            "properties": {
                "ref:csioz": 1159522,
                "name": "Zdrój",
                "addr:street": "Kaczawska",
                "addr:housenumber": "7",
                "addr:city": "Złotoryja",
                "addr:postcode": "59-900",
                "amenity": "pharmacy"
            },
            "geometry": {
                "type": "Point",
                "coordinates": [
                    15.904216999977242,
                    51.12060400001432
                ]
            }
        },
        {
            "type": "Feature",
            "properties": {
                "ref:csioz": 1189674,
                "name": "Niebo",
                "addr:housenumber": "62a",
                "addr:postcode": "59-516",
                "amenity": "pharmacy",
                "addr:place": "Zagrodno"
            },
            "geometry": {
                "type": "Point",
                "coordinates": [
                    15.866742964667809,
                    51.19057902094297
                ]
            }
        },
        {
            "type": "Feature",
            "properties": {
                "ref:csioz": 1202365,
                "name": "Centrum Zdrowia",
                "addr:street": "Staromiejska",
                "addr:housenumber": "2",
                "addr:flats": "lok. B",
                "addr:city": "Złotoryja",
                "addr:postcode": "70-785",
                "amenity": "pharmacy"
            },
            "geometry": {
                "type": "Point",
                "coordinates": [
                    15.915774999977668,
                    51.12192200001431
                ]
            }
        },
        {
            "type": "Feature",
            "properties": {
                "ref:csioz": 1132369,
                "name": "Wiesiołek",
                "addr:street": "Wolności",
                "addr:housenumber": "11",
                "addr:city": "Świerzawa",
                "addr:postcode": "59-540",
                "amenity": "pharmacy"
            },
            "geometry": {
                "type": "Point",
                "coordinates": [
                    15.893104322460832,
                    51.01424696619704
                ]
            }
        },
        {
            "type": "Feature",
            "properties": {
                "ref:csioz": 1135854,
                "name": "Zdrowie",
                "addr:street": "Bolesława Chrobrego",
                "addr:housenumber": "95",
                "addr:city": "Wojcieszów",
                "addr:postcode": "59-550",
                "amenity": "pharmacy"
            },
            "geometry": {
                "type": "Point",
                "coordinates": [
                    15.92252349652877,
                    50.94943156243499
                ]
            }
        }
    ]
}