{
    "type": "FeatureCollection",
    "name": "JPT_KOD_JE_1812",
    "features": [
        {
            "type": "Feature",
            "properties": {
                "ref:csioz": 1141482,
                "name": "Zdrowie",
                "addr:street": "Tadeusza Kościuszki",
                "addr:housenumber": "1b",
                "addr:city": "Nisko",
                "addr:postcode": "37-400",
                "amenity": "pharmacy"
            },
            "geometry": {
                "type": "Point",
                "coordinates": [
                    22.14373754576658,
                    50.519614097193674
                ]
            }
        },
        {
            "type": "Feature",
            "properties": {
                "ref:csioz": 1141496,
                "addr:street": "Eugeniusza Kwiatkowskiego",
                "addr:housenumber": "2b",
                "addr:city": "Nisko",
                "addr:postcode": "37-400",
                "amenity": "pharmacy"
            },
            "geometry": {
                "type": "Point",
                "coordinates": [
                    22.145371410963115,
                    50.519471009516835
                ]
            }
        },
        {
            "type": "Feature",
            "properties": {
                "ref:csioz": 1141505,
                "name": "\"Apteka Cef@Rm 36,6\"",
                "addr:street": "Rzeszowska",
                "addr:housenumber": "2b",
                "addr:city": "Nisko",
                "addr:postcode": "37-400",
                "amenity": "pharmacy"
            },
            "geometry": {
                "type": "Point",
                "coordinates": [
                    22.14627761187258,
                    50.51756577474108
                ]
            }
        },
        {
            "type": "Feature",
            "properties": {
                "ref:csioz": 1141539,
                "addr:street": "Wolności",
                "addr:housenumber": "8a",
                "addr:city": "Nisko",
                "addr:postcode": "37-400",
                "amenity": "pharmacy"
            },
            "geometry": {
                "type": "Point",
                "coordinates": [
                    22.1467239222645,
                    50.517894835224396
                ]
            }
        },
        {
            "type": "Feature",
            "properties": {
                "ref:csioz": 1141547,
                "addr:street": "Wolności",
                "addr:housenumber": "54a",
                "addr:city": "Nisko",
                "addr:postcode": "37-400",
                "amenity": "pharmacy"
            },
            "geometry": {
                "type": "Point",
                "coordinates": [
                    22.151623528200794,
                    50.51629383838726
                ]
            }
        },
        {
            "type": "Feature",
            "properties": {
                "ref:csioz": 1141560,
                "addr:housenumber": "62",
                "addr:postcode": "37-405",
                "amenity": "pharmacy",
                "addr:place": "Jarocin"
            },
            "geometry": {
                "type": "Point",
                "coordinates": [
                    22.324064905531852,
                    50.56355226056808
                ]
            }
        },
        {
            "type": "Feature",
            "properties": {
                "ref:csioz": 1181590,
                "name": "Apteka Nova",
                "addr:street": "Sandomierska",
                "addr:housenumber": "37",
                "addr:city": "Nisko",
                "addr:postcode": "37-400",
                "amenity": "pharmacy"
            },
            "geometry": {
                "type": "Point",
                "coordinates": [
                    22.13361625621798,
                    50.52159306931521
                ]
            }
        },
        {
            "type": "Feature",
            "properties": {
                "ref:csioz": 1138351,
                "name": "Apteka Szpitalna",
                "addr:street": "Kościuszki",
                "addr:housenumber": "1",
                "addr:city": "Nisko",
                "addr:postcode": "37-400",
                "amenity": "pharmacy"
            },
            "geometry": {
                "type": "Point",
                "coordinates": [
                    22.143052920151252,
                    50.51974364240894
                ]
            }
        },
        {
            "type": "Feature",
            "properties": {
                "ref:csioz": 1141648,
                "name": "Echinacea",
                "addr:street": "3 Maja",
                "addr:housenumber": "8",
                "addr:city": "Ulanów",
                "addr:postcode": "37-410",
                "amenity": "pharmacy"
            },
            "geometry": {
                "type": "Point",
                "coordinates": [
                    22.265719973737216,
                    50.489490928500175
                ]
            }
        },
        {
            "type": "Feature",
            "properties": {
                "ref:csioz": 1141661,
                "addr:street": "Długa",
                "addr:housenumber": "1",
                "addr:city": "Huta Krzeszowska",
                "addr:postcode": "37-413",
                "amenity": "pharmacy"
            },
            "geometry": {
                "type": "Point",
                "coordinates": [
                    22.450733316944213,
                    50.522008228595794
                ]
            }
        },
        {
            "type": "Feature",
            "properties": {
                "ref:csioz": 1165482,
                "name": "Nad Tanwią",
                "addr:housenumber": "111A",
                "addr:postcode": "37-413",
                "amenity": "pharmacy",
                "addr:place": "Harasiuki"
            },
            "geometry": {
                "type": "Point",
                "coordinates": [
                    22.47642559298056,
                    50.47555895151227
                ]
            }
        },
        {
            "type": "Feature",
            "properties": {
                "ref:csioz": 1192766,
                "name": "Apteka Słoneczna",
                "addr:street": "Sandomierska",
                "addr:housenumber": "31",
                "addr:city": "Nisko",
                "addr:postcode": "37-400",
                "amenity": "pharmacy"
            },
            "geometry": {
                "type": "Point",
                "coordinates": [
                    22.13453639023785,
                    50.521292346120674
                ]
            }
        },
        {
            "type": "Feature",
            "properties": {
                "ref:csioz": 1183701,
                "addr:street": "Akacjowa",
                "addr:housenumber": "2",
                "addr:city": "Zarzecze",
                "addr:postcode": "37-400",
                "amenity": "pharmacy"
            },
            "geometry": {
                "type": "Point",
                "coordinates": [
                    22.205997287621177,
                    50.52265423142522
                ]
            }
        },
        {
            "type": "Feature",
            "properties": {
                "ref:csioz": 1195180,
                "name": "Rodzinna",
                "addr:street": "Rynek",
                "addr:housenumber": "43",
                "addr:city": "Ulanów",
                "addr:postcode": "37-410",
                "amenity": "pharmacy"
            },
            "geometry": {
                "type": "Point",
                "coordinates": [
                    22.263241000031794,
                    50.489247000013464
                ]
            }
        },
        {
            "type": "Feature",
            "properties": {
                "ref:csioz": 1195987,
                "name": "Apteka Pod Gwiazdą",
                "addr:street": "Sandomierska",
                "addr:housenumber": "18B",
                "addr:city": "Nisko",
                "addr:postcode": "37-400",
                "amenity": "pharmacy"
            },
            "geometry": {
                "type": "Point",
                "coordinates": [
                    22.130539682170394,
                    50.523023816999036
                ]
            }
        },
        {
            "type": "Feature",
            "properties": {
                "ref:csioz": 1199526,
                "name": "Medica",
                "addr:housenumber": "652 C",
                "addr:postcode": "37-430",
                "amenity": "pharmacy",
                "addr:place": "Jeżowe"
            },
            "geometry": {
                "type": "Point",
                "coordinates": [
                    22.130453050017326,
                    50.372369825825245
                ]
            }
        },
        {
            "type": "Feature",
            "properties": {
                "ref:csioz": 1141612,
                "addr:street": "Rynek",
                "addr:housenumber": "32",
                "addr:city": "Rudnik nad Sanem",
                "addr:postcode": "37-420",
                "amenity": "pharmacy"
            },
            "geometry": {
                "type": "Point",
                "coordinates": [
                    22.247602736406975,
                    50.44273892246327
                ]
            }
        },
        {
            "type": "Feature",
            "properties": {
                "ref:csioz": 1141620,
                "name": "Arnica",
                "addr:street": "Fryderyka Chopina",
                "addr:housenumber": "14",
                "addr:city": "Rudnik nad Sanem",
                "addr:postcode": "37-420",
                "amenity": "pharmacy"
            },
            "geometry": {
                "type": "Point",
                "coordinates": [
                    22.2535550000315,
                    50.43752800001338
                ]
            }
        },
        {
            "type": "Feature",
            "properties": {
                "ref:csioz": 1141636,
                "name": "Im.A.Mańkowskiego",
                "addr:street": "Rynek",
                "addr:housenumber": "1",
                "addr:city": "Rudnik nad Sanem",
                "addr:postcode": "37-420",
                "amenity": "pharmacy"
            },
            "geometry": {
                "type": "Point",
                "coordinates": [
                    22.249973961229603,
                    50.44283994129629
                ]
            }
        },
        {
            "type": "Feature",
            "properties": {
                "ref:csioz": 1197806,
                "name": "Apteka Zdrowie",
                "addr:street": "Sandomierska",
                "addr:housenumber": "12",
                "addr:city": "Rudnik nad Sanem",
                "addr:postcode": "37-420",
                "amenity": "pharmacy"
            },
            "geometry": {
                "type": "Point",
                "coordinates": [
                    22.246939014733847,
                    50.44373257162336
                ]
            }
        },
        {
            "type": "Feature",
            "properties": {
                "ref:csioz": 1227324,
                "name": "Apteka Zdrowie",
                "addr:housenumber": "662B",
                "addr:postcode": "37-430",
                "amenity": "pharmacy",
                "addr:place": "Jeżowe"
            },
            "geometry": {
                "type": "Point",
                "coordinates": [
                    22.12560558105334,
                    50.37261276831549
                ]
            }
        },
        {
            "type": "Feature",
            "properties": {
                "ref:csioz": 1141594,
                "addr:street": "Rynek",
                "addr:housenumber": "14",
                "addr:city": "Krzeszów",
                "addr:postcode": "37-418",
                "amenity": "pharmacy"
            },
            "geometry": {
                "type": "Point",
                "coordinates": [
                    22.340192870525613,
                    50.40348016393455
                ]
            }
        },
        {
            "type": "Feature",
            "properties": {
                "ref:csioz": 1141604,
                "name": "W Rynku",
                "addr:street": "Rynek",
                "addr:housenumber": "19",
                "addr:city": "Krzeszów",
                "addr:postcode": "37-418",
                "amenity": "pharmacy"
            },
            "geometry": {
                "type": "Point",
                "coordinates": [
                    22.339304015146823,
                    50.403198125987046
                ]
            }
        }
    ]
}