{
    "type": "FeatureCollection",
    "name": "JPT_KOD_JE_3214",
    "features": [
        {
            "type": "Feature",
            "properties": {
                "ref:csioz": 1164988,
                "addr:street": "Szkolna",
                "addr:housenumber": "20",
                "addr:city": "Kobylanka",
                "addr:postcode": "73-108",
                "amenity": "pharmacy",
                "dispensing": "yes"
            },
            "geometry": {
                "type": "Point",
                "coordinates": [
                    14.866204208130686,
                    53.34042940131391
                ]
            }
        },
        {
            "type": "Feature",
            "properties": {
                "ref:csioz": 1126281,
                "name": "Apteka Lukrecja",
                "addr:street": "Rumuńska",
                "addr:housenumber": "9A-G",
                "addr:city": "Stargard Szczeciński",
                "addr:postcode": "73-110",
                "amenity": "pharmacy",
                "dispensing": "yes"
            },
            "geometry": {
                "type": "Point",
                "coordinates": [
                    15.011800603936074,
                    53.34374001857154
                ]
            }
        },
        {
            "type": "Feature",
            "properties": {
                "ref:csioz": 1151619,
                "name": "\"Apteka Cef@Rm 36,6\"",
                "addr:street": "Marszałka Józefa Piłsudskiego",
                "addr:housenumber": "9",
                "addr:city": "Stargard Szczeciński",
                "addr:postcode": "73-110",
                "amenity": "pharmacy",
                "dispensing": "yes"
            },
            "geometry": {
                "type": "Point",
                "coordinates": [
                    15.036021056567092,
                    53.340848880266
                ]
            }
        },
        {
            "type": "Feature",
            "properties": {
                "ref:csioz": 1165023,
                "name": "\"Apteka Cef@Rm 36,6\"",
                "addr:street": "Marszałka Józefa Piłsudskiego",
                "addr:housenumber": "16",
                "addr:city": "Stargard Szczeciński",
                "addr:postcode": "73-110",
                "amenity": "pharmacy",
                "dispensing": "yes"
            },
            "geometry": {
                "type": "Point",
                "coordinates": [
                    15.035279777773106,
                    53.34190562250585
                ]
            }
        },
        {
            "type": "Feature",
            "properties": {
                "ref:csioz": 1167885,
                "name": "Apteka Gemini",
                "addr:street": "Marszałka Józefa Piłsudskiego",
                "addr:housenumber": "23",
                "addr:city": "Stargard Szczeciński",
                "addr:postcode": "73-110",
                "amenity": "pharmacy",
                "dispensing": "yes"
            },
            "geometry": {
                "type": "Point",
                "coordinates": [
                    15.0335162353015,
                    53.34246068938479
                ]
            }
        },
        {
            "type": "Feature",
            "properties": {
                "ref:csioz": 1168126,
                "name": "\"Apteka Cef@Rm 36,6\"",
                "addr:street": "Szczecińska",
                "addr:housenumber": "81",
                "addr:city": "Stargard Szczeciński",
                "addr:postcode": "73-110",
                "amenity": "pharmacy",
                "dispensing": "yes"
            },
            "geometry": {
                "type": "Point",
                "coordinates": [
                    14.989765207611478,
                    53.34158378415363
                ]
            }
        },
        {
            "type": "Feature",
            "properties": {
                "ref:csioz": 1168846,
                "name": "Ina",
                "addr:street": "Staromiejska",
                "addr:housenumber": "11",
                "addr:city": "Ińsko",
                "addr:postcode": "73-140",
                "amenity": "pharmacy",
                "dispensing": "yes"
            },
            "geometry": {
                "type": "Point",
                "coordinates": [
                    15.548534060919392,
                    53.436597201726144
                ]
            }
        },
        {
            "type": "Feature",
            "properties": {
                "ref:csioz": 1169012,
                "name": "Przy Luxpolu",
                "addr:street": "Pierwszej Brygady",
                "addr:housenumber": "18",
                "addr:city": "Stargard Szczeciński",
                "addr:postcode": "73-110",
                "amenity": "pharmacy",
                "dispensing": "yes"
            },
            "geometry": {
                "type": "Point",
                "coordinates": [
                    15.026118383112388,
                    53.34223235071178
                ]
            }
        },
        {
            "type": "Feature",
            "properties": {
                "ref:csioz": 1192047,
                "name": "Doz Apteka.Dbam O Zdrowie.Medica",
                "addr:street": "Stanisława Staszica",
                "addr:housenumber": "30-48",
                "addr:city": "Dobrzany",
                "addr:postcode": "73-130",
                "amenity": "pharmacy",
                "dispensing": "yes"
            },
            "geometry": {
                "type": "Point",
                "coordinates": [
                    15.42995703260661,
                    53.355783756062074
                ]
            }
        },
        {
            "type": "Feature",
            "properties": {
                "ref:csioz": 1210306,
                "name": "Apteka Gemini",
                "addr:street": "Kardynała Stefana  Wyszyńskiego",
                "addr:housenumber": "6c",
                "addr:city": "Stargard",
                "addr:postcode": "73-110",
                "amenity": "pharmacy",
                "dispensing": "yes"
            },
            "geometry": {
                "type": "Point",
                "coordinates": [
                    15.03574099994435,
                    53.33949900001893
                ]
            }
        },
        {
            "type": "Feature",
            "properties": {
                "ref:csioz": 1147301,
                "addr:street": "Wojska Polskiego",
                "addr:housenumber": "27",
                "addr:city": "Stargard Szczeciński",
                "addr:postcode": "73-110",
                "amenity": "pharmacy",
                "dispensing": "yes"
            },
            "geometry": {
                "type": "Point",
                "coordinates": [
                    15.03618702118622,
                    53.342814571429685
                ]
            }
        },
        {
            "type": "Feature",
            "properties": {
                "ref:csioz": 1151942,
                "name": "Kelina",
                "addr:street": "Armii Krajowej",
                "addr:housenumber": "74",
                "addr:city": "Chociwel",
                "addr:postcode": "73-120",
                "amenity": "pharmacy",
                "dispensing": "yes"
            },
            "geometry": {
                "type": "Point",
                "coordinates": [
                    15.339188164602039,
                    53.46867850426991
                ]
            }
        },
        {
            "type": "Feature",
            "properties": {
                "ref:csioz": 1152271,
                "name": "Nowa",
                "addr:street": "Mikołaja Reja",
                "addr:housenumber": "5A",
                "addr:city": "Stargard Szczeciński",
                "addr:postcode": "73-110",
                "amenity": "pharmacy",
                "dispensing": "yes"
            },
            "geometry": {
                "type": "Point",
                "coordinates": [
                    15.032259421016704,
                    53.342620586301834
                ]
            }
        },
        {
            "type": "Feature",
            "properties": {
                "ref:csioz": 1166019,
                "name": "Staromiejska",
                "addr:street": "Rynek Staromiejski",
                "addr:housenumber": "5",
                "addr:city": "Stargard Szczeciński",
                "addr:postcode": "73-110",
                "amenity": "pharmacy",
                "dispensing": "yes"
            },
            "geometry": {
                "type": "Point",
                "coordinates": [
                    15.045623230920624,
                    53.3366420592138
                ]
            }
        },
        {
            "type": "Feature",
            "properties": {
                "ref:csioz": 1167288,
                "name": "Apteka Aloes",
                "addr:street": "Armii Krajowej",
                "addr:housenumber": "7U",
                "addr:city": "Stargard Szczeciński",
                "addr:postcode": "73-110",
                "amenity": "pharmacy",
                "dispensing": "yes"
            },
            "geometry": {
                "type": "Point",
                "coordinates": [
                    15.035816999944117,
                    53.314924000018884
                ]
            }
        },
        {
            "type": "Feature",
            "properties": {
                "ref:csioz": 1167291,
                "name": "Apteka Kwiatowa",
                "addr:street": "Kwiatowa",
                "addr:housenumber": "1",
                "addr:city": "Stargard Szczeciński",
                "addr:postcode": "73-110",
                "amenity": "pharmacy",
                "dispensing": "yes"
            },
            "geometry": {
                "type": "Point",
                "coordinates": [
                    15.031981999944156,
                    53.34507900001894
                ]
            }
        },
        {
            "type": "Feature",
            "properties": {
                "ref:csioz": 1167300,
                "addr:housenumber": "30c",
                "addr:postcode": "73-112",
                "amenity": "pharmacy",
                "addr:place": "Stara Dąbrowa",
                "dispensing": "yes"
            },
            "geometry": {
                "type": "Point",
                "coordinates": [
                    15.140856083078106,
                    53.42155821117873
                ]
            }
        },
        {
            "type": "Feature",
            "properties": {
                "ref:csioz": 1167453,
                "name": "Apteka Vita",
                "addr:street": "Wojska Polskiego",
                "addr:housenumber": "12a",
                "addr:city": "Stargard Szczeciński",
                "addr:postcode": "73-110",
                "amenity": "pharmacy",
                "dispensing": "yes"
            },
            "geometry": {
                "type": "Point",
                "coordinates": [
                    15.03627565458558,
                    53.34227734522206
                ]
            }
        },
        {
            "type": "Feature",
            "properties": {
                "ref:csioz": 1167952,
                "name": "Centrum",
                "addr:street": "Pomorska",
                "addr:housenumber": "31",
                "addr:city": "Suchań",
                "addr:postcode": "73-132",
                "amenity": "pharmacy",
                "dispensing": "yes"
            },
            "geometry": {
                "type": "Point",
                "coordinates": [
                    15.319564004036001,
                    53.280089926096856
                ]
            }
        },
        {
            "type": "Feature",
            "properties": {
                "ref:csioz": 1167971,
                "name": "Centrum",
                "addr:street": "Hetmana Stefana Czarnieckiego",
                "addr:housenumber": "1c",
                "addr:city": "Stargard Szczeciński",
                "addr:postcode": "73-110",
                "amenity": "pharmacy",
                "dispensing": "yes"
            },
            "geometry": {
                "type": "Point",
                "coordinates": [
                    15.03733118185939,
                    53.33910340082582
                ]
            }
        },
        {
            "type": "Feature",
            "properties": {
                "ref:csioz": 1168147,
                "name": "\"Apteka Cef@Rm 36,6\"",
                "addr:street": "Mikołaja Reja",
                "addr:housenumber": "13",
                "addr:city": "Stargard Szczeciński",
                "addr:postcode": "73-110",
                "amenity": "pharmacy",
                "dispensing": "yes"
            },
            "geometry": {
                "type": "Point",
                "coordinates": [
                    15.03265886267665,
                    53.343349775399425
                ]
            }
        },
        {
            "type": "Feature",
            "properties": {
                "ref:csioz": 1168183,
                "name": "Grodzka",
                "addr:street": "Grodzka",
                "addr:housenumber": "6",
                "addr:city": "Stargard Szczeciński",
                "addr:postcode": "73-110",
                "amenity": "pharmacy",
                "dispensing": "yes"
            },
            "geometry": {
                "type": "Point",
                "coordinates": [
                    15.044692999944923,
                    53.33747800001891
                ]
            }
        },
        {
            "type": "Feature",
            "properties": {
                "ref:csioz": 1168194,
                "name": "Śródmiejska",
                "addr:street": "Kardynała Stefana Wyszyńskiego",
                "addr:housenumber": "21a",
                "addr:city": "Stargard Szczeciński",
                "addr:postcode": "73-110",
                "amenity": "pharmacy",
                "dispensing": "yes"
            },
            "geometry": {
                "type": "Point",
                "coordinates": [
                    15.035960043013747,
                    53.33920537688707
                ]
            }
        },
        {
            "type": "Feature",
            "properties": {
                "ref:csioz": 1168208,
                "name": "W Galerii",
                "addr:street": "Bolesława Chrobrego",
                "addr:housenumber": "8",
                "addr:city": "Stargard Szczeciński",
                "addr:postcode": "73-110",
                "amenity": "pharmacy",
                "dispensing": "yes"
            },
            "geometry": {
                "type": "Point",
                "coordinates": [
                    15.044229239638575,
                    53.33922905532671
                ]
            }
        },
        {
            "type": "Feature",
            "properties": {
                "ref:csioz": 1168224,
                "name": "Dbam O Zdrowie",
                "addr:street": "Aleja Żołnierza",
                "addr:housenumber": "37",
                "addr:city": "Stargard",
                "addr:postcode": "73-110",
                "amenity": "pharmacy",
                "dispensing": "yes"
            },
            "geometry": {
                "type": "Point",
                "coordinates": [
                    15.012242999942753,
                    53.336284000018985
                ]
            }
        },
        {
            "type": "Feature",
            "properties": {
                "ref:csioz": 1168499,
                "name": "Alfa",
                "addr:street": "Bolesława Chrobrego",
                "addr:housenumber": "3a",
                "addr:city": "Stargard Szczeciński",
                "addr:postcode": "73-110",
                "amenity": "pharmacy",
                "dispensing": "yes"
            },
            "geometry": {
                "type": "Point",
                "coordinates": [
                    15.042465430529347,
                    53.33917116364312
                ]
            }
        },
        {
            "type": "Feature",
            "properties": {
                "ref:csioz": 1168602,
                "name": "Apteka Lekosfera Dga4",
                "addr:street": "Tadeusza Kościuszki",
                "addr:housenumber": "73",
                "addr:city": "Stargard Szczeciński",
                "addr:postcode": "73-110",
                "amenity": "pharmacy",
                "dispensing": "yes"
            },
            "geometry": {
                "type": "Point",
                "coordinates": [
                    15.025620968109406,
                    53.33233990542661
                ]
            }
        },
        {
            "type": "Feature",
            "properties": {
                "ref:csioz": 1168775,
                "name": "Granulka",
                "addr:street": "Zielona",
                "addr:housenumber": "25A",
                "addr:city": "Ińsko",
                "addr:postcode": "73-140",
                "amenity": "pharmacy",
                "dispensing": "yes"
            },
            "geometry": {
                "type": "Point",
                "coordinates": [
                    15.543917909779422,
                    53.435846790623145
                ]
            }
        },
        {
            "type": "Feature",
            "properties": {
                "ref:csioz": 1168955,
                "name": "Apteka Rodzinna",
                "addr:street": "Juliusza Słowackiego",
                "addr:housenumber": "5",
                "addr:city": "Stargard Szczeciński",
                "addr:postcode": "73-110",
                "amenity": "pharmacy",
                "dispensing": "yes"
            },
            "geometry": {
                "type": "Point",
                "coordinates": [
                    15.032885999944172,
                    53.34105800001895
                ]
            }
        },
        {
            "type": "Feature",
            "properties": {
                "ref:csioz": 1169142,
                "name": "Nowa",
                "addr:street": "Jana Pawła II",
                "addr:housenumber": "24c",
                "addr:city": "Dobrzany",
                "addr:postcode": "73-130",
                "amenity": "pharmacy",
                "dispensing": "yes"
            },
            "geometry": {
                "type": "Point",
                "coordinates": [
                    15.428418639868802,
                    53.36049721401805
                ]
            }
        },
        {
            "type": "Feature",
            "properties": {
                "ref:csioz": 1174208,
                "name": "Apteka Natura",
                "addr:street": "Hetmana Stefana Czarnieckiego",
                "addr:housenumber": "2c",
                "addr:city": "Stargard Szczeciński",
                "addr:postcode": "73-110",
                "amenity": "pharmacy",
                "dispensing": "yes"
            },
            "geometry": {
                "type": "Point",
                "coordinates": [
                    15.03753516897411,
                    53.33883224305041
                ]
            }
        },
        {
            "type": "Feature",
            "properties": {
                "ref:csioz": 1174219,
                "name": "Apteka Natura",
                "addr:street": "Henryka Wieniawskiego",
                "addr:housenumber": "1",
                "addr:city": "Stargard Szczeciński",
                "addr:postcode": "73-110",
                "amenity": "pharmacy",
                "dispensing": "yes"
            },
            "geometry": {
                "type": "Point",
                "coordinates": [
                    15.010884803567615,
                    53.34106362040074
                ]
            }
        },
        {
            "type": "Feature",
            "properties": {
                "ref:csioz": 1174224,
                "name": "Apteka Natura",
                "addr:street": "Pogodna",
                "addr:housenumber": "4",
                "addr:city": "Stargard Szczeciński",
                "addr:postcode": "73-110",
                "amenity": "pharmacy",
                "dispensing": "yes"
            },
            "geometry": {
                "type": "Point",
                "coordinates": [
                    15.01555722291828,
                    53.33332509934017
                ]
            }
        },
        {
            "type": "Feature",
            "properties": {
                "ref:csioz": 1174235,
                "name": "Twoja Apteka",
                "addr:street": "Kardynała Stefana Wyszyńskiego",
                "addr:housenumber": "22c",
                "addr:city": "Stargard Szczeciński",
                "addr:postcode": "73-110",
                "amenity": "pharmacy",
                "dispensing": "yes"
            },
            "geometry": {
                "type": "Point",
                "coordinates": [
                    15.036240999944374,
                    53.33924200001894
                ]
            }
        },
        {
            "type": "Feature",
            "properties": {
                "ref:csioz": 1178789,
                "name": "Apteka Dyżurna",
                "addr:street": "11 Listopada",
                "addr:housenumber": "21a",
                "addr:city": "Stargard Szczeciński",
                "addr:postcode": "73-110",
                "amenity": "pharmacy",
                "dispensing": "yes"
            },
            "geometry": {
                "type": "Point",
                "coordinates": [
                    15.039644964733672,
                    53.33594379729705
                ]
            }
        },
        {
            "type": "Feature",
            "properties": {
                "ref:csioz": 1191694,
                "name": "Medica",
                "addr:street": "Mieszka I",
                "addr:housenumber": "2",
                "addr:city": "Marianowo",
                "addr:postcode": "73-121",
                "amenity": "pharmacy",
                "dispensing": "yes"
            },
            "geometry": {
                "type": "Point",
                "coordinates": [
                    15.264657753192838,
                    53.381720512971945
                ]
            }
        },
        {
            "type": "Feature",
            "properties": {
                "ref:csioz": 1199463,
                "name": "Miętowa",
                "addr:street": "Aleja Żołnierza",
                "addr:housenumber": "\"8, 10\"",
                "addr:city": "Stargard Szczeciński",
                "addr:postcode": "73-110",
                "amenity": "pharmacy",
                "dispensing": "yes"
            },
            "geometry": {
                "type": "Point",
                "coordinates": [
                    15.019059601731142,
                    53.33793093993822
                ]
            }
        },
        {
            "type": "Feature",
            "properties": {
                "ref:csioz": 1202256,
                "name": "Malva",
                "addr:street": "Armii Krajowej",
                "addr:housenumber": "64b",
                "addr:city": "Chociwel",
                "addr:postcode": "73-120",
                "amenity": "pharmacy",
                "dispensing": "yes"
            },
            "geometry": {
                "type": "Point",
                "coordinates": [
                    15.336539029053284,
                    53.46811268992567
                ]
            }
        },
        {
            "type": "Feature",
            "properties": {
                "ref:csioz": 1203182,
                "name": "Doz Apteka. Dbam O Zdrowie. Medica",
                "addr:street": "Osiedle Zachód",
                "addr:housenumber": "A17",
                "addr:city": "Stargard",
                "addr:postcode": "73-110",
                "amenity": "pharmacy",
                "dispensing": "yes"
            },
            "geometry": {
                "type": "Point",
                "coordinates": [
                    15.012170821051022,
                    53.34022591772845
                ]
            }
        },
        {
            "type": "Feature",
            "properties": {
                "ref:csioz": 1211757,
                "name": "Wieża Zdrowia",
                "addr:street": "Wiejska",
                "addr:housenumber": "15",
                "addr:city": "Dolice",
                "addr:postcode": "73-115",
                "amenity": "pharmacy",
                "dispensing": "yes"
            },
            "geometry": {
                "type": "Point",
                "coordinates": [
                    15.204031138440468,
                    53.18975541493712
                ]
            }
        },
        {
            "type": "Feature",
            "properties": {
                "ref:csioz": 1219967,
                "name": "Centrum Zdrowia",
                "addr:street": "Marszałka Józefa Piłsudskiego",
                "addr:housenumber": "90",
                "addr:city": "Stargard",
                "addr:postcode": "73-110",
                "amenity": "pharmacy",
                "dispensing": "yes"
            },
            "geometry": {
                "type": "Point",
                "coordinates": [
                    15.034010149515357,
                    53.34371499384228
                ]
            }
        },
        {
            "type": "Feature",
            "properties": {
                "ref:csioz": 1221238,
                "name": "Apteka Epiona",
                "addr:street": "Władysława Broniewskiego",
                "addr:housenumber": "29",
                "addr:city": "Stargard",
                "addr:postcode": "73-110",
                "amenity": "pharmacy",
                "dispensing": "yes"
            },
            "geometry": {
                "type": "Point",
                "coordinates": [
                    15.020285686501227,
                    53.29523115905314
                ]
            }
        }
    ]
}