{
    "type": "FeatureCollection",
    "name": "JPT_KOD_JE_3025",
    "features": [
        {
            "type": "Feature",
            "properties": {
                "ref:csioz": 1044043,
                "name": "Zdrowie",
                "addr:street": "Centralna",
                "addr:housenumber": "8",
                "addr:city": "Dominowo",
                "addr:postcode": "63-012",
                "amenity": "pharmacy",
                "dispensing": "yes"
            },
            "geometry": {
                "type": "Point",
                "coordinates": [
                    17.359080907476123,
                    52.29129365514587
                ]
            }
        },
        {
            "type": "Feature",
            "properties": {
                "ref:csioz": 1044056,
                "name": "Prymulka",
                "addr:housenumber": "8",
                "addr:postcode": "63-041",
                "amenity": "pharmacy",
                "addr:place": "Chocicza",
                "dispensing": "yes"
            },
            "geometry": {
                "type": "Point",
                "coordinates": [
                    17.352378299931157,
                    52.072436844522265
                ]
            }
        },
        {
            "type": "Feature",
            "properties": {
                "ref:csioz": 1044516,
                "addr:street": "CZERWONEGO KRZYŻA",
                "addr:housenumber": "2",
                "addr:city": "ŚRODA WIELKOPOLSKA",
                "addr:postcode": "63-000",
                "amenity": "pharmacy",
                "dispensing": "yes"
            },
            "geometry": {
                "type": "Point",
                "coordinates": [
                    17.282757446105176,
                    52.227733593425235
                ]
            }
        },
        {
            "type": "Feature",
            "properties": {
                "ref:csioz": 1044795,
                "name": "Pod Złotą Wagą",
                "addr:street": "Jana Henryka Dąbrowskiego",
                "addr:housenumber": "39",
                "addr:city": "Środa Wielkopolska",
                "addr:postcode": "63-000",
                "amenity": "pharmacy",
                "dispensing": "yes"
            },
            "geometry": {
                "type": "Point",
                "coordinates": [
                    17.28127271529211,
                    52.226803869218564
                ]
            }
        },
        {
            "type": "Feature",
            "properties": {
                "ref:csioz": 1045929,
                "name": "Św. Antoniego",
                "addr:street": "GŁÓWNA",
                "addr:housenumber": "31",
                "addr:city": "KRZYKOSY",
                "addr:postcode": "63-024",
                "amenity": "pharmacy",
                "dispensing": "yes"
            },
            "geometry": {
                "type": "Point",
                "coordinates": [
                    17.374979598654622,
                    52.11044522666901
                ]
            }
        },
        {
            "type": "Feature",
            "properties": {
                "ref:csioz": 1050124,
                "name": "Św. Józefa",
                "addr:street": "Poselska",
                "addr:housenumber": "18",
                "addr:city": "Środa Wielkopolska",
                "addr:postcode": "63-000",
                "amenity": "pharmacy",
                "dispensing": "yes"
            },
            "geometry": {
                "type": "Point",
                "coordinates": [
                    17.27192324441024,
                    52.224919197066306
                ]
            }
        },
        {
            "type": "Feature",
            "properties": {
                "ref:csioz": 1051271,
                "name": "Magdalenka",
                "addr:street": "POZNAŃSKA",
                "addr:housenumber": "6",
                "addr:city": "ZANIEMYŚL",
                "addr:postcode": "63-020",
                "amenity": "pharmacy",
                "dispensing": "yes"
            },
            "geometry": {
                "type": "Point",
                "coordinates": [
                    17.161309331088226,
                    52.155762196730485
                ]
            }
        },
        {
            "type": "Feature",
            "properties": {
                "ref:csioz": 1056004,
                "name": "Nova",
                "addr:street": "marsz. Józefa Piłsudskiego",
                "addr:housenumber": "1A",
                "addr:city": "Środa Wielkopolska",
                "addr:postcode": "63-000",
                "amenity": "pharmacy",
                "dispensing": "yes"
            },
            "geometry": {
                "type": "Point",
                "coordinates": [
                    17.270035060622345,
                    52.22921874538383
                ]
            }
        },
        {
            "type": "Feature",
            "properties": {
                "ref:csioz": 1044860,
                "name": "Dbam O Zdrowie",
                "addr:street": "Przecznica",
                "addr:housenumber": "2",
                "addr:city": "Środa Wielkopolska",
                "addr:postcode": "63-000",
                "amenity": "pharmacy",
                "dispensing": "yes"
            },
            "geometry": {
                "type": "Point",
                "coordinates": [
                    17.272767999998376,
                    52.22596600001583
                ]
            }
        },
        {
            "type": "Feature",
            "properties": {
                "ref:csioz": 1045082,
                "name": "Na Zdrowie",
                "addr:street": "Szkolna",
                "addr:housenumber": "15B",
                "addr:city": "Sulęcinek",
                "addr:postcode": "63-023",
                "amenity": "pharmacy",
                "dispensing": "yes"
            },
            "geometry": {
                "type": "Point",
                "coordinates": [
                    17.319758734761752,
                    52.13785657498852
                ]
            }
        },
        {
            "type": "Feature",
            "properties": {
                "ref:csioz": 1046018,
                "name": "Doz Apteka Dbam O Zdrowie",
                "addr:street": "\"Armii 'Poznań'\"",
                "addr:housenumber": "3",
                "addr:city": "Środa Wielkopolska",
                "addr:postcode": "63-000",
                "amenity": "pharmacy",
                "dispensing": "yes"
            },
            "geometry": {
                "type": "Point",
                "coordinates": [
                    17.27804250184062,
                    52.22968860331844
                ]
            }
        },
        {
            "type": "Feature",
            "properties": {
                "ref:csioz": 1046204,
                "name": "Pod Słońcem",
                "addr:street": "Jana  Kilińskiego",
                "addr:housenumber": "33",
                "addr:city": "Środa Wielkopolska",
                "addr:postcode": "63-000",
                "amenity": "pharmacy",
                "dispensing": "yes"
            },
            "geometry": {
                "type": "Point",
                "coordinates": [
                    17.2691748160905,
                    52.23109602426175
                ]
            }
        },
        {
            "type": "Feature",
            "properties": {
                "ref:csioz": 1046301,
                "name": "Medica",
                "addr:street": "Żwirki i Wigury",
                "addr:housenumber": "3C",
                "addr:city": "Środa Wielkopolska",
                "addr:postcode": "63-000",
                "amenity": "pharmacy",
                "dispensing": "yes"
            },
            "geometry": {
                "type": "Point",
                "coordinates": [
                    17.285408194970227,
                    52.225918465575575
                ]
            }
        },
        {
            "type": "Feature",
            "properties": {
                "ref:csioz": 1047323,
                "name": "Doz Apteka Dbam O Zdrowie",
                "addr:street": "Czerwonego Krzyża",
                "addr:housenumber": "2A",
                "addr:city": "Środa Wielkopolska",
                "addr:postcode": "63-000",
                "amenity": "pharmacy",
                "dispensing": "yes"
            },
            "geometry": {
                "type": "Point",
                "coordinates": [
                    17.283676692954113,
                    52.22739900141373
                ]
            }
        },
        {
            "type": "Feature",
            "properties": {
                "ref:csioz": 1047338,
                "name": "Doz Apteka Dbam O Zdrowie Pod Słońcem",
                "addr:street": "Czerwonego Krzyża",
                "addr:housenumber": "12",
                "addr:city": "Środa Wielkopolska",
                "addr:postcode": "63-000",
                "amenity": "pharmacy",
                "dispensing": "yes"
            },
            "geometry": {
                "type": "Point",
                "coordinates": [
                    17.28060591360119,
                    52.22862473882625
                ]
            }
        },
        {
            "type": "Feature",
            "properties": {
                "ref:csioz": 1047859,
                "name": "Pharmakon",
                "addr:street": "Poznańska",
                "addr:housenumber": "7",
                "addr:city": "Nowe Miasto nad Wartą",
                "addr:postcode": "63-040",
                "amenity": "pharmacy",
                "dispensing": "yes"
            },
            "geometry": {
                "type": "Point",
                "coordinates": [
                    17.409252157134173,
                    52.08939618807868
                ]
            }
        },
        {
            "type": "Feature",
            "properties": {
                "ref:csioz": 1050384,
                "name": "Rodzinna",
                "addr:street": "20 Października",
                "addr:housenumber": "36A",
                "addr:city": "Środa Wielkopolska",
                "addr:postcode": "63-000",
                "amenity": "pharmacy",
                "dispensing": "yes"
            },
            "geometry": {
                "type": "Point",
                "coordinates": [
                    17.276542999998384,
                    52.22460900001581
                ]
            }
        },
        {
            "type": "Feature",
            "properties": {
                "ref:csioz": 1051600,
                "name": "Apteka Dbam O Zdrowie",
                "addr:street": "Stary Rynek",
                "addr:housenumber": "2",
                "addr:city": "Środa Wielkopolska",
                "addr:postcode": "63-000",
                "amenity": "pharmacy",
                "dispensing": "yes"
            },
            "geometry": {
                "type": "Point",
                "coordinates": [
                    17.27585537823137,
                    52.22881427552837
                ]
            }
        },
        {
            "type": "Feature",
            "properties": {
                "ref:csioz": 1123291,
                "name": "Centrum",
                "addr:street": "STRZELECKA",
                "addr:housenumber": "33",
                "addr:city": "ŚRODA WIELKOPOLSKA",
                "addr:postcode": "63-000",
                "amenity": "pharmacy",
                "dispensing": "yes"
            },
            "geometry": {
                "type": "Point",
                "coordinates": [
                    17.275164433989282,
                    52.23749983546569
                ]
            }
        },
        {
            "type": "Feature",
            "properties": {
                "ref:csioz": 1188732,
                "name": "Gemini",
                "addr:street": "Jana Henryka Dąbrowskiego",
                "addr:housenumber": "13",
                "addr:city": "Środa Wielkopolska",
                "addr:postcode": "63-000",
                "amenity": "pharmacy",
                "dispensing": "yes"
            },
            "geometry": {
                "type": "Point",
                "coordinates": [
                    17.277921486140656,
                    52.228249418569945
                ]
            }
        },
        {
            "type": "Feature",
            "properties": {
                "ref:csioz": 1190619,
                "name": "Medica",
                "addr:street": "Jana Henryka Dąbrowskiego",
                "addr:housenumber": "20",
                "addr:city": "Środa Wielkopolska",
                "addr:postcode": "63-000",
                "amenity": "pharmacy",
                "dispensing": "yes"
            },
            "geometry": {
                "type": "Point",
                "coordinates": [
                    17.276651378546248,
                    52.234774853856386
                ]
            }
        },
        {
            "type": "Feature",
            "properties": {
                "ref:csioz": 1191756,
                "name": "Panaceum 2",
                "addr:street": "Szkolna",
                "addr:housenumber": "18",
                "addr:city": "Pięczkowo",
                "addr:postcode": "63-025",
                "amenity": "pharmacy",
                "dispensing": "yes"
            },
            "geometry": {
                "type": "Point",
                "coordinates": [
                    17.450498235126553,
                    52.12013022137768
                ]
            }
        },
        {
            "type": "Feature",
            "properties": {
                "ref:csioz": 1207476,
                "name": "Prima",
                "addr:street": "20 Października",
                "addr:housenumber": "15",
                "addr:city": "Środa Wielkopolska",
                "addr:postcode": "63-000",
                "amenity": "pharmacy",
                "dispensing": "yes"
            },
            "geometry": {
                "type": "Point",
                "coordinates": [
                    17.27434924445954,
                    52.226307991830154
                ]
            }
        },
        {
            "type": "Feature",
            "properties": {
                "ref:csioz": 1208383,
                "addr:street": "Żwirki i Wigury",
                "addr:housenumber": "10",
                "addr:city": "Środa Wielkopolska",
                "addr:postcode": "63-000",
                "amenity": "pharmacy",
                "dispensing": "yes"
            },
            "geometry": {
                "type": "Point",
                "coordinates": [
                    17.2850079279127,
                    52.227420710070916
                ]
            }
        },
        {
            "type": "Feature",
            "properties": {
                "ref:csioz": 1213238,
                "name": "Apteka Topfarm",
                "addr:street": "Średzka",
                "addr:housenumber": "1A",
                "addr:city": "Zaniemyśl",
                "addr:postcode": "63-020",
                "amenity": "pharmacy",
                "dispensing": "yes"
            },
            "geometry": {
                "type": "Point",
                "coordinates": [
                    17.162079188591857,
                    52.155493614663975
                ]
            }
        },
        {
            "type": "Feature",
            "properties": {
                "ref:csioz": 1221099,
                "name": "Zielony",
                "addr:street": "Poznańska",
                "addr:housenumber": "4",
                "addr:city": "Zaniemyśl",
                "addr:postcode": "63-020",
                "amenity": "pharmacy",
                "dispensing": "yes"
            },
            "geometry": {
                "type": "Point",
                "coordinates": [
                    17.161500496061425,
                    52.155593633143866
                ]
            }
        },
        {
            "type": "Feature",
            "properties": {
                "ref:csioz": 1225390,
                "name": "Boguszyn",
                "addr:street": "Parkowa",
                "addr:housenumber": "1",
                "addr:city": "Boguszyn",
                "addr:postcode": "63-040",
                "amenity": "pharmacy",
                "dispensing": "yes"
            },
            "geometry": {
                "type": "Point",
                "coordinates": [
                    17.33108044099744,
                    52.0637370770576
                ]
            }
        },
        {
            "type": "Feature",
            "properties": {
                "ref:csioz": 1229699,
                "addr:street": "\"Armii \"\"Poznań\"\"\"",
                "addr:housenumber": "3",
                "addr:city": "Środa Wielkopolska",
                "addr:postcode": "63-000",
                "amenity": "pharmacy",
                "dispensing": "yes"
            },
            "geometry": {
                "type": "Point",
                "coordinates": [
                    17.27804250184062,
                    52.22965860331844
                ]
            }
        }
    ]
}