{
    "type": "FeatureCollection",
    "name": "JPT_KOD_JE_1205",
    "features": [
        {
            "type": "Feature",
            "properties": {
                "ref:csioz": 1081258,
                "addr:housenumber": "419",
                "addr:postcode": "38-331",
                "amenity": "pharmacy",
                "addr:place": "Szalowa",
                "dispensing": "yes"
            },
            "geometry": {
                "type": "Point",
                "coordinates": [
                    21.02048317311268,
                    49.68237318919022
                ]
            }
        },
        {
            "type": "Feature",
            "properties": {
                "ref:csioz": 1081015,
                "name": "Alba",
                "addr:housenumber": "494",
                "addr:postcode": "38-303",
                "amenity": "pharmacy",
                "addr:place": "Dominikowice",
                "dispensing": "yes"
            },
            "geometry": {
                "type": "Point",
                "coordinates": [
                    21.215848948879145,
                    49.65686783786565
                ]
            }
        },
        {
            "type": "Feature",
            "properties": {
                "ref:csioz": 1081031,
                "name": "Apteka Agma",
                "addr:street": "Tadeusza Kościuszki",
                "addr:housenumber": "24",
                "addr:city": "Gorlice",
                "addr:postcode": "38-300",
                "amenity": "pharmacy",
                "dispensing": "yes"
            },
            "geometry": {
                "type": "Point",
                "coordinates": [
                    21.157617879503032,
                    49.653620406028914
                ]
            }
        },
        {
            "type": "Feature",
            "properties": {
                "ref:csioz": 1081066,
                "name": "Apteka Prywatna S.C.",
                "addr:street": "Słoneczna",
                "addr:housenumber": "2",
                "addr:city": "Gorlice",
                "addr:postcode": "38-300",
                "amenity": "pharmacy",
                "dispensing": "yes"
            },
            "geometry": {
                "type": "Point",
                "coordinates": [
                    21.146841884614673,
                    49.65656932546434
                ]
            }
        },
        {
            "type": "Feature",
            "properties": {
                "ref:csioz": 1081077,
                "name": "Apteka Rodzinna",
                "addr:street": "Władysława Jagiełły",
                "addr:housenumber": "8",
                "addr:city": "Gorlice",
                "addr:postcode": "38-300",
                "amenity": "pharmacy",
                "dispensing": "yes"
            },
            "geometry": {
                "type": "Point",
                "coordinates": [
                    21.157007911453427,
                    49.66051638676972
                ]
            }
        },
        {
            "type": "Feature",
            "properties": {
                "ref:csioz": 1081089,
                "name": "\"Apteka Pod Orłem S.C. Mgr Farm. Hanna Przybycień-Zięba, Techn.Farm. Dorota Przybycień\"",
                "addr:street": "Stróżowska",
                "addr:housenumber": "55",
                "addr:city": "Gorlice",
                "addr:postcode": "38-300",
                "amenity": "pharmacy",
                "dispensing": "yes"
            },
            "geometry": {
                "type": "Point",
                "coordinates": [
                    21.151299103746485,
                    49.660423143847815
                ]
            }
        },
        {
            "type": "Feature",
            "properties": {
                "ref:csioz": 1081230,
                "name": "Apteka Prywatna W Moszczenicy",
                "addr:street": "Gorlicka",
                "addr:housenumber": "185",
                "addr:city": "Moszczenica",
                "addr:postcode": "38-321",
                "amenity": "pharmacy",
                "dispensing": "yes"
            },
            "geometry": {
                "type": "Point",
                "coordinates": [
                    21.105464232774,
                    49.72375786808727
                ]
            }
        },
        {
            "type": "Feature",
            "properties": {
                "ref:csioz": 1081249,
                "name": "Apteka Prywatna Mgr Farm. Sowa Janina",
                "addr:housenumber": "766",
                "addr:postcode": "38-322",
                "amenity": "pharmacy",
                "addr:place": "Łużna",
                "dispensing": "yes"
            },
            "geometry": {
                "type": "Point",
                "coordinates": [
                    21.051256405306425,
                    49.7107847690369
                ]
            }
        },
        {
            "type": "Feature",
            "properties": {
                "ref:csioz": 1081274,
                "name": "Herbamed",
                "addr:street": "Przedmieście Dolne",
                "addr:housenumber": "167A",
                "addr:city": "Biecz",
                "addr:postcode": "38-340",
                "amenity": "pharmacy",
                "dispensing": "yes"
            },
            "geometry": {
                "type": "Point",
                "coordinates": [
                    21.26768381934628,
                    49.73938147453024
                ]
            }
        },
        {
            "type": "Feature",
            "properties": {
                "ref:csioz": 1081296,
                "addr:street": "Barianów Rokickich",
                "addr:housenumber": "2",
                "addr:city": "Biecz",
                "addr:postcode": "38-340",
                "amenity": "pharmacy",
                "dispensing": "yes"
            },
            "geometry": {
                "type": "Point",
                "coordinates": [
                    21.24875403106406,
                    49.73021055904927
                ]
            }
        },
        {
            "type": "Feature",
            "properties": {
                "ref:csioz": 1081309,
                "name": "Bratek",
                "addr:street": "Tysiąclecia",
                "addr:housenumber": "3",
                "addr:city": "Biecz",
                "addr:postcode": "38-340",
                "amenity": "pharmacy",
                "dispensing": "yes"
            },
            "geometry": {
                "type": "Point",
                "coordinates": [
                    21.254549100582253,
                    49.732860615683784
                ]
            }
        },
        {
            "type": "Feature",
            "properties": {
                "ref:csioz": 1081323,
                "addr:street": "Węgierska",
                "addr:housenumber": "1",
                "addr:city": "Bobowa",
                "addr:postcode": "38-350",
                "amenity": "pharmacy",
                "dispensing": "yes"
            },
            "geometry": {
                "type": "Point",
                "coordinates": [
                    20.94159914132651,
                    49.70747111367776
                ]
            }
        },
        {
            "type": "Feature",
            "properties": {
                "ref:csioz": 1114642,
                "name": "Herbamed Spółka Jawna",
                "addr:housenumber": "323",
                "addr:postcode": "38-307",
                "amenity": "pharmacy",
                "addr:place": "Sękowa",
                "dispensing": "yes"
            },
            "geometry": {
                "type": "Point",
                "coordinates": [
                    21.196342371532673,
                    49.62058100965877
                ]
            }
        },
        {
            "type": "Feature",
            "properties": {
                "ref:csioz": 1149965,
                "name": "Apteka Szpitalna",
                "addr:street": "Węgierska",
                "addr:housenumber": "21",
                "addr:city": "Gorlice",
                "addr:postcode": "38-300",
                "amenity": "pharmacy",
                "dispensing": "yes"
            },
            "geometry": {
                "type": "Point",
                "coordinates": [
                    21.162540645461167,
                    49.651297664437934
                ]
            }
        },
        {
            "type": "Feature",
            "properties": {
                "ref:csioz": 1081106,
                "addr:street": "Biecka",
                "addr:housenumber": "16",
                "addr:city": "Gorlice",
                "addr:postcode": "38-300",
                "amenity": "pharmacy",
                "dispensing": "yes"
            },
            "geometry": {
                "type": "Point",
                "coordinates": [
                    21.162608773149735,
                    49.66232617410626
                ]
            }
        },
        {
            "type": "Feature",
            "properties": {
                "ref:csioz": 1081133,
                "name": "Punkt Apteczny Zdrowie",
                "addr:housenumber": "246",
                "addr:postcode": "38-322",
                "amenity": "pharmacy",
                "addr:place": "Mszanka",
                "dispensing": "yes"
            },
            "geometry": {
                "type": "Point",
                "coordinates": [
                    21.101409520805166,
                    49.689862672652836
                ]
            }
        },
        {
            "type": "Feature",
            "properties": {
                "ref:csioz": 1081154,
                "addr:housenumber": "446",
                "addr:postcode": "38-304",
                "amenity": "pharmacy",
                "addr:place": "Kryg",
                "dispensing": "yes"
            },
            "geometry": {
                "type": "Point",
                "coordinates": [
                    21.253459970791447,
                    49.65510183893974
                ]
            }
        },
        {
            "type": "Feature",
            "properties": {
                "ref:csioz": 1081165,
                "addr:housenumber": "44",
                "addr:postcode": "38-305",
                "amenity": "pharmacy",
                "addr:place": "Lipinki",
                "dispensing": "yes"
            },
            "geometry": {
                "type": "Point",
                "coordinates": [
                    21.294968538389362,
                    49.672112439566334
                ]
            }
        },
        {
            "type": "Feature",
            "properties": {
                "ref:csioz": 1081187,
                "addr:housenumber": "652",
                "addr:postcode": "38-306",
                "amenity": "pharmacy",
                "addr:place": "Libusza",
                "dispensing": "yes"
            },
            "geometry": {
                "type": "Point",
                "coordinates": [
                    21.240998929680547,
                    49.689350948329924
                ]
            }
        },
        {
            "type": "Feature",
            "properties": {
                "ref:csioz": 1081346,
                "addr:street": "Węgierska",
                "addr:housenumber": "27",
                "addr:city": "Bobowa",
                "addr:postcode": "38-350",
                "amenity": "pharmacy",
                "dispensing": "yes"
            },
            "geometry": {
                "type": "Point",
                "coordinates": [
                    20.939436967029568,
                    49.706302983543154
                ]
            }
        },
        {
            "type": "Feature",
            "properties": {
                "ref:csioz": 1113312,
                "name": "\"Apteka Cefarm 36,6\"",
                "addr:street": "Podkościelna",
                "addr:housenumber": "2",
                "addr:city": "Gorlice",
                "addr:postcode": "38-300",
                "amenity": "pharmacy",
                "dispensing": "yes"
            },
            "geometry": {
                "type": "Point",
                "coordinates": [
                    21.15833321997552,
                    49.65695741236508
                ]
            }
        },
        {
            "type": "Feature",
            "properties": {
                "ref:csioz": 1171093,
                "addr:street": "3 Maja",
                "addr:housenumber": "15",
                "addr:city": "Gorlice",
                "addr:postcode": "38-300",
                "amenity": "pharmacy",
                "dispensing": "yes"
            },
            "geometry": {
                "type": "Point",
                "coordinates": [
                    21.15721607800798,
                    49.65909266345666
                ]
            }
        },
        {
            "type": "Feature",
            "properties": {
                "ref:csioz": 1186909,
                "name": "Alba Iii",
                "addr:street": "Tadeusza Kościuszki",
                "addr:housenumber": "42",
                "addr:city": "Gorlice",
                "addr:postcode": "38-300",
                "amenity": "pharmacy",
                "dispensing": "yes"
            },
            "geometry": {
                "type": "Point",
                "coordinates": [
                    21.155756139787247,
                    49.651862092696916
                ]
            }
        },
        {
            "type": "Feature",
            "properties": {
                "ref:csioz": 1196383,
                "name": "\"Apteka Cefarm 36,6\"",
                "addr:street": "3 Maja",
                "addr:housenumber": "2",
                "addr:city": "Gorlice",
                "addr:postcode": "38-300",
                "amenity": "pharmacy",
                "dispensing": "yes"
            },
            "geometry": {
                "type": "Point",
                "coordinates": [
                    21.15686652362917,
                    49.65820312592003
                ]
            }
        },
        {
            "type": "Feature",
            "properties": {
                "ref:csioz": 1204828,
                "name": "Apteka Kinga",
                "addr:street": "Rynek",
                "addr:housenumber": "28",
                "addr:city": "Bobowa",
                "addr:postcode": "38-350",
                "amenity": "pharmacy",
                "dispensing": "yes"
            },
            "geometry": {
                "type": "Point",
                "coordinates": [
                    20.94198671392413,
                    49.70766471789328
                ]
            }
        },
        {
            "type": "Feature",
            "properties": {
                "ref:csioz": 1207107,
                "name": "Apteka Społeczna Na Legionów Grupa Nowa Farmacja",
                "addr:street": "Legionów",
                "addr:housenumber": "12",
                "addr:city": "Gorlice",
                "addr:postcode": "38-300",
                "amenity": "pharmacy",
                "dispensing": "yes"
            },
            "geometry": {
                "type": "Point",
                "coordinates": [
                    21.160201851797982,
                    49.658714475932065
                ]
            }
        },
        {
            "type": "Feature",
            "properties": {
                "ref:csioz": 1214893,
                "name": "\"'Apteka Z Tradycją'\"",
                "addr:street": "Grunwaldzka",
                "addr:housenumber": "51",
                "addr:city": "Bobowa",
                "addr:postcode": "38-350",
                "amenity": "pharmacy",
                "dispensing": "yes"
            },
            "geometry": {
                "type": "Point",
                "coordinates": [
                    20.95353800000291,
                    49.71374600001211
                ]
            }
        },
        {
            "type": "Feature",
            "properties": {
                "ref:csioz": 1226213,
                "name": "Punkt Apteczny Zagórzany",
                "addr:housenumber": "207",
                "addr:postcode": "38-333",
                "amenity": "pharmacy",
                "addr:place": "Zagórzany",
                "dispensing": "yes"
            },
            "geometry": {
                "type": "Point",
                "coordinates": [
                    21.155843000004552,
                    49.69865800001211
                ]
            }
        },
        {
            "type": "Feature",
            "properties": {
                "ref:csioz": 1080986,
                "name": "Dr. Max",
                "addr:street": "Rynek",
                "addr:housenumber": "15",
                "addr:city": "Biecz",
                "addr:postcode": "38-340",
                "amenity": "pharmacy",
                "dispensing": "yes"
            },
            "geometry": {
                "type": "Point",
                "coordinates": [
                    21.250588706086997,
                    49.73088082940237
                ]
            }
        },
        {
            "type": "Feature",
            "properties": {
                "ref:csioz": 1117189,
                "name": "Zdrowie",
                "addr:housenumber": "84",
                "addr:postcode": "38-315",
                "amenity": "pharmacy",
                "addr:place": "Śnietnica",
                "dispensing": "yes"
            },
            "geometry": {
                "type": "Point",
                "coordinates": [
                    21.047811973776525,
                    49.518886202820184
                ]
            }
        },
        {
            "type": "Feature",
            "properties": {
                "ref:csioz": 1188069,
                "name": "\"Apteka \"\"Centrum\"\"\"",
                "addr:housenumber": "917",
                "addr:postcode": "38-312",
                "amenity": "pharmacy",
                "addr:place": "Ropa",
                "dispensing": "yes"
            },
            "geometry": {
                "type": "Point",
                "coordinates": [
                    21.044326609509223,
                    49.60002334488687
                ]
            }
        },
        {
            "type": "Feature",
            "properties": {
                "ref:csioz": 1080631,
                "addr:street": "Legionów",
                "addr:housenumber": "6E",
                "addr:city": "Gorlice",
                "addr:postcode": "38-300",
                "amenity": "pharmacy",
                "dispensing": "yes"
            },
            "geometry": {
                "type": "Point",
                "coordinates": [
                    21.159944712176863,
                    49.65781584388384
                ]
            }
        },
        {
            "type": "Feature",
            "properties": {
                "ref:csioz": 1080644,
                "addr:housenumber": "149",
                "addr:postcode": "38-316",
                "amenity": "pharmacy",
                "addr:place": "Wysowa-Zdrój",
                "dispensing": "yes"
            },
            "geometry": {
                "type": "Point",
                "coordinates": [
                    21.178107467554092,
                    49.43608075436058
                ]
            }
        },
        {
            "type": "Feature",
            "properties": {
                "ref:csioz": 1081002,
                "name": "Alba",
                "addr:street": "Rynek",
                "addr:housenumber": "19",
                "addr:city": "Gorlice",
                "addr:postcode": "38-300",
                "amenity": "pharmacy",
                "dispensing": "yes"
            },
            "geometry": {
                "type": "Point",
                "coordinates": [
                    21.157598000004587,
                    49.657834000012045
                ]
            }
        },
        {
            "type": "Feature",
            "properties": {
                "ref:csioz": 1081090,
                "name": "Bratek",
                "addr:street": "Szpitalna",
                "addr:housenumber": "8A",
                "addr:city": "Gorlice",
                "addr:postcode": "38-300",
                "amenity": "pharmacy",
                "dispensing": "yes"
            },
            "geometry": {
                "type": "Point",
                "coordinates": [
                    21.163310641141436,
                    49.65278806494164
                ]
            }
        },
        {
            "type": "Feature",
            "properties": {
                "ref:csioz": 1081122,
                "name": "Zdrowie",
                "addr:street": "Węgierska",
                "addr:housenumber": "19",
                "addr:city": "Gorlice",
                "addr:postcode": "38-300",
                "amenity": "pharmacy",
                "dispensing": "yes"
            },
            "geometry": {
                "type": "Point",
                "coordinates": [
                    21.161506070357955,
                    49.65119621461637
                ]
            }
        },
        {
            "type": "Feature",
            "properties": {
                "ref:csioz": 1081140,
                "name": "Apteka Twoje Leki",
                "addr:street": "Węgierska",
                "addr:housenumber": "21",
                "addr:city": "Gorlice",
                "addr:postcode": "38-300",
                "amenity": "pharmacy",
                "dispensing": "yes"
            },
            "geometry": {
                "type": "Point",
                "coordinates": [
                    21.162540645461167,
                    49.65126766443793
                ]
            }
        },
        {
            "type": "Feature",
            "properties": {
                "ref:csioz": 1081179,
                "name": "Apteka Galena",
                "addr:housenumber": "522",
                "addr:postcode": "38-305",
                "amenity": "pharmacy",
                "addr:place": "Lipinki",
                "dispensing": "yes"
            },
            "geometry": {
                "type": "Point",
                "coordinates": [
                    21.294012470334255,
                    49.67345427607712
                ]
            }
        },
        {
            "type": "Feature",
            "properties": {
                "ref:csioz": 1081217,
                "addr:housenumber": "680",
                "addr:postcode": "38-312",
                "amenity": "pharmacy",
                "addr:place": "Ropa",
                "dispensing": "yes"
            },
            "geometry": {
                "type": "Point",
                "coordinates": [
                    21.04234301403492,
                    49.601260275127856
                ]
            }
        },
        {
            "type": "Feature",
            "properties": {
                "ref:csioz": 1081225,
                "addr:housenumber": "155",
                "addr:postcode": "38-315",
                "amenity": "pharmacy",
                "addr:place": "Uście Gorlickie",
                "dispensing": "yes"
            },
            "geometry": {
                "type": "Point",
                "coordinates": [
                    21.137038878440016,
                    49.52045531764523
                ]
            }
        },
        {
            "type": "Feature",
            "properties": {
                "ref:csioz": 1113304,
                "name": "Alba-Bis",
                "addr:street": "11 Listopada",
                "addr:housenumber": "8",
                "addr:city": "Gorlice",
                "addr:postcode": "38-300",
                "amenity": "pharmacy",
                "dispensing": "yes"
            },
            "geometry": {
                "type": "Point",
                "coordinates": [
                    21.16125959530235,
                    49.6634094861946
                ]
            }
        },
        {
            "type": "Feature",
            "properties": {
                "ref:csioz": 1184081,
                "addr:housenumber": "590",
                "addr:postcode": "38-311",
                "amenity": "pharmacy",
                "addr:place": "Szymbark",
                "dispensing": "yes"
            },
            "geometry": {
                "type": "Point",
                "coordinates": [
                    21.12235561692812,
                    49.62961893337042
                ]
            }
        },
        {
            "type": "Feature",
            "properties": {
                "ref:csioz": 1193742,
                "name": "Dział Farmacji Szpitalnej",
                "addr:housenumber": "98",
                "addr:postcode": "38-316",
                "amenity": "pharmacy",
                "addr:place": "Wysowa-Zdrój",
                "dispensing": "yes"
            },
            "geometry": {
                "type": "Point",
                "coordinates": [
                    21.1808055045034,
                    49.44272499539692
                ]
            }
        },
        {
            "type": "Feature",
            "properties": {
                "ref:csioz": 1217304,
                "name": "Apteka Słoneczna",
                "addr:street": "Adama Mickiewicza",
                "addr:housenumber": "32",
                "addr:city": "Gorlice",
                "addr:postcode": "38-300",
                "amenity": "pharmacy",
                "dispensing": "yes"
            },
            "geometry": {
                "type": "Point",
                "coordinates": [
                    21.15937441386525,
                    49.65508118823206
                ]
            }
        },
        {
            "type": "Feature",
            "properties": {
                "ref:csioz": 1217622,
                "name": "Dział Farmacji Szpitalnej",
                "addr:street": "Węgierska",
                "addr:housenumber": "21",
                "addr:city": "Gorlice",
                "addr:postcode": "38-300",
                "amenity": "pharmacy",
                "dispensing": "yes"
            },
            "geometry": {
                "type": "Point",
                "coordinates": [
                    21.162540645461167,
                    49.65123766443793
                ]
            }
        }
    ]
}