{
    "type": "FeatureCollection",
    "name": "JPT_KOD_JE_0464",
    "features": [
        {
            "type": "Feature",
            "properties": {
                "ref:csioz": 1100267,
                "name": "Dr.Max",
                "addr:street": "Kazimierza Pułaskiego",
                "addr:housenumber": "18",
                "addr:city": "Włocławek",
                "addr:postcode": "87-800",
                "amenity": "pharmacy",
                "dispensing": "yes"
            },
            "geometry": {
                "type": "Point",
                "coordinates": [
                    19.06185200000002,
                    52.65576600001651
                ]
            }
        },
        {
            "type": "Feature",
            "properties": {
                "ref:csioz": 1104462,
                "addr:street": "Łanowa",
                "addr:housenumber": "29 B",
                "addr:city": "Włocławek",
                "addr:postcode": "87-806",
                "amenity": "pharmacy",
                "dispensing": "yes"
            },
            "geometry": {
                "type": "Point",
                "coordinates": [
                    19.096493111237887,
                    52.64587521348797
                ]
            }
        },
        {
            "type": "Feature",
            "properties": {
                "ref:csioz": 1104599,
                "name": "Twoja",
                "addr:street": "Aleja Jana Pawła II",
                "addr:housenumber": "27",
                "addr:city": "Włocławek",
                "addr:postcode": "87-800",
                "amenity": "pharmacy",
                "dispensing": "yes"
            },
            "geometry": {
                "type": "Point",
                "coordinates": [
                    19.027965000000005,
                    52.61808100001646
                ]
            }
        },
        {
            "type": "Feature",
            "properties": {
                "ref:csioz": 1104600,
                "name": "Pod Akacją",
                "addr:street": "Grodzka",
                "addr:housenumber": "2 H",
                "addr:city": "Włocławek",
                "addr:postcode": "87-800",
                "amenity": "pharmacy",
                "dispensing": "yes"
            },
            "geometry": {
                "type": "Point",
                "coordinates": [
                    19.0727282659977,
                    52.671334032681045
                ]
            }
        },
        {
            "type": "Feature",
            "properties": {
                "ref:csioz": 1104707,
                "name": "Apteka Wieniecka Tanie Leki",
                "addr:street": "Wieniecka",
                "addr:housenumber": "14",
                "addr:city": "Włocławek",
                "addr:postcode": "87-800",
                "amenity": "pharmacy",
                "dispensing": "yes"
            },
            "geometry": {
                "type": "Point",
                "coordinates": [
                    19.053202441492036,
                    52.663537300726084
                ]
            }
        },
        {
            "type": "Feature",
            "properties": {
                "ref:csioz": 1104741,
                "name": "Dr. Max",
                "addr:street": "Cmentarna",
                "addr:housenumber": "10",
                "addr:city": "Włocławek",
                "addr:postcode": "87-800",
                "amenity": "pharmacy",
                "dispensing": "yes"
            },
            "geometry": {
                "type": "Point",
                "coordinates": [
                    19.071744088188765,
                    52.64077657100958
                ]
            }
        },
        {
            "type": "Feature",
            "properties": {
                "ref:csioz": 1104755,
                "name": "Doz Apteka Dbam O Zdrowie",
                "addr:street": "Przedmiejska",
                "addr:housenumber": "6",
                "addr:city": "Włocławek",
                "addr:postcode": "87-800",
                "amenity": "pharmacy",
                "dispensing": "yes"
            },
            "geometry": {
                "type": "Point",
                "coordinates": [
                    19.069521713930342,
                    52.65566193466949
                ]
            }
        },
        {
            "type": "Feature",
            "properties": {
                "ref:csioz": 1104764,
                "name": "\"\"\"Apteka Omega Na Plantach\"\"\"",
                "addr:street": "Planty",
                "addr:housenumber": "31",
                "addr:city": "Włocławek",
                "addr:postcode": "87-800",
                "amenity": "pharmacy",
                "dispensing": "yes"
            },
            "geometry": {
                "type": "Point",
                "coordinates": [
                    19.053716153349917,
                    52.64433104050185
                ]
            }
        },
        {
            "type": "Feature",
            "properties": {
                "ref:csioz": 1104786,
                "name": "Apteka Słoneczna",
                "addr:street": "Wiejska",
                "addr:housenumber": "31",
                "addr:city": "Włocławek",
                "addr:postcode": "87-800",
                "amenity": "pharmacy",
                "dispensing": "yes"
            },
            "geometry": {
                "type": "Point",
                "coordinates": [
                    19.048975324850236,
                    52.64688959472168
                ]
            }
        },
        {
            "type": "Feature",
            "properties": {
                "ref:csioz": 1104874,
                "name": "Apteka Św. Kosmy I Damiana",
                "addr:street": "Wieniecka",
                "addr:housenumber": "34",
                "addr:city": "Włocławek",
                "addr:postcode": "87-800",
                "amenity": "pharmacy",
                "dispensing": "yes"
            },
            "geometry": {
                "type": "Point",
                "coordinates": [
                    19.047605232139407,
                    52.66251740631634
                ]
            }
        },
        {
            "type": "Feature",
            "properties": {
                "ref:csioz": 1104954,
                "name": "Witaminka",
                "addr:street": "Kruszyńska",
                "addr:housenumber": "17",
                "addr:city": "Włocławek",
                "addr:postcode": "87-800",
                "amenity": "pharmacy",
                "dispensing": "yes"
            },
            "geometry": {
                "type": "Point",
                "coordinates": [
                    19.06167230953627,
                    52.64278607267773
                ]
            }
        },
        {
            "type": "Feature",
            "properties": {
                "ref:csioz": 1104979,
                "name": "Zdrojowa",
                "addr:street": "Toruńska",
                "addr:housenumber": "55A",
                "addr:city": "Włocławek",
                "addr:postcode": "87-800",
                "amenity": "pharmacy",
                "dispensing": "yes"
            },
            "geometry": {
                "type": "Point",
                "coordinates": [
                    19.049744711267945,
                    52.66605749895431
                ]
            }
        },
        {
            "type": "Feature",
            "properties": {
                "ref:csioz": 1105043,
                "name": "\"'Doz Apteka. Dbam O Zdrowie Żurawia'\"",
                "addr:street": "Żurawia",
                "addr:housenumber": "26",
                "addr:city": "Włocławek",
                "addr:postcode": "87-800",
                "amenity": "pharmacy",
                "dispensing": "yes"
            },
            "geometry": {
                "type": "Point",
                "coordinates": [
                    19.03712876474289,
                    52.64425270377228
                ]
            }
        },
        {
            "type": "Feature",
            "properties": {
                "ref:csioz": 1105070,
                "name": "Pod Wagą",
                "addr:street": "Płocka",
                "addr:housenumber": "153",
                "addr:city": "Włocławek",
                "addr:postcode": "87-800",
                "amenity": "pharmacy",
                "dispensing": "yes"
            },
            "geometry": {
                "type": "Point",
                "coordinates": [
                    19.125840884941763,
                    52.65258329530169
                ]
            }
        },
        {
            "type": "Feature",
            "properties": {
                "ref:csioz": 1105081,
                "name": "Kujawska",
                "addr:street": "Długa",
                "addr:housenumber": "28",
                "addr:city": "Włocławek",
                "addr:postcode": "87-800",
                "amenity": "pharmacy",
                "dispensing": "yes"
            },
            "geometry": {
                "type": "Point",
                "coordinates": [
                    19.05408016738029,
                    52.65240303719673
                ]
            }
        },
        {
            "type": "Feature",
            "properties": {
                "ref:csioz": 1120755,
                "name": "Puls 8",
                "addr:street": "Barska",
                "addr:housenumber": "17",
                "addr:city": "Włocławek",
                "addr:postcode": "87-800",
                "amenity": "pharmacy",
                "dispensing": "yes"
            },
            "geometry": {
                "type": "Point",
                "coordinates": [
                    19.090738607973154,
                    52.64887622299805
                ]
            }
        },
        {
            "type": "Feature",
            "properties": {
                "ref:csioz": 1175214,
                "name": "Apteka Społeczna Na Placu Wolności Grupa Nowa Farmacja",
                "addr:street": "Plac Wolności",
                "addr:housenumber": "8",
                "addr:city": "Włocławek",
                "addr:postcode": "87-800",
                "amenity": "pharmacy",
                "dispensing": "yes"
            },
            "geometry": {
                "type": "Point",
                "coordinates": [
                    19.023594552898878,
                    52.61229411902851
                ]
            }
        },
        {
            "type": "Feature",
            "properties": {
                "ref:csioz": 1186744,
                "addr:street": "Chopina",
                "addr:housenumber": "27",
                "addr:city": "Włocławek",
                "addr:postcode": "87-800",
                "amenity": "pharmacy",
                "dispensing": "yes"
            },
            "geometry": {
                "type": "Point",
                "coordinates": [
                    19.070384745603043,
                    52.64863942237917
                ]
            }
        },
        {
            "type": "Feature",
            "properties": {
                "ref:csioz": 1099050,
                "name": "Apteka Dbam O Zdrowie",
                "addr:street": "Plac Wolności",
                "addr:housenumber": "17",
                "addr:city": "Włocławek",
                "addr:postcode": "87-800",
                "amenity": "pharmacy",
                "dispensing": "yes"
            },
            "geometry": {
                "type": "Point",
                "coordinates": [
                    19.0674463279827,
                    52.65449430264653
                ]
            }
        },
        {
            "type": "Feature",
            "properties": {
                "ref:csioz": 1099069,
                "name": "Apteka Dbam O Zdrowie",
                "addr:street": "Świętego Antoniego",
                "addr:housenumber": "34",
                "addr:city": "Włocławek",
                "addr:postcode": "87-800",
                "amenity": "pharmacy",
                "dispensing": "yes"
            },
            "geometry": {
                "type": "Point",
                "coordinates": [
                    19.071808000000033,
                    52.65313600001651
                ]
            }
        },
        {
            "type": "Feature",
            "properties": {
                "ref:csioz": 1100422,
                "name": "Alba",
                "addr:street": "Wiejska",
                "addr:housenumber": "18A",
                "addr:city": "Włocławek",
                "addr:postcode": "87-800",
                "amenity": "pharmacy",
                "dispensing": "yes"
            },
            "geometry": {
                "type": "Point",
                "coordinates": [
                    19.05299800000002,
                    52.64930000001652
                ]
            }
        },
        {
            "type": "Feature",
            "properties": {
                "ref:csioz": 1104830,
                "name": "Viola",
                "addr:street": "Budowlanych",
                "addr:housenumber": "6",
                "addr:city": "Włocławek",
                "addr:postcode": "87-816",
                "amenity": "pharmacy",
                "dispensing": "yes"
            },
            "geometry": {
                "type": "Point",
                "coordinates": [
                    19.044017675598667,
                    52.663942117923405
                ]
            }
        },
        {
            "type": "Feature",
            "properties": {
                "ref:csioz": 1104987,
                "addr:street": "Zielony Rynek",
                "addr:housenumber": "4",
                "addr:city": "Włocławek",
                "addr:postcode": "87-800",
                "amenity": "pharmacy",
                "dispensing": "yes"
            },
            "geometry": {
                "type": "Point",
                "coordinates": [
                    19.072341182462193,
                    52.65582519049496
                ]
            }
        },
        {
            "type": "Feature",
            "properties": {
                "ref:csioz": 1105019,
                "name": "Przy Rynku",
                "addr:street": "Stefana Żeromskiego",
                "addr:housenumber": "11",
                "addr:city": "Włocławek",
                "addr:postcode": "87-800",
                "amenity": "pharmacy",
                "dispensing": "yes"
            },
            "geometry": {
                "type": "Point",
                "coordinates": [
                    19.05754300000002,
                    52.647859000016496
                ]
            }
        },
        {
            "type": "Feature",
            "properties": {
                "ref:csioz": 1105024,
                "name": "\"\"\"Pigułka\"\"\"",
                "addr:street": "Promienna",
                "addr:housenumber": "7",
                "addr:city": "Włocławek",
                "addr:postcode": "87-800",
                "amenity": "pharmacy",
                "dispensing": "yes"
            },
            "geometry": {
                "type": "Point",
                "coordinates": [
                    19.039977000000018,
                    52.66692100001653
                ]
            }
        },
        {
            "type": "Feature",
            "properties": {
                "ref:csioz": 1105738,
                "name": "Dział Farmacji Szpitalnej Niepublicznego Zakładu Opieki Zdrowotnej Specjalistycznego Szpitala Rehabilitacyjnego Barska",
                "addr:street": "Barska",
                "addr:housenumber": "13",
                "addr:city": "Włocławek",
                "addr:postcode": "87-800",
                "amenity": "pharmacy",
                "dispensing": "yes"
            },
            "geometry": {
                "type": "Point",
                "coordinates": [
                    19.092110331585452,
                    52.6502566486967
                ]
            }
        },
        {
            "type": "Feature",
            "properties": {
                "ref:csioz": 1153487,
                "name": "Apteka Szpitalna Wojewódzkiego Szpitala Specjalistycznego Im. Błogosławionego Księdza Jerzego Popiełuszki We Włocławku",
                "addr:street": "Wieniecka",
                "addr:housenumber": "49",
                "addr:city": "Włocławek",
                "addr:postcode": "87-800",
                "amenity": "pharmacy",
                "dispensing": "yes"
            },
            "geometry": {
                "type": "Point",
                "coordinates": [
                    19.03141493945393,
                    52.660133953029195
                ]
            }
        },
        {
            "type": "Feature",
            "properties": {
                "ref:csioz": 1173962,
                "name": "Pigułka",
                "addr:street": "Królewiecka",
                "addr:housenumber": "41/43",
                "addr:city": "Włocławek",
                "addr:postcode": "87-800",
                "amenity": "pharmacy",
                "dispensing": "yes"
            },
            "geometry": {
                "type": "Point",
                "coordinates": [
                    19.069371314931995,
                    52.65404105416116
                ]
            }
        },
        {
            "type": "Feature",
            "properties": {
                "ref:csioz": 1181163,
                "name": "Hebeapteka",
                "addr:street": "Izabeli Zbiegniewskiej",
                "addr:housenumber": "19",
                "addr:city": "Włocławek",
                "addr:postcode": "87-800",
                "amenity": "pharmacy",
                "dispensing": "yes"
            },
            "geometry": {
                "type": "Point",
                "coordinates": [
                    19.04409200000002,
                    52.63938200001649
                ]
            }
        },
        {
            "type": "Feature",
            "properties": {
                "ref:csioz": 1182976,
                "name": "Super-Pharm Apteka",
                "addr:street": "Tadeusza Kościuszki",
                "addr:housenumber": "16B",
                "addr:city": "Włocławek",
                "addr:postcode": "87-800",
                "amenity": "pharmacy",
                "dispensing": "yes"
            },
            "geometry": {
                "type": "Point",
                "coordinates": [
                    19.062958000000016,
                    52.65517000001651
                ]
            }
        },
        {
            "type": "Feature",
            "properties": {
                "ref:csioz": 1189663,
                "name": "Apteka Pogodna",
                "addr:street": "Pogodna",
                "addr:housenumber": "8",
                "addr:city": "Włocławek",
                "addr:postcode": "87-800",
                "amenity": "pharmacy",
                "dispensing": "yes"
            },
            "geometry": {
                "type": "Point",
                "coordinates": [
                    19.039023123740186,
                    52.66651147843051
                ]
            }
        },
        {
            "type": "Feature",
            "properties": {
                "ref:csioz": 1195557,
                "name": "Omega",
                "addr:street": "Kaliska",
                "addr:housenumber": "89A",
                "addr:city": "Włocławek",
                "addr:postcode": "87-800",
                "amenity": "pharmacy",
                "dispensing": "yes"
            },
            "geometry": {
                "type": "Point",
                "coordinates": [
                    19.049552013189416,
                    52.638976161520816
                ]
            }
        },
        {
            "type": "Feature",
            "properties": {
                "ref:csioz": 1199505,
                "name": "Aspirynka Centrum Leków",
                "addr:street": "Ostrowska",
                "addr:housenumber": "19",
                "addr:city": "Włocławek",
                "addr:postcode": "87-800",
                "amenity": "pharmacy",
                "dispensing": "yes"
            },
            "geometry": {
                "type": "Point",
                "coordinates": [
                    19.092634806508094,
                    52.64224844963919
                ]
            }
        },
        {
            "type": "Feature",
            "properties": {
                "ref:csioz": 1204085,
                "name": "Apteka Radosna",
                "addr:street": "Radosna",
                "addr:housenumber": "4",
                "addr:city": "Włocławek",
                "addr:postcode": "87-800",
                "amenity": "pharmacy",
                "dispensing": "yes"
            },
            "geometry": {
                "type": "Point",
                "coordinates": [
                    19.034095984817863,
                    52.668203764003245
                ]
            }
        },
        {
            "type": "Feature",
            "properties": {
                "ref:csioz": 1209016,
                "name": "Victoria Iv",
                "addr:street": "Kazimierza Łady",
                "addr:housenumber": "10",
                "addr:city": "Włocławek",
                "addr:postcode": "87-800",
                "amenity": "pharmacy",
                "dispensing": "yes"
            },
            "geometry": {
                "type": "Point",
                "coordinates": [
                    19.04790000000002,
                    52.64193100001649
                ]
            }
        },
        {
            "type": "Feature",
            "properties": {
                "ref:csioz": 1210775,
                "name": "Apteka Puls",
                "addr:street": "Szpitalna",
                "addr:housenumber": "6A",
                "addr:city": "Włocławek",
                "addr:postcode": "87-800",
                "amenity": "pharmacy",
                "dispensing": "yes"
            },
            "geometry": {
                "type": "Point",
                "coordinates": [
                    19.058415000000018,
                    52.66226100001653
                ]
            }
        },
        {
            "type": "Feature",
            "properties": {
                "ref:csioz": 1216502,
                "name": "Apteka Gemini",
                "addr:street": "Tadeusza Kościuszki",
                "addr:housenumber": "2",
                "addr:city": "Włocławek",
                "addr:postcode": "87-800",
                "amenity": "pharmacy",
                "dispensing": "yes"
            },
            "geometry": {
                "type": "Point",
                "coordinates": [
                    19.06498500000003,
                    52.65474400001652
                ]
            }
        },
        {
            "type": "Feature",
            "properties": {
                "ref:csioz": 1217723,
                "name": "Doz Apteka Dbam O Zdrowie",
                "addr:street": "Kaliska",
                "addr:housenumber": "102A",
                "addr:city": "Włocławek",
                "addr:postcode": "87-800",
                "amenity": "pharmacy",
                "dispensing": "yes"
            },
            "geometry": {
                "type": "Point",
                "coordinates": [
                    19.048952999931394,
                    52.63885499762693
                ]
            }
        },
        {
            "type": "Feature",
            "properties": {
                "ref:csioz": 1217805,
                "name": "Apteka Gemini",
                "addr:street": "Żytnia",
                "addr:housenumber": "66",
                "addr:city": "Włocławek",
                "addr:postcode": "87-806",
                "amenity": "pharmacy",
                "dispensing": "yes"
            },
            "geometry": {
                "type": "Point",
                "coordinates": [
                    19.015538586056945,
                    52.60455782313103
                ]
            }
        },
        {
            "type": "Feature",
            "properties": {
                "ref:csioz": 1224300,
                "name": "Apteka Gemini",
                "addr:street": "Kaliska",
                "addr:housenumber": "104A",
                "addr:city": "Włocławek",
                "addr:postcode": "87-800",
                "amenity": "pharmacy",
                "dispensing": "yes"
            },
            "geometry": {
                "type": "Point",
                "coordinates": [
                    19.047657253324868,
                    52.63783808762035
                ]
            }
        },
        {
            "type": "Feature",
            "properties": {
                "ref:csioz": 1105746,
                "name": "\"Zakład Medyczny \"\"Diag Med Plus\"\" Spółka Z O.O.\"",
                "addr:street": "Stefana Okrzei",
                "addr:housenumber": "66",
                "addr:city": "Włocławek",
                "addr:postcode": "87-800",
                "amenity": "pharmacy",
                "dispensing": "yes"
            },
            "geometry": {
                "type": "Point",
                "coordinates": [
                    19.060718118211934,
                    52.65372787337126
                ]
            }
        },
        {
            "type": "Feature",
            "properties": {
                "ref:csioz": 1105723,
                "name": "\"Dział Farmacji Szpitalnej Niepublicznego Zakład Opieki Zdrowotnej Szpitala Specjalistycznego \"\"Barska\"\" We Włocławku\"",
                "addr:street": "Barska",
                "addr:housenumber": "13",
                "addr:city": "Włocławek",
                "addr:postcode": "87-800",
                "amenity": "pharmacy",
                "dispensing": "yes"
            },
            "geometry": {
                "type": "Point",
                "coordinates": [
                    19.092110331585452,
                    52.6502566486967
                ]
            }
        }
    ]
}