{
    "type": "FeatureCollection",
    "name": "JPT_KOD_JE_1821",
    "features": [
        {
            "type": "Feature",
            "properties": {
                "ref:csioz": 1142867,
                "name": "Apteka Omega",
                "addr:street": "Krasickich",
                "addr:housenumber": "6",
                "addr:city": "Lesko",
                "addr:postcode": "38-600",
                "amenity": "pharmacy",
                "dispensing": "yes"
            },
            "geometry": {
                "type": "Point",
                "coordinates": [
                    22.32845784597124,
                    49.468435068808276
                ]
            }
        },
        {
            "type": "Feature",
            "properties": {
                "ref:csioz": 1142872,
                "addr:street": "Rynek",
                "addr:housenumber": "19",
                "addr:city": "Lesko",
                "addr:postcode": "38-600",
                "amenity": "pharmacy",
                "dispensing": "yes"
            },
            "geometry": {
                "type": "Point",
                "coordinates": [
                    22.33009587290827,
                    49.46992815481588
                ]
            }
        },
        {
            "type": "Feature",
            "properties": {
                "ref:csioz": 1142895,
                "addr:street": "Kazimierza Wielkiego",
                "addr:housenumber": "18",
                "addr:city": "Baligród",
                "addr:postcode": "38-606",
                "amenity": "pharmacy",
                "dispensing": "yes"
            },
            "geometry": {
                "type": "Point",
                "coordinates": [
                    22.28683609387211,
                    49.33871919084144
                ]
            }
        },
        {
            "type": "Feature",
            "properties": {
                "ref:csioz": 1147212,
                "addr:street": "Rynek",
                "addr:housenumber": "11",
                "addr:city": "Lesko",
                "addr:postcode": "38-600",
                "amenity": "pharmacy",
                "dispensing": "yes"
            },
            "geometry": {
                "type": "Point",
                "coordinates": [
                    22.32944672526382,
                    49.46930526509918
                ]
            }
        },
        {
            "type": "Feature",
            "properties": {
                "ref:csioz": 1178579,
                "addr:housenumber": "210",
                "addr:postcode": "38-722",
                "amenity": "pharmacy",
                "addr:place": "Olszanica",
                "dispensing": "yes"
            },
            "geometry": {
                "type": "Point",
                "coordinates": [
                    22.445025000046975,
                    49.47765000001214
                ]
            }
        },
        {
            "type": "Feature",
            "properties": {
                "ref:csioz": 1182724,
                "name": "Danfarm Punkt Apteczny Cisna",
                "addr:housenumber": "26",
                "addr:postcode": "38-607",
                "amenity": "pharmacy",
                "addr:place": "Cisna",
                "dispensing": "yes"
            },
            "geometry": {
                "type": "Point",
                "coordinates": [
                    22.32838434883608,
                    49.212418854961385
                ]
            }
        },
        {
            "type": "Feature",
            "properties": {
                "ref:csioz": 1184925,
                "name": "Artfarm",
                "addr:street": "Stawowa",
                "addr:housenumber": "22",
                "addr:city": "Lesko",
                "addr:postcode": "38-600",
                "amenity": "pharmacy",
                "dispensing": "yes"
            },
            "geometry": {
                "type": "Point",
                "coordinates": [
                    22.32507200003912,
                    49.48064900001206
                ]
            }
        },
        {
            "type": "Feature",
            "properties": {
                "ref:csioz": 1138426,
                "name": "Apteka Szpitalna",
                "addr:street": "Kochanowskiego",
                "addr:housenumber": "2",
                "addr:city": "Lesko",
                "addr:postcode": "38-600",
                "amenity": "pharmacy",
                "dispensing": "yes"
            },
            "geometry": {
                "type": "Point",
                "coordinates": [
                    22.33184046647592,
                    49.473623341596735
                ]
            }
        },
        {
            "type": "Feature",
            "properties": {
                "ref:csioz": 1142880,
                "name": "Maja",
                "addr:street": "Unii Brzeskiej",
                "addr:housenumber": "9",
                "addr:city": "Lesko",
                "addr:postcode": "38-600",
                "amenity": "pharmacy",
                "dispensing": "yes"
            },
            "geometry": {
                "type": "Point",
                "coordinates": [
                    22.33203516074785,
                    49.4678133421494
                ]
            }
        },
        {
            "type": "Feature",
            "properties": {
                "ref:csioz": 1142910,
                "addr:street": "Zdrojowa",
                "addr:housenumber": "4",
                "addr:city": "Polańczyk",
                "addr:postcode": "38-610",
                "amenity": "pharmacy",
                "dispensing": "yes"
            },
            "geometry": {
                "type": "Point",
                "coordinates": [
                    22.4268746142575,
                    49.37095849210336
                ]
            }
        },
        {
            "type": "Feature",
            "properties": {
                "ref:csioz": 1187868,
                "name": "Apteka Omega",
                "addr:street": "Zdrojowa",
                "addr:housenumber": "17",
                "addr:city": "Polańczyk",
                "addr:postcode": "38-610",
                "amenity": "pharmacy",
                "dispensing": "yes"
            },
            "geometry": {
                "type": "Point",
                "coordinates": [
                    22.429016757710166,
                    49.37139627408915
                ]
            }
        },
        {
            "type": "Feature",
            "properties": {
                "ref:csioz": 1221479,
                "name": "Danfarm Apteka Olszanica",
                "addr:housenumber": "208",
                "addr:postcode": "38-722",
                "amenity": "pharmacy",
                "addr:place": "Olszanica",
                "dispensing": "yes"
            },
            "geometry": {
                "type": "Point",
                "coordinates": [
                    22.44525047152547,
                    49.476691390647616
                ]
            }
        }
    ]
}