{
    "type": "FeatureCollection",
    "name": "JPT_KOD_JE_1605",
    "features": [
        {
            "type": "Feature",
            "properties": {
                "ref:csioz": 1106878,
                "addr:street": "Szkolna",
                "addr:housenumber": "2",
                "addr:city": "Dobra",
                "addr:postcode": "47-364",
                "amenity": "pharmacy",
                "dispensing": "yes"
            },
            "geometry": {
                "type": "Point",
                "coordinates": [
                    17.901205754344144,
                    50.450482038807316
                ]
            }
        },
        {
            "type": "Feature",
            "properties": {
                "ref:csioz": 1107136,
                "name": "Apteka Na Dobre I Na Złe Anna Praszmo",
                "addr:street": "Krapkowicka",
                "addr:housenumber": "8",
                "addr:city": "Gogolin",
                "addr:postcode": "47-320",
                "amenity": "pharmacy",
                "dispensing": "yes"
            },
            "geometry": {
                "type": "Point",
                "coordinates": [
                    18.017006929990853,
                    50.49250413567894
                ]
            }
        },
        {
            "type": "Feature",
            "properties": {
                "ref:csioz": 1107148,
                "name": "Api-Med",
                "addr:street": "Strzelecka",
                "addr:housenumber": "2a",
                "addr:city": "Gogolin",
                "addr:postcode": "47-320",
                "amenity": "pharmacy",
                "dispensing": "yes"
            },
            "geometry": {
                "type": "Point",
                "coordinates": [
                    18.02019137183628,
                    50.49185996100959
                ]
            }
        },
        {
            "type": "Feature",
            "properties": {
                "ref:csioz": 1107774,
                "name": "\"Apteka 'Selenium'\"",
                "addr:street": "Damrota",
                "addr:housenumber": "2",
                "addr:city": "Krapkowice",
                "addr:postcode": "47-303",
                "amenity": "pharmacy",
                "dispensing": "yes"
            },
            "geometry": {
                "type": "Point",
                "coordinates": [
                    17.969244387736587,
                    50.48804672700709
                ]
            }
        },
        {
            "type": "Feature",
            "properties": {
                "ref:csioz": 1107782,
                "name": "Apteka W Środku Miasta",
                "addr:street": "Księdza Koziołka",
                "addr:housenumber": "20",
                "addr:city": "Krapkowice",
                "addr:postcode": "47-303",
                "amenity": "pharmacy",
                "dispensing": "yes"
            },
            "geometry": {
                "type": "Point",
                "coordinates": [
                    17.974823166490264,
                    50.48222515400469
                ]
            }
        },
        {
            "type": "Feature",
            "properties": {
                "ref:csioz": 1107803,
                "name": "\"Apteka \"\"Dada Farm\"\"\"",
                "addr:street": "Osiedle XXX Lecia",
                "addr:housenumber": "20a",
                "addr:city": "Krapkowice",
                "addr:postcode": "47-303",
                "amenity": "pharmacy",
                "dispensing": "yes"
            },
            "geometry": {
                "type": "Point",
                "coordinates": [
                    17.971666623708355,
                    50.491334100619284
                ]
            }
        },
        {
            "type": "Feature",
            "properties": {
                "ref:csioz": 1109537,
                "addr:street": "Mickiewicza",
                "addr:housenumber": "7",
                "addr:city": "Walce",
                "addr:postcode": "47-344",
                "amenity": "pharmacy",
                "dispensing": "yes"
            },
            "geometry": {
                "type": "Point",
                "coordinates": [
                    18.000120157465933,
                    50.37673642131289
                ]
            }
        },
        {
            "type": "Feature",
            "properties": {
                "ref:csioz": 1109788,
                "addr:street": "Prószkowska",
                "addr:housenumber": "3",
                "addr:city": "Dąbrówka Górna",
                "addr:postcode": "47-300",
                "amenity": "pharmacy",
                "dispensing": "yes"
            },
            "geometry": {
                "type": "Point",
                "coordinates": [
                    17.92685998299019,
                    50.53727849334851
                ]
            }
        },
        {
            "type": "Feature",
            "properties": {
                "ref:csioz": 1121958,
                "name": "Nasza Apteka",
                "addr:street": "Szkolna",
                "addr:housenumber": "7",
                "addr:city": "Krapkowice",
                "addr:postcode": "47-300",
                "amenity": "pharmacy",
                "dispensing": "yes"
            },
            "geometry": {
                "type": "Point",
                "coordinates": [
                    17.963744537240085,
                    50.47655541466556
                ]
            }
        },
        {
            "type": "Feature",
            "properties": {
                "ref:csioz": 1204378,
                "name": "\"\"\"Apteka Gemini\"\"\"",
                "addr:street": "Pocztowa",
                "addr:housenumber": "2",
                "addr:city": "Krapkowice",
                "addr:postcode": "47-300",
                "amenity": "pharmacy",
                "dispensing": "yes"
            },
            "geometry": {
                "type": "Point",
                "coordinates": [
                    17.963139528055336,
                    50.47694832003702
                ]
            }
        },
        {
            "type": "Feature",
            "properties": {
                "ref:csioz": 1218630,
                "name": "Apteka Zdrowit",
                "addr:street": "Prudnicka",
                "addr:housenumber": "15",
                "addr:city": "Krapkowice",
                "addr:postcode": "47-300",
                "amenity": "pharmacy",
                "dispensing": "yes"
            },
            "geometry": {
                "type": "Point",
                "coordinates": [
                    17.961004999999613,
                    50.47197600001317
                ]
            }
        },
        {
            "type": "Feature",
            "properties": {
                "ref:csioz": 1225729,
                "name": "Drofarm",
                "addr:street": "Opolska",
                "addr:housenumber": "20",
                "addr:city": "Krapkowice",
                "addr:postcode": "47-300",
                "amenity": "pharmacy",
                "dispensing": "yes"
            },
            "geometry": {
                "type": "Point",
                "coordinates": [
                    17.96590735050516,
                    50.47717967406355
                ]
            }
        },
        {
            "type": "Feature",
            "properties": {
                "ref:csioz": 1109473,
                "name": "Sub Sole",
                "addr:street": "Sienkiewicza",
                "addr:housenumber": "33",
                "addr:city": "Strzeleczki",
                "addr:postcode": "47-364",
                "amenity": "pharmacy",
                "dispensing": "yes"
            },
            "geometry": {
                "type": "Point",
                "coordinates": [
                    17.85770937907308,
                    50.45817703269591
                ]
            }
        },
        {
            "type": "Feature",
            "properties": {
                "ref:csioz": 1109653,
                "addr:street": "Filarskiego",
                "addr:housenumber": "1",
                "addr:city": "Zdzieszowice",
                "addr:postcode": "47-330",
                "amenity": "pharmacy",
                "dispensing": "yes"
            },
            "geometry": {
                "type": "Point",
                "coordinates": [
                    18.12553197433049,
                    50.42420590425497
                ]
            }
        },
        {
            "type": "Feature",
            "properties": {
                "ref:csioz": 1109666,
                "name": "Grosik",
                "addr:street": "Filarskiego",
                "addr:housenumber": "6",
                "addr:city": "Zdzieszowice",
                "addr:postcode": "47-330",
                "amenity": "pharmacy",
                "dispensing": "yes"
            },
            "geometry": {
                "type": "Point",
                "coordinates": [
                    18.127208576585552,
                    50.42328661967059
                ]
            }
        },
        {
            "type": "Feature",
            "properties": {
                "ref:csioz": 1109677,
                "name": "Apteka Prima",
                "addr:street": "Filarskiego",
                "addr:housenumber": "15",
                "addr:city": "Zdzieszowice",
                "addr:postcode": "47-330",
                "amenity": "pharmacy",
                "dispensing": "yes"
            },
            "geometry": {
                "type": "Point",
                "coordinates": [
                    18.1284018963964,
                    50.42375190548729
                ]
            }
        },
        {
            "type": "Feature",
            "properties": {
                "ref:csioz": 1109727,
                "name": "Api-Med",
                "addr:street": "Słowackiego",
                "addr:housenumber": "4",
                "addr:city": "Krapkowice",
                "addr:postcode": "47-300",
                "amenity": "pharmacy",
                "dispensing": "yes"
            },
            "geometry": {
                "type": "Point",
                "coordinates": [
                    17.957871369296598,
                    50.47152136338344
                ]
            }
        },
        {
            "type": "Feature",
            "properties": {
                "ref:csioz": 1110276,
                "name": "Dział Farmacji Szpitalnej Szpitala Krapkowickiego Centrum Zdrowia Sp Z O.O.",
                "addr:street": "XXX-Lecia",
                "addr:housenumber": "21",
                "addr:city": "Krapkowice",
                "addr:postcode": "47-303",
                "amenity": "pharmacy",
                "dispensing": "yes"
            },
            "geometry": {
                "type": "Point",
                "coordinates": [
                    17.97172820075804,
                    50.4920839433439
                ]
            }
        },
        {
            "type": "Feature",
            "properties": {
                "ref:csioz": 1122318,
                "name": "Dział Farmacji Szpitalnej Centrum Terapii Nerwic - Szpital",
                "addr:street": "Zamkowa",
                "addr:housenumber": "1 A",
                "addr:city": "Moszna",
                "addr:postcode": "47-370",
                "amenity": "pharmacy",
                "dispensing": "yes"
            },
            "geometry": {
                "type": "Point",
                "coordinates": [
                    17.772388686601843,
                    50.44144933107849
                ]
            }
        },
        {
            "type": "Feature",
            "properties": {
                "ref:csioz": 1205892,
                "name": "Doz Apteka Dbam O Zdrowie Rynek 26",
                "addr:street": "Rynek",
                "addr:housenumber": "26",
                "addr:city": "Krapkowice",
                "addr:postcode": "47-300",
                "amenity": "pharmacy",
                "dispensing": "yes"
            },
            "geometry": {
                "type": "Point",
                "coordinates": [
                    17.967497034508817,
                    50.47505749537851
                ]
            }
        },
        {
            "type": "Feature",
            "properties": {
                "ref:csioz": 1218905,
                "name": "Apteka Tobie Bliska",
                "addr:street": "Aleja Świętego Urbana",
                "addr:housenumber": "4",
                "addr:city": "Gogolin",
                "addr:postcode": "47-320",
                "amenity": "pharmacy",
                "dispensing": "yes"
            },
            "geometry": {
                "type": "Point",
                "coordinates": [
                    18.02259696527803,
                    50.48984836359244
                ]
            }
        },
        {
            "type": "Feature",
            "properties": {
                "ref:csioz": 1225668,
                "name": "Punkt Apteczny Tobie Bliski",
                "addr:street": "Parkowa",
                "addr:housenumber": "1A",
                "addr:city": "Kamień Śląski",
                "addr:postcode": "47-325",
                "amenity": "pharmacy",
                "dispensing": "yes"
            },
            "geometry": {
                "type": "Point",
                "coordinates": [
                    18.07536804927933,
                    50.536300007964485
                ]
            }
        },
        {
            "type": "Feature",
            "properties": {
                "ref:csioz": 1109644,
                "name": "\"Apteka \"\"Na Dobre I Na Złe\"\"\"",
                "addr:street": "Góry Świętej Anny",
                "addr:housenumber": "1",
                "addr:city": "Zdzieszowice",
                "addr:postcode": "47-330",
                "amenity": "pharmacy",
                "dispensing": "yes"
            },
            "geometry": {
                "type": "Point",
                "coordinates": [
                    18.12457265181213,
                    50.42436962782272
                ]
            }
        }
    ]
}