{
    "type": "FeatureCollection",
    "name": "JPT_KOD_JE_3029",
    "features": [
        {
            "type": "Feature",
            "properties": {
                "ref:csioz": 1043678,
                "name": "Konwalia",
                "addr:street": "Cysterska",
                "addr:housenumber": "1",
                "addr:city": "Kaszczor",
                "addr:postcode": "64-234",
                "amenity": "pharmacy"
            },
            "geometry": {
                "type": "Point",
                "coordinates": [
                    16.163299268134864,
                    51.95852888620039
                ]
            }
        },
        {
            "type": "Feature",
            "properties": {
                "ref:csioz": 1054065,
                "name": "Avena",
                "addr:street": "Jagiellońska",
                "addr:housenumber": "20",
                "addr:city": "Przemęt",
                "addr:postcode": "64-234",
                "amenity": "pharmacy"
            },
            "geometry": {
                "type": "Point",
                "coordinates": [
                    16.300965368740794,
                    52.005106784017705
                ]
            }
        },
        {
            "type": "Feature",
            "properties": {
                "ref:csioz": 1055076,
                "name": "Apteka Od Serca",
                "addr:street": "Jagiellońska",
                "addr:housenumber": "22A",
                "addr:city": "Przemęt",
                "addr:postcode": "64-234",
                "amenity": "pharmacy"
            },
            "geometry": {
                "type": "Point",
                "coordinates": [
                    16.30113396742792,
                    52.00449754631324
                ]
            }
        },
        {
            "type": "Feature",
            "properties": {
                "ref:csioz": 1051377,
                "name": "Mocheńska",
                "addr:street": "3 Maja",
                "addr:housenumber": "16",
                "addr:city": "Mochy",
                "addr:postcode": "64-234",
                "amenity": "pharmacy"
            },
            "geometry": {
                "type": "Point",
                "coordinates": [
                    16.1670273544358,
                    52.00084226651202
                ]
            }
        },
        {
            "type": "Feature",
            "properties": {
                "ref:csioz": 1190624,
                "name": "Malwa",
                "addr:street": "Mickiewicza",
                "addr:housenumber": "16",
                "addr:city": "Świętno",
                "addr:postcode": "64-200",
                "amenity": "pharmacy"
            },
            "geometry": {
                "type": "Point",
                "coordinates": [
                    16.046195965234993,
                    52.008309355987265
                ]
            }
        },
        {
            "type": "Feature",
            "properties": {
                "ref:csioz": 1204454,
                "name": "Buczyńska",
                "addr:street": "Kasztanowa",
                "addr:housenumber": "3",
                "addr:city": "Bucz",
                "addr:postcode": "64-234",
                "amenity": "pharmacy"
            },
            "geometry": {
                "type": "Point",
                "coordinates": [
                    16.381159701709333,
                    52.004204523104995
                ]
            }
        },
        {
            "type": "Feature",
            "properties": {
                "ref:csioz": 1043928,
                "name": "Punkt Apteczny Od Serca",
                "addr:street": "Zbąszyńska",
                "addr:housenumber": "11",
                "addr:city": "Kopanica",
                "addr:postcode": "64-225",
                "amenity": "pharmacy"
            },
            "geometry": {
                "type": "Point",
                "coordinates": [
                    15.917620344264714,
                    52.094273026125784
                ]
            }
        },
        {
            "type": "Feature",
            "properties": {
                "ref:csioz": 1045139,
                "name": "Aronia",
                "addr:housenumber": "96A",
                "addr:postcode": "64-231",
                "amenity": "pharmacy",
                "addr:place": "BELĘCIN"
            },
            "geometry": {
                "type": "Point",
                "coordinates": [
                    16.005902733815226,
                    52.201752733500044
                ]
            }
        },
        {
            "type": "Feature",
            "properties": {
                "ref:csioz": 1046946,
                "name": "Hygea",
                "addr:street": "Wodna",
                "addr:housenumber": "5",
                "addr:city": "Wolsztyn",
                "addr:postcode": "64-200",
                "amenity": "pharmacy"
            },
            "geometry": {
                "type": "Point",
                "coordinates": [
                    16.115002726163564,
                    52.11669395961745
                ]
            }
        },
        {
            "type": "Feature",
            "properties": {
                "ref:csioz": 1050674,
                "name": "Przy Dworcu",
                "addr:street": "DWORCOWA",
                "addr:housenumber": "7",
                "addr:city": "WOLSZTYN",
                "addr:postcode": "64-200",
                "amenity": "pharmacy"
            },
            "geometry": {
                "type": "Point",
                "coordinates": [
                    16.108789856564613,
                    52.11199839113039
                ]
            }
        },
        {
            "type": "Feature",
            "properties": {
                "ref:csioz": 1050682,
                "name": "Parkowa",
                "addr:street": "POZNAŃSKA",
                "addr:housenumber": "32",
                "addr:city": "WOLSZTYN",
                "addr:postcode": "64-200",
                "amenity": "pharmacy"
            },
            "geometry": {
                "type": "Point",
                "coordinates": [
                    16.117886454564292,
                    52.118102861119354
                ]
            }
        },
        {
            "type": "Feature",
            "properties": {
                "ref:csioz": 1051456,
                "name": "Pod Wagą",
                "addr:street": "Plac Kościuszki",
                "addr:housenumber": "18",
                "addr:city": "Wolsztyn",
                "addr:postcode": "64-200",
                "amenity": "pharmacy"
            },
            "geometry": {
                "type": "Point",
                "coordinates": [
                    16.11635599998557,
                    52.11485600001578
                ]
            }
        },
        {
            "type": "Feature",
            "properties": {
                "ref:csioz": 1051659,
                "name": "Hygea",
                "addr:street": "Słowackiego",
                "addr:housenumber": "18",
                "addr:city": "Wolsztyn",
                "addr:postcode": "64-200",
                "amenity": "pharmacy"
            },
            "geometry": {
                "type": "Point",
                "coordinates": [
                    16.11863675061746,
                    52.109526760526
                ]
            }
        },
        {
            "type": "Feature",
            "properties": {
                "ref:csioz": 1056020,
                "addr:street": "Wschowska",
                "addr:housenumber": "3",
                "addr:city": "Wolsztyn",
                "addr:postcode": "64-200",
                "amenity": "pharmacy"
            },
            "geometry": {
                "type": "Point",
                "coordinates": [
                    16.11728783837734,
                    52.11668652420784
                ]
            }
        },
        {
            "type": "Feature",
            "properties": {
                "ref:csioz": 1186565,
                "name": "Melisana",
                "addr:street": "Stradyńska",
                "addr:housenumber": "4",
                "addr:city": "Kębłowo",
                "addr:postcode": "64-223",
                "amenity": "pharmacy"
            },
            "geometry": {
                "type": "Point",
                "coordinates": [
                    16.1009575908894,
                    52.04786807739148
                ]
            }
        },
        {
            "type": "Feature",
            "properties": {
                "ref:csioz": 1204004,
                "name": "Lekabel",
                "addr:street": "Gajewskich",
                "addr:housenumber": "1",
                "addr:city": "Wolsztyn",
                "addr:postcode": "64-200",
                "amenity": "pharmacy"
            },
            "geometry": {
                "type": "Point",
                "coordinates": [
                    16.117751875775216,
                    52.11382869463243
                ]
            }
        },
        {
            "type": "Feature",
            "properties": {
                "ref:csioz": 1045243,
                "name": "Centrum Zdrowia",
                "addr:street": "Strzelecka",
                "addr:housenumber": "7",
                "addr:city": "Wolsztyn",
                "addr:postcode": "64-200",
                "amenity": "pharmacy"
            },
            "geometry": {
                "type": "Point",
                "coordinates": [
                    16.117905445015683,
                    52.11570552909727
                ]
            }
        },
        {
            "type": "Feature",
            "properties": {
                "ref:csioz": 1046299,
                "name": "Apteka Dbam O Zdrowie",
                "addr:street": "Dworcowa",
                "addr:housenumber": "5",
                "addr:city": "Wolsztyn",
                "addr:postcode": "64-200",
                "amenity": "pharmacy"
            },
            "geometry": {
                "type": "Point",
                "coordinates": [
                    16.10924953401024,
                    52.11199466314993
                ]
            }
        },
        {
            "type": "Feature",
            "properties": {
                "ref:csioz": 1047031,
                "name": "Leśna",
                "addr:street": "Leśna",
                "addr:housenumber": "4A",
                "addr:city": "Siedlec",
                "addr:postcode": "64-212",
                "amenity": "pharmacy"
            },
            "geometry": {
                "type": "Point",
                "coordinates": [
                    16.002473160719855,
                    52.135936047557884
                ]
            }
        },
        {
            "type": "Feature",
            "properties": {
                "ref:csioz": 1051146,
                "addr:street": "Powstańców Wielkopolskich",
                "addr:housenumber": "2",
                "addr:city": "Obra",
                "addr:postcode": "64-211",
                "amenity": "pharmacy"
            },
            "geometry": {
                "type": "Point",
                "coordinates": [
                    16.045264924008418,
                    52.074358379343
                ]
            }
        },
        {
            "type": "Feature",
            "properties": {
                "ref:csioz": 1055646,
                "addr:street": "5 Stycznia",
                "addr:housenumber": "18",
                "addr:city": "Wolsztyn",
                "addr:postcode": "64-200",
                "amenity": "pharmacy"
            },
            "geometry": {
                "type": "Point",
                "coordinates": [
                    16.109677139433487,
                    52.11598772665406
                ]
            }
        },
        {
            "type": "Feature",
            "properties": {
                "ref:csioz": 1176510,
                "name": "Św. Józefa",
                "addr:street": "Garbarska",
                "addr:housenumber": "10",
                "addr:flats": "13",
                "addr:city": "Wolsztyn",
                "addr:postcode": "64-200",
                "amenity": "pharmacy"
            },
            "geometry": {
                "type": "Point",
                "coordinates": [
                    16.12413566309821,
                    52.116154620527716
                ]
            }
        },
        {
            "type": "Feature",
            "properties": {
                "ref:csioz": 1223262,
                "name": "Apteka Od Serca",
                "addr:street": "Wolsztyńska",
                "addr:housenumber": "74",
                "addr:city": "Siedlec",
                "addr:postcode": "64-212",
                "amenity": "pharmacy"
            },
            "geometry": {
                "type": "Point",
                "coordinates": [
                    16.01317255416559,
                    52.13345328354161
                ]
            }
        },
        {
            "type": "Feature",
            "properties": {
                "ref:csioz": 1228847,
                "name": "Lekabel",
                "addr:street": "Kościelna",
                "addr:housenumber": "7A",
                "addr:city": "Wolsztyn",
                "addr:postcode": "64-200",
                "amenity": "pharmacy"
            },
            "geometry": {
                "type": "Point",
                "coordinates": [
                    16.11062356952037,
                    52.11657399647665
                ]
            }
        }
    ]
}