{
    "type": "FeatureCollection",
    "name": "JPT_KOD_JE_0609",
    "features": [
        {
            "type": "Feature",
            "properties": {
                "ref:csioz": 1158804,
                "addr:housenumber": "6",
                "addr:postcode": "23-145",
                "amenity": "pharmacy",
                "addr:place": "Wysokie"
            },
            "geometry": {
                "type": "Point",
                "coordinates": [
                    22.668728157969834,
                    50.90829070305868
                ]
            }
        },
        {
            "type": "Feature",
            "properties": {
                "ref:csioz": 1163933,
                "addr:street": "Piłsudskiego",
                "addr:housenumber": "36",
                "addr:city": "Bychawa",
                "addr:postcode": "23-100",
                "amenity": "pharmacy"
            },
            "geometry": {
                "type": "Point",
                "coordinates": [
                    22.539336107654265,
                    51.01302934166999
                ]
            }
        },
        {
            "type": "Feature",
            "properties": {
                "ref:csioz": 1190296,
                "addr:street": "marsz. Józefa Piłsudskiego",
                "addr:housenumber": "28",
                "addr:city": "Bychawa",
                "amenity": "pharmacy"
            },
            "geometry": {
                "type": "Point",
                "coordinates": [
                    22.537314543068135,
                    51.01332959679217
                ]
            }
        },
        {
            "type": "Feature",
            "properties": {
                "ref:csioz": 1210628,
                "name": "Apteka Rodzinna",
                "addr:street": "marsz. Józefa  Piłsudskiego",
                "addr:housenumber": "27",
                "addr:city": "Bychawa",
                "addr:postcode": "23-100",
                "amenity": "pharmacy"
            },
            "geometry": {
                "type": "Point",
                "coordinates": [
                    22.53508769005647,
                    51.014996309104646
                ]
            }
        },
        {
            "type": "Feature",
            "properties": {
                "ref:csioz": 1162577,
                "addr:street": "Leśna",
                "addr:housenumber": "8",
                "addr:city": "Krzczonów-Wójtostwo",
                "addr:postcode": "23-110",
                "amenity": "pharmacy"
            },
            "geometry": {
                "type": "Point",
                "coordinates": [
                    22.717578847761185,
                    51.00530431394567
                ]
            }
        },
        {
            "type": "Feature",
            "properties": {
                "ref:csioz": 1157486,
                "name": "Apteka Zdrojowa Za Szpitalem",
                "addr:street": "Piłsudskiego",
                "addr:housenumber": "28",
                "addr:city": "Bychawa",
                "addr:postcode": "23-100",
                "amenity": "pharmacy"
            },
            "geometry": {
                "type": "Point",
                "coordinates": [
                    22.537314543068135,
                    51.01332959679217
                ]
            }
        },
        {
            "type": "Feature",
            "properties": {
                "ref:csioz": 1161944,
                "name": "Doz Apteka Dbam O Zdrowie",
                "addr:street": "Piłsudskiego",
                "addr:housenumber": "14",
                "addr:city": "Bychawa",
                "addr:postcode": "23-100",
                "amenity": "pharmacy"
            },
            "geometry": {
                "type": "Point",
                "coordinates": [
                    22.533990833868707,
                    51.01538293736704
                ]
            }
        },
        {
            "type": "Feature",
            "properties": {
                "ref:csioz": 1161953,
                "addr:street": "Spokojna",
                "addr:housenumber": "6",
                "addr:city": "Krzczonów",
                "addr:postcode": "23-110",
                "amenity": "pharmacy"
            },
            "geometry": {
                "type": "Point",
                "coordinates": [
                    22.709264079718356,
                    51.006159272996804
                ]
            }
        },
        {
            "type": "Feature",
            "properties": {
                "ref:csioz": 1166429,
                "name": "Apteka Vitamar Mgr Mariola Stanicka",
                "addr:street": "Rynek Jabłonowskich",
                "addr:housenumber": "7",
                "addr:city": "Wysokie",
                "addr:postcode": "23-145",
                "amenity": "pharmacy"
            },
            "geometry": {
                "type": "Point",
                "coordinates": [
                    22.665421490403315,
                    50.90882804052896
                ]
            }
        },
        {
            "type": "Feature",
            "properties": {
                "ref:csioz": 1184024,
                "name": "Pod Aniołem",
                "addr:street": "marsz. Józefa Piłsudskiego",
                "addr:housenumber": "18",
                "addr:city": "Bychawa",
                "addr:postcode": "23-100",
                "amenity": "pharmacy"
            },
            "geometry": {
                "type": "Point",
                "coordinates": [
                    22.53450177668445,
                    51.01502606796262
                ]
            }
        },
        {
            "type": "Feature",
            "properties": {
                "ref:csioz": 1184633,
                "name": "Apteka Vikamed",
                "addr:street": "Stefana Żeromskiego",
                "addr:housenumber": "12",
                "addr:city": "Krzczonów",
                "addr:postcode": "23-110",
                "amenity": "pharmacy"
            },
            "geometry": {
                "type": "Point",
                "coordinates": [
                    22.707533550858614,
                    51.00628610850262
                ]
            }
        },
        {
            "type": "Feature",
            "properties": {
                "ref:csioz": 1189740,
                "name": "Dfs",
                "addr:street": "marsz. Józefa Piłsudskiego",
                "addr:housenumber": "28",
                "addr:city": "Bychawa",
                "addr:postcode": "23-100",
                "amenity": "pharmacy"
            },
            "geometry": {
                "type": "Point",
                "coordinates": [
                    22.537314543068135,
                    51.01332959679217
                ]
            }
        },
        {
            "type": "Feature",
            "properties": {
                "ref:csioz": 1228996,
                "name": "Punkt Apteczny Amber",
                "addr:housenumber": "2A",
                "addr:postcode": "23-145",
                "amenity": "pharmacy",
                "addr:place": "Giełczew"
            },
            "geometry": {
                "type": "Point",
                "coordinates": [
                    22.679222775270272,
                    50.95706689162881
                ]
            }
        },
        {
            "type": "Feature",
            "properties": {
                "ref:csioz": 1106391,
                "addr:housenumber": "42",
                "addr:postcode": "21-008",
                "amenity": "pharmacy",
                "addr:place": "Tomaszowice-Kolonia"
            },
            "geometry": {
                "type": "Point",
                "coordinates": [
                    22.37091042205998,
                    51.27694501008577
                ]
            }
        },
        {
            "type": "Feature",
            "properties": {
                "ref:csioz": 1153605,
                "name": "Farmacea",
                "addr:street": "Krakowska",
                "addr:housenumber": "81",
                "addr:city": "Niedrzwica Kościelna",
                "addr:postcode": "24-222",
                "amenity": "pharmacy"
            },
            "geometry": {
                "type": "Point",
                "coordinates": [
                    22.365759307778568,
                    51.0902171974935
                ]
            }
        },
        {
            "type": "Feature",
            "properties": {
                "ref:csioz": 1162434,
                "addr:street": "Różana",
                "addr:housenumber": "1",
                "addr:city": "Niemce",
                "addr:postcode": "21-025",
                "amenity": "pharmacy"
            },
            "geometry": {
                "type": "Point",
                "coordinates": [
                    22.62461177935508,
                    51.3594547481225
                ]
            }
        },
        {
            "type": "Feature",
            "properties": {
                "ref:csioz": 1162695,
                "addr:housenumber": "165",
                "addr:postcode": "20-388",
                "amenity": "pharmacy",
                "addr:place": "Mętów"
            },
            "geometry": {
                "type": "Point",
                "coordinates": [
                    22.590752685115405,
                    51.14714597777647
                ]
            }
        },
        {
            "type": "Feature",
            "properties": {
                "ref:csioz": 1162948,
                "addr:street": "Partyzancka",
                "addr:housenumber": "57",
                "addr:city": "Niedrzwica Duża",
                "addr:postcode": "24-220",
                "amenity": "pharmacy"
            },
            "geometry": {
                "type": "Point",
                "coordinates": [
                    22.388042014412566,
                    51.110899325322364
                ]
            }
        },
        {
            "type": "Feature",
            "properties": {
                "ref:csioz": 1163172,
                "name": "Apteka Nova",
                "addr:street": "Krótka",
                "addr:housenumber": "16",
                "addr:city": "Niedrzwica Duża",
                "addr:postcode": "24-220",
                "amenity": "pharmacy"
            },
            "geometry": {
                "type": "Point",
                "coordinates": [
                    22.386162000035547,
                    51.11018200001449
                ]
            }
        },
        {
            "type": "Feature",
            "properties": {
                "ref:csioz": 1163896,
                "addr:housenumber": "80",
                "addr:postcode": "21-030",
                "amenity": "pharmacy",
                "addr:place": "Kozubszczyzna"
            },
            "geometry": {
                "type": "Point",
                "coordinates": [
                    22.428125684638065,
                    51.22091601168718
                ]
            }
        },
        {
            "type": "Feature",
            "properties": {
                "ref:csioz": 1194197,
                "name": "Vital Centrum",
                "addr:housenumber": "67 A",
                "addr:postcode": "21-030",
                "amenity": "pharmacy",
                "addr:place": "Kozubszczyzna"
            },
            "geometry": {
                "type": "Point",
                "coordinates": [
                    22.430555621445652,
                    51.22061783533617
                ]
            }
        },
        {
            "type": "Feature",
            "properties": {
                "ref:csioz": 1221440,
                "name": "-",
                "addr:street": "Rynek",
                "addr:housenumber": "6",
                "addr:city": "Dominów",
                "addr:postcode": "20-388",
                "amenity": "pharmacy"
            },
            "geometry": {
                "type": "Point",
                "coordinates": [
                    22.596426756182858,
                    51.170754783945995
                ]
            }
        },
        {
            "type": "Feature",
            "properties": {
                "ref:csioz": 1227566,
                "name": "\"Apteka \"\"Piguła\"\"\"",
                "addr:housenumber": "144D",
                "addr:postcode": "21-008",
                "amenity": "pharmacy",
                "addr:place": "Dąbrowica"
            },
            "geometry": {
                "type": "Point",
                "coordinates": [
                    22.46491792602021,
                    51.255661230829276
                ]
            }
        },
        {
            "type": "Feature",
            "properties": {
                "ref:csioz": 1163109,
                "addr:street": "Lipowa",
                "addr:housenumber": "12",
                "addr:city": "Turka",
                "addr:postcode": "21-258",
                "amenity": "pharmacy"
            },
            "geometry": {
                "type": "Point",
                "coordinates": [
                    22.66052566986082,
                    51.274494088896
                ]
            }
        },
        {
            "type": "Feature",
            "properties": {
                "ref:csioz": 1124293,
                "name": "Amber",
                "addr:housenumber": "154B",
                "addr:postcode": "23-107",
                "amenity": "pharmacy",
                "addr:place": "Piotrowice"
            },
            "geometry": {
                "type": "Point",
                "coordinates": [
                    22.47825381042703,
                    51.08691633271689
                ]
            }
        },
        {
            "type": "Feature",
            "properties": {
                "ref:csioz": 1157949,
                "addr:street": "Klonowa",
                "addr:housenumber": "61",
                "addr:city": "Turka",
                "addr:postcode": "21-258",
                "amenity": "pharmacy"
            },
            "geometry": {
                "type": "Point",
                "coordinates": [
                    22.661066222914055,
                    51.278724776043546
                ]
            }
        },
        {
            "type": "Feature",
            "properties": {
                "ref:csioz": 1161641,
                "addr:street": "Szkolna",
                "addr:housenumber": "13",
                "addr:city": "Niemce",
                "addr:postcode": "21-025",
                "amenity": "pharmacy"
            },
            "geometry": {
                "type": "Point",
                "coordinates": [
                    22.620107068267302,
                    51.35807343966721
                ]
            }
        },
        {
            "type": "Feature",
            "properties": {
                "ref:csioz": 1161875,
                "addr:housenumber": "16",
                "addr:postcode": "23-114",
                "amenity": "pharmacy",
                "addr:place": "Jabłonna-Majątek"
            },
            "geometry": {
                "type": "Point",
                "coordinates": [
                    22.57960820822658,
                    51.096021323227134
                ]
            }
        },
        {
            "type": "Feature",
            "properties": {
                "ref:csioz": 1163016,
                "name": "Apteka Vikamed",
                "addr:street": "Zielona",
                "addr:housenumber": "3",
                "addr:city": "Niemce",
                "addr:postcode": "21-025",
                "amenity": "pharmacy"
            },
            "geometry": {
                "type": "Point",
                "coordinates": [
                    22.617922417882045,
                    51.35925264398709
                ]
            }
        },
        {
            "type": "Feature",
            "properties": {
                "ref:csioz": 1163548,
                "name": "Top-Farm",
                "addr:housenumber": "17c",
                "addr:postcode": "20-258",
                "amenity": "pharmacy",
                "addr:place": "Wólka"
            },
            "geometry": {
                "type": "Point",
                "coordinates": [
                    22.633694505978475,
                    51.264524786730085
                ]
            }
        },
        {
            "type": "Feature",
            "properties": {
                "ref:csioz": 1163998,
                "addr:street": "Al. Warszawska",
                "addr:housenumber": "51B",
                "addr:city": "Jastków Panieńszczyzna",
                "addr:postcode": "21-002",
                "amenity": "pharmacy"
            },
            "geometry": {
                "type": "Point",
                "coordinates": [
                    22.4353490000373,
                    51.30395800001482
                ]
            }
        },
        {
            "type": "Feature",
            "properties": {
                "ref:csioz": 1173240,
                "name": "Punkt Apteczny Paulina Sierpińska",
                "addr:street": "Lubelska",
                "addr:housenumber": "3",
                "addr:city": "Dys",
                "addr:postcode": "20-003",
                "amenity": "pharmacy"
            },
            "geometry": {
                "type": "Point",
                "coordinates": [
                    22.545888683708654,
                    51.28938362136249
                ]
            }
        },
        {
            "type": "Feature",
            "properties": {
                "ref:csioz": 1187704,
                "name": "Apteka Centrum",
                "addr:street": "KRA",
                "addr:housenumber": "23A",
                "addr:city": "Krasienin-Kolonia",
                "addr:postcode": "21-025",
                "amenity": "pharmacy"
            },
            "geometry": {
                "type": "Point",
                "coordinates": [
                    22.46697477383462,
                    51.36230827744329
                ]
            }
        },
        {
            "type": "Feature",
            "properties": {
                "ref:csioz": 1199855,
                "name": "Apteka Rodzinna Beata Gęca",
                "addr:housenumber": "6 C",
                "addr:postcode": "20-258",
                "amenity": "pharmacy",
                "addr:place": "Wólka"
            },
            "geometry": {
                "type": "Point",
                "coordinates": [
                    22.634209922808452,
                    51.26397429291067
                ]
            }
        },
        {
            "type": "Feature",
            "properties": {
                "ref:csioz": 1224489,
                "name": "Apteka Vikamed",
                "addr:street": "Lubelska",
                "addr:housenumber": "160",
                "addr:city": "Niemce",
                "addr:postcode": "21-025",
                "amenity": "pharmacy"
            },
            "geometry": {
                "type": "Point",
                "coordinates": [
                    22.62155945056628,
                    51.35505569390368
                ]
            }
        },
        {
            "type": "Feature",
            "properties": {
                "ref:csioz": 1158345,
                "addr:housenumber": "35C",
                "addr:postcode": "24-200",
                "amenity": "pharmacy",
                "addr:place": "Krężnica Okrągła"
            },
            "geometry": {
                "type": "Point",
                "coordinates": [
                    22.231025224218047,
                    51.16364678985091
                ]
            }
        },
        {
            "type": "Feature",
            "properties": {
                "ref:csioz": 1162726,
                "name": "Apteka Małgorzata Marzec-Kowalczyk",
                "addr:housenumber": "229",
                "addr:postcode": "24-224",
                "amenity": "pharmacy",
                "addr:place": "Borzechów"
            },
            "geometry": {
                "type": "Point",
                "coordinates": [
                    22.28400200003059,
                    51.09310600001438
                ]
            }
        },
        {
            "type": "Feature",
            "properties": {
                "ref:csioz": 1162806,
                "addr:street": "Lubelska",
                "addr:housenumber": "19",
                "addr:city": "Bełżyce",
                "addr:postcode": "24-200",
                "amenity": "pharmacy"
            },
            "geometry": {
                "type": "Point",
                "coordinates": [
                    22.283820981111322,
                    51.175218732084055
                ]
            }
        },
        {
            "type": "Feature",
            "properties": {
                "ref:csioz": 1163849,
                "addr:housenumber": "34",
                "addr:postcode": "21-080",
                "amenity": "pharmacy",
                "addr:place": "Garbów"
            },
            "geometry": {
                "type": "Point",
                "coordinates": [
                    22.329392473045154,
                    51.36005087433674
                ]
            }
        },
        {
            "type": "Feature",
            "properties": {
                "ref:csioz": 1208834,
                "name": "\"Apteka \"\"Nova\"\" Prężyna I Wspólnicy Spółka Jawna\"",
                "addr:street": "Młyńska",
                "addr:housenumber": "2",
                "addr:city": "Garbów",
                "addr:postcode": "21-080",
                "amenity": "pharmacy"
            },
            "geometry": {
                "type": "Point",
                "coordinates": [
                    22.33444480202656,
                    51.354685495747184
                ]
            }
        },
        {
            "type": "Feature",
            "properties": {
                "ref:csioz": 1106287,
                "name": "Punkt Apteczny Mgr Urszula Wójcik",
                "addr:housenumber": "10",
                "addr:postcode": "24-204",
                "amenity": "pharmacy",
                "addr:place": "Palikije I"
            },
            "geometry": {
                "type": "Point",
                "coordinates": [
                    22.303099435355055,
                    51.23205737768771
                ]
            }
        },
        {
            "type": "Feature",
            "properties": {
                "ref:csioz": 1163801,
                "addr:street": "Polna",
                "addr:housenumber": "2",
                "addr:city": "Bełżyce",
                "addr:postcode": "24-200",
                "amenity": "pharmacy"
            },
            "geometry": {
                "type": "Point",
                "coordinates": [
                    22.283656812555314,
                    51.174814496984936
                ]
            }
        },
        {
            "type": "Feature",
            "properties": {
                "ref:csioz": 1158234,
                "name": "Doz Apteka.Dbam O Zdrowie.Elwin",
                "addr:street": "Lubelska",
                "addr:housenumber": "57",
                "addr:city": "Bełżyce",
                "addr:postcode": "24-200",
                "amenity": "pharmacy"
            },
            "geometry": {
                "type": "Point",
                "coordinates": [
                    22.28840630726258,
                    51.17640910597413
                ]
            }
        },
        {
            "type": "Feature",
            "properties": {
                "ref:csioz": 1163294,
                "addr:street": "Bednarska",
                "addr:housenumber": "2",
                "addr:city": "Bełżyce",
                "addr:postcode": "24-200",
                "amenity": "pharmacy"
            },
            "geometry": {
                "type": "Point",
                "coordinates": [
                    22.281805606246152,
                    51.17302739197151
                ]
            }
        },
        {
            "type": "Feature",
            "properties": {
                "ref:csioz": 1164028,
                "addr:street": "Tysiąclecia",
                "addr:housenumber": "45",
                "addr:city": "Bełżyce",
                "addr:postcode": "24-200",
                "amenity": "pharmacy"
            },
            "geometry": {
                "type": "Point",
                "coordinates": [
                    22.282683556110353,
                    51.17449762419511
                ]
            }
        },
        {
            "type": "Feature",
            "properties": {
                "ref:csioz": 1189733,
                "name": "Apteka Szpitalna",
                "addr:street": "Lubelska",
                "addr:housenumber": "90",
                "addr:city": "Bełżyce",
                "addr:postcode": "24-200",
                "amenity": "pharmacy"
            },
            "geometry": {
                "type": "Point",
                "coordinates": [
                    22.29263760065941,
                    51.17691389357422
                ]
            }
        },
        {
            "type": "Feature",
            "properties": {
                "ref:csioz": 1197488,
                "name": "Apteka Piotr Sikora",
                "addr:street": "Jana Pawła II",
                "addr:housenumber": "10",
                "addr:city": "Zagrody",
                "addr:postcode": "21-080",
                "amenity": "pharmacy"
            },
            "geometry": {
                "type": "Point",
                "coordinates": [
                    22.2955497712347,
                    51.36330178187653
                ]
            }
        },
        {
            "type": "Feature",
            "properties": {
                "ref:csioz": 1203293,
                "name": "Apteka Społeczna",
                "addr:street": "Fabryczna",
                "addr:housenumber": "6",
                "addr:city": "Bełżyce",
                "addr:postcode": "24-200",
                "amenity": "pharmacy"
            },
            "geometry": {
                "type": "Point",
                "coordinates": [
                    22.296368605588256,
                    51.17530447601367
                ]
            }
        },
        {
            "type": "Feature",
            "properties": {
                "ref:csioz": 1207236,
                "name": "Doz Apteka.Dbam O Zdrowie.Elwin",
                "addr:street": "Bychawska",
                "addr:housenumber": "22",
                "addr:city": "Bełżyce",
                "addr:postcode": "24-200",
                "amenity": "pharmacy"
            },
            "geometry": {
                "type": "Point",
                "coordinates": [
                    22.29546922165561,
                    51.17323445784907
                ]
            }
        }
    ]
}