{
    "type": "FeatureCollection",
    "name": "JPT_KOD_JE_0206",
    "features": [
        {
            "type": "Feature",
            "properties": {
                "ref:csioz": 1131424,
                "name": "-",
                "addr:street": "1 Maja",
                "addr:housenumber": "2a",
                "addr:city": "Kowary",
                "addr:postcode": "58-530",
                "amenity": "pharmacy"
            },
            "geometry": {
                "type": "Point",
                "coordinates": [
                    15.835666638145176,
                    50.79303819637262
                ]
            }
        },
        {
            "type": "Feature",
            "properties": {
                "ref:csioz": 1130994,
                "name": "-",
                "addr:street": "Dworcowa",
                "addr:housenumber": "10",
                "addr:city": "Kowary",
                "addr:postcode": "58-530",
                "amenity": "pharmacy"
            },
            "geometry": {
                "type": "Point",
                "coordinates": [
                    15.82681446925467,
                    50.79795380197875
                ]
            }
        },
        {
            "type": "Feature",
            "properties": {
                "ref:csioz": 1131003,
                "name": "-",
                "addr:street": "1 Maja",
                "addr:housenumber": "45",
                "addr:city": "Kowary",
                "addr:postcode": "58-530",
                "amenity": "pharmacy"
            },
            "geometry": {
                "type": "Point",
                "coordinates": [
                    15.832077981055095,
                    50.795850010003456
                ]
            }
        },
        {
            "type": "Feature",
            "properties": {
                "ref:csioz": 1131260,
                "name": "Podgórzyńska",
                "addr:street": "Żołnierska",
                "addr:housenumber": "14",
                "addr:city": "Podgórzyn",
                "addr:postcode": "58-562",
                "amenity": "pharmacy"
            },
            "geometry": {
                "type": "Point",
                "coordinates": [
                    15.679822161150183,
                    50.83464569608642
                ]
            }
        },
        {
            "type": "Feature",
            "properties": {
                "ref:csioz": 1131377,
                "name": "Esculap",
                "addr:street": "1 Maja",
                "addr:housenumber": "4",
                "addr:city": "Szklarska Poręba",
                "addr:postcode": "58-580",
                "amenity": "pharmacy"
            },
            "geometry": {
                "type": "Point",
                "coordinates": [
                    15.522570368163954,
                    50.82651172802006
                ]
            }
        },
        {
            "type": "Feature",
            "properties": {
                "ref:csioz": 1131419,
                "name": "Przy Fontannie",
                "addr:street": "1 Maja",
                "addr:housenumber": "8",
                "addr:city": "Kowary",
                "addr:postcode": "58-530",
                "amenity": "pharmacy"
            },
            "geometry": {
                "type": "Point",
                "coordinates": [
                    15.835019272436607,
                    50.7933035707849
                ]
            }
        },
        {
            "type": "Feature",
            "properties": {
                "ref:csioz": 1131462,
                "name": "Echinacea",
                "addr:street": "Długa",
                "addr:housenumber": "15A",
                "addr:city": "Jeżów Sudecki",
                "addr:postcode": "58-521",
                "amenity": "pharmacy"
            },
            "geometry": {
                "type": "Point",
                "coordinates": [
                    15.734610740103369,
                    50.923916988938196
                ]
            }
        },
        {
            "type": "Feature",
            "properties": {
                "ref:csioz": 1131764,
                "name": "Apteka Zabobrze - Mysłakowice",
                "addr:street": "Jeleniogórska",
                "addr:housenumber": "37",
                "addr:flats": "1",
                "addr:city": "Mysłakowice",
                "addr:postcode": "58-533",
                "amenity": "pharmacy"
            },
            "geometry": {
                "type": "Point",
                "coordinates": [
                    15.788930727844487,
                    50.835344993073306
                ]
            }
        },
        {
            "type": "Feature",
            "properties": {
                "ref:csioz": 1132067,
                "name": "\"Apteka \"\"Retro\"\"\"",
                "addr:street": "Mała",
                "addr:housenumber": "1",
                "addr:city": "Szklarska Poręba",
                "addr:postcode": "58-580",
                "amenity": "pharmacy"
            },
            "geometry": {
                "type": "Point",
                "coordinates": [
                    15.527404280955974,
                    50.824060072606024
                ]
            }
        },
        {
            "type": "Feature",
            "properties": {
                "ref:csioz": 1132190,
                "name": "Apteka Arnika",
                "addr:street": "Wojska Polskiego",
                "addr:housenumber": "2A",
                "addr:city": "Mysłakowice",
                "addr:postcode": "58-533",
                "amenity": "pharmacy"
            },
            "geometry": {
                "type": "Point",
                "coordinates": [
                    15.785886607815064,
                    50.838685646271024
                ]
            }
        },
        {
            "type": "Feature",
            "properties": {
                "ref:csioz": 1137666,
                "name": "Dział Farmacji Szpitalnej Niepubliczny Zakład Opieki Zdrowotnej Zgromadzenia Sióstr Św. Elżbiety",
                "addr:street": "Miłków",
                "addr:housenumber": "67",
                "addr:city": "Miłków",
                "addr:postcode": "58-535",
                "amenity": "pharmacy"
            },
            "geometry": {
                "type": "Point",
                "coordinates": [
                    15.762555999970555,
                    50.81010400001393
                ]
            }
        },
        {
            "type": "Feature",
            "properties": {
                "ref:csioz": 1197726,
                "name": "Apteka Zabobrze - Karpacz",
                "addr:street": "Konstytucji 3 Maja",
                "addr:housenumber": "71",
                "addr:city": "Karpacz",
                "addr:postcode": "58-540",
                "amenity": "pharmacy"
            },
            "geometry": {
                "type": "Point",
                "coordinates": [
                    15.747357902088124,
                    50.77425042080304
                ]
            }
        },
        {
            "type": "Feature",
            "properties": {
                "ref:csioz": 1131016,
                "name": "-",
                "addr:street": "Konstytucji 3 Maja",
                "addr:housenumber": "82",
                "addr:city": "Karpacz",
                "addr:postcode": "58-540",
                "amenity": "pharmacy"
            },
            "geometry": {
                "type": "Point",
                "coordinates": [
                    15.743148120449433,
                    50.77631653567642
                ]
            }
        },
        {
            "type": "Feature",
            "properties": {
                "ref:csioz": 1131088,
                "name": "Apteka Krokus",
                "addr:street": "Jedności Narodowej",
                "addr:housenumber": "7",
                "addr:city": "Szklarska Poręba",
                "addr:postcode": "58-580",
                "amenity": "pharmacy"
            },
            "geometry": {
                "type": "Point",
                "coordinates": [
                    15.518776775125106,
                    50.8289469516296
                ]
            }
        },
        {
            "type": "Feature",
            "properties": {
                "ref:csioz": 1131146,
                "name": "Apteka Arnika",
                "addr:street": "Lipowa",
                "addr:housenumber": "1",
                "addr:city": "Piechowice",
                "addr:postcode": "58-573",
                "amenity": "pharmacy"
            },
            "geometry": {
                "type": "Point",
                "coordinates": [
                    15.593235449106135,
                    50.84952791372925
                ]
            }
        },
        {
            "type": "Feature",
            "properties": {
                "ref:csioz": 1134758,
                "name": "Izerskie Centrum Pulmonologii I Chemioterapii Szpital",
                "addr:street": "Sanatoryjna",
                "addr:housenumber": "1",
                "addr:city": "Szklarska Poręba",
                "addr:postcode": "58-580",
                "amenity": "pharmacy"
            },
            "geometry": {
                "type": "Point",
                "coordinates": [
                    15.54859449656646,
                    50.8473773284414
                ]
            }
        },
        {
            "type": "Feature",
            "properties": {
                "ref:csioz": 1156182,
                "addr:housenumber": "63",
                "addr:city": "Sosnówka",
                "addr:postcode": "21-518",
                "amenity": "pharmacy"
            },
            "geometry": {
                "type": "Point",
                "coordinates": [
                    15.718757336591834,
                    50.81047202888568
                ]
            }
        },
        {
            "type": "Feature",
            "properties": {
                "ref:csioz": 1161221,
                "name": "Centrum Medyczne Karpacz Spółka Akcyjna Szpital",
                "addr:street": "Myśliwska",
                "addr:housenumber": "13",
                "addr:city": "Karpacz",
                "addr:postcode": "58-540",
                "amenity": "pharmacy"
            },
            "geometry": {
                "type": "Point",
                "coordinates": [
                    15.741000632935087,
                    50.781275601920505
                ]
            }
        },
        {
            "type": "Feature",
            "properties": {
                "ref:csioz": 1217795,
                "name": "Kowarska Biedronka",
                "addr:street": "ul. 1 Maja",
                "addr:housenumber": "31",
                "addr:city": "Kowary",
                "addr:postcode": "58-530",
                "amenity": "pharmacy"
            },
            "geometry": {
                "type": "Point",
                "coordinates": [
                    15.833752205728556,
                    50.794654923125854
                ]
            }
        },
        {
            "type": "Feature",
            "properties": {
                "ref:csioz": 1161237,
                "name": "\"Szpital \"\"Bukowiec\"\" W Kowarach\"",
                "addr:street": "Sanatoryjna",
                "addr:housenumber": "15",
                "addr:city": "Kowary",
                "addr:postcode": "58-530",
                "amenity": "pharmacy"
            },
            "geometry": {
                "type": "Point",
                "coordinates": [
                    15.838550446619976,
                    50.80913436365641
                ]
            }
        },
        {
            "type": "Feature",
            "properties": {
                "ref:csioz": 1201482,
                "name": "Dr. Max",
                "addr:street": "Konstytucji 3 Maja",
                "addr:housenumber": "45",
                "addr:city": "Karpacz",
                "addr:postcode": "58-540",
                "amenity": "pharmacy"
            },
            "geometry": {
                "type": "Point",
                "coordinates": [
                    15.755098003509051,
                    50.775030388052215
                ]
            }
        },
        {
            "type": "Feature",
            "properties": {
                "ref:csioz": 1131239,
                "name": "\"\"\"Nad Kamienną\"\"\"",
                "addr:street": "Kryształowa",
                "addr:housenumber": "66",
                "addr:city": "Piechowice",
                "addr:postcode": "58-573",
                "amenity": "pharmacy"
            },
            "geometry": {
                "type": "Point",
                "coordinates": [
                    15.591105842202307,
                    50.84962743300236
                ]
            }
        },
        {
            "type": "Feature",
            "properties": {
                "ref:csioz": 1130947,
                "name": "-",
                "addr:street": "1 Maja",
                "addr:housenumber": "25",
                "addr:city": "Janowice Wielkie",
                "addr:postcode": "58-520",
                "amenity": "pharmacy"
            },
            "geometry": {
                "type": "Point",
                "coordinates": [
                    15.92079968313396,
                    50.87452588288538
                ]
            }
        },
        {
            "type": "Feature",
            "properties": {
                "ref:csioz": 1229211,
                "name": "Dział Farmacji Szpitalnej W Szpitalu Rehabilitacyjnym W Janowicach Wielkich",
                "addr:street": "Sudecka",
                "addr:housenumber": "15",
                "addr:city": "Janowice Wielkie",
                "addr:postcode": "58-520",
                "amenity": "pharmacy"
            },
            "geometry": {
                "type": "Point",
                "coordinates": [
                    15.927895057347518,
                    50.89193635292941
                ]
            }
        },
        {
            "type": "Feature",
            "properties": {
                "ref:csioz": 1175498,
                "name": "\"Apteka \"\"Jemioła\"\"\"",
                "addr:street": "Wojska Polskiego",
                "addr:housenumber": "2",
                "addr:flats": "F",
                "addr:city": "Janowice Wielkie",
                "addr:postcode": "58-520",
                "amenity": "pharmacy"
            },
            "geometry": {
                "type": "Point",
                "coordinates": [
                    15.919311691336823,
                    50.874892550419325
                ]
            }
        }
    ]
}