{
    "type": "FeatureCollection",
    "name": "JPT_KOD_JE_2815",
    "features": [
        {
            "type": "Feature",
            "properties": {
                "ref:csioz": 1187418,
                "name": "Apteka Nowa",
                "addr:street": "Kościuszki",
                "addr:housenumber": "9B",
                "addr:city": "Dąbrówno",
                "addr:postcode": "14-120",
                "amenity": "pharmacy"
            },
            "geometry": {
                "type": "Point",
                "coordinates": [
                    20.036587801763588,
                    53.432159141451265
                ]
            }
        },
        {
            "type": "Feature",
            "properties": {
                "ref:csioz": 1201612,
                "name": "\"Apteka \"\"Eliksir\"\" J. Kaźmierska & Wspólnicy Spółka Jawna\"",
                "addr:street": "Kościuszki",
                "addr:housenumber": "1",
                "addr:city": "Dąbrówno",
                "addr:postcode": "14-120",
                "amenity": "pharmacy"
            },
            "geometry": {
                "type": "Point",
                "coordinates": [
                    20.03520936849335,
                    53.43145391421695
                ]
            }
        },
        {
            "type": "Feature",
            "properties": {
                "ref:csioz": 1014703,
                "addr:street": "Generała Jana Henryka Dąbrowskiego",
                "addr:housenumber": "16",
                "addr:city": "Morąg",
                "addr:postcode": "14-300",
                "amenity": "pharmacy"
            },
            "geometry": {
                "type": "Point",
                "coordinates": [
                    19.923069312849965,
                    53.91525603485139
                ]
            }
        },
        {
            "type": "Feature",
            "properties": {
                "ref:csioz": 1014742,
                "addr:street": "Władysława Jagiełły",
                "addr:housenumber": "1",
                "addr:city": "OSTRÓDA",
                "addr:postcode": "14-100",
                "amenity": "pharmacy"
            },
            "geometry": {
                "type": "Point",
                "coordinates": [
                    19.97453987903632,
                    53.69317442582118
                ]
            }
        },
        {
            "type": "Feature",
            "properties": {
                "ref:csioz": 1040685,
                "name": "Salus",
                "addr:street": "Kopernika",
                "addr:housenumber": "7",
                "addr:city": "MAŁDYTY",
                "addr:postcode": "14-330",
                "amenity": "pharmacy"
            },
            "geometry": {
                "type": "Point",
                "coordinates": [
                    19.745316250921007,
                    53.919952008222886
                ]
            }
        },
        {
            "type": "Feature",
            "properties": {
                "ref:csioz": 1040699,
                "name": "Miejska",
                "addr:street": "Warszawska",
                "addr:housenumber": "5B",
                "addr:city": "Miłakowo",
                "addr:postcode": "14-310",
                "amenity": "pharmacy"
            },
            "geometry": {
                "type": "Point",
                "coordinates": [
                    20.07247203667152,
                    54.009958235493976
                ]
            }
        },
        {
            "type": "Feature",
            "properties": {
                "ref:csioz": 1040713,
                "name": "Błękitna",
                "addr:street": "Pasłęcka",
                "addr:housenumber": "3",
                "addr:city": "MIŁOMŁYN",
                "addr:postcode": "14-140",
                "amenity": "pharmacy"
            },
            "geometry": {
                "type": "Point",
                "coordinates": [
                    19.835025103603485,
                    53.76417684741879
                ]
            }
        },
        {
            "type": "Feature",
            "properties": {
                "ref:csioz": 1040721,
                "name": "Słoneczna",
                "addr:street": "CICHA",
                "addr:housenumber": "2",
                "addr:city": "MIŁOMŁYN",
                "addr:postcode": "14-140",
                "amenity": "pharmacy"
            },
            "geometry": {
                "type": "Point",
                "coordinates": [
                    19.84287081278262,
                    53.76087183171445
                ]
            }
        },
        {
            "type": "Feature",
            "properties": {
                "ref:csioz": 1040759,
                "name": "Medapteka",
                "addr:street": "Mickiewicza",
                "addr:housenumber": "12",
                "addr:city": "Morąg",
                "addr:postcode": "14-300",
                "amenity": "pharmacy"
            },
            "geometry": {
                "type": "Point",
                "coordinates": [
                    19.925259197781767,
                    53.915023166490585
                ]
            }
        },
        {
            "type": "Feature",
            "properties": {
                "ref:csioz": 1040768,
                "name": "Miejska",
                "addr:street": "Warmińska",
                "addr:housenumber": "23",
                "addr:city": "Morąg",
                "addr:postcode": "14-300",
                "amenity": "pharmacy"
            },
            "geometry": {
                "type": "Point",
                "coordinates": [
                    19.932248331836856,
                    53.91568929869817
                ]
            }
        },
        {
            "type": "Feature",
            "properties": {
                "ref:csioz": 1040893,
                "name": "Błękitna",
                "addr:street": "Czarnieckiego",
                "addr:housenumber": "15/II",
                "addr:city": "OSTRÓDA",
                "addr:postcode": "14-100",
                "amenity": "pharmacy"
            },
            "geometry": {
                "type": "Point",
                "coordinates": [
                    19.961753000000467,
                    53.69875100001823
                ]
            }
        },
        {
            "type": "Feature",
            "properties": {
                "ref:csioz": 1192824,
                "name": "Apteka Społeczna Na Czarnieckiego Grupa Nowa Farmacja",
                "addr:street": "Stefana Czarnieckiego",
                "addr:housenumber": "32",
                "addr:city": "Ostróda",
                "addr:postcode": "14-100",
                "amenity": "pharmacy"
            },
            "geometry": {
                "type": "Point",
                "coordinates": [
                    19.96626367151776,
                    53.69308108238178
                ]
            }
        },
        {
            "type": "Feature",
            "properties": {
                "ref:csioz": 1204735,
                "name": "Apteka Meritum",
                "addr:street": "Warszawska",
                "addr:housenumber": "17A",
                "addr:city": "Łukta",
                "addr:postcode": "14-105",
                "amenity": "pharmacy"
            },
            "geometry": {
                "type": "Point",
                "coordinates": [
                    20.088893741500993,
                    53.803541396491454
                ]
            }
        },
        {
            "type": "Feature",
            "properties": {
                "ref:csioz": 1219261,
                "name": "Apteka Gemini",
                "addr:street": "Wojska Polskiego",
                "addr:housenumber": "5",
                "addr:city": "Ostróda",
                "addr:postcode": "14-100",
                "amenity": "pharmacy"
            },
            "geometry": {
                "type": "Point",
                "coordinates": [
                    19.9631170286948,
                    53.69385690926944
                ]
            }
        },
        {
            "type": "Feature",
            "properties": {
                "ref:csioz": 1223322,
                "name": "Doz Apteka Dbam O Zdrowie",
                "addr:street": "Wojska Polskiego",
                "addr:housenumber": "12",
                "addr:city": "Ostróda",
                "addr:postcode": "14-100",
                "amenity": "pharmacy"
            },
            "geometry": {
                "type": "Point",
                "coordinates": [
                    19.963964281870933,
                    53.69358587355236
                ]
            }
        },
        {
            "type": "Feature",
            "properties": {
                "ref:csioz": 1230788,
                "name": "Zdrowie I Uroda",
                "addr:housenumber": "7",
                "addr:postcode": "88-231",
                "amenity": "pharmacy",
                "addr:place": "Nowy Dwór"
            },
            "geometry": {
                "type": "Point",
                "coordinates": [
                    19.888721796355956,
                    53.93390512861574
                ]
            }
        },
        {
            "type": "Feature",
            "properties": {
                "ref:csioz": 1040792,
                "name": "Pod Dębem",
                "addr:street": "Mickiewicza",
                "addr:housenumber": "19",
                "addr:city": "MORĄG",
                "addr:postcode": "14-300",
                "amenity": "pharmacy"
            },
            "geometry": {
                "type": "Point",
                "coordinates": [
                    19.928598700563786,
                    53.91369836701513
                ]
            }
        },
        {
            "type": "Feature",
            "properties": {
                "ref:csioz": 1040776,
                "name": "Miejska",
                "addr:street": "Mickiewicza",
                "addr:housenumber": "42A",
                "addr:city": "Morąg",
                "addr:postcode": "14-300",
                "amenity": "pharmacy"
            },
            "geometry": {
                "type": "Point",
                "coordinates": [
                    19.93514568533788,
                    53.91089013439457
                ]
            }
        },
        {
            "type": "Feature",
            "properties": {
                "ref:csioz": 1040807,
                "name": "Apteka W Centrum",
                "addr:street": "Dąbrowskiego",
                "addr:housenumber": "7",
                "addr:city": "MORĄG",
                "addr:postcode": "14-300",
                "amenity": "pharmacy"
            },
            "geometry": {
                "type": "Point",
                "coordinates": [
                    19.924544670277065,
                    53.9132043743889
                ]
            }
        },
        {
            "type": "Feature",
            "properties": {
                "ref:csioz": 1040908,
                "name": "Centrum",
                "addr:street": "Czarnieckiego",
                "addr:housenumber": "21",
                "addr:city": "OSTRÓDA",
                "addr:postcode": "14-100",
                "amenity": "pharmacy"
            },
            "geometry": {
                "type": "Point",
                "coordinates": [
                    19.963637881190287,
                    53.69721305928664
                ]
            }
        },
        {
            "type": "Feature",
            "properties": {
                "ref:csioz": 1040919,
                "name": "Dr. Max",
                "addr:street": "Bolesława Chrobrego",
                "addr:housenumber": "2",
                "addr:city": "Ostróda",
                "addr:postcode": "14-100",
                "amenity": "pharmacy"
            },
            "geometry": {
                "type": "Point",
                "coordinates": [
                    19.968371141534732,
                    53.69167405909624
                ]
            }
        },
        {
            "type": "Feature",
            "properties": {
                "ref:csioz": 1040924,
                "name": "Apteka Dbam O Zdrowie",
                "addr:street": "Czarnieckiego",
                "addr:housenumber": "32",
                "addr:city": "OSTRÓDA",
                "addr:postcode": "14-100",
                "amenity": "pharmacy"
            },
            "geometry": {
                "type": "Point",
                "coordinates": [
                    19.96626367151776,
                    53.69308108238178
                ]
            }
        },
        {
            "type": "Feature",
            "properties": {
                "ref:csioz": 1040943,
                "name": "Doz Apteka. Dbam O Zdrowie. Panaceum",
                "addr:street": "Grunwaldzka",
                "addr:housenumber": "16",
                "addr:city": "OSTRÓDA",
                "addr:postcode": "14-100",
                "amenity": "pharmacy"
            },
            "geometry": {
                "type": "Point",
                "coordinates": [
                    19.968457987213,
                    53.697509603229875
                ]
            }
        },
        {
            "type": "Feature",
            "properties": {
                "ref:csioz": 1040970,
                "name": "Apteka Zamkowa",
                "addr:street": "Zamkowa",
                "addr:housenumber": "2",
                "addr:city": "OSTRÓDA",
                "addr:postcode": "14-100",
                "amenity": "pharmacy"
            },
            "geometry": {
                "type": "Point",
                "coordinates": [
                    19.961351969319253,
                    53.702961473562816
                ]
            }
        },
        {
            "type": "Feature",
            "properties": {
                "ref:csioz": 1040997,
                "addr:street": "Tadeusza Kościuszki",
                "addr:housenumber": "2",
                "addr:city": "Ostróda",
                "addr:postcode": "14-100",
                "amenity": "pharmacy"
            },
            "geometry": {
                "type": "Point",
                "coordinates": [
                    19.963276431391957,
                    53.696697081184645
                ]
            }
        },
        {
            "type": "Feature",
            "properties": {
                "ref:csioz": 1041000,
                "addr:street": "Tysiąclecia",
                "addr:housenumber": "6",
                "addr:city": "OSTRÓDA",
                "addr:postcode": "14-100",
                "amenity": "pharmacy"
            },
            "geometry": {
                "type": "Point",
                "coordinates": [
                    19.96258805077025,
                    53.70257563699332
                ]
            }
        },
        {
            "type": "Feature",
            "properties": {
                "ref:csioz": 1119362,
                "name": "Apteka Meritum",
                "addr:street": "Zygmunta Wrólewskiego",
                "addr:housenumber": "1A",
                "addr:city": "MORĄG",
                "addr:postcode": "14-300",
                "amenity": "pharmacy"
            },
            "geometry": {
                "type": "Point",
                "coordinates": [
                    19.938379994341958,
                    53.90696088563718
                ]
            }
        },
        {
            "type": "Feature",
            "properties": {
                "ref:csioz": 1174058,
                "name": "Apteka Pharma - Land",
                "addr:street": "Jana III Sobieskiego",
                "addr:housenumber": "3B",
                "addr:city": "Ostróda",
                "addr:postcode": "14-100",
                "amenity": "pharmacy"
            },
            "geometry": {
                "type": "Point",
                "coordinates": [
                    19.96436954711973,
                    53.694345574279325
                ]
            }
        },
        {
            "type": "Feature",
            "properties": {
                "ref:csioz": 1180956,
                "name": "Dr. Max",
                "addr:street": "Piastowska",
                "addr:housenumber": "5",
                "addr:city": "Ostróda",
                "addr:postcode": "14-100",
                "amenity": "pharmacy"
            },
            "geometry": {
                "type": "Point",
                "coordinates": [
                    19.977323868722397,
                    53.691527328995875
                ]
            }
        },
        {
            "type": "Feature",
            "properties": {
                "ref:csioz": 1205643,
                "name": "Apteka Na Czarnieckiego Nowa Farmacja",
                "addr:street": "Stefana Czarnieckiego",
                "addr:housenumber": "1A",
                "addr:city": "Ostróda",
                "addr:postcode": "14-100",
                "amenity": "pharmacy"
            },
            "geometry": {
                "type": "Point",
                "coordinates": [
                    19.960243174002958,
                    53.70057666149214
                ]
            }
        },
        {
            "type": "Feature",
            "properties": {
                "ref:csioz": 1206947,
                "name": "Apteka Miejska",
                "addr:street": "Mazurska",
                "addr:housenumber": "1",
                "addr:city": "Łukta",
                "addr:postcode": "14-105",
                "amenity": "pharmacy"
            },
            "geometry": {
                "type": "Point",
                "coordinates": [
                    20.10540914013022,
                    53.79898257553639
                ]
            }
        },
        {
            "type": "Feature",
            "properties": {
                "ref:csioz": 1207808,
                "name": "\"Apteka 'No.1'\"",
                "addr:street": "Pl. Jana Pawła II",
                "addr:housenumber": "3",
                "addr:city": "Morąg",
                "addr:postcode": "14-300",
                "amenity": "pharmacy"
            },
            "geometry": {
                "type": "Point",
                "coordinates": [
                    19.927772397599487,
                    53.91150535128256
                ]
            }
        },
        {
            "type": "Feature",
            "properties": {
                "ref:csioz": 1214233,
                "name": "Strumyk",
                "addr:housenumber": "37A",
                "addr:postcode": "14-100",
                "amenity": "pharmacy",
                "addr:place": "Samborowo"
            },
            "geometry": {
                "type": "Point",
                "coordinates": [
                    19.81329886258197,
                    53.66685940881846
                ]
            }
        },
        {
            "type": "Feature",
            "properties": {
                "ref:csioz": 1216695,
                "name": "Dr. Max",
                "addr:street": "Jana Pawła II",
                "addr:housenumber": "9",
                "addr:city": "Ostróda",
                "addr:postcode": "14-100",
                "amenity": "pharmacy"
            },
            "geometry": {
                "type": "Point",
                "coordinates": [
                    19.957931663073055,
                    53.698538019623435
                ]
            }
        },
        {
            "type": "Feature",
            "properties": {
                "ref:csioz": 1221890,
                "name": "Apteka Meritum",
                "addr:street": "Stefana Jaracza",
                "addr:housenumber": "21",
                "addr:city": "Ostróda",
                "addr:postcode": "14-100",
                "amenity": "pharmacy"
            },
            "geometry": {
                "type": "Point",
                "coordinates": [
                    19.941643359853984,
                    53.69433541011805
                ]
            }
        },
        {
            "type": "Feature",
            "properties": {
                "ref:csioz": 1227130,
                "addr:housenumber": "57",
                "addr:postcode": "14-107",
                "amenity": "pharmacy",
                "addr:place": "Gierzwałd"
            },
            "geometry": {
                "type": "Point",
                "coordinates": [
                    20.084886975711516,
                    53.54022948156812
                ]
            }
        },
        {
            "type": "Feature",
            "properties": {
                "ref:csioz": 1192728,
                "name": "\"Apteka \"\"Ania\"\"\"",
                "addr:street": "Mickiewicza",
                "addr:housenumber": "38C",
                "addr:city": "Morąg",
                "addr:postcode": "14-300",
                "amenity": "pharmacy"
            },
            "geometry": {
                "type": "Point",
                "coordinates": [
                    19.933536615986466,
                    53.911309463285015
                ]
            }
        }
    ]
}