{
    "type": "FeatureCollection",
    "name": "JPT_KOD_JE_0221",
    "features": [
        {
            "type": "Feature",
            "properties": {
                "ref:csioz": 1134259,
                "name": "Flos",
                "addr:street": "Grunwaldzka",
                "addr:housenumber": "7",
                "addr:city": "Głuszyca",
                "addr:postcode": "58-340",
                "amenity": "pharmacy",
                "dispensing": "yes"
            },
            "geometry": {
                "type": "Point",
                "coordinates": [
                    16.371957010651084,
                    50.6864226179724
                ]
            }
        },
        {
            "type": "Feature",
            "properties": {
                "ref:csioz": 1134292,
                "name": "Gorce",
                "addr:street": "Grunwaldzka",
                "addr:housenumber": "3",
                "addr:city": "Boguszów Gorce",
                "addr:postcode": "58-371",
                "amenity": "pharmacy",
                "dispensing": "yes"
            },
            "geometry": {
                "type": "Point",
                "coordinates": [
                    16.16878199998476,
                    50.764656000013694
                ]
            }
        },
        {
            "type": "Feature",
            "properties": {
                "ref:csioz": 1134414,
                "name": "Apteka Magnolia",
                "addr:street": "Piastowska",
                "addr:housenumber": "1",
                "addr:city": "Jedlina Zdrój",
                "addr:postcode": "58-330",
                "amenity": "pharmacy",
                "dispensing": "yes"
            },
            "geometry": {
                "type": "Point",
                "coordinates": [
                    16.347631999988845,
                    50.720271000013604
                ]
            }
        },
        {
            "type": "Feature",
            "properties": {
                "ref:csioz": 1135667,
                "name": "\"'Sanatoria Dolnośląskie ' Sp. Z O.O.\"",
                "addr:street": "Parkowa",
                "addr:housenumber": "3",
                "addr:city": "Sokołowsko",
                "addr:postcode": "58-351",
                "amenity": "pharmacy",
                "dispensing": "yes"
            },
            "geometry": {
                "type": "Point",
                "coordinates": [
                    16.236194465428966,
                    50.68495374240096
                ]
            }
        },
        {
            "type": "Feature",
            "properties": {
                "ref:csioz": 1160540,
                "name": "Słoneczna",
                "addr:street": "Marii Konopnickiej",
                "addr:housenumber": "2",
                "addr:city": "Walim",
                "addr:postcode": "58-320",
                "amenity": "pharmacy",
                "dispensing": "yes"
            },
            "geometry": {
                "type": "Point",
                "coordinates": [
                    16.440161013838054,
                    50.6999461691168
                ]
            }
        },
        {
            "type": "Feature",
            "properties": {
                "ref:csioz": 1178731,
                "name": "\"Szpital Uzdrowiskowy Z Oddziałem Sanatoryjnym Nr 1 \"\"Dom Zdrojowy\"\"\"",
                "addr:street": "Kolejowa",
                "addr:housenumber": "14",
                "addr:city": "Szczawno-Zdrój",
                "addr:postcode": "58-310",
                "amenity": "pharmacy",
                "dispensing": "yes"
            },
            "geometry": {
                "type": "Point",
                "coordinates": [
                    16.252803325223578,
                    50.803773029704665
                ]
            }
        },
        {
            "type": "Feature",
            "properties": {
                "ref:csioz": 1196040,
                "name": "Apteka Farmi",
                "addr:street": "Grunwaldzka",
                "addr:housenumber": "16",
                "addr:city": "Głuszyca",
                "addr:postcode": "58-340",
                "amenity": "pharmacy",
                "dispensing": "yes"
            },
            "geometry": {
                "type": "Point",
                "coordinates": [
                    16.373107171969774,
                    50.68485581734751
                ]
            }
        },
        {
            "type": "Feature",
            "properties": {
                "ref:csioz": 1201924,
                "name": "Apteka Pod Aloesem",
                "addr:street": "Równoległa",
                "addr:housenumber": "3A",
                "addr:city": "Szczawno-Zdrój",
                "addr:postcode": "58-310",
                "amenity": "pharmacy",
                "dispensing": "yes"
            },
            "geometry": {
                "type": "Point",
                "coordinates": [
                    16.251887794678346,
                    50.8005000436346
                ]
            }
        },
        {
            "type": "Feature",
            "properties": {
                "ref:csioz": 1203577,
                "name": "\"Niepubliczny Zakład Opiekuńczo-Leczniczy O Profilu Psychogeriatrycznym \"\"Inter-Med\"\" Filia W Mieroszowie\"",
                "addr:street": "Szpitalna",
                "addr:housenumber": "1",
                "addr:city": "Mieroszów",
                "addr:postcode": "58-350",
                "amenity": "pharmacy",
                "dispensing": "yes"
            },
            "geometry": {
                "type": "Point",
                "coordinates": [
                    16.18690156296046,
                    50.6574335251869
                ]
            }
        },
        {
            "type": "Feature",
            "properties": {
                "ref:csioz": 1207155,
                "name": "Apteka Na Dobre I Na Złe",
                "addr:street": "Strażacka",
                "addr:housenumber": "40",
                "addr:city": "Boguszów-Gorce",
                "addr:postcode": "58-370",
                "amenity": "pharmacy",
                "dispensing": "yes"
            },
            "geometry": {
                "type": "Point",
                "coordinates": [
                    16.20554720536617,
                    50.756251689313714
                ]
            }
        },
        {
            "type": "Feature",
            "properties": {
                "ref:csioz": 1134079,
                "addr:street": "Józefa Łączyńskiego",
                "addr:housenumber": "44",
                "addr:city": "Szczawno-Zdrój",
                "addr:postcode": "58-310",
                "amenity": "pharmacy",
                "dispensing": "yes"
            },
            "geometry": {
                "type": "Point",
                "coordinates": [
                    16.269805802808705,
                    50.81523694451175
                ]
            }
        },
        {
            "type": "Feature",
            "properties": {
                "ref:csioz": 1134326,
                "name": "Apteka Farmakon",
                "addr:street": "Mickiewicza",
                "addr:housenumber": "32",
                "addr:city": "Mieroszów",
                "addr:postcode": "58-350",
                "amenity": "pharmacy",
                "dispensing": "yes"
            },
            "geometry": {
                "type": "Point",
                "coordinates": [
                    16.186496715989517,
                    50.66633705842255
                ]
            }
        },
        {
            "type": "Feature",
            "properties": {
                "ref:csioz": 1136188,
                "name": "Apteka Stara",
                "addr:street": "Grunwaldzka",
                "addr:housenumber": "23",
                "addr:city": "Głuszyca",
                "addr:postcode": "58-340",
                "amenity": "pharmacy",
                "dispensing": "yes"
            },
            "geometry": {
                "type": "Point",
                "coordinates": [
                    16.37338161227312,
                    50.68498183429256
                ]
            }
        },
        {
            "type": "Feature",
            "properties": {
                "ref:csioz": 1137398,
                "name": "Zakład Lecznictwa Odwykowego Dla Osób Uzależnionych Od Alkoholu",
                "addr:street": "Parkowa",
                "addr:housenumber": "8",
                "addr:city": "Czarny Bór",
                "addr:postcode": "58-379",
                "amenity": "pharmacy",
                "dispensing": "yes"
            },
            "geometry": {
                "type": "Point",
                "coordinates": [
                    16.132846439153568,
                    50.77525698433533
                ]
            }
        },
        {
            "type": "Feature",
            "properties": {
                "ref:csioz": 1159946,
                "name": "Antyczna",
                "addr:street": "Władysława Stanisława Reymonta",
                "addr:housenumber": "23",
                "addr:city": "Boguszów Gorce",
                "addr:postcode": "58-360",
                "amenity": "pharmacy",
                "dispensing": "yes"
            },
            "geometry": {
                "type": "Point",
                "coordinates": [
                    16.227917999986214,
                    50.74952100001366
                ]
            }
        },
        {
            "type": "Feature",
            "properties": {
                "ref:csioz": 1160110,
                "name": "Farmakon",
                "addr:street": "Piastowska",
                "addr:housenumber": "38",
                "addr:city": "Jedlina Zdrój",
                "addr:postcode": "58-330",
                "amenity": "pharmacy",
                "dispensing": "yes"
            },
            "geometry": {
                "type": "Point",
                "coordinates": [
                    16.348554999988874,
                    50.724654000013594
                ]
            }
        },
        {
            "type": "Feature",
            "properties": {
                "ref:csioz": 1159951,
                "name": "Pod Orłem",
                "addr:street": "Odrodzenia",
                "addr:housenumber": "12",
                "addr:city": "Boguszów Gorce",
                "addr:postcode": "58-370",
                "amenity": "pharmacy",
                "dispensing": "yes"
            },
            "geometry": {
                "type": "Point",
                "coordinates": [
                    16.20415399998564,
                    50.756855000013665
                ]
            }
        },
        {
            "type": "Feature",
            "properties": {
                "ref:csioz": 1160421,
                "name": "Pod Lwami",
                "addr:street": "Tadeusza Kościuszki",
                "addr:housenumber": "15",
                "addr:city": "Szczawno-Zdrój",
                "addr:postcode": "58-310",
                "amenity": "pharmacy",
                "dispensing": "yes"
            },
            "geometry": {
                "type": "Point",
                "coordinates": [
                    16.250707205663996,
                    50.80518259509187
                ]
            }
        },
        {
            "type": "Feature",
            "properties": {
                "ref:csioz": 1210907,
                "name": "Apteka Farmakon",
                "addr:street": "ul. Sienkiewicza",
                "addr:housenumber": "59a",
                "addr:city": "Głuszyca",
                "addr:postcode": "58-340",
                "amenity": "pharmacy",
                "dispensing": "yes"
            },
            "geometry": {
                "type": "Point",
                "coordinates": [
                    16.368593379740364,
                    50.695740357007075
                ]
            }
        },
        {
            "type": "Feature",
            "properties": {
                "ref:csioz": 1218490,
                "name": "Apteka Przy Przychodni",
                "addr:street": "Romualda Traugutta",
                "addr:housenumber": "6b",
                "addr:city": "Boguszów-Gorce",
                "addr:postcode": "58-371",
                "amenity": "pharmacy",
                "dispensing": "yes"
            },
            "geometry": {
                "type": "Point",
                "coordinates": [
                    16.16934958979238,
                    50.764177610720054
                ]
            }
        },
        {
            "type": "Feature",
            "properties": {
                "ref:csioz": 1219702,
                "name": "Apteka Silesia 9",
                "addr:street": "Równoległa",
                "addr:housenumber": "3B",
                "addr:city": "Szczawno-Zdrój",
                "addr:postcode": "58-310",
                "amenity": "pharmacy",
                "dispensing": "yes"
            },
            "geometry": {
                "type": "Point",
                "coordinates": [
                    16.251742699580202,
                    50.800327664590434
                ]
            }
        },
        {
            "type": "Feature",
            "properties": {
                "ref:csioz": 1226185,
                "name": "Domena Medica",
                "addr:street": "Główna",
                "addr:housenumber": "174",
                "addr:city": "Stare Bogaczowice",
                "addr:postcode": "58-312",
                "amenity": "pharmacy",
                "dispensing": "yes"
            },
            "geometry": {
                "type": "Point",
                "coordinates": [
                    16.1954936652553,
                    50.8483861564361
                ]
            }
        },
        {
            "type": "Feature",
            "properties": {
                "ref:csioz": 1226423,
                "name": "Domena Medica",
                "addr:street": "Kamiennogórska",
                "addr:housenumber": "22",
                "addr:city": "Czarny Bór",
                "addr:postcode": "58-379",
                "amenity": "pharmacy",
                "dispensing": "yes"
            },
            "geometry": {
                "type": "Point",
                "coordinates": [
                    16.128698496029298,
                    50.770836550245434
                ]
            }
        },
        {
            "type": "Feature",
            "properties": {
                "ref:csioz": 1171032,
                "name": "\"Niepubliczny Zakład Opiekuńczo-Leczniczy O Profilu Psychogeriatrycznym \"\" Inter-Med\"\"\"",
                "addr:street": "Główna",
                "addr:housenumber": "29",
                "addr:city": "Sokołowsko",
                "addr:postcode": "58-350",
                "amenity": "pharmacy",
                "dispensing": "yes"
            },
            "geometry": {
                "type": "Point",
                "coordinates": [
                    16.2224181957333,
                    50.6853394534217
                ]
            }
        },
        {
            "type": "Feature",
            "properties": {
                "ref:csioz": 1159967,
                "name": "Astra",
                "addr:street": "Główna",
                "addr:housenumber": "10",
                "addr:city": "Boguszów-Gorce",
                "addr:postcode": "58-370",
                "amenity": "pharmacy",
                "dispensing": "yes"
            },
            "geometry": {
                "type": "Point",
                "coordinates": [
                    16.2072393612165,
                    50.75693326884113
                ]
            }
        }
    ]
}