{
    "type": "FeatureCollection",
    "name": "JPT_KOD_JE_2063",
    "features": [
        {
            "type": "Feature",
            "properties": {
                "ref:csioz": 1016217,
                "addr:street": "Szpitalna",
                "addr:housenumber": "71",
                "addr:city": "Suwałki",
                "addr:postcode": "16-400",
                "amenity": "pharmacy"
            },
            "geometry": {
                "type": "Point",
                "coordinates": [
                    22.92302665229013,
                    54.12053748980776
                ]
            }
        },
        {
            "type": "Feature",
            "properties": {
                "ref:csioz": 1017226,
                "name": "Apteka Na Waryńskiego Nowa Farmacja",
                "addr:street": "1 Maja",
                "addr:housenumber": "21",
                "addr:city": "Suwałki",
                "addr:postcode": "16-400",
                "amenity": "pharmacy"
            },
            "geometry": {
                "type": "Point",
                "coordinates": [
                    22.93662489190761,
                    54.0989337112471
                ]
            }
        },
        {
            "type": "Feature",
            "properties": {
                "ref:csioz": 1017600,
                "addr:street": "Ludwika Waryńskiego",
                "addr:housenumber": "25",
                "addr:city": "Suwałki",
                "addr:postcode": "16-400",
                "amenity": "pharmacy"
            },
            "geometry": {
                "type": "Point",
                "coordinates": [
                    22.93693081971042,
                    54.099240560873184
                ]
            }
        },
        {
            "type": "Feature",
            "properties": {
                "ref:csioz": 1019173,
                "name": "Dr. Max",
                "addr:street": "Tadeusza Kościuszki",
                "addr:housenumber": "103",
                "addr:city": "Suwałki",
                "addr:postcode": "16-400",
                "amenity": "pharmacy"
            },
            "geometry": {
                "type": "Point",
                "coordinates": [
                    22.927063291107807,
                    54.10853263174478
                ]
            }
        },
        {
            "type": "Feature",
            "properties": {
                "ref:csioz": 1019581,
                "name": "Apteka Dbam O Zdrowie",
                "addr:street": "Alfreda Wierusza-Kowalskiego",
                "addr:housenumber": "2",
                "addr:city": "Suwałki",
                "addr:postcode": "16-400",
                "amenity": "pharmacy"
            },
            "geometry": {
                "type": "Point",
                "coordinates": [
                    22.943152537884945,
                    54.12554668316125
                ]
            }
        },
        {
            "type": "Feature",
            "properties": {
                "ref:csioz": 1021082,
                "name": "Apteka Im. Św.Kosmy I Damiana Gustaw Orłowski",
                "addr:street": "Wawrzyńca Gałaja",
                "addr:housenumber": "4",
                "addr:city": "Suwałki",
                "addr:postcode": "16-400",
                "amenity": "pharmacy"
            },
            "geometry": {
                "type": "Point",
                "coordinates": [
                    22.924759215873088,
                    54.099535742815355
                ]
            }
        },
        {
            "type": "Feature",
            "properties": {
                "ref:csioz": 1023974,
                "name": "Doz Apteka. Dbam O Zdrowie Im. Św. Kingi",
                "addr:street": "Nowomiejska",
                "addr:housenumber": "4",
                "addr:city": "Suwałki",
                "addr:postcode": "16-400",
                "amenity": "pharmacy"
            },
            "geometry": {
                "type": "Point",
                "coordinates": [
                    22.941505072454937,
                    54.11503938125694
                ]
            }
        },
        {
            "type": "Feature",
            "properties": {
                "ref:csioz": 1025029,
                "addr:street": "Antoniego Patli",
                "addr:housenumber": "6",
                "addr:city": "Suwałki",
                "addr:postcode": "16-400",
                "amenity": "pharmacy"
            },
            "geometry": {
                "type": "Point",
                "coordinates": [
                    22.933541625373593,
                    54.11873269226028
                ]
            }
        },
        {
            "type": "Feature",
            "properties": {
                "ref:csioz": 1025041,
                "addr:street": "Emilii Plater",
                "addr:housenumber": "45",
                "addr:city": "Suwałki",
                "addr:postcode": "16-400",
                "amenity": "pharmacy"
            },
            "geometry": {
                "type": "Point",
                "coordinates": [
                    22.9244333917653,
                    54.10596483728969
                ]
            }
        },
        {
            "type": "Feature",
            "properties": {
                "ref:csioz": 1025064,
                "addr:street": "Utrata",
                "addr:housenumber": "2B",
                "addr:city": "Suwałki",
                "addr:postcode": "16-400",
                "amenity": "pharmacy"
            },
            "geometry": {
                "type": "Point",
                "coordinates": [
                    22.936728161028924,
                    54.10423485278591
                ]
            }
        },
        {
            "type": "Feature",
            "properties": {
                "ref:csioz": 1025086,
                "name": "Pod Złotym Lwem",
                "addr:street": "Ludwika Waryńskiego",
                "addr:housenumber": "19",
                "addr:city": "Suwałki",
                "addr:postcode": "16-400",
                "amenity": "pharmacy"
            },
            "geometry": {
                "type": "Point",
                "coordinates": [
                    22.933455223417468,
                    54.09912549999095
                ]
            }
        },
        {
            "type": "Feature",
            "properties": {
                "ref:csioz": 1025873,
                "addr:street": "Szpitalna",
                "addr:housenumber": "62",
                "addr:city": "Suwałki",
                "addr:postcode": "16-400",
                "amenity": "pharmacy"
            },
            "geometry": {
                "type": "Point",
                "coordinates": [
                    22.92693193964197,
                    54.12073966887359
                ]
            }
        },
        {
            "type": "Feature",
            "properties": {
                "ref:csioz": 1110730,
                "name": "Apteka Z Różą",
                "addr:street": "Klonowa",
                "addr:housenumber": "40",
                "addr:city": "Suwałki",
                "addr:postcode": "16-400",
                "amenity": "pharmacy"
            },
            "geometry": {
                "type": "Point",
                "coordinates": [
                    22.947114072989837,
                    54.1149432870336
                ]
            }
        },
        {
            "type": "Feature",
            "properties": {
                "ref:csioz": 1111171,
                "addr:street": "Ludwika Waryńskiego",
                "addr:housenumber": "22A",
                "addr:city": "Suwałki",
                "addr:postcode": "16-400",
                "amenity": "pharmacy"
            },
            "geometry": {
                "type": "Point",
                "coordinates": [
                    22.939515404297996,
                    54.098839037736255
                ]
            }
        },
        {
            "type": "Feature",
            "properties": {
                "ref:csioz": 1016884,
                "name": "\"Apteki \"\"Arnika\"\"\"",
                "addr:street": "Nowomiejska",
                "addr:housenumber": "15",
                "addr:city": "Suwałki",
                "addr:postcode": "16-400",
                "amenity": "pharmacy"
            },
            "geometry": {
                "type": "Point",
                "coordinates": [
                    22.94012077525235,
                    54.11959320760985
                ]
            }
        },
        {
            "type": "Feature",
            "properties": {
                "ref:csioz": 1019292,
                "name": "\"Apteka Na Noniewicza Nowa Farmacja, Arkadia\"",
                "addr:street": "Teofila Noniewicza",
                "addr:housenumber": "42A",
                "addr:city": "Suwałki",
                "addr:postcode": "16-400",
                "amenity": "pharmacy"
            },
            "geometry": {
                "type": "Point",
                "coordinates": [
                    22.932877565694447,
                    54.10372920759281
                ]
            }
        },
        {
            "type": "Feature",
            "properties": {
                "ref:csioz": 1019495,
                "name": "Apteka Dbam O Zdrowie",
                "addr:street": "Teofila Noniewicza",
                "addr:housenumber": "85D",
                "addr:city": "Suwałki",
                "addr:postcode": "16-400",
                "amenity": "pharmacy"
            },
            "geometry": {
                "type": "Point",
                "coordinates": [
                    22.931244534503236,
                    54.10374310347231
                ]
            }
        },
        {
            "type": "Feature",
            "properties": {
                "ref:csioz": 1021183,
                "name": "Doz Apteka Dbam O Zdrowie Homeopatyczna",
                "addr:street": "Wincentego Witosa",
                "addr:housenumber": "13",
                "addr:city": "Suwałki",
                "addr:postcode": "16-400",
                "amenity": "pharmacy"
            },
            "geometry": {
                "type": "Point",
                "coordinates": [
                    22.93387427857225,
                    54.11858036105464
                ]
            }
        },
        {
            "type": "Feature",
            "properties": {
                "ref:csioz": 1022845,
                "name": "\"Apteka Cef@Rm 36,6\"",
                "addr:street": "Emila Młynarskiego",
                "addr:housenumber": "9",
                "addr:city": "Suwałki",
                "addr:postcode": "16-400",
                "amenity": "pharmacy"
            },
            "geometry": {
                "type": "Point",
                "coordinates": [
                    22.945223773141134,
                    54.11917832727106
                ]
            }
        },
        {
            "type": "Feature",
            "properties": {
                "ref:csioz": 1022868,
                "name": "\"Apteka Cef@Rm 36,6\"",
                "addr:street": "Marii Konopnickiej",
                "addr:housenumber": "2",
                "addr:city": "Suwałki",
                "addr:postcode": "16-400",
                "amenity": "pharmacy"
            },
            "geometry": {
                "type": "Point",
                "coordinates": [
                    22.93405492624285,
                    54.099647517698415
                ]
            }
        },
        {
            "type": "Feature",
            "properties": {
                "ref:csioz": 1022903,
                "name": "\"Apteka Cef@Rm 36,6\"",
                "addr:street": "Teofila Noniewicza",
                "addr:housenumber": "48",
                "addr:city": "Suwałki",
                "addr:postcode": "16-400",
                "amenity": "pharmacy"
            },
            "geometry": {
                "type": "Point",
                "coordinates": [
                    22.93201195457317,
                    54.10580898415424
                ]
            }
        },
        {
            "type": "Feature",
            "properties": {
                "ref:csioz": 1023569,
                "addr:street": "Tadeusza Kościuszki",
                "addr:housenumber": "78",
                "addr:city": "Suwałki",
                "addr:postcode": "16-400",
                "amenity": "pharmacy"
            },
            "geometry": {
                "type": "Point",
                "coordinates": [
                    22.928462990995115,
                    54.101678014775054
                ]
            }
        },
        {
            "type": "Feature",
            "properties": {
                "ref:csioz": 1023591,
                "addr:street": "Aleksandra Putry",
                "addr:housenumber": "9",
                "addr:city": "Suwałki",
                "addr:postcode": "16-400",
                "amenity": "pharmacy"
            },
            "geometry": {
                "type": "Point",
                "coordinates": [
                    22.93523727001865,
                    54.12181313695791
                ]
            }
        },
        {
            "type": "Feature",
            "properties": {
                "ref:csioz": 1025007,
                "addr:street": "Alfreda Lityńskiego",
                "addr:housenumber": "10",
                "addr:city": "Suwałki",
                "addr:postcode": "16-400",
                "amenity": "pharmacy"
            },
            "geometry": {
                "type": "Point",
                "coordinates": [
                    22.93412348278321,
                    54.12354893009012
                ]
            }
        },
        {
            "type": "Feature",
            "properties": {
                "ref:csioz": 1110796,
                "name": "Apteka Ogólnodostępna",
                "addr:street": "Szpitalna",
                "addr:housenumber": "60",
                "addr:city": "Suwałki",
                "addr:postcode": "16-400",
                "amenity": "pharmacy"
            },
            "geometry": {
                "type": "Point",
                "coordinates": [
                    22.92481967050732,
                    54.118828052271226
                ]
            }
        },
        {
            "type": "Feature",
            "properties": {
                "ref:csioz": 1138799,
                "addr:street": "Szpitalna",
                "addr:housenumber": "60",
                "addr:city": "Suwałki",
                "addr:postcode": "16-400",
                "amenity": "pharmacy"
            },
            "geometry": {
                "type": "Point",
                "coordinates": [
                    22.92481967050732,
                    54.118828052271226
                ]
            }
        },
        {
            "type": "Feature",
            "properties": {
                "ref:csioz": 1176066,
                "addr:street": "Szpitalna",
                "addr:housenumber": "54",
                "addr:city": "Suwałki",
                "addr:postcode": "16-400",
                "amenity": "pharmacy"
            },
            "geometry": {
                "type": "Point",
                "coordinates": [
                    22.926402344887418,
                    54.117491983198754
                ]
            }
        },
        {
            "type": "Feature",
            "properties": {
                "ref:csioz": 1176799,
                "name": "Gemini",
                "addr:street": "Teofila Noniewicza",
                "addr:housenumber": "93A",
                "addr:city": "Suwałki",
                "addr:postcode": "16-400",
                "amenity": "pharmacy"
            },
            "geometry": {
                "type": "Point",
                "coordinates": [
                    22.931469223264017,
                    54.10503880301145
                ]
            }
        },
        {
            "type": "Feature",
            "properties": {
                "ref:csioz": 1190813,
                "name": "Brak Nazwy",
                "addr:street": "Szpitalna",
                "addr:housenumber": "60",
                "addr:city": "Suwałki",
                "addr:postcode": "16-400",
                "amenity": "pharmacy"
            },
            "geometry": {
                "type": "Point",
                "coordinates": [
                    22.92481967050732,
                    54.118828052271226
                ]
            }
        },
        {
            "type": "Feature",
            "properties": {
                "ref:csioz": 1200542,
                "name": "Apteka Anika",
                "addr:street": "gen. Józefa Dwernickiego",
                "addr:housenumber": "15",
                "addr:city": "Suwałki",
                "addr:postcode": "16-400",
                "amenity": "pharmacy"
            },
            "geometry": {
                "type": "Point",
                "coordinates": [
                    22.93357990890674,
                    54.10715402199244
                ]
            }
        },
        {
            "type": "Feature",
            "properties": {
                "ref:csioz": 1214458,
                "name": "Apteka Gemini",
                "addr:street": "1 Maja",
                "addr:housenumber": "6",
                "addr:city": "Suwałki",
                "addr:postcode": "16-400",
                "amenity": "pharmacy"
            },
            "geometry": {
                "type": "Point",
                "coordinates": [
                    22.935837217704634,
                    54.10114288820028
                ]
            }
        },
        {
            "type": "Feature",
            "properties": {
                "ref:csioz": 1221061,
                "name": "\"Apteka Na Krótkiej Nowa Farmacja, Arkadia Ii\"",
                "addr:street": "Krótka",
                "addr:housenumber": "4",
                "addr:city": "Suwałki",
                "addr:postcode": "16-400",
                "amenity": "pharmacy"
            },
            "geometry": {
                "type": "Point",
                "coordinates": [
                    22.932632812050702,
                    54.100190644216624
                ]
            }
        },
        {
            "type": "Feature",
            "properties": {
                "ref:csioz": 1224861,
                "addr:street": "Nowomiejska",
                "addr:housenumber": "15",
                "addr:city": "Suwałki",
                "addr:postcode": "16-400",
                "amenity": "pharmacy"
            },
            "geometry": {
                "type": "Point",
                "coordinates": [
                    22.94012077525235,
                    54.11959320760985
                ]
            }
        },
        {
            "type": "Feature",
            "properties": {
                "ref:csioz": 1021340,
                "name": "\"Apteka \"\"Natura\"\"\"",
                "addr:street": "Emilii Plater",
                "addr:housenumber": "20A",
                "addr:city": "Suwałki",
                "addr:postcode": "16-400",
                "amenity": "pharmacy"
            },
            "geometry": {
                "type": "Point",
                "coordinates": [
                    22.924983532949728,
                    54.103682645373304
                ]
            }
        }
    ]
}