{
    "type": "FeatureCollection",
    "name": "JPT_KOD_JE_0461",
    "features": [
        {
            "type": "Feature",
            "properties": {
                "ref:csioz": 1098725,
                "name": "Bajka",
                "addr:street": "Ewy Szelburg-Zarembiny",
                "addr:housenumber": "9",
                "addr:city": "Bydgoszcz",
                "addr:postcode": "85-792",
                "amenity": "pharmacy"
            },
            "geometry": {
                "type": "Point",
                "coordinates": [
                    18.151368039174606,
                    53.1469616532764
                ]
            }
        },
        {
            "type": "Feature",
            "properties": {
                "ref:csioz": 1098730,
                "name": "Vital",
                "addr:street": "Górskiego Ochotniczego Pogotowia Ratunkowego",
                "addr:housenumber": "20",
                "addr:city": "Bydgoszcz",
                "addr:postcode": "85-794",
                "amenity": "pharmacy"
            },
            "geometry": {
                "type": "Point",
                "coordinates": [
                    18.16141395629404,
                    53.156756227565545
                ]
            }
        },
        {
            "type": "Feature",
            "properties": {
                "ref:csioz": 1098749,
                "name": "Pod Złotą Koroną",
                "addr:street": "Gen. Franciszka Kleeberga",
                "addr:housenumber": "2",
                "addr:city": "Bydgoszcz",
                "addr:postcode": "85-791",
                "amenity": "pharmacy"
            },
            "geometry": {
                "type": "Point",
                "coordinates": [
                    18.144516747296528,
                    53.151874609878796
                ]
            }
        },
        {
            "type": "Feature",
            "properties": {
                "ref:csioz": 1098816,
                "name": "Pod Bławatkiem",
                "addr:street": "Nakielska",
                "addr:housenumber": "49",
                "addr:city": "Bydgoszcz",
                "addr:postcode": "85-219",
                "amenity": "pharmacy"
            },
            "geometry": {
                "type": "Point",
                "coordinates": [
                    17.975229230330932,
                    53.12625582493757
                ]
            }
        },
        {
            "type": "Feature",
            "properties": {
                "ref:csioz": 1098827,
                "name": "Apteka Żyj-Zdrowo.Com",
                "addr:street": "Józefa Sułkowskiego",
                "addr:housenumber": "48",
                "addr:city": "Bydgoszcz",
                "addr:postcode": "85-642",
                "amenity": "pharmacy"
            },
            "geometry": {
                "type": "Point",
                "coordinates": [
                    18.027745723838052,
                    53.138695478943745
                ]
            }
        },
        {
            "type": "Feature",
            "properties": {
                "ref:csioz": 1098834,
                "name": "Apteka Żyj-Zdrowo.Com",
                "addr:street": "Marii Curie Skłodowskiej",
                "addr:housenumber": "29",
                "addr:city": "Bydgoszcz",
                "addr:postcode": "85-088",
                "amenity": "pharmacy"
            },
            "geometry": {
                "type": "Point",
                "coordinates": [
                    18.044716825996247,
                    53.12692715413257
                ]
            }
        },
        {
            "type": "Feature",
            "properties": {
                "ref:csioz": 1098850,
                "name": "Doz Apteka. Dbam O Zdrowie. Leśna",
                "addr:street": "11 Listopada",
                "addr:housenumber": "15",
                "addr:city": "Bydgoszcz",
                "addr:postcode": "85-643",
                "amenity": "pharmacy"
            },
            "geometry": {
                "type": "Point",
                "coordinates": [
                    18.02679329824799,
                    53.14171962513484
                ]
            }
        },
        {
            "type": "Feature",
            "properties": {
                "ref:csioz": 1098875,
                "name": "Bohaterów",
                "addr:street": "Franciszka Witeckiego",
                "addr:housenumber": "1",
                "addr:city": "Bydgoszcz",
                "addr:postcode": "85-796",
                "amenity": "pharmacy"
            },
            "geometry": {
                "type": "Point",
                "coordinates": [
                    18.140221445469507,
                    53.14997384391438
                ]
            }
        },
        {
            "type": "Feature",
            "properties": {
                "ref:csioz": 1099504,
                "name": "Dr.Max",
                "addr:street": "Kruszwicka",
                "addr:housenumber": "1",
                "addr:city": "Bydgoszcz",
                "addr:postcode": "85-213",
                "amenity": "pharmacy"
            },
            "geometry": {
                "type": "Point",
                "coordinates": [
                    17.984693948240977,
                    53.12404962352699
                ]
            }
        },
        {
            "type": "Feature",
            "properties": {
                "ref:csioz": 1099659,
                "name": "Leśna Ii",
                "addr:street": "Gdańska",
                "addr:housenumber": "91",
                "addr:city": "Bydgoszcz",
                "addr:postcode": "85-022",
                "amenity": "pharmacy"
            },
            "geometry": {
                "type": "Point",
                "coordinates": [
                    18.010378737519048,
                    53.13289823456962
                ]
            }
        },
        {
            "type": "Feature",
            "properties": {
                "ref:csioz": 1100012,
                "name": "Pod Arkadami",
                "addr:street": "Aleje Prezydenta Lecha Kaczyńskiego",
                "addr:housenumber": "33",
                "addr:city": "Bydgoszcz",
                "addr:postcode": "85-806",
                "amenity": "pharmacy"
            },
            "geometry": {
                "type": "Point",
                "coordinates": [
                    18.052676097603563,
                    53.10808643080677
                ]
            }
        },
        {
            "type": "Feature",
            "properties": {
                "ref:csioz": 1100020,
                "name": "Przy Sułkowskiego",
                "addr:street": "Józefa Sułkowskiego",
                "addr:housenumber": "17",
                "addr:city": "Bydgoszcz",
                "addr:postcode": "85-634",
                "amenity": "pharmacy"
            },
            "geometry": {
                "type": "Point",
                "coordinates": [
                    18.029807031322783,
                    53.141592697532886
                ]
            }
        },
        {
            "type": "Feature",
            "properties": {
                "ref:csioz": 1100036,
                "name": "Na Bartodziejach",
                "addr:street": "Marii Curie Skłodowskiej",
                "addr:housenumber": "66a",
                "addr:city": "Bydgoszcz",
                "addr:postcode": "85-733",
                "amenity": "pharmacy"
            },
            "geometry": {
                "type": "Point",
                "coordinates": [
                    18.0484176650633,
                    53.12566037241653
                ]
            }
        },
        {
            "type": "Feature",
            "properties": {
                "ref:csioz": 1100048,
                "name": "Malwa",
                "addr:street": "Marii Curie Skłodowskiej",
                "addr:housenumber": "34b",
                "addr:city": "Bydgoszcz",
                "addr:postcode": "85-094",
                "amenity": "pharmacy"
            },
            "geometry": {
                "type": "Point",
                "coordinates": [
                    18.03430558308286,
                    53.126589996379685
                ]
            }
        },
        {
            "type": "Feature",
            "properties": {
                "ref:csioz": 1100310,
                "name": "Dr Pankowski",
                "addr:street": "Władysława Broniewskiego",
                "addr:housenumber": "10",
                "addr:city": "Bydgoszcz",
                "addr:postcode": "85-316",
                "amenity": "pharmacy"
            },
            "geometry": {
                "type": "Point",
                "coordinates": [
                    17.964205551887332,
                    53.11950258395366
                ]
            }
        },
        {
            "type": "Feature",
            "properties": {
                "ref:csioz": 1100364,
                "name": "Apteka Społeczna Na Brzozowej Grupa Nowa Farmacja",
                "addr:street": "Brzozowa",
                "addr:housenumber": "25",
                "addr:city": "Bydgoszcz",
                "addr:postcode": "85-154",
                "amenity": "pharmacy"
            },
            "geometry": {
                "type": "Point",
                "coordinates": [
                    17.998591770045625,
                    53.10940254755138
                ]
            }
        },
        {
            "type": "Feature",
            "properties": {
                "ref:csioz": 1100558,
                "name": "Apteka Żyj Zdrowo",
                "addr:street": "Ks. Ryszarda Markwarta",
                "addr:housenumber": "4-6",
                "addr:city": "Bydgoszcz",
                "addr:postcode": "85-015",
                "amenity": "pharmacy"
            },
            "geometry": {
                "type": "Point",
                "coordinates": [
                    18.01132494425293,
                    53.12647372263286
                ]
            }
        },
        {
            "type": "Feature",
            "properties": {
                "ref:csioz": 1100647,
                "name": "Apteka Pod Sosnami",
                "addr:street": "Jerzego Rupniewskiego",
                "addr:housenumber": "6",
                "addr:city": "Bydgoszcz",
                "addr:postcode": "85-796",
                "amenity": "pharmacy"
            },
            "geometry": {
                "type": "Point",
                "coordinates": [
                    18.129230057607884,
                    53.14877868367697
                ]
            }
        },
        {
            "type": "Feature",
            "properties": {
                "ref:csioz": 1100660,
                "name": "Im. Prof. F. Adamanisa",
                "addr:street": "Janiny Porazińskiej",
                "addr:housenumber": "1",
                "addr:city": "Bydgoszcz",
                "addr:postcode": "85-792",
                "amenity": "pharmacy"
            },
            "geometry": {
                "type": "Point",
                "coordinates": [
                    18.153752569949077,
                    53.15057531265441
                ]
            }
        },
        {
            "type": "Feature",
            "properties": {
                "ref:csioz": 1100652,
                "name": "Apteka Venus",
                "addr:street": "\"gen. Augusta Emila Fieldorfa \"\"Nila\"\"\"",
                "addr:housenumber": "9d",
                "addr:city": "Bydgoszcz",
                "addr:postcode": "85-796",
                "amenity": "pharmacy"
            },
            "geometry": {
                "type": "Point",
                "coordinates": [
                    18.129000918855805,
                    53.149584057354964
                ]
            }
        },
        {
            "type": "Feature",
            "properties": {
                "ref:csioz": 1100762,
                "name": "\"\"\"Leśna 3\"\"\"",
                "addr:street": "Szarych Szeregów",
                "addr:housenumber": "1a",
                "addr:city": "Bydgoszcz",
                "addr:postcode": "85-829",
                "amenity": "pharmacy"
            },
            "geometry": {
                "type": "Point",
                "coordinates": [
                    18.045826137612735,
                    53.108065712181606
                ]
            }
        },
        {
            "type": "Feature",
            "properties": {
                "ref:csioz": 1100770,
                "name": "Gnieźnieńska",
                "addr:street": "Gnieźnieńska",
                "addr:housenumber": "21",
                "addr:city": "Bydgoszcz",
                "addr:postcode": "85-313",
                "amenity": "pharmacy"
            },
            "geometry": {
                "type": "Point",
                "coordinates": [
                    17.975632149231647,
                    53.11459819693747
                ]
            }
        },
        {
            "type": "Feature",
            "properties": {
                "ref:csioz": 1100781,
                "name": "Rosa",
                "addr:street": "ks. Ignacego Skorupki",
                "addr:housenumber": "44",
                "addr:city": "Bydgoszcz",
                "addr:postcode": "85-156",
                "amenity": "pharmacy"
            },
            "geometry": {
                "type": "Point",
                "coordinates": [
                    17.98708083285116,
                    53.11441011376547
                ]
            }
        },
        {
            "type": "Feature",
            "properties": {
                "ref:csioz": 1100945,
                "name": "Im. L. Pasteura",
                "addr:street": "Nakielska",
                "addr:housenumber": "213",
                "addr:city": "Bydgoszcz",
                "addr:postcode": "85-391",
                "amenity": "pharmacy"
            },
            "geometry": {
                "type": "Point",
                "coordinates": [
                    17.938625430205104,
                    53.13170688930206
                ]
            }
        },
        {
            "type": "Feature",
            "properties": {
                "ref:csioz": 1101155,
                "name": "Polonez",
                "addr:street": "Marii Curie Skłodowskiej",
                "addr:housenumber": "31",
                "addr:city": "Bydgoszcz",
                "addr:postcode": "85-733",
                "amenity": "pharmacy"
            },
            "geometry": {
                "type": "Point",
                "coordinates": [
                    18.04671207692439,
                    53.126559805027796
                ]
            }
        },
        {
            "type": "Feature",
            "properties": {
                "ref:csioz": 1101193,
                "name": "Apteka Polonez",
                "addr:street": "Dworcowa",
                "addr:housenumber": "81",
                "addr:city": "Bydgoszcz",
                "addr:postcode": "85-009",
                "amenity": "pharmacy"
            },
            "geometry": {
                "type": "Point",
                "coordinates": [
                    17.993430929280283,
                    53.133128450965515
                ]
            }
        },
        {
            "type": "Feature",
            "properties": {
                "ref:csioz": 1101236,
                "name": "Prima",
                "addr:street": "Wojska Polskiego",
                "addr:housenumber": "23",
                "addr:city": "Bydgoszcz",
                "addr:postcode": "85-825",
                "amenity": "pharmacy"
            },
            "geometry": {
                "type": "Point",
                "coordinates": [
                    18.049372647427298,
                    53.10736606941465
                ]
            }
        },
        {
            "type": "Feature",
            "properties": {
                "ref:csioz": 1101317,
                "name": "Apteka Dbam O Zdrowie",
                "addr:street": "Mariana Rejewskiego",
                "addr:housenumber": "3",
                "addr:city": "Bydgoszcz",
                "addr:postcode": "85-791",
                "amenity": "pharmacy"
            },
            "geometry": {
                "type": "Point",
                "coordinates": [
                    18.115507007609565,
                    53.13691645938145
                ]
            }
        },
        {
            "type": "Feature",
            "properties": {
                "ref:csioz": 1101540,
                "name": "Super-Pharm",
                "addr:street": "Jagiellońska",
                "addr:housenumber": "39-47",
                "addr:city": "Bydgoszcz",
                "addr:postcode": "85-097",
                "amenity": "pharmacy"
            },
            "geometry": {
                "type": "Point",
                "coordinates": [
                    18.016429127762795,
                    53.123831610518046
                ]
            }
        },
        {
            "type": "Feature",
            "properties": {
                "ref:csioz": 1101579,
                "name": "Doz Apteka Dbam O Zdrowie",
                "addr:street": "Glinki",
                "addr:housenumber": "92",
                "addr:city": "Bydgoszcz",
                "addr:postcode": "85-861",
                "amenity": "pharmacy"
            },
            "geometry": {
                "type": "Point",
                "coordinates": [
                    18.0352769078971,
                    53.099468010651655
                ]
            }
        },
        {
            "type": "Feature",
            "properties": {
                "ref:csioz": 1101715,
                "name": "Wracam Do Zdrowia",
                "addr:street": "Józefa Twardzickiego",
                "addr:housenumber": "1",
                "addr:city": "Bydgoszcz",
                "addr:postcode": "85-791",
                "amenity": "pharmacy"
            },
            "geometry": {
                "type": "Point",
                "coordinates": [
                    18.12190611208352,
                    53.152248496392325
                ]
            }
        },
        {
            "type": "Feature",
            "properties": {
                "ref:csioz": 1101897,
                "name": "Dr. Max",
                "addr:street": "Zygmunta Krasińskiego",
                "addr:housenumber": "7",
                "addr:city": "Bydgoszcz",
                "addr:postcode": "85-005",
                "amenity": "pharmacy"
            },
            "geometry": {
                "type": "Point",
                "coordinates": [
                    18.007968662045172,
                    53.12788618986912
                ]
            }
        },
        {
            "type": "Feature",
            "properties": {
                "ref:csioz": 1101909,
                "name": "Dr. Max",
                "addr:street": "Jana III Sobieskiego",
                "addr:housenumber": "5",
                "addr:city": "Bydgoszcz",
                "addr:postcode": "85-060",
                "amenity": "pharmacy"
            },
            "geometry": {
                "type": "Point",
                "coordinates": [
                    17.99284724840854,
                    53.13275572960369
                ]
            }
        },
        {
            "type": "Feature",
            "properties": {
                "ref:csioz": 1101946,
                "name": "Z Uśmiechem",
                "addr:street": "Ku Wiatrakom",
                "addr:housenumber": "42",
                "addr:city": "Bydgoszcz",
                "addr:postcode": "85-856",
                "amenity": "pharmacy"
            },
            "geometry": {
                "type": "Point",
                "coordinates": [
                    18.040006848858408,
                    53.10720467040571
                ]
            }
        },
        {
            "type": "Feature",
            "properties": {
                "ref:csioz": 1102029,
                "name": "Cosmedica",
                "addr:street": "gen. Władysława Bortnowskiego",
                "addr:housenumber": "12",
                "addr:city": "Bydgoszcz",
                "addr:postcode": "85-793",
                "amenity": "pharmacy"
            },
            "geometry": {
                "type": "Point",
                "coordinates": [
                    18.173450927299154,
                    53.160470052037915
                ]
            }
        },
        {
            "type": "Feature",
            "properties": {
                "ref:csioz": 1102055,
                "name": "Apteka Minerwa",
                "addr:street": "Stanisława Witkiewicza",
                "addr:housenumber": "3A",
                "addr:city": "Bydgoszcz",
                "addr:postcode": "85-794",
                "amenity": "pharmacy"
            },
            "geometry": {
                "type": "Point",
                "coordinates": [
                    18.161604455603467,
                    53.161052942314136
                ]
            }
        },
        {
            "type": "Feature",
            "properties": {
                "ref:csioz": 1102119,
                "name": "Na Błoniu",
                "addr:street": "Konstantego Ildefonsa Gałczyńskiego",
                "addr:housenumber": "19a",
                "addr:city": "Bydgoszcz",
                "addr:postcode": "85-322",
                "amenity": "pharmacy"
            },
            "geometry": {
                "type": "Point",
                "coordinates": [
                    17.96239999999952,
                    53.11755800001727
                ]
            }
        },
        {
            "type": "Feature",
            "properties": {
                "ref:csioz": 1112217,
                "name": "Prima",
                "addr:street": "Aleja Powstańców Wielkopolskich",
                "addr:housenumber": "26",
                "addr:city": "Bydgoszcz",
                "addr:postcode": "85-090",
                "amenity": "pharmacy"
            },
            "geometry": {
                "type": "Point",
                "coordinates": [
                    18.028363635272797,
                    53.12891943246877
                ]
            }
        },
        {
            "type": "Feature",
            "properties": {
                "ref:csioz": 1119667,
                "name": "Prima",
                "addr:street": "Ugory",
                "addr:housenumber": "2",
                "addr:city": "Bydgoszcz",
                "addr:postcode": "85-132",
                "amenity": "pharmacy"
            },
            "geometry": {
                "type": "Point",
                "coordinates": [
                    17.993235723390363,
                    53.117939751996985
                ]
            }
        },
        {
            "type": "Feature",
            "properties": {
                "ref:csioz": 1169844,
                "name": "Centrum Medyczne Alfa-Med Spółka Z Ograniczoną Odpowiedzialnością",
                "addr:street": "Jana Pestalozziego",
                "addr:housenumber": "7",
                "addr:city": "Bydgoszcz",
                "addr:postcode": "85-095",
                "amenity": "pharmacy"
            },
            "geometry": {
                "type": "Point",
                "coordinates": [
                    18.030469500617976,
                    53.12241907190598
                ]
            }
        },
        {
            "type": "Feature",
            "properties": {
                "ref:csioz": 1169853,
                "name": "\"Niepubliczny Zakład Opieki Zdrowotnej \"\"Wident\"\" \"",
                "addr:street": "Szubińska",
                "addr:housenumber": "93-95",
                "addr:city": "Bydgoszcz",
                "addr:postcode": "85-312",
                "amenity": "pharmacy"
            },
            "geometry": {
                "type": "Point",
                "coordinates": [
                    17.96809723200274,
                    53.11605076229954
                ]
            }
        },
        {
            "type": "Feature",
            "properties": {
                "ref:csioz": 1173177,
                "name": "Hospicjum Im. Bł. Ks. Jerzego Popiełuszki Przy Parafii Św. Polskich Braci Męczenników- Niepubliczny Zakład Opieki Zdrowotnej W Bydgoszczy",
                "addr:street": "ks. Prałata Romualda Biniaka",
                "addr:housenumber": "3",
                "addr:city": "Bydgoszcz",
                "addr:postcode": "85-862",
                "amenity": "pharmacy"
            },
            "geometry": {
                "type": "Point",
                "coordinates": [
                    18.04788807541804,
                    53.10132971798727
                ]
            }
        },
        {
            "type": "Feature",
            "properties": {
                "ref:csioz": 1173189,
                "name": "Centrum Chirurgiczne Chirurgia Plastyczna Bieńkowski Spółka Z Ograniczoną Odpowiedzialnością",
                "addr:street": "Lęborska",
                "addr:housenumber": "7",
                "addr:city": "Bydgoszcz",
                "addr:postcode": "85-728",
                "amenity": "pharmacy"
            },
            "geometry": {
                "type": "Point",
                "coordinates": [
                    18.047993603886482,
                    53.121328544805024
                ]
            }
        },
        {
            "type": "Feature",
            "properties": {
                "ref:csioz": 1178374,
                "name": "Apteka Gemini",
                "addr:street": "Marii Curie Skłodowskiej",
                "addr:housenumber": "33A",
                "addr:city": "Bydgoszcz",
                "addr:postcode": "85-733",
                "amenity": "pharmacy"
            },
            "geometry": {
                "type": "Point",
                "coordinates": [
                    18.050344892377463,
                    53.12633345550004
                ]
            }
        },
        {
            "type": "Feature",
            "properties": {
                "ref:csioz": 1183610,
                "name": "Apteka Uniwersytecka",
                "addr:street": "Marii Curie Skłodowskiej",
                "addr:housenumber": "9",
                "addr:city": "Bydgoszcz",
                "addr:postcode": "85-094",
                "amenity": "pharmacy"
            },
            "geometry": {
                "type": "Point",
                "coordinates": [
                    18.031592063029738,
                    53.12724259433194
                ]
            }
        },
        {
            "type": "Feature",
            "properties": {
                "ref:csioz": 1183597,
                "name": "Przy Kładce",
                "addr:street": "Tadeusza Boya-Żeleńskiego",
                "addr:housenumber": "16a",
                "addr:city": "Bydgoszcz",
                "addr:postcode": "85-858",
                "amenity": "pharmacy"
            },
            "geometry": {
                "type": "Point",
                "coordinates": [
                    18.029402342224635,
                    53.109293380533984
                ]
            }
        },
        {
            "type": "Feature",
            "properties": {
                "ref:csioz": 1185809,
                "name": "Prima",
                "addr:street": "św. Maksymiliana Kolbego",
                "addr:housenumber": "38",
                "addr:city": "Bydgoszcz",
                "addr:postcode": "85-433",
                "amenity": "pharmacy"
            },
            "geometry": {
                "type": "Point",
                "coordinates": [
                    17.917918081788805,
                    53.15388386966413
                ]
            }
        },
        {
            "type": "Feature",
            "properties": {
                "ref:csioz": 1187140,
                "name": "Apteka Plac Piastowski 19",
                "addr:street": "Plac Piastowski",
                "addr:housenumber": "19",
                "addr:city": "Bydgoszcz",
                "addr:postcode": "85-011",
                "amenity": "pharmacy"
            },
            "geometry": {
                "type": "Point",
                "coordinates": [
                    17.999209052259577,
                    53.13111090387565
                ]
            }
        },
        {
            "type": "Feature",
            "properties": {
                "ref:csioz": 1199038,
                "name": "Euro-Apteka",
                "addr:street": "Toruńska",
                "addr:housenumber": "101",
                "addr:city": "Bydgoszcz",
                "addr:postcode": "85-817",
                "amenity": "pharmacy"
            },
            "geometry": {
                "type": "Point",
                "coordinates": [
                    18.036312442110138,
                    53.11800210257595
                ]
            }
        },
        {
            "type": "Feature",
            "properties": {
                "ref:csioz": 1210838,
                "name": "Tabletka",
                "addr:street": "Czołgistów",
                "addr:housenumber": "6",
                "addr:city": "Bydgoszcz",
                "addr:postcode": "85-532",
                "amenity": "pharmacy"
            },
            "geometry": {
                "type": "Point",
                "coordinates": [
                    17.978095640004163,
                    53.14512881924535
                ]
            }
        },
        {
            "type": "Feature",
            "properties": {
                "ref:csioz": 1218064,
                "name": "Dr Medic",
                "addr:street": "Nakielska",
                "addr:housenumber": "86",
                "addr:city": "Bydgoszcz",
                "addr:postcode": "85-358",
                "amenity": "pharmacy"
            },
            "geometry": {
                "type": "Point",
                "coordinates": [
                    17.945474863270995,
                    53.13299007999136
                ]
            }
        },
        {
            "type": "Feature",
            "properties": {
                "ref:csioz": 1222744,
                "name": "Apteka Prima",
                "addr:street": "Połczyńska",
                "addr:housenumber": "3",
                "addr:city": "Bydgoszcz",
                "addr:postcode": "85-711",
                "amenity": "pharmacy"
            },
            "geometry": {
                "type": "Point",
                "coordinates": [
                    18.047409999999577,
                    53.127848000017266
                ]
            }
        },
        {
            "type": "Feature",
            "properties": {
                "ref:csioz": 1098803,
                "name": "Apteka Żyj-Zdrowo.Com",
                "addr:street": "Jana i Jędrzeja Śniadeckich",
                "addr:housenumber": "51",
                "addr:city": "Bydgoszcz",
                "addr:postcode": "85-011",
                "amenity": "pharmacy"
            },
            "geometry": {
                "type": "Point",
                "coordinates": [
                    17.99775339709103,
                    53.131380748607896
                ]
            }
        },
        {
            "type": "Feature",
            "properties": {
                "ref:csioz": 1098782,
                "name": "Na Jarach",
                "addr:street": "Ludwika Waryńskiego",
                "addr:housenumber": "10",
                "addr:city": "Bydgoszcz",
                "addr:postcode": "85-320",
                "amenity": "pharmacy"
            },
            "geometry": {
                "type": "Point",
                "coordinates": [
                    17.970223031447514,
                    53.120109074894
                ]
            }
        },
        {
            "type": "Feature",
            "properties": {
                "ref:csioz": 1098796,
                "name": "Apteka Ułańska",
                "addr:street": "Ludwika Waryńskiego",
                "addr:housenumber": "51",
                "addr:city": "Bydgoszcz",
                "addr:postcode": "85-320",
                "amenity": "pharmacy"
            },
            "geometry": {
                "type": "Point",
                "coordinates": [
                    17.96911515979337,
                    53.11903299380402
                ]
            }
        },
        {
            "type": "Feature",
            "properties": {
                "ref:csioz": 1098915,
                "name": "Centralna",
                "addr:street": "Gdańska",
                "addr:housenumber": "27",
                "addr:city": "Bydgoszcz",
                "addr:postcode": "85-005",
                "amenity": "pharmacy"
            },
            "geometry": {
                "type": "Point",
                "coordinates": [
                    18.00486873834904,
                    53.127472572348616
                ]
            }
        },
        {
            "type": "Feature",
            "properties": {
                "ref:csioz": 1098928,
                "name": "Współczesna",
                "addr:street": "Podwale",
                "addr:housenumber": "15",
                "addr:city": "Bydgoszcz",
                "addr:postcode": "85-111",
                "amenity": "pharmacy"
            },
            "geometry": {
                "type": "Point",
                "coordinates": [
                    18.0024728149344,
                    53.12073400053105
                ]
            }
        },
        {
            "type": "Feature",
            "properties": {
                "ref:csioz": 1098944,
                "name": "Akademicka",
                "addr:street": "Joachima Lelewela",
                "addr:housenumber": "2",
                "addr:city": "Bydgoszcz",
                "addr:postcode": "85-669",
                "amenity": "pharmacy"
            },
            "geometry": {
                "type": "Point",
                "coordinates": [
                    18.029345963695622,
                    53.129758332632974
                ]
            }
        },
        {
            "type": "Feature",
            "properties": {
                "ref:csioz": 1098953,
                "name": "Topfarm",
                "addr:street": "Łomżyńska",
                "addr:housenumber": "51b",
                "addr:city": "Bydgoszcz",
                "addr:postcode": "85-863",
                "amenity": "pharmacy"
            },
            "geometry": {
                "type": "Point",
                "coordinates": [
                    18.04375967571845,
                    53.10309256509552
                ]
            }
        },
        {
            "type": "Feature",
            "properties": {
                "ref:csioz": 1099016,
                "name": "Apteka Dbam O Zdrowie",
                "addr:street": "Stary Rynek",
                "addr:housenumber": "1",
                "addr:city": "Bydgoszcz",
                "addr:postcode": "85-105",
                "amenity": "pharmacy"
            },
            "geometry": {
                "type": "Point",
                "coordinates": [
                    18.000109800274537,
                    53.122403329657075
                ]
            }
        },
        {
            "type": "Feature",
            "properties": {
                "ref:csioz": 1099034,
                "name": "Apteka Dbam O Zdrowie",
                "addr:street": "Jana Karola Chodkiewicza",
                "addr:housenumber": "17",
                "addr:city": "Bydgoszcz",
                "addr:postcode": "85-065",
                "amenity": "pharmacy"
            },
            "geometry": {
                "type": "Point",
                "coordinates": [
                    18.018709326946652,
                    53.133908494778176
                ]
            }
        },
        {
            "type": "Feature",
            "properties": {
                "ref:csioz": 1099042,
                "name": "Apteka Dbam O Zdrowie",
                "addr:street": "Wyzwolenia",
                "addr:housenumber": "99",
                "addr:city": "Bydgoszcz",
                "addr:postcode": "85-790",
                "amenity": "pharmacy"
            },
            "geometry": {
                "type": "Point",
                "coordinates": [
                    18.163416098619305,
                    53.167141225673284
                ]
            }
        },
        {
            "type": "Feature",
            "properties": {
                "ref:csioz": 1100735,
                "name": "Libra",
                "addr:street": "Ogrody",
                "addr:housenumber": "27a",
                "addr:city": "Bydgoszcz",
                "addr:postcode": "85-870",
                "amenity": "pharmacy"
            },
            "geometry": {
                "type": "Point",
                "coordinates": [
                    18.040141199735405,
                    53.11182105891866
                ]
            }
        },
        {
            "type": "Feature",
            "properties": {
                "ref:csioz": 1099755,
                "name": "Apteka Mgr Grażyny Bargańskiej Pod Sarną",
                "addr:street": "Dworcowa",
                "addr:housenumber": "32",
                "addr:city": "Bydgoszcz",
                "addr:postcode": "85-010",
                "amenity": "pharmacy"
            },
            "geometry": {
                "type": "Point",
                "coordinates": [
                    17.9997001938825,
                    53.127621966348826
                ]
            }
        },
        {
            "type": "Feature",
            "properties": {
                "ref:csioz": 1099764,
                "name": "Apteka Biziela Ii",
                "addr:street": "Wojska Polskiego",
                "addr:housenumber": "15",
                "addr:city": "Bydgoszcz",
                "addr:postcode": "85-825",
                "amenity": "pharmacy"
            },
            "geometry": {
                "type": "Point",
                "coordinates": [
                    18.023868999999564,
                    53.114051000017255
                ]
            }
        },
        {
            "type": "Feature",
            "properties": {
                "ref:csioz": 1099825,
                "name": "Nova",
                "addr:street": "Dolina",
                "addr:housenumber": "57",
                "addr:city": "Bydgoszcz",
                "addr:postcode": "85-212",
                "amenity": "pharmacy"
            },
            "geometry": {
                "type": "Point",
                "coordinates": [
                    17.980021972441282,
                    53.12586238093644
                ]
            }
        },
        {
            "type": "Feature",
            "properties": {
                "ref:csioz": 1099874,
                "name": "Pod Lwem",
                "addr:street": "Grunwaldzka",
                "addr:housenumber": "37",
                "addr:city": "Bydgoszcz",
                "addr:postcode": "85-239",
                "amenity": "pharmacy"
            },
            "geometry": {
                "type": "Point",
                "coordinates": [
                    17.980645609678593,
                    53.128657053658685
                ]
            }
        },
        {
            "type": "Feature",
            "properties": {
                "ref:csioz": 1099882,
                "name": "\"'Pod Lwem'' Zbigniew Łapka\"",
                "addr:street": "Siedlecka",
                "addr:housenumber": "4",
                "addr:city": "Bydgoszcz",
                "addr:postcode": "85-403",
                "amenity": "pharmacy"
            },
            "geometry": {
                "type": "Point",
                "coordinates": [
                    17.96357099999951,
                    53.1363100000173
                ]
            }
        },
        {
            "type": "Feature",
            "properties": {
                "ref:csioz": 1100743,
                "name": "Gwiazda",
                "addr:street": "Grunwaldzka",
                "addr:housenumber": "20",
                "addr:city": "Bydgoszcz",
                "addr:postcode": "85-236",
                "amenity": "pharmacy"
            },
            "geometry": {
                "type": "Point",
                "coordinates": [
                    17.984752579896018,
                    53.12760047588592
                ]
            }
        },
        {
            "type": "Feature",
            "properties": {
                "ref:csioz": 1099954,
                "name": "Pod Dębami",
                "addr:street": "Józefa Twardzickiego",
                "addr:housenumber": "15",
                "addr:city": "Bydgoszcz",
                "addr:postcode": "85-791",
                "amenity": "pharmacy"
            },
            "geometry": {
                "type": "Point",
                "coordinates": [
                    18.147198675511557,
                    53.154453646927564
                ]
            }
        },
        {
            "type": "Feature",
            "properties": {
                "ref:csioz": 1099965,
                "name": "Przy Twardzickiego",
                "addr:street": "Ks. Henryka Szumana",
                "addr:housenumber": "15",
                "addr:city": "Bydgoszcz",
                "addr:postcode": "85-796",
                "amenity": "pharmacy"
            },
            "geometry": {
                "type": "Point",
                "coordinates": [
                    18.120485438781397,
                    53.152153669144084
                ]
            }
        },
        {
            "type": "Feature",
            "properties": {
                "ref:csioz": 1100057,
                "name": "Im. I. Łukasiewicza",
                "addr:street": "Aleje Prezydenta Lecha Kaczyńskiego",
                "addr:housenumber": "37a",
                "addr:city": "Bydgoszcz",
                "addr:postcode": "85-806",
                "amenity": "pharmacy"
            },
            "geometry": {
                "type": "Point",
                "coordinates": [
                    18.050779428781105,
                    53.10631780892383
                ]
            }
        },
        {
            "type": "Feature",
            "properties": {
                "ref:csioz": 1100061,
                "name": "Cytryna",
                "addr:street": "Drzycimska",
                "addr:housenumber": "1",
                "addr:city": "Bydgoszcz",
                "addr:postcode": "85-555",
                "amenity": "pharmacy"
            },
            "geometry": {
                "type": "Point",
                "coordinates": [
                    17.96879844639478,
                    53.171065725270324
                ]
            }
        },
        {
            "type": "Feature",
            "properties": {
                "ref:csioz": 1100073,
                "name": "Cytryna",
                "addr:street": "Świętojańska",
                "addr:housenumber": "18",
                "addr:city": "Bydgoszcz",
                "addr:postcode": "85-077",
                "amenity": "pharmacy"
            },
            "geometry": {
                "type": "Point",
                "coordinates": [
                    18.007659462393118,
                    53.13305949530695
                ]
            }
        },
        {
            "type": "Feature",
            "properties": {
                "ref:csioz": 1100116,
                "name": "Imbir",
                "addr:street": "Braniewska",
                "addr:housenumber": "12",
                "addr:city": "Bydgoszcz",
                "addr:postcode": "85-708",
                "amenity": "pharmacy"
            },
            "geometry": {
                "type": "Point",
                "coordinates": [
                    18.051132145591186,
                    53.12744605238376
                ]
            }
        },
        {
            "type": "Feature",
            "properties": {
                "ref:csioz": 1100142,
                "name": "Prima",
                "addr:street": "Krzysztofa Kamila Baczyńskiego",
                "addr:housenumber": "17",
                "addr:city": "Bydgoszcz",
                "addr:postcode": "85-822",
                "amenity": "pharmacy"
            },
            "geometry": {
                "type": "Point",
                "coordinates": [
                    18.05949730450631,
                    53.105808814603336
                ]
            }
        },
        {
            "type": "Feature",
            "properties": {
                "ref:csioz": 1100378,
                "name": "Alba",
                "addr:street": "Marii Curie Skłodowskiej",
                "addr:housenumber": "1",
                "addr:city": "Bydgoszcz",
                "addr:postcode": "85-094",
                "amenity": "pharmacy"
            },
            "geometry": {
                "type": "Point",
                "coordinates": [
                    18.028363998487592,
                    53.12626544922606
                ]
            }
        },
        {
            "type": "Feature",
            "properties": {
                "ref:csioz": 1100386,
                "name": "Alba-Bis",
                "addr:street": "Gdańska",
                "addr:housenumber": "140",
                "addr:city": "Bydgoszcz",
                "addr:postcode": "85-021",
                "amenity": "pharmacy"
            },
            "geometry": {
                "type": "Point",
                "coordinates": [
                    18.016951084177332,
                    53.13641120428902
                ]
            }
        },
        {
            "type": "Feature",
            "properties": {
                "ref:csioz": 1100406,
                "name": "Alba Iii",
                "addr:street": "Grunwaldzka",
                "addr:housenumber": "71",
                "addr:city": "Bydgoszcz",
                "addr:postcode": "85-239",
                "amenity": "pharmacy"
            },
            "geometry": {
                "type": "Point",
                "coordinates": [
                    17.977058782279798,
                    53.129988179835465
                ]
            }
        },
        {
            "type": "Feature",
            "properties": {
                "ref:csioz": 1100411,
                "name": "Alba Iv",
                "addr:street": "Marii Curie Skłodowskiej",
                "addr:housenumber": "26",
                "addr:city": "Bydgoszcz",
                "addr:postcode": "85-094",
                "amenity": "pharmacy"
            },
            "geometry": {
                "type": "Point",
                "coordinates": [
                    18.03089042193637,
                    53.12558320219647
                ]
            }
        },
        {
            "type": "Feature",
            "properties": {
                "ref:csioz": 1100433,
                "name": "Alba V",
                "addr:street": "Pielęgniarska",
                "addr:housenumber": "13",
                "addr:city": "Bydgoszcz",
                "addr:postcode": "85-790",
                "amenity": "pharmacy"
            },
            "geometry": {
                "type": "Point",
                "coordinates": [
                    18.175667395819517,
                    53.1515071082468
                ]
            }
        },
        {
            "type": "Feature",
            "properties": {
                "ref:csioz": 1100440,
                "name": "Alba Vi",
                "addr:street": "Wielorybia",
                "addr:housenumber": "109",
                "addr:city": "Bydgoszcz",
                "addr:postcode": "85-435",
                "amenity": "pharmacy"
            },
            "geometry": {
                "type": "Point",
                "coordinates": [
                    17.915702489346188,
                    53.15805639787816
                ]
            }
        },
        {
            "type": "Feature",
            "properties": {
                "ref:csioz": 1100525,
                "name": "Apteka Żyj-Zdrowo.Com",
                "addr:street": "Wojska Polskiego",
                "addr:housenumber": "42",
                "addr:city": "Bydgoszcz",
                "addr:postcode": "85-825",
                "amenity": "pharmacy"
            },
            "geometry": {
                "type": "Point",
                "coordinates": [
                    18.057189414217238,
                    53.102783529517446
                ]
            }
        },
        {
            "type": "Feature",
            "properties": {
                "ref:csioz": 1100530,
                "name": "Apteka Żyj-Zdrowo.Com",
                "addr:street": "Świetlicowa",
                "addr:housenumber": "8a",
                "addr:city": "Bydgoszcz",
                "addr:postcode": "85-884",
                "amenity": "pharmacy"
            },
            "geometry": {
                "type": "Point",
                "coordinates": [
                    18.10870068769081,
                    53.0956729049169
                ]
            }
        },
        {
            "type": "Feature",
            "properties": {
                "ref:csioz": 1100853,
                "name": "Apteka Dr Zdrowie",
                "addr:street": "Stanisława Skarżyńskiego",
                "addr:housenumber": "2",
                "addr:city": "Bydgoszcz",
                "addr:postcode": "85-791",
                "amenity": "pharmacy"
            },
            "geometry": {
                "type": "Point",
                "coordinates": [
                    18.15697004428123,
                    53.153643060339
                ]
            }
        },
        {
            "type": "Feature",
            "properties": {
                "ref:csioz": 1100889,
                "name": "Im. Ojca Pio",
                "addr:street": "11 Listopada",
                "addr:housenumber": "16",
                "addr:city": "Bydgoszcz",
                "addr:postcode": "85-643",
                "amenity": "pharmacy"
            },
            "geometry": {
                "type": "Point",
                "coordinates": [
                    18.026418909524708,
                    53.141272885838234
                ]
            }
        },
        {
            "type": "Feature",
            "properties": {
                "ref:csioz": 1100890,
                "name": "Aspirynka",
                "addr:street": "Teofila Lenartowicza",
                "addr:housenumber": "4",
                "addr:city": "Bydgoszcz",
                "addr:postcode": "85-133",
                "amenity": "pharmacy"
            },
            "geometry": {
                "type": "Point",
                "coordinates": [
                    18.000732061429265,
                    53.11637475812491
                ]
            }
        },
        {
            "type": "Feature",
            "properties": {
                "ref:csioz": 1100900,
                "name": "Aspirynka 2",
                "addr:street": "Magnuszewska",
                "addr:housenumber": "8",
                "addr:city": "Bydgoszcz",
                "addr:postcode": "85-861",
                "amenity": "pharmacy"
            },
            "geometry": {
                "type": "Point",
                "coordinates": [
                    18.028858189516676,
                    53.104957788844075
                ]
            }
        },
        {
            "type": "Feature",
            "properties": {
                "ref:csioz": 1100937,
                "name": "Arkadia",
                "addr:street": "Nakielska",
                "addr:housenumber": "156 A",
                "addr:city": "Bydgoszcz",
                "addr:postcode": "85-350",
                "amenity": "pharmacy"
            },
            "geometry": {
                "type": "Point",
                "coordinates": [
                    17.928076365724557,
                    53.132877971160745
                ]
            }
        },
        {
            "type": "Feature",
            "properties": {
                "ref:csioz": 1100968,
                "name": "Lobelia",
                "addr:street": "Jana i Jędrzeja Śniadeckich",
                "addr:housenumber": "45",
                "addr:city": "Bydgoszcz",
                "addr:postcode": "85-011",
                "amenity": "pharmacy"
            },
            "geometry": {
                "type": "Point",
                "coordinates": [
                    17.998598219749574,
                    53.13102994398233
                ]
            }
        },
        {
            "type": "Feature",
            "properties": {
                "ref:csioz": 1100976,
                "name": "Tatrzańska",
                "addr:street": "Janosika",
                "addr:housenumber": "5a",
                "addr:city": "Bydgoszcz",
                "addr:postcode": "85-794",
                "amenity": "pharmacy"
            },
            "geometry": {
                "type": "Point",
                "coordinates": [
                    18.156055549611178,
                    53.16091520010426
                ]
            }
        },
        {
            "type": "Feature",
            "properties": {
                "ref:csioz": 1100984,
                "name": "Medea",
                "addr:street": "Antoniego Chołoniewskiego",
                "addr:housenumber": "54",
                "addr:city": "Bydgoszcz",
                "addr:postcode": "85-127",
                "amenity": "pharmacy"
            },
            "geometry": {
                "type": "Point",
                "coordinates": [
                    18.00563565134992,
                    53.111643675663366
                ]
            }
        },
        {
            "type": "Feature",
            "properties": {
                "ref:csioz": 1101026,
                "name": "Apteka Dbam O Zdrowie",
                "addr:street": "Adama Grzymały Siedleckiego",
                "addr:housenumber": "20",
                "addr:city": "Bydgoszcz",
                "addr:postcode": "85-868",
                "amenity": "pharmacy"
            },
            "geometry": {
                "type": "Point",
                "coordinates": [
                    18.03324866803836,
                    53.109307683965426
                ]
            }
        },
        {
            "type": "Feature",
            "properties": {
                "ref:csioz": 1101039,
                "name": "Apteka Dbam O Zdrowie",
                "addr:street": "Wojska Polskiego",
                "addr:housenumber": "46",
                "addr:city": "Bydgoszcz",
                "addr:postcode": "85-825",
                "amenity": "pharmacy"
            },
            "geometry": {
                "type": "Point",
                "coordinates": [
                    18.059719541485023,
                    53.102141528812304
                ]
            }
        },
        {
            "type": "Feature",
            "properties": {
                "ref:csioz": 1101273,
                "name": "Medic",
                "addr:street": "Wojciecha Łochowskiego",
                "addr:housenumber": "7A",
                "addr:city": "Bydgoszcz",
                "addr:postcode": "85-796",
                "amenity": "pharmacy"
            },
            "geometry": {
                "type": "Point",
                "coordinates": [
                    18.123741764493623,
                    53.15203487651791
                ]
            }
        },
        {
            "type": "Feature",
            "properties": {
                "ref:csioz": 1101400,
                "name": "Apteka Dbam O Zdrowie",
                "addr:street": "Czerkaska",
                "addr:housenumber": "22",
                "addr:city": "Bydgoszcz",
                "addr:postcode": "85-636",
                "amenity": "pharmacy"
            },
            "geometry": {
                "type": "Point",
                "coordinates": [
                    18.03021559451979,
                    53.13853874161304
                ]
            }
        },
        {
            "type": "Feature",
            "properties": {
                "ref:csioz": 1101468,
                "name": "Na Wzgórzu",
                "addr:street": "Karpacka",
                "addr:housenumber": "31",
                "addr:city": "Bydgoszcz",
                "addr:postcode": "85-164",
                "amenity": "pharmacy"
            },
            "geometry": {
                "type": "Point",
                "coordinates": [
                    18.01351306803972,
                    53.113542750947644
                ]
            }
        },
        {
            "type": "Feature",
            "properties": {
                "ref:csioz": 1101669,
                "name": "Wracam Do Zdrowia",
                "addr:street": "Nad Torem",
                "addr:housenumber": "66",
                "addr:city": "Bydgoszcz",
                "addr:postcode": "85-409",
                "amenity": "pharmacy"
            },
            "geometry": {
                "type": "Point",
                "coordinates": [
                    17.96332821916703,
                    53.14613474935181
                ]
            }
        },
        {
            "type": "Feature",
            "properties": {
                "ref:csioz": 1110931,
                "name": "Centrum Medyczne Gizińscy Spółka Z Ograniczoną Odwiedzialnością",
                "addr:street": "Leśna",
                "addr:housenumber": "9",
                "addr:city": "Bydgoszcz",
                "addr:postcode": "85-676",
                "amenity": "pharmacy"
            },
            "geometry": {
                "type": "Point",
                "coordinates": [
                    18.018614511715896,
                    53.137642661447934
                ]
            }
        },
        {
            "type": "Feature",
            "properties": {
                "ref:csioz": 1114598,
                "name": "Apteka Dr. Optima",
                "addr:street": "Gen. Władysława Andersa",
                "addr:housenumber": "51",
                "addr:city": "Bydgoszcz",
                "addr:postcode": "85-791",
                "amenity": "pharmacy"
            },
            "geometry": {
                "type": "Point",
                "coordinates": [
                    18.162521219081277,
                    53.15777473724981
                ]
            }
        },
        {
            "type": "Feature",
            "properties": {
                "ref:csioz": 1115674,
                "name": "Dr. Max",
                "addr:street": "Adama Grzymały Siedleckiego",
                "addr:housenumber": "30",
                "addr:city": "Bydgoszcz",
                "addr:postcode": "85-868",
                "amenity": "pharmacy"
            },
            "geometry": {
                "type": "Point",
                "coordinates": [
                    18.03720860047112,
                    53.10871166414283
                ]
            }
        },
        {
            "type": "Feature",
            "properties": {
                "ref:csioz": 1123041,
                "name": "Ośrodek Mikrochirurgii Oka Oculomedica",
                "addr:street": "Nakielska",
                "addr:housenumber": "327",
                "addr:city": "Bydgoszcz",
                "addr:postcode": "85-391",
                "amenity": "pharmacy"
            },
            "geometry": {
                "type": "Point",
                "coordinates": [
                    17.914416969590853,
                    53.133768196262366
                ]
            }
        },
        {
            "type": "Feature",
            "properties": {
                "ref:csioz": 1170076,
                "name": "Oftalmika Spółka Z Ograniczoną Odpowiedzialnością",
                "addr:street": "Modrzewiowa",
                "addr:housenumber": "15",
                "addr:city": "Bydgoszcz",
                "addr:postcode": "85-631",
                "amenity": "pharmacy"
            },
            "geometry": {
                "type": "Point",
                "coordinates": [
                    18.02896730343201,
                    53.14459026115323
                ]
            }
        },
        {
            "type": "Feature",
            "properties": {
                "ref:csioz": 1170092,
                "name": "Zakład Pielengnacyjno - Opiekuńczy",
                "addr:street": "Smukalska",
                "addr:housenumber": "251",
                "addr:city": "Bydgoszcz",
                "addr:postcode": "85-485",
                "amenity": "pharmacy"
            },
            "geometry": {
                "type": "Point",
                "coordinates": [
                    17.9729050740164,
                    53.20676778937432
                ]
            }
        },
        {
            "type": "Feature",
            "properties": {
                "ref:csioz": 1170450,
                "name": "Niepubliczny Zakład Opieki Zdrowotnej Stadmedica",
                "addr:street": "Nakielska",
                "addr:housenumber": "327",
                "addr:city": "Bydgoszcz",
                "addr:postcode": "85-391",
                "amenity": "pharmacy"
            },
            "geometry": {
                "type": "Point",
                "coordinates": [
                    17.914416969590853,
                    53.133768196262366
                ]
            }
        },
        {
            "type": "Feature",
            "properties": {
                "ref:csioz": 1170811,
                "name": "Centrum Onkologii Im. Prof. Franciszka Łukaszczyka W Bydgoszczy",
                "addr:street": "dr Izabeli Romanowskiej",
                "addr:housenumber": "2",
                "addr:city": "Bydgoszcz",
                "addr:postcode": "85-896",
                "amenity": "pharmacy"
            },
            "geometry": {
                "type": "Point",
                "coordinates": [
                    18.11330299999962,
                    53.1466220000173
                ]
            }
        },
        {
            "type": "Feature",
            "properties": {
                "ref:csioz": 1170726,
                "name": "Szpital Uniwersytecki Nr 2 Im. Dr Jana Biziela W Bydgoszczy",
                "addr:street": "Kornela Ujejskiego",
                "addr:housenumber": "75",
                "addr:city": "Bydgoszcz",
                "addr:postcode": "85-168",
                "amenity": "pharmacy"
            },
            "geometry": {
                "type": "Point",
                "coordinates": [
                    18.02635327152776,
                    53.114921682806695
                ]
            }
        },
        {
            "type": "Feature",
            "properties": {
                "ref:csioz": 1170739,
                "name": "Kujawsko - Pomorskie Centrum Pulmonologii W Bydgoszczy",
                "addr:street": "Seminaryjna",
                "addr:housenumber": "1",
                "addr:city": "Bydgoszcz",
                "addr:postcode": "85-826",
                "amenity": "pharmacy"
            },
            "geometry": {
                "type": "Point",
                "coordinates": [
                    17.98287835433455,
                    53.12116476145199
                ]
            }
        },
        {
            "type": "Feature",
            "properties": {
                "ref:csioz": 1170794,
                "name": "Wojewódzki Szpital Dziecięcy Im. J. Brudzińskiego W Bydgoszczy",
                "addr:street": "Jana Karola Chodkiewicza",
                "addr:housenumber": "44",
                "addr:city": "Bydgoszcz",
                "addr:postcode": "85-667",
                "amenity": "pharmacy"
            },
            "geometry": {
                "type": "Point",
                "coordinates": [
                    18.026730569575736,
                    53.13115695546419
                ]
            }
        },
        {
            "type": "Feature",
            "properties": {
                "ref:csioz": 1170806,
                "name": "\"\tWojewódzki Szpital Obserwacyjno - Zakaźny Im. Tadeusza Browicza\"",
                "addr:street": "Św. Floriana",
                "addr:housenumber": "12",
                "addr:city": "Bydgoszcz",
                "addr:postcode": "85-030",
                "amenity": "pharmacy"
            },
            "geometry": {
                "type": "Point",
                "coordinates": [
                    18.009133105595932,
                    53.12219368013125
                ]
            }
        },
        {
            "type": "Feature",
            "properties": {
                "ref:csioz": 1170936,
                "name": "Szpital Uniwersytecki Nr 1 Im. Dr. A. Jurasza W Bydgoszczy",
                "addr:street": "Marii Curie-Skłodowskiej",
                "addr:housenumber": "9",
                "addr:city": "Bydgoszcz",
                "addr:postcode": "85-094",
                "amenity": "pharmacy"
            },
            "geometry": {
                "type": "Point",
                "coordinates": [
                    18.031500999999555,
                    53.12740700001728
                ]
            }
        },
        {
            "type": "Feature",
            "properties": {
                "ref:csioz": 1170961,
                "name": "Wielospecjalistyczny Szpital Miejski Im Dr. Emila Warmińskiego - Spzoz",
                "addr:street": "Szpitalna",
                "addr:housenumber": "19",
                "addr:city": "Bydgoszcz",
                "addr:postcode": "85-826",
                "amenity": "pharmacy"
            },
            "geometry": {
                "type": "Point",
                "coordinates": [
                    18.0461792319939,
                    53.10204881578458
                ]
            }
        },
        {
            "type": "Feature",
            "properties": {
                "ref:csioz": 1171135,
                "name": "Dr Zdrowie",
                "addr:street": "Fordońska",
                "addr:housenumber": "141",
                "addr:city": "Bydgoszcz",
                "addr:postcode": "85-739",
                "amenity": "pharmacy"
            },
            "geometry": {
                "type": "Point",
                "coordinates": [
                    18.067259029611996,
                    53.12543197344408
                ]
            }
        },
        {
            "type": "Feature",
            "properties": {
                "ref:csioz": 1172569,
                "name": "Apteka Zakładowa-Okręgowa Szpitala I Ambulatorium Z Izbą Chorych Aresztu Śledczego W Bydgoszczy",
                "addr:street": "Wały Jagiellońskie",
                "addr:housenumber": "4",
                "addr:city": "Bydgoszcz",
                "addr:postcode": "85-128",
                "amenity": "pharmacy"
            },
            "geometry": {
                "type": "Point",
                "coordinates": [
                    18.000018332171575,
                    53.11980986048878
                ]
            }
        },
        {
            "type": "Feature",
            "properties": {
                "ref:csioz": 1172588,
                "name": "10 Wojskowy Szpital Kliniczny Z Polikliniką - Samodzielny Publiczny Zakład Opieki Zdrowotnej W Bydgoszczy",
                "addr:street": "Powstańców Warszawy",
                "addr:housenumber": "5",
                "addr:city": "Bydgoszcz",
                "addr:postcode": "85-128",
                "amenity": "pharmacy"
            },
            "geometry": {
                "type": "Point",
                "coordinates": [
                    18.008871710332926,
                    53.1430925841171
                ]
            }
        },
        {
            "type": "Feature",
            "properties": {
                "ref:csioz": 1173128,
                "name": "Samodzielny Publiczny Wielospecjalistyczny Zakł?Ad Opieki Zdrowotnej Ministerstwa Spraw Wewnętrznych W Bydgoszczy",
                "addr:street": "ks. Ryszarda Markwarta",
                "addr:housenumber": "4-6",
                "addr:city": "Bydgoszcz",
                "addr:postcode": "85-015",
                "amenity": "pharmacy"
            },
            "geometry": {
                "type": "Point",
                "coordinates": [
                    18.01132494425293,
                    53.12647372263286
                ]
            }
        },
        {
            "type": "Feature",
            "properties": {
                "ref:csioz": 1175057,
                "name": "Doz Apteka Dbam O Zdrowie",
                "addr:street": "Powstańców Warszawy",
                "addr:housenumber": "5",
                "addr:city": "Bydgoszcz",
                "addr:postcode": "85-681",
                "amenity": "pharmacy"
            },
            "geometry": {
                "type": "Point",
                "coordinates": [
                    18.008871710332926,
                    53.1430925841171
                ]
            }
        },
        {
            "type": "Feature",
            "properties": {
                "ref:csioz": 1175061,
                "name": "Doz Apteka Dbam O Zdrowie",
                "addr:street": "Marii Curie-Skłodowskiej",
                "addr:housenumber": "9",
                "addr:city": "Bydgoszcz",
                "addr:postcode": "85-094",
                "amenity": "pharmacy"
            },
            "geometry": {
                "type": "Point",
                "coordinates": [
                    18.031500999999555,
                    53.12740700001728
                ]
            }
        },
        {
            "type": "Feature",
            "properties": {
                "ref:csioz": 1176426,
                "name": "Dr. Max",
                "addr:street": "Czerkaska",
                "addr:housenumber": "11",
                "addr:city": "Bydgoszcz",
                "addr:postcode": "85-636",
                "amenity": "pharmacy"
            },
            "geometry": {
                "type": "Point",
                "coordinates": [
                    18.029510362163386,
                    53.139428267168796
                ]
            }
        },
        {
            "type": "Feature",
            "properties": {
                "ref:csioz": 1176586,
                "name": "Hebeapteka",
                "addr:street": "Kąkolowa",
                "addr:housenumber": "1",
                "addr:city": "Bydgoszcz",
                "addr:postcode": "85-811",
                "amenity": "pharmacy"
            },
            "geometry": {
                "type": "Point",
                "coordinates": [
                    18.044806008979297,
                    53.10422644476441
                ]
            }
        },
        {
            "type": "Feature",
            "properties": {
                "ref:csioz": 1176593,
                "name": "Hebeapteka",
                "addr:street": "Kornela Ujejskiego",
                "addr:housenumber": "61",
                "addr:city": "Bydgoszcz",
                "addr:postcode": "85-168",
                "amenity": "pharmacy"
            },
            "geometry": {
                "type": "Point",
                "coordinates": [
                    18.0212166798998,
                    53.11326696857088
                ]
            }
        },
        {
            "type": "Feature",
            "properties": {
                "ref:csioz": 1180924,
                "name": "Szpital Świętego Łukasza",
                "addr:street": "Bydg. Batal. Obrony Narodowej",
                "addr:housenumber": "10a",
                "addr:city": "Bydgoszcz",
                "addr:postcode": "85-825",
                "amenity": "pharmacy"
            },
            "geometry": {
                "type": "Point",
                "coordinates": [
                    18.050896999999576,
                    53.10347300001724
                ]
            }
        },
        {
            "type": "Feature",
            "properties": {
                "ref:csioz": 1181182,
                "name": "Apteka Żyj-Zdrowo.Com",
                "addr:street": "Kornela Ujejskiego",
                "addr:housenumber": "75",
                "addr:city": "Bydgoszcz",
                "addr:postcode": "85-168",
                "amenity": "pharmacy"
            },
            "geometry": {
                "type": "Point",
                "coordinates": [
                    18.02635327152776,
                    53.114921682806695
                ]
            }
        },
        {
            "type": "Feature",
            "properties": {
                "ref:csioz": 1184231,
                "name": "\"Apteka 'Magnolia'\"",
                "addr:street": "Słowiańska",
                "addr:housenumber": "18",
                "addr:city": "Bydgoszcz",
                "addr:postcode": "85-163",
                "amenity": "pharmacy"
            },
            "geometry": {
                "type": "Point",
                "coordinates": [
                    18.02226818117542,
                    53.114750619648255
                ]
            }
        },
        {
            "type": "Feature",
            "properties": {
                "ref:csioz": 1184665,
                "name": "Alba Vii",
                "addr:street": "Juliusza Kossaka",
                "addr:housenumber": "23",
                "addr:city": "Bydgoszcz",
                "addr:postcode": "85-307",
                "amenity": "pharmacy"
            },
            "geometry": {
                "type": "Point",
                "coordinates": [
                    17.98460522774548,
                    53.1133246995164
                ]
            }
        },
        {
            "type": "Feature",
            "properties": {
                "ref:csioz": 1186083,
                "name": "\"'Apteka Z Uśmiechem'\"",
                "addr:street": "Fordońska",
                "addr:housenumber": "410",
                "addr:city": "Bydgoszcz",
                "addr:postcode": "85-790",
                "amenity": "pharmacy"
            },
            "geometry": {
                "type": "Point",
                "coordinates": [
                    18.15083389328075,
                    53.142231902923086
                ]
            }
        },
        {
            "type": "Feature",
            "properties": {
                "ref:csioz": 1190635,
                "name": "\"'Euro-Apteka'\"",
                "addr:street": "św. Maksymiliana Kolbego",
                "addr:housenumber": "14",
                "addr:city": "Bydgoszcz",
                "addr:postcode": "85-433",
                "amenity": "pharmacy"
            },
            "geometry": {
                "type": "Point",
                "coordinates": [
                    17.920302709608738,
                    53.148890494053326
                ]
            }
        },
        {
            "type": "Feature",
            "properties": {
                "ref:csioz": 1192540,
                "name": "Cosmedica",
                "addr:street": "Gdańska",
                "addr:housenumber": "161",
                "addr:city": "Bydgoszcz",
                "addr:postcode": "85-674",
                "amenity": "pharmacy"
            },
            "geometry": {
                "type": "Point",
                "coordinates": [
                    18.02127541548278,
                    53.14422105764708
                ]
            }
        },
        {
            "type": "Feature",
            "properties": {
                "ref:csioz": 1199051,
                "name": "Super-Pharm Apteka",
                "addr:street": "Wojska Polskiego",
                "addr:housenumber": "1",
                "addr:city": "Bydgoszcz",
                "addr:postcode": "85-171",
                "amenity": "pharmacy"
            },
            "geometry": {
                "type": "Point",
                "coordinates": [
                    18.010690341701665,
                    53.11568651089841
                ]
            }
        },
        {
            "type": "Feature",
            "properties": {
                "ref:csioz": 1201095,
                "name": "Gemini",
                "addr:street": "Tadeusza Boya-Żeleńskiego",
                "addr:housenumber": "16",
                "addr:city": "Bydgoszcz",
                "addr:postcode": "85-858",
                "amenity": "pharmacy"
            },
            "geometry": {
                "type": "Point",
                "coordinates": [
                    18.029829021859346,
                    53.109510786039436
                ]
            }
        },
        {
            "type": "Feature",
            "properties": {
                "ref:csioz": 1201128,
                "name": "Prima",
                "addr:street": "Władysława Broniewskiego",
                "addr:housenumber": "8",
                "addr:city": "Bydgoszcz",
                "addr:postcode": "85-316",
                "amenity": "pharmacy"
            },
            "geometry": {
                "type": "Point",
                "coordinates": [
                    17.964822562654003,
                    53.11817168627021
                ]
            }
        },
        {
            "type": "Feature",
            "properties": {
                "ref:csioz": 1201474,
                "name": "Apteka Tucholska",
                "addr:street": "Tucholska",
                "addr:housenumber": "13a",
                "addr:city": "Bydgoszcz",
                "addr:postcode": "85-165",
                "amenity": "pharmacy"
            },
            "geometry": {
                "type": "Point",
                "coordinates": [
                    18.009333772126368,
                    53.11074838811286
                ]
            }
        },
        {
            "type": "Feature",
            "properties": {
                "ref:csioz": 1202379,
                "name": "Sasanka Nowa Farmacja",
                "addr:street": "Ogrody",
                "addr:housenumber": "14",
                "addr:city": "Bydgoszcz",
                "addr:postcode": "85-870",
                "amenity": "pharmacy"
            },
            "geometry": {
                "type": "Point",
                "coordinates": [
                    18.03394174400584,
                    53.11179326667458
                ]
            }
        },
        {
            "type": "Feature",
            "properties": {
                "ref:csioz": 1204246,
                "name": "Doz Apteka Dbam O Zdrowie",
                "addr:street": "Ludwika Solskiego",
                "addr:housenumber": "5",
                "addr:city": "Bydgoszcz",
                "addr:postcode": "85-125",
                "amenity": "pharmacy"
            },
            "geometry": {
                "type": "Point",
                "coordinates": [
                    18.003172749349957,
                    53.11358421630966
                ]
            }
        },
        {
            "type": "Feature",
            "properties": {
                "ref:csioz": 1205372,
                "name": "Euro-Apteka",
                "addr:street": "Marii Curie-Skłodowskiej",
                "addr:housenumber": "33",
                "addr:city": "Bydgoszcz",
                "addr:postcode": "85-733",
                "amenity": "pharmacy"
            },
            "geometry": {
                "type": "Point",
                "coordinates": [
                    18.05297499999958,
                    53.126384000017296
                ]
            }
        },
        {
            "type": "Feature",
            "properties": {
                "ref:csioz": 1208763,
                "name": "Apteka Społeczna Na Gdańskiej Grupa Nowa Farmacja",
                "addr:street": "Gdańska",
                "addr:housenumber": "22",
                "addr:city": "Bydgoszcz",
                "addr:postcode": "85-006",
                "amenity": "pharmacy"
            },
            "geometry": {
                "type": "Point",
                "coordinates": [
                    18.00563661157266,
                    53.127567921799915
                ]
            }
        },
        {
            "type": "Feature",
            "properties": {
                "ref:csioz": 1209940,
                "name": "Apteka Gemini",
                "addr:street": "Gdańska",
                "addr:housenumber": "1",
                "addr:city": "Bydgoszcz",
                "addr:postcode": "85-005",
                "amenity": "pharmacy"
            },
            "geometry": {
                "type": "Point",
                "coordinates": [
                    18.002431548011263,
                    53.124537047572716
                ]
            }
        },
        {
            "type": "Feature",
            "properties": {
                "ref:csioz": 1210880,
                "name": "Miller Apteka",
                "addr:street": "Jana i Jędrzeja Śniadeckich",
                "addr:housenumber": "41",
                "addr:city": "Bydgoszcz",
                "addr:postcode": "85-011",
                "amenity": "pharmacy"
            },
            "geometry": {
                "type": "Point",
                "coordinates": [
                    17.99911243575867,
                    53.1308420308946
                ]
            }
        },
        {
            "type": "Feature",
            "properties": {
                "ref:csioz": 1211165,
                "name": "Doz Apteka Dbam O Zdrowie",
                "addr:street": "Plac Poznański",
                "addr:housenumber": "2",
                "addr:city": "Bydgoszcz",
                "addr:postcode": "85-129",
                "amenity": "pharmacy"
            },
            "geometry": {
                "type": "Point",
                "coordinates": [
                    17.988214920369074,
                    53.122345703430256
                ]
            }
        },
        {
            "type": "Feature",
            "properties": {
                "ref:csioz": 1213061,
                "name": "Dr. Max",
                "addr:street": "Jerzego Rupniewskiego",
                "addr:housenumber": "10",
                "addr:city": "Bydgoszcz",
                "addr:postcode": "85-796",
                "amenity": "pharmacy"
            },
            "geometry": {
                "type": "Point",
                "coordinates": [
                    18.12874890460193,
                    53.14910275021724
                ]
            }
        },
        {
            "type": "Feature",
            "properties": {
                "ref:csioz": 1213422,
                "name": "Medapteka",
                "addr:street": "Stanisława Skarżyńskiego",
                "addr:housenumber": "5a",
                "addr:city": "Bydgoszcz",
                "addr:postcode": "85-791",
                "amenity": "pharmacy"
            },
            "geometry": {
                "type": "Point",
                "coordinates": [
                    18.154941946428707,
                    53.15559167744559
                ]
            }
        },
        {
            "type": "Feature",
            "properties": {
                "ref:csioz": 1213694,
                "name": "Apteka Lobelia 2",
                "addr:street": "Wysoka",
                "addr:housenumber": "3",
                "addr:city": "Bydgoszcz",
                "addr:postcode": "85-323",
                "amenity": "pharmacy"
            },
            "geometry": {
                "type": "Point",
                "coordinates": [
                    17.975691709815194,
                    53.12207737690801
                ]
            }
        },
        {
            "type": "Feature",
            "properties": {
                "ref:csioz": 1222789,
                "name": "Z Uśmiechem",
                "addr:street": "Samotna",
                "addr:housenumber": "4",
                "addr:city": "Bydgoszcz",
                "addr:postcode": "85-794",
                "amenity": "pharmacy"
            },
            "geometry": {
                "type": "Point",
                "coordinates": [
                    18.167515179860462,
                    53.15385838354375
                ]
            }
        },
        {
            "type": "Feature",
            "properties": {
                "ref:csioz": 1223074,
                "name": "Atma 1 Zakład Opiekuńczo-Leczniczy",
                "addr:street": "Karola Kurpińskiego",
                "addr:housenumber": "5",
                "addr:city": "Bydgoszcz",
                "addr:postcode": "85-096",
                "amenity": "pharmacy"
            },
            "geometry": {
                "type": "Point",
                "coordinates": [
                    18.028220188395096,
                    53.12505912764122
                ]
            }
        },
        {
            "type": "Feature",
            "properties": {
                "ref:csioz": 1224321,
                "name": "Dr. Max",
                "addr:street": "Wojska Polskiego",
                "addr:housenumber": "16",
                "addr:city": "Bydgoszcz",
                "addr:postcode": "85-824",
                "amenity": "pharmacy"
            },
            "geometry": {
                "type": "Point",
                "coordinates": [
                    18.037855465064336,
                    53.10687221007207
                ]
            }
        },
        {
            "type": "Feature",
            "properties": {
                "ref:csioz": 1224431,
                "name": "Dr. Max",
                "addr:street": "Pelplińska",
                "addr:housenumber": "41",
                "addr:city": "Bydgoszcz",
                "addr:postcode": "85-794",
                "amenity": "pharmacy"
            },
            "geometry": {
                "type": "Point",
                "coordinates": [
                    18.160967061847828,
                    53.16578821667038
                ]
            }
        },
        {
            "type": "Feature",
            "properties": {
                "ref:csioz": 1227651,
                "name": "Regionalne Centrum Krwiodawstwa I Krwiolecznictwa W Bydgoszczy Samodzielny Publiczny Zakład Opieki Zdrowotnej",
                "addr:street": "Ks. Ryszarda Markwarta",
                "addr:housenumber": "8",
                "addr:city": "Bydgoszcz",
                "addr:postcode": "85-015",
                "amenity": "pharmacy"
            },
            "geometry": {
                "type": "Point",
                "coordinates": [
                    18.012078866712695,
                    53.126147261703814
                ]
            }
        },
        {
            "type": "Feature",
            "properties": {
                "ref:csioz": 1170117,
                "name": "\"Centrum Medyczne \"\"Zachód\"\" Spółka Z Ograniczoną Odpowizialnością\"",
                "addr:street": "Grunwaldzka",
                "addr:housenumber": "138",
                "addr:city": "Bydgoszcz",
                "addr:postcode": "85-429",
                "amenity": "pharmacy"
            },
            "geometry": {
                "type": "Point",
                "coordinates": [
                    17.963901657887664,
                    53.135911958729764
                ]
            }
        },
        {
            "type": "Feature",
            "properties": {
                "ref:csioz": 1218108,
                "name": "\"Anna Aniukiewicz-Kubas Niepubliczny Zakład Opieki Zdrowotnej \"\"Visco\"\"\"",
                "addr:street": "Mikołaja Bołtucia",
                "addr:housenumber": "10",
                "addr:city": "Bydgoszcz",
                "addr:postcode": "85-791",
                "amenity": "pharmacy"
            },
            "geometry": {
                "type": "Point",
                "coordinates": [
                    18.137504479799674,
                    53.15455972426113
                ]
            }
        },
        {
            "type": "Feature",
            "properties": {
                "ref:csioz": 1098774,
                "name": "\"Apteka \"\"Przy Rynku\"\"\"",
                "addr:street": "Marii Konopnickiej",
                "addr:housenumber": "30",
                "addr:city": "Bydgoszcz",
                "addr:postcode": "85-124",
                "amenity": "pharmacy"
            },
            "geometry": {
                "type": "Point",
                "coordinates": [
                    17.99623742092582,
                    53.11207691506441
                ]
            }
        }
    ]
}