{
    "type": "FeatureCollection",
    "name": "JPT_KOD_JE_2809",
    "features": [
        {
            "type": "Feature",
            "properties": {
                "ref:csioz": 1039647,
                "name": "Apteka Savita",
                "addr:street": "Wodna",
                "addr:housenumber": "1",
                "addr:city": "Orneta",
                "addr:postcode": "11-130",
                "amenity": "pharmacy",
                "dispensing": "yes"
            },
            "geometry": {
                "type": "Point",
                "coordinates": [
                    20.136453951171344,
                    54.11552968726905
                ]
            }
        },
        {
            "type": "Feature",
            "properties": {
                "ref:csioz": 1173784,
                "name": "Apteka Ratuszowa",
                "addr:street": "Plac Wolności",
                "addr:housenumber": "1",
                "addr:city": "Orneta",
                "addr:postcode": "11-130",
                "amenity": "pharmacy",
                "dispensing": "yes"
            },
            "geometry": {
                "type": "Point",
                "coordinates": [
                    20.131174923388954,
                    54.115532175436535
                ]
            }
        },
        {
            "type": "Feature",
            "properties": {
                "ref:csioz": 1039605,
                "addr:street": "Mostowa",
                "addr:housenumber": "3",
                "addr:city": "Orneta",
                "addr:postcode": "11-130",
                "amenity": "pharmacy",
                "dispensing": "yes"
            },
            "geometry": {
                "type": "Point",
                "coordinates": [
                    20.129629459101395,
                    54.116092816116534
                ]
            }
        },
        {
            "type": "Feature",
            "properties": {
                "ref:csioz": 1039618,
                "addr:street": "1 Maja",
                "addr:housenumber": "48C",
                "addr:city": "Orneta",
                "addr:postcode": "11-130",
                "amenity": "pharmacy",
                "dispensing": "yes"
            },
            "geometry": {
                "type": "Point",
                "coordinates": [
                    20.14214154798807,
                    54.11730880384261
                ]
            }
        },
        {
            "type": "Feature",
            "properties": {
                "ref:csioz": 1039626,
                "addr:street": "Sienkiewicza",
                "addr:housenumber": "6",
                "addr:city": "Orneta",
                "addr:postcode": "11-130",
                "amenity": "pharmacy",
                "dispensing": "yes"
            },
            "geometry": {
                "type": "Point",
                "coordinates": [
                    20.13189289214327,
                    54.115615006087026
                ]
            }
        },
        {
            "type": "Feature",
            "properties": {
                "ref:csioz": 1039639,
                "name": "Wracam Do Zdrowia",
                "addr:street": "1 Maja",
                "addr:housenumber": "34",
                "addr:city": "Orneta",
                "addr:postcode": "11-130",
                "amenity": "pharmacy",
                "dispensing": "yes"
            },
            "geometry": {
                "type": "Point",
                "coordinates": [
                    20.139890106326114,
                    54.116951165325844
                ]
            }
        },
        {
            "type": "Feature",
            "properties": {
                "ref:csioz": 1016555,
                "addr:street": "Kopernika",
                "addr:housenumber": "51",
                "addr:city": "Lubomino",
                "addr:postcode": "11-135",
                "amenity": "pharmacy",
                "dispensing": "yes"
            },
            "geometry": {
                "type": "Point",
                "coordinates": [
                    20.242943655758836,
                    54.061134802851385
                ]
            }
        },
        {
            "type": "Feature",
            "properties": {
                "ref:csioz": 1039683,
                "name": "Apteka Twój Partner Nowa Farmacja",
                "addr:housenumber": "14",
                "addr:postcode": "11-100",
                "amenity": "pharmacy",
                "addr:place": "Pilnik",
                "dispensing": "yes"
            },
            "geometry": {
                "type": "Point",
                "coordinates": [
                    20.555970306821216,
                    54.12124232424228
                ]
            }
        },
        {
            "type": "Feature",
            "properties": {
                "ref:csioz": 1042012,
                "addr:street": "Bartoszycka",
                "addr:housenumber": "3",
                "addr:city": "Lidzbark Warmiński",
                "addr:postcode": "11-100",
                "amenity": "pharmacy",
                "dispensing": "yes"
            },
            "geometry": {
                "type": "Point",
                "coordinates": [
                    20.59113354044842,
                    54.12588179944972
                ]
            }
        },
        {
            "type": "Feature",
            "properties": {
                "ref:csioz": 1204549,
                "name": "Apteka Pod Kasztanem",
                "addr:street": "Kresowa",
                "addr:housenumber": "1",
                "addr:city": "Lidzbark Warmiński",
                "addr:postcode": "11-100",
                "amenity": "pharmacy",
                "dispensing": "yes"
            },
            "geometry": {
                "type": "Point",
                "coordinates": [
                    20.57504309857419,
                    54.12373473572616
                ]
            }
        },
        {
            "type": "Feature",
            "properties": {
                "ref:csioz": 1039341,
                "name": "Centrum",
                "addr:street": "Wolności",
                "addr:housenumber": "6",
                "addr:city": "Lidzbark Warmiński",
                "addr:postcode": "11-100",
                "amenity": "pharmacy",
                "dispensing": "yes"
            },
            "geometry": {
                "type": "Point",
                "coordinates": [
                    20.580012693873673,
                    54.125838972577846
                ]
            }
        },
        {
            "type": "Feature",
            "properties": {
                "ref:csioz": 1039355,
                "name": "Apteka Dbam O Zdrowie",
                "addr:street": "Konstytucji 3 Maja",
                "addr:housenumber": "3",
                "addr:city": "Lidzbark Warmiński",
                "addr:postcode": "11-100",
                "amenity": "pharmacy",
                "dispensing": "yes"
            },
            "geometry": {
                "type": "Point",
                "coordinates": [
                    20.576954439815847,
                    54.12668955239454
                ]
            }
        },
        {
            "type": "Feature",
            "properties": {
                "ref:csioz": 1039364,
                "name": "Apteka Dbam O Zdrowie",
                "addr:street": "Księcia Józefa Poniatowskiego",
                "addr:housenumber": "2",
                "addr:city": "Lidzbark Warmiński",
                "addr:postcode": "11-100",
                "amenity": "pharmacy",
                "dispensing": "yes"
            },
            "geometry": {
                "type": "Point",
                "coordinates": [
                    20.57409706990711,
                    54.127425441423256
                ]
            }
        },
        {
            "type": "Feature",
            "properties": {
                "ref:csioz": 1039378,
                "name": "Doz Apteka. Dbam O Zdrowie",
                "addr:street": "Aleksandra Świętochowskiego",
                "addr:housenumber": "2",
                "addr:city": "Lidzbark Warmiński",
                "addr:postcode": "11-100",
                "amenity": "pharmacy",
                "dispensing": "yes"
            },
            "geometry": {
                "type": "Point",
                "coordinates": [
                    20.57393128053798,
                    54.12873299480733
                ]
            }
        },
        {
            "type": "Feature",
            "properties": {
                "ref:csioz": 1039393,
                "name": "Apteka Lidzbarska",
                "addr:street": "Aleksandra Świętochowskiego",
                "addr:housenumber": "7A",
                "addr:city": "Lidzbark Warmiński",
                "addr:postcode": "11-100",
                "amenity": "pharmacy",
                "dispensing": "yes"
            },
            "geometry": {
                "type": "Point",
                "coordinates": [
                    20.574092347382265,
                    54.130056213241886
                ]
            }
        },
        {
            "type": "Feature",
            "properties": {
                "ref:csioz": 1039406,
                "name": "Lipowa",
                "addr:street": "Lipowa",
                "addr:housenumber": "2C",
                "addr:city": "Lidzbark Warmiński",
                "addr:postcode": "11-100",
                "amenity": "pharmacy",
                "dispensing": "yes"
            },
            "geometry": {
                "type": "Point",
                "coordinates": [
                    20.576194071560025,
                    54.12740117328939
                ]
            }
        },
        {
            "type": "Feature",
            "properties": {
                "ref:csioz": 1039411,
                "name": "Melissa",
                "addr:street": "11 Listopada",
                "addr:housenumber": "15",
                "addr:city": "Lidzbark Warmiński",
                "addr:postcode": "11-100",
                "amenity": "pharmacy",
                "dispensing": "yes"
            },
            "geometry": {
                "type": "Point",
                "coordinates": [
                    20.57640434397328,
                    54.129209953145015
                ]
            }
        }
    ]
}