{
    "type": "FeatureCollection",
    "name": "JPT_KOD_JE_0808",
    "features": [
        {
            "type": "Feature",
            "properties": {
                "ref:csioz": 1148953,
                "name": "Rajska",
                "addr:street": "Sukiennicza",
                "addr:housenumber": "22",
                "addr:city": "Świebodzin",
                "addr:postcode": "66-200",
                "amenity": "pharmacy",
                "dispensing": "yes"
            },
            "geometry": {
                "type": "Point",
                "coordinates": [
                    15.531486668891322,
                    52.25359150546376
                ]
            }
        },
        {
            "type": "Feature",
            "properties": {
                "ref:csioz": 1150788,
                "name": "Dr. Max",
                "addr:housenumber": "2D",
                "addr:postcode": "66-615",
                "amenity": "pharmacy",
                "addr:place": "Gronów",
                "dispensing": "yes"
            },
            "geometry": {
                "type": "Point",
                "coordinates": [
                    15.30171819989684,
                    52.30240580007297
                ]
            }
        },
        {
            "type": "Feature",
            "properties": {
                "ref:csioz": 1150872,
                "name": "Loro",
                "addr:street": "Zamkowa",
                "addr:housenumber": "1",
                "addr:city": "Świebodzin",
                "addr:postcode": "66-200",
                "amenity": "pharmacy",
                "dispensing": "yes"
            },
            "geometry": {
                "type": "Point",
                "coordinates": [
                    15.53503046251524,
                    52.250444776649125
                ]
            }
        },
        {
            "type": "Feature",
            "properties": {
                "ref:csioz": 1148875,
                "name": "Arnica",
                "addr:street": "1 Maja",
                "addr:housenumber": "17",
                "addr:city": "Świebodzin",
                "addr:postcode": "66-200",
                "amenity": "pharmacy",
                "dispensing": "yes"
            },
            "geometry": {
                "type": "Point",
                "coordinates": [
                    15.531365297035505,
                    52.251142594074565
                ]
            }
        },
        {
            "type": "Feature",
            "properties": {
                "ref:csioz": 1148888,
                "addr:street": "Kilińskiego",
                "addr:housenumber": "7",
                "addr:city": "Świebodzin",
                "addr:postcode": "66-200",
                "amenity": "pharmacy",
                "dispensing": "yes"
            },
            "geometry": {
                "type": "Point",
                "coordinates": [
                    15.533798302207565,
                    52.24913505728527
                ]
            }
        },
        {
            "type": "Feature",
            "properties": {
                "ref:csioz": 1148902,
                "name": "Apteka Zdrowie",
                "addr:street": "Kościelna",
                "addr:housenumber": "9",
                "addr:city": "Świebodzin",
                "addr:postcode": "66-200",
                "amenity": "pharmacy",
                "dispensing": "yes"
            },
            "geometry": {
                "type": "Point",
                "coordinates": [
                    15.534277516958804,
                    52.249541807203116
                ]
            }
        },
        {
            "type": "Feature",
            "properties": {
                "ref:csioz": 1148915,
                "name": "Apteka Dbam O Zdrowie",
                "addr:street": "Matejki",
                "addr:housenumber": "1",
                "addr:city": "Świebodzin",
                "addr:postcode": "66-200",
                "amenity": "pharmacy",
                "dispensing": "yes"
            },
            "geometry": {
                "type": "Point",
                "coordinates": [
                    15.53458025524812,
                    52.24552642422325
                ]
            }
        },
        {
            "type": "Feature",
            "properties": {
                "ref:csioz": 1148928,
                "name": "Apteka Nowa",
                "addr:street": "Plac Wolności",
                "addr:housenumber": "6",
                "addr:city": "Świebodzin",
                "addr:postcode": "66-200",
                "amenity": "pharmacy",
                "dispensing": "yes"
            },
            "geometry": {
                "type": "Point",
                "coordinates": [
                    15.531217425481161,
                    52.24752279241031
                ]
            }
        },
        {
            "type": "Feature",
            "properties": {
                "ref:csioz": 1148931,
                "name": "Dbam O Zdrowie",
                "addr:street": "Strzelecka",
                "addr:housenumber": "1",
                "addr:city": "Świebodzin",
                "addr:postcode": "66-200",
                "amenity": "pharmacy",
                "dispensing": "yes"
            },
            "geometry": {
                "type": "Point",
                "coordinates": [
                    15.530597279699071,
                    52.25600701325743
                ]
            }
        },
        {
            "type": "Feature",
            "properties": {
                "ref:csioz": 1148944,
                "name": "Medapteka",
                "addr:street": "Sulechowska",
                "addr:housenumber": "8",
                "addr:city": "Świebodzin",
                "addr:postcode": "66-200",
                "amenity": "pharmacy",
                "dispensing": "yes"
            },
            "geometry": {
                "type": "Point",
                "coordinates": [
                    15.54135183069234,
                    52.23523690041781
                ]
            }
        },
        {
            "type": "Feature",
            "properties": {
                "ref:csioz": 1149088,
                "name": "Moderna 11",
                "addr:street": "Długa",
                "addr:housenumber": "1",
                "addr:city": "Zbąszynek",
                "addr:postcode": "66-210",
                "amenity": "pharmacy",
                "dispensing": "yes"
            },
            "geometry": {
                "type": "Point",
                "coordinates": [
                    15.814894386828167,
                    52.24330545075587
                ]
            }
        },
        {
            "type": "Feature",
            "properties": {
                "ref:csioz": 1149109,
                "name": "Pod Aniołem",
                "addr:street": "Wojska Polskiego",
                "addr:housenumber": "57",
                "addr:city": "Zbąszynek",
                "addr:postcode": "66-210",
                "amenity": "pharmacy",
                "dispensing": "yes"
            },
            "geometry": {
                "type": "Point",
                "coordinates": [
                    15.814828628300711,
                    52.248697928945994
                ]
            }
        },
        {
            "type": "Feature",
            "properties": {
                "ref:csioz": 1166860,
                "addr:street": "Plażowa",
                "addr:housenumber": "6",
                "addr:city": "Lubrza",
                "addr:postcode": "66-218",
                "amenity": "pharmacy",
                "dispensing": "yes"
            },
            "geometry": {
                "type": "Point",
                "coordinates": [
                    15.441212634703168,
                    52.30411928892328
                ]
            }
        },
        {
            "type": "Feature",
            "properties": {
                "ref:csioz": 1166871,
                "addr:street": "Spacerowa",
                "addr:housenumber": "8",
                "addr:city": "Łagów",
                "addr:postcode": "66-220",
                "amenity": "pharmacy",
                "dispensing": "yes"
            },
            "geometry": {
                "type": "Point",
                "coordinates": [
                    15.297085309531337,
                    52.33313649439902
                ]
            }
        },
        {
            "type": "Feature",
            "properties": {
                "ref:csioz": 1167086,
                "name": "Apteka Szpitalna",
                "addr:street": "Młyńska",
                "addr:housenumber": "6",
                "addr:city": "Świebodzin",
                "addr:postcode": "66-200",
                "amenity": "pharmacy",
                "dispensing": "yes"
            },
            "geometry": {
                "type": "Point",
                "coordinates": [
                    15.534728577059752,
                    52.25230639708542
                ]
            }
        },
        {
            "type": "Feature",
            "properties": {
                "ref:csioz": 1195167,
                "name": "Medapteka",
                "addr:street": "Kościelna",
                "addr:housenumber": "3",
                "addr:city": "Świebodzin",
                "addr:postcode": "66-200",
                "amenity": "pharmacy",
                "dispensing": "yes"
            },
            "geometry": {
                "type": "Point",
                "coordinates": [
                    15.534021132614644,
                    52.249782051780606
                ]
            }
        },
        {
            "type": "Feature",
            "properties": {
                "ref:csioz": 1225600,
                "name": "Aspirynka",
                "addr:street": "Sulęcińska",
                "addr:housenumber": "4",
                "addr:city": "Łagów",
                "addr:postcode": "66-220",
                "amenity": "pharmacy",
                "dispensing": "yes"
            },
            "geometry": {
                "type": "Point",
                "coordinates": [
                    15.287122673221862,
                    52.334785718041935
                ]
            }
        },
        {
            "type": "Feature",
            "properties": {
                "ref:csioz": 1208730,
                "name": "Przy Targowej",
                "addr:street": "Targowa",
                "addr:housenumber": "1",
                "addr:city": "Zbąszynek",
                "addr:postcode": "66-210",
                "amenity": "pharmacy",
                "dispensing": "yes"
            },
            "geometry": {
                "type": "Point",
                "coordinates": [
                    15.814520506065408,
                    52.24410073448637
                ]
            }
        },
        {
            "type": "Feature",
            "properties": {
                "ref:csioz": 1229166,
                "name": "Centrum Zdrowia",
                "addr:street": "Herbowa",
                "addr:housenumber": "30 A",
                "addr:city": "Szczaniec",
                "addr:postcode": "66-225",
                "amenity": "pharmacy",
                "dispensing": "yes"
            },
            "geometry": {
                "type": "Point",
                "coordinates": [
                    15.68313330289183,
                    52.269198788360754
                ]
            }
        },
        {
            "type": "Feature",
            "properties": {
                "ref:csioz": 1164187,
                "addr:housenumber": "49a",
                "addr:postcode": "66-213",
                "amenity": "pharmacy",
                "addr:place": "Skąpe",
                "dispensing": "yes"
            },
            "geometry": {
                "type": "Point",
                "coordinates": [
                    15.457055999961174,
                    52.15278100001627
                ]
            }
        },
        {
            "type": "Feature",
            "properties": {
                "ref:csioz": 1167032,
                "addr:housenumber": "5",
                "addr:postcode": "66-212",
                "amenity": "pharmacy",
                "addr:place": "Cibórz",
                "dispensing": "yes"
            },
            "geometry": {
                "type": "Point",
                "coordinates": [
                    15.401583045031705,
                    52.14635325105953
                ]
            }
        }
    ]
}