{
    "type": "FeatureCollection",
    "name": "JPT_KOD_JE_3062",
    "features": [
        {
            "type": "Feature",
            "properties": {
                "ref:csioz": 1048755,
                "name": "Grodzka",
                "addr:street": "CHOPINA",
                "addr:housenumber": "19",
                "addr:city": "KONIN",
                "addr:postcode": "62-510",
                "amenity": "pharmacy",
                "dispensing": "yes"
            },
            "geometry": {
                "type": "Point",
                "coordinates": [
                    18.25436378476231,
                    52.232283512373755
                ]
            }
        },
        {
            "type": "Feature",
            "properties": {
                "ref:csioz": 1048172,
                "name": "Valeriana",
                "addr:street": "SZYMANOWSKIEGO",
                "addr:housenumber": "1",
                "addr:city": "KONIN",
                "addr:postcode": "62-510",
                "amenity": "pharmacy",
                "dispensing": "yes"
            },
            "geometry": {
                "type": "Point",
                "coordinates": [
                    18.24907204040439,
                    52.23608883346408
                ]
            }
        },
        {
            "type": "Feature",
            "properties": {
                "ref:csioz": 1048205,
                "name": "Familijna",
                "addr:street": "KOŚCIELNA",
                "addr:housenumber": "3",
                "addr:city": "KONIN",
                "addr:postcode": "62-500",
                "amenity": "pharmacy",
                "dispensing": "yes"
            },
            "geometry": {
                "type": "Point",
                "coordinates": [
                    18.256582054725015,
                    52.209593055060495
                ]
            }
        },
        {
            "type": "Feature",
            "properties": {
                "ref:csioz": 1048239,
                "name": "Śródmiejska",
                "addr:street": "1 MAJA",
                "addr:housenumber": "15",
                "addr:city": "KONIN",
                "addr:postcode": "62-510",
                "amenity": "pharmacy",
                "dispensing": "yes"
            },
            "geometry": {
                "type": "Point",
                "coordinates": [
                    18.25465716469519,
                    52.21013154412878
                ]
            }
        },
        {
            "type": "Feature",
            "properties": {
                "ref:csioz": 1048247,
                "name": "Pod Lwem",
                "addr:street": "3 MAJA",
                "addr:housenumber": "5",
                "addr:city": "KONIN",
                "addr:postcode": "62-500",
                "amenity": "pharmacy",
                "dispensing": "yes"
            },
            "geometry": {
                "type": "Point",
                "coordinates": [
                    18.254545999999717,
                    52.21123400001581
                ]
            }
        },
        {
            "type": "Feature",
            "properties": {
                "ref:csioz": 1048260,
                "name": "Dobrofarm",
                "addr:street": "WOLNOSCI",
                "addr:housenumber": "14",
                "addr:city": "KONIN",
                "addr:postcode": "62-500",
                "amenity": "pharmacy",
                "dispensing": "yes"
            },
            "geometry": {
                "type": "Point",
                "coordinates": [
                    18.254447886608627,
                    52.21160705064047
                ]
            }
        },
        {
            "type": "Feature",
            "properties": {
                "ref:csioz": 1048557,
                "name": "Staromiejska",
                "addr:street": "3 MAJA",
                "addr:housenumber": "62A",
                "addr:city": "KONIN",
                "addr:postcode": "62-500",
                "amenity": "pharmacy",
                "dispensing": "yes"
            },
            "geometry": {
                "type": "Point",
                "coordinates": [
                    18.254079429366968,
                    52.206651560754544
                ]
            }
        },
        {
            "type": "Feature",
            "properties": {
                "ref:csioz": 1048659,
                "name": "Salus",
                "addr:street": "SZPITALNA",
                "addr:housenumber": "45",
                "addr:city": "KONIN",
                "addr:postcode": "62-504",
                "amenity": "pharmacy",
                "dispensing": "yes"
            },
            "geometry": {
                "type": "Point",
                "coordinates": [
                    18.239178700111356,
                    52.19512327933651
                ]
            }
        },
        {
            "type": "Feature",
            "properties": {
                "ref:csioz": 1048849,
                "name": "Alba",
                "addr:street": "CHOPINA",
                "addr:housenumber": "9",
                "addr:city": "KONIN",
                "addr:postcode": "62-510",
                "amenity": "pharmacy",
                "dispensing": "yes"
            },
            "geometry": {
                "type": "Point",
                "coordinates": [
                    18.260994673615922,
                    52.23416537809669
                ]
            }
        },
        {
            "type": "Feature",
            "properties": {
                "ref:csioz": 1048896,
                "name": "Na Wzgórzu",
                "addr:street": "PIŁSUDSKIEGO",
                "addr:housenumber": "2",
                "addr:city": "KONIN",
                "addr:postcode": "62-504",
                "amenity": "pharmacy",
                "dispensing": "yes"
            },
            "geometry": {
                "type": "Point",
                "coordinates": [
                    18.23944256875899,
                    52.19790817900963
                ]
            }
        },
        {
            "type": "Feature",
            "properties": {
                "ref:csioz": 1049197,
                "name": "Kwiaty Polskie",
                "addr:street": "WIECHOWICZA",
                "addr:housenumber": "4",
                "addr:city": "KONIN",
                "addr:postcode": "62-510",
                "amenity": "pharmacy",
                "dispensing": "yes"
            },
            "geometry": {
                "type": "Point",
                "coordinates": [
                    18.25868153577288,
                    52.23423098271737
                ]
            }
        },
        {
            "type": "Feature",
            "properties": {
                "ref:csioz": 1049234,
                "name": "Stylowa",
                "addr:street": "CHOPINA",
                "addr:housenumber": "23B",
                "addr:city": "KONIN",
                "addr:postcode": "62-510",
                "amenity": "pharmacy",
                "dispensing": "yes"
            },
            "geometry": {
                "type": "Point",
                "coordinates": [
                    18.256915293255272,
                    52.231888041516406
                ]
            }
        },
        {
            "type": "Feature",
            "properties": {
                "ref:csioz": 1049384,
                "name": "Prima",
                "addr:street": "ZAMKOWY",
                "addr:housenumber": "14",
                "addr:city": "KONIN",
                "addr:postcode": "62-500",
                "amenity": "pharmacy",
                "dispensing": "yes"
            },
            "geometry": {
                "type": "Point",
                "coordinates": [
                    18.252585692168594,
                    52.21076062863555
                ]
            }
        },
        {
            "type": "Feature",
            "properties": {
                "ref:csioz": 1049431,
                "name": "Zatorze",
                "addr:street": "SZELIGOWSKIEGO",
                "addr:housenumber": "1",
                "addr:city": "KONIN",
                "addr:postcode": "62-510",
                "amenity": "pharmacy",
                "dispensing": "yes"
            },
            "geometry": {
                "type": "Point",
                "coordinates": [
                    18.26024977523887,
                    52.23456778256703
                ]
            }
        },
        {
            "type": "Feature",
            "properties": {
                "ref:csioz": 1049466,
                "name": "Med-Alko",
                "addr:street": "DWORCOWA",
                "addr:housenumber": "8",
                "addr:city": "KONIN",
                "addr:postcode": "62-510",
                "amenity": "pharmacy",
                "dispensing": "yes"
            },
            "geometry": {
                "type": "Point",
                "coordinates": [
                    18.251708817020564,
                    52.230185613576765
                ]
            }
        },
        {
            "type": "Feature",
            "properties": {
                "ref:csioz": 1180067,
                "name": "Stylowa 4",
                "addr:street": "1 MAJA",
                "addr:housenumber": "10B",
                "addr:city": "Konin",
                "addr:postcode": "62-510",
                "amenity": "pharmacy",
                "dispensing": "yes"
            },
            "geometry": {
                "type": "Point",
                "coordinates": [
                    18.256641681990306,
                    52.204133029434864
                ]
            }
        },
        {
            "type": "Feature",
            "properties": {
                "ref:csioz": 1212979,
                "name": "Pamiątkowa",
                "addr:street": "Kardynała Stefana Wyszyńskiego",
                "addr:housenumber": "32",
                "addr:city": "Konin",
                "addr:postcode": "62-510",
                "amenity": "pharmacy",
                "dispensing": "yes"
            },
            "geometry": {
                "type": "Point",
                "coordinates": [
                    18.27469899999973,
                    52.22876700001583
                ]
            }
        },
        {
            "type": "Feature",
            "properties": {
                "ref:csioz": 1049848,
                "addr:street": "SZPITALNA",
                "addr:housenumber": "45",
                "addr:city": "KONIN",
                "addr:postcode": "62-500",
                "amenity": "pharmacy",
                "dispensing": "yes"
            },
            "geometry": {
                "type": "Point",
                "coordinates": [
                    18.239178700111356,
                    52.19512327933651
                ]
            }
        },
        {
            "type": "Feature",
            "properties": {
                "ref:csioz": 1048470,
                "name": "Łężyńska",
                "addr:street": "ŁĘŻYŃSKA",
                "addr:housenumber": "13A",
                "addr:city": "KONIN",
                "addr:postcode": "62-510",
                "amenity": "pharmacy",
                "dispensing": "yes"
            },
            "geometry": {
                "type": "Point",
                "coordinates": [
                    18.290289444984968,
                    52.316856402486366
                ]
            }
        },
        {
            "type": "Feature",
            "properties": {
                "ref:csioz": 1048443,
                "name": "Pini Plus",
                "addr:street": "KAZIMIERZA WIELKIEGO",
                "addr:housenumber": "1A",
                "addr:city": "KONIN",
                "addr:postcode": "62-510",
                "amenity": "pharmacy",
                "dispensing": "yes"
            },
            "geometry": {
                "type": "Point",
                "coordinates": [
                    18.207781438170883,
                    52.232379985002645
                ]
            }
        },
        {
            "type": "Feature",
            "properties": {
                "ref:csioz": 1048940,
                "name": "Medifarm",
                "addr:street": "ZAKOLE",
                "addr:housenumber": "2A",
                "addr:city": "KONIN",
                "addr:postcode": "62-510",
                "amenity": "pharmacy",
                "dispensing": "yes"
            },
            "geometry": {
                "type": "Point",
                "coordinates": [
                    18.27811633870694,
                    52.23257448727725
                ]
            }
        },
        {
            "type": "Feature",
            "properties": {
                "ref:csioz": 1049242,
                "name": "Stylowa 3",
                "addr:street": "ZAKOLE",
                "addr:housenumber": "4",
                "addr:city": "KONIN",
                "addr:postcode": "62-510",
                "amenity": "pharmacy",
                "dispensing": "yes"
            },
            "geometry": {
                "type": "Point",
                "coordinates": [
                    18.277939277635486,
                    52.233284307491786
                ]
            }
        },
        {
            "type": "Feature",
            "properties": {
                "ref:csioz": 1049269,
                "name": "Prima",
                "addr:street": "POZNAŃSKA",
                "addr:housenumber": "81",
                "addr:city": "KONIN",
                "addr:postcode": "62-510",
                "amenity": "pharmacy",
                "dispensing": "yes"
            },
            "geometry": {
                "type": "Point",
                "coordinates": [
                    18.21316501916681,
                    52.231692103105765
                ]
            }
        },
        {
            "type": "Feature",
            "properties": {
                "ref:csioz": 1049288,
                "name": "Prima",
                "addr:street": "SOSNOWA",
                "addr:housenumber": "9",
                "addr:city": "KONIN",
                "addr:postcode": "62-510",
                "amenity": "pharmacy",
                "dispensing": "yes"
            },
            "geometry": {
                "type": "Point",
                "coordinates": [
                    18.280473441376067,
                    52.23352122782728
                ]
            }
        },
        {
            "type": "Feature",
            "properties": {
                "ref:csioz": 1049300,
                "name": "Dr. Max",
                "addr:street": "SPÓŁDZIELCÓW",
                "addr:housenumber": "6",
                "addr:city": "KONIN",
                "addr:postcode": "62-510",
                "amenity": "pharmacy",
                "dispensing": "yes"
            },
            "geometry": {
                "type": "Point",
                "coordinates": [
                    18.237890459439523,
                    52.23114039352126
                ]
            }
        },
        {
            "type": "Feature",
            "properties": {
                "ref:csioz": 1049368,
                "name": "Prima",
                "addr:street": "11 LISTOPADA",
                "addr:housenumber": "6",
                "addr:city": "KONIN",
                "addr:postcode": "62-510",
                "amenity": "pharmacy",
                "dispensing": "yes"
            },
            "geometry": {
                "type": "Point",
                "coordinates": [
                    18.268146999999733,
                    52.23069900001584
                ]
            }
        },
        {
            "type": "Feature",
            "properties": {
                "ref:csioz": 1049453,
                "name": "Apteka Med-Alko",
                "addr:street": "PRZYJAŹNI",
                "addr:housenumber": "3",
                "addr:city": "KONIN",
                "addr:postcode": "62-510",
                "amenity": "pharmacy",
                "dispensing": "yes"
            },
            "geometry": {
                "type": "Point",
                "coordinates": [
                    18.271441478134584,
                    52.22824925238784
                ]
            }
        },
        {
            "type": "Feature",
            "properties": {
                "ref:csioz": 1049861,
                "addr:street": "POŁUDNIOWA",
                "addr:housenumber": "3",
                "addr:city": "KONIN",
                "addr:postcode": "62-510",
                "amenity": "pharmacy",
                "dispensing": "yes"
            },
            "geometry": {
                "type": "Point",
                "coordinates": [
                    18.28247232892453,
                    52.22712594636548
                ]
            }
        },
        {
            "type": "Feature",
            "properties": {
                "ref:csioz": 1120146,
                "name": "Prima",
                "addr:street": "Szpitalna",
                "addr:housenumber": "12",
                "addr:city": "KONIN",
                "addr:postcode": "62-500",
                "amenity": "pharmacy",
                "dispensing": "yes"
            },
            "geometry": {
                "type": "Point",
                "coordinates": [
                    18.244621300308953,
                    52.201459491848084
                ]
            }
        },
        {
            "type": "Feature",
            "properties": {
                "ref:csioz": 1118454,
                "name": "Vita-Pharm",
                "addr:street": "Przemysłowa",
                "addr:housenumber": "10",
                "addr:city": "Konin",
                "addr:postcode": "62-510",
                "amenity": "pharmacy",
                "dispensing": "yes"
            },
            "geometry": {
                "type": "Point",
                "coordinates": [
                    18.26527456463563,
                    52.2288141149117
                ]
            }
        },
        {
            "type": "Feature",
            "properties": {
                "ref:csioz": 1123055,
                "addr:street": "WOJSKA POLSKIEGO",
                "addr:housenumber": "6",
                "addr:city": "KONIN",
                "addr:postcode": "62-500",
                "amenity": "pharmacy",
                "dispensing": "yes"
            },
            "geometry": {
                "type": "Point",
                "coordinates": [
                    18.254639188537414,
                    52.214612959940816
                ]
            }
        },
        {
            "type": "Feature",
            "properties": {
                "ref:csioz": 1123064,
                "name": "Med-Alko",
                "addr:street": "GAJOWA",
                "addr:housenumber": "7",
                "addr:city": "KONIN",
                "addr:postcode": "62-510",
                "amenity": "pharmacy",
                "dispensing": "yes"
            },
            "geometry": {
                "type": "Point",
                "coordinates": [
                    18.274501999999732,
                    52.244675000015846
                ]
            }
        },
        {
            "type": "Feature",
            "properties": {
                "ref:csioz": 1123078,
                "addr:street": "SZPITALNA",
                "addr:housenumber": "43",
                "addr:city": "KONIN",
                "addr:postcode": "62-500",
                "amenity": "pharmacy",
                "dispensing": "yes"
            },
            "geometry": {
                "type": "Point",
                "coordinates": [
                    18.24008695777257,
                    52.19711932383353
                ]
            }
        },
        {
            "type": "Feature",
            "properties": {
                "ref:csioz": 1123086,
                "addr:street": "LESZCZYNOWA",
                "addr:housenumber": "33",
                "addr:city": "KONIN",
                "addr:postcode": "62-500",
                "amenity": "pharmacy",
                "dispensing": "yes"
            },
            "geometry": {
                "type": "Point",
                "coordinates": [
                    18.28856709029609,
                    52.196967051826434
                ]
            }
        },
        {
            "type": "Feature",
            "properties": {
                "ref:csioz": 1183749,
                "name": "Apteka Gemini",
                "addr:street": "11 Listopada",
                "addr:housenumber": "27",
                "addr:city": "Konin",
                "addr:postcode": "62-510",
                "amenity": "pharmacy",
                "dispensing": "yes"
            },
            "geometry": {
                "type": "Point",
                "coordinates": [
                    18.246677077160648,
                    52.20771663021134
                ]
            }
        },
        {
            "type": "Feature",
            "properties": {
                "ref:csioz": 1184266,
                "name": "Eskulap",
                "addr:street": "Tadeusza Szeligowskiego",
                "addr:housenumber": "1",
                "addr:city": "Konin",
                "addr:postcode": "62-510",
                "amenity": "pharmacy",
                "dispensing": "yes"
            },
            "geometry": {
                "type": "Point",
                "coordinates": [
                    18.26024977523887,
                    52.23456778256703
                ]
            }
        },
        {
            "type": "Feature",
            "properties": {
                "ref:csioz": 1184289,
                "name": "Nzoz Euromed",
                "addr:street": "Tadeusza Szeligowskiego",
                "addr:housenumber": "1",
                "addr:city": "Konin",
                "addr:postcode": "62-510",
                "amenity": "pharmacy",
                "dispensing": "yes"
            },
            "geometry": {
                "type": "Point",
                "coordinates": [
                    18.26024977523887,
                    52.23456778256703
                ]
            }
        },
        {
            "type": "Feature",
            "properties": {
                "ref:csioz": 1187031,
                "name": "Vita-Pharm",
                "addr:street": "Energetyka",
                "addr:housenumber": "6b",
                "addr:city": "Konin",
                "addr:postcode": "62-510",
                "amenity": "pharmacy",
                "dispensing": "yes"
            },
            "geometry": {
                "type": "Point",
                "coordinates": [
                    18.25228657009562,
                    52.227708803642344
                ]
            }
        },
        {
            "type": "Feature",
            "properties": {
                "ref:csioz": 1194313,
                "name": "Vita-Pharm",
                "addr:street": "Kardynała Stefana Wyszyńskiego",
                "addr:housenumber": "1",
                "addr:city": "Konin",
                "addr:postcode": "62-510",
                "amenity": "pharmacy",
                "dispensing": "yes"
            },
            "geometry": {
                "type": "Point",
                "coordinates": [
                    18.265777798317096,
                    52.225950076852286
                ]
            }
        },
        {
            "type": "Feature",
            "properties": {
                "ref:csioz": 1202769,
                "name": "Stylowa 5",
                "addr:street": "3 Maja",
                "addr:housenumber": "24",
                "addr:city": "Konin",
                "addr:postcode": "62-500",
                "amenity": "pharmacy",
                "dispensing": "yes"
            },
            "geometry": {
                "type": "Point",
                "coordinates": [
                    18.210771958441594,
                    52.23704554255758
                ]
            }
        },
        {
            "type": "Feature",
            "properties": {
                "ref:csioz": 1207060,
                "name": "Prima",
                "addr:street": "Henryka Wieniawskiego",
                "addr:housenumber": "9",
                "addr:city": "Konin",
                "addr:postcode": "62-510",
                "amenity": "pharmacy",
                "dispensing": "yes"
            },
            "geometry": {
                "type": "Point",
                "coordinates": [
                    18.25321912984591,
                    52.23430356714878
                ]
            }
        },
        {
            "type": "Feature",
            "properties": {
                "ref:csioz": 1206595,
                "name": "Prima",
                "addr:street": "Wojska Polskiego",
                "addr:housenumber": "33A",
                "addr:city": "Konin",
                "addr:postcode": "62-500",
                "amenity": "pharmacy",
                "dispensing": "yes"
            },
            "geometry": {
                "type": "Point",
                "coordinates": [
                    18.25232707349415,
                    52.21795593166466
                ]
            }
        },
        {
            "type": "Feature",
            "properties": {
                "ref:csioz": 1206601,
                "name": "Prima",
                "addr:street": "Spółdzielców",
                "addr:housenumber": "31B",
                "addr:city": "Konin",
                "addr:postcode": "62-510",
                "amenity": "pharmacy",
                "dispensing": "yes"
            },
            "geometry": {
                "type": "Point",
                "coordinates": [
                    18.221091419373018,
                    52.23350205221563
                ]
            }
        },
        {
            "type": "Feature",
            "properties": {
                "ref:csioz": 1222777,
                "name": "Gemini",
                "addr:street": "Dworcowa",
                "addr:housenumber": "15c",
                "addr:city": "Konin",
                "addr:postcode": "62-510",
                "amenity": "pharmacy",
                "dispensing": "yes"
            },
            "geometry": {
                "type": "Point",
                "coordinates": [
                    18.250494176536968,
                    52.22949875843626
                ]
            }
        },
        {
            "type": "Feature",
            "properties": {
                "ref:csioz": 1224143,
                "name": "Medica",
                "addr:street": "Stanisława Staszica",
                "addr:housenumber": "1",
                "addr:city": "Konin",
                "addr:postcode": "62-500",
                "amenity": "pharmacy",
                "dispensing": "yes"
            },
            "geometry": {
                "type": "Point",
                "coordinates": [
                    18.25396811596993,
                    52.20957855224284
                ]
            }
        },
        {
            "type": "Feature",
            "properties": {
                "ref:csioz": 1228723,
                "addr:street": "Zakładowa",
                "addr:housenumber": "5E",
                "addr:city": "Konin",
                "addr:postcode": "62-510",
                "amenity": "pharmacy",
                "dispensing": "yes"
            },
            "geometry": {
                "type": "Point",
                "coordinates": [
                    18.240718385162136,
                    52.23733432273098
                ]
            }
        },
        {
            "type": "Feature",
            "properties": {
                "ref:csioz": 1179678,
                "name": "Apteka Cosmedica",
                "addr:street": "Ignacego Paderewskiego",
                "addr:housenumber": "8",
                "addr:city": "Konin",
                "addr:postcode": "62-510",
                "amenity": "pharmacy",
                "dispensing": "yes"
            },
            "geometry": {
                "type": "Point",
                "coordinates": [
                    18.261099085074733,
                    52.23833219625643
                ]
            }
        }
    ]
}