{
    "type": "FeatureCollection",
    "name": "JPT_KOD_JE_2264",
    "features": [
        {
            "type": "Feature",
            "properties": {
                "ref:csioz": 1025939,
                "name": "\"Apteka \"\"Kuracyjna\"\" S.C.\"",
                "addr:street": "Niepodległości",
                "addr:housenumber": "715",
                "addr:city": "Sopot",
                "addr:postcode": "81-853",
                "amenity": "pharmacy",
                "dispensing": "yes"
            },
            "geometry": {
                "type": "Point",
                "coordinates": [
                    18.561730290709164,
                    54.43478867251469
                ]
            }
        },
        {
            "type": "Feature",
            "properties": {
                "ref:csioz": 1026172,
                "name": "Brodwino",
                "addr:street": "Władysława Cieszyńskiego",
                "addr:housenumber": "22",
                "addr:city": "Sopot",
                "addr:postcode": "81-881",
                "amenity": "pharmacy",
                "dispensing": "yes"
            },
            "geometry": {
                "type": "Point",
                "coordinates": [
                    18.535132389909652,
                    54.45698874478256
                ]
            }
        },
        {
            "type": "Feature",
            "properties": {
                "ref:csioz": 1030220,
                "name": "Vitalis",
                "addr:street": "Armii Krajowej",
                "addr:housenumber": "114",
                "addr:city": "Sopot",
                "addr:postcode": "81-824",
                "amenity": "pharmacy",
                "dispensing": "yes"
            },
            "geometry": {
                "type": "Point",
                "coordinates": [
                    18.5564018861493,
                    54.44597781437764
                ]
            }
        },
        {
            "type": "Feature",
            "properties": {
                "ref:csioz": 1032904,
                "name": "Apteka Dyżurna",
                "addr:street": "Józefa Kraszewskiego",
                "addr:housenumber": "26",
                "addr:city": "Sopot",
                "addr:postcode": "81-815",
                "amenity": "pharmacy",
                "dispensing": "yes"
            },
            "geometry": {
                "type": "Point",
                "coordinates": [
                    18.548955759183567,
                    54.45394498052007
                ]
            }
        },
        {
            "type": "Feature",
            "properties": {
                "ref:csioz": 1034230,
                "name": "Dział Farmacji Szpitalnej W Zakładzie Leczniczym: Oddziały Lecznictwa Stacjonarnego",
                "addr:street": "Bolesława Chrobrego",
                "addr:housenumber": "6",
                "addr:city": "Sopot",
                "addr:postcode": "81-756",
                "amenity": "pharmacy",
                "dispensing": "yes"
            },
            "geometry": {
                "type": "Point",
                "coordinates": [
                    18.568004999999793,
                    54.4397360000195
                ]
            }
        },
        {
            "type": "Feature",
            "properties": {
                "ref:csioz": 1034405,
                "name": "\"Dział Farmacji Szpitalnej W Centrum Medycznym \"\"Sopmed\"\"\"",
                "addr:street": "Bolesława Chrobrego",
                "addr:housenumber": "6",
                "addr:city": "Sopot",
                "addr:postcode": "81-756",
                "amenity": "pharmacy",
                "dispensing": "yes"
            },
            "geometry": {
                "type": "Point",
                "coordinates": [
                    18.568004999999793,
                    54.4397060000195
                ]
            }
        },
        {
            "type": "Feature",
            "properties": {
                "ref:csioz": 1116954,
                "name": "Przy Pętli",
                "addr:street": "Niepodległości",
                "addr:housenumber": "675",
                "addr:city": "Sopot",
                "addr:postcode": "81-854",
                "amenity": "pharmacy",
                "dispensing": "yes"
            },
            "geometry": {
                "type": "Point",
                "coordinates": [
                    18.562328999999785,
                    54.43019200001948
                ]
            }
        },
        {
            "type": "Feature",
            "properties": {
                "ref:csioz": 1189269,
                "name": "Dom Leków",
                "addr:street": "Małopolska",
                "addr:housenumber": "7",
                "addr:city": "Sopot",
                "addr:postcode": "81-813",
                "amenity": "pharmacy",
                "dispensing": "yes"
            },
            "geometry": {
                "type": "Point",
                "coordinates": [
                    18.551857624511612,
                    54.45701559180673
                ]
            }
        },
        {
            "type": "Feature",
            "properties": {
                "ref:csioz": 1203196,
                "name": "Cosmedica",
                "addr:street": "Tadeusza Kościuszki",
                "addr:housenumber": "14",
                "addr:city": "Sopot",
                "addr:postcode": "81-704",
                "amenity": "pharmacy",
                "dispensing": "yes"
            },
            "geometry": {
                "type": "Point",
                "coordinates": [
                    18.563546537280768,
                    54.441285888489666
                ]
            }
        },
        {
            "type": "Feature",
            "properties": {
                "ref:csioz": 1230842,
                "name": "Apteka Szpitalna W Szpitalu Pomorskiego Centrum Reumatologicznego Im. Dr Jadwigi Titz-Kosko W Sopocie",
                "addr:street": "Marca 23",
                "addr:housenumber": "93",
                "addr:city": "Sopot",
                "addr:postcode": "81-820",
                "amenity": "pharmacy",
                "dispensing": "yes"
            },
            "geometry": {
                "type": "Point",
                "coordinates": [
                    18.540499933505796,
                    54.44759262368057
                ]
            }
        },
        {
            "type": "Feature",
            "properties": {
                "ref:csioz": 1027547,
                "name": "Apteka Dbam O Zdrowie",
                "addr:street": "Grunwaldzka",
                "addr:housenumber": "64",
                "addr:city": "Sopot",
                "addr:postcode": "81-771",
                "amenity": "pharmacy",
                "dispensing": "yes"
            },
            "geometry": {
                "type": "Point",
                "coordinates": [
                    18.572630407583826,
                    54.44019109559728
                ]
            }
        },
        {
            "type": "Feature",
            "properties": {
                "ref:csioz": 1029278,
                "name": "Apteka Dyżurna",
                "addr:street": "Tadeusza Kościuszki",
                "addr:housenumber": "7",
                "addr:city": "Sopot",
                "addr:postcode": "81-704",
                "amenity": "pharmacy",
                "dispensing": "yes"
            },
            "geometry": {
                "type": "Point",
                "coordinates": [
                    18.563740138289763,
                    54.4418018632838
                ]
            }
        },
        {
            "type": "Feature",
            "properties": {
                "ref:csioz": 1031451,
                "name": "Gemini",
                "addr:street": "Bolesława Chrobrego",
                "addr:housenumber": "1",
                "addr:city": "Sopot",
                "addr:postcode": "81-756",
                "amenity": "pharmacy",
                "dispensing": "yes"
            },
            "geometry": {
                "type": "Point",
                "coordinates": [
                    18.568534999999795,
                    54.44047500001951
                ]
            }
        },
        {
            "type": "Feature",
            "properties": {
                "ref:csioz": 1034179,
                "name": "Dział Farmacji Szpitalnej W Hospicjum Stacjonarnym",
                "addr:street": "Niepodległości",
                "addr:housenumber": "632",
                "addr:city": "Sopot",
                "addr:postcode": "81-855",
                "amenity": "pharmacy",
                "dispensing": "yes"
            },
            "geometry": {
                "type": "Point",
                "coordinates": [
                    18.56067699999978,
                    54.42514900001946
                ]
            }
        },
        {
            "type": "Feature",
            "properties": {
                "ref:csioz": 1034187,
                "name": "Dział Farmacji Szpitalnej W Sanatorium",
                "addr:street": "Bitwy pod Płowcami",
                "addr:housenumber": "63",
                "addr:city": "Sopot",
                "addr:postcode": "81-731",
                "amenity": "pharmacy",
                "dispensing": "yes"
            },
            "geometry": {
                "type": "Point",
                "coordinates": [
                    18.585173999999803,
                    54.432158000019484
                ]
            }
        },
        {
            "type": "Feature",
            "properties": {
                "ref:csioz": 1189242,
                "name": "Dom Leków",
                "addr:street": "Bohaterów Monte Cassino",
                "addr:housenumber": "37",
                "addr:city": "Sopot",
                "addr:postcode": "81-967",
                "amenity": "pharmacy",
                "dispensing": "yes"
            },
            "geometry": {
                "type": "Point",
                "coordinates": [
                    18.56405308547483,
                    54.44347547101224
                ]
            }
        },
        {
            "type": "Feature",
            "properties": {
                "ref:csioz": 1193631,
                "name": "Cosmedica",
                "addr:street": "Bohaterów Monte Cassino",
                "addr:housenumber": "44",
                "addr:city": "Sopot",
                "addr:postcode": "81-759",
                "amenity": "pharmacy",
                "dispensing": "yes"
            },
            "geometry": {
                "type": "Point",
                "coordinates": [
                    18.566676553386756,
                    54.443973964336685
                ]
            }
        },
        {
            "type": "Feature",
            "properties": {
                "ref:csioz": 1209645,
                "name": "\"Dział Farmacji Szpitalnej W Zakładzie Leczniczym: Centrum Mikrochirurgii Oka \"\"Kardiotel-Blikpol\"\"\"",
                "addr:street": "Jana z Kolna",
                "addr:housenumber": "16",
                "addr:city": "Sopot",
                "addr:postcode": "81-741",
                "amenity": "pharmacy",
                "dispensing": "yes"
            },
            "geometry": {
                "type": "Point",
                "coordinates": [
                    18.567287053325046,
                    54.433592837116706
                ]
            }
        },
        {
            "type": "Feature",
            "properties": {
                "ref:csioz": 1217385,
                "name": "Apteka Dyżurna",
                "addr:street": "Bolesława Chrobrego",
                "addr:housenumber": "6/8",
                "addr:city": "Sopot",
                "addr:postcode": "81-756",
                "amenity": "pharmacy",
                "dispensing": "yes"
            },
            "geometry": {
                "type": "Point",
                "coordinates": [
                    18.567961999999792,
                    54.43968800001951
                ]
            }
        },
        {
            "type": "Feature",
            "properties": {
                "ref:csioz": 1229014,
                "name": "Dział Farmacji Szpitalnej W Zakładzie Leczniczym: Cardiopace Sopot",
                "addr:street": "Grunwaldzka",
                "addr:housenumber": "5",
                "addr:city": "Sopot",
                "addr:postcode": "81-759",
                "amenity": "pharmacy",
                "dispensing": "yes"
            },
            "geometry": {
                "type": "Point",
                "coordinates": [
                    18.569790914992222,
                    54.44439452725904
                ]
            }
        },
        {
            "type": "Feature",
            "properties": {
                "ref:csioz": 1195481,
                "name": "\"Apteka \"\"Vitalis\"\" Anita Makosiewicz\"",
                "addr:street": "23 Marca",
                "addr:housenumber": "79 A",
                "addr:city": "Sopot",
                "addr:postcode": "81-820",
                "amenity": "pharmacy",
                "dispensing": "yes"
            },
            "geometry": {
                "type": "Point",
                "coordinates": [
                    18.543719850304896,
                    54.44798580435325
                ]
            }
        }
    ]
}