{
    "type": "FeatureCollection",
    "name": "JPT_KOD_JE_2802",
    "features": [
        {
            "type": "Feature",
            "properties": {
                "ref:csioz": 1016372,
                "name": "Promyk",
                "addr:housenumber": "95",
                "addr:postcode": "14-405",
                "amenity": "pharmacy",
                "addr:place": "Wilczęta",
                "dispensing": "yes"
            },
            "geometry": {
                "type": "Point",
                "coordinates": [
                    19.88555698923131,
                    54.16772593942934
                ]
            }
        },
        {
            "type": "Feature",
            "properties": {
                "ref:csioz": 1119854,
                "name": "Apteka Dyżurna",
                "addr:street": "Gdańska",
                "addr:housenumber": "32",
                "addr:city": "Braniewo",
                "addr:postcode": "14-500",
                "amenity": "pharmacy",
                "dispensing": "yes"
            },
            "geometry": {
                "type": "Point",
                "coordinates": [
                    19.825568639440274,
                    54.38241607256287
                ]
            }
        },
        {
            "type": "Feature",
            "properties": {
                "ref:csioz": 1166746,
                "name": "Dyżurna",
                "addr:street": "Żeromskiego",
                "addr:housenumber": "14A",
                "addr:city": "BRANIEWO",
                "addr:postcode": "14-500",
                "amenity": "pharmacy",
                "dispensing": "yes"
            },
            "geometry": {
                "type": "Point",
                "coordinates": [
                    19.834592364720237,
                    54.386920265733444
                ]
            }
        },
        {
            "type": "Feature",
            "properties": {
                "ref:csioz": 1211249,
                "name": "Klinika Potocki Poradnie Specjalistyczne",
                "addr:street": "Botaniczna",
                "addr:housenumber": "11",
                "addr:city": "Braniewo",
                "addr:postcode": "14-500",
                "amenity": "pharmacy",
                "dispensing": "yes"
            },
            "geometry": {
                "type": "Point",
                "coordinates": [
                    19.826725868251266,
                    54.38058443544062
                ]
            }
        },
        {
            "type": "Feature",
            "properties": {
                "ref:csioz": 1014809,
                "addr:street": "Moniuszki",
                "addr:housenumber": "13",
                "addr:city": "BRANIEWO",
                "addr:postcode": "14-500",
                "amenity": "pharmacy",
                "dispensing": "yes"
            },
            "geometry": {
                "type": "Point",
                "coordinates": [
                    19.829009116368674,
                    54.37471607969466
                ]
            }
        },
        {
            "type": "Feature",
            "properties": {
                "ref:csioz": 1014823,
                "addr:street": "Sanatoryjna",
                "addr:housenumber": "1",
                "addr:city": "FROMBORK",
                "addr:postcode": "14-530",
                "amenity": "pharmacy",
                "dispensing": "yes"
            },
            "geometry": {
                "type": "Point",
                "coordinates": [
                    19.679330339239012,
                    54.35284281775163
                ]
            }
        },
        {
            "type": "Feature",
            "properties": {
                "ref:csioz": 1040327,
                "name": "Apteka Centrum",
                "addr:street": "Kościuszki",
                "addr:housenumber": "14",
                "addr:city": "BRANIEWO",
                "addr:postcode": "14-500",
                "amenity": "pharmacy",
                "dispensing": "yes"
            },
            "geometry": {
                "type": "Point",
                "coordinates": [
                    19.829661289618453,
                    54.383531128009636
                ]
            }
        },
        {
            "type": "Feature",
            "properties": {
                "ref:csioz": 1040334,
                "name": "Apteka Dbam O Zdrowie",
                "addr:street": "Gdańska",
                "addr:housenumber": "19",
                "addr:city": "Braniewo",
                "addr:postcode": "14-500",
                "amenity": "pharmacy",
                "dispensing": "yes"
            },
            "geometry": {
                "type": "Point",
                "coordinates": [
                    19.822852124362374,
                    54.38135999029268
                ]
            }
        },
        {
            "type": "Feature",
            "properties": {
                "ref:csioz": 1040342,
                "addr:street": "Elbląska",
                "addr:housenumber": "6",
                "addr:city": "BRANIEWO",
                "addr:postcode": "14-500",
                "amenity": "pharmacy",
                "dispensing": "yes"
            },
            "geometry": {
                "type": "Point",
                "coordinates": [
                    19.818594467877112,
                    54.37970224901249
                ]
            }
        },
        {
            "type": "Feature",
            "properties": {
                "ref:csioz": 1040350,
                "addr:street": "Kościuszki",
                "addr:housenumber": "63",
                "addr:city": "Braniewo",
                "addr:postcode": "14-500",
                "amenity": "pharmacy",
                "dispensing": "yes"
            },
            "geometry": {
                "type": "Point",
                "coordinates": [
                    19.833164662324876,
                    54.38271053508463
                ]
            }
        },
        {
            "type": "Feature",
            "properties": {
                "ref:csioz": 1040369,
                "name": "Apteka Dbam O Zdrowie",
                "addr:street": "Kościuszki",
                "addr:housenumber": "66",
                "addr:city": "BRANIEWO",
                "addr:postcode": "14-500",
                "amenity": "pharmacy",
                "dispensing": "yes"
            },
            "geometry": {
                "type": "Point",
                "coordinates": [
                    19.83230050191963,
                    54.38254249685953
                ]
            }
        },
        {
            "type": "Feature",
            "properties": {
                "ref:csioz": 1040375,
                "name": "Warmińska",
                "addr:street": "Piłsudskiego",
                "addr:housenumber": "5",
                "addr:city": "BRANIEWO",
                "addr:postcode": "14-500",
                "amenity": "pharmacy",
                "dispensing": "yes"
            },
            "geometry": {
                "type": "Point",
                "coordinates": [
                    19.82538529284348,
                    54.38459755250987
                ]
            }
        },
        {
            "type": "Feature",
            "properties": {
                "ref:csioz": 1040391,
                "name": "Apteka Dbam O Zdrowie",
                "addr:street": "Rybacka",
                "addr:housenumber": "6A",
                "addr:city": "FROMBORK",
                "addr:postcode": "14-530",
                "amenity": "pharmacy",
                "dispensing": "yes"
            },
            "geometry": {
                "type": "Point",
                "coordinates": [
                    19.680496161156785,
                    54.3584405267999
                ]
            }
        },
        {
            "type": "Feature",
            "properties": {
                "ref:csioz": 1041076,
                "addr:street": "Generalska",
                "addr:housenumber": "4",
                "addr:city": "Pieniężno",
                "addr:postcode": "14-520",
                "amenity": "pharmacy",
                "dispensing": "yes"
            },
            "geometry": {
                "type": "Point",
                "coordinates": [
                    20.129386467098243,
                    54.23924764720519
                ]
            }
        },
        {
            "type": "Feature",
            "properties": {
                "ref:csioz": 1041084,
                "name": "\"Apteka Im. Pasteur'A\"",
                "addr:street": "Generalska",
                "addr:housenumber": "7",
                "addr:city": "PIENIĘŻNO",
                "addr:postcode": "14-520",
                "amenity": "pharmacy",
                "dispensing": "yes"
            },
            "geometry": {
                "type": "Point",
                "coordinates": [
                    20.128354803571877,
                    54.23900439842356
                ]
            }
        },
        {
            "type": "Feature",
            "properties": {
                "ref:csioz": 1186616,
                "name": "Centralna",
                "addr:street": "1 Maja",
                "addr:housenumber": "3E",
                "addr:city": "Pieniężno",
                "addr:postcode": "14-520",
                "amenity": "pharmacy",
                "dispensing": "yes"
            },
            "geometry": {
                "type": "Point",
                "coordinates": [
                    20.12939553894528,
                    54.23585148841051
                ]
            }
        }
    ]
}