{
    "type": "FeatureCollection",
    "name": "JPT_KOD_JE_2811",
    "features": [
        {
            "type": "Feature",
            "properties": {
                "ref:csioz": 1015048,
                "addr:housenumber": "149",
                "addr:postcode": "13-111",
                "amenity": "pharmacy",
                "addr:place": "Janowiec Kościelny"
            },
            "geometry": {
                "type": "Point",
                "coordinates": [
                    20.52514679856566,
                    53.29485146907619
                ]
            }
        },
        {
            "type": "Feature",
            "properties": {
                "ref:csioz": 1039525,
                "name": "Centrum",
                "addr:street": "Mickiewicza",
                "addr:housenumber": "1",
                "addr:city": "Nidzica",
                "addr:postcode": "13-100",
                "amenity": "pharmacy"
            },
            "geometry": {
                "type": "Point",
                "coordinates": [
                    20.426594552054134,
                    53.36057537594416
                ]
            }
        },
        {
            "type": "Feature",
            "properties": {
                "ref:csioz": 1039549,
                "name": "Słoneczna",
                "addr:street": "Plac Wolności",
                "addr:housenumber": "10",
                "addr:flats": "11",
                "addr:city": "Nidzica",
                "addr:postcode": "13-100",
                "amenity": "pharmacy"
            },
            "geometry": {
                "type": "Point",
                "coordinates": [
                    20.426390000000936,
                    53.358888000017664
                ]
            }
        },
        {
            "type": "Feature",
            "properties": {
                "ref:csioz": 1039558,
                "addr:street": "Kościuszki",
                "addr:housenumber": "8",
                "addr:city": "Nidzica",
                "addr:postcode": "13-100",
                "amenity": "pharmacy"
            },
            "geometry": {
                "type": "Point",
                "coordinates": [
                    20.42252555058351,
                    53.358655844228586
                ]
            }
        },
        {
            "type": "Feature",
            "properties": {
                "ref:csioz": 1178691,
                "name": "Miejska",
                "addr:street": "Traugutta",
                "addr:housenumber": "14",
                "addr:city": "Nidzica",
                "addr:postcode": "13-100",
                "amenity": "pharmacy"
            },
            "geometry": {
                "type": "Point",
                "coordinates": [
                    20.422090377295433,
                    53.36170908685934
                ]
            }
        },
        {
            "type": "Feature",
            "properties": {
                "ref:csioz": 1180571,
                "name": "Słoneczna",
                "addr:street": "Traugutta",
                "addr:housenumber": "12",
                "addr:city": "Nidzica",
                "addr:postcode": "13-100",
                "amenity": "pharmacy"
            },
            "geometry": {
                "type": "Point",
                "coordinates": [
                    20.422548398693237,
                    53.36169924684359
                ]
            }
        },
        {
            "type": "Feature",
            "properties": {
                "ref:csioz": 1198289,
                "name": "Doz Apteka. Dbam O Zdrowie",
                "addr:street": "1 Maja",
                "addr:housenumber": "28",
                "addr:city": "Nidzica",
                "addr:postcode": "13-100",
                "amenity": "pharmacy"
            },
            "geometry": {
                "type": "Point",
                "coordinates": [
                    20.430629126584897,
                    53.36484684980589
                ]
            }
        },
        {
            "type": "Feature",
            "properties": {
                "ref:csioz": 1016452,
                "addr:street": "Przasnyska",
                "addr:housenumber": "60",
                "addr:city": "Janowo",
                "addr:postcode": "13-113",
                "amenity": "pharmacy"
            },
            "geometry": {
                "type": "Point",
                "coordinates": [
                    20.672957787095342,
                    53.31401826464802
                ]
            }
        },
        {
            "type": "Feature",
            "properties": {
                "ref:csioz": 1039307,
                "addr:street": "Mazurska",
                "addr:housenumber": "3",
                "addr:city": "Kozłowo",
                "addr:postcode": "13-124",
                "amenity": "pharmacy"
            },
            "geometry": {
                "type": "Point",
                "coordinates": [
                    20.280600604267814,
                    53.30251296266196
                ]
            }
        },
        {
            "type": "Feature",
            "properties": {
                "ref:csioz": 1039563,
                "addr:street": "Traugutta",
                "addr:housenumber": "13",
                "addr:city": "Nidzica",
                "addr:postcode": "13-100",
                "amenity": "pharmacy"
            },
            "geometry": {
                "type": "Point",
                "coordinates": [
                    20.42167318671367,
                    53.36142344823967
                ]
            }
        },
        {
            "type": "Feature",
            "properties": {
                "ref:csioz": 1122292,
                "name": "Zespół Opieki Zdrowotnej W Nidzicy",
                "addr:street": "Traugutta",
                "addr:housenumber": "13",
                "addr:city": "Nidzica",
                "addr:postcode": "13-100",
                "amenity": "pharmacy"
            },
            "geometry": {
                "type": "Point",
                "coordinates": [
                    20.42167318671367,
                    53.36142344823967
                ]
            }
        },
        {
            "type": "Feature",
            "properties": {
                "ref:csioz": 1199886,
                "name": "Miejska",
                "addr:street": "Plac Wolności",
                "addr:housenumber": "13",
                "addr:city": "Nidzica",
                "addr:postcode": "13-100",
                "amenity": "pharmacy"
            },
            "geometry": {
                "type": "Point",
                "coordinates": [
                    20.426284320353428,
                    53.35867086061473
                ]
            }
        }
    ]
}