{
    "type": "FeatureCollection",
    "name": "JPT_KOD_JE_1413",
    "features": [
        {
            "type": "Feature",
            "properties": {
                "ref:csioz": 1092365,
                "addr:street": "Rynek",
                "addr:housenumber": "6",
                "addr:city": "Szreńsk",
                "addr:postcode": "06-550",
                "amenity": "pharmacy"
            },
            "geometry": {
                "type": "Point",
                "coordinates": [
                    20.124630064002215,
                    53.01001073189538
                ]
            }
        },
        {
            "type": "Feature",
            "properties": {
                "ref:csioz": 1091855,
                "addr:street": "Handlowa",
                "addr:housenumber": "15",
                "addr:city": "Konopki",
                "addr:postcode": "06-560",
                "amenity": "pharmacy"
            },
            "geometry": {
                "type": "Point",
                "coordinates": [
                    20.461185015505002,
                    52.998694109577336
                ]
            }
        },
        {
            "type": "Feature",
            "properties": {
                "ref:csioz": 1092001,
                "addr:housenumber": "193",
                "addr:postcode": "06-545",
                "amenity": "pharmacy",
                "addr:place": "Lipowiec Kościelny"
            },
            "geometry": {
                "type": "Point",
                "coordinates": [
                    20.177031506755657,
                    53.10429852008059
                ]
            }
        },
        {
            "type": "Feature",
            "properties": {
                "ref:csioz": 1092030,
                "addr:housenumber": "37",
                "addr:postcode": "06-458",
                "amenity": "pharmacy",
                "addr:place": "Niedzbórz"
            },
            "geometry": {
                "type": "Point",
                "coordinates": [
                    20.370531000001133,
                    52.93418700001627
                ]
            }
        },
        {
            "type": "Feature",
            "properties": {
                "ref:csioz": 1092306,
                "name": "Apteka Pigułka",
                "addr:street": "Joachima Lelewela",
                "addr:housenumber": "2A",
                "addr:city": "Mława",
                "addr:postcode": "06-500",
                "amenity": "pharmacy"
            },
            "geometry": {
                "type": "Point",
                "coordinates": [
                    20.37522927744953,
                    53.11368810868312
                ]
            }
        },
        {
            "type": "Feature",
            "properties": {
                "ref:csioz": 1092311,
                "name": "Panaceum",
                "addr:street": "Osiedle Książąt Mazowieckich",
                "addr:housenumber": "7A",
                "addr:city": "Mława",
                "addr:postcode": "06-500",
                "amenity": "pharmacy"
            },
            "geometry": {
                "type": "Point",
                "coordinates": [
                    20.371943499677375,
                    53.10972265097466
                ]
            }
        },
        {
            "type": "Feature",
            "properties": {
                "ref:csioz": 1092322,
                "addr:street": "Płocka",
                "addr:housenumber": "58",
                "addr:city": "Mława",
                "addr:postcode": "06-500",
                "amenity": "pharmacy"
            },
            "geometry": {
                "type": "Point",
                "coordinates": [
                    20.377164819917446,
                    53.10708003012987
                ]
            }
        },
        {
            "type": "Feature",
            "properties": {
                "ref:csioz": 1111354,
                "name": "Przy Szpitalu",
                "addr:street": "Anny Dobrskiej",
                "addr:housenumber": "1",
                "addr:city": "Mława",
                "addr:postcode": "06-500",
                "amenity": "pharmacy"
            },
            "geometry": {
                "type": "Point",
                "coordinates": [
                    20.371170841919046,
                    53.123445991465125
                ]
            }
        },
        {
            "type": "Feature",
            "properties": {
                "ref:csioz": 1207753,
                "name": "Dr. Max",
                "addr:street": "Aleja Józefa Piłsudskiego",
                "addr:housenumber": "39A",
                "addr:city": "Mława",
                "addr:postcode": "06-500",
                "amenity": "pharmacy"
            },
            "geometry": {
                "type": "Point",
                "coordinates": [
                    20.36370042166538,
                    53.12096241629468
                ]
            }
        },
        {
            "type": "Feature",
            "properties": {
                "ref:csioz": 1211201,
                "name": "Doz Apteka Dbam O Zdrowie Miejska",
                "addr:street": "Plac Wolności",
                "addr:housenumber": "32",
                "addr:city": "Strzegowo",
                "addr:postcode": "06-445",
                "amenity": "pharmacy"
            },
            "geometry": {
                "type": "Point",
                "coordinates": [
                    20.286718861113204,
                    52.893046525505724
                ]
            }
        },
        {
            "type": "Feature",
            "properties": {
                "ref:csioz": 1091841,
                "addr:street": "Tadeusza Kościuszki",
                "addr:housenumber": "2",
                "addr:city": "Dzierzgowo",
                "addr:postcode": "06-520",
                "amenity": "pharmacy"
            },
            "geometry": {
                "type": "Point",
                "coordinates": [
                    20.662185000001422,
                    53.15147500001732
                ]
            }
        },
        {
            "type": "Feature",
            "properties": {
                "ref:csioz": 1091864,
                "addr:street": "Plac Piłsudskiego",
                "addr:housenumber": "12",
                "addr:city": "Radzanów",
                "addr:postcode": "06-540",
                "amenity": "pharmacy"
            },
            "geometry": {
                "type": "Point",
                "coordinates": [
                    20.09093797680911,
                    52.94268499642424
                ]
            }
        },
        {
            "type": "Feature",
            "properties": {
                "ref:csioz": 1092716,
                "addr:street": "Stary Rynek",
                "addr:housenumber": "9",
                "addr:city": "Mława",
                "addr:postcode": "06-500",
                "amenity": "pharmacy"
            },
            "geometry": {
                "type": "Point",
                "coordinates": [
                    20.383803129918956,
                    53.111659578593084
                ]
            }
        },
        {
            "type": "Feature",
            "properties": {
                "ref:csioz": 1092727,
                "name": "Dbam O Zdrowie",
                "addr:street": "Spichrzowa",
                "addr:housenumber": "4",
                "addr:city": "Mława",
                "addr:postcode": "06-500",
                "amenity": "pharmacy"
            },
            "geometry": {
                "type": "Point",
                "coordinates": [
                    20.380102465650697,
                    53.111421825684765
                ]
            }
        },
        {
            "type": "Feature",
            "properties": {
                "ref:csioz": 1092734,
                "addr:street": "Rynkowa",
                "addr:housenumber": "10",
                "addr:city": "Mława",
                "addr:postcode": "06-500",
                "amenity": "pharmacy"
            },
            "geometry": {
                "type": "Point",
                "coordinates": [
                    20.353046861355892,
                    53.126030631199114
                ]
            }
        },
        {
            "type": "Feature",
            "properties": {
                "ref:csioz": 1092742,
                "name": "Medyk",
                "addr:street": "Anny Dobrskiej",
                "addr:housenumber": "12",
                "addr:city": "Mława",
                "addr:postcode": "06-500",
                "amenity": "pharmacy"
            },
            "geometry": {
                "type": "Point",
                "coordinates": [
                    20.37205114255795,
                    53.123929230359806
                ]
            }
        },
        {
            "type": "Feature",
            "properties": {
                "ref:csioz": 1092814,
                "name": "Dbam O Zdrowie",
                "addr:street": "Targowa",
                "addr:housenumber": "13A",
                "addr:flats": "G105",
                "addr:city": "Mława",
                "addr:postcode": "06-500",
                "amenity": "pharmacy"
            },
            "geometry": {
                "type": "Point",
                "coordinates": [
                    20.3872796066896,
                    53.11347548784298
                ]
            }
        },
        {
            "type": "Feature",
            "properties": {
                "ref:csioz": 1098438,
                "name": "Apteka Szpitalna",
                "addr:street": "Anny Dobrskiej",
                "addr:housenumber": "1",
                "addr:city": "Mława",
                "addr:postcode": "06-500",
                "amenity": "pharmacy"
            },
            "geometry": {
                "type": "Point",
                "coordinates": [
                    20.371170841919046,
                    53.123445991465125
                ]
            }
        },
        {
            "type": "Feature",
            "properties": {
                "ref:csioz": 1116520,
                "addr:street": "Osiedle Młodych",
                "addr:housenumber": "29",
                "addr:city": "Mława",
                "addr:postcode": "06-500",
                "amenity": "pharmacy"
            },
            "geometry": {
                "type": "Point",
                "coordinates": [
                    20.368882709833894,
                    53.1203949055492
                ]
            }
        },
        {
            "type": "Feature",
            "properties": {
                "ref:csioz": 1179875,
                "addr:street": "ks. Prymasa Mikołaja Dzierzgowskiego",
                "addr:housenumber": "8A",
                "addr:city": "Dzierzgowo",
                "addr:postcode": "06-520",
                "amenity": "pharmacy"
            },
            "geometry": {
                "type": "Point",
                "coordinates": [
                    20.666639932719132,
                    53.152644302308445
                ]
            }
        },
        {
            "type": "Feature",
            "properties": {
                "ref:csioz": 1188668,
                "name": "Pharma-Land",
                "addr:street": "Henryka Sienkiewicza",
                "addr:housenumber": "32",
                "addr:city": "Mława",
                "addr:postcode": "06-500",
                "amenity": "pharmacy"
            },
            "geometry": {
                "type": "Point",
                "coordinates": [
                    20.373310157252227,
                    53.10980245165839
                ]
            }
        },
        {
            "type": "Feature",
            "properties": {
                "ref:csioz": 1188863,
                "name": "Arnica",
                "addr:street": "Wójtostwo",
                "addr:housenumber": "1",
                "addr:city": "Mława",
                "addr:postcode": "06-500",
                "amenity": "pharmacy"
            },
            "geometry": {
                "type": "Point",
                "coordinates": [
                    20.380821651712125,
                    53.11401826393252
                ]
            }
        },
        {
            "type": "Feature",
            "properties": {
                "ref:csioz": 1206216,
                "name": "Gemini",
                "addr:street": "Żwirki",
                "addr:housenumber": "11A",
                "addr:city": "Mława",
                "addr:postcode": "06-500",
                "amenity": "pharmacy"
            },
            "geometry": {
                "type": "Point",
                "coordinates": [
                    20.380180947527215,
                    53.11359487032941
                ]
            }
        },
        {
            "type": "Feature",
            "properties": {
                "ref:csioz": 1209443,
                "name": "Przy Szpitalu",
                "addr:street": "Aleja Józefa Piłsudskiego",
                "addr:housenumber": "35",
                "addr:flats": "50",
                "addr:city": "Mława",
                "addr:postcode": "06-500",
                "amenity": "pharmacy"
            },
            "geometry": {
                "type": "Point",
                "coordinates": [
                    20.36501918765967,
                    53.121209570035
                ]
            }
        },
        {
            "type": "Feature",
            "properties": {
                "ref:csioz": 1218197,
                "name": "Doz Apteka Dbam O Zdrowie",
                "addr:street": "Stary Rynek",
                "addr:housenumber": "2",
                "addr:city": "Mława",
                "addr:postcode": "06-500",
                "amenity": "pharmacy"
            },
            "geometry": {
                "type": "Point",
                "coordinates": [
                    20.382775024036953,
                    53.11228150407427
                ]
            }
        },
        {
            "type": "Feature",
            "properties": {
                "ref:csioz": 1219835,
                "name": "Apteki Dar Zdrowia",
                "addr:street": "Żwirki",
                "addr:housenumber": "21B",
                "addr:city": "Mława",
                "addr:postcode": "06-500",
                "amenity": "pharmacy"
            },
            "geometry": {
                "type": "Point",
                "coordinates": [
                    20.37840828405652,
                    53.114138451300235
                ]
            }
        },
        {
            "type": "Feature",
            "properties": {
                "ref:csioz": 1230810,
                "addr:housenumber": "44",
                "addr:postcode": "06-513",
                "amenity": "pharmacy",
                "addr:place": "Wieczfnia Kościelna"
            },
            "geometry": {
                "type": "Point",
                "coordinates": [
                    20.477339987536833,
                    53.193939056626405
                ]
            }
        }
    ]
}