{
    "type": "FeatureCollection",
    "name": "JPT_KOD_JE_2201",
    "features": [
        {
            "type": "Feature",
            "properties": {
                "ref:csioz": 1033998,
                "name": "Centrum Zdrowia",
                "addr:street": "Lęborska",
                "addr:housenumber": "9",
                "addr:city": "Czarna Dąbrówka",
                "addr:postcode": "77-116",
                "amenity": "pharmacy",
                "dispensing": "yes"
            },
            "geometry": {
                "type": "Point",
                "coordinates": [
                    17.565403760350215,
                    54.35721917966824
                ]
            }
        },
        {
            "type": "Feature",
            "properties": {
                "ref:csioz": 1028797,
                "name": "Nad Jeziorem",
                "addr:street": "Brzozowa",
                "addr:housenumber": "6",
                "addr:city": "Studzienice",
                "addr:postcode": "77-143",
                "amenity": "pharmacy",
                "dispensing": "yes"
            },
            "geometry": {
                "type": "Point",
                "coordinates": [
                    17.58009287410427,
                    54.090687772004394
                ]
            }
        },
        {
            "type": "Feature",
            "properties": {
                "ref:csioz": 1029210,
                "name": "Apteka Rodzinna",
                "addr:street": "Lęborska",
                "addr:housenumber": "11",
                "addr:city": "Bytów",
                "addr:postcode": "77-100",
                "amenity": "pharmacy",
                "dispensing": "yes"
            },
            "geometry": {
                "type": "Point",
                "coordinates": [
                    17.485888606383277,
                    54.17777424870264
                ]
            }
        },
        {
            "type": "Feature",
            "properties": {
                "ref:csioz": 1033302,
                "name": "Pod Aniołem",
                "addr:street": "Jana Pawła II",
                "addr:housenumber": "5",
                "addr:city": "Bytów",
                "addr:postcode": "77-100",
                "amenity": "pharmacy",
                "dispensing": "yes"
            },
            "geometry": {
                "type": "Point",
                "coordinates": [
                    17.489939566870767,
                    54.169438316257754
                ]
            }
        },
        {
            "type": "Feature",
            "properties": {
                "ref:csioz": 1033911,
                "addr:street": "Kościelna",
                "addr:housenumber": "3",
                "addr:city": "Parchowo",
                "addr:postcode": "77-124",
                "amenity": "pharmacy",
                "dispensing": "yes"
            },
            "geometry": {
                "type": "Point",
                "coordinates": [
                    17.666728871372744,
                    54.20677732068384
                ]
            }
        },
        {
            "type": "Feature",
            "properties": {
                "ref:csioz": 1034028,
                "name": "Helios Punkt Apteczny",
                "addr:street": "Jana III Sobieskiego",
                "addr:housenumber": "18",
                "addr:city": "Tuchomie",
                "addr:postcode": "77-133",
                "amenity": "pharmacy",
                "dispensing": "yes"
            },
            "geometry": {
                "type": "Point",
                "coordinates": [
                    17.336471898111753,
                    54.11526827163653
                ]
            }
        },
        {
            "type": "Feature",
            "properties": {
                "ref:csioz": 1033676,
                "addr:street": "Zwycięstwa",
                "addr:housenumber": "54",
                "addr:city": "Borzytuchom",
                "addr:postcode": "77-141",
                "amenity": "pharmacy",
                "dispensing": "yes"
            },
            "geometry": {
                "type": "Point",
                "coordinates": [
                    17.36767560566866,
                    54.19947503167521
                ]
            }
        },
        {
            "type": "Feature",
            "properties": {
                "ref:csioz": 1028355,
                "name": "Apteka Dbam O Zdrowie",
                "addr:street": "Wojska Polskiego",
                "addr:housenumber": "27",
                "addr:city": "Bytów",
                "addr:postcode": "77-100",
                "amenity": "pharmacy",
                "dispensing": "yes"
            },
            "geometry": {
                "type": "Point",
                "coordinates": [
                    17.486748277275613,
                    54.16916644295568
                ]
            }
        },
        {
            "type": "Feature",
            "properties": {
                "ref:csioz": 1028574,
                "name": "Im. Kazimierza Ogiejko",
                "addr:street": "Józefa Słomińskiego",
                "addr:housenumber": "35",
                "addr:city": "Lipnica",
                "addr:postcode": "77-130",
                "amenity": "pharmacy",
                "dispensing": "yes"
            },
            "geometry": {
                "type": "Point",
                "coordinates": [
                    17.40682462395458,
                    53.99899183007693
                ]
            }
        },
        {
            "type": "Feature",
            "properties": {
                "ref:csioz": 1029705,
                "name": "Helios",
                "addr:street": "Wojska Polskiego",
                "addr:housenumber": "36E",
                "addr:city": "Bytów",
                "addr:postcode": "77-100",
                "amenity": "pharmacy",
                "dispensing": "yes"
            },
            "geometry": {
                "type": "Point",
                "coordinates": [
                    17.490267823853724,
                    54.16999385138421
                ]
            }
        },
        {
            "type": "Feature",
            "properties": {
                "ref:csioz": 1031842,
                "name": "Centrum Zdrowia",
                "addr:street": "ks. dr Bernarda Sychty",
                "addr:housenumber": "3",
                "addr:city": "Bytów",
                "addr:postcode": "77-100",
                "amenity": "pharmacy",
                "dispensing": "yes"
            },
            "geometry": {
                "type": "Point",
                "coordinates": [
                    17.498665803128247,
                    54.17674508118919
                ]
            }
        },
        {
            "type": "Feature",
            "properties": {
                "ref:csioz": 1114047,
                "name": "\"Dział Farmacji Szpitalnej W Niepublicznym Zakładzie Opieki Zdrowotnej Homo-Liber, Oddział Terapii Uzależnienia Od Alkoholu\"",
                "addr:housenumber": "16",
                "addr:postcode": "77-100",
                "amenity": "pharmacy",
                "addr:place": "Żukówko",
                "dispensing": "yes"
            },
            "geometry": {
                "type": "Point",
                "coordinates": [
                    17.602020107731697,
                    54.22857334522684
                ]
            }
        },
        {
            "type": "Feature",
            "properties": {
                "ref:csioz": 1189415,
                "name": "Apteka Szpitalna W Zakładzie Leczniczym: Ośrodek Lecznictwa Szpitalnego Powiatu Bytowskiego",
                "addr:street": "Lęborska",
                "addr:housenumber": "13",
                "addr:city": "Bytów",
                "addr:postcode": "77-100",
                "amenity": "pharmacy",
                "dispensing": "yes"
            },
            "geometry": {
                "type": "Point",
                "coordinates": [
                    17.48601429635974,
                    54.17843248133675
                ]
            }
        },
        {
            "type": "Feature",
            "properties": {
                "ref:csioz": 1223049,
                "name": "Helios Apteka Mgr Maria Morzuch",
                "addr:street": "Słupska",
                "addr:housenumber": "24",
                "addr:city": "Kołczygłowy",
                "addr:postcode": "77-140",
                "amenity": "pharmacy",
                "dispensing": "yes"
            },
            "geometry": {
                "type": "Point",
                "coordinates": [
                    17.230302489374303,
                    54.23925832948576
                ]
            }
        },
        {
            "type": "Feature",
            "properties": {
                "ref:csioz": 1029324,
                "name": "Apteka Królowej Jadwigi",
                "addr:street": "Królowej Jadwigi",
                "addr:housenumber": "12B",
                "addr:city": "Miastko",
                "addr:postcode": "77-200",
                "amenity": "pharmacy",
                "dispensing": "yes"
            },
            "geometry": {
                "type": "Point",
                "coordinates": [
                    16.98167355404679,
                    54.00294841953865
                ]
            }
        },
        {
            "type": "Feature",
            "properties": {
                "ref:csioz": 1030018,
                "name": "Rodzinna",
                "addr:street": "gen. Wybickiego",
                "addr:housenumber": "30",
                "addr:city": "Miastko",
                "addr:postcode": "77-200",
                "amenity": "pharmacy",
                "dispensing": "yes"
            },
            "geometry": {
                "type": "Point",
                "coordinates": [
                    16.980566031725683,
                    54.01093833749442
                ]
            }
        },
        {
            "type": "Feature",
            "properties": {
                "ref:csioz": 1033328,
                "name": "Nova",
                "addr:street": "Kazimierza Wielkiego",
                "addr:housenumber": "24",
                "addr:city": "Miastko",
                "addr:postcode": "77-200",
                "amenity": "pharmacy",
                "dispensing": "yes"
            },
            "geometry": {
                "type": "Point",
                "coordinates": [
                    16.974409241139085,
                    53.99801217787471
                ]
            }
        },
        {
            "type": "Feature",
            "properties": {
                "ref:csioz": 1034249,
                "name": "\"Dział Farmacji Szpitalnej W Niepublicznym Zakładzie Opieki Zdrowotnej \"\"Lancet\"\" Piotr Lange\"",
                "addr:housenumber": "15E",
                "addr:postcode": "77-200",
                "amenity": "pharmacy",
                "addr:place": "Węgorzynko",
                "dispensing": "yes"
            },
            "geometry": {
                "type": "Point",
                "coordinates": [
                    16.984512821085094,
                    54.0163652996189
                ]
            }
        },
        {
            "type": "Feature",
            "properties": {
                "ref:csioz": 1185049,
                "name": "Centrum Farmaceutyczne Apteka Pod Mnichem W Szpitalu",
                "addr:street": "gen. Wybickiego",
                "addr:housenumber": "30",
                "addr:city": "Miastko",
                "addr:postcode": "77-200",
                "amenity": "pharmacy",
                "dispensing": "yes"
            },
            "geometry": {
                "type": "Point",
                "coordinates": [
                    16.980566031725683,
                    54.01093833749442
                ]
            }
        },
        {
            "type": "Feature",
            "properties": {
                "ref:csioz": 1029973,
                "name": "Pod Lwem",
                "addr:street": "Pomorska",
                "addr:housenumber": "12",
                "addr:city": "Trzebielino",
                "addr:postcode": "77-235",
                "amenity": "pharmacy",
                "dispensing": "yes"
            },
            "geometry": {
                "type": "Point",
                "coordinates": [
                    17.086249694063966,
                    54.197407571268364
                ]
            }
        },
        {
            "type": "Feature",
            "properties": {
                "ref:csioz": 1028406,
                "name": "Piastowska",
                "addr:street": "Długa",
                "addr:housenumber": "10",
                "addr:city": "Miastko",
                "addr:postcode": "77-200",
                "amenity": "pharmacy",
                "dispensing": "yes"
            },
            "geometry": {
                "type": "Point",
                "coordinates": [
                    16.985644563665208,
                    54.004299228283074
                ]
            }
        },
        {
            "type": "Feature",
            "properties": {
                "ref:csioz": 1029241,
                "name": "Centralna",
                "addr:street": "Armii Krajowej",
                "addr:housenumber": "22",
                "addr:city": "Miastko",
                "addr:postcode": "77-200",
                "amenity": "pharmacy",
                "dispensing": "yes"
            },
            "geometry": {
                "type": "Point",
                "coordinates": [
                    16.976792469961165,
                    54.000205777404915
                ]
            }
        },
        {
            "type": "Feature",
            "properties": {
                "ref:csioz": 1032117,
                "name": "Wracam Do Zdrowia",
                "addr:street": "Dworcowa",
                "addr:housenumber": "3",
                "addr:city": "Miastko",
                "addr:postcode": "77-200",
                "amenity": "pharmacy",
                "dispensing": "yes"
            },
            "geometry": {
                "type": "Point",
                "coordinates": [
                    16.971960826837435,
                    53.99840830252358
                ]
            }
        },
        {
            "type": "Feature",
            "properties": {
                "ref:csioz": 1123275,
                "name": "Apteka Szpitalna W Zakładzie Leczniczym: Ośrodek Lecznictwa Szpitalnego Miastko",
                "addr:street": "gen. Wybickiego",
                "addr:housenumber": "30",
                "addr:city": "Miastko",
                "addr:postcode": "77-200",
                "amenity": "pharmacy",
                "dispensing": "yes"
            },
            "geometry": {
                "type": "Point",
                "coordinates": [
                    16.980566031725683,
                    54.01093833749442
                ]
            }
        }
    ]
}