{
    "type": "FeatureCollection",
    "name": "JPT_KOD_JE_1610",
    "features": [
        {
            "type": "Feature",
            "properties": {
                "ref:csioz": 1105772,
                "addr:street": "1-go Maja",
                "addr:housenumber": "18",
                "addr:city": "Biała",
                "addr:postcode": "48-210",
                "amenity": "pharmacy"
            },
            "geometry": {
                "type": "Point",
                "coordinates": [
                    17.659076680796424,
                    50.385685353999015
                ]
            }
        },
        {
            "type": "Feature",
            "properties": {
                "ref:csioz": 1106784,
                "name": "Apteka Im. Św. Kamila Mgr Róża Lemko",
                "addr:street": "Rynek",
                "addr:housenumber": "14",
                "addr:city": "Biała",
                "addr:postcode": "48-210",
                "amenity": "pharmacy"
            },
            "geometry": {
                "type": "Point",
                "coordinates": [
                    17.659340293734758,
                    50.3851308103349
                ]
            }
        },
        {
            "type": "Feature",
            "properties": {
                "ref:csioz": 1106943,
                "name": "Nowa Apteka M&T Schmidt",
                "addr:street": "Mickiewicza",
                "addr:housenumber": "19",
                "addr:city": "Głogówek",
                "addr:postcode": "48-250",
                "amenity": "pharmacy"
            },
            "geometry": {
                "type": "Point",
                "coordinates": [
                    17.863962648085913,
                    50.353581955126735
                ]
            }
        },
        {
            "type": "Feature",
            "properties": {
                "ref:csioz": 1106956,
                "name": "Świętojańska",
                "addr:street": "Wolności",
                "addr:housenumber": "6",
                "addr:city": "Głogówek",
                "addr:postcode": "48-250",
                "amenity": "pharmacy"
            },
            "geometry": {
                "type": "Point",
                "coordinates": [
                    17.86527883750069,
                    50.353468469715644
                ]
            }
        },
        {
            "type": "Feature",
            "properties": {
                "ref:csioz": 1108000,
                "addr:street": "Skowrońskiego",
                "addr:housenumber": "4",
                "addr:city": "Łącznik",
                "addr:postcode": "48-220",
                "amenity": "pharmacy"
            },
            "geometry": {
                "type": "Point",
                "coordinates": [
                    17.7306825988779,
                    50.45035808769566
                ]
            }
        },
        {
            "type": "Feature",
            "properties": {
                "ref:csioz": 1109262,
                "name": "Apteka Optima",
                "addr:street": "Nyska",
                "addr:housenumber": "1",
                "addr:city": "Prudnik",
                "addr:postcode": "48-200",
                "amenity": "pharmacy"
            },
            "geometry": {
                "type": "Point",
                "coordinates": [
                    17.573845386167505,
                    50.32355381797862
                ]
            }
        },
        {
            "type": "Feature",
            "properties": {
                "ref:csioz": 1109281,
                "name": "Pod Złotym Wężem",
                "addr:street": "Powstańców Śląskich",
                "addr:housenumber": "4",
                "addr:city": "Prudnik",
                "addr:postcode": "48-200",
                "amenity": "pharmacy"
            },
            "geometry": {
                "type": "Point",
                "coordinates": [
                    17.589212874518168,
                    50.32449810629888
                ]
            }
        },
        {
            "type": "Feature",
            "properties": {
                "ref:csioz": 1109297,
                "addr:street": "Rynek",
                "addr:housenumber": "14",
                "addr:city": "Prudnik",
                "addr:postcode": "48-200",
                "amenity": "pharmacy"
            },
            "geometry": {
                "type": "Point",
                "coordinates": [
                    17.579900226908645,
                    50.322173687956216
                ]
            }
        },
        {
            "type": "Feature",
            "properties": {
                "ref:csioz": 1109311,
                "name": "Alga",
                "addr:street": "Staszica",
                "addr:housenumber": "4",
                "addr:city": "Prudnik",
                "addr:postcode": "48-200",
                "amenity": "pharmacy"
            },
            "geometry": {
                "type": "Point",
                "coordinates": [
                    17.574230998527753,
                    50.31681488097376
                ]
            }
        },
        {
            "type": "Feature",
            "properties": {
                "ref:csioz": 1109823,
                "addr:housenumber": "29A",
                "addr:city": "Gostomia",
                "addr:postcode": "48-217",
                "amenity": "pharmacy"
            },
            "geometry": {
                "type": "Point",
                "coordinates": [
                    17.73554481135038,
                    50.38306370618028
                ]
            }
        },
        {
            "type": "Feature",
            "properties": {
                "ref:csioz": 1110237,
                "name": "Dział Farmacji Szpitalnej Zespołu Opieki Zdrowotnej W Białej",
                "addr:street": "Moniuszki",
                "addr:housenumber": "8",
                "addr:city": "Biała",
                "addr:postcode": "48-210",
                "amenity": "pharmacy"
            },
            "geometry": {
                "type": "Point",
                "coordinates": [
                    17.66187840737767,
                    50.38704980480779
                ]
            }
        },
        {
            "type": "Feature",
            "properties": {
                "ref:csioz": 1216356,
                "name": "Drofarm",
                "addr:street": "Piotra Skargi",
                "addr:housenumber": "15a",
                "addr:city": "Głogówek",
                "addr:postcode": "48-250",
                "amenity": "pharmacy"
            },
            "geometry": {
                "type": "Point",
                "coordinates": [
                    17.863665699934526,
                    50.35159185550417
                ]
            }
        },
        {
            "type": "Feature",
            "properties": {
                "ref:csioz": 1105767,
                "name": "Apteka Im. Karola Wojtyły",
                "addr:street": "Opolska",
                "addr:housenumber": "2a",
                "addr:city": "Biała",
                "addr:postcode": "48-210",
                "amenity": "pharmacy"
            },
            "geometry": {
                "type": "Point",
                "coordinates": [
                    17.662680328237048,
                    50.38542988644738
                ]
            }
        },
        {
            "type": "Feature",
            "properties": {
                "ref:csioz": 1106970,
                "name": "Św. Anny",
                "addr:street": "3 Maja",
                "addr:housenumber": "17",
                "addr:city": "Głogówek",
                "addr:postcode": "48-250",
                "amenity": "pharmacy"
            },
            "geometry": {
                "type": "Point",
                "coordinates": [
                    17.86795899999955,
                    50.356294000012994
                ]
            }
        },
        {
            "type": "Feature",
            "properties": {
                "ref:csioz": 1110339,
                "name": "Dział Farmacji Szpitalnej Prudnickiego Centrum Medycznego S.A. W Prudniku Niepublicznego Zakładu Opieki Zdrowotnej",
                "addr:street": "Szpitalna",
                "addr:housenumber": "14",
                "addr:city": "Prudnik",
                "addr:postcode": "48-200",
                "amenity": "pharmacy"
            },
            "geometry": {
                "type": "Point",
                "coordinates": [
                    17.569178161030127,
                    50.323594159887
                ]
            }
        },
        {
            "type": "Feature",
            "properties": {
                "ref:csioz": 1121145,
                "name": "\"Apteki Burchacińscy; Wejdź Po Zdrowie\"",
                "addr:street": "ks. Skowrońskiego",
                "addr:housenumber": "28",
                "addr:city": "Prudnik",
                "addr:postcode": "48-200",
                "amenity": "pharmacy"
            },
            "geometry": {
                "type": "Point",
                "coordinates": [
                    17.594598793741724,
                    50.321712049464
                ]
            }
        },
        {
            "type": "Feature",
            "properties": {
                "ref:csioz": 1177151,
                "name": "Apteka Zdrowie",
                "addr:street": "Łangowskiego",
                "addr:housenumber": "2",
                "addr:city": "Prudnik",
                "addr:postcode": "48-200",
                "amenity": "pharmacy"
            },
            "geometry": {
                "type": "Point",
                "coordinates": [
                    17.59773605027742,
                    50.3181528886398
                ]
            }
        },
        {
            "type": "Feature",
            "properties": {
                "ref:csioz": 1181442,
                "addr:housenumber": "186A",
                "addr:city": "Biedrzychowice",
                "addr:postcode": "48-250",
                "amenity": "pharmacy"
            },
            "geometry": {
                "type": "Point",
                "coordinates": [
                    17.94513787064585,
                    50.34252243384048
                ]
            }
        },
        {
            "type": "Feature",
            "properties": {
                "ref:csioz": 1208161,
                "name": "\"Apteki Burchacińscy; Wejdź Po Zdrowie!\"",
                "addr:street": "Piastowska",
                "addr:housenumber": "22",
                "addr:city": "Prudnik",
                "addr:postcode": "48-200",
                "amenity": "pharmacy"
            },
            "geometry": {
                "type": "Point",
                "coordinates": [
                    17.575509627819763,
                    50.322623188752196
                ]
            }
        },
        {
            "type": "Feature",
            "properties": {
                "ref:csioz": 1213596,
                "name": "Apteka Kolorowa",
                "addr:street": "Sobieskiego",
                "addr:housenumber": "15",
                "addr:city": "Prudnik",
                "addr:postcode": "48-200",
                "amenity": "pharmacy"
            },
            "geometry": {
                "type": "Point",
                "coordinates": [
                    17.58222640520708,
                    50.320818750872725
                ]
            }
        },
        {
            "type": "Feature",
            "properties": {
                "ref:csioz": 1106962,
                "name": "\"Apteka \"\"Crategus\"\"\"",
                "addr:street": "Zamkowa",
                "addr:housenumber": "1",
                "addr:city": "Głogówek",
                "addr:postcode": "48-250",
                "amenity": "pharmacy"
            },
            "geometry": {
                "type": "Point",
                "coordinates": [
                    17.861218150734828,
                    50.354121039500725
                ]
            }
        }
    ]
}