{
    "type": "FeatureCollection",
    "name": "JPT_KOD_JE_0216",
    "features": [
        {
            "type": "Feature",
            "properties": {
                "ref:csioz": 1133186,
                "name": "Dobra Apteka",
                "addr:street": "Ratuszowa",
                "addr:housenumber": "1A",
                "addr:city": "Chocianów",
                "addr:postcode": "59-140",
                "amenity": "pharmacy",
                "dispensing": "yes"
            },
            "geometry": {
                "type": "Point",
                "coordinates": [
                    15.900746999977898,
                    51.418898000014764
                ]
            }
        },
        {
            "type": "Feature",
            "properties": {
                "ref:csioz": 1159540,
                "name": "Alma",
                "addr:street": "Wesoła",
                "addr:housenumber": "12a",
                "addr:city": "Chocianów",
                "addr:postcode": "59-310",
                "amenity": "pharmacy",
                "dispensing": "yes"
            },
            "geometry": {
                "type": "Point",
                "coordinates": [
                    15.910120673168871,
                    51.413400997736055
                ]
            }
        },
        {
            "type": "Feature",
            "properties": {
                "ref:csioz": 1218899,
                "name": "Apteka Medicus",
                "addr:street": "3 Maja",
                "addr:housenumber": "2",
                "addr:city": "Chocianów",
                "addr:postcode": "59-140",
                "amenity": "pharmacy",
                "dispensing": "yes"
            },
            "geometry": {
                "type": "Point",
                "coordinates": [
                    15.901984818866083,
                    51.420059902669124
                ]
            }
        },
        {
            "type": "Feature",
            "properties": {
                "ref:csioz": 1159476,
                "name": "Galenus",
                "addr:street": "Dworcowa",
                "addr:housenumber": "200a",
                "addr:city": "Gaworzyce",
                "addr:postcode": "59-180",
                "amenity": "pharmacy",
                "dispensing": "yes"
            },
            "geometry": {
                "type": "Point",
                "coordinates": [
                    15.880542787465615,
                    51.62294164905819
                ]
            }
        },
        {
            "type": "Feature",
            "properties": {
                "ref:csioz": 1159492,
                "addr:street": "Wolności",
                "addr:housenumber": "12",
                "addr:city": "Przemków",
                "addr:postcode": "59-170",
                "amenity": "pharmacy",
                "dispensing": "yes"
            },
            "geometry": {
                "type": "Point",
                "coordinates": [
                    15.78604419178741,
                    51.52677185816027
                ]
            }
        },
        {
            "type": "Feature",
            "properties": {
                "ref:csioz": 1210941,
                "name": "Apteka Nad Wrzosowiskiem",
                "addr:street": "ul. Głogowska",
                "addr:housenumber": "10",
                "addr:city": "Przemków",
                "addr:postcode": "59-170",
                "amenity": "pharmacy",
                "dispensing": "yes"
            },
            "geometry": {
                "type": "Point",
                "coordinates": [
                    15.788651367202293,
                    51.526647153632645
                ]
            }
        },
        {
            "type": "Feature",
            "properties": {
                "ref:csioz": 1132810,
                "name": "Apteka Dbam O Zdrowie",
                "addr:street": "Młyńska",
                "addr:housenumber": "2a",
                "addr:city": "Polkowice",
                "addr:postcode": "59-100",
                "amenity": "pharmacy",
                "dispensing": "yes"
            },
            "geometry": {
                "type": "Point",
                "coordinates": [
                    16.064229890256726,
                    51.50631867783802
                ]
            }
        },
        {
            "type": "Feature",
            "properties": {
                "ref:csioz": 1133236,
                "name": "Apteka Rodzinna",
                "addr:street": "Rynek",
                "addr:housenumber": "40",
                "addr:city": "Polkowice",
                "addr:postcode": "59-100",
                "amenity": "pharmacy",
                "dispensing": "yes"
            },
            "geometry": {
                "type": "Point",
                "coordinates": [
                    16.06766188050587,
                    51.50330311588963
                ]
            }
        },
        {
            "type": "Feature",
            "properties": {
                "ref:csioz": 1133248,
                "name": "Aspirynka",
                "addr:street": "Miedziana",
                "addr:housenumber": "17",
                "addr:city": "Polkowice",
                "addr:postcode": "59-100",
                "amenity": "pharmacy",
                "dispensing": "yes"
            },
            "geometry": {
                "type": "Point",
                "coordinates": [
                    16.07466651144358,
                    51.50397087034583
                ]
            }
        },
        {
            "type": "Feature",
            "properties": {
                "ref:csioz": 1137592,
                "name": "Nowa",
                "addr:street": "K.B. Kominka",
                "addr:housenumber": "6",
                "addr:city": "Polkowice",
                "addr:postcode": "59-100",
                "amenity": "pharmacy",
                "dispensing": "yes"
            },
            "geometry": {
                "type": "Point",
                "coordinates": [
                    16.07301160501908,
                    51.507524488629365
                ]
            }
        },
        {
            "type": "Feature",
            "properties": {
                "ref:csioz": 1159484,
                "name": "Larix",
                "addr:street": "Przemysłowa",
                "addr:housenumber": "7",
                "addr:city": "Radwanice",
                "addr:postcode": "59-160",
                "amenity": "pharmacy",
                "dispensing": "yes"
            },
            "geometry": {
                "type": "Point",
                "coordinates": [
                    15.945568221729946,
                    51.571894371309924
                ]
            }
        },
        {
            "type": "Feature",
            "properties": {
                "ref:csioz": 1132919,
                "name": "Apteka Prima",
                "addr:street": "Kolejowa",
                "addr:housenumber": "23a",
                "addr:city": "Polkowice",
                "addr:postcode": "59-101",
                "amenity": "pharmacy",
                "dispensing": "yes"
            },
            "geometry": {
                "type": "Point",
                "coordinates": [
                    16.078157473951038,
                    51.50474854633333
                ]
            }
        },
        {
            "type": "Feature",
            "properties": {
                "ref:csioz": 1133325,
                "name": "Pod Rokitnikiem Ii",
                "addr:street": "Kard. Bolesława Kominka",
                "addr:housenumber": "5",
                "addr:city": "Polkowice",
                "addr:postcode": "59-100",
                "amenity": "pharmacy",
                "dispensing": "yes"
            },
            "geometry": {
                "type": "Point",
                "coordinates": [
                    16.068850875212558,
                    51.507624077321104
                ]
            }
        },
        {
            "type": "Feature",
            "properties": {
                "ref:csioz": 1133363,
                "name": "Apteka Corax",
                "addr:street": "Hubala",
                "addr:housenumber": "1 B",
                "addr:city": "Polkowice",
                "addr:postcode": "59-100",
                "amenity": "pharmacy",
                "dispensing": "yes"
            },
            "geometry": {
                "type": "Point",
                "coordinates": [
                    16.072106601045192,
                    51.50273279891581
                ]
            }
        },
        {
            "type": "Feature",
            "properties": {
                "ref:csioz": 1189007,
                "name": "Ziko Apteka",
                "addr:street": "Fryderyka Chopina",
                "addr:housenumber": "38a",
                "addr:city": "Polkowice",
                "addr:postcode": "59-100",
                "amenity": "pharmacy",
                "dispensing": "yes"
            },
            "geometry": {
                "type": "Point",
                "coordinates": [
                    16.070560350599692,
                    51.504779754341435
                ]
            }
        },
        {
            "type": "Feature",
            "properties": {
                "ref:csioz": 1202340,
                "name": "Medi",
                "addr:housenumber": "4",
                "addr:postcode": "59-150",
                "amenity": "pharmacy",
                "addr:place": "Grębocice",
                "dispensing": "yes"
            },
            "geometry": {
                "type": "Point",
                "coordinates": [
                    16.164054661533815,
                    51.60079926881199
                ]
            }
        },
        {
            "type": "Feature",
            "properties": {
                "ref:csioz": 1229190,
                "name": "Dział Farmacji Szpitalnej W Zakładzie Opiekuńczo-Leczniczym",
                "addr:street": "Kardynała Bolesława Kominka",
                "addr:housenumber": "7",
                "addr:city": "Polkowice",
                "addr:postcode": "59-101",
                "amenity": "pharmacy",
                "dispensing": "yes"
            },
            "geometry": {
                "type": "Point",
                "coordinates": [
                    16.06721726375726,
                    51.50736953070303
                ]
            }
        },
        {
            "type": "Feature",
            "properties": {
                "ref:csioz": 1229206,
                "name": "Apteka Konwalia",
                "addr:street": "Kolejowa",
                "addr:housenumber": "29b",
                "addr:city": "Polkowice",
                "addr:postcode": "59-100",
                "amenity": "pharmacy",
                "dispensing": "yes"
            },
            "geometry": {
                "type": "Point",
                "coordinates": [
                    16.080993128703096,
                    51.509644782474226
                ]
            }
        }
    ]
}