{
    "type": "FeatureCollection",
    "name": "JPT_KOD_JE_1661",
    "features": [
        {
            "type": "Feature",
            "properties": {
                "ref:csioz": 1122033,
                "name": "Galen",
                "addr:street": "Oświęcimska",
                "addr:housenumber": "98",
                "addr:city": "Opole",
                "addr:postcode": "45-642",
                "amenity": "pharmacy"
            },
            "geometry": {
                "type": "Point",
                "coordinates": [
                    17.970552425035706,
                    50.60975295645415
                ]
            }
        },
        {
            "type": "Feature",
            "properties": {
                "ref:csioz": 1108502,
                "name": "\"Apteka \"\"Pod Złotym Wężem\"\"\"",
                "addr:street": "Bassa",
                "addr:housenumber": "9a",
                "addr:city": "Opole",
                "addr:postcode": "45-670",
                "amenity": "pharmacy"
            },
            "geometry": {
                "type": "Point",
                "coordinates": [
                    17.963764999999608,
                    50.62773800001341
                ]
            }
        },
        {
            "type": "Feature",
            "properties": {
                "ref:csioz": 1108488,
                "name": "Apteka Centralna",
                "addr:street": "W. Witosa",
                "addr:housenumber": "26",
                "addr:city": "Opole",
                "addr:postcode": "45-418",
                "amenity": "pharmacy"
            },
            "geometry": {
                "type": "Point",
                "coordinates": [
                    17.97573458520138,
                    50.67661214191462
                ]
            }
        },
        {
            "type": "Feature",
            "properties": {
                "ref:csioz": 1108646,
                "name": "Super-Pharm",
                "addr:street": "Krakowska",
                "addr:housenumber": "45/47",
                "addr:city": "Opole",
                "addr:postcode": "45-018",
                "amenity": "pharmacy"
            },
            "geometry": {
                "type": "Point",
                "coordinates": [
                    17.92517699999958,
                    50.664903000013446
                ]
            }
        },
        {
            "type": "Feature",
            "properties": {
                "ref:csioz": 1108672,
                "name": "Apteka Im. I.Łukasiewicza",
                "addr:street": "Mjr Hubala",
                "addr:housenumber": "25",
                "addr:city": "Opole",
                "addr:postcode": "45-266",
                "amenity": "pharmacy"
            },
            "geometry": {
                "type": "Point",
                "coordinates": [
                    17.951235999999607,
                    50.683833000013486
                ]
            }
        },
        {
            "type": "Feature",
            "properties": {
                "ref:csioz": 1108680,
                "name": "Apteka Zachodnia",
                "addr:street": "Alojzego Dambonia",
                "addr:housenumber": "171",
                "addr:city": "Opole",
                "addr:postcode": "45-864",
                "amenity": "pharmacy"
            },
            "geometry": {
                "type": "Point",
                "coordinates": [
                    17.95340821038604,
                    50.693196302375156
                ]
            }
        },
        {
            "type": "Feature",
            "properties": {
                "ref:csioz": 1108695,
                "name": "Za Odrą",
                "addr:street": "Niemodlińska",
                "addr:housenumber": "21",
                "addr:city": "Opole",
                "addr:postcode": "45-710",
                "amenity": "pharmacy"
            },
            "geometry": {
                "type": "Point",
                "coordinates": [
                    17.90473125198478,
                    50.66635577583612
                ]
            }
        },
        {
            "type": "Feature",
            "properties": {
                "ref:csioz": 1108667,
                "name": "Dr. Max",
                "addr:street": "Licealna",
                "addr:housenumber": "18",
                "addr:city": "Opole",
                "addr:postcode": "45-714",
                "amenity": "pharmacy"
            },
            "geometry": {
                "type": "Point",
                "coordinates": [
                    17.909530890332142,
                    50.6691535999337
                ]
            }
        },
        {
            "type": "Feature",
            "properties": {
                "ref:csioz": 1108638,
                "name": "Dr. Max",
                "addr:street": "Krakowska",
                "addr:housenumber": "44",
                "addr:city": "Opole",
                "addr:postcode": "45-075",
                "amenity": "pharmacy"
            },
            "geometry": {
                "type": "Point",
                "coordinates": [
                    17.925444725155923,
                    50.66340573672978
                ]
            }
        },
        {
            "type": "Feature",
            "properties": {
                "ref:csioz": 1108865,
                "name": "Witaminka",
                "addr:street": "Sosnkowskiego",
                "addr:housenumber": "6",
                "addr:city": "Opole",
                "addr:postcode": "45-273",
                "amenity": "pharmacy"
            },
            "geometry": {
                "type": "Point",
                "coordinates": [
                    17.95676746235121,
                    50.673302270202555
                ]
            }
        },
        {
            "type": "Feature",
            "properties": {
                "ref:csioz": 1108879,
                "addr:street": "Sosnkowskiego",
                "addr:housenumber": "16",
                "addr:city": "Opole",
                "addr:postcode": "45-273",
                "amenity": "pharmacy"
            },
            "geometry": {
                "type": "Point",
                "coordinates": [
                    17.947132876121156,
                    50.67402578800504
                ]
            }
        },
        {
            "type": "Feature",
            "properties": {
                "ref:csioz": 1108854,
                "name": "Apteka Gemini",
                "addr:street": "Juliusza Słowackiego",
                "addr:housenumber": "2",
                "addr:city": "Opole",
                "addr:postcode": "45-364",
                "amenity": "pharmacy"
            },
            "geometry": {
                "type": "Point",
                "coordinates": [
                    17.93947361681871,
                    50.66626139147938
                ]
            }
        },
        {
            "type": "Feature",
            "properties": {
                "ref:csioz": 1110173,
                "name": "Apteka Szpitalna Samodzielnego Publicznego Zakładu Opieki Zdrowotnej Opolskiego Centrum Onkologii W Opolu Im. Prof. T. Koszarowskiego",
                "addr:street": "Katowicka",
                "addr:housenumber": "66A",
                "addr:city": "Opole",
                "addr:postcode": "45-060",
                "amenity": "pharmacy"
            },
            "geometry": {
                "type": "Point",
                "coordinates": [
                    17.93727589919707,
                    50.67199654813384
                ]
            }
        },
        {
            "type": "Feature",
            "properties": {
                "ref:csioz": 1110185,
                "name": "Apteka Szpitalna Szpitala Wojewódzkiego W Opolu",
                "addr:street": "Kośnego",
                "addr:housenumber": "53",
                "addr:city": "Opole",
                "addr:postcode": "45-372",
                "amenity": "pharmacy"
            },
            "geometry": {
                "type": "Point",
                "coordinates": [
                    17.937124574660807,
                    50.67043216859104
                ]
            }
        },
        {
            "type": "Feature",
            "properties": {
                "ref:csioz": 1116172,
                "name": "W Zakładzie Opiekuńczo - Leczniczym Prowadzonym Przez Siostry Franciszkanki",
                "addr:street": "Prószkowska",
                "addr:housenumber": "72",
                "addr:city": "Opole",
                "addr:postcode": "45-737",
                "amenity": "pharmacy"
            },
            "geometry": {
                "type": "Point",
                "coordinates": [
                    17.90284080386452,
                    50.65599718840739
                ]
            }
        },
        {
            "type": "Feature",
            "properties": {
                "ref:csioz": 1176934,
                "name": "\"Dział Farmacji Szpitalnej W Niepublicznym Zakładzie Opieki Zdrowotnej \"\"Chirmed\"\" Sp. Z O.O.\"",
                "addr:street": "Krapkowicka",
                "addr:housenumber": "20",
                "addr:city": "Opole",
                "addr:postcode": "45-772",
                "amenity": "pharmacy"
            },
            "geometry": {
                "type": "Point",
                "coordinates": [
                    17.960734006542133,
                    50.65015442806673
                ]
            }
        },
        {
            "type": "Feature",
            "properties": {
                "ref:csioz": 1182103,
                "name": "Apteka Eskulap",
                "addr:street": "Bielska",
                "addr:housenumber": "21",
                "addr:city": "Opole",
                "addr:postcode": "45-401",
                "amenity": "pharmacy"
            },
            "geometry": {
                "type": "Point",
                "coordinates": [
                    17.97029465017029,
                    50.67243830377968
                ]
            }
        },
        {
            "type": "Feature",
            "properties": {
                "ref:csioz": 1108491,
                "name": "Multifarm",
                "addr:street": "Armii Krajowej",
                "addr:housenumber": "7",
                "addr:city": "Opole",
                "addr:postcode": "45-076",
                "amenity": "pharmacy"
            },
            "geometry": {
                "type": "Point",
                "coordinates": [
                    17.93308131033377,
                    50.66124416304159
                ]
            }
        },
        {
            "type": "Feature",
            "properties": {
                "ref:csioz": 1108528,
                "name": "Apteka Eskulap S. C.",
                "addr:street": "Chabrów",
                "addr:housenumber": "117",
                "addr:city": "Opole",
                "addr:postcode": "45-221",
                "amenity": "pharmacy"
            },
            "geometry": {
                "type": "Point",
                "coordinates": [
                    17.928810986339762,
                    50.68079500658076
                ]
            }
        },
        {
            "type": "Feature",
            "properties": {
                "ref:csioz": 1108531,
                "addr:street": "Damrota",
                "addr:housenumber": "10",
                "addr:city": "Opole",
                "addr:postcode": "45-064",
                "amenity": "pharmacy"
            },
            "geometry": {
                "type": "Point",
                "coordinates": [
                    17.928638918408666,
                    50.66480448202572
                ]
            }
        },
        {
            "type": "Feature",
            "properties": {
                "ref:csioz": 1108515,
                "name": "\"Apteka \"\"Eurofarm\"\"\"",
                "addr:street": "Chabrów",
                "addr:housenumber": "58",
                "addr:city": "Opole",
                "addr:postcode": "45-221",
                "amenity": "pharmacy"
            },
            "geometry": {
                "type": "Point",
                "coordinates": [
                    17.93292145577313,
                    50.68117160447402
                ]
            }
        },
        {
            "type": "Feature",
            "properties": {
                "ref:csioz": 1108544,
                "name": "Apteka Dbam O Zdrowie",
                "addr:street": "Fieldorfa",
                "addr:housenumber": "2",
                "addr:city": "Opole",
                "addr:postcode": "45-273",
                "amenity": "pharmacy"
            },
            "geometry": {
                "type": "Point",
                "coordinates": [
                    17.94915925223909,
                    50.68497421244691
                ]
            }
        },
        {
            "type": "Feature",
            "properties": {
                "ref:csioz": 1108566,
                "name": "Apteka U Wysoczańskiej",
                "addr:street": "Grota Roweckiego",
                "addr:housenumber": "17",
                "addr:city": "Opole",
                "addr:postcode": "45-267",
                "amenity": "pharmacy"
            },
            "geometry": {
                "type": "Point",
                "coordinates": [
                    17.946289999999596,
                    50.68041500001348
                ]
            }
        },
        {
            "type": "Feature",
            "properties": {
                "ref:csioz": 1108577,
                "name": "Apteka Na Jagiellonów Multifarm Opolskie Apteki",
                "addr:street": "Jagiellonów",
                "addr:housenumber": "41",
                "addr:city": "Opole",
                "addr:postcode": "45-560",
                "amenity": "pharmacy"
            },
            "geometry": {
                "type": "Point",
                "coordinates": [
                    17.94715118383472,
                    50.65129298485708
                ]
            }
        },
        {
            "type": "Feature",
            "properties": {
                "ref:csioz": 1108705,
                "name": "Apteka Niemodlińska Multifarm Opolskie Apteki",
                "addr:street": "Niemodlińska",
                "addr:housenumber": "54",
                "addr:city": "Opole",
                "addr:postcode": "45-865",
                "amenity": "pharmacy"
            },
            "geometry": {
                "type": "Point",
                "coordinates": [
                    17.898928283243826,
                    50.663995857714305
                ]
            }
        },
        {
            "type": "Feature",
            "properties": {
                "ref:csioz": 1108718,
                "name": "Doz Apteka. Dbam O Zdrowie. Aretuza",
                "addr:street": "Oleska",
                "addr:housenumber": "31",
                "addr:city": "Opole",
                "addr:postcode": "45-052",
                "amenity": "pharmacy"
            },
            "geometry": {
                "type": "Point",
                "coordinates": [
                    17.929802406269122,
                    50.673256942906384
                ]
            }
        },
        {
            "type": "Feature",
            "properties": {
                "ref:csioz": 1108726,
                "addr:street": "Orzechowa",
                "addr:housenumber": "33",
                "addr:city": "Opole",
                "addr:postcode": "45-475",
                "amenity": "pharmacy"
            },
            "geometry": {
                "type": "Point",
                "coordinates": [
                    17.98716846967478,
                    50.66836917049043
                ]
            }
        },
        {
            "type": "Feature",
            "properties": {
                "ref:csioz": 1108747,
                "name": "Całodobowa Ozimska",
                "addr:street": "Ozimska",
                "addr:housenumber": "19",
                "addr:city": "Opole",
                "addr:postcode": "45-057",
                "amenity": "pharmacy"
            },
            "geometry": {
                "type": "Point",
                "coordinates": [
                    17.927075467318538,
                    50.66798548052013
                ]
            }
        },
        {
            "type": "Feature",
            "properties": {
                "ref:csioz": 1108752,
                "name": "Apteka Pod Lwem",
                "addr:street": "Ozimska",
                "addr:housenumber": "22",
                "addr:city": "Opole",
                "addr:postcode": "45-058",
                "amenity": "pharmacy"
            },
            "geometry": {
                "type": "Point",
                "coordinates": [
                    17.929286210023786,
                    50.66766494765226
                ]
            }
        },
        {
            "type": "Feature",
            "properties": {
                "ref:csioz": 1108760,
                "addr:street": "Ozimska",
                "addr:housenumber": "53",
                "addr:city": "Opole",
                "addr:postcode": "45-368",
                "amenity": "pharmacy"
            },
            "geometry": {
                "type": "Point",
                "coordinates": [
                    17.93735360265031,
                    50.66814993222035
                ]
            }
        },
        {
            "type": "Feature",
            "properties": {
                "ref:csioz": 1108794,
                "name": "Apteka Eskulap",
                "addr:street": "Piotrkowska",
                "addr:housenumber": "2A",
                "addr:city": "Opole",
                "addr:postcode": "45-305",
                "amenity": "pharmacy"
            },
            "geometry": {
                "type": "Point",
                "coordinates": [
                    17.9692584838586,
                    50.670730601040205
                ]
            }
        },
        {
            "type": "Feature",
            "properties": {
                "ref:csioz": 1108806,
                "name": "Apteka Eskulap Mgr Farm. Paweł Łukasiuk",
                "addr:street": "Józefa Piłsudskiego",
                "addr:housenumber": "11",
                "addr:city": "Opole",
                "addr:postcode": "45-706",
                "amenity": "pharmacy"
            },
            "geometry": {
                "type": "Point",
                "coordinates": [
                    17.913934121495334,
                    50.669113214696516
                ]
            }
        },
        {
            "type": "Feature",
            "properties": {
                "ref:csioz": 1108811,
                "name": "Apteka W Galerii Opolanin",
                "addr:street": "Teatralny",
                "addr:housenumber": "13",
                "addr:city": "Opole",
                "addr:postcode": "45-056",
                "amenity": "pharmacy"
            },
            "geometry": {
                "type": "Point",
                "coordinates": [
                    17.931031360770643,
                    50.668672199818225
                ]
            }
        },
        {
            "type": "Feature",
            "properties": {
                "ref:csioz": 1108833,
                "name": "Eskulap",
                "addr:street": "Reymonta",
                "addr:housenumber": "14",
                "addr:city": "Opole",
                "addr:postcode": "45-066",
                "amenity": "pharmacy"
            },
            "geometry": {
                "type": "Point",
                "coordinates": [
                    17.929487185584858,
                    50.6652271972547
                ]
            }
        },
        {
            "type": "Feature",
            "properties": {
                "ref:csioz": 1108898,
                "name": "Api-Med",
                "addr:street": "Strzelecka",
                "addr:housenumber": "44",
                "addr:city": "Opole",
                "addr:postcode": "45-525",
                "amenity": "pharmacy"
            },
            "geometry": {
                "type": "Point",
                "coordinates": [
                    17.98481923353791,
                    50.64586851229901
                ]
            }
        },
        {
            "type": "Feature",
            "properties": {
                "ref:csioz": 1108912,
                "name": "Apteka Aleja Witosa",
                "addr:street": "Tarnopolska",
                "addr:housenumber": "2",
                "addr:city": "Opole",
                "addr:postcode": "45-334",
                "amenity": "pharmacy"
            },
            "geometry": {
                "type": "Point",
                "coordinates": [
                    17.973920480854762,
                    50.67812517385496
                ]
            }
        },
        {
            "type": "Feature",
            "properties": {
                "ref:csioz": 1108920,
                "addr:street": "Waryńskiego",
                "addr:housenumber": "30",
                "addr:city": "Opole",
                "addr:postcode": "45-047",
                "amenity": "pharmacy"
            },
            "geometry": {
                "type": "Point",
                "coordinates": [
                    17.92376244920284,
                    50.673985615701525
                ]
            }
        },
        {
            "type": "Feature",
            "properties": {
                "ref:csioz": 1108936,
                "addr:street": "Wodociągowa",
                "addr:housenumber": "4",
                "addr:city": "Opole",
                "addr:postcode": "45-255",
                "amenity": "pharmacy"
            },
            "geometry": {
                "type": "Point",
                "coordinates": [
                    17.940538831693495,
                    50.67611951840236
                ]
            }
        },
        {
            "type": "Feature",
            "properties": {
                "ref:csioz": 1108948,
                "name": "Euro - Apteka",
                "addr:street": "Wrocławska",
                "addr:housenumber": "154",
                "addr:city": "Opole",
                "addr:postcode": "45-837",
                "amenity": "pharmacy"
            },
            "geometry": {
                "type": "Point",
                "coordinates": [
                    17.87721489579068,
                    50.68181985476215
                ]
            }
        },
        {
            "type": "Feature",
            "properties": {
                "ref:csioz": 1108957,
                "name": "Przyjazna",
                "addr:street": "Wróblewskiego",
                "addr:housenumber": "46",
                "addr:city": "Opole",
                "addr:postcode": "45-759",
                "amenity": "pharmacy"
            },
            "geometry": {
                "type": "Point",
                "coordinates": [
                    17.894436861899877,
                    50.659780595380866
                ]
            }
        },
        {
            "type": "Feature",
            "properties": {
                "ref:csioz": 1110199,
                "name": "Apteka Szpitalna Szpital Wojewódzki Specjalistycznego Zespołu Neuropsychiatrycznego Im. Św. Jadwigi",
                "addr:street": "Wodociągowa",
                "addr:housenumber": "4",
                "addr:city": "Opole",
                "addr:postcode": "45-221",
                "amenity": "pharmacy"
            },
            "geometry": {
                "type": "Point",
                "coordinates": [
                    17.940538831693495,
                    50.67611951840236
                ]
            }
        },
        {
            "type": "Feature",
            "properties": {
                "ref:csioz": 1110318,
                "name": "\"Dział Farmacji Szpitalnej Stowarzyszenia Hospicjum Opolskie Centrum Opieki Paliatywnej \"\"Betania\"\"\"",
                "addr:street": "Kościelny",
                "addr:housenumber": "2",
                "addr:city": "Opole",
                "addr:postcode": "45-555",
                "amenity": "pharmacy"
            },
            "geometry": {
                "type": "Point",
                "coordinates": [
                    17.94855803685796,
                    50.64947816401971
                ]
            }
        },
        {
            "type": "Feature",
            "properties": {
                "ref:csioz": 1120922,
                "name": "Punkt Apteczny Eskulap W Chmielowicach",
                "addr:street": "Ogrodowa",
                "addr:housenumber": "9",
                "addr:city": "Opole",
                "addr:postcode": "45-940",
                "amenity": "pharmacy"
            },
            "geometry": {
                "type": "Point",
                "coordinates": [
                    17.862327996781936,
                    50.64958812421093
                ]
            }
        },
        {
            "type": "Feature",
            "properties": {
                "ref:csioz": 1121176,
                "name": "\"'Hebeapteka'\"",
                "addr:street": "Ozimska",
                "addr:housenumber": "14-16",
                "addr:city": "Opole",
                "addr:postcode": "45-057",
                "amenity": "pharmacy"
            },
            "geometry": {
                "type": "Point",
                "coordinates": [
                    17.92689171014878,
                    50.66731435764523
                ]
            }
        },
        {
            "type": "Feature",
            "properties": {
                "ref:csioz": 1159212,
                "name": "\"Dział Farmacji Szpitalnej W Centrum Ginekologii, Położnictwa I Neonatologii W Opolu - Lecznictwo Stacjonarne\"",
                "addr:street": "Władysława Reymonta",
                "addr:housenumber": "8",
                "addr:city": "Opole",
                "addr:postcode": "45-066",
                "amenity": "pharmacy"
            },
            "geometry": {
                "type": "Point",
                "coordinates": [
                    17.92875742512915,
                    50.66692481635913
                ]
            }
        },
        {
            "type": "Feature",
            "properties": {
                "ref:csioz": 1159220,
                "name": "Apteka Szpitalna Uniwersytecki Szpital Kliniczny W Opolu",
                "addr:street": "Aleja Wincentego Witosa",
                "addr:housenumber": "26",
                "addr:city": "Opole",
                "addr:postcode": "45-401",
                "amenity": "pharmacy"
            },
            "geometry": {
                "type": "Point",
                "coordinates": [
                    17.97573458520138,
                    50.67661214191462
                ]
            }
        },
        {
            "type": "Feature",
            "properties": {
                "ref:csioz": 1177123,
                "name": "\"'Apteka W Wojewódzkim'\"",
                "addr:street": "Katowicka",
                "addr:housenumber": "64",
                "addr:city": "Opole",
                "addr:postcode": "45-061",
                "amenity": "pharmacy"
            },
            "geometry": {
                "type": "Point",
                "coordinates": [
                    17.889963419541434,
                    50.671179902159984
                ]
            }
        },
        {
            "type": "Feature",
            "properties": {
                "ref:csioz": 1182735,
                "name": "Ziko Apteka",
                "addr:street": "Krakowska",
                "addr:housenumber": "31",
                "addr:city": "Opole",
                "addr:postcode": "45-018",
                "amenity": "pharmacy"
            },
            "geometry": {
                "type": "Point",
                "coordinates": [
                    17.924673588423527,
                    50.66664247939577
                ]
            }
        },
        {
            "type": "Feature",
            "properties": {
                "ref:csioz": 1192691,
                "name": "Apteka Plebiscytowa Multifarm Opolskie Apteki",
                "addr:street": "Fabryczna",
                "addr:housenumber": "1",
                "addr:city": "Opole",
                "addr:postcode": "45-349",
                "amenity": "pharmacy"
            },
            "geometry": {
                "type": "Point",
                "coordinates": [
                    17.942679760425108,
                    50.66292201519201
                ]
            }
        },
        {
            "type": "Feature",
            "properties": {
                "ref:csioz": 1193644,
                "name": "Apteka Zdrowit",
                "addr:street": "Bielska",
                "addr:housenumber": "1",
                "addr:city": "Opole",
                "addr:postcode": "45-401",
                "amenity": "pharmacy"
            },
            "geometry": {
                "type": "Point",
                "coordinates": [
                    17.970394365387936,
                    50.670642121719645
                ]
            }
        },
        {
            "type": "Feature",
            "properties": {
                "ref:csioz": 1194288,
                "name": "Apteka Zdrowit",
                "addr:street": "Stefana Grota-Roweckiego",
                "addr:housenumber": "18",
                "addr:city": "Opole",
                "addr:postcode": "45-268",
                "amenity": "pharmacy"
            },
            "geometry": {
                "type": "Point",
                "coordinates": [
                    17.94482591778813,
                    50.680573825564736
                ]
            }
        },
        {
            "type": "Feature",
            "properties": {
                "ref:csioz": 1197651,
                "name": "Centrum Leków",
                "addr:street": "Elektrowniana",
                "addr:housenumber": "25",
                "addr:city": "Opole",
                "addr:postcode": "45-920",
                "amenity": "pharmacy"
            },
            "geometry": {
                "type": "Point",
                "coordinates": [
                    17.888418395248046,
                    50.749173437028475
                ]
            }
        },
        {
            "type": "Feature",
            "properties": {
                "ref:csioz": 1205187,
                "name": "Apteka Opolska",
                "addr:street": "Stanisława Spychalskiego",
                "addr:housenumber": "13A",
                "addr:city": "Opole",
                "addr:postcode": "45-716",
                "amenity": "pharmacy"
            },
            "geometry": {
                "type": "Point",
                "coordinates": [
                    17.91304945099502,
                    50.66773783761694
                ]
            }
        },
        {
            "type": "Feature",
            "properties": {
                "ref:csioz": 1209146,
                "name": "116 Szpital Wojskowy Z Przychodnią Sp Zoz W Opolu",
                "addr:street": "Walerego Wróblewskiego",
                "addr:housenumber": "46",
                "addr:city": "Opole",
                "addr:postcode": "45-759",
                "amenity": "pharmacy"
            },
            "geometry": {
                "type": "Point",
                "coordinates": [
                    17.894436861899877,
                    50.659780595380866
                ]
            }
        },
        {
            "type": "Feature",
            "properties": {
                "ref:csioz": 1212443,
                "name": "Apteka Społeczna Na Kościuszki Grupa Nowa Farmacja",
                "addr:street": "Tadeusza Kościuszki",
                "addr:housenumber": "5",
                "addr:city": "Opole",
                "addr:postcode": "45-062",
                "amenity": "pharmacy"
            },
            "geometry": {
                "type": "Point",
                "coordinates": [
                    17.925558396242447,
                    50.66598789480367
                ]
            }
        },
        {
            "type": "Feature",
            "properties": {
                "ref:csioz": 1219301,
                "name": "Apteka Aleja Solidarności Multifarm Opolskie Apteki",
                "addr:street": "Krzemieniecka",
                "addr:housenumber": "15",
                "addr:city": "Opole",
                "addr:postcode": "45-401",
                "amenity": "pharmacy"
            },
            "geometry": {
                "type": "Point",
                "coordinates": [
                    17.970996531739942,
                    50.67572700435935
                ]
            }
        },
        {
            "type": "Feature",
            "properties": {
                "ref:csioz": 1219565,
                "name": "Apteka Przyjazna 4",
                "addr:street": "Ozimska",
                "addr:housenumber": "72",
                "addr:city": "Opole",
                "addr:postcode": "45-310",
                "amenity": "pharmacy"
            },
            "geometry": {
                "type": "Point",
                "coordinates": [
                    17.9542676947935,
                    50.66731011297302
                ]
            }
        },
        {
            "type": "Feature",
            "properties": {
                "ref:csioz": 1221618,
                "name": "Apteka Gemini",
                "addr:street": "1 Maja",
                "addr:housenumber": "13",
                "addr:city": "Opole",
                "addr:postcode": "45-068",
                "amenity": "pharmacy"
            },
            "geometry": {
                "type": "Point",
                "coordinates": [
                    17.928206304495106,
                    50.66338291003024
                ]
            }
        },
        {
            "type": "Feature",
            "properties": {
                "ref:csioz": 1222317,
                "name": "Api-Med",
                "addr:street": "Książąt Opolskich",
                "addr:housenumber": "48-50",
                "addr:city": "Opole",
                "addr:postcode": "45-006",
                "amenity": "pharmacy"
            },
            "geometry": {
                "type": "Point",
                "coordinates": [
                    17.919035514677045,
                    50.67308296030705
                ]
            }
        },
        {
            "type": "Feature",
            "properties": {
                "ref:csioz": 1227068,
                "name": "Dział Farmacji Szpitalnej W Spzoz Mswia W Opolu",
                "addr:street": "Krakowska",
                "addr:housenumber": "44",
                "addr:city": "Opole",
                "addr:postcode": "45-075",
                "amenity": "pharmacy"
            },
            "geometry": {
                "type": "Point",
                "coordinates": [
                    17.925444725155923,
                    50.66340573672978
                ]
            }
        },
        {
            "type": "Feature",
            "properties": {
                "ref:csioz": 1227403,
                "name": "Dział Farmacji Szpitalnej W Centrum Krwiodawstwa W Opolu",
                "addr:street": "Augustyna Kośnego",
                "addr:housenumber": "55",
                "addr:city": "Opole",
                "addr:postcode": "45-372",
                "amenity": "pharmacy"
            },
            "geometry": {
                "type": "Point",
                "coordinates": [
                    17.93906054429733,
                    50.67040588263053
                ]
            }
        },
        {
            "type": "Feature",
            "properties": {
                "ref:csioz": 1228767,
                "name": "Apteka Zakładowa-Okręgowa Ambulatorium Z Izbą Chorych Aresztu Śledczego W Opolu",
                "addr:street": "Sądowa",
                "addr:housenumber": "4",
                "addr:city": "Opole",
                "addr:postcode": "45-033",
                "amenity": "pharmacy"
            },
            "geometry": {
                "type": "Point",
                "coordinates": [
                    17.92002254122069,
                    50.67314411946037
                ]
            }
        },
        {
            "type": "Feature",
            "properties": {
                "ref:csioz": 1230790,
                "name": "Apteka Szpitalna",
                "addr:street": "Pużaka Kazimierza",
                "addr:housenumber": "11",
                "addr:city": "Opole",
                "addr:postcode": "45-272",
                "amenity": "pharmacy"
            },
            "geometry": {
                "type": "Point",
                "coordinates": [
                    17.951134830893544,
                    50.68771127269102
                ]
            }
        },
        {
            "type": "Feature",
            "properties": {
                "ref:csioz": 1177390,
                "name": "Apteki Centrum - Opolskie Centrum Leków",
                "addr:street": "Mikołaja Kopernika",
                "addr:housenumber": "16",
                "addr:city": "Opole",
                "addr:postcode": "45-040",
                "amenity": "pharmacy"
            },
            "geometry": {
                "type": "Point",
                "coordinates": [
                    17.88845291921051,
                    50.67581370041616
                ]
            }
        },
        {
            "type": "Feature",
            "properties": {
                "ref:csioz": 1197672,
                "name": "Nowa",
                "addr:street": "Szarych Szeregów",
                "addr:housenumber": "72",
                "addr:city": "Opole",
                "addr:postcode": "45-285",
                "amenity": "pharmacy"
            },
            "geometry": {
                "type": "Point",
                "coordinates": [
                    17.95582635023259,
                    50.67382153234915
                ]
            }
        },
        {
            "type": "Feature",
            "properties": {
                "ref:csioz": 1108609,
                "name": "Dr. Max",
                "addr:street": "Tadeusza Kościuszki",
                "addr:housenumber": "11",
                "addr:city": "Opole",
                "addr:postcode": "45-062",
                "amenity": "pharmacy"
            },
            "geometry": {
                "type": "Point",
                "coordinates": [
                    17.901682913324098,
                    50.66157576174817
                ]
            }
        },
        {
            "type": "Feature",
            "properties": {
                "ref:csioz": 1108973,
                "name": "\"Staroń Zenobia Apteka \"\"Libra\"\"\"",
                "addr:street": "1 Maja",
                "addr:housenumber": "30",
                "addr:city": "Opole",
                "addr:postcode": "45-355",
                "amenity": "pharmacy"
            },
            "geometry": {
                "type": "Point",
                "coordinates": [
                    17.941759967099646,
                    50.66394584666009
                ]
            }
        },
        {
            "type": "Feature",
            "properties": {
                "ref:csioz": 1227948,
                "name": "\"Apteka \"\"Przyjazna\"\" 5\"",
                "addr:street": "Janiny Kłopockiej",
                "addr:housenumber": "1",
                "addr:city": "Opole",
                "addr:postcode": "45-920",
                "amenity": "pharmacy"
            },
            "geometry": {
                "type": "Point",
                "coordinates": [
                    17.899943813024258,
                    50.726492289737685
                ]
            }
        },
        {
            "type": "Feature",
            "properties": {
                "ref:csioz": 1230811,
                "addr:street": "Dworcowa",
                "addr:housenumber": "1C",
                "addr:city": "Opole",
                "addr:postcode": "45-940",
                "amenity": "pharmacy"
            },
            "geometry": {
                "type": "Point",
                "coordinates": [
                    17.86608123392333,
                    50.64785080333149
                ]
            }
        }
    ]
}