{
    "type": "FeatureCollection",
    "name": "JPT_KOD_JE_0208",
    "features": [
        {
            "type": "Feature",
            "properties": {
                "ref:csioz": 1133650,
                "name": "Królewska",
                "addr:street": "Wojska Polskiego",
                "addr:housenumber": "10",
                "addr:city": "Kłodzko",
                "addr:postcode": "57-300",
                "amenity": "pharmacy",
                "dispensing": "yes"
            },
            "geometry": {
                "type": "Point",
                "coordinates": [
                    16.65099619506449,
                    50.43764738555682
                ]
            }
        },
        {
            "type": "Feature",
            "properties": {
                "ref:csioz": 1133669,
                "name": "Centralna",
                "addr:street": "Adama Mickiewicza",
                "addr:housenumber": "15",
                "addr:city": "Bystrzyca Kłodzka",
                "addr:postcode": "57-500",
                "amenity": "pharmacy",
                "dispensing": "yes"
            },
            "geometry": {
                "type": "Point",
                "coordinates": [
                    16.64644899999345,
                    50.30113100001295
                ]
            }
        },
        {
            "type": "Feature",
            "properties": {
                "ref:csioz": 1133731,
                "name": "Nad Potokiem",
                "addr:street": "Nad Potokiem",
                "addr:housenumber": "22c",
                "addr:city": "Kudowa Zdrój",
                "addr:postcode": "57-350",
                "amenity": "pharmacy",
                "dispensing": "yes"
            },
            "geometry": {
                "type": "Point",
                "coordinates": [
                    16.239139999986072,
                    50.436128000013206
                ]
            }
        },
        {
            "type": "Feature",
            "properties": {
                "ref:csioz": 1133835,
                "name": "Przyjazna",
                "addr:street": "Spółdzielców",
                "addr:housenumber": "3",
                "addr:city": "Polanica-Zdrój",
                "addr:postcode": "57-320",
                "amenity": "pharmacy",
                "dispensing": "yes"
            },
            "geometry": {
                "type": "Point",
                "coordinates": [
                    16.51319650705087,
                    50.39991871373355
                ]
            }
        },
        {
            "type": "Feature",
            "properties": {
                "ref:csioz": 1133856,
                "name": "Dusznicka",
                "addr:street": "Wojska Polskiego",
                "addr:housenumber": "3a",
                "addr:city": "Duszniki Zdrój",
                "addr:postcode": "57-340",
                "amenity": "pharmacy",
                "dispensing": "yes"
            },
            "geometry": {
                "type": "Point",
                "coordinates": [
                    16.391517999989397,
                    50.401347000013125
                ]
            }
        },
        {
            "type": "Feature",
            "properties": {
                "ref:csioz": 1134022,
                "name": "Arnika",
                "addr:street": "Wolności",
                "addr:housenumber": "2G",
                "addr:city": "Szczytna",
                "addr:postcode": "57-330",
                "amenity": "pharmacy",
                "dispensing": "yes"
            },
            "geometry": {
                "type": "Point",
                "coordinates": [
                    16.446275660863854,
                    50.413906670758394
                ]
            }
        },
        {
            "type": "Feature",
            "properties": {
                "ref:csioz": 1134040,
                "name": "Nowa",
                "addr:street": "Wojska Polskiego",
                "addr:housenumber": "3",
                "addr:city": "Polanica-Zdrój",
                "addr:postcode": "57-320",
                "amenity": "pharmacy",
                "dispensing": "yes"
            },
            "geometry": {
                "type": "Point",
                "coordinates": [
                    16.512215505349435,
                    50.40381041117409
                ]
            }
        },
        {
            "type": "Feature",
            "properties": {
                "ref:csioz": 1134054,
                "name": "\"Apteka \"\"Słoneczna\"\"\"",
                "addr:street": "Morawka",
                "addr:housenumber": "31",
                "addr:city": "Stronie Śląskie",
                "addr:postcode": "57-550",
                "amenity": "pharmacy",
                "dispensing": "yes"
            },
            "geometry": {
                "type": "Point",
                "coordinates": [
                    16.88102106117649,
                    50.286835712085356
                ]
            }
        },
        {
            "type": "Feature",
            "properties": {
                "ref:csioz": 1134221,
                "name": "Pod Słowikiem",
                "addr:street": "Wolności",
                "addr:housenumber": "34",
                "addr:city": "Międzylesie",
                "addr:postcode": "57-530",
                "amenity": "pharmacy",
                "dispensing": "yes"
            },
            "geometry": {
                "type": "Point",
                "coordinates": [
                    16.666150214519014,
                    50.146897698781224
                ]
            }
        },
        {
            "type": "Feature",
            "properties": {
                "ref:csioz": 1134480,
                "name": "Pod Szczelińcem",
                "addr:street": "Rynek",
                "addr:housenumber": "5",
                "addr:city": "Radków",
                "addr:postcode": "57-420",
                "amenity": "pharmacy",
                "dispensing": "yes"
            },
            "geometry": {
                "type": "Point",
                "coordinates": [
                    16.40123550778969,
                    50.50358608985147
                ]
            }
        },
        {
            "type": "Feature",
            "properties": {
                "ref:csioz": 1134535,
                "name": "\"Apteka \"\"Zdrowie\"\"\"",
                "addr:street": "Połabska",
                "addr:housenumber": "9",
                "addr:city": "Kłodzko",
                "addr:postcode": "57-300",
                "amenity": "pharmacy",
                "dispensing": "yes"
            },
            "geometry": {
                "type": "Point",
                "coordinates": [
                    16.660395560402822,
                    50.43886858690523
                ]
            }
        },
        {
            "type": "Feature",
            "properties": {
                "ref:csioz": 1134607,
                "name": "Daglezja",
                "addr:street": "Nadbrzeżna",
                "addr:housenumber": "22",
                "addr:city": "Stronie Śląskie",
                "addr:postcode": "57-550",
                "amenity": "pharmacy",
                "dispensing": "yes"
            },
            "geometry": {
                "type": "Point",
                "coordinates": [
                    16.874677343916602,
                    50.29618293284332
                ]
            }
        },
        {
            "type": "Feature",
            "properties": {
                "ref:csioz": 1134931,
                "addr:street": "Główna",
                "addr:housenumber": "57",
                "addr:city": "Jugów",
                "addr:postcode": "57-430",
                "amenity": "pharmacy",
                "dispensing": "yes"
            },
            "geometry": {
                "type": "Point",
                "coordinates": [
                    16.519165641748653,
                    50.62307413165457
                ]
            }
        },
        {
            "type": "Feature",
            "properties": {
                "ref:csioz": 1134990,
                "name": "\"Punkt Apteczny \"\"Familia\"\"\"",
                "addr:street": "Mickiewicza",
                "addr:housenumber": "1",
                "addr:city": "Ścinawka Średnia",
                "addr:postcode": "57-420",
                "amenity": "pharmacy",
                "dispensing": "yes"
            },
            "geometry": {
                "type": "Point",
                "coordinates": [
                    16.49572934224381,
                    50.52108359588292
                ]
            }
        },
        {
            "type": "Feature",
            "properties": {
                "ref:csioz": 1135092,
                "name": "Sanatorium Uzdrowiskowe Malwa Kamea Sp. Z O.O. W Polanicy Zdroju",
                "addr:street": "Wojska Polskiego",
                "addr:housenumber": "64",
                "addr:city": "Polanica Zdrój",
                "addr:postcode": "57-320",
                "amenity": "pharmacy",
                "dispensing": "yes"
            },
            "geometry": {
                "type": "Point",
                "coordinates": [
                    16.4978347995536,
                    50.39651765251557
                ]
            }
        },
        {
            "type": "Feature",
            "properties": {
                "ref:csioz": 1135084,
                "name": "Dział Farmacji Szpitalnej W Centrum Świadczeń Stacjonarnych I Całodobowych",
                "addr:street": "Główna",
                "addr:housenumber": "35A",
                "addr:city": "Kudowa Zdrój",
                "addr:postcode": "57-350",
                "amenity": "pharmacy",
                "dispensing": "yes"
            },
            "geometry": {
                "type": "Point",
                "coordinates": [
                    16.242789978017928,
                    50.43118856807296
                ]
            }
        },
        {
            "type": "Feature",
            "properties": {
                "ref:csioz": 1135544,
                "addr:housenumber": "1",
                "addr:postcode": "57-522",
                "amenity": "pharmacy",
                "addr:place": "Domaszków",
                "dispensing": "yes"
            },
            "geometry": {
                "type": "Point",
                "coordinates": [
                    16.67890230520969,
                    50.21265062121856
                ]
            }
        },
        {
            "type": "Feature",
            "properties": {
                "ref:csioz": 1135680,
                "name": "Salus Centrum Medyczne- Oddział Leczenia Jednego Dnia",
                "addr:street": "Kusocińskiego",
                "addr:housenumber": "3A",
                "addr:city": "Kłodzko",
                "addr:postcode": "57-300",
                "amenity": "pharmacy",
                "dispensing": "yes"
            },
            "geometry": {
                "type": "Point",
                "coordinates": [
                    16.648950505726134,
                    50.43027227707837
                ]
            }
        },
        {
            "type": "Feature",
            "properties": {
                "ref:csioz": 1136364,
                "name": "Biały Len",
                "addr:street": "Spacerowa",
                "addr:housenumber": "15B",
                "addr:city": "Nowa Ruda",
                "addr:postcode": "57-402",
                "amenity": "pharmacy",
                "dispensing": "yes"
            },
            "geometry": {
                "type": "Point",
                "coordinates": [
                    16.5524219490012,
                    50.543404007271214
                ]
            }
        },
        {
            "type": "Feature",
            "properties": {
                "ref:csioz": 1137074,
                "name": "Biały Len Ii",
                "addr:housenumber": "115",
                "addr:postcode": "57-431",
                "amenity": "pharmacy",
                "addr:place": "Wolibórz",
                "dispensing": "yes"
            },
            "geometry": {
                "type": "Point",
                "coordinates": [
                    16.55474147098276,
                    50.58926851058744
                ]
            }
        },
        {
            "type": "Feature",
            "properties": {
                "ref:csioz": 1160273,
                "name": "Aspirynka",
                "addr:street": "Radkowska",
                "addr:housenumber": "22",
                "addr:city": "Nowa Ruda",
                "addr:postcode": "57-402",
                "amenity": "pharmacy",
                "dispensing": "yes"
            },
            "geometry": {
                "type": "Point",
                "coordinates": [
                    16.545061790150466,
                    50.544943656231005
                ]
            }
        },
        {
            "type": "Feature",
            "properties": {
                "ref:csioz": 1160301,
                "name": "Apteka Piastowska",
                "addr:street": "Piastów",
                "addr:housenumber": "5",
                "addr:city": "Nowa Ruda",
                "addr:postcode": "57-400",
                "amenity": "pharmacy",
                "dispensing": "yes"
            },
            "geometry": {
                "type": "Point",
                "coordinates": [
                    16.501236619846278,
                    50.581180075992265
                ]
            }
        },
        {
            "type": "Feature",
            "properties": {
                "ref:csioz": 1160317,
                "name": "Verbena",
                "addr:street": "Kłodzka",
                "addr:housenumber": "53",
                "addr:city": "Ołdrzychowice",
                "addr:postcode": "57-360",
                "amenity": "pharmacy",
                "dispensing": "yes"
            },
            "geometry": {
                "type": "Point",
                "coordinates": [
                    16.713968227994453,
                    50.362401503850435
                ]
            }
        },
        {
            "type": "Feature",
            "properties": {
                "ref:csioz": 1160349,
                "name": "Piastowska",
                "addr:street": "Kłodzka",
                "addr:housenumber": "1",
                "addr:city": "Polanica-Zdrój",
                "addr:postcode": "57-320",
                "amenity": "pharmacy",
                "dispensing": "yes"
            },
            "geometry": {
                "type": "Point",
                "coordinates": [
                    16.51297693550741,
                    50.40490932853767
                ]
            }
        },
        {
            "type": "Feature",
            "properties": {
                "ref:csioz": 1160358,
                "name": "Fenix",
                "addr:street": "Bystrzycka",
                "addr:housenumber": "9",
                "addr:city": "Polanica-Zdrój",
                "addr:postcode": "57-320",
                "amenity": "pharmacy",
                "dispensing": "yes"
            },
            "geometry": {
                "type": "Point",
                "coordinates": [
                    16.512983680286258,
                    50.40780931288919
                ]
            }
        },
        {
            "type": "Feature",
            "properties": {
                "ref:csioz": 1161394,
                "name": "Szpitale Kłodzkie",
                "addr:street": "Szpitalna",
                "addr:housenumber": "1a",
                "addr:city": "Kłodzko",
                "addr:postcode": "57-300",
                "amenity": "pharmacy",
                "dispensing": "yes"
            },
            "geometry": {
                "type": "Point",
                "coordinates": [
                    16.65984995192567,
                    50.455078521160836
                ]
            }
        },
        {
            "type": "Feature",
            "properties": {
                "ref:csioz": 1161409,
                "name": "Szpital Wielospecjalistyczny Specjalistycznego Centrum Medycznego Im. Św. Jana Pawła Ii Spółka Akcyjna",
                "addr:street": "Jana Pawła II",
                "addr:housenumber": "2",
                "addr:city": "Polanica Zdrój",
                "addr:postcode": "57-320",
                "amenity": "pharmacy",
                "dispensing": "yes"
            },
            "geometry": {
                "type": "Point",
                "coordinates": [
                    16.50117499999138,
                    50.407690000013105
                ]
            }
        },
        {
            "type": "Feature",
            "properties": {
                "ref:csioz": 1174281,
                "name": "Centrum Zdrowia",
                "addr:street": "Wojska Polskiego",
                "addr:housenumber": "2",
                "addr:city": "Nowa Ruda",
                "addr:postcode": "57-400",
                "amenity": "pharmacy",
                "dispensing": "yes"
            },
            "geometry": {
                "type": "Point",
                "coordinates": [
                    16.559921532865317,
                    50.54357064398596
                ]
            }
        },
        {
            "type": "Feature",
            "properties": {
                "ref:csioz": 1176884,
                "name": "Słoneczna",
                "addr:street": "Wolności",
                "addr:housenumber": "28-29",
                "addr:city": "Bystrzyca Kłodzka",
                "addr:postcode": "57-500",
                "amenity": "pharmacy",
                "dispensing": "yes"
            },
            "geometry": {
                "type": "Point",
                "coordinates": [
                    16.65249699999352,
                    50.29630300001294
                ]
            }
        },
        {
            "type": "Feature",
            "properties": {
                "ref:csioz": 1176903,
                "name": "Bliska Apteka",
                "addr:street": "Noworudzka",
                "addr:housenumber": "2",
                "addr:city": "Kłodzko",
                "addr:postcode": "57-300",
                "amenity": "pharmacy",
                "dispensing": "yes"
            },
            "geometry": {
                "type": "Point",
                "coordinates": [
                    16.63832499999342,
                    50.45264600001316
                ]
            }
        },
        {
            "type": "Feature",
            "properties": {
                "ref:csioz": 1180518,
                "name": "W Szpitalu",
                "addr:street": "Jana Pawła II",
                "addr:housenumber": "2",
                "addr:city": "Polanica-Zdrój",
                "addr:postcode": "57-320",
                "amenity": "pharmacy",
                "dispensing": "yes"
            },
            "geometry": {
                "type": "Point",
                "coordinates": [
                    16.51067145138187,
                    50.411348221283255
                ]
            }
        },
        {
            "type": "Feature",
            "properties": {
                "ref:csioz": 1185814,
                "name": "Rodzinna",
                "addr:street": "Strażacka",
                "addr:housenumber": "11",
                "addr:city": "Bystrzyca Kłodzka",
                "addr:postcode": "57-500",
                "amenity": "pharmacy",
                "dispensing": "yes"
            },
            "geometry": {
                "type": "Point",
                "coordinates": [
                    16.644222963499335,
                    50.29999938901896
                ]
            }
        },
        {
            "type": "Feature",
            "properties": {
                "ref:csioz": 1212050,
                "name": "Dział Farmacji Szpitalnej W Bystrzyckim Centrum Zdrowia Spółka Z Ograniczoną Odpowiedzialnością",
                "addr:street": "Stefana Okrzei",
                "addr:housenumber": "49",
                "addr:city": "Bystrzyca Kłodzka",
                "addr:postcode": "57-500",
                "amenity": "pharmacy",
                "dispensing": "yes"
            },
            "geometry": {
                "type": "Point",
                "coordinates": [
                    16.653425607475036,
                    50.30004343759217
                ]
            }
        },
        {
            "type": "Feature",
            "properties": {
                "ref:csioz": 1111769,
                "name": "Esculap",
                "addr:housenumber": "46",
                "addr:postcode": "27-532",
                "amenity": "pharmacy",
                "addr:place": "Wojciechowice",
                "dispensing": "yes"
            },
            "geometry": {
                "type": "Point",
                "coordinates": [
                    16.717425999994383,
                    50.45434600001315
                ]
            }
        },
        {
            "type": "Feature",
            "properties": {
                "ref:csioz": 1160285,
                "name": "-",
                "addr:street": "Rynek",
                "addr:housenumber": "23",
                "addr:city": "Nowa Ruda",
                "addr:postcode": "57-402",
                "amenity": "pharmacy",
                "dispensing": "yes"
            },
            "geometry": {
                "type": "Point",
                "coordinates": [
                    16.500677969305105,
                    50.579104542775234
                ]
            }
        },
        {
            "type": "Feature",
            "properties": {
                "ref:csioz": 1133511,
                "name": "Słoneczna",
                "addr:street": "Szpitalna",
                "addr:housenumber": "1",
                "addr:city": "Szczytna",
                "addr:postcode": "57-330",
                "amenity": "pharmacy",
                "dispensing": "yes"
            },
            "geometry": {
                "type": "Point",
                "coordinates": [
                    16.443513860234294,
                    50.4166654475981
                ]
            }
        },
        {
            "type": "Feature",
            "properties": {
                "ref:csioz": 1133554,
                "name": "Salus",
                "addr:street": "Janusza Kusocińskiego",
                "addr:housenumber": "3a",
                "addr:city": "Kłodzko",
                "addr:postcode": "57-300",
                "amenity": "pharmacy",
                "dispensing": "yes"
            },
            "geometry": {
                "type": "Point",
                "coordinates": [
                    16.648950505726134,
                    50.43024227707837
                ]
            }
        },
        {
            "type": "Feature",
            "properties": {
                "ref:csioz": 1133753,
                "name": "Nova",
                "addr:street": "Harcerzy",
                "addr:housenumber": "1",
                "addr:city": "Kłodzko",
                "addr:postcode": "57-300",
                "amenity": "pharmacy",
                "dispensing": "yes"
            },
            "geometry": {
                "type": "Point",
                "coordinates": [
                    16.649448954504606,
                    50.43230643107203
                ]
            }
        },
        {
            "type": "Feature",
            "properties": {
                "ref:csioz": 1133980,
                "name": "Doz Apteka. Dbam O Zdrowie. Familia",
                "addr:street": "Kłodzka",
                "addr:housenumber": "13",
                "addr:city": "Nowa Ruda",
                "addr:postcode": "54-402",
                "amenity": "pharmacy",
                "dispensing": "yes"
            },
            "geometry": {
                "type": "Point",
                "coordinates": [
                    16.556327544429372,
                    50.54333121422942
                ]
            }
        },
        {
            "type": "Feature",
            "properties": {
                "ref:csioz": 1134347,
                "name": "\"Apteka Cef@Rm 36,6\"",
                "addr:street": "Czeska",
                "addr:housenumber": "15",
                "addr:city": "Kłodzko",
                "addr:postcode": "57-300",
                "amenity": "pharmacy",
                "dispensing": "yes"
            },
            "geometry": {
                "type": "Point",
                "coordinates": [
                    16.652620105447937,
                    50.4389974052874
                ]
            }
        },
        {
            "type": "Feature",
            "properties": {
                "ref:csioz": 1134383,
                "name": "Pałacowa",
                "addr:street": "Piłsudskiego",
                "addr:housenumber": "2",
                "addr:city": "Nowa Ruda",
                "addr:postcode": "57-400",
                "amenity": "pharmacy",
                "dispensing": "yes"
            },
            "geometry": {
                "type": "Point",
                "coordinates": [
                    16.500545159717525,
                    50.57961396143819
                ]
            }
        },
        {
            "type": "Feature",
            "properties": {
                "ref:csioz": 1134664,
                "name": "Apteka Rumianek",
                "addr:street": "Nadbrzeżna",
                "addr:housenumber": "14",
                "addr:city": "Stronie Śląskie",
                "addr:postcode": "57-550",
                "amenity": "pharmacy",
                "dispensing": "yes"
            },
            "geometry": {
                "type": "Point",
                "coordinates": [
                    16.874944418159213,
                    50.29452973455569
                ]
            }
        },
        {
            "type": "Feature",
            "properties": {
                "ref:csioz": 1135651,
                "name": "Sanatorium Uzdrowiskowe Chemik Sp. Z O.O.",
                "addr:street": "Wojska Polskiego",
                "addr:housenumber": "17",
                "addr:city": "Duszniki Zdrój",
                "addr:postcode": "57-340",
                "amenity": "pharmacy",
                "dispensing": "yes"
            },
            "geometry": {
                "type": "Point",
                "coordinates": [
                    16.386864999989292,
                    50.39519300001311
                ]
            }
        },
        {
            "type": "Feature",
            "properties": {
                "ref:csioz": 1136175,
                "name": "Uzdrowisko Lądek-Długopole Spółka Akcyjna",
                "addr:street": "Wolności",
                "addr:housenumber": "4",
                "addr:city": "Lądek Zdrój",
                "addr:postcode": "57-540",
                "amenity": "pharmacy",
                "dispensing": "yes"
            },
            "geometry": {
                "type": "Point",
                "coordinates": [
                    16.88892299999604,
                    50.34595300001299
                ]
            }
        },
        {
            "type": "Feature",
            "properties": {
                "ref:csioz": 1136378,
                "name": "Farmatex",
                "addr:street": "XXX-lecia",
                "addr:housenumber": "16",
                "addr:city": "Nowa Ruda",
                "addr:postcode": "57-402",
                "amenity": "pharmacy",
                "dispensing": "yes"
            },
            "geometry": {
                "type": "Point",
                "coordinates": [
                    16.551865711266796,
                    50.5473989172989
                ]
            }
        },
        {
            "type": "Feature",
            "properties": {
                "ref:csioz": 1136393,
                "name": "Secura Chirurgia Jednego Dnia - Ośrodek Litotrypsji",
                "addr:street": "Róż",
                "addr:housenumber": "11",
                "addr:city": "Polanica Zdrój",
                "addr:postcode": "57-320",
                "amenity": "pharmacy",
                "dispensing": "yes"
            },
            "geometry": {
                "type": "Point",
                "coordinates": [
                    16.507370874288515,
                    50.4159326067323
                ]
            }
        },
        {
            "type": "Feature",
            "properties": {
                "ref:csioz": 1136411,
                "name": "Szpital Uzdrowiskowy Nr 1 Pawilon Wielka Pieniawa",
                "addr:street": "Parkowa",
                "addr:housenumber": "4",
                "addr:city": "Polanica Zdrój",
                "addr:postcode": "57-320",
                "amenity": "pharmacy",
                "dispensing": "yes"
            },
            "geometry": {
                "type": "Point",
                "coordinates": [
                    16.51086899999153,
                    50.40925400001312
                ]
            }
        },
        {
            "type": "Feature",
            "properties": {
                "ref:csioz": 1137063,
                "name": "Apteka Przy Netto",
                "addr:street": "Adama Mickiewicza",
                "addr:housenumber": "3",
                "addr:city": "Bystrzyca Kłodzka",
                "addr:postcode": "57-500",
                "amenity": "pharmacy",
                "dispensing": "yes"
            },
            "geometry": {
                "type": "Point",
                "coordinates": [
                    16.64640472043835,
                    50.29992987134295
                ]
            }
        },
        {
            "type": "Feature",
            "properties": {
                "ref:csioz": 1137049,
                "name": "Zakład Leczniczo-Opiekuńczy Dla Dzieci",
                "addr:housenumber": "53",
                "addr:postcode": "57-300",
                "amenity": "pharmacy",
                "addr:place": "Piszkowice",
                "dispensing": "yes"
            },
            "geometry": {
                "type": "Point",
                "coordinates": [
                    16.589141174594307,
                    50.47093127243277
                ]
            }
        },
        {
            "type": "Feature",
            "properties": {
                "ref:csioz": 1137775,
                "name": "Zdrowie",
                "addr:housenumber": "179 A",
                "addr:postcode": "57-362",
                "amenity": "pharmacy",
                "addr:place": "Krosnowice",
                "dispensing": "yes"
            },
            "geometry": {
                "type": "Point",
                "coordinates": [
                    16.63478679878344,
                    50.39036946109484
                ]
            }
        },
        {
            "type": "Feature",
            "properties": {
                "ref:csioz": 1160141,
                "name": "Pod Jeleniem",
                "addr:street": "Bolesława Chrobrego",
                "addr:housenumber": "5",
                "addr:city": "Kłodzko",
                "addr:postcode": "57-300",
                "amenity": "pharmacy",
                "dispensing": "yes"
            },
            "geometry": {
                "type": "Point",
                "coordinates": [
                    16.654967216398678,
                    50.43839675422626
                ]
            }
        },
        {
            "type": "Feature",
            "properties": {
                "ref:csioz": 1159972,
                "name": "Bystrzycka",
                "addr:street": "Stefana Okrzei",
                "addr:housenumber": "12",
                "addr:city": "Bystrzyca Kłodzka",
                "addr:postcode": "57-500",
                "amenity": "pharmacy",
                "dispensing": "yes"
            },
            "geometry": {
                "type": "Point",
                "coordinates": [
                    16.65348421759004,
                    50.29778818532208
                ]
            }
        },
        {
            "type": "Feature",
            "properties": {
                "ref:csioz": 1160132,
                "name": "Pod Murzynem",
                "addr:street": "Bolesława Chrobrego",
                "addr:housenumber": "13",
                "addr:city": "Kłodzko",
                "addr:postcode": "57-300",
                "amenity": "pharmacy",
                "dispensing": "yes"
            },
            "geometry": {
                "type": "Point",
                "coordinates": [
                    16.653854491809284,
                    50.43822927363494
                ]
            }
        },
        {
            "type": "Feature",
            "properties": {
                "ref:csioz": 1159980,
                "name": "Herbena",
                "addr:street": "Osiedle Szkolne",
                "addr:housenumber": "10a/13",
                "addr:city": "Bystrzyca Kłodzka",
                "addr:postcode": "57-500",
                "amenity": "pharmacy",
                "dispensing": "yes"
            },
            "geometry": {
                "type": "Point",
                "coordinates": [
                    16.638211999993334,
                    50.302815000012956
                ]
            }
        },
        {
            "type": "Feature",
            "properties": {
                "ref:csioz": 1160155,
                "name": "Grodzka",
                "addr:street": "Lutycka",
                "addr:housenumber": "15",
                "addr:city": "Kłodzko",
                "addr:postcode": "57-300",
                "amenity": "pharmacy",
                "dispensing": "yes"
            },
            "geometry": {
                "type": "Point",
                "coordinates": [
                    16.659792777785395,
                    50.43591725170978
                ]
            }
        },
        {
            "type": "Feature",
            "properties": {
                "ref:csioz": 1160164,
                "name": "Kłodzka",
                "addr:street": "Tadeusza Kościuszki",
                "addr:housenumber": "13",
                "addr:city": "Kłodzko",
                "addr:postcode": "57-300",
                "amenity": "pharmacy",
                "dispensing": "yes"
            },
            "geometry": {
                "type": "Point",
                "coordinates": [
                    16.651016150240224,
                    50.43617174954433
                ]
            }
        },
        {
            "type": "Feature",
            "properties": {
                "ref:csioz": 1160193,
                "name": "Vita",
                "addr:street": "Główna",
                "addr:housenumber": "21",
                "addr:city": "Kudowa Zdrój",
                "addr:postcode": "57-350",
                "amenity": "pharmacy",
                "dispensing": "yes"
            },
            "geometry": {
                "type": "Point",
                "coordinates": [
                    16.24519499998621,
                    50.43025400001319
                ]
            }
        },
        {
            "type": "Feature",
            "properties": {
                "ref:csioz": 1160204,
                "name": "Pod Lwem",
                "addr:street": "Zdrojowa",
                "addr:housenumber": "46",
                "addr:city": "Kudowa Zdrój",
                "addr:postcode": "57-350",
                "amenity": "pharmacy",
                "dispensing": "yes"
            },
            "geometry": {
                "type": "Point",
                "coordinates": [
                    16.244384999986213,
                    50.44219100001321
                ]
            }
        },
        {
            "type": "Feature",
            "properties": {
                "ref:csioz": 1160212,
                "name": "-",
                "addr:street": "Powstańców Wielkopolskich",
                "addr:housenumber": "4",
                "addr:city": "Lądek Zdrój",
                "addr:postcode": "57-540",
                "amenity": "pharmacy",
                "dispensing": "yes"
            },
            "geometry": {
                "type": "Point",
                "coordinates": [
                    16.874165148330956,
                    50.344313320755674
                ]
            }
        },
        {
            "type": "Feature",
            "properties": {
                "ref:csioz": 1160236,
                "name": "Remedia",
                "addr:street": "Główna",
                "addr:housenumber": "21",
                "addr:city": "Ludwikowice",
                "addr:postcode": "57-450",
                "amenity": "pharmacy",
                "dispensing": "yes"
            },
            "geometry": {
                "type": "Point",
                "coordinates": [
                    16.480234380306204,
                    50.6166593093781
                ]
            }
        },
        {
            "type": "Feature",
            "properties": {
                "ref:csioz": 1160819,
                "name": "Centrum",
                "addr:street": "Kłodzka",
                "addr:housenumber": "10a",
                "addr:city": "Nowa Ruda",
                "addr:postcode": "57-402",
                "amenity": "pharmacy",
                "dispensing": "yes"
            },
            "geometry": {
                "type": "Point",
                "coordinates": [
                    16.55289038087807,
                    50.54485142372912
                ]
            }
        },
        {
            "type": "Feature",
            "properties": {
                "ref:csioz": 1160824,
                "name": "Rodzinna",
                "addr:street": "Rodzinna",
                "addr:housenumber": "41",
                "addr:city": "Kłodzko",
                "addr:postcode": "57-300",
                "amenity": "pharmacy",
                "dispensing": "yes"
            },
            "geometry": {
                "type": "Point",
                "coordinates": [
                    16.64364691845219,
                    50.43520678414773
                ]
            }
        },
        {
            "type": "Feature",
            "properties": {
                "ref:csioz": 1164903,
                "name": "Chirplast Spółka Jawna I.Rychlik D. Rychlik",
                "addr:street": "Szpitalna",
                "addr:housenumber": "1",
                "addr:city": "Szczytna",
                "addr:postcode": "57-330",
                "amenity": "pharmacy",
                "dispensing": "yes"
            },
            "geometry": {
                "type": "Point",
                "coordinates": [
                    16.443513860234294,
                    50.4166354475981
                ]
            }
        },
        {
            "type": "Feature",
            "properties": {
                "ref:csioz": 1188874,
                "name": "\"Apteka \"\"Vitrum\"\"\"",
                "addr:street": "Dusznicka",
                "addr:housenumber": "1a",
                "addr:city": "Kłodzko",
                "addr:postcode": "57-300",
                "amenity": "pharmacy",
                "dispensing": "yes"
            },
            "geometry": {
                "type": "Point",
                "coordinates": [
                    16.64063620397302,
                    50.43854275478252
                ]
            }
        },
        {
            "type": "Feature",
            "properties": {
                "ref:csioz": 1193058,
                "name": "Miłek",
                "addr:housenumber": "69c",
                "addr:postcode": "57-314",
                "amenity": "pharmacy",
                "addr:place": "Szalejów Dolny",
                "dispensing": "yes"
            },
            "geometry": {
                "type": "Point",
                "coordinates": [
                    16.57285938857965,
                    50.42831476151027
                ]
            }
        },
        {
            "type": "Feature",
            "properties": {
                "ref:csioz": 1203068,
                "name": "Zdrojowa",
                "addr:street": "Zdrojowa",
                "addr:housenumber": "38",
                "addr:city": "Kudowa-Zdrój",
                "addr:postcode": "57-350",
                "amenity": "pharmacy",
                "dispensing": "yes"
            },
            "geometry": {
                "type": "Point",
                "coordinates": [
                    16.241837244714592,
                    50.442435733133145
                ]
            }
        },
        {
            "type": "Feature",
            "properties": {
                "ref:csioz": 1206630,
                "name": "Apteka Zakładowa",
                "addr:street": "Mariański",
                "addr:housenumber": "7/8",
                "addr:city": "Lądek-Zdrój",
                "addr:postcode": "57-540",
                "amenity": "pharmacy",
                "dispensing": "yes"
            },
            "geometry": {
                "type": "Point",
                "coordinates": [
                    16.88911399999604,
                    50.343343000012986
                ]
            }
        },
        {
            "type": "Feature",
            "properties": {
                "ref:csioz": 1208136,
                "name": "Doz Apteka Dbam O Zdrowie",
                "addr:street": "Wojska Polskiego",
                "addr:housenumber": "16",
                "addr:city": "Kłodzko",
                "addr:postcode": "57-300",
                "amenity": "pharmacy",
                "dispensing": "yes"
            },
            "geometry": {
                "type": "Point",
                "coordinates": [
                    16.6504761515684,
                    50.43699418991647
                ]
            }
        },
        {
            "type": "Feature",
            "properties": {
                "ref:csioz": 1209138,
                "name": "Apteka Słoneczna",
                "addr:street": "Podjazdowa",
                "addr:housenumber": "11",
                "addr:city": "Nowa Ruda",
                "addr:postcode": "57-400",
                "amenity": "pharmacy",
                "dispensing": "yes"
            },
            "geometry": {
                "type": "Point",
                "coordinates": [
                    16.50148193622276,
                    50.58050262640448
                ]
            }
        },
        {
            "type": "Feature",
            "properties": {
                "ref:csioz": 1209167,
                "name": "23 Wojskowy Szpital Uzdrowiskowo - Rehabilitacyjny W Lądku Zdroju",
                "addr:street": "Mariański",
                "addr:housenumber": "7/8",
                "addr:city": "Lądek-Zdrój",
                "addr:postcode": "57-540",
                "amenity": "pharmacy",
                "dispensing": "yes"
            },
            "geometry": {
                "type": "Point",
                "coordinates": [
                    16.88911399999604,
                    50.343313000012984
                ]
            }
        },
        {
            "type": "Feature",
            "properties": {
                "ref:csioz": 1225172,
                "name": "Apteka Szpitalna W Wojewódzkim Centrum Psychiatrii Długoterminowej",
                "addr:street": "Sudecka",
                "addr:housenumber": "3A",
                "addr:city": "Stronie Śląskie",
                "addr:postcode": "57-550",
                "amenity": "pharmacy",
                "dispensing": "yes"
            },
            "geometry": {
                "type": "Point",
                "coordinates": [
                    16.87860491185777,
                    50.29092960326414
                ]
            }
        },
        {
            "type": "Feature",
            "properties": {
                "ref:csioz": 1133946,
                "name": "Familijna",
                "addr:street": "Morcinka",
                "addr:housenumber": "3",
                "addr:city": "Kłodzko",
                "addr:postcode": "57-300",
                "amenity": "pharmacy",
                "dispensing": "yes"
            },
            "geometry": {
                "type": "Point",
                "coordinates": [
                    16.651791724555213,
                    50.43214051691673
                ]
            }
        },
        {
            "type": "Feature",
            "properties": {
                "ref:csioz": 1160220,
                "name": "Zdrojowa",
                "addr:street": "Tadeusza Kościuszki",
                "addr:housenumber": "15 b",
                "addr:city": "Lądek-Zdrój",
                "addr:postcode": "57-540",
                "amenity": "pharmacy",
                "dispensing": "yes"
            },
            "geometry": {
                "type": "Point",
                "coordinates": [
                    16.887274499958618,
                    50.34089281913954
                ]
            }
        },
        {
            "type": "Feature",
            "properties": {
                "ref:csioz": 1160005,
                "name": "Św. Piotra I Pawła",
                "addr:street": "Kłodzka",
                "addr:housenumber": "9",
                "addr:city": "Duszniki Zdrój",
                "addr:postcode": "57-340",
                "amenity": "pharmacy",
                "dispensing": "yes"
            },
            "geometry": {
                "type": "Point",
                "coordinates": [
                    16.3917099999894,
                    50.404473000013134
                ]
            }
        }
    ]
}