{
    "type": "FeatureCollection",
    "name": "JPT_KOD_JE_2805",
    "features": [
        {
            "type": "Feature",
            "properties": {
                "ref:csioz": 1186349,
                "addr:street": "Ełcka",
                "addr:housenumber": "15",
                "addr:city": "Stare Juchy",
                "addr:postcode": "19-330",
                "amenity": "pharmacy",
                "dispensing": "yes"
            },
            "geometry": {
                "type": "Point",
                "coordinates": [
                    22.174259679723658,
                    53.92117133817066
                ]
            }
        },
        {
            "type": "Feature",
            "properties": {
                "ref:csioz": 1014867,
                "addr:street": "Baranki",
                "addr:housenumber": "24",
                "addr:city": "Ełk",
                "addr:postcode": "19-300",
                "amenity": "pharmacy",
                "dispensing": "yes"
            },
            "geometry": {
                "type": "Point",
                "coordinates": [
                    22.33986809426334,
                    53.79353346442562
                ]
            }
        },
        {
            "type": "Feature",
            "properties": {
                "ref:csioz": 1016439,
                "name": "Punkt Apteczny Św. Brunona",
                "addr:street": "Szkolna",
                "addr:housenumber": "1",
                "addr:city": "Kalinowo",
                "addr:postcode": "19-314",
                "amenity": "pharmacy",
                "dispensing": "yes"
            },
            "geometry": {
                "type": "Point",
                "coordinates": [
                    22.672270552282324,
                    53.87224587516641
                ]
            }
        },
        {
            "type": "Feature",
            "properties": {
                "ref:csioz": 1034471,
                "addr:housenumber": "58",
                "addr:postcode": "19-314",
                "amenity": "pharmacy",
                "addr:place": "Pisanica",
                "dispensing": "yes"
            },
            "geometry": {
                "type": "Point",
                "coordinates": [
                    22.574074817878042,
                    53.82338858361642
                ]
            }
        },
        {
            "type": "Feature",
            "properties": {
                "ref:csioz": 1034483,
                "name": "Punkt Apteczny Św. Brunona",
                "addr:street": "1 Maja",
                "addr:housenumber": "15",
                "addr:city": "Prostki",
                "addr:postcode": "19-335",
                "amenity": "pharmacy",
                "dispensing": "yes"
            },
            "geometry": {
                "type": "Point",
                "coordinates": [
                    22.44070807795596,
                    53.69397994386059
                ]
            }
        },
        {
            "type": "Feature",
            "properties": {
                "ref:csioz": 1034507,
                "addr:street": "Michała Kajki",
                "addr:housenumber": "13",
                "addr:city": "Straduny",
                "addr:postcode": "19-325",
                "amenity": "pharmacy",
                "dispensing": "yes"
            },
            "geometry": {
                "type": "Point",
                "coordinates": [
                    22.345951232598598,
                    53.89150077517705
                ]
            }
        },
        {
            "type": "Feature",
            "properties": {
                "ref:csioz": 1041229,
                "name": "Apteka Na Jana Pawła Ii Nowa Farmacja",
                "addr:street": "Jana Pawła II",
                "addr:housenumber": "7",
                "addr:city": "Ełk",
                "addr:postcode": "19-300",
                "amenity": "pharmacy",
                "dispensing": "yes"
            },
            "geometry": {
                "type": "Point",
                "coordinates": [
                    22.360263688875413,
                    53.80301677995441
                ]
            }
        },
        {
            "type": "Feature",
            "properties": {
                "ref:csioz": 1041241,
                "name": "Osak",
                "addr:street": "gen. Grota-Roweckiego",
                "addr:housenumber": "6",
                "addr:city": "Ełk",
                "addr:postcode": "19-300",
                "amenity": "pharmacy",
                "dispensing": "yes"
            },
            "geometry": {
                "type": "Point",
                "coordinates": [
                    22.36203791616736,
                    53.836393139233095
                ]
            }
        },
        {
            "type": "Feature",
            "properties": {
                "ref:csioz": 1041264,
                "name": "Apteka Św. Brunona",
                "addr:street": "Baranki",
                "addr:housenumber": "24",
                "addr:city": "Ełk",
                "addr:postcode": "19-300",
                "amenity": "pharmacy",
                "dispensing": "yes"
            },
            "geometry": {
                "type": "Point",
                "coordinates": [
                    22.33986809426334,
                    53.79350346442562
                ]
            }
        },
        {
            "type": "Feature",
            "properties": {
                "ref:csioz": 1113930,
                "name": "Centrum Kardiologii Scanmed W Ełku",
                "addr:street": "Baranki",
                "addr:housenumber": "24",
                "addr:city": "Ełk",
                "addr:postcode": "19-300",
                "amenity": "pharmacy",
                "dispensing": "yes"
            },
            "geometry": {
                "type": "Point",
                "coordinates": [
                    22.33986809426334,
                    53.79350346442562
                ]
            }
        },
        {
            "type": "Feature",
            "properties": {
                "ref:csioz": 1172478,
                "name": "\"Niepubliczny Zakład Opieki Zdrowotnej \"\"Specmed\"\" Adam Mariusz Miller Zespół Chirurgii Jednego Dnia\"",
                "addr:street": "Gdańska",
                "addr:housenumber": "17",
                "addr:city": "Ełk",
                "addr:postcode": "19-300",
                "amenity": "pharmacy",
                "dispensing": "yes"
            },
            "geometry": {
                "type": "Point",
                "coordinates": [
                    22.352927467710938,
                    53.82892664176503
                ]
            }
        },
        {
            "type": "Feature",
            "properties": {
                "ref:csioz": 1184550,
                "name": "Apteka 123",
                "addr:street": "Adama Mickiewicza",
                "addr:housenumber": "15",
                "addr:city": "Ełk",
                "addr:postcode": "19-300",
                "amenity": "pharmacy",
                "dispensing": "yes"
            },
            "geometry": {
                "type": "Point",
                "coordinates": [
                    22.35021278883074,
                    53.82491923696179
                ]
            }
        },
        {
            "type": "Feature",
            "properties": {
                "ref:csioz": 1215120,
                "name": "Apteka Gemini",
                "addr:street": "Armii Krajowej",
                "addr:housenumber": "19",
                "addr:city": "Ełk",
                "addr:postcode": "19-300",
                "amenity": "pharmacy",
                "dispensing": "yes"
            },
            "geometry": {
                "type": "Point",
                "coordinates": [
                    22.354428021852492,
                    53.823293701318754
                ]
            }
        },
        {
            "type": "Feature",
            "properties": {
                "ref:csioz": 1041158,
                "name": "Arnica",
                "addr:street": "Jana Pawła II",
                "addr:housenumber": "15A",
                "addr:city": "Ełk",
                "addr:postcode": "19-300",
                "amenity": "pharmacy",
                "dispensing": "yes"
            },
            "geometry": {
                "type": "Point",
                "coordinates": [
                    22.356851461190516,
                    53.800877577258966
                ]
            }
        },
        {
            "type": "Feature",
            "properties": {
                "ref:csioz": 1041163,
                "name": "Aspirynka",
                "addr:street": "KILIŃSKIEGO",
                "addr:housenumber": "21",
                "addr:city": "EŁK",
                "addr:postcode": "19-300",
                "amenity": "pharmacy",
                "dispensing": "yes"
            },
            "geometry": {
                "type": "Point",
                "coordinates": [
                    22.36192372488987,
                    53.81129300327295
                ]
            }
        },
        {
            "type": "Feature",
            "properties": {
                "ref:csioz": 1041182,
                "name": "Dbam O Zdrowie",
                "addr:street": "Targowa",
                "addr:housenumber": "30",
                "addr:city": "Ełk",
                "addr:postcode": "19-300",
                "amenity": "pharmacy",
                "dispensing": "yes"
            },
            "geometry": {
                "type": "Point",
                "coordinates": [
                    22.362571585417307,
                    53.815374275371795
                ]
            }
        },
        {
            "type": "Feature",
            "properties": {
                "ref:csioz": 1041207,
                "name": "Gemini",
                "addr:street": "Adama Mickiewicza",
                "addr:housenumber": "10B",
                "addr:city": "Ełk",
                "addr:postcode": "19-300",
                "amenity": "pharmacy",
                "dispensing": "yes"
            },
            "geometry": {
                "type": "Point",
                "coordinates": [
                    22.349431584334607,
                    53.82449243932264
                ]
            }
        },
        {
            "type": "Feature",
            "properties": {
                "ref:csioz": 1041210,
                "name": "Melisa",
                "addr:street": "Jana Pawła II",
                "addr:housenumber": "5A",
                "addr:city": "Ełk",
                "addr:postcode": "19-300",
                "amenity": "pharmacy",
                "dispensing": "yes"
            },
            "geometry": {
                "type": "Point",
                "coordinates": [
                    22.361168914049852,
                    53.803113296174736
                ]
            }
        },
        {
            "type": "Feature",
            "properties": {
                "ref:csioz": 1041286,
                "name": "Św. Brunona",
                "addr:street": "Wojska Polskiego",
                "addr:housenumber": "45",
                "addr:city": "Ełk",
                "addr:postcode": "19-300",
                "amenity": "pharmacy",
                "dispensing": "yes"
            },
            "geometry": {
                "type": "Point",
                "coordinates": [
                    22.346854886380765,
                    53.82050106448749
                ]
            }
        },
        {
            "type": "Feature",
            "properties": {
                "ref:csioz": 1041293,
                "name": "Wileńska",
                "addr:street": "marsz. Józefa Piłsudskiego",
                "addr:housenumber": "9",
                "addr:city": "Ełk",
                "addr:postcode": "19-300",
                "amenity": "pharmacy",
                "dispensing": "yes"
            },
            "geometry": {
                "type": "Point",
                "coordinates": [
                    22.348447933373766,
                    53.8263803175765
                ]
            }
        },
        {
            "type": "Feature",
            "properties": {
                "ref:csioz": 1041308,
                "name": "Wracam Do Zdrowia",
                "addr:street": "Matki Teresy z Kalkuty",
                "addr:housenumber": "2",
                "addr:city": "Ełk",
                "addr:postcode": "19-300",
                "amenity": "pharmacy",
                "dispensing": "yes"
            },
            "geometry": {
                "type": "Point",
                "coordinates": [
                    22.359308582729664,
                    53.79915553483384
                ]
            }
        },
        {
            "type": "Feature",
            "properties": {
                "ref:csioz": 1041319,
                "name": "\"Apteka Cef@Rm 36,6\"",
                "addr:street": "Armii Krajowej",
                "addr:housenumber": "20",
                "addr:city": "Ełk",
                "addr:postcode": "19-300",
                "amenity": "pharmacy",
                "dispensing": "yes"
            },
            "geometry": {
                "type": "Point",
                "coordinates": [
                    22.353434427777824,
                    53.82289632877977
                ]
            }
        },
        {
            "type": "Feature",
            "properties": {
                "ref:csioz": 1041324,
                "addr:street": "ARMII KRAJOWEJ",
                "addr:housenumber": "31",
                "addr:city": "EŁK",
                "addr:postcode": "19-300",
                "amenity": "pharmacy",
                "dispensing": "yes"
            },
            "geometry": {
                "type": "Point",
                "coordinates": [
                    22.357692318710463,
                    53.82409895193473
                ]
            }
        },
        {
            "type": "Feature",
            "properties": {
                "ref:csioz": 1041335,
                "addr:street": "KAJKI",
                "addr:housenumber": "12",
                "addr:city": "EŁK",
                "addr:postcode": "19-300",
                "amenity": "pharmacy",
                "dispensing": "yes"
            },
            "geometry": {
                "type": "Point",
                "coordinates": [
                    22.34227907667796,
                    53.83263942611927
                ]
            }
        },
        {
            "type": "Feature",
            "properties": {
                "ref:csioz": 1041343,
                "name": "\"Apteka Cef@Rm 36,6\"",
                "addr:street": "Jana Kilińskiego",
                "addr:housenumber": "42",
                "addr:city": "Ełk",
                "addr:postcode": "19-300",
                "amenity": "pharmacy",
                "dispensing": "yes"
            },
            "geometry": {
                "type": "Point",
                "coordinates": [
                    22.36109046292792,
                    53.81051815474679
                ]
            }
        },
        {
            "type": "Feature",
            "properties": {
                "ref:csioz": 1041356,
                "addr:street": "KILIŃSKIEGO",
                "addr:housenumber": "43",
                "addr:city": "EŁK",
                "addr:postcode": "19-300",
                "amenity": "pharmacy",
                "dispensing": "yes"
            },
            "geometry": {
                "type": "Point",
                "coordinates": [
                    22.3656481495136,
                    53.808574307607614
                ]
            }
        },
        {
            "type": "Feature",
            "properties": {
                "ref:csioz": 1041362,
                "name": "\"Apteka Cef@Rm 36,6\"",
                "addr:street": "Tadeusza Kościuszki",
                "addr:housenumber": "1",
                "addr:city": "Ełk",
                "addr:postcode": "19-300",
                "amenity": "pharmacy",
                "dispensing": "yes"
            },
            "geometry": {
                "type": "Point",
                "coordinates": [
                    22.35099313972961,
                    53.819798375832676
                ]
            }
        },
        {
            "type": "Feature",
            "properties": {
                "ref:csioz": 1041370,
                "addr:street": "SIKORSKIEGO",
                "addr:housenumber": "3",
                "addr:city": "EŁK",
                "addr:postcode": "19-300",
                "amenity": "pharmacy",
                "dispensing": "yes"
            },
            "geometry": {
                "type": "Point",
                "coordinates": [
                    22.344340612716387,
                    53.83055596595576
                ]
            }
        },
        {
            "type": "Feature",
            "properties": {
                "ref:csioz": 1041381,
                "name": "\"Apteka Cef@Rm 36,6\"",
                "addr:street": "Wojska Polskiego",
                "addr:housenumber": "42",
                "addr:city": "Ełk",
                "addr:postcode": "19-300",
                "amenity": "pharmacy",
                "dispensing": "yes"
            },
            "geometry": {
                "type": "Point",
                "coordinates": [
                    22.34617100334139,
                    53.822503829489804
                ]
            }
        },
        {
            "type": "Feature",
            "properties": {
                "ref:csioz": 1041806,
                "name": "Remedium",
                "addr:street": "1 MAJA",
                "addr:housenumber": "15A",
                "addr:city": "PROSTKI",
                "addr:postcode": "19-335",
                "amenity": "pharmacy",
                "dispensing": "yes"
            },
            "geometry": {
                "type": "Point",
                "coordinates": [
                    22.440491726661406,
                    53.69415835249421
                ]
            }
        },
        {
            "type": "Feature",
            "properties": {
                "ref:csioz": 1177353,
                "name": "Hebeapteka",
                "addr:street": "Miejski",
                "addr:housenumber": "1",
                "addr:city": "Ełk",
                "addr:postcode": "19-300",
                "amenity": "pharmacy",
                "dispensing": "yes"
            },
            "geometry": {
                "type": "Point",
                "coordinates": [
                    22.360306502486328,
                    53.82291912944627
                ]
            }
        },
        {
            "type": "Feature",
            "properties": {
                "ref:csioz": 1183276,
                "name": "Apteka Osak Sp.J.",
                "addr:street": "Suwalska",
                "addr:housenumber": "11",
                "addr:city": "Ełk",
                "addr:postcode": "19-300",
                "amenity": "pharmacy",
                "dispensing": "yes"
            },
            "geometry": {
                "type": "Point",
                "coordinates": [
                    22.363768749425397,
                    53.82802263435592
                ]
            }
        },
        {
            "type": "Feature",
            "properties": {
                "ref:csioz": 1204295,
                "name": "Dr.Max",
                "addr:street": "Adama Mickiewicza",
                "addr:housenumber": "19",
                "addr:city": "Ełk",
                "addr:postcode": "19-300",
                "amenity": "pharmacy",
                "dispensing": "yes"
            },
            "geometry": {
                "type": "Point",
                "coordinates": [
                    22.35211751500089,
                    53.82548277026123
                ]
            }
        },
        {
            "type": "Feature",
            "properties": {
                "ref:csioz": 1209114,
                "name": "1 Wojskowy Szpital Kliniczny Z Polikliniką - Samodzielny Publiczny Zakład Opieki Zdrowotnej W Lublinie - Filia Ełk",
                "addr:street": "Tadeusza Kościuszki",
                "addr:housenumber": "30",
                "addr:city": "Ełk",
                "addr:postcode": "19-300",
                "amenity": "pharmacy",
                "dispensing": "yes"
            },
            "geometry": {
                "type": "Point",
                "coordinates": [
                    22.36129388454605,
                    53.819807954999476
                ]
            }
        },
        {
            "type": "Feature",
            "properties": {
                "ref:csioz": 1210867,
                "name": "Eko-Farmacja",
                "addr:street": "Juliana Tuwima",
                "addr:housenumber": "20",
                "addr:city": "Ełk",
                "addr:postcode": "19-300",
                "amenity": "pharmacy",
                "dispensing": "yes"
            },
            "geometry": {
                "type": "Point",
                "coordinates": [
                    22.33637125576227,
                    53.83365597695508
                ]
            }
        }
    ]
}