{
    "type": "FeatureCollection",
    "name": "JPT_KOD_JE_2466",
    "features": [
        {
            "type": "Feature",
            "properties": {
                "ref:csioz": 1176179,
                "name": "\"Centrum Leczenia Uzależnień Górnośląskiego Stowarzyszenia \"\"Familia\"\"\"",
                "addr:street": "św. Huberta",
                "addr:housenumber": "60",
                "addr:city": "Gliwice",
                "addr:postcode": "44-100",
                "amenity": "pharmacy",
                "dispensing": "yes"
            },
            "geometry": {
                "type": "Point",
                "coordinates": [
                    18.708453941088575,
                    50.312469942375294
                ]
            }
        },
        {
            "type": "Feature",
            "properties": {
                "ref:csioz": 1062200,
                "name": "Brak Nazwy",
                "addr:street": "Ignacego Paderewskiego",
                "addr:housenumber": "56B",
                "addr:city": "Gliwice",
                "addr:postcode": "44-104",
                "amenity": "pharmacy",
                "dispensing": "yes"
            },
            "geometry": {
                "type": "Point",
                "coordinates": [
                    18.68933499999991,
                    50.31982900001295
                ]
            }
        },
        {
            "type": "Feature",
            "properties": {
                "ref:csioz": 1016773,
                "name": "Niepubliczny Zakład Opieki Zdrowotnej Vito-Med. Sp. Z O.O.",
                "addr:street": "Radiowa",
                "addr:housenumber": "2",
                "addr:city": "Gliwice",
                "addr:postcode": "44-100",
                "amenity": "pharmacy",
                "dispensing": "yes"
            },
            "geometry": {
                "type": "Point",
                "coordinates": [
                    18.640970690642913,
                    50.29382592404599
                ]
            }
        },
        {
            "type": "Feature",
            "properties": {
                "ref:csioz": 1057379,
                "name": "Hospicjum Miłosierdzia Bożego Całodobowa Pozaszpitalna Opieka Paliatywna",
                "addr:street": "Ignacego Daszyńskiego",
                "addr:housenumber": "29",
                "addr:city": "Gliwice",
                "addr:postcode": "44-101",
                "amenity": "pharmacy",
                "dispensing": "yes"
            },
            "geometry": {
                "type": "Point",
                "coordinates": [
                    18.651521317726722,
                    50.29494434759593
                ]
            }
        },
        {
            "type": "Feature",
            "properties": {
                "ref:csioz": 1061826,
                "name": "Apteka Dbam O Zdrowie",
                "addr:street": "Basztowa",
                "addr:housenumber": "3",
                "addr:city": "Gliwice",
                "addr:postcode": "44-100",
                "amenity": "pharmacy",
                "dispensing": "yes"
            },
            "geometry": {
                "type": "Point",
                "coordinates": [
                    18.667392248401143,
                    50.29313959213334
                ]
            }
        },
        {
            "type": "Feature",
            "properties": {
                "ref:csioz": 1061839,
                "name": "Panaceum",
                "addr:street": "Bohaterów Getta Warszawskiego",
                "addr:housenumber": "1",
                "addr:city": "Gliwice",
                "addr:postcode": "44-100",
                "amenity": "pharmacy",
                "dispensing": "yes"
            },
            "geometry": {
                "type": "Point",
                "coordinates": [
                    18.676057910592295,
                    50.298695554771186
                ]
            }
        },
        {
            "type": "Feature",
            "properties": {
                "ref:csioz": 1061883,
                "name": "Convallaria",
                "addr:street": "Czwartaków",
                "addr:housenumber": "18",
                "addr:city": "Gliwice",
                "addr:postcode": "44-100",
                "amenity": "pharmacy",
                "dispensing": "yes"
            },
            "geometry": {
                "type": "Point",
                "coordinates": [
                    18.645394441186436,
                    50.30044348515538
                ]
            }
        },
        {
            "type": "Feature",
            "properties": {
                "ref:csioz": 1061894,
                "name": "Sanitas",
                "addr:street": "Jarosława Dąbrowskiego",
                "addr:housenumber": "57",
                "addr:city": "Gliwice",
                "addr:postcode": "44-100",
                "amenity": "pharmacy",
                "dispensing": "yes"
            },
            "geometry": {
                "type": "Point",
                "coordinates": [
                    18.692774445767686,
                    50.29761840135309
                ]
            }
        },
        {
            "type": "Feature",
            "properties": {
                "ref:csioz": 1061901,
                "name": "Avicenna",
                "addr:street": "Dolnej Wsi",
                "addr:housenumber": "62",
                "addr:city": "Gliwice",
                "addr:postcode": "44-112",
                "amenity": "pharmacy",
                "dispensing": "yes"
            },
            "geometry": {
                "type": "Point",
                "coordinates": [
                    18.643477239926657,
                    50.28806686661627
                ]
            }
        },
        {
            "type": "Feature",
            "properties": {
                "ref:csioz": 1061930,
                "name": "Pod Różą",
                "addr:street": "Dziewanny",
                "addr:housenumber": "2",
                "addr:city": "Gliwice",
                "addr:postcode": "44-100",
                "amenity": "pharmacy",
                "dispensing": "yes"
            },
            "geometry": {
                "type": "Point",
                "coordinates": [
                    18.67224737006722,
                    50.3066038336363
                ]
            }
        },
        {
            "type": "Feature",
            "properties": {
                "ref:csioz": 1061949,
                "name": "Apteka Zdrowit",
                "addr:street": "gen. Władysława Andersa",
                "addr:housenumber": "12",
                "addr:city": "Gliwice",
                "addr:postcode": "44-121",
                "amenity": "pharmacy",
                "dispensing": "yes"
            },
            "geometry": {
                "type": "Point",
                "coordinates": [
                    18.649650999999906,
                    50.29711700001292
                ]
            }
        },
        {
            "type": "Feature",
            "properties": {
                "ref:csioz": 1062033,
                "name": "Apteka Zdrowit",
                "addr:street": "ks. Jerzego Popiełuszki",
                "addr:housenumber": "6",
                "addr:city": "Gliwice",
                "addr:postcode": "44-109",
                "amenity": "pharmacy",
                "dispensing": "yes"
            },
            "geometry": {
                "type": "Point",
                "coordinates": [
                    18.626335490289428,
                    50.34162519304286
                ]
            }
        },
        {
            "type": "Feature",
            "properties": {
                "ref:csioz": 1062040,
                "name": "Apteka Marketpol",
                "addr:street": "Mikołaja Kopernika",
                "addr:housenumber": "16",
                "addr:city": "Gliwice",
                "addr:postcode": "44-117",
                "amenity": "pharmacy",
                "dispensing": "yes"
            },
            "geometry": {
                "type": "Point",
                "coordinates": [
                    18.65595872230262,
                    50.32209446460337
                ]
            }
        },
        {
            "type": "Feature",
            "properties": {
                "ref:csioz": 1062054,
                "name": "Apteka Corax",
                "addr:street": "Kosów",
                "addr:housenumber": "15",
                "addr:city": "Gliwice",
                "addr:postcode": "44-100",
                "amenity": "pharmacy",
                "dispensing": "yes"
            },
            "geometry": {
                "type": "Point",
                "coordinates": [
                    18.65974676246182,
                    50.282847849149874
                ]
            }
        },
        {
            "type": "Feature",
            "properties": {
                "ref:csioz": 1062259,
                "name": "Salvia",
                "addr:street": "Pliszki",
                "addr:housenumber": "22",
                "addr:city": "Gliwice",
                "addr:postcode": "44-100",
                "amenity": "pharmacy",
                "dispensing": "yes"
            },
            "geometry": {
                "type": "Point",
                "coordinates": [
                    18.6524052908421,
                    50.276246147453136
                ]
            }
        },
        {
            "type": "Feature",
            "properties": {
                "ref:csioz": 1062284,
                "name": "Duos",
                "addr:street": "Rybnicka",
                "addr:housenumber": "207",
                "addr:city": "Gliwice",
                "addr:postcode": "44-122",
                "amenity": "pharmacy",
                "dispensing": "yes"
            },
            "geometry": {
                "type": "Point",
                "coordinates": [
                    18.6564941470923,
                    50.25673215262773
                ]
            }
        },
        {
            "type": "Feature",
            "properties": {
                "ref:csioz": 1062292,
                "name": "Apteka Dbam O Zdrowie",
                "addr:street": "Rynek",
                "addr:housenumber": "1",
                "addr:city": "Gliwice",
                "addr:postcode": "44-100",
                "amenity": "pharmacy",
                "dispensing": "yes"
            },
            "geometry": {
                "type": "Point",
                "coordinates": [
                    18.665610545630035,
                    50.29361157497246
                ]
            }
        },
        {
            "type": "Feature",
            "properties": {
                "ref:csioz": 1062318,
                "name": "Brak Nazwy",
                "addr:street": "Skarbnika",
                "addr:housenumber": "3",
                "addr:city": "Gliwice",
                "addr:postcode": "44-103",
                "amenity": "pharmacy",
                "dispensing": "yes"
            },
            "geometry": {
                "type": "Point",
                "coordinates": [
                    18.72894488362057,
                    50.2947140079947
                ]
            }
        },
        {
            "type": "Feature",
            "properties": {
                "ref:csioz": 1062326,
                "name": "Apteka Zdrowit",
                "addr:street": "Jana III Sobieskiego",
                "addr:housenumber": "2",
                "addr:city": "Gliwice",
                "addr:postcode": "44-100",
                "amenity": "pharmacy",
                "dispensing": "yes"
            },
            "geometry": {
                "type": "Point",
                "coordinates": [
                    18.657239497544875,
                    50.29603376204699
                ]
            }
        },
        {
            "type": "Feature",
            "properties": {
                "ref:csioz": 1062347,
                "name": "Duos",
                "addr:street": "Pawła Stalmacha",
                "addr:housenumber": "8",
                "addr:city": "Gliwice",
                "addr:postcode": "44-100",
                "amenity": "pharmacy",
                "dispensing": "yes"
            },
            "geometry": {
                "type": "Point",
                "coordinates": [
                    18.662550371692348,
                    50.28930348988049
                ]
            }
        },
        {
            "type": "Feature",
            "properties": {
                "ref:csioz": 1062480,
                "name": "Główna",
                "addr:street": "Żwirki i Wigury",
                "addr:housenumber": "68",
                "addr:city": "Gliwice",
                "addr:postcode": "44-122",
                "amenity": "pharmacy",
                "dispensing": "yes"
            },
            "geometry": {
                "type": "Point",
                "coordinates": [
                    18.671639989400823,
                    50.281297422192836
                ]
            }
        },
        {
            "type": "Feature",
            "properties": {
                "ref:csioz": 1111160,
                "name": "Super-Pharm Apteka",
                "addr:street": "Pszczyńska",
                "addr:housenumber": "315",
                "addr:city": "Gliwice",
                "addr:postcode": "44-100",
                "amenity": "pharmacy",
                "dispensing": "yes"
            },
            "geometry": {
                "type": "Point",
                "coordinates": [
                    18.721256127901448,
                    50.266224135867915
                ]
            }
        },
        {
            "type": "Feature",
            "properties": {
                "ref:csioz": 1111340,
                "name": "Szpital Miejski Nr 4 - Szpital",
                "addr:street": "Zygmunta Starego",
                "addr:housenumber": "20",
                "addr:city": "Gliwice",
                "addr:postcode": "44-100",
                "amenity": "pharmacy",
                "dispensing": "yes"
            },
            "geometry": {
                "type": "Point",
                "coordinates": [
                    18.657969553623065,
                    50.29056430524178
                ]
            }
        },
        {
            "type": "Feature",
            "properties": {
                "ref:csioz": 1111846,
                "name": "Pharmakon",
                "addr:street": "Dubois",
                "addr:housenumber": "10",
                "addr:city": "Gliwice",
                "addr:postcode": "44-100",
                "amenity": "pharmacy",
                "dispensing": "yes"
            },
            "geometry": {
                "type": "Point",
                "coordinates": [
                    18.67402590510914,
                    50.299094227030956
                ]
            }
        },
        {
            "type": "Feature",
            "properties": {
                "ref:csioz": 1120896,
                "name": "Apteka Zdrowit",
                "addr:street": "Przyszowska",
                "addr:housenumber": "40",
                "addr:city": "Gliwice",
                "addr:postcode": "44-113",
                "amenity": "pharmacy",
                "dispensing": "yes"
            },
            "geometry": {
                "type": "Point",
                "coordinates": [
                    18.640591453545273,
                    50.33850372692587
                ]
            }
        },
        {
            "type": "Feature",
            "properties": {
                "ref:csioz": 1121852,
                "name": "Zakład Opiekuńczo-Leczniczy",
                "addr:street": "Zygmunta Starego",
                "addr:housenumber": "19",
                "addr:city": "Gliwice",
                "addr:postcode": "44-100",
                "amenity": "pharmacy",
                "dispensing": "yes"
            },
            "geometry": {
                "type": "Point",
                "coordinates": [
                    18.65935816951703,
                    50.291130680034264
                ]
            }
        },
        {
            "type": "Feature",
            "properties": {
                "ref:csioz": 1172527,
                "name": "\"Apteka \"\"Zdrowie\"\"\"",
                "addr:street": "Bytomska",
                "addr:housenumber": "18",
                "addr:city": "Gliwice",
                "addr:postcode": "44-100",
                "amenity": "pharmacy",
                "dispensing": "yes"
            },
            "geometry": {
                "type": "Point",
                "coordinates": [
                    18.666851162464788,
                    50.29298526812084
                ]
            }
        },
        {
            "type": "Feature",
            "properties": {
                "ref:csioz": 1173552,
                "name": "Prima",
                "addr:street": "Żwirki i Wigury",
                "addr:housenumber": "60",
                "addr:city": "Gliwice",
                "addr:postcode": "44-120",
                "amenity": "pharmacy",
                "dispensing": "yes"
            },
            "geometry": {
                "type": "Point",
                "coordinates": [
                    18.669718743726495,
                    50.281499922616426
                ]
            }
        },
        {
            "type": "Feature",
            "properties": {
                "ref:csioz": 1183629,
                "name": "Inter Apteka",
                "addr:street": "Jana Nowaka-Jeziorańskiego",
                "addr:housenumber": "1",
                "addr:city": "Gliwice",
                "addr:postcode": "44-102",
                "amenity": "pharmacy",
                "dispensing": "yes"
            },
            "geometry": {
                "type": "Point",
                "coordinates": [
                    18.646628795560154,
                    50.30816420086572
                ]
            }
        },
        {
            "type": "Feature",
            "properties": {
                "ref:csioz": 1185838,
                "name": "Dr. Max",
                "addr:street": "Czajki",
                "addr:housenumber": "5",
                "addr:city": "Gliwice",
                "addr:postcode": "44-122",
                "amenity": "pharmacy",
                "dispensing": "yes"
            },
            "geometry": {
                "type": "Point",
                "coordinates": [
                    18.656394702927763,
                    50.277640192643126
                ]
            }
        },
        {
            "type": "Feature",
            "properties": {
                "ref:csioz": 1062213,
                "name": "Trynek",
                "addr:street": "Piastowska",
                "addr:housenumber": "9",
                "addr:city": "Gliwice",
                "addr:postcode": "44-100",
                "amenity": "pharmacy",
                "dispensing": "yes"
            },
            "geometry": {
                "type": "Point",
                "coordinates": [
                    18.672144727648103,
                    50.27714541849888
                ]
            }
        },
        {
            "type": "Feature",
            "properties": {
                "ref:csioz": 1061958,
                "name": "Apteka Corax",
                "addr:street": "Rubinowa",
                "addr:housenumber": "4 A",
                "addr:city": "Gliwice",
                "addr:postcode": "44-121",
                "amenity": "pharmacy",
                "dispensing": "yes"
            },
            "geometry": {
                "type": "Point",
                "coordinates": [
                    18.6182611666482,
                    50.31162846330408
                ]
            }
        },
        {
            "type": "Feature",
            "properties": {
                "ref:csioz": 1061974,
                "name": "Cito",
                "addr:street": "Górnych Wałów",
                "addr:housenumber": "26",
                "addr:city": "Gliwice",
                "addr:postcode": "44-100",
                "amenity": "pharmacy",
                "dispensing": "yes"
            },
            "geometry": {
                "type": "Point",
                "coordinates": [
                    18.66276605541956,
                    50.29335396681392
                ]
            }
        },
        {
            "type": "Feature",
            "properties": {
                "ref:csioz": 1061996,
                "name": "Farmacja 24",
                "addr:street": "Gwiazdy Polarnej",
                "addr:housenumber": "50-54",
                "addr:city": "Gliwice",
                "addr:postcode": "44-117",
                "amenity": "pharmacy",
                "dispensing": "yes"
            },
            "geometry": {
                "type": "Point",
                "coordinates": [
                    18.654116729705226,
                    50.32266037985217
                ]
            }
        },
        {
            "type": "Feature",
            "properties": {
                "ref:csioz": 1062006,
                "name": "Apteka Główna Centrum Tanich Leków",
                "addr:street": "Jagiellońska",
                "addr:housenumber": "23",
                "addr:city": "Gliwice",
                "addr:postcode": "44-100",
                "amenity": "pharmacy",
                "dispensing": "yes"
            },
            "geometry": {
                "type": "Point",
                "coordinates": [
                    18.684322828820836,
                    50.295004304074375
                ]
            }
        },
        {
            "type": "Feature",
            "properties": {
                "ref:csioz": 1062022,
                "name": "Apteka Zdrowit",
                "addr:street": "Jedności",
                "addr:housenumber": "6",
                "addr:city": "Gliwice",
                "addr:postcode": "44-119",
                "amenity": "pharmacy",
                "dispensing": "yes"
            },
            "geometry": {
                "type": "Point",
                "coordinates": [
                    18.729631017834325,
                    50.28665392129519
                ]
            }
        },
        {
            "type": "Feature",
            "properties": {
                "ref:csioz": 1062065,
                "name": "Staromiejska",
                "addr:street": "Tadeusza Kościuszki",
                "addr:housenumber": "30",
                "addr:city": "Gliwice",
                "addr:postcode": "44-100",
                "amenity": "pharmacy",
                "dispensing": "yes"
            },
            "geometry": {
                "type": "Point",
                "coordinates": [
                    18.65667972707833,
                    50.29241147638277
                ]
            }
        },
        {
            "type": "Feature",
            "properties": {
                "ref:csioz": 1062087,
                "name": "Apteka Corax",
                "addr:street": "Kozielska",
                "addr:housenumber": "135D",
                "addr:city": "Gliwice",
                "addr:postcode": "44-121",
                "amenity": "pharmacy",
                "dispensing": "yes"
            },
            "geometry": {
                "type": "Point",
                "coordinates": [
                    18.61892686026438,
                    50.30736060336884
                ]
            }
        },
        {
            "type": "Feature",
            "properties": {
                "ref:csioz": 1062104,
                "name": "Super-Pharm Apteka",
                "addr:street": "Lipowa",
                "addr:housenumber": "1",
                "addr:city": "Gliwice",
                "addr:postcode": "44-100",
                "amenity": "pharmacy",
                "dispensing": "yes"
            },
            "geometry": {
                "type": "Point",
                "coordinates": [
                    18.683785743386423,
                    50.299706956705386
                ]
            }
        },
        {
            "type": "Feature",
            "properties": {
                "ref:csioz": 1062112,
                "name": "Medical",
                "addr:street": "Lipowa",
                "addr:housenumber": "42",
                "addr:city": "Gliwice",
                "addr:postcode": "44-100",
                "amenity": "pharmacy",
                "dispensing": "yes"
            },
            "geometry": {
                "type": "Point",
                "coordinates": [
                    18.68931960585163,
                    50.30278284444634
                ]
            }
        },
        {
            "type": "Feature",
            "properties": {
                "ref:csioz": 1062120,
                "name": "Brak Nazwy",
                "addr:street": "Literatów",
                "addr:housenumber": "70",
                "addr:city": "Gliwice",
                "addr:postcode": "44-113",
                "amenity": "pharmacy",
                "dispensing": "yes"
            },
            "geometry": {
                "type": "Point",
                "coordinates": [
                    18.640211422796803,
                    50.33524020768838
                ]
            }
        },
        {
            "type": "Feature",
            "properties": {
                "ref:csioz": 1062136,
                "name": "Apteka Dbam O Zdrowie",
                "addr:street": "Łabędzka",
                "addr:housenumber": "26",
                "addr:city": "Gliwice",
                "addr:postcode": "44-100",
                "amenity": "pharmacy",
                "dispensing": "yes"
            },
            "geometry": {
                "type": "Point",
                "coordinates": [
                    18.62725499999991,
                    50.31126900001295
                ]
            }
        },
        {
            "type": "Feature",
            "properties": {
                "ref:csioz": 1062157,
                "name": "Pod Słońcem",
                "addr:street": "Mikołowska",
                "addr:housenumber": "24",
                "addr:city": "Gliwice",
                "addr:postcode": "44-100",
                "amenity": "pharmacy",
                "dispensing": "yes"
            },
            "geometry": {
                "type": "Point",
                "coordinates": [
                    18.667747402592532,
                    50.28993646589778
                ]
            }
        },
        {
            "type": "Feature",
            "properties": {
                "ref:csioz": 1062161,
                "name": "Vigor",
                "addr:street": "Nauczycielska",
                "addr:housenumber": "3",
                "addr:city": "Gliwice",
                "addr:postcode": "44-100",
                "amenity": "pharmacy",
                "dispensing": "yes"
            },
            "geometry": {
                "type": "Point",
                "coordinates": [
                    18.599179168615468,
                    50.28450259650717
                ]
            }
        },
        {
            "type": "Feature",
            "properties": {
                "ref:csioz": 1062173,
                "name": "Dla Ciebie",
                "addr:street": "Odrowążów",
                "addr:housenumber": "65",
                "addr:city": "Gliwice",
                "addr:postcode": "44-103",
                "amenity": "pharmacy",
                "dispensing": "yes"
            },
            "geometry": {
                "type": "Point",
                "coordinates": [
                    18.725462100879966,
                    50.29331281746735
                ]
            }
        },
        {
            "type": "Feature",
            "properties": {
                "ref:csioz": 1062185,
                "name": "Superia",
                "addr:street": "Stefana Okrzei",
                "addr:housenumber": "6",
                "addr:city": "Gliwice",
                "addr:postcode": "44-100",
                "amenity": "pharmacy",
                "dispensing": "yes"
            },
            "geometry": {
                "type": "Point",
                "coordinates": [
                    18.69732623070597,
                    50.2985835927974
                ]
            }
        },
        {
            "type": "Feature",
            "properties": {
                "ref:csioz": 1062199,
                "name": "Maxfarm Apteka - Zawsze Niskie Ceny",
                "addr:street": "Opolska",
                "addr:housenumber": "18",
                "addr:city": "Gliwice",
                "addr:postcode": "44-100",
                "amenity": "pharmacy",
                "dispensing": "yes"
            },
            "geometry": {
                "type": "Point",
                "coordinates": [
                    18.68451083198959,
                    50.30134737606895
                ]
            }
        },
        {
            "type": "Feature",
            "properties": {
                "ref:csioz": 1062352,
                "name": "Apteka Dbam O Zdrowie",
                "addr:street": "Tarnogórska",
                "addr:housenumber": "19",
                "addr:city": "Gliwice",
                "addr:postcode": "44-100",
                "amenity": "pharmacy",
                "dispensing": "yes"
            },
            "geometry": {
                "type": "Point",
                "coordinates": [
                    18.682314867985255,
                    50.30396626696965
                ]
            }
        },
        {
            "type": "Feature",
            "properties": {
                "ref:csioz": 1062360,
                "name": "Balsam",
                "addr:street": "Tarnogórska",
                "addr:housenumber": "231",
                "addr:city": "Gliwice",
                "addr:postcode": "44-105",
                "amenity": "pharmacy",
                "dispensing": "yes"
            },
            "geometry": {
                "type": "Point",
                "coordinates": [
                    18.703333612320606,
                    50.325452153351186
                ]
            }
        },
        {
            "type": "Feature",
            "properties": {
                "ref:csioz": 1062371,
                "name": "Pod Radiostacją",
                "addr:street": "Tarnogórska",
                "addr:housenumber": "81",
                "addr:city": "Gliwice",
                "addr:postcode": "44-100",
                "amenity": "pharmacy",
                "dispensing": "yes"
            },
            "geometry": {
                "type": "Point",
                "coordinates": [
                    18.687150876631186,
                    50.30873922547188
                ]
            }
        },
        {
            "type": "Feature",
            "properties": {
                "ref:csioz": 1062383,
                "name": "Na Wiślanej",
                "addr:street": "Wiślana",
                "addr:housenumber": "3",
                "addr:city": "Gliwice",
                "addr:postcode": "44-119",
                "amenity": "pharmacy",
                "dispensing": "yes"
            },
            "geometry": {
                "type": "Point",
                "coordinates": [
                    18.734989009715353,
                    50.28373959207024
                ]
            }
        },
        {
            "type": "Feature",
            "properties": {
                "ref:csioz": 1062394,
                "name": "Pod Łabędziem",
                "addr:street": "Wolności",
                "addr:housenumber": "1",
                "addr:city": "Gliwice",
                "addr:postcode": "44-109",
                "amenity": "pharmacy",
                "dispensing": "yes"
            },
            "geometry": {
                "type": "Point",
                "coordinates": [
                    18.623851606343486,
                    50.34196490693145
                ]
            }
        },
        {
            "type": "Feature",
            "properties": {
                "ref:csioz": 1062409,
                "name": "Pharmacon",
                "addr:street": "Cichociemnych",
                "addr:housenumber": "18",
                "addr:city": "Gliwice",
                "addr:postcode": "44-122",
                "amenity": "pharmacy",
                "dispensing": "yes"
            },
            "geometry": {
                "type": "Point",
                "coordinates": [
                    18.666947848692207,
                    50.28293442550287
                ]
            }
        },
        {
            "type": "Feature",
            "properties": {
                "ref:csioz": 1062414,
                "name": "Apteka Dbam O Zdrowie",
                "addr:street": "Zwycięstwa",
                "addr:housenumber": "15",
                "addr:city": "Gliwice",
                "addr:postcode": "44-100",
                "amenity": "pharmacy",
                "dispensing": "yes"
            },
            "geometry": {
                "type": "Point",
                "coordinates": [
                    18.668540015285267,
                    50.29540434340627
                ]
            }
        },
        {
            "type": "Feature",
            "properties": {
                "ref:csioz": 1062423,
                "name": "Apteka Zdrowit",
                "addr:street": "Zwycięstwa",
                "addr:housenumber": "43A",
                "addr:city": "Gliwice",
                "addr:postcode": "44-100",
                "amenity": "pharmacy",
                "dispensing": "yes"
            },
            "geometry": {
                "type": "Point",
                "coordinates": [
                    18.672220999999908,
                    50.29764400001292
                ]
            }
        },
        {
            "type": "Feature",
            "properties": {
                "ref:csioz": 1062451,
                "name": "Maxfarm Apteka - Zawsze Niskie Ceny",
                "addr:street": "Zygmunta Starego",
                "addr:housenumber": "20",
                "addr:city": "Gliwice",
                "addr:postcode": "44-100",
                "amenity": "pharmacy",
                "dispensing": "yes"
            },
            "geometry": {
                "type": "Point",
                "coordinates": [
                    18.657969553623065,
                    50.29053430524178
                ]
            }
        },
        {
            "type": "Feature",
            "properties": {
                "ref:csioz": 1112165,
                "name": "Apteka Zdrowit",
                "addr:street": "Cichociemnych",
                "addr:housenumber": "14",
                "addr:city": "Gliwice",
                "addr:postcode": "44-100",
                "amenity": "pharmacy",
                "dispensing": "yes"
            },
            "geometry": {
                "type": "Point",
                "coordinates": [
                    18.666977141128196,
                    50.28354446398909
                ]
            }
        },
        {
            "type": "Feature",
            "properties": {
                "ref:csioz": 1112323,
                "name": "Szpital Wielospecjalistyczny W Gliwicach",
                "addr:street": "Tadeusza Kościuszki",
                "addr:housenumber": "1",
                "addr:city": "Gliwice",
                "addr:postcode": "44-100",
                "amenity": "pharmacy",
                "dispensing": "yes"
            },
            "geometry": {
                "type": "Point",
                "coordinates": [
                    18.660916639302105,
                    50.28895198865422
                ]
            }
        },
        {
            "type": "Feature",
            "properties": {
                "ref:csioz": 1118209,
                "name": "Ambra",
                "addr:street": "Sopocka",
                "addr:housenumber": "4",
                "addr:city": "Gliwice",
                "addr:postcode": "44-164",
                "amenity": "pharmacy",
                "dispensing": "yes"
            },
            "geometry": {
                "type": "Point",
                "coordinates": [
                    18.576494882163264,
                    50.32687709624558
                ]
            }
        },
        {
            "type": "Feature",
            "properties": {
                "ref:csioz": 1119229,
                "name": "Zespół Lecznictwa Całodobowego",
                "addr:street": "Dębowa",
                "addr:housenumber": "5",
                "addr:city": "Gliwice",
                "addr:postcode": "44-100",
                "amenity": "pharmacy",
                "dispensing": "yes"
            },
            "geometry": {
                "type": "Point",
                "coordinates": [
                    18.70810919612861,
                    50.30167958115328
                ]
            }
        },
        {
            "type": "Feature",
            "properties": {
                "ref:csioz": 1170319,
                "name": "Szpital Centrum Onkologii - Instytut Oddziału W Gliwicach",
                "addr:street": "Wybrzeże Armii Krajowej",
                "addr:housenumber": "15",
                "addr:city": "Gliwice",
                "addr:postcode": "44-101",
                "amenity": "pharmacy",
                "dispensing": "yes"
            },
            "geometry": {
                "type": "Point",
                "coordinates": [
                    18.66530387867837,
                    50.301057979104144
                ]
            }
        },
        {
            "type": "Feature",
            "properties": {
                "ref:csioz": 1170427,
                "name": "Pryzmat - Mikrochirurgia Okulistyczna",
                "addr:street": "Tadeusza Kościuszki",
                "addr:housenumber": "22",
                "addr:city": "Gliwice",
                "addr:postcode": "44-100",
                "amenity": "pharmacy",
                "dispensing": "yes"
            },
            "geometry": {
                "type": "Point",
                "coordinates": [
                    18.65769360517451,
                    50.291680995504684
                ]
            }
        },
        {
            "type": "Feature",
            "properties": {
                "ref:csioz": 1184486,
                "name": "Prima",
                "addr:street": "Pogodna",
                "addr:housenumber": "15",
                "addr:city": "Gliwice",
                "addr:postcode": "44-119",
                "amenity": "pharmacy",
                "dispensing": "yes"
            },
            "geometry": {
                "type": "Point",
                "coordinates": [
                    18.730486401294115,
                    50.286293051559404
                ]
            }
        },
        {
            "type": "Feature",
            "properties": {
                "ref:csioz": 1185194,
                "name": "Ziko Apteka",
                "addr:street": "Zwycięstwa",
                "addr:housenumber": "3",
                "addr:city": "Gliwice",
                "addr:postcode": "44-100",
                "amenity": "pharmacy",
                "dispensing": "yes"
            },
            "geometry": {
                "type": "Point",
                "coordinates": [
                    18.667071138257754,
                    50.29453491952695
                ]
            }
        },
        {
            "type": "Feature",
            "properties": {
                "ref:csioz": 1200982,
                "name": "Apteka Słoneczna",
                "addr:street": "Kozielska",
                "addr:housenumber": "6",
                "addr:city": "Gliwice",
                "addr:postcode": "44-100",
                "amenity": "pharmacy",
                "dispensing": "yes"
            },
            "geometry": {
                "type": "Point",
                "coordinates": [
                    18.657625020739466,
                    50.2969275148428
                ]
            }
        },
        {
            "type": "Feature",
            "properties": {
                "ref:csioz": 1209408,
                "name": "Prima",
                "addr:street": "Dworcowa",
                "addr:housenumber": "42",
                "addr:city": "Gliwice",
                "addr:postcode": "44-100",
                "amenity": "pharmacy",
                "dispensing": "yes"
            },
            "geometry": {
                "type": "Point",
                "coordinates": [
                    18.67118190583441,
                    50.29421959650008
                ]
            }
        },
        {
            "type": "Feature",
            "properties": {
                "ref:csioz": 1200361,
                "name": "Apteka Na Piłsudskiego",
                "addr:street": "marsz. Józefa Piłsudskiego",
                "addr:housenumber": "4",
                "addr:city": "Gliwice",
                "addr:postcode": "44-100",
                "amenity": "pharmacy",
                "dispensing": "yes"
            },
            "geometry": {
                "type": "Point",
                "coordinates": [
                    18.666016999999908,
                    50.29738100001294
                ]
            }
        },
        {
            "type": "Feature",
            "properties": {
                "ref:csioz": 1202063,
                "name": "Ziko Apteka",
                "addr:street": "Piastów",
                "addr:housenumber": "10",
                "addr:city": "Gliwice",
                "addr:postcode": "44-100",
                "amenity": "pharmacy",
                "dispensing": "yes"
            },
            "geometry": {
                "type": "Point",
                "coordinates": [
                    18.676406635210398,
                    50.298096267490614
                ]
            }
        },
        {
            "type": "Feature",
            "properties": {
                "ref:csioz": 1205608,
                "name": "Apteka Evita",
                "addr:street": "Łanowa",
                "addr:housenumber": "3",
                "addr:city": "Gliwice",
                "addr:postcode": "44-141",
                "amenity": "pharmacy",
                "dispensing": "yes"
            },
            "geometry": {
                "type": "Point",
                "coordinates": [
                    18.679049613165457,
                    50.252065136119185
                ]
            }
        },
        {
            "type": "Feature",
            "properties": {
                "ref:csioz": 1206572,
                "name": "Apteka Zdrowit+",
                "addr:street": "Ignacego Paderewskiego",
                "addr:housenumber": "56",
                "addr:city": "Gliwice",
                "addr:postcode": "44-105",
                "amenity": "pharmacy",
                "dispensing": "yes"
            },
            "geometry": {
                "type": "Point",
                "coordinates": [
                    18.688839289960594,
                    50.32004430816024
                ]
            }
        },
        {
            "type": "Feature",
            "properties": {
                "ref:csioz": 1207565,
                "name": "Apteka Zdrowit+",
                "addr:street": "Gwiazdy Polarnej",
                "addr:housenumber": "18A",
                "addr:city": "Gliwice",
                "addr:postcode": "44-117",
                "amenity": "pharmacy",
                "dispensing": "yes"
            },
            "geometry": {
                "type": "Point",
                "coordinates": [
                    18.651423121695657,
                    50.323217644467576
                ]
            }
        },
        {
            "type": "Feature",
            "properties": {
                "ref:csioz": 1219669,
                "name": "Apteka Nova Sieciowa",
                "addr:street": "SPÓŁDZIELCZA",
                "addr:housenumber": "33D",
                "addr:city": "Gliwice",
                "addr:postcode": "44-100",
                "amenity": "pharmacy",
                "dispensing": "yes"
            },
            "geometry": {
                "type": "Point",
                "coordinates": [
                    18.68726094326765,
                    50.30415129384951
                ]
            }
        },
        {
            "type": "Feature",
            "properties": {
                "ref:csioz": 1220179,
                "name": "Apteka Słoneczna Biedronka",
                "addr:street": "Mikołowska",
                "addr:housenumber": "11/13",
                "addr:city": "Gliwice",
                "addr:postcode": "44-100",
                "amenity": "pharmacy",
                "dispensing": "yes"
            },
            "geometry": {
                "type": "Point",
                "coordinates": [
                    18.668192999999913,
                    50.29125300001292
                ]
            }
        },
        {
            "type": "Feature",
            "properties": {
                "ref:csioz": 1227961,
                "name": "Apteka Ligocka",
                "addr:street": "Górników",
                "addr:housenumber": "28",
                "addr:city": "Gliwice",
                "addr:postcode": "44-100",
                "amenity": "pharmacy",
                "dispensing": "yes"
            },
            "geometry": {
                "type": "Point",
                "coordinates": [
                    18.706436666315305,
                    50.27717717753728
                ]
            }
        },
        {
            "type": "Feature",
            "properties": {
                "ref:csioz": 1062079,
                "name": "Apteka Corax",
                "addr:street": "Tadeusza Kościuszki",
                "addr:housenumber": "33",
                "addr:city": "Gliwice",
                "addr:postcode": "44-100",
                "amenity": "pharmacy",
                "dispensing": "yes"
            },
            "geometry": {
                "type": "Point",
                "coordinates": [
                    18.652230235619662,
                    50.29503711379244
                ]
            }
        }
    ]
}