{
    "type": "FeatureCollection",
    "name": "JPT_KOD_JE_2209",
    "features": [
        {
            "type": "Feature",
            "properties": {
                "ref:csioz": 1028251,
                "addr:street": "Kazimierza Michałowskiego",
                "addr:housenumber": "23C",
                "addr:city": "Malbork",
                "addr:postcode": "82-200",
                "amenity": "pharmacy"
            },
            "geometry": {
                "type": "Point",
                "coordinates": [
                    19.042631000000025,
                    54.022000000018785
                ]
            }
        },
        {
            "type": "Feature",
            "properties": {
                "ref:csioz": 1028238,
                "name": "Apteka Dbam O Zdrowie",
                "addr:street": "Jasna",
                "addr:housenumber": "10",
                "addr:city": "Malbork",
                "addr:postcode": "82-200",
                "amenity": "pharmacy"
            },
            "geometry": {
                "type": "Point",
                "coordinates": [
                    19.033373167110987,
                    54.034267759335314
                ]
            }
        },
        {
            "type": "Feature",
            "properties": {
                "ref:csioz": 1028246,
                "addr:street": "Ludwika Solskiego",
                "addr:housenumber": "1",
                "addr:city": "Malbork",
                "addr:postcode": "82-200",
                "amenity": "pharmacy"
            },
            "geometry": {
                "type": "Point",
                "coordinates": [
                    19.021219000000013,
                    54.044046000018824
                ]
            }
        },
        {
            "type": "Feature",
            "properties": {
                "ref:csioz": 1030285,
                "name": "Doz Apteka. Dbam O Zdrowie. Staromiejska",
                "addr:street": "Kościuszki",
                "addr:housenumber": "4",
                "addr:city": "Nowy Staw",
                "addr:postcode": "82-230",
                "amenity": "pharmacy"
            },
            "geometry": {
                "type": "Point",
                "coordinates": [
                    19.00908419982648,
                    54.135750612549145
                ]
            }
        },
        {
            "type": "Feature",
            "properties": {
                "ref:csioz": 1032680,
                "name": "Apteka Alba",
                "addr:street": "Juliusza Słowackiego",
                "addr:housenumber": "71",
                "addr:flats": "1",
                "addr:city": "Malbork",
                "addr:postcode": "82-200",
                "amenity": "pharmacy"
            },
            "geometry": {
                "type": "Point",
                "coordinates": [
                    19.023825000000006,
                    54.0312570000188
                ]
            }
        },
        {
            "type": "Feature",
            "properties": {
                "ref:csioz": 1032747,
                "name": "Dr. Max",
                "addr:street": "Tadeusza Kościuszki",
                "addr:housenumber": "16",
                "addr:city": "Malbork",
                "addr:postcode": "82-200",
                "amenity": "pharmacy"
            },
            "geometry": {
                "type": "Point",
                "coordinates": [
                    19.03477351461442,
                    54.03652453325555
                ]
            }
        },
        {
            "type": "Feature",
            "properties": {
                "ref:csioz": 1033557,
                "name": "Medical",
                "addr:street": "Dworcowa",
                "addr:housenumber": "17",
                "addr:city": "Malbork",
                "addr:postcode": "82-200",
                "amenity": "pharmacy"
            },
            "geometry": {
                "type": "Point",
                "coordinates": [
                    19.042653204492403,
                    54.03574886497088
                ]
            }
        },
        {
            "type": "Feature",
            "properties": {
                "ref:csioz": 1195741,
                "name": "Akacjowa",
                "addr:street": "Henryka Sienkiewicza",
                "addr:housenumber": "37",
                "addr:city": "Malbork",
                "addr:postcode": "82-200",
                "amenity": "pharmacy"
            },
            "geometry": {
                "type": "Point",
                "coordinates": [
                    19.033931000000017,
                    54.0325510000188
                ]
            }
        },
        {
            "type": "Feature",
            "properties": {
                "ref:csioz": 1196543,
                "name": "Apteka Miodowa Na Piaskach",
                "addr:street": "Koszykowa",
                "addr:housenumber": "2",
                "addr:flats": "1",
                "addr:city": "Malbork",
                "addr:postcode": "82-200",
                "amenity": "pharmacy"
            },
            "geometry": {
                "type": "Point",
                "coordinates": [
                    19.062786363299477,
                    54.03627283756843
                ]
            }
        },
        {
            "type": "Feature",
            "properties": {
                "ref:csioz": 1030522,
                "name": "Malborska",
                "addr:street": "Juliusza Słowackiego",
                "addr:housenumber": "75",
                "addr:city": "Malbork",
                "addr:postcode": "82-200",
                "amenity": "pharmacy"
            },
            "geometry": {
                "type": "Point",
                "coordinates": [
                    19.02375897306928,
                    54.03188808706436
                ]
            }
        },
        {
            "type": "Feature",
            "properties": {
                "ref:csioz": 1031054,
                "name": "Rodzinna",
                "addr:street": "Marynarki Wojennej",
                "addr:housenumber": "6",
                "addr:city": "Stare Pole",
                "addr:postcode": "82-220",
                "amenity": "pharmacy"
            },
            "geometry": {
                "type": "Point",
                "coordinates": [
                    19.20146408668409,
                    54.054208262002824
                ]
            }
        },
        {
            "type": "Feature",
            "properties": {
                "ref:csioz": 1033732,
                "addr:street": "Lachowicza",
                "addr:housenumber": "29C",
                "addr:city": "Lichnowy",
                "addr:postcode": "82-224",
                "amenity": "pharmacy"
            },
            "geometry": {
                "type": "Point",
                "coordinates": [
                    18.915062392468887,
                    54.11426002199871
                ]
            }
        },
        {
            "type": "Feature",
            "properties": {
                "ref:csioz": 1031827,
                "name": "Gemini",
                "addr:street": "Tadeusza Kościuszki",
                "addr:housenumber": "48",
                "addr:city": "Malbork",
                "addr:postcode": "82-200",
                "amenity": "pharmacy"
            },
            "geometry": {
                "type": "Point",
                "coordinates": [
                    19.035350000000026,
                    54.036690000018815
                ]
            }
        },
        {
            "type": "Feature",
            "properties": {
                "ref:csioz": 1187942,
                "name": "Apteka Szpitalna W Zakładzie Leczniczym: Szpital Im. Dr Jadwigi Obodzińskiej-Król W Malborku",
                "addr:street": "Aleja Armii Krajowej",
                "addr:housenumber": "105/106",
                "addr:city": "Malbork",
                "addr:postcode": "82-200",
                "amenity": "pharmacy"
            },
            "geometry": {
                "type": "Point",
                "coordinates": [
                    19.022028000000013,
                    54.03124200001878
                ]
            }
        },
        {
            "type": "Feature",
            "properties": {
                "ref:csioz": 1190670,
                "name": "Apteka Medfarm",
                "addr:street": "Obrońców Westerplatte",
                "addr:housenumber": "4b-4c",
                "addr:city": "Nowy Staw",
                "addr:postcode": "82-230",
                "amenity": "pharmacy"
            },
            "geometry": {
                "type": "Point",
                "coordinates": [
                    19.014038210851403,
                    54.121473249553254
                ]
            }
        },
        {
            "type": "Feature",
            "properties": {
                "ref:csioz": 1199745,
                "name": "Farmacja24",
                "addr:street": "Marii Konopnickiej",
                "addr:housenumber": "12",
                "addr:city": "Malbork",
                "addr:postcode": "82-200",
                "amenity": "pharmacy"
            },
            "geometry": {
                "type": "Point",
                "coordinates": [
                    19.034640756558712,
                    54.03158405661814
                ]
            }
        },
        {
            "type": "Feature",
            "properties": {
                "ref:csioz": 1201878,
                "name": "Centrum Zdrowia",
                "addr:street": "Marii Konopnickiej",
                "addr:housenumber": "4",
                "addr:city": "Malbork",
                "addr:postcode": "82-200",
                "amenity": "pharmacy"
            },
            "geometry": {
                "type": "Point",
                "coordinates": [
                    19.033478130469337,
                    54.03164392415371
                ]
            }
        },
        {
            "type": "Feature",
            "properties": {
                "ref:csioz": 1202235,
                "name": "Apteka Miodowa",
                "addr:street": "Tadeusza Kotarbińskiego",
                "addr:housenumber": "14",
                "addr:city": "Malbork",
                "addr:postcode": "82-200",
                "amenity": "pharmacy"
            },
            "geometry": {
                "type": "Point",
                "coordinates": [
                    19.043182000000026,
                    54.02321000001879
                ]
            }
        },
        {
            "type": "Feature",
            "properties": {
                "ref:csioz": 1225151,
                "name": "Apteka Gemini",
                "addr:street": "Tadeusza Kotarbińskiego",
                "addr:housenumber": "10",
                "addr:city": "Malbork",
                "addr:postcode": "82-200",
                "amenity": "pharmacy"
            },
            "geometry": {
                "type": "Point",
                "coordinates": [
                    19.041200029318645,
                    54.022920739533056
                ]
            }
        },
        {
            "type": "Feature",
            "properties": {
                "ref:csioz": 1196112,
                "name": "\"Apteka \"\"Verbena\"\"\"",
                "addr:street": "Żuławska",
                "addr:housenumber": "14",
                "addr:city": "Miłoradz",
                "addr:postcode": "82-213",
                "amenity": "pharmacy"
            },
            "geometry": {
                "type": "Point",
                "coordinates": [
                    18.918293239019643,
                    54.01416941487163
                ]
            }
        }
    ]
}