{
    "type": "FeatureCollection",
    "name": "JPT_KOD_JE_1436",
    "features": [
        {
            "type": "Feature",
            "properties": {
                "ref:csioz": 1096170,
                "name": "Remedium",
                "addr:street": "Kościuszki",
                "addr:housenumber": "21",
                "addr:city": "Zwoleń",
                "addr:postcode": "26-700",
                "amenity": "pharmacy"
            },
            "geometry": {
                "type": "Point",
                "coordinates": [
                    21.5768196988686,
                    51.355827965544485
                ]
            }
        },
        {
            "type": "Feature",
            "properties": {
                "ref:csioz": 1096181,
                "name": "Remedium",
                "addr:street": "Jana Pawła II",
                "addr:housenumber": "27",
                "addr:city": "Zwoleń",
                "addr:postcode": "26-700",
                "amenity": "pharmacy"
            },
            "geometry": {
                "type": "Point",
                "coordinates": [
                    21.59988469663871,
                    51.35006327240381
                ]
            }
        },
        {
            "type": "Feature",
            "properties": {
                "ref:csioz": 1098237,
                "name": "Szpital",
                "addr:street": "Aleje Pokoju",
                "addr:housenumber": "5",
                "addr:city": "Zwoleń",
                "addr:postcode": "26-700",
                "amenity": "pharmacy"
            },
            "geometry": {
                "type": "Point",
                "coordinates": [
                    21.58569100000931,
                    51.354380000014515
                ]
            }
        },
        {
            "type": "Feature",
            "properties": {
                "ref:csioz": 1196535,
                "name": "W Rynku",
                "addr:street": "Kochanowskiego",
                "addr:housenumber": "13",
                "addr:city": "Zwoleń",
                "addr:postcode": "26-700",
                "amenity": "pharmacy"
            },
            "geometry": {
                "type": "Point",
                "coordinates": [
                    21.58305012931665,
                    51.35670390829773
                ]
            }
        },
        {
            "type": "Feature",
            "properties": {
                "ref:csioz": 1096124,
                "addr:street": "Bolesława Prusa",
                "addr:housenumber": "9",
                "addr:city": "Policzna",
                "addr:postcode": "26-720",
                "amenity": "pharmacy"
            },
            "geometry": {
                "type": "Point",
                "coordinates": [
                    21.62327272634178,
                    51.44451892199703
                ]
            }
        },
        {
            "type": "Feature",
            "properties": {
                "ref:csioz": 1096135,
                "addr:housenumber": "30A",
                "addr:postcode": "26-704",
                "amenity": "pharmacy",
                "addr:place": "Lipiny"
            },
            "geometry": {
                "type": "Point",
                "coordinates": [
                    21.740419472914187,
                    51.308644746306406
                ]
            }
        },
        {
            "type": "Feature",
            "properties": {
                "ref:csioz": 1096143,
                "addr:street": "Władysława Jagiełły",
                "addr:housenumber": "8",
                "addr:city": "Zwoleń",
                "addr:postcode": "26-700",
                "amenity": "pharmacy"
            },
            "geometry": {
                "type": "Point",
                "coordinates": [
                    21.582200156645193,
                    51.35567030011919
                ]
            }
        },
        {
            "type": "Feature",
            "properties": {
                "ref:csioz": 1096156,
                "name": "Codzienna",
                "addr:street": "Świętego Jana",
                "addr:housenumber": "1",
                "addr:city": "Zwoleń",
                "addr:postcode": "26-700",
                "amenity": "pharmacy"
            },
            "geometry": {
                "type": "Point",
                "coordinates": [
                    21.581595622137755,
                    51.35415281511839
                ]
            }
        },
        {
            "type": "Feature",
            "properties": {
                "ref:csioz": 1096162,
                "name": "Pod Wagą",
                "addr:street": "Wojska Polskiego",
                "addr:housenumber": "50",
                "addr:city": "Zwoleń",
                "addr:postcode": "26-700",
                "amenity": "pharmacy"
            },
            "geometry": {
                "type": "Point",
                "coordinates": [
                    21.578387813541358,
                    51.35779989394118
                ]
            }
        },
        {
            "type": "Feature",
            "properties": {
                "ref:csioz": 1118866,
                "name": "Przy Rynku",
                "addr:street": "Partyzantów",
                "addr:housenumber": "20",
                "addr:city": "Kazanów",
                "addr:postcode": "26-713",
                "amenity": "pharmacy"
            },
            "geometry": {
                "type": "Point",
                "coordinates": [
                    21.467441110621525,
                    51.27558185201984
                ]
            }
        },
        {
            "type": "Feature",
            "properties": {
                "ref:csioz": 1217611,
                "name": "Gemini",
                "addr:street": "Władysława Jagiełły",
                "addr:housenumber": "7",
                "addr:city": "Zwoleń",
                "addr:postcode": "26-700",
                "amenity": "pharmacy"
            },
            "geometry": {
                "type": "Point",
                "coordinates": [
                    21.582837840458456,
                    51.355830079734304
                ]
            }
        }
    ]
}