{
    "type": "FeatureCollection",
    "name": "JPT_KOD_JE_0802",
    "features": [
        {
            "type": "Feature",
            "properties": {
                "ref:csioz": 1148098,
                "addr:street": "Kinowa",
                "addr:housenumber": "2",
                "addr:city": "Gubin",
                "addr:postcode": "66-620",
                "amenity": "pharmacy"
            },
            "geometry": {
                "type": "Point",
                "coordinates": [
                    14.726303589271435,
                    51.95033274692053
                ]
            }
        },
        {
            "type": "Feature",
            "properties": {
                "ref:csioz": 1148104,
                "name": "Apteka Nasza",
                "addr:street": "Kossaka",
                "addr:housenumber": "1",
                "addr:city": "Gubin",
                "addr:postcode": "66-620",
                "amenity": "pharmacy"
            },
            "geometry": {
                "type": "Point",
                "coordinates": [
                    14.7363159501187,
                    51.95452685846992
                ]
            }
        },
        {
            "type": "Feature",
            "properties": {
                "ref:csioz": 1148112,
                "addr:street": "Śląska",
                "addr:housenumber": "37A",
                "addr:flats": "1",
                "addr:city": "Gubin",
                "addr:postcode": "66-620",
                "amenity": "pharmacy"
            },
            "geometry": {
                "type": "Point",
                "coordinates": [
                    14.726498078504033,
                    51.9451766716031
                ]
            }
        },
        {
            "type": "Feature",
            "properties": {
                "ref:csioz": 1148120,
                "name": "Familijna",
                "addr:street": "Śląska",
                "addr:housenumber": "39A",
                "addr:city": "Gubin",
                "addr:postcode": "66-620",
                "amenity": "pharmacy"
            },
            "geometry": {
                "type": "Point",
                "coordinates": [
                    14.726224981967098,
                    51.94469917495115
                ]
            }
        },
        {
            "type": "Feature",
            "properties": {
                "ref:csioz": 1148136,
                "name": "\"Doz Apteka Dbam O Zdrowie \"\"W Galerii\"\"\"",
                "addr:street": "Wyspiańskiego",
                "addr:housenumber": "10",
                "addr:city": "Gubin",
                "addr:postcode": "66-620",
                "amenity": "pharmacy"
            },
            "geometry": {
                "type": "Point",
                "coordinates": [
                    14.730180588827658,
                    51.9482092883849
                ]
            }
        },
        {
            "type": "Feature",
            "properties": {
                "ref:csioz": 1148292,
                "name": "Witaminka",
                "addr:street": "Pułaskiego",
                "addr:housenumber": "2",
                "addr:city": "Krosno Odrzańskie",
                "addr:postcode": "66-600",
                "amenity": "pharmacy"
            },
            "geometry": {
                "type": "Point",
                "coordinates": [
                    15.106839418093921,
                    52.05597664815223
                ]
            }
        },
        {
            "type": "Feature",
            "properties": {
                "ref:csioz": 1148305,
                "name": "Apteka Srebrna Góra",
                "addr:street": "Srebrna Góra",
                "addr:housenumber": "2A",
                "addr:city": "Krosno Odrzańskie",
                "addr:postcode": "66-600",
                "amenity": "pharmacy"
            },
            "geometry": {
                "type": "Point",
                "coordinates": [
                    15.095994831277041,
                    52.05459403906011
                ]
            }
        },
        {
            "type": "Feature",
            "properties": {
                "ref:csioz": 1150742,
                "name": "Bobrowice",
                "addr:housenumber": "104",
                "addr:postcode": "66-627",
                "amenity": "pharmacy",
                "addr:place": "Bobrowice"
            },
            "geometry": {
                "type": "Point",
                "coordinates": [
                    15.091171309594632,
                    51.94804926100079
                ]
            }
        },
        {
            "type": "Feature",
            "properties": {
                "ref:csioz": 1138892,
                "name": "\"Doz Apteka Dbam O Zdrowie \"\"Pod Basztą\"\"\"",
                "addr:street": "Maja 3",
                "addr:housenumber": "1",
                "addr:city": "Gubin",
                "addr:postcode": "66-620",
                "amenity": "pharmacy"
            },
            "geometry": {
                "type": "Point",
                "coordinates": [
                    14.727675756473252,
                    51.950574195917994
                ]
            }
        },
        {
            "type": "Feature",
            "properties": {
                "ref:csioz": 1138903,
                "name": "Centrum",
                "addr:street": "Chopina",
                "addr:housenumber": "4",
                "addr:city": "Gubin",
                "addr:postcode": "68-100",
                "amenity": "pharmacy"
            },
            "geometry": {
                "type": "Point",
                "coordinates": [
                    14.726881369190618,
                    51.94926132495375
                ]
            }
        },
        {
            "type": "Feature",
            "properties": {
                "ref:csioz": 1138916,
                "addr:street": "Gdańska",
                "addr:housenumber": "17",
                "addr:city": "Gubin",
                "addr:postcode": "66-620",
                "amenity": "pharmacy"
            },
            "geometry": {
                "type": "Point",
                "coordinates": [
                    14.732323989733695,
                    51.958711955788836
                ]
            }
        },
        {
            "type": "Feature",
            "properties": {
                "ref:csioz": 1148284,
                "name": "Krośnieńska",
                "addr:street": "Poznańska",
                "addr:housenumber": "19",
                "addr:city": "Krosno Odrzańskie",
                "addr:postcode": "66-600",
                "amenity": "pharmacy"
            },
            "geometry": {
                "type": "Point",
                "coordinates": [
                    15.100176499678847,
                    52.05436526649934
                ]
            }
        },
        {
            "type": "Feature",
            "properties": {
                "ref:csioz": 1170381,
                "name": "Poznańska Od Zawsze",
                "addr:street": "Poznańska",
                "addr:housenumber": "19",
                "addr:flats": "LU3",
                "addr:city": "Krosno Odrzańskie",
                "addr:postcode": "66-600",
                "amenity": "pharmacy"
            },
            "geometry": {
                "type": "Point",
                "coordinates": [
                    15.100176499678847,
                    52.05436526649934
                ]
            }
        },
        {
            "type": "Feature",
            "properties": {
                "ref:csioz": 1178995,
                "addr:housenumber": "112",
                "addr:postcode": "66-614",
                "amenity": "pharmacy",
                "addr:place": "Maszewo"
            },
            "geometry": {
                "type": "Point",
                "coordinates": [
                    14.905970106073463,
                    52.065505833589285
                ]
            }
        },
        {
            "type": "Feature",
            "properties": {
                "ref:csioz": 1185420,
                "name": "Prima",
                "addr:street": "Piastów",
                "addr:housenumber": "10N",
                "addr:city": "Krosno Odrzańskie",
                "addr:postcode": "66-600",
                "amenity": "pharmacy"
            },
            "geometry": {
                "type": "Point",
                "coordinates": [
                    15.103368728755465,
                    52.054231359042795
                ]
            }
        },
        {
            "type": "Feature",
            "properties": {
                "ref:csioz": 1192132,
                "name": "Apteka Z Misiem",
                "addr:street": "3 Maja",
                "addr:housenumber": "10",
                "addr:city": "Gubin",
                "addr:postcode": "66-620",
                "amenity": "pharmacy"
            },
            "geometry": {
                "type": "Point",
                "coordinates": [
                    14.767561365070888,
                    51.95644011320099
                ]
            }
        },
        {
            "type": "Feature",
            "properties": {
                "ref:csioz": 1217145,
                "addr:street": "Piastów",
                "addr:housenumber": "3",
                "addr:city": "Krosno Odrzańskie",
                "addr:postcode": "66-600",
                "amenity": "pharmacy"
            },
            "geometry": {
                "type": "Point",
                "coordinates": [
                    15.097968212387807,
                    52.057046592295336
                ]
            }
        },
        {
            "type": "Feature",
            "properties": {
                "ref:csioz": 1223791,
                "name": "\"Apteka \"\"Dr. Max\"\"\"",
                "addr:street": "Słoneczna",
                "addr:housenumber": "1/3",
                "addr:city": "Krosno Odrzańskie",
                "addr:postcode": "66-600",
                "amenity": "pharmacy"
            },
            "geometry": {
                "type": "Point",
                "coordinates": [
                    15.098435999936683,
                    52.0484480000167
                ]
            }
        },
        {
            "type": "Feature",
            "properties": {
                "ref:csioz": 1228746,
                "addr:housenumber": "52c",
                "addr:postcode": "66-630",
                "amenity": "pharmacy",
                "addr:place": "Bytnica"
            },
            "geometry": {
                "type": "Point",
                "coordinates": [
                    15.168817314235456,
                    52.15002565174495
                ]
            }
        },
        {
            "type": "Feature",
            "properties": {
                "ref:csioz": 1223809,
                "name": "\"Apteka \"\"Dr. Max\"\"\"",
                "addr:street": "Poznańska",
                "addr:housenumber": "13A",
                "addr:city": "Krosno Odrzańskie",
                "addr:postcode": "66-600",
                "amenity": "pharmacy"
            },
            "geometry": {
                "type": "Point",
                "coordinates": [
                    15.098368019558773,
                    52.05489936955396
                ]
            }
        }
    ]
}