{
    "type": "FeatureCollection",
    "name": "JPT_KOD_JE_1401",
    "features": [
        {
            "type": "Feature",
            "properties": {
                "ref:csioz": 1094393,
                "name": "\"Cef@Rm 36,6\"",
                "addr:street": "Krakowska",
                "addr:housenumber": "66",
                "addr:city": "Białobrzegi",
                "addr:postcode": "26-800",
                "amenity": "pharmacy",
                "dispensing": "yes"
            },
            "geometry": {
                "type": "Point",
                "coordinates": [
                    20.955612193304653,
                    51.64722694831012
                ]
            }
        },
        {
            "type": "Feature",
            "properties": {
                "ref:csioz": 1094406,
                "name": "Apteka Codzienna",
                "addr:street": "Krakowska",
                "addr:housenumber": "81",
                "addr:city": "Białobrzegi",
                "addr:postcode": "26-800",
                "amenity": "pharmacy",
                "dispensing": "yes"
            },
            "geometry": {
                "type": "Point",
                "coordinates": [
                    20.956026060729535,
                    51.647568076013634
                ]
            }
        },
        {
            "type": "Feature",
            "properties": {
                "ref:csioz": 1094433,
                "addr:street": "Nowa",
                "addr:housenumber": "10",
                "addr:city": "Stromiec",
                "addr:postcode": "26-804",
                "amenity": "pharmacy",
                "dispensing": "yes"
            },
            "geometry": {
                "type": "Point",
                "coordinates": [
                    21.089325104604256,
                    51.63939501225689
                ]
            }
        },
        {
            "type": "Feature",
            "properties": {
                "ref:csioz": 1096234,
                "addr:housenumber": "72",
                "addr:postcode": "26-807",
                "amenity": "pharmacy",
                "addr:place": "Radzanów",
                "dispensing": "yes"
            },
            "geometry": {
                "type": "Point",
                "coordinates": [
                    20.867400185659662,
                    51.55772260513853
                ]
            }
        },
        {
            "type": "Feature",
            "properties": {
                "ref:csioz": 1094386,
                "name": "Medica",
                "addr:street": "11 Listopada",
                "addr:housenumber": "8",
                "addr:city": "Białobrzegi",
                "addr:postcode": "26-800",
                "amenity": "pharmacy",
                "dispensing": "yes"
            },
            "geometry": {
                "type": "Point",
                "coordinates": [
                    20.954006361702362,
                    51.6465664368216
                ]
            }
        },
        {
            "type": "Feature",
            "properties": {
                "ref:csioz": 1118142,
                "name": "Przyjazna",
                "addr:street": "Rzemieślnicza",
                "addr:housenumber": "37",
                "addr:city": "Białobrzegi",
                "addr:postcode": "26-800",
                "amenity": "pharmacy",
                "dispensing": "yes"
            },
            "geometry": {
                "type": "Point",
                "coordinates": [
                    20.951000838382193,
                    51.64454310468092
                ]
            }
        },
        {
            "type": "Feature",
            "properties": {
                "ref:csioz": 1120801,
                "name": "Rodzinna Medi Pharm",
                "addr:street": "Władysława Stanisława Reymonta",
                "addr:housenumber": "38B",
                "addr:city": "Białobrzegi",
                "addr:postcode": "26-800",
                "amenity": "pharmacy",
                "dispensing": "yes"
            },
            "geometry": {
                "type": "Point",
                "coordinates": [
                    20.950518800425975,
                    51.644216331031124
                ]
            }
        },
        {
            "type": "Feature",
            "properties": {
                "ref:csioz": 1202932,
                "addr:street": "Spacerowa",
                "addr:housenumber": "10A",
                "addr:city": "Białobrzegi",
                "addr:postcode": "26-800",
                "amenity": "pharmacy",
                "dispensing": "yes"
            },
            "geometry": {
                "type": "Point",
                "coordinates": [
                    20.9636282501801,
                    51.64699562901995
                ]
            }
        },
        {
            "type": "Feature",
            "properties": {
                "ref:csioz": 1210485,
                "addr:street": "Adama  Mickiewicza",
                "addr:housenumber": "58",
                "addr:city": "Wyśmierzyce",
                "addr:postcode": "26-811",
                "amenity": "pharmacy",
                "dispensing": "yes"
            },
            "geometry": {
                "type": "Point",
                "coordinates": [
                    20.82174820220301,
                    51.62463323989309
                ]
            }
        },
        {
            "type": "Feature",
            "properties": {
                "ref:csioz": 1226237,
                "name": "Przybyszew",
                "addr:street": "Kościelna",
                "addr:housenumber": "4",
                "addr:city": "Przybyszew",
                "addr:postcode": "26-803",
                "amenity": "pharmacy",
                "dispensing": "yes"
            },
            "geometry": {
                "type": "Point",
                "coordinates": [
                    20.85363299437076,
                    51.66343548526503
                ]
            }
        },
        {
            "type": "Feature",
            "properties": {
                "ref:csioz": 1226990,
                "addr:housenumber": "9",
                "addr:postcode": "26-806",
                "amenity": "pharmacy",
                "addr:place": "Stara Błotnica",
                "dispensing": "yes"
            },
            "geometry": {
                "type": "Point",
                "coordinates": [
                    20.98599842871615,
                    51.54608291174709
                ]
            }
        }
    ]
}