{
    "type": "FeatureCollection",
    "name": "JPT_KOD_JE_2608",
    "features": [
        {
            "type": "Feature",
            "properties": {
                "ref:csioz": 1000274,
                "addr:street": "Adolfa Dygasińskiego",
                "addr:housenumber": "2",
                "addr:city": "Pińczów",
                "addr:postcode": "28-400",
                "amenity": "pharmacy"
            },
            "geometry": {
                "type": "Point",
                "coordinates": [
                    20.52344081371929,
                    50.52130533767194
                ]
            }
        },
        {
            "type": "Feature",
            "properties": {
                "ref:csioz": 1002413,
                "name": "\"Apteka \"\"Codzienna\"\"\"",
                "addr:street": "3 Maja",
                "addr:housenumber": "3",
                "addr:city": "Pińczów",
                "addr:postcode": "28-400",
                "amenity": "pharmacy"
            },
            "geometry": {
                "type": "Point",
                "coordinates": [
                    20.524521451312385,
                    50.5215945269747
                ]
            }
        },
        {
            "type": "Feature",
            "properties": {
                "ref:csioz": 1123197,
                "name": "\"Centrum Kardiologii Inwazyjnej, Elektroterapii I Angiologii W Pińczowie\"",
                "addr:street": "Armii Krajowej",
                "addr:housenumber": "22",
                "addr:city": "Pińczów",
                "addr:postcode": "28-400",
                "amenity": "pharmacy"
            },
            "geometry": {
                "type": "Point",
                "coordinates": [
                    20.530500500259194,
                    50.51697211588434
                ]
            }
        },
        {
            "type": "Feature",
            "properties": {
                "ref:csioz": 1002579,
                "addr:street": "Wolności",
                "addr:housenumber": "25",
                "addr:city": "Pińczów",
                "addr:postcode": "28-400",
                "amenity": "pharmacy"
            },
            "geometry": {
                "type": "Point",
                "coordinates": [
                    20.526570500805814,
                    50.5207906958412
                ]
            }
        },
        {
            "type": "Feature",
            "properties": {
                "ref:csioz": 1003978,
                "name": "Apteka Magnolia",
                "addr:street": "Klasztorna",
                "addr:housenumber": "14",
                "addr:city": "Pińczów",
                "addr:postcode": "28-400",
                "amenity": "pharmacy"
            },
            "geometry": {
                "type": "Point",
                "coordinates": [
                    20.528332320231392,
                    50.51869081335497
                ]
            }
        },
        {
            "type": "Feature",
            "properties": {
                "ref:csioz": 1118267,
                "name": "\"Apteka \"\"Na Grodzisku\"\"\"",
                "addr:street": "Siedem Źródeł",
                "addr:housenumber": "8",
                "addr:city": "Pińczów",
                "addr:postcode": "28-400",
                "amenity": "pharmacy"
            },
            "geometry": {
                "type": "Point",
                "coordinates": [
                    20.54060567303658,
                    50.51502642721445
                ]
            }
        },
        {
            "type": "Feature",
            "properties": {
                "ref:csioz": 1138002,
                "name": "Apteka Szpitalna Bez Zgody",
                "addr:street": "Armii Krajowej",
                "addr:housenumber": "22",
                "addr:city": "Pińczów",
                "addr:postcode": "28-400",
                "amenity": "pharmacy"
            },
            "geometry": {
                "type": "Point",
                "coordinates": [
                    20.530500500259194,
                    50.51697211588434
                ]
            }
        },
        {
            "type": "Feature",
            "properties": {
                "ref:csioz": 1214784,
                "name": "Apteka Na Rynku",
                "addr:street": "Wolności",
                "addr:housenumber": "3",
                "addr:city": "Pińczów",
                "addr:postcode": "28-400",
                "amenity": "pharmacy"
            },
            "geometry": {
                "type": "Point",
                "coordinates": [
                    20.526066000001066,
                    50.519780000013235
                ]
            }
        },
        {
            "type": "Feature",
            "properties": {
                "ref:csioz": 1117080,
                "name": "\"Punkt Apteczny \"\"Kije\"\"\"",
                "addr:housenumber": "25",
                "addr:city": "Kije",
                "addr:postcode": "28-404",
                "amenity": "pharmacy"
            },
            "geometry": {
                "type": "Point",
                "coordinates": [
                    20.576029719545506,
                    50.60727495486091
                ]
            }
        },
        {
            "type": "Feature",
            "properties": {
                "ref:csioz": 1185559,
                "name": "Twoja Apteka",
                "addr:street": "Batalionów Chłopskich",
                "addr:housenumber": "2",
                "addr:city": "Pińczów",
                "addr:postcode": "28-400",
                "amenity": "pharmacy"
            },
            "geometry": {
                "type": "Point",
                "coordinates": [
                    20.526918383541297,
                    50.51997882754216
                ]
            }
        },
        {
            "type": "Feature",
            "properties": {
                "ref:csioz": 1178972,
                "name": "Apteka Centrum Zdrowia",
                "addr:street": "Słoneczna",
                "addr:housenumber": "2",
                "addr:city": "Złota",
                "addr:postcode": "28-425",
                "amenity": "pharmacy"
            },
            "geometry": {
                "type": "Point",
                "coordinates": [
                    20.592171413192727,
                    50.383303990038065
                ]
            }
        },
        {
            "type": "Feature",
            "properties": {
                "ref:csioz": 1229051,
                "name": "Pod Aniołami",
                "addr:housenumber": "6A",
                "addr:city": "Leszcze",
                "addr:postcode": "28-400",
                "amenity": "pharmacy"
            },
            "geometry": {
                "type": "Point",
                "coordinates": [
                    20.589459531296104,
                    50.448333986596914
                ]
            }
        },
        {
            "type": "Feature",
            "properties": {
                "ref:csioz": 1000426,
                "addr:street": "Pińczowska",
                "addr:housenumber": "18",
                "addr:city": "DZIAŁOSZYCE",
                "addr:postcode": "28-440",
                "amenity": "pharmacy"
            },
            "geometry": {
                "type": "Point",
                "coordinates": [
                    20.351724897755208,
                    50.36772814411035
                ]
            }
        },
        {
            "type": "Feature",
            "properties": {
                "ref:csioz": 1004203,
                "name": "\"Apteka \"\"Aloes\"\"\"",
                "addr:street": "Plac Partyzantów",
                "addr:housenumber": "2",
                "addr:city": "Działoszyce",
                "addr:postcode": "28-440",
                "amenity": "pharmacy"
            },
            "geometry": {
                "type": "Point",
                "coordinates": [
                    20.35221396329034,
                    50.36484224110407
                ]
            }
        },
        {
            "type": "Feature",
            "properties": {
                "ref:csioz": 1123288,
                "name": "Michałów",
                "addr:housenumber": "286",
                "addr:city": "Michałów",
                "addr:postcode": "28-411",
                "amenity": "pharmacy"
            },
            "geometry": {
                "type": "Point",
                "coordinates": [
                    20.463980844129594,
                    50.49528378698146
                ]
            }
        }
    ]
}