{
    "type": "FeatureCollection",
    "name": "JPT_KOD_JE_2405",
    "features": [
        {
            "type": "Feature",
            "properties": {
                "ref:csioz": 1016670,
                "name": "Szpital Chorób Płuc Im. Św. Józefa W Pilchowicach",
                "addr:street": "Dworcowa",
                "addr:housenumber": "31",
                "addr:city": "Pilchowice",
                "addr:postcode": "44-145",
                "amenity": "pharmacy",
                "dispensing": "yes"
            },
            "geometry": {
                "type": "Point",
                "coordinates": [
                    18.563351247163393,
                    50.21455091020579
                ]
            }
        },
        {
            "type": "Feature",
            "properties": {
                "ref:csioz": 1064822,
                "name": "Św. Barbary 3",
                "addr:street": "Stanisława Staszica",
                "addr:housenumber": "1",
                "addr:city": "Knurów",
                "addr:postcode": "44-193",
                "amenity": "pharmacy",
                "dispensing": "yes"
            },
            "geometry": {
                "type": "Point",
                "coordinates": [
                    18.629428271725686,
                    50.191248752820776
                ]
            }
        },
        {
            "type": "Feature",
            "properties": {
                "ref:csioz": 1064833,
                "name": "Św. Barbary",
                "addr:street": "Wincentego Witosa",
                "addr:housenumber": "10",
                "addr:city": "Knurów",
                "addr:postcode": "44-196",
                "amenity": "pharmacy",
                "dispensing": "yes"
            },
            "geometry": {
                "type": "Point",
                "coordinates": [
                    18.656435596299094,
                    50.23626431993556
                ]
            }
        },
        {
            "type": "Feature",
            "properties": {
                "ref:csioz": 1066404,
                "name": "Medico",
                "addr:street": "Swobody",
                "addr:housenumber": "1",
                "addr:city": "Paniówki",
                "addr:postcode": "44-177",
                "amenity": "pharmacy",
                "dispensing": "yes"
            },
            "geometry": {
                "type": "Point",
                "coordinates": [
                    18.788782602639113,
                    50.232039926128884
                ]
            }
        },
        {
            "type": "Feature",
            "properties": {
                "ref:csioz": 1067142,
                "name": "Polvita",
                "addr:street": "Armii Krajowej",
                "addr:housenumber": "28",
                "addr:city": "Pyskowice",
                "addr:postcode": "44-120",
                "amenity": "pharmacy",
                "dispensing": "yes"
            },
            "geometry": {
                "type": "Point",
                "coordinates": [
                    18.622775855450023,
                    50.39833821990079
                ]
            }
        },
        {
            "type": "Feature",
            "properties": {
                "ref:csioz": 1067169,
                "name": "Remedium Ab",
                "addr:street": "Ignacego Paderewskiego",
                "addr:housenumber": "11",
                "addr:city": "Pyskowice",
                "addr:postcode": "44-120",
                "amenity": "pharmacy",
                "dispensing": "yes"
            },
            "geometry": {
                "type": "Point",
                "coordinates": [
                    18.62865123964167,
                    50.40124696118225
                ]
            }
        },
        {
            "type": "Feature",
            "properties": {
                "ref:csioz": 1072918,
                "name": "Grzybek",
                "addr:street": "GLIWICKA",
                "addr:housenumber": "10",
                "addr:city": "KOTULIN",
                "addr:postcode": "44-180",
                "amenity": "pharmacy",
                "dispensing": "yes"
            },
            "geometry": {
                "type": "Point",
                "coordinates": [
                    18.414999652512293,
                    50.46527438606769
                ]
            }
        },
        {
            "type": "Feature",
            "properties": {
                "ref:csioz": 1073154,
                "name": "Brak Nazwy",
                "addr:street": "PARKOWA",
                "addr:housenumber": "9",
                "addr:city": "PONISZOWICE",
                "addr:postcode": "44-172",
                "amenity": "pharmacy",
                "dispensing": "yes"
            },
            "geometry": {
                "type": "Point",
                "coordinates": [
                    18.462624924893632,
                    50.41033886364806
                ]
            }
        },
        {
            "type": "Feature",
            "properties": {
                "ref:csioz": 1073282,
                "name": "Galenowa",
                "addr:street": "GLIWICKA",
                "addr:housenumber": "75",
                "addr:city": "RUDZINIEC",
                "addr:postcode": "44-160",
                "amenity": "pharmacy",
                "dispensing": "yes"
            },
            "geometry": {
                "type": "Point",
                "coordinates": [
                    18.405228476229613,
                    50.36794587422362
                ]
            }
        },
        {
            "type": "Feature",
            "properties": {
                "ref:csioz": 1073471,
                "name": "Duos",
                "addr:street": "GLIWICKA",
                "addr:housenumber": "12 A",
                "addr:city": "TACISZÓW",
                "addr:postcode": "44-171",
                "amenity": "pharmacy",
                "dispensing": "yes"
            },
            "geometry": {
                "type": "Point",
                "coordinates": [
                    18.529746666147364,
                    50.37067152839338
                ]
            }
        },
        {
            "type": "Feature",
            "properties": {
                "ref:csioz": 1073578,
                "name": "Św. Barbary",
                "addr:street": "Karola Miarki",
                "addr:housenumber": "123",
                "addr:city": "Wilcza",
                "addr:postcode": "44-189",
                "amenity": "pharmacy",
                "dispensing": "yes"
            },
            "geometry": {
                "type": "Point",
                "coordinates": [
                    18.59587529288145,
                    50.18874270663519
                ]
            }
        },
        {
            "type": "Feature",
            "properties": {
                "ref:csioz": 1073681,
                "name": "Aptekarius",
                "addr:street": "POWSTAŃCÓW ŚLĄSKICH",
                "addr:housenumber": "2",
                "addr:city": "ŻERNICA",
                "addr:postcode": "44-144",
                "amenity": "pharmacy",
                "dispensing": "yes"
            },
            "geometry": {
                "type": "Point",
                "coordinates": [
                    18.616475391578703,
                    50.248250642376924
                ]
            }
        },
        {
            "type": "Feature",
            "properties": {
                "ref:csioz": 1116755,
                "name": "Doz Apteka Dbam O Zdrowie",
                "addr:street": "Damrota",
                "addr:housenumber": "1",
                "addr:city": "Pilchowice",
                "addr:postcode": "44-145",
                "amenity": "pharmacy",
                "dispensing": "yes"
            },
            "geometry": {
                "type": "Point",
                "coordinates": [
                    18.561833534866025,
                    50.2143245134812
                ]
            }
        },
        {
            "type": "Feature",
            "properties": {
                "ref:csioz": 1120849,
                "name": "\"Apteka Zdrowit'\"",
                "addr:street": "kard. Stefana Wyszyńskiego",
                "addr:housenumber": "14",
                "addr:city": "Pyskowice",
                "addr:postcode": "44-120",
                "amenity": "pharmacy",
                "dispensing": "yes"
            },
            "geometry": {
                "type": "Point",
                "coordinates": [
                    18.631054409823257,
                    50.39854793078856
                ]
            }
        },
        {
            "type": "Feature",
            "properties": {
                "ref:csioz": 1165981,
                "name": "Remedium Ab",
                "addr:street": "Gliwicka",
                "addr:housenumber": "26",
                "addr:city": "Toszek",
                "addr:postcode": "44-180",
                "amenity": "pharmacy",
                "dispensing": "yes"
            },
            "geometry": {
                "type": "Point",
                "coordinates": [
                    18.523571234591294,
                    50.45346033649671
                ]
            }
        },
        {
            "type": "Feature",
            "properties": {
                "ref:csioz": 1172974,
                "addr:street": "Główna",
                "addr:housenumber": "4",
                "addr:city": "Świbie",
                "addr:postcode": "44-187",
                "amenity": "pharmacy",
                "dispensing": "yes"
            },
            "geometry": {
                "type": "Point",
                "coordinates": [
                    18.53708299999987,
                    50.51018600001323
                ]
            }
        },
        {
            "type": "Feature",
            "properties": {
                "ref:csioz": 1184709,
                "name": "Apteka Zdrowit",
                "addr:street": "1 Maja",
                "addr:housenumber": "74",
                "addr:city": "Knurów",
                "addr:postcode": "44-190",
                "amenity": "pharmacy",
                "dispensing": "yes"
            },
            "geometry": {
                "type": "Point",
                "coordinates": [
                    18.663987292597614,
                    50.2353936515898
                ]
            }
        },
        {
            "type": "Feature",
            "properties": {
                "ref:csioz": 1202895,
                "name": "W Chudowie",
                "addr:street": "Zabrska",
                "addr:housenumber": "2A",
                "addr:city": "Chudów",
                "addr:postcode": "44-177",
                "amenity": "pharmacy",
                "dispensing": "yes"
            },
            "geometry": {
                "type": "Point",
                "coordinates": [
                    18.778364122762063,
                    50.211407403434016
                ]
            }
        },
        {
            "type": "Feature",
            "properties": {
                "ref:csioz": 1200996,
                "name": "Apteka Słoneczna",
                "addr:street": "Władysława Łokietka",
                "addr:housenumber": "1B",
                "addr:city": "Knurów",
                "addr:postcode": "44-194",
                "amenity": "pharmacy",
                "dispensing": "yes"
            },
            "geometry": {
                "type": "Point",
                "coordinates": [
                    18.66207877264084,
                    50.23007275417826
                ]
            }
        },
        {
            "type": "Feature",
            "properties": {
                "ref:csioz": 1226318,
                "addr:street": "Dworcowa",
                "addr:housenumber": "3",
                "addr:city": "Knurów",
                "addr:postcode": "44-190",
                "amenity": "pharmacy",
                "dispensing": "yes"
            },
            "geometry": {
                "type": "Point",
                "coordinates": [
                    18.67277968724954,
                    50.22154141749701
                ]
            }
        },
        {
            "type": "Feature",
            "properties": {
                "ref:csioz": 1061795,
                "name": "Św. Barbary",
                "addr:street": "Księdza Roboty",
                "addr:housenumber": "76",
                "addr:city": "Gierałtowice",
                "addr:postcode": "44-186",
                "amenity": "pharmacy",
                "dispensing": "yes"
            },
            "geometry": {
                "type": "Point",
                "coordinates": [
                    18.72085433042193,
                    50.22286913275049
                ]
            }
        },
        {
            "type": "Feature",
            "properties": {
                "ref:csioz": 1064747,
                "name": "Apteka Św. Barbary 6",
                "addr:street": "1 Maja",
                "addr:housenumber": "7",
                "addr:city": "Knurów",
                "addr:postcode": "44-190",
                "amenity": "pharmacy",
                "dispensing": "yes"
            },
            "geometry": {
                "type": "Point",
                "coordinates": [
                    18.67078285135198,
                    50.22333482090339
                ]
            }
        },
        {
            "type": "Feature",
            "properties": {
                "ref:csioz": 1064760,
                "name": "Św. Barbary 4",
                "addr:street": "Stefana Batorego",
                "addr:housenumber": "1",
                "addr:city": "Knurów",
                "addr:postcode": "44-194",
                "amenity": "pharmacy",
                "dispensing": "yes"
            },
            "geometry": {
                "type": "Point",
                "coordinates": [
                    18.657148314671968,
                    50.227668372275204
                ]
            }
        },
        {
            "type": "Feature",
            "properties": {
                "ref:csioz": 1064771,
                "name": "Brak",
                "addr:street": "Stefana Batorego",
                "addr:housenumber": "4",
                "addr:city": "Knurów",
                "addr:postcode": "44-194",
                "amenity": "pharmacy",
                "dispensing": "yes"
            },
            "geometry": {
                "type": "Point",
                "coordinates": [
                    18.658657972973813,
                    50.228575796520786
                ]
            }
        },
        {
            "type": "Feature",
            "properties": {
                "ref:csioz": 1064783,
                "name": "Doz Apteka Dbam O Zdrowie",
                "addr:street": "Dworcowa",
                "addr:housenumber": "3",
                "addr:city": "Knurów",
                "addr:postcode": "44-190",
                "amenity": "pharmacy",
                "dispensing": "yes"
            },
            "geometry": {
                "type": "Point",
                "coordinates": [
                    18.67277968724954,
                    50.221511417497005
                ]
            }
        },
        {
            "type": "Feature",
            "properties": {
                "ref:csioz": 1064794,
                "name": "Św. Barbary",
                "addr:street": "Kazimierza Wielkiego",
                "addr:housenumber": "13",
                "addr:city": "Knurów",
                "addr:postcode": "44-194",
                "amenity": "pharmacy",
                "dispensing": "yes"
            },
            "geometry": {
                "type": "Point",
                "coordinates": [
                    18.66217784924964,
                    50.229639956333145
                ]
            }
        },
        {
            "type": "Feature",
            "properties": {
                "ref:csioz": 1064806,
                "name": "Św.Barbary",
                "addr:street": "ks. Alojzego Koziełka",
                "addr:housenumber": "8",
                "addr:city": "Knurów",
                "addr:postcode": "44-190",
                "amenity": "pharmacy",
                "dispensing": "yes"
            },
            "geometry": {
                "type": "Point",
                "coordinates": [
                    18.67498754968888,
                    50.22273682176349
                ]
            }
        },
        {
            "type": "Feature",
            "properties": {
                "ref:csioz": 1064811,
                "name": "Dbam O Zdrowie",
                "addr:street": "Niepodległości",
                "addr:housenumber": "14",
                "addr:city": "Knurów",
                "addr:postcode": "44-190",
                "amenity": "pharmacy",
                "dispensing": "yes"
            },
            "geometry": {
                "type": "Point",
                "coordinates": [
                    18.66612844413479,
                    50.22034894479802
                ]
            }
        },
        {
            "type": "Feature",
            "properties": {
                "ref:csioz": 1066932,
                "name": "Apteka Św. Anny",
                "addr:street": "Polna",
                "addr:housenumber": "29B",
                "addr:city": "Przyszowice",
                "addr:postcode": "44-178",
                "amenity": "pharmacy",
                "dispensing": "yes"
            },
            "geometry": {
                "type": "Point",
                "coordinates": [
                    18.742246671090264,
                    50.24344518551176
                ]
            }
        },
        {
            "type": "Feature",
            "properties": {
                "ref:csioz": 1067188,
                "name": "Galenova",
                "addr:street": "gen. Władysława Sikorskiego",
                "addr:housenumber": "83",
                "addr:city": "Pyskowice",
                "addr:postcode": "44-120",
                "amenity": "pharmacy",
                "dispensing": "yes"
            },
            "geometry": {
                "type": "Point",
                "coordinates": [
                    18.615302223414545,
                    50.38745724666291
                ]
            }
        },
        {
            "type": "Feature",
            "properties": {
                "ref:csioz": 1069712,
                "name": "Margofarm",
                "addr:street": "Gliwicka",
                "addr:housenumber": "19",
                "addr:city": "Sośnicowice",
                "addr:postcode": "44-153",
                "amenity": "pharmacy",
                "dispensing": "yes"
            },
            "geometry": {
                "type": "Point",
                "coordinates": [
                    18.53340554779439,
                    50.27120861398786
                ]
            }
        },
        {
            "type": "Feature",
            "properties": {
                "ref:csioz": 1070246,
                "name": "Piast",
                "addr:street": "Strzelecka",
                "addr:housenumber": "2",
                "addr:city": "Toszek",
                "addr:postcode": "44-180",
                "amenity": "pharmacy",
                "dispensing": "yes"
            },
            "geometry": {
                "type": "Point",
                "coordinates": [
                    18.51990376646928,
                    50.4546333168231
                ]
            }
        },
        {
            "type": "Feature",
            "properties": {
                "ref:csioz": 1074271,
                "name": "Szpital W Knurowie",
                "addr:street": "NIEPODLEGŁOŚCI",
                "addr:housenumber": "8",
                "addr:city": "KNURÓW",
                "addr:postcode": "44-190",
                "amenity": "pharmacy",
                "dispensing": "yes"
            },
            "geometry": {
                "type": "Point",
                "coordinates": [
                    18.667774689878296,
                    50.221447405059024
                ]
            }
        },
        {
            "type": "Feature",
            "properties": {
                "ref:csioz": 1074328,
                "name": "Szpital W Pyskowicach Spółka Z Ograniczoną Odpowiedzialnością",
                "addr:street": "SZPITALNA",
                "addr:housenumber": "2",
                "addr:city": "PYSKOWICE",
                "addr:postcode": "44-120",
                "amenity": "pharmacy",
                "dispensing": "yes"
            },
            "geometry": {
                "type": "Point",
                "coordinates": [
                    18.623397376902197,
                    50.399119661631175
                ]
            }
        },
        {
            "type": "Feature",
            "properties": {
                "ref:csioz": 1074408,
                "name": "Szpital Psychiatryczny W Toszku",
                "addr:street": "GLIWICKA",
                "addr:housenumber": "5",
                "addr:city": "TOSZEK",
                "addr:postcode": "44-180",
                "amenity": "pharmacy",
                "dispensing": "yes"
            },
            "geometry": {
                "type": "Point",
                "coordinates": [
                    18.522203748932395,
                    50.45336805909927
                ]
            }
        },
        {
            "type": "Feature",
            "properties": {
                "ref:csioz": 1183816,
                "name": "Apteka Zdrowit",
                "addr:street": "Szpitalna",
                "addr:housenumber": "25A",
                "addr:city": "Knurów",
                "addr:postcode": "44-194",
                "amenity": "pharmacy",
                "dispensing": "yes"
            },
            "geometry": {
                "type": "Point",
                "coordinates": [
                    18.655471148432063,
                    50.227771946926694
                ]
            }
        },
        {
            "type": "Feature",
            "properties": {
                "ref:csioz": 1198839,
                "name": "Zakład Pielęgnacyjno - Opiekuńczy Nadzieja",
                "addr:street": "Parkowa",
                "addr:housenumber": "1a",
                "addr:city": "Knurów",
                "addr:postcode": "44-193",
                "amenity": "pharmacy",
                "dispensing": "yes"
            },
            "geometry": {
                "type": "Point",
                "coordinates": [
                    18.624306642321393,
                    50.18900006588436
                ]
            }
        },
        {
            "type": "Feature",
            "properties": {
                "ref:csioz": 1203638,
                "name": "Apteka Słoneczna",
                "addr:street": "Szopena",
                "addr:housenumber": "9",
                "addr:city": "Pyskowice",
                "addr:postcode": "44-120",
                "amenity": "pharmacy",
                "dispensing": "yes"
            },
            "geometry": {
                "type": "Point",
                "coordinates": [
                    18.62838496571468,
                    50.40342147300347
                ]
            }
        },
        {
            "type": "Feature",
            "properties": {
                "ref:csioz": 1210932,
                "name": "Apteka Sąsiedzka",
                "addr:street": "ul. Główna",
                "addr:housenumber": "47",
                "addr:city": "Wielowieś",
                "addr:postcode": "44-187",
                "amenity": "pharmacy",
                "dispensing": "yes"
            },
            "geometry": {
                "type": "Point",
                "coordinates": [
                    18.61498757650924,
                    50.50856351820633
                ]
            }
        },
        {
            "type": "Feature",
            "properties": {
                "ref:csioz": 1212344,
                "name": "Apteka Św. Barbary",
                "addr:street": "Dworcowa",
                "addr:housenumber": "22",
                "addr:city": "Pilchowice",
                "addr:postcode": "44-145",
                "amenity": "pharmacy",
                "dispensing": "yes"
            },
            "geometry": {
                "type": "Point",
                "coordinates": [
                    18.563027873457944,
                    50.214236077704655
                ]
            }
        },
        {
            "type": "Feature",
            "properties": {
                "ref:csioz": 1218617,
                "name": "Apteka Św. Barbary",
                "addr:street": "Parkowa",
                "addr:housenumber": "2 b",
                "addr:city": "Przyszowice",
                "addr:postcode": "44-178",
                "amenity": "pharmacy",
                "dispensing": "yes"
            },
            "geometry": {
                "type": "Point",
                "coordinates": [
                    18.744425603189043,
                    50.244870693997015
                ]
            }
        },
        {
            "type": "Feature",
            "properties": {
                "ref:csioz": 1220681,
                "name": "Apteka Główna",
                "addr:street": "Gliwicka",
                "addr:housenumber": "11",
                "addr:city": "Toszek",
                "addr:postcode": "44-180",
                "amenity": "pharmacy",
                "dispensing": "yes"
            },
            "geometry": {
                "type": "Point",
                "coordinates": [
                    18.521495026955723,
                    50.45395805275786
                ]
            }
        },
        {
            "type": "Feature",
            "properties": {
                "ref:csioz": 1226347,
                "name": "Szpital Nieborowice Sp. Z O.O.",
                "addr:street": "Kasztanowa",
                "addr:housenumber": "5",
                "addr:city": "Nieborowice",
                "addr:postcode": "44-144",
                "amenity": "pharmacy",
                "dispensing": "yes"
            },
            "geometry": {
                "type": "Point",
                "coordinates": [
                    18.611134500368966,
                    50.221734885576566
                ]
            }
        }
    ]
}