{
    "type": "FeatureCollection",
    "name": "JPT_KOD_JE_3020",
    "features": [
        {
            "type": "Feature",
            "properties": {
                "ref:csioz": 1051858,
                "name": "Medicor",
                "addr:street": "ŚW. DUCHA",
                "addr:housenumber": "4A",
                "addr:city": "PLESZEW",
                "addr:postcode": "63-300",
                "amenity": "pharmacy",
                "dispensing": "yes"
            },
            "geometry": {
                "type": "Point",
                "coordinates": [
                    17.7835579999994,
                    51.89782200001531
                ]
            }
        },
        {
            "type": "Feature",
            "properties": {
                "ref:csioz": 1052038,
                "name": "Doz Apteka. Dbam O Zdrowie Multi-Vit",
                "addr:street": "KAZIMIERZA WIELKIEGO",
                "addr:housenumber": "11",
                "addr:city": "PLESZEW",
                "addr:postcode": "63-300",
                "amenity": "pharmacy",
                "dispensing": "yes"
            },
            "geometry": {
                "type": "Point",
                "coordinates": [
                    17.778829701242707,
                    51.8880535784922
                ]
            }
        },
        {
            "type": "Feature",
            "properties": {
                "ref:csioz": 1052233,
                "name": "Przy Kaliskiej",
                "addr:street": "KALISKA",
                "addr:housenumber": "20A",
                "addr:city": "PLESZEW",
                "addr:postcode": "63-300",
                "amenity": "pharmacy",
                "dispensing": "yes"
            },
            "geometry": {
                "type": "Point",
                "coordinates": [
                    17.789145003987763,
                    51.89526513967131
                ]
            }
        },
        {
            "type": "Feature",
            "properties": {
                "ref:csioz": 1052430,
                "name": "Medicor",
                "addr:street": "K.I.GAŁCZYŃSKIEGO",
                "addr:housenumber": "1",
                "addr:city": "PLESZEW",
                "addr:postcode": "63-300",
                "amenity": "pharmacy",
                "dispensing": "yes"
            },
            "geometry": {
                "type": "Point",
                "coordinates": [
                    17.76507899999938,
                    51.899019000015315
                ]
            }
        },
        {
            "type": "Feature",
            "properties": {
                "ref:csioz": 1052612,
                "name": "Remedium",
                "addr:street": "KOŹMIŃSKA",
                "addr:housenumber": "2",
                "addr:city": "DOBRZYCA",
                "addr:postcode": "63-330",
                "amenity": "pharmacy",
                "dispensing": "yes"
            },
            "geometry": {
                "type": "Point",
                "coordinates": [
                    17.602410308791967,
                    51.866985305566786
                ]
            }
        },
        {
            "type": "Feature",
            "properties": {
                "ref:csioz": 1052648,
                "addr:housenumber": "36A",
                "addr:postcode": "63-300",
                "amenity": "pharmacy",
                "addr:place": "SOWINA BŁOTNA",
                "dispensing": "yes"
            },
            "geometry": {
                "type": "Point",
                "coordinates": [
                    17.7893109079557,
                    51.83401862552012
                ]
            }
        },
        {
            "type": "Feature",
            "properties": {
                "ref:csioz": 1052792,
                "addr:street": "POZNAŃSKA",
                "addr:housenumber": "125A",
                "addr:city": "PLESZEW",
                "addr:postcode": "63-300",
                "amenity": "pharmacy",
                "dispensing": "yes"
            },
            "geometry": {
                "type": "Point",
                "coordinates": [
                    17.76603249459821,
                    51.89758581244599
                ]
            }
        },
        {
            "type": "Feature",
            "properties": {
                "ref:csioz": 1052807,
                "name": "Panaceum",
                "addr:housenumber": "17",
                "addr:postcode": "63-304",
                "amenity": "pharmacy",
                "addr:place": "CZERMIN",
                "dispensing": "yes"
            },
            "geometry": {
                "type": "Point",
                "coordinates": [
                    17.7486946622684,
                    51.94918540273861
                ]
            }
        },
        {
            "type": "Feature",
            "properties": {
                "ref:csioz": 1052829,
                "addr:street": "KALISKA",
                "addr:housenumber": "23",
                "addr:city": "GIZAŁKI",
                "addr:postcode": "63-308",
                "amenity": "pharmacy",
                "dispensing": "yes"
            },
            "geometry": {
                "type": "Point",
                "coordinates": [
                    17.769919164986327,
                    52.04200795330521
                ]
            }
        },
        {
            "type": "Feature",
            "properties": {
                "ref:csioz": 1053261,
                "name": "Medicor",
                "addr:street": "RÓŻANA",
                "addr:housenumber": "1",
                "addr:city": "DOBRZYCA",
                "addr:postcode": "63-330",
                "amenity": "pharmacy",
                "dispensing": "yes"
            },
            "geometry": {
                "type": "Point",
                "coordinates": [
                    17.602182287784046,
                    51.862146559224286
                ]
            }
        },
        {
            "type": "Feature",
            "properties": {
                "ref:csioz": 1118683,
                "addr:street": "E. BOJANOWSKIEGO",
                "addr:housenumber": "1",
                "addr:city": "PLESZEW",
                "addr:postcode": "63-300",
                "amenity": "pharmacy",
                "dispensing": "yes"
            },
            "geometry": {
                "type": "Point",
                "coordinates": [
                    17.764226946758857,
                    51.89904310145802
                ]
            }
        },
        {
            "type": "Feature",
            "properties": {
                "ref:csioz": 1201737,
                "name": "Apteka Szpitalna",
                "addr:street": "Poznańska",
                "addr:housenumber": "125 A",
                "addr:city": "Pleszew",
                "addr:postcode": "63-300",
                "amenity": "pharmacy",
                "dispensing": "yes"
            },
            "geometry": {
                "type": "Point",
                "coordinates": [
                    17.76603249459821,
                    51.89758581244599
                ]
            }
        },
        {
            "type": "Feature",
            "properties": {
                "ref:csioz": 1052153,
                "name": "Pro-Vita",
                "addr:street": "Poznańska",
                "addr:housenumber": "58",
                "addr:city": "Pleszew",
                "addr:postcode": "63-300",
                "amenity": "pharmacy",
                "dispensing": "yes"
            },
            "geometry": {
                "type": "Point",
                "coordinates": [
                    17.777992088732297,
                    51.89718229036377
                ]
            }
        },
        {
            "type": "Feature",
            "properties": {
                "ref:csioz": 1052496,
                "name": "Pod Wagą",
                "addr:street": "KAZIMIERZA WIELKIEGO",
                "addr:housenumber": "21",
                "addr:city": "PLESZEW",
                "addr:postcode": "63-300",
                "amenity": "pharmacy",
                "dispensing": "yes"
            },
            "geometry": {
                "type": "Point",
                "coordinates": [
                    17.7787451200084,
                    51.88777954331336
                ]
            }
        },
        {
            "type": "Feature",
            "properties": {
                "ref:csioz": 1052526,
                "name": "Grodzka",
                "addr:street": "SIENKIEWICZA",
                "addr:housenumber": "43",
                "addr:city": "PLESZEW",
                "addr:postcode": "63-300",
                "amenity": "pharmacy",
                "dispensing": "yes"
            },
            "geometry": {
                "type": "Point",
                "coordinates": [
                    17.785647096419986,
                    51.89098801122718
                ]
            }
        },
        {
            "type": "Feature",
            "properties": {
                "ref:csioz": 1052699,
                "name": "Apteka Dbam O Zdrowie",
                "addr:street": "RYNEK",
                "addr:housenumber": "21",
                "addr:city": "PLESZEW",
                "addr:postcode": "63-300",
                "amenity": "pharmacy",
                "dispensing": "yes"
            },
            "geometry": {
                "type": "Point",
                "coordinates": [
                    17.78568532184994,
                    51.895890029982226
                ]
            }
        },
        {
            "type": "Feature",
            "properties": {
                "ref:csioz": 1052700,
                "name": "Apteka Dbam O Zdrowie",
                "addr:street": "PLAC KOŚCIELNY",
                "addr:housenumber": "3",
                "addr:city": "PLESZEW",
                "addr:postcode": "63-300",
                "amenity": "pharmacy",
                "dispensing": "yes"
            },
            "geometry": {
                "type": "Point",
                "coordinates": [
                    17.787795838095477,
                    51.896342347090496
                ]
            }
        },
        {
            "type": "Feature",
            "properties": {
                "ref:csioz": 1052776,
                "name": "Pod Rumiankiem",
                "addr:street": "DASZYŃSKIEGO",
                "addr:housenumber": "13",
                "addr:city": "PLESZEW",
                "addr:postcode": "63-300",
                "amenity": "pharmacy",
                "dispensing": "yes"
            },
            "geometry": {
                "type": "Point",
                "coordinates": [
                    17.78586433936016,
                    51.89725244439728
                ]
            }
        },
        {
            "type": "Feature",
            "properties": {
                "ref:csioz": 1176541,
                "name": "Nova",
                "addr:street": "Słowackiego",
                "addr:housenumber": "16",
                "addr:city": "Pleszew",
                "addr:postcode": "63-300",
                "amenity": "pharmacy",
                "dispensing": "yes"
            },
            "geometry": {
                "type": "Point",
                "coordinates": [
                    17.78072668169662,
                    51.89312517424512
                ]
            }
        },
        {
            "type": "Feature",
            "properties": {
                "ref:csioz": 1180391,
                "name": "Nova",
                "addr:street": "Szpitalna",
                "addr:housenumber": "21",
                "addr:city": "Pleszew",
                "addr:postcode": "63-300",
                "amenity": "pharmacy",
                "dispensing": "yes"
            },
            "geometry": {
                "type": "Point",
                "coordinates": [
                    17.764103999999385,
                    51.8963990000153
                ]
            }
        },
        {
            "type": "Feature",
            "properties": {
                "ref:csioz": 1207533,
                "name": "Nova",
                "addr:street": "Kaliska",
                "addr:housenumber": "21",
                "addr:city": "Pleszew",
                "addr:postcode": "63-300",
                "amenity": "pharmacy",
                "dispensing": "yes"
            },
            "geometry": {
                "type": "Point",
                "coordinates": [
                    17.79064196245545,
                    51.8954815562943
                ]
            }
        },
        {
            "type": "Feature",
            "properties": {
                "ref:csioz": 1053155,
                "name": "Retiro",
                "addr:street": "PLESZEWSKA",
                "addr:housenumber": "4",
                "addr:city": "CHOCZ",
                "addr:postcode": "63-313",
                "amenity": "pharmacy",
                "dispensing": "yes"
            },
            "geometry": {
                "type": "Point",
                "coordinates": [
                    17.8690388834203,
                    51.976141834479286
                ]
            }
        },
        {
            "type": "Feature",
            "properties": {
                "ref:csioz": 1052657,
                "name": "Pod Platanem",
                "addr:street": "MICKIEWICZA",
                "addr:housenumber": "1A",
                "addr:city": "GOŁUCHÓW",
                "addr:postcode": "63-322",
                "amenity": "pharmacy",
                "dispensing": "yes"
            },
            "geometry": {
                "type": "Point",
                "coordinates": [
                    17.929538923216654,
                    51.84910156824659
                ]
            }
        }
    ]
}