{
    "type": "FeatureCollection",
    "name": "JPT_KOD_JE_0613",
    "features": [
        {
            "type": "Feature",
            "properties": {
                "ref:csioz": 1156264,
                "addr:housenumber": "46A",
                "addr:postcode": "21-222",
                "amenity": "pharmacy",
                "addr:place": "Podedwórze"
            },
            "geometry": {
                "type": "Point",
                "coordinates": [
                    23.196848536121703,
                    51.68982348673181
                ]
            }
        },
        {
            "type": "Feature",
            "properties": {
                "ref:csioz": 1209825,
                "name": "\"Punkt Apteczny \"\"Vita\"\"\"",
                "addr:housenumber": "64",
                "addr:postcode": "21-211",
                "amenity": "pharmacy",
                "addr:place": "Kodeniec"
            },
            "geometry": {
                "type": "Point",
                "coordinates": [
                    23.12486800008929,
                    51.60854900001659
                ]
            }
        },
        {
            "type": "Feature",
            "properties": {
                "ref:csioz": 1156163,
                "name": "Apteka Prywatna Maria Wróbel",
                "addr:street": "3-go Maja",
                "addr:housenumber": "3",
                "addr:city": "Jabłoń",
                "addr:postcode": "21-205",
                "amenity": "pharmacy"
            },
            "geometry": {
                "type": "Point",
                "coordinates": [
                    23.086258000083678,
                    51.72452500001665
                ]
            }
        },
        {
            "type": "Feature",
            "properties": {
                "ref:csioz": 1156614,
                "addr:street": "Mickiewicza",
                "addr:housenumber": "8",
                "addr:city": "Sosnowica",
                "addr:postcode": "21-230",
                "amenity": "pharmacy"
            },
            "geometry": {
                "type": "Point",
                "coordinates": [
                    23.09220425990794,
                    51.52192713706582
                ]
            }
        },
        {
            "type": "Feature",
            "properties": {
                "ref:csioz": 1157043,
                "name": "Apteka Promienna",
                "addr:street": "Wojska Polskiego",
                "addr:housenumber": "37",
                "addr:city": "Sosnowica",
                "addr:postcode": "21-230",
                "amenity": "pharmacy"
            },
            "geometry": {
                "type": "Point",
                "coordinates": [
                    23.092582741427762,
                    51.52040824862591
                ]
            }
        },
        {
            "type": "Feature",
            "properties": {
                "ref:csioz": 1155664,
                "name": "Milenium",
                "addr:street": "11 Listopada",
                "addr:housenumber": "11",
                "addr:city": "Parczew",
                "addr:postcode": "21-200",
                "amenity": "pharmacy"
            },
            "geometry": {
                "type": "Point",
                "coordinates": [
                    22.9021528275473,
                    51.64221431565265
                ]
            }
        },
        {
            "type": "Feature",
            "properties": {
                "ref:csioz": 1155816,
                "name": "Nasze Apteki",
                "addr:street": "Warszawska",
                "addr:housenumber": "14",
                "addr:city": "Parczew",
                "addr:postcode": "21-200",
                "amenity": "pharmacy"
            },
            "geometry": {
                "type": "Point",
                "coordinates": [
                    22.898904904077845,
                    51.640244579201244
                ]
            }
        },
        {
            "type": "Feature",
            "properties": {
                "ref:csioz": 1156045,
                "addr:street": "Stawowa",
                "addr:housenumber": "1B",
                "addr:city": "Siemień",
                "addr:postcode": "21-220",
                "amenity": "pharmacy"
            },
            "geometry": {
                "type": "Point",
                "coordinates": [
                    22.77279500005697,
                    51.628829000015784
                ]
            }
        },
        {
            "type": "Feature",
            "properties": {
                "ref:csioz": 1156278,
                "name": "Apteka Przyszpitalna",
                "addr:street": "Kościelna",
                "addr:housenumber": "136",
                "addr:city": "Parczew",
                "addr:postcode": "21-200",
                "amenity": "pharmacy"
            },
            "geometry": {
                "type": "Point",
                "coordinates": [
                    22.912710757159886,
                    51.634814151362114
                ]
            }
        },
        {
            "type": "Feature",
            "properties": {
                "ref:csioz": 1156502,
                "name": "Apteka Eskulap",
                "addr:street": "Kościelna",
                "addr:housenumber": "19",
                "addr:city": "Parczew",
                "addr:postcode": "21-200",
                "amenity": "pharmacy"
            },
            "geometry": {
                "type": "Point",
                "coordinates": [
                    22.900968207683267,
                    51.64002926837706
                ]
            }
        },
        {
            "type": "Feature",
            "properties": {
                "ref:csioz": 1044121,
                "name": "Hibiscus",
                "addr:housenumber": "15",
                "addr:flats": "1",
                "addr:postcode": "62-271",
                "amenity": "pharmacy",
                "addr:place": "DZIAŁYŃ"
            },
            "geometry": {
                "type": "Point",
                "coordinates": [
                    22.715134187933057,
                    51.60284299766452
                ]
            }
        },
        {
            "type": "Feature",
            "properties": {
                "ref:csioz": 1106657,
                "addr:housenumber": "140",
                "addr:postcode": "21-220",
                "amenity": "pharmacy",
                "addr:place": "\"Siemień, Gródek Szlachecki\""
            },
            "geometry": {
                "type": "Point",
                "coordinates": [
                    22.79393800005901,
                    51.578082000015726
                ]
            }
        },
        {
            "type": "Feature",
            "properties": {
                "ref:csioz": 1155535,
                "addr:street": "Spółdzielcza",
                "addr:housenumber": "9A",
                "addr:city": "Parczew",
                "addr:postcode": "21-200",
                "amenity": "pharmacy"
            },
            "geometry": {
                "type": "Point",
                "coordinates": [
                    22.90800983862412,
                    51.64209786791163
                ]
            }
        },
        {
            "type": "Feature",
            "properties": {
                "ref:csioz": 1155966,
                "addr:street": "Plac Wolności",
                "addr:housenumber": "9",
                "addr:city": "Parczew",
                "addr:postcode": "21-200",
                "amenity": "pharmacy"
            },
            "geometry": {
                "type": "Point",
                "coordinates": [
                    22.89918908510578,
                    51.641041065556244
                ]
            }
        },
        {
            "type": "Feature",
            "properties": {
                "ref:csioz": 1189971,
                "name": "Apteka Szpitalna",
                "addr:street": "Kościelna",
                "addr:housenumber": "136",
                "addr:city": "Parczew",
                "addr:postcode": "21-200",
                "amenity": "pharmacy"
            },
            "geometry": {
                "type": "Point",
                "coordinates": [
                    22.912710757159886,
                    51.634814151362114
                ]
            }
        },
        {
            "type": "Feature",
            "properties": {
                "ref:csioz": 1191188,
                "name": "Apteka Społeczna",
                "addr:street": "Zwycięstwa",
                "addr:housenumber": "9",
                "addr:flats": "1.5B",
                "addr:city": "Parczew",
                "addr:postcode": "21-200",
                "amenity": "pharmacy"
            },
            "geometry": {
                "type": "Point",
                "coordinates": [
                    22.91248546964736,
                    51.64122359094317
                ]
            }
        },
        {
            "type": "Feature",
            "properties": {
                "ref:csioz": 1203528,
                "name": "-",
                "addr:street": "PCK",
                "addr:housenumber": "1",
                "addr:city": "Parczew",
                "addr:postcode": "21-200",
                "amenity": "pharmacy"
            },
            "geometry": {
                "type": "Point",
                "coordinates": [
                    22.9031703253178,
                    51.641820489318455
                ]
            }
        },
        {
            "type": "Feature",
            "properties": {
                "ref:csioz": 1219579,
                "name": "Punkt Apteczny Rodzinny",
                "addr:street": "Osiedlowa",
                "addr:housenumber": "2B",
                "addr:city": "Milanów",
                "addr:postcode": "21-210",
                "amenity": "pharmacy"
            },
            "geometry": {
                "type": "Point",
                "coordinates": [
                    22.89260519116099,
                    51.70062340833978
                ]
            }
        },
        {
            "type": "Feature",
            "properties": {
                "ref:csioz": 1220608,
                "name": "-",
                "addr:street": "Kościelna",
                "addr:housenumber": "117",
                "addr:city": "Parczew",
                "addr:postcode": "21-200",
                "amenity": "pharmacy"
            },
            "geometry": {
                "type": "Point",
                "coordinates": [
                    22.912473045748268,
                    51.6354513768747
                ]
            }
        },
        {
            "type": "Feature",
            "properties": {
                "ref:csioz": 1229287,
                "name": "Dział Farmacji Szpitalnej",
                "addr:street": "Nowa",
                "addr:housenumber": "1a",
                "addr:city": "Milanów",
                "addr:postcode": "21-210",
                "amenity": "pharmacy"
            },
            "geometry": {
                "type": "Point",
                "coordinates": [
                    22.888913668341484,
                    51.698100233506395
                ]
            }
        }
    ]
}