{
    "type": "FeatureCollection",
    "name": "JPT_KOD_JE_2468",
    "features": [
        {
            "type": "Feature",
            "properties": {
                "ref:csioz": 1057183,
                "name": "Niepubliczny Zakład Opieki Zdrowotnej Hospicjum Homo-Homini Im. Św. Brata Alberta W Jaworznie",
                "addr:street": "Górnicza",
                "addr:housenumber": "30",
                "addr:city": "Jaworzno",
                "addr:postcode": "43-600",
                "amenity": "pharmacy"
            },
            "geometry": {
                "type": "Point",
                "coordinates": [
                    19.273482696516005,
                    50.19687232664599
                ]
            }
        },
        {
            "type": "Feature",
            "properties": {
                "ref:csioz": 1062989,
                "name": "Panaceum",
                "addr:street": "aleja marsz. Józefa Piłsudskiego",
                "addr:housenumber": "27",
                "addr:city": "Jaworzno",
                "addr:postcode": "43-609",
                "amenity": "pharmacy"
            },
            "geometry": {
                "type": "Point",
                "coordinates": [
                    19.24959640038868,
                    50.2093687772355
                ]
            }
        },
        {
            "type": "Feature",
            "properties": {
                "ref:csioz": 1063119,
                "name": "Melissa",
                "addr:street": "KATOWICKA",
                "addr:housenumber": "57",
                "addr:city": "JAWORZNO",
                "addr:postcode": "43-603",
                "amenity": "pharmacy"
            },
            "geometry": {
                "type": "Point",
                "coordinates": [
                    19.202841739451753,
                    50.2277647604538
                ]
            }
        },
        {
            "type": "Feature",
            "properties": {
                "ref:csioz": 1063124,
                "name": "Brak Nazwy",
                "addr:street": "Koszarowa",
                "addr:housenumber": "1",
                "addr:city": "Jaworzno",
                "addr:postcode": "43-602",
                "amenity": "pharmacy"
            },
            "geometry": {
                "type": "Point",
                "coordinates": [
                    19.293517694756282,
                    50.241694721277305
                ]
            }
        },
        {
            "type": "Feature",
            "properties": {
                "ref:csioz": 1063181,
                "name": "W Kostkach",
                "addr:street": "Karola Olszewskiego",
                "addr:housenumber": "2 A",
                "addr:city": "Jaworzno",
                "addr:postcode": "43-600",
                "amenity": "pharmacy"
            },
            "geometry": {
                "type": "Point",
                "coordinates": [
                    19.276799844470805,
                    50.198423498002654
                ]
            }
        },
        {
            "type": "Feature",
            "properties": {
                "ref:csioz": 1063197,
                "name": "Organika",
                "addr:street": "Ignacego Paderewskiego",
                "addr:housenumber": "1",
                "addr:city": "Jaworzno",
                "addr:postcode": "43-600",
                "amenity": "pharmacy"
            },
            "geometry": {
                "type": "Point",
                "coordinates": [
                    19.27101200000007,
                    50.205148000012784
                ]
            }
        },
        {
            "type": "Feature",
            "properties": {
                "ref:csioz": 1063227,
                "name": "Apteka Blisko Ciebie",
                "addr:street": "plac Górników",
                "addr:housenumber": "5A",
                "addr:city": "Jaworzno",
                "addr:postcode": "43-600",
                "amenity": "pharmacy"
            },
            "geometry": {
                "type": "Point",
                "coordinates": [
                    19.27077245027083,
                    50.20216655513702
                ]
            }
        },
        {
            "type": "Feature",
            "properties": {
                "ref:csioz": 1063234,
                "name": "Mgfarm",
                "addr:street": "Pocztowa",
                "addr:housenumber": "13",
                "addr:city": "Jaworzno",
                "addr:postcode": "43-600",
                "amenity": "pharmacy"
            },
            "geometry": {
                "type": "Point",
                "coordinates": [
                    19.27613136436864,
                    50.200743569488765
                ]
            }
        },
        {
            "type": "Feature",
            "properties": {
                "ref:csioz": 1179087,
                "name": "Apteka Rodzinna Pod Arkadami",
                "addr:street": "Jana Matejki",
                "addr:housenumber": "24c",
                "addr:city": "Jaworzno",
                "addr:postcode": "43-600",
                "amenity": "pharmacy"
            },
            "geometry": {
                "type": "Point",
                "coordinates": [
                    19.26908294177152,
                    50.1993523368957
                ]
            }
        },
        {
            "type": "Feature",
            "properties": {
                "ref:csioz": 1206041,
                "name": "Apteka Zdrowit+",
                "addr:street": "Henryka Sienkiewicza",
                "addr:housenumber": "2A",
                "addr:city": "Jaworzno",
                "addr:postcode": "43-600",
                "amenity": "pharmacy"
            },
            "geometry": {
                "type": "Point",
                "coordinates": [
                    19.274877003129824,
                    50.20279628428838
                ]
            }
        },
        {
            "type": "Feature",
            "properties": {
                "ref:csioz": 1063143,
                "name": "Apteka Tęczowa",
                "addr:street": "Jana Matejki",
                "addr:housenumber": "4 B",
                "addr:city": "Jaworzno",
                "addr:postcode": "43-600",
                "amenity": "pharmacy"
            },
            "geometry": {
                "type": "Point",
                "coordinates": [
                    19.27218100000008,
                    50.20082200001279
                ]
            }
        },
        {
            "type": "Feature",
            "properties": {
                "ref:csioz": 1056921,
                "name": "Leczenie Szpitalne",
                "addr:street": "Chełmońskiego",
                "addr:housenumber": "28",
                "addr:city": "Jaworzno",
                "addr:postcode": "43-600",
                "amenity": "pharmacy"
            },
            "geometry": {
                "type": "Point",
                "coordinates": [
                    19.28417473576069,
                    50.20556243868364
                ]
            }
        },
        {
            "type": "Feature",
            "properties": {
                "ref:csioz": 1057333,
                "name": "Samodzielny Publiczny Zakład Opieki Zdrowotnej Zakład Pielęgnacyjno-Opiekuńczy",
                "addr:street": "Zawiszy Czarnego",
                "addr:housenumber": "4",
                "addr:city": "Jaworzno",
                "addr:postcode": "43-600",
                "amenity": "pharmacy"
            },
            "geometry": {
                "type": "Point",
                "coordinates": [
                    19.352672409745356,
                    50.21169825082194
                ]
            }
        },
        {
            "type": "Feature",
            "properties": {
                "ref:csioz": 1063162,
                "name": "Paracelsus",
                "addr:street": "ks. Andrzeja Mroczka",
                "addr:housenumber": "72 A",
                "addr:city": "Jaworzno",
                "addr:postcode": "43-600",
                "amenity": "pharmacy"
            },
            "geometry": {
                "type": "Point",
                "coordinates": [
                    19.34615697722165,
                    50.21640586978313
                ]
            }
        },
        {
            "type": "Feature",
            "properties": {
                "ref:csioz": 1063093,
                "name": "Apteka Tęczowa",
                "addr:street": "Jana Matejki",
                "addr:housenumber": "25",
                "addr:city": "Jaworzno",
                "addr:postcode": "43-600",
                "amenity": "pharmacy"
            },
            "geometry": {
                "type": "Point",
                "coordinates": [
                    19.268481149849556,
                    50.19743262813728
                ]
            }
        },
        {
            "type": "Feature",
            "properties": {
                "ref:csioz": 1063007,
                "name": "Mgfarm",
                "addr:street": "aleja Tysiąclecia",
                "addr:housenumber": "2-14",
                "addr:city": "Jaworzno",
                "addr:postcode": "43-603",
                "amenity": "pharmacy"
            },
            "geometry": {
                "type": "Point",
                "coordinates": [
                    19.233054656127553,
                    50.22860341765182
                ]
            }
        },
        {
            "type": "Feature",
            "properties": {
                "ref:csioz": 1063029,
                "name": "Brak Nazwy",
                "addr:street": "Kazimierza Brodzińskiego",
                "addr:housenumber": "27",
                "addr:city": "Jaworzno",
                "addr:postcode": "43-609",
                "amenity": "pharmacy"
            },
            "geometry": {
                "type": "Point",
                "coordinates": [
                    19.25384539958252,
                    50.20704516274446
                ]
            }
        },
        {
            "type": "Feature",
            "properties": {
                "ref:csioz": 1063032,
                "name": "Mandragora",
                "addr:street": "Grunwaldzka",
                "addr:housenumber": "104",
                "addr:city": "Jaworzno",
                "addr:postcode": "43-600",
                "amenity": "pharmacy"
            },
            "geometry": {
                "type": "Point",
                "coordinates": [
                    19.265881487529604,
                    50.20726825739634
                ]
            }
        },
        {
            "type": "Feature",
            "properties": {
                "ref:csioz": 1063041,
                "name": "Apteka Blisko Ciebie",
                "addr:street": "Grunwaldzka",
                "addr:housenumber": "204 A",
                "addr:city": "Jaworzno",
                "addr:postcode": "43-600",
                "amenity": "pharmacy"
            },
            "geometry": {
                "type": "Point",
                "coordinates": [
                    19.255806694688115,
                    50.21568952455062
                ]
            }
        },
        {
            "type": "Feature",
            "properties": {
                "ref:csioz": 1063055,
                "name": "4 Pory Roku",
                "addr:street": "Grunwaldzka",
                "addr:housenumber": "229B",
                "addr:city": "Jaworzno",
                "addr:postcode": "43-600",
                "amenity": "pharmacy"
            },
            "geometry": {
                "type": "Point",
                "coordinates": [
                    19.253981352751133,
                    50.2158727907594
                ]
            }
        },
        {
            "type": "Feature",
            "properties": {
                "ref:csioz": 1063078,
                "name": "Dr. Max",
                "addr:street": "Grunwaldzka",
                "addr:housenumber": "64",
                "addr:city": "Jaworzno",
                "addr:postcode": "43-600",
                "amenity": "pharmacy"
            },
            "geometry": {
                "type": "Point",
                "coordinates": [
                    19.273218993792476,
                    50.201897452777985
                ]
            }
        },
        {
            "type": "Feature",
            "properties": {
                "ref:csioz": 1063275,
                "name": "Doz Apteka. Dbam O Zdrowie. Paradyż",
                "addr:street": "Starowiejska",
                "addr:housenumber": "17",
                "addr:city": "Jaworzno",
                "addr:postcode": "43-603",
                "amenity": "pharmacy"
            },
            "geometry": {
                "type": "Point",
                "coordinates": [
                    19.2274308369817,
                    50.22872832982648
                ]
            }
        },
        {
            "type": "Feature",
            "properties": {
                "ref:csioz": 1063288,
                "name": "Apteka Św. Maksymiliana",
                "addr:street": "św. Maksymiliana Kolbego",
                "addr:housenumber": "28",
                "addr:city": "Jaworzno",
                "addr:postcode": "43-603",
                "amenity": "pharmacy"
            },
            "geometry": {
                "type": "Point",
                "coordinates": [
                    19.235285998551873,
                    50.228304495639
                ]
            }
        },
        {
            "type": "Feature",
            "properties": {
                "ref:csioz": 1063291,
                "name": "Apteka Dbam O Zdrowie",
                "addr:street": "Wojska Polskiego",
                "addr:housenumber": "2 D",
                "addr:city": "Jaworzno",
                "addr:postcode": "43-600",
                "amenity": "pharmacy"
            },
            "geometry": {
                "type": "Point",
                "coordinates": [
                    19.229601522929833,
                    50.22445588187031
                ]
            }
        },
        {
            "type": "Feature",
            "properties": {
                "ref:csioz": 1073950,
                "name": "Szpital Wielospecjalistyczny W Jaworznie",
                "addr:street": "CHEŁMOŃSKIEGO",
                "addr:housenumber": "28",
                "addr:city": "JAWORZNO",
                "addr:postcode": "43-600",
                "amenity": "pharmacy"
            },
            "geometry": {
                "type": "Point",
                "coordinates": [
                    19.28417473576069,
                    50.20556243868364
                ]
            }
        },
        {
            "type": "Feature",
            "properties": {
                "ref:csioz": 1172231,
                "name": "Apteka Dbam O Zdrowie",
                "addr:street": "Grunwaldzka",
                "addr:housenumber": "237",
                "addr:city": "Jaworzno",
                "addr:postcode": "43-600",
                "amenity": "pharmacy"
            },
            "geometry": {
                "type": "Point",
                "coordinates": [
                    19.251224196065284,
                    50.2182960635901
                ]
            }
        },
        {
            "type": "Feature",
            "properties": {
                "ref:csioz": 1178790,
                "name": "Apteka Melisa Pharm",
                "addr:street": "Nosala",
                "addr:housenumber": "5",
                "addr:city": "Jaworzno",
                "addr:postcode": "43-600",
                "amenity": "pharmacy"
            },
            "geometry": {
                "type": "Point",
                "coordinates": [
                    19.27188102281092,
                    50.20836834968229
                ]
            }
        },
        {
            "type": "Feature",
            "properties": {
                "ref:csioz": 1181646,
                "name": "Apteka Blisko Ciebie",
                "addr:street": "Grunwaldzka",
                "addr:housenumber": "235",
                "addr:city": "Jaworzno",
                "addr:postcode": "43-600",
                "amenity": "pharmacy"
            },
            "geometry": {
                "type": "Point",
                "coordinates": [
                    19.252560447599002,
                    50.21722457000497
                ]
            }
        },
        {
            "type": "Feature",
            "properties": {
                "ref:csioz": 1182422,
                "name": "Apteka Zdrowit",
                "addr:street": "Adama Mickiewicza",
                "addr:housenumber": "11",
                "addr:city": "Jaworzno",
                "addr:postcode": "43-600",
                "amenity": "pharmacy"
            },
            "geometry": {
                "type": "Point",
                "coordinates": [
                    19.273902094190632,
                    50.20356781691266
                ]
            }
        },
        {
            "type": "Feature",
            "properties": {
                "ref:csioz": 1200062,
                "name": "Ziko Apteka",
                "addr:street": "Grunwaldzka",
                "addr:housenumber": "59",
                "addr:flats": "001",
                "addr:city": "Jaworzno",
                "addr:postcode": "43-600",
                "amenity": "pharmacy"
            },
            "geometry": {
                "type": "Point",
                "coordinates": [
                    19.268640913037924,
                    50.20381420820464
                ]
            }
        },
        {
            "type": "Feature",
            "properties": {
                "ref:csioz": 1203450,
                "name": "Apteka Tęczowa - Brojan",
                "addr:street": "Ignacego Paderewskiego",
                "addr:housenumber": "43",
                "addr:city": "Jaworzno",
                "addr:postcode": "43-600",
                "amenity": "pharmacy"
            },
            "geometry": {
                "type": "Point",
                "coordinates": [
                    19.267015145037988,
                    50.20773845789157
                ]
            }
        },
        {
            "type": "Feature",
            "properties": {
                "ref:csioz": 1208693,
                "name": "Mgfarm",
                "addr:street": "aleja marsz. Józefa Piłsudskiego",
                "addr:housenumber": "46",
                "addr:city": "Jaworzno",
                "addr:postcode": "43-600",
                "amenity": "pharmacy"
            },
            "geometry": {
                "type": "Point",
                "coordinates": [
                    19.251089054643792,
                    50.2123685425133
                ]
            }
        },
        {
            "type": "Feature",
            "properties": {
                "ref:csioz": 1220903,
                "name": "Apteka Agafarmax Jaworzno",
                "addr:street": "aleja Tysiąclecia",
                "addr:housenumber": "3",
                "addr:city": "Jaworzno",
                "addr:postcode": "43-603",
                "amenity": "pharmacy"
            },
            "geometry": {
                "type": "Point",
                "coordinates": [
                    19.233838344510264,
                    50.22892039810669
                ]
            }
        },
        {
            "type": "Feature",
            "properties": {
                "ref:csioz": 1221844,
                "name": "4 Pory Roku",
                "addr:street": "MICKIEWICZA",
                "addr:housenumber": "19",
                "addr:city": "Jaworzno",
                "addr:postcode": "43-600",
                "amenity": "pharmacy"
            },
            "geometry": {
                "type": "Point",
                "coordinates": [
                    19.27276266400923,
                    50.20306376042072
                ]
            }
        },
        {
            "type": "Feature",
            "properties": {
                "ref:csioz": 1224093,
                "name": "Apteka Słoneczna",
                "addr:street": "Sienkiewicza",
                "addr:housenumber": "10",
                "addr:city": "Jaworzno",
                "addr:postcode": "43-600",
                "amenity": "pharmacy"
            },
            "geometry": {
                "type": "Point",
                "coordinates": [
                    19.27362106522317,
                    50.20226195526815
                ]
            }
        },
        {
            "type": "Feature",
            "properties": {
                "ref:csioz": 1113056,
                "name": "\"Doz Apteka. Dbam O Zdrowie. \"\"Osiedle Stałe\"\"\"",
                "addr:street": "Partyzantów",
                "addr:housenumber": "9",
                "addr:city": "Jaworzno",
                "addr:postcode": "43-600",
                "amenity": "pharmacy"
            },
            "geometry": {
                "type": "Point",
                "coordinates": [
                    19.238966476189326,
                    50.229484510728966
                ]
            }
        },
        {
            "type": "Feature",
            "properties": {
                "ref:csioz": 1063086,
                "name": "\"Doz Apteka. Dbam O Zdrowie. Górnicza\"\"\"",
                "addr:street": "Gwarków",
                "addr:housenumber": "1",
                "addr:city": "Jaworzno",
                "addr:postcode": "43-600",
                "amenity": "pharmacy"
            },
            "geometry": {
                "type": "Point",
                "coordinates": [
                    19.2710181922158,
                    50.20132921086999
                ]
            }
        },
        {
            "type": "Feature",
            "properties": {
                "ref:csioz": 1063108,
                "name": "\"'Doz Apteka. Dbam O Zdrowie. 'Jeleń'\"",
                "addr:street": "Jeleń-Rynek",
                "addr:housenumber": "20",
                "addr:city": "Jaworzno",
                "addr:postcode": "43-608",
                "amenity": "pharmacy"
            },
            "geometry": {
                "type": "Point",
                "coordinates": [
                    19.24394237473122,
                    50.162589781344394
                ]
            }
        },
        {
            "type": "Feature",
            "properties": {
                "ref:csioz": 1063135,
                "name": "\"Doz Apteka. Dbam O Zdrowie. Byczyna\"\"\"",
                "addr:street": "Krakowska",
                "addr:housenumber": "126",
                "addr:city": "Jaworzno",
                "addr:postcode": "43-607",
                "amenity": "pharmacy"
            },
            "geometry": {
                "type": "Point",
                "coordinates": [
                    19.306732959048556,
                    50.1635877476721
                ]
            }
        }
    ]
}