{
    "type": "FeatureCollection",
    "name": "JPT_KOD_JE_1404",
    "features": [
        {
            "type": "Feature",
            "properties": {
                "ref:csioz": 1092880,
                "name": "Apteka Afarm",
                "addr:street": "Andrzeja Czapskiego",
                "addr:housenumber": "4",
                "addr:city": "Gostynin",
                "addr:postcode": "09-500",
                "amenity": "pharmacy"
            },
            "geometry": {
                "type": "Point",
                "coordinates": [
                    19.4686112941132,
                    52.428687228303225
                ]
            }
        },
        {
            "type": "Feature",
            "properties": {
                "ref:csioz": 1093811,
                "name": "Dr Max",
                "addr:street": "Wojska Polskiego",
                "addr:housenumber": "22",
                "addr:city": "Gostynin",
                "addr:postcode": "09-500",
                "amenity": "pharmacy"
            },
            "geometry": {
                "type": "Point",
                "coordinates": [
                    19.465003336714165,
                    52.428426696489254
                ]
            }
        },
        {
            "type": "Feature",
            "properties": {
                "ref:csioz": 1093854,
                "name": "Medest Ix",
                "addr:street": "Rynek",
                "addr:housenumber": "25",
                "addr:city": "Gostynin",
                "addr:postcode": "09-500",
                "amenity": "pharmacy"
            },
            "geometry": {
                "type": "Point",
                "coordinates": [
                    19.460568167581407,
                    52.42860665951441
                ]
            }
        },
        {
            "type": "Feature",
            "properties": {
                "ref:csioz": 1093912,
                "name": "Panaceum",
                "addr:street": "Rynek",
                "addr:housenumber": "6",
                "addr:city": "Gostynin",
                "addr:postcode": "09-500",
                "amenity": "pharmacy"
            },
            "geometry": {
                "type": "Point",
                "coordinates": [
                    19.461974957774213,
                    52.4284577981822
                ]
            }
        },
        {
            "type": "Feature",
            "properties": {
                "ref:csioz": 1094116,
                "addr:street": "Łukasiewicza",
                "addr:housenumber": "29/1",
                "addr:city": "Pacyna",
                "addr:postcode": "09-541",
                "amenity": "pharmacy"
            },
            "geometry": {
                "type": "Point",
                "coordinates": [
                    19.712343000000267,
                    52.30039000001594
                ]
            }
        },
        {
            "type": "Feature",
            "properties": {
                "ref:csioz": 1098472,
                "name": "Apteka Szpitalna",
                "addr:street": "Kruk",
                "addr:housenumber": "5",
                "addr:city": "Gorzewo",
                "addr:postcode": "09-500",
                "amenity": "pharmacy"
            },
            "geometry": {
                "type": "Point",
                "coordinates": [
                    19.498057767460285,
                    52.469297032592735
                ]
            }
        },
        {
            "type": "Feature",
            "properties": {
                "ref:csioz": 1098664,
                "name": "Szpital",
                "addr:street": "Zalesie",
                "addr:housenumber": "1",
                "addr:city": "Gostynin",
                "addr:postcode": "09-500",
                "amenity": "pharmacy"
            },
            "geometry": {
                "type": "Point",
                "coordinates": [
                    19.49730890338042,
                    52.40066672822591
                ]
            }
        },
        {
            "type": "Feature",
            "properties": {
                "ref:csioz": 1092895,
                "name": "\"Cef@Rm 36,6\"",
                "addr:street": "Jana Pawła II",
                "addr:housenumber": "5A",
                "addr:city": "Gostynin",
                "addr:postcode": "09-500",
                "amenity": "pharmacy"
            },
            "geometry": {
                "type": "Point",
                "coordinates": [
                    19.461951140125578,
                    52.42994434635785
                ]
            }
        },
        {
            "type": "Feature",
            "properties": {
                "ref:csioz": 1092907,
                "addr:street": "Legionów Polskich",
                "addr:housenumber": "3",
                "addr:city": "Gostynin",
                "addr:postcode": "09-500",
                "amenity": "pharmacy"
            },
            "geometry": {
                "type": "Point",
                "coordinates": [
                    19.46361600000017,
                    52.423864000016124
                ]
            }
        },
        {
            "type": "Feature",
            "properties": {
                "ref:csioz": 1092910,
                "name": "Dbam O Zdrowie",
                "addr:street": "Rynek",
                "addr:housenumber": "8",
                "addr:city": "Gostynin",
                "addr:postcode": "09-500",
                "amenity": "pharmacy"
            },
            "geometry": {
                "type": "Point",
                "coordinates": [
                    19.462028292461508,
                    52.42869767655953
                ]
            }
        },
        {
            "type": "Feature",
            "properties": {
                "ref:csioz": 1092929,
                "addr:street": "Wojska Polskiego",
                "addr:housenumber": "31A",
                "addr:city": "Gostynin",
                "addr:postcode": "09-500",
                "amenity": "pharmacy"
            },
            "geometry": {
                "type": "Point",
                "coordinates": [
                    19.465146731585147,
                    52.42683576822649
                ]
            }
        },
        {
            "type": "Feature",
            "properties": {
                "ref:csioz": 1093920,
                "name": "Panaceum",
                "addr:street": "Wojska Polskiego",
                "addr:housenumber": "37A",
                "addr:city": "Gostynin",
                "addr:postcode": "09-500",
                "amenity": "pharmacy"
            },
            "geometry": {
                "type": "Point",
                "coordinates": [
                    19.464834391633094,
                    52.42588021228264
                ]
            }
        },
        {
            "type": "Feature",
            "properties": {
                "ref:csioz": 1116668,
                "addr:street": "Jana Pawła II",
                "addr:housenumber": "7",
                "addr:city": "Szczawin Kościelny",
                "addr:postcode": "09-550",
                "amenity": "pharmacy"
            },
            "geometry": {
                "type": "Point",
                "coordinates": [
                    19.612142421890827,
                    52.36777583755095
                ]
            }
        },
        {
            "type": "Feature",
            "properties": {
                "ref:csioz": 1229080,
                "name": "Panaceum",
                "addr:street": "Kruk",
                "addr:housenumber": "5",
                "addr:city": "Gorzewo",
                "addr:postcode": "09-500",
                "amenity": "pharmacy"
            },
            "geometry": {
                "type": "Point",
                "coordinates": [
                    19.498057767460285,
                    52.469297032592735
                ]
            }
        },
        {
            "type": "Feature",
            "properties": {
                "ref:csioz": 1229458,
                "name": "Dział Farmacji Szpitalnej",
                "addr:street": "Zalesie",
                "addr:housenumber": "1A",
                "addr:city": "Gostynin",
                "addr:postcode": "09-500",
                "amenity": "pharmacy"
            },
            "geometry": {
                "type": "Point",
                "coordinates": [
                    19.496757027005906,
                    52.39855346075417
                ]
            }
        },
        {
            "type": "Feature",
            "properties": {
                "ref:csioz": 1187460,
                "name": "Wspólna",
                "addr:street": "Warszawska",
                "addr:housenumber": "171",
                "addr:city": "Sanniki",
                "addr:postcode": "09-540",
                "amenity": "pharmacy"
            },
            "geometry": {
                "type": "Point",
                "coordinates": [
                    19.86036679514611,
                    52.33214817526994
                ]
            }
        },
        {
            "type": "Feature",
            "properties": {
                "ref:csioz": 1092932,
                "name": "Doz Apteka. Dbam O Zdrowie",
                "addr:street": "Warszawska",
                "addr:housenumber": "169",
                "addr:city": "Sanniki",
                "addr:postcode": "09-540",
                "amenity": "pharmacy"
            },
            "geometry": {
                "type": "Point",
                "coordinates": [
                    19.86106371290627,
                    52.331864299751864
                ]
            }
        },
        {
            "type": "Feature",
            "properties": {
                "ref:csioz": 1093999,
                "name": "Doz Apteka. Nowa",
                "addr:street": "Warszawska",
                "addr:housenumber": "136",
                "addr:city": "Sanniki",
                "addr:postcode": "09-540",
                "amenity": "pharmacy"
            },
            "geometry": {
                "type": "Point",
                "coordinates": [
                    19.86192598896425,
                    52.332724669638466
                ]
            }
        },
        {
            "type": "Feature",
            "properties": {
                "ref:csioz": 1186862,
                "name": "Zakład Opiekuńczo-Leczniczy Dla Dorosłych Zgromadzenia Sióstr Franciszkanek Rodziny Maryi",
                "addr:housenumber": "26",
                "addr:postcode": "09-541",
                "amenity": "pharmacy",
                "addr:place": "Skrzeszewy"
            },
            "geometry": {
                "type": "Point",
                "coordinates": [
                    19.660795458407566,
                    52.28146293779146
                ]
            }
        }
    ]
}