{
    "type": "FeatureCollection",
    "name": "JPT_KOD_JE_1207",
    "features": [
        {
            "type": "Feature",
            "properties": {
                "ref:csioz": 1080160,
                "name": "Nowa",
                "addr:street": "Matki Boskiej Bolesnej",
                "addr:housenumber": "10",
                "addr:city": "Limanowa",
                "addr:postcode": "34-600",
                "amenity": "pharmacy",
                "dispensing": "yes"
            },
            "geometry": {
                "type": "Point",
                "coordinates": [
                    20.423833154612527,
                    49.706011350008986
                ]
            }
        },
        {
            "type": "Feature",
            "properties": {
                "ref:csioz": 1080171,
                "name": "Apteka Nowa S.C.",
                "addr:street": "Józefa Marka",
                "addr:housenumber": "20",
                "addr:city": "Limanowa",
                "addr:postcode": "34-600",
                "amenity": "pharmacy",
                "dispensing": "yes"
            },
            "geometry": {
                "type": "Point",
                "coordinates": [
                    20.419913080139704,
                    49.70511318555389
                ]
            }
        },
        {
            "type": "Feature",
            "properties": {
                "ref:csioz": 1080473,
                "name": "Doz Apteka. Dbam O Zdrowie Hygieja.",
                "addr:street": "Matki Boskiej Bolesnej",
                "addr:housenumber": "10A",
                "addr:city": "Limanowa",
                "addr:postcode": "34-600",
                "amenity": "pharmacy",
                "dispensing": "yes"
            },
            "geometry": {
                "type": "Point",
                "coordinates": [
                    20.423872000000838,
                    49.7059710000121
                ]
            }
        },
        {
            "type": "Feature",
            "properties": {
                "ref:csioz": 1080499,
                "addr:street": "Józefa Piłsudskiego",
                "addr:housenumber": "61B",
                "addr:city": "Limanowa",
                "addr:postcode": "34-600",
                "amenity": "pharmacy",
                "dispensing": "yes"
            },
            "geometry": {
                "type": "Point",
                "coordinates": [
                    20.413437054514873,
                    49.71713292002936
                ]
            }
        },
        {
            "type": "Feature",
            "properties": {
                "ref:csioz": 1080513,
                "name": "\"Apteka \"\"Beta\"\" S.C. Beata I Tadeusz Kasperscy\"",
                "addr:street": "Zygmunta Augusta",
                "addr:housenumber": "6",
                "addr:city": "Limanowa",
                "addr:postcode": "34-600",
                "amenity": "pharmacy",
                "dispensing": "yes"
            },
            "geometry": {
                "type": "Point",
                "coordinates": [
                    20.41986293672197,
                    49.70043945383381
                ]
            }
        },
        {
            "type": "Feature",
            "properties": {
                "ref:csioz": 1080823,
                "addr:housenumber": "482",
                "addr:postcode": "34-650",
                "amenity": "pharmacy",
                "addr:place": "Tymbark",
                "dispensing": "yes"
            },
            "geometry": {
                "type": "Point",
                "coordinates": [
                    20.319510703636272,
                    49.734320120257486
                ]
            }
        },
        {
            "type": "Feature",
            "properties": {
                "ref:csioz": 1149979,
                "name": "Apteka Szpitalna",
                "addr:street": "Piłsudskiego",
                "addr:housenumber": "61",
                "addr:city": "Limanowa",
                "addr:postcode": "34-600",
                "amenity": "pharmacy",
                "dispensing": "yes"
            },
            "geometry": {
                "type": "Point",
                "coordinates": [
                    20.413477939483823,
                    49.71642748473252
                ]
            }
        },
        {
            "type": "Feature",
            "properties": {
                "ref:csioz": 1178141,
                "name": "Dział Farmacji Szpitalnej",
                "addr:street": "Józefa Piłsudskiego",
                "addr:housenumber": "53",
                "addr:city": "Limanowa",
                "addr:postcode": "34-600",
                "amenity": "pharmacy",
                "dispensing": "yes"
            },
            "geometry": {
                "type": "Point",
                "coordinates": [
                    20.41791176134783,
                    49.71475413991685
                ]
            }
        },
        {
            "type": "Feature",
            "properties": {
                "ref:csioz": 1204762,
                "addr:housenumber": "157",
                "addr:postcode": "34-652",
                "amenity": "pharmacy",
                "addr:place": "Nowe Rybie",
                "dispensing": "yes"
            },
            "geometry": {
                "type": "Point",
                "coordinates": [
                    20.330498670653714,
                    49.77709993535339
                ]
            }
        },
        {
            "type": "Feature",
            "properties": {
                "ref:csioz": 1080183,
                "name": "Nowa",
                "addr:housenumber": "419",
                "addr:postcode": "34-602",
                "amenity": "pharmacy",
                "addr:place": "Laskowa",
                "dispensing": "yes"
            },
            "geometry": {
                "type": "Point",
                "coordinates": [
                    20.448732997251952,
                    49.76149390714919
                ]
            }
        },
        {
            "type": "Feature",
            "properties": {
                "ref:csioz": 1080750,
                "addr:street": "Wincentego Witosa",
                "addr:housenumber": "3",
                "addr:city": "Limanowa",
                "addr:postcode": "34-600",
                "amenity": "pharmacy",
                "dispensing": "yes"
            },
            "geometry": {
                "type": "Point",
                "coordinates": [
                    20.403704137789607,
                    49.72301517829269
                ]
            }
        },
        {
            "type": "Feature",
            "properties": {
                "ref:csioz": 1080775,
                "addr:street": "Rynek",
                "addr:housenumber": "2",
                "addr:city": "Limanowa",
                "addr:postcode": "34-600",
                "amenity": "pharmacy",
                "dispensing": "yes"
            },
            "geometry": {
                "type": "Point",
                "coordinates": [
                    20.421589153426524,
                    49.706628561014995
                ]
            }
        },
        {
            "type": "Feature",
            "properties": {
                "ref:csioz": 1080788,
                "name": "Apteka Vita Kazimierz Garbacz",
                "addr:housenumber": "717",
                "addr:postcode": "34-602",
                "amenity": "pharmacy",
                "addr:place": "Laskowa",
                "dispensing": "yes"
            },
            "geometry": {
                "type": "Point",
                "coordinates": [
                    20.449613964982518,
                    49.761955250380005
                ]
            }
        },
        {
            "type": "Feature",
            "properties": {
                "ref:csioz": 1114603,
                "name": "\"Apteka Victoria S.C. Z.Garbacz, D.Bieda\"",
                "addr:street": "Zygmunta Augusta",
                "addr:housenumber": "14",
                "addr:city": "Limanowa",
                "addr:postcode": "34-600",
                "amenity": "pharmacy",
                "dispensing": "yes"
            },
            "geometry": {
                "type": "Point",
                "coordinates": [
                    20.42271758918253,
                    49.69752727312923
                ]
            }
        },
        {
            "type": "Feature",
            "properties": {
                "ref:csioz": 1115453,
                "name": "\"Apteka Vademecum, Blisko I Tanio!\"",
                "addr:street": "Jana Pawła II",
                "addr:housenumber": "7",
                "addr:city": "Limanowa",
                "addr:postcode": "34-600",
                "amenity": "pharmacy",
                "dispensing": "yes"
            },
            "geometry": {
                "type": "Point",
                "coordinates": [
                    20.420609393818296,
                    49.707491455394354
                ]
            }
        },
        {
            "type": "Feature",
            "properties": {
                "ref:csioz": 1123538,
                "name": "Niezapominajka Dla Całej Rodziny",
                "addr:street": "Rynek",
                "addr:housenumber": "9",
                "addr:city": "Limanowa",
                "addr:postcode": "34-600",
                "amenity": "pharmacy",
                "dispensing": "yes"
            },
            "geometry": {
                "type": "Point",
                "coordinates": [
                    20.422540283574236,
                    49.706052240584846
                ]
            }
        },
        {
            "type": "Feature",
            "properties": {
                "ref:csioz": 1178325,
                "name": "Apteka Słoneczna",
                "addr:street": "Józefa Piłsudskiego",
                "addr:housenumber": "61",
                "addr:city": "Limanowa",
                "addr:postcode": "34-600",
                "amenity": "pharmacy",
                "dispensing": "yes"
            },
            "geometry": {
                "type": "Point",
                "coordinates": [
                    20.413477939483823,
                    49.71642748473252
                ]
            }
        },
        {
            "type": "Feature",
            "properties": {
                "ref:csioz": 1211916,
                "name": "\"Apteka 'Centrum' Sp.J. Halina I Jakub Tokarz 34-615 Słopnice - 597\"",
                "addr:housenumber": "597",
                "addr:postcode": "34-615",
                "amenity": "pharmacy",
                "addr:place": "Słopnice",
                "dispensing": "yes"
            },
            "geometry": {
                "type": "Point",
                "coordinates": [
                    20.35126512703913,
                    49.69582889126227
                ]
            }
        },
        {
            "type": "Feature",
            "properties": {
                "ref:csioz": 1214046,
                "name": "\"'Nowa'\"",
                "addr:housenumber": "888",
                "addr:postcode": "34-615",
                "amenity": "pharmacy",
                "addr:place": "Słopnice",
                "dispensing": "yes"
            },
            "geometry": {
                "type": "Point",
                "coordinates": [
                    20.352198604944995,
                    49.69607099947175
                ]
            }
        },
        {
            "type": "Feature",
            "properties": {
                "ref:csioz": 1224029,
                "name": "\"Apteka \"\"Centrum\"\" Sp.J. - Halina I Jakub Tokarz 34-650 Tymbark 215\"",
                "addr:housenumber": "215",
                "addr:postcode": "34-650",
                "amenity": "pharmacy",
                "addr:place": "Tymbark",
                "dispensing": "yes"
            },
            "geometry": {
                "type": "Point",
                "coordinates": [
                    20.320063976728523,
                    49.73177951656654
                ]
            }
        },
        {
            "type": "Feature",
            "properties": {
                "ref:csioz": 1192946,
                "name": "\"Apteka \"\"Przyjazna Tobie\"\"\"",
                "addr:street": "Krakowska",
                "addr:housenumber": "8",
                "addr:city": "Limanowa",
                "addr:postcode": "34-600",
                "amenity": "pharmacy",
                "dispensing": "yes"
            },
            "geometry": {
                "type": "Point",
                "coordinates": [
                    20.43542024839375,
                    49.707459621721924
                ]
            }
        },
        {
            "type": "Feature",
            "properties": {
                "ref:csioz": 1080592,
                "name": "Apteka Dobra",
                "addr:housenumber": "426",
                "addr:postcode": "34-642",
                "amenity": "pharmacy",
                "addr:place": "Dobra",
                "dispensing": "yes"
            },
            "geometry": {
                "type": "Point",
                "coordinates": [
                    20.247268197601862,
                    49.71531818517078
                ]
            }
        },
        {
            "type": "Feature",
            "properties": {
                "ref:csioz": 1080791,
                "name": "Punkt Apteczny Vita W Jodłowniku",
                "addr:housenumber": "180",
                "addr:postcode": "34-620",
                "amenity": "pharmacy",
                "addr:place": "Jodłownik",
                "dispensing": "yes"
            },
            "geometry": {
                "type": "Point",
                "coordinates": [
                    20.237748302220425,
                    49.77428683014795
                ]
            }
        },
        {
            "type": "Feature",
            "properties": {
                "ref:csioz": 1080867,
                "name": "Apteka W Galerii",
                "addr:street": "Starowiejska",
                "addr:housenumber": "4C",
                "addr:city": "Mszana Dolna",
                "addr:postcode": "34-730",
                "amenity": "pharmacy",
                "dispensing": "yes"
            },
            "geometry": {
                "type": "Point",
                "coordinates": [
                    20.076447298574372,
                    49.67480498553721
                ]
            }
        },
        {
            "type": "Feature",
            "properties": {
                "ref:csioz": 1080872,
                "name": "Apteka Silla",
                "addr:street": "Krakowska",
                "addr:housenumber": "15",
                "addr:city": "Mszana Dolna",
                "addr:postcode": "34-730",
                "amenity": "pharmacy",
                "dispensing": "yes"
            },
            "geometry": {
                "type": "Point",
                "coordinates": [
                    20.06074669668429,
                    49.67803093827532
                ]
            }
        },
        {
            "type": "Feature",
            "properties": {
                "ref:csioz": 1080880,
                "name": "Apteka Mszańska",
                "addr:street": "Jana Pawła II",
                "addr:housenumber": "4",
                "addr:city": "Mszana Dolna",
                "addr:postcode": "34-730",
                "amenity": "pharmacy",
                "dispensing": "yes"
            },
            "geometry": {
                "type": "Point",
                "coordinates": [
                    20.082499334173253,
                    49.67618403823594
                ]
            }
        },
        {
            "type": "Feature",
            "properties": {
                "ref:csioz": 1121024,
                "name": "Apteka Nowa Farmacja Centrum Tanich Leków",
                "addr:housenumber": "734",
                "addr:postcode": "34-642",
                "amenity": "pharmacy",
                "addr:place": "Dobra",
                "dispensing": "yes"
            },
            "geometry": {
                "type": "Point",
                "coordinates": [
                    20.248704133492083,
                    49.715732124924244
                ]
            }
        },
        {
            "type": "Feature",
            "properties": {
                "ref:csioz": 1121917,
                "name": "Medic",
                "addr:housenumber": "188",
                "addr:postcode": "34-623",
                "amenity": "pharmacy",
                "addr:place": "Szczyrzyc",
                "dispensing": "yes"
            },
            "geometry": {
                "type": "Point",
                "coordinates": [
                    20.19065547385846,
                    49.777659856835655
                ]
            }
        },
        {
            "type": "Feature",
            "properties": {
                "ref:csioz": 1080769,
                "name": "Apteka Centrum Sp.J.Halina I Jakub Tokarz",
                "addr:housenumber": "259",
                "addr:postcode": "34-620",
                "amenity": "pharmacy",
                "addr:place": "Jodłownik",
                "dispensing": "yes"
            },
            "geometry": {
                "type": "Point",
                "coordinates": [
                    20.240544522129586,
                    49.776788616427396
                ]
            }
        },
        {
            "type": "Feature",
            "properties": {
                "ref:csioz": 1080929,
                "addr:street": "marsz. Józefa Piłsudskiego",
                "addr:housenumber": "11",
                "addr:city": "Mszana Dolna",
                "addr:postcode": "34-730",
                "amenity": "pharmacy",
                "dispensing": "yes"
            },
            "geometry": {
                "type": "Point",
                "coordinates": [
                    20.081499946886726,
                    49.675072380919836
                ]
            }
        },
        {
            "type": "Feature",
            "properties": {
                "ref:csioz": 1080941,
                "name": "Vigor",
                "addr:housenumber": "617",
                "addr:postcode": "34-734",
                "amenity": "pharmacy",
                "addr:place": "Kasinka Mała",
                "dispensing": "yes"
            },
            "geometry": {
                "type": "Point",
                "coordinates": [
                    20.04178536182539,
                    49.71922462325119
                ]
            }
        },
        {
            "type": "Feature",
            "properties": {
                "ref:csioz": 1081367,
                "name": "Dział Farmacji Szpitalnej",
                "addr:housenumber": "107",
                "addr:postcode": "34-623",
                "amenity": "pharmacy",
                "addr:place": "Szczyrzyc",
                "dispensing": "yes"
            },
            "geometry": {
                "type": "Point",
                "coordinates": [
                    20.190342000000502,
                    49.777807000012196
                ]
            }
        },
        {
            "type": "Feature",
            "properties": {
                "ref:csioz": 1113320,
                "name": "Vita",
                "addr:housenumber": "49",
                "addr:postcode": "34-621",
                "amenity": "pharmacy",
                "addr:place": "Krasne-Lasocice",
                "dispensing": "yes"
            },
            "geometry": {
                "type": "Point",
                "coordinates": [
                    20.229515987728323,
                    49.81208877512397
                ]
            }
        },
        {
            "type": "Feature",
            "properties": {
                "ref:csioz": 1120435,
                "addr:housenumber": "279",
                "addr:postcode": "34-625",
                "amenity": "pharmacy",
                "addr:place": "Skrzydlna",
                "dispensing": "yes"
            },
            "geometry": {
                "type": "Point",
                "coordinates": [
                    20.17795613272655,
                    49.752736647656064
                ]
            }
        },
        {
            "type": "Feature",
            "properties": {
                "ref:csioz": 1203544,
                "name": "Krokus",
                "addr:housenumber": "546",
                "addr:postcode": "34-741",
                "amenity": "pharmacy",
                "addr:place": "Kasina Wielka",
                "dispensing": "yes"
            },
            "geometry": {
                "type": "Point",
                "coordinates": [
                    20.13775904452127,
                    49.725358710223595
                ]
            }
        },
        {
            "type": "Feature",
            "properties": {
                "ref:csioz": 1080851,
                "name": "Apteka Vademecum",
                "addr:housenumber": "536",
                "addr:postcode": "34-654",
                "amenity": "pharmacy",
                "addr:place": "Męcina",
                "dispensing": "yes"
            },
            "geometry": {
                "type": "Point",
                "coordinates": [
                    20.556665547120144,
                    49.67785719749907
                ]
            }
        },
        {
            "type": "Feature",
            "properties": {
                "ref:csioz": 1112916,
                "addr:housenumber": "2",
                "addr:postcode": "34-603",
                "amenity": "pharmacy",
                "addr:place": "Ujanowice",
                "dispensing": "yes"
            },
            "geometry": {
                "type": "Point",
                "coordinates": [
                    20.557961293872253,
                    49.74613334679542
                ]
            }
        },
        {
            "type": "Feature",
            "properties": {
                "ref:csioz": 1220351,
                "name": "Apteka Pod Magnolią",
                "addr:housenumber": "880",
                "addr:postcode": "34-654",
                "amenity": "pharmacy",
                "addr:place": "Męcina",
                "dispensing": "yes"
            },
            "geometry": {
                "type": "Point",
                "coordinates": [
                    20.531404171239824,
                    49.68140406401152
                ]
            }
        },
        {
            "type": "Feature",
            "properties": {
                "ref:csioz": 1080545,
                "name": "Farmacja S.C.",
                "addr:housenumber": "8",
                "addr:postcode": "34-606",
                "amenity": "pharmacy",
                "addr:place": "Łukowica",
                "dispensing": "yes"
            },
            "geometry": {
                "type": "Point",
                "coordinates": [
                    20.49395702830858,
                    49.60378737925557
                ]
            }
        },
        {
            "type": "Feature",
            "properties": {
                "ref:csioz": 1080576,
                "name": "Apteka Prywatna S.C.",
                "addr:housenumber": "46A",
                "addr:postcode": "34-608",
                "amenity": "pharmacy",
                "addr:place": "Kamienica",
                "dispensing": "yes"
            },
            "geometry": {
                "type": "Point",
                "coordinates": [
                    20.346252170086046,
                    49.574018424282755
                ]
            }
        },
        {
            "type": "Feature",
            "properties": {
                "ref:csioz": 1110749,
                "name": "Punkt Apteczny Szczawa",
                "addr:housenumber": "425",
                "addr:postcode": "34-607",
                "amenity": "pharmacy",
                "addr:place": "Szczawa",
                "dispensing": "yes"
            },
            "geometry": {
                "type": "Point",
                "coordinates": [
                    20.295592264752408,
                    49.60651203200116
                ]
            }
        },
        {
            "type": "Feature",
            "properties": {
                "ref:csioz": 1115630,
                "name": "Apteka Vita",
                "addr:housenumber": "283",
                "addr:postcode": "34-606",
                "amenity": "pharmacy",
                "addr:place": "Łukowica",
                "dispensing": "yes"
            },
            "geometry": {
                "type": "Point",
                "coordinates": [
                    20.492591762927873,
                    49.60598586730919
                ]
            }
        },
        {
            "type": "Feature",
            "properties": {
                "ref:csioz": 1122869,
                "name": "\"Niedźwiadek Dawid Florek\"\"\"",
                "addr:housenumber": "353",
                "addr:postcode": "34-735",
                "amenity": "pharmacy",
                "addr:place": "Niedźwiedź",
                "dispensing": "yes"
            },
            "geometry": {
                "type": "Point",
                "coordinates": [
                    20.08237058761864,
                    49.623606660635915
                ]
            }
        },
        {
            "type": "Feature",
            "properties": {
                "ref:csioz": 1175582,
                "name": "Krokus",
                "addr:street": "Władysława Orkana",
                "addr:housenumber": "13",
                "addr:city": "Mszana Dolna",
                "addr:postcode": "34-730",
                "amenity": "pharmacy",
                "dispensing": "yes"
            },
            "geometry": {
                "type": "Point",
                "coordinates": [
                    20.084170648158075,
                    49.66902687789768
                ]
            }
        },
        {
            "type": "Feature",
            "properties": {
                "ref:csioz": 1230761,
                "addr:housenumber": "723",
                "addr:postcode": "34-608",
                "amenity": "pharmacy",
                "addr:place": "Kamienica",
                "dispensing": "yes"
            },
            "geometry": {
                "type": "Point",
                "coordinates": [
                    20.352152852675285,
                    49.569968742412314
                ]
            }
        },
        {
            "type": "Feature",
            "properties": {
                "ref:csioz": 1230763,
                "addr:housenumber": "407",
                "addr:postcode": "34-604",
                "amenity": "pharmacy",
                "addr:place": "Przyszowa",
                "dispensing": "yes"
            },
            "geometry": {
                "type": "Point",
                "coordinates": [
                    20.502180837240623,
                    49.637654872233014
                ]
            }
        },
        {
            "type": "Feature",
            "properties": {
                "ref:csioz": 1080814,
                "addr:housenumber": "52A",
                "addr:postcode": "34-643",
                "amenity": "pharmacy",
                "addr:place": "Jurków",
                "dispensing": "yes"
            },
            "geometry": {
                "type": "Point",
                "coordinates": [
                    20.234110000000545,
                    49.68202000001207
                ]
            }
        },
        {
            "type": "Feature",
            "properties": {
                "ref:csioz": 1080895,
                "name": "Apteka Krokus",
                "addr:street": "Maksymiliana Marii Kolbego",
                "addr:housenumber": "14",
                "addr:city": "Mszana Dolna",
                "addr:postcode": "34-730",
                "amenity": "pharmacy",
                "dispensing": "yes"
            },
            "geometry": {
                "type": "Point",
                "coordinates": [
                    20.0771076382353,
                    49.67357981248195
                ]
            }
        },
        {
            "type": "Feature",
            "properties": {
                "ref:csioz": 1080907,
                "name": "\"Punkt Apteczny 'Krokus'\"",
                "addr:housenumber": "218",
                "addr:postcode": "34-730",
                "amenity": "pharmacy",
                "addr:place": "Raba Niżna",
                "dispensing": "yes"
            },
            "geometry": {
                "type": "Point",
                "coordinates": [
                    20.02201965176818,
                    49.63713117674147
                ]
            }
        },
        {
            "type": "Feature",
            "properties": {
                "ref:csioz": 1080932,
                "name": "Apis",
                "addr:housenumber": "573",
                "addr:postcode": "34-733",
                "amenity": "pharmacy",
                "addr:place": "Mszana Górna",
                "dispensing": "yes"
            },
            "geometry": {
                "type": "Point",
                "coordinates": [
                    20.117751460154658,
                    49.64290166684356
                ]
            }
        },
        {
            "type": "Feature",
            "properties": {
                "ref:csioz": 1080955,
                "addr:housenumber": "693",
                "addr:postcode": "34-735",
                "amenity": "pharmacy",
                "addr:place": "Niedźwiedź",
                "dispensing": "yes"
            },
            "geometry": {
                "type": "Point",
                "coordinates": [
                    20.072970902113255,
                    49.61912231820355
                ]
            }
        },
        {
            "type": "Feature",
            "properties": {
                "ref:csioz": 1203084,
                "name": "Apteka Galicja",
                "addr:street": "marsz. Józefa Piłsudskiego",
                "addr:housenumber": "8",
                "addr:city": "Mszana Dolna",
                "addr:postcode": "34-730",
                "amenity": "pharmacy",
                "dispensing": "yes"
            },
            "geometry": {
                "type": "Point",
                "coordinates": [
                    20.082201765102347,
                    49.67531347491073
                ]
            }
        },
        {
            "type": "Feature",
            "properties": {
                "ref:csioz": 1221103,
                "addr:street": "Starowiejska",
                "addr:housenumber": "5",
                "addr:city": "Mszana Dolna",
                "addr:postcode": "34-730",
                "amenity": "pharmacy",
                "dispensing": "yes"
            },
            "geometry": {
                "type": "Point",
                "coordinates": [
                    20.078625224512464,
                    49.674244112767475
                ]
            }
        },
        {
            "type": "Feature",
            "properties": {
                "ref:csioz": 1080194,
                "name": "Nowa",
                "addr:housenumber": "533",
                "addr:postcode": "34-606",
                "amenity": "pharmacy",
                "addr:place": "Łukowica",
                "dispensing": "yes"
            },
            "geometry": {
                "type": "Point",
                "coordinates": [
                    20.493854660230625,
                    49.602015999017446
                ]
            }
        }
    ]
}