{
    "type": "FeatureCollection",
    "name": "JPT_KOD_JE_0862",
    "features": [
        {
            "type": "Feature",
            "properties": {
                "ref:csioz": 1111412,
                "name": "Panax S.C. Na Dworcu",
                "addr:street": "Dworcowa",
                "addr:housenumber": "32",
                "addr:city": "Zielona Góra",
                "addr:postcode": "65-100",
                "amenity": "pharmacy"
            },
            "geometry": {
                "type": "Point",
                "coordinates": [
                    15.51455699996315,
                    51.94716100001589
                ]
            }
        },
        {
            "type": "Feature",
            "properties": {
                "ref:csioz": 1149167,
                "name": "C.H.Auchan",
                "addr:street": "Stefana Batorego",
                "addr:housenumber": "128",
                "addr:city": "Zielona Góra",
                "addr:postcode": "65-737",
                "amenity": "pharmacy"
            },
            "geometry": {
                "type": "Point",
                "coordinates": [
                    15.491122388277319,
                    51.96351360862414
                ]
            }
        },
        {
            "type": "Feature",
            "properties": {
                "ref:csioz": 1149195,
                "name": "Stylowa",
                "addr:street": "Bohaterów Westerplatte",
                "addr:housenumber": "24",
                "addr:city": "Zielona Góra",
                "addr:postcode": "65-470",
                "amenity": "pharmacy"
            },
            "geometry": {
                "type": "Point",
                "coordinates": [
                    15.507552402626654,
                    51.94268886640422
                ]
            }
        },
        {
            "type": "Feature",
            "properties": {
                "ref:csioz": 1149218,
                "name": "Dr Zdrowie",
                "addr:street": "Dąbrówki",
                "addr:housenumber": "5",
                "addr:city": "Zielona Góra",
                "addr:postcode": "65-001",
                "amenity": "pharmacy"
            },
            "geometry": {
                "type": "Point",
                "coordinates": [
                    15.494533932070972,
                    51.93801111348757
                ]
            }
        },
        {
            "type": "Feature",
            "properties": {
                "ref:csioz": 1149172,
                "name": "Dr. Max",
                "addr:street": "Bohaterów Westerplatte",
                "addr:housenumber": "4",
                "addr:city": "Zielona Góra",
                "addr:postcode": "65-034",
                "amenity": "pharmacy"
            },
            "geometry": {
                "type": "Point",
                "coordinates": [
                    15.505027683794697,
                    51.94128109962914
                ]
            }
        },
        {
            "type": "Feature",
            "properties": {
                "ref:csioz": 1149987,
                "name": "Apteka Dbam O Zdrowie",
                "addr:street": "Dworcowa",
                "addr:housenumber": "18",
                "addr:city": "Zielona Góra",
                "addr:postcode": "65-001",
                "amenity": "pharmacy"
            },
            "geometry": {
                "type": "Point",
                "coordinates": [
                    15.511680112894533,
                    51.946973582042936
                ]
            }
        },
        {
            "type": "Feature",
            "properties": {
                "ref:csioz": 1149998,
                "name": "Peritus",
                "addr:street": "Energetyków",
                "addr:housenumber": "2A",
                "addr:city": "Zielona Góra",
                "addr:postcode": "65-001",
                "amenity": "pharmacy"
            },
            "geometry": {
                "type": "Point",
                "coordinates": [
                    15.495534586284117,
                    51.95018623227249
                ]
            }
        },
        {
            "type": "Feature",
            "properties": {
                "ref:csioz": 1150001,
                "name": "Apteka Dbam O Zdrowie",
                "addr:street": "Fryderyka Chopina",
                "addr:housenumber": "21",
                "addr:city": "Zielona Góra",
                "addr:postcode": "65-032",
                "amenity": "pharmacy"
            },
            "geometry": {
                "type": "Point",
                "coordinates": [
                    15.50763810851367,
                    51.94408687603376
                ]
            }
        },
        {
            "type": "Feature",
            "properties": {
                "ref:csioz": 1150030,
                "name": "Franciszkańska",
                "addr:street": "Jedności",
                "addr:housenumber": "58",
                "addr:city": "Zielona Góra",
                "addr:postcode": "65-018",
                "amenity": "pharmacy"
            },
            "geometry": {
                "type": "Point",
                "coordinates": [
                    15.4994057788737,
                    51.9375382066766
                ]
            }
        },
        {
            "type": "Feature",
            "properties": {
                "ref:csioz": 1150147,
                "name": "Akademicka",
                "addr:street": "Niecała",
                "addr:housenumber": "2G",
                "addr:city": "Zielona Góra",
                "addr:postcode": "65-001",
                "amenity": "pharmacy"
            },
            "geometry": {
                "type": "Point",
                "coordinates": [
                    15.535541259344388,
                    51.93854587119302
                ]
            }
        },
        {
            "type": "Feature",
            "properties": {
                "ref:csioz": 1150171,
                "name": "Apteka Dbam O Zdrowie",
                "addr:street": "Osiedle Pomorskie",
                "addr:housenumber": "5A",
                "addr:city": "Zielona Góra",
                "addr:postcode": "65-548",
                "amenity": "pharmacy"
            },
            "geometry": {
                "type": "Point",
                "coordinates": [
                    15.555519066235647,
                    51.937794057258365
                ]
            }
        },
        {
            "type": "Feature",
            "properties": {
                "ref:csioz": 1150183,
                "name": "Śląska",
                "addr:street": "Osiedle Pomorskie",
                "addr:housenumber": "7",
                "addr:city": "Zielona Góra",
                "addr:postcode": "65-001",
                "amenity": "pharmacy"
            },
            "geometry": {
                "type": "Point",
                "coordinates": [
                    15.559152999965356,
                    51.93752600001583
                ]
            }
        },
        {
            "type": "Feature",
            "properties": {
                "ref:csioz": 1150256,
                "name": "Panax",
                "addr:street": "Sulechowska",
                "addr:housenumber": "1",
                "addr:city": "Zielona Góra",
                "addr:postcode": "65-001",
                "amenity": "pharmacy"
            },
            "geometry": {
                "type": "Point",
                "coordinates": [
                    15.51539700212026,
                    51.94635175294932
                ]
            }
        },
        {
            "type": "Feature",
            "properties": {
                "ref:csioz": 1150262,
                "name": "Aldemed",
                "addr:street": "Towarowa",
                "addr:housenumber": "20",
                "addr:city": "Zielona Góra",
                "addr:postcode": "65-119",
                "amenity": "pharmacy"
            },
            "geometry": {
                "type": "Point",
                "coordinates": [
                    15.514425190780116,
                    51.948037429640436
                ]
            }
        },
        {
            "type": "Feature",
            "properties": {
                "ref:csioz": 1150311,
                "name": "Euro-Apteka",
                "addr:street": "Wrocławska",
                "addr:housenumber": "17",
                "addr:city": "Zielona Góra",
                "addr:postcode": "65-427",
                "amenity": "pharmacy"
            },
            "geometry": {
                "type": "Point",
                "coordinates": [
                    15.51157022173004,
                    51.936521557833395
                ]
            }
        },
        {
            "type": "Feature",
            "properties": {
                "ref:csioz": 1150333,
                "name": "Dr. Max",
                "addr:street": "Stefana Wyszyńskiego",
                "addr:housenumber": "99",
                "addr:city": "Zielona Góra",
                "addr:postcode": "65-001",
                "amenity": "pharmacy"
            },
            "geometry": {
                "type": "Point",
                "coordinates": [
                    15.482998788849681,
                    51.93765286892463
                ]
            }
        },
        {
            "type": "Feature",
            "properties": {
                "ref:csioz": 1150243,
                "name": "Dr. Max",
                "addr:street": "Stary Rynek",
                "addr:housenumber": "20",
                "addr:city": "Zielona Góra",
                "addr:postcode": "65-067",
                "amenity": "pharmacy"
            },
            "geometry": {
                "type": "Point",
                "coordinates": [
                    15.504728945288486,
                    51.938414865318066
                ]
            }
        },
        {
            "type": "Feature",
            "properties": {
                "ref:csioz": 1150354,
                "name": "Zdrojowa",
                "addr:street": "Zdrojowa",
                "addr:housenumber": "2",
                "addr:city": "Zielona Góra",
                "addr:postcode": "65-153",
                "amenity": "pharmacy"
            },
            "geometry": {
                "type": "Point",
                "coordinates": [
                    15.518699955331158,
                    51.95666788220697
                ]
            }
        },
        {
            "type": "Feature",
            "properties": {
                "ref:csioz": 1150814,
                "name": "Pastylka",
                "addr:street": "Ochla-Kożuchowska",
                "addr:housenumber": "1",
                "addr:city": "Zielona Góra",
                "addr:postcode": "66-006",
                "amenity": "pharmacy"
            },
            "geometry": {
                "type": "Point",
                "coordinates": [
                    15.469747724648244,
                    51.87797725498162
                ]
            }
        },
        {
            "type": "Feature",
            "properties": {
                "ref:csioz": 1150867,
                "addr:street": "Zawada-Zielonogórska",
                "addr:housenumber": "19",
                "addr:city": "Zielona Góra",
                "addr:postcode": "66-001",
                "amenity": "pharmacy"
            },
            "geometry": {
                "type": "Point",
                "coordinates": [
                    15.56084621224565,
                    51.98647202176106
                ]
            }
        },
        {
            "type": "Feature",
            "properties": {
                "ref:csioz": 1164179,
                "name": "Pharmaland",
                "addr:street": "Szosa Kisielińska",
                "addr:housenumber": "22",
                "addr:city": "Zielona Góra",
                "addr:postcode": "65-153",
                "amenity": "pharmacy"
            },
            "geometry": {
                "type": "Point",
                "coordinates": [
                    15.5589384953652,
                    51.94005625043551
                ]
            }
        },
        {
            "type": "Feature",
            "properties": {
                "ref:csioz": 1164201,
                "name": "Doz Apteka.Dbam O Zdrowie.Apteka W Biedronce",
                "addr:street": "Fabryczna",
                "addr:housenumber": "15A",
                "addr:city": "Zielona Góra",
                "addr:postcode": "65-410",
                "amenity": "pharmacy"
            },
            "geometry": {
                "type": "Point",
                "coordinates": [
                    15.503077691779165,
                    51.93325253210643
                ]
            }
        },
        {
            "type": "Feature",
            "properties": {
                "ref:csioz": 1164624,
                "name": "Specjalistyczne Centrum Medyczne Urolog",
                "addr:street": "Anieli Krzywoń",
                "addr:housenumber": "2",
                "addr:city": "Zielona Góra",
                "addr:postcode": "65-001",
                "amenity": "pharmacy"
            },
            "geometry": {
                "type": "Point",
                "coordinates": [
                    15.488573999961687,
                    51.92898400001588
                ]
            }
        },
        {
            "type": "Feature",
            "properties": {
                "ref:csioz": 1165878,
                "name": "Aldemed Centrum Medyczne Sp. Z O. O.",
                "addr:street": "Towarowa",
                "addr:housenumber": "20",
                "addr:city": "Zielona Góra",
                "addr:postcode": "65-114",
                "amenity": "pharmacy"
            },
            "geometry": {
                "type": "Point",
                "coordinates": [
                    15.514425190780116,
                    51.948037429640436
                ]
            }
        },
        {
            "type": "Feature",
            "properties": {
                "ref:csioz": 1166805,
                "name": "Farma Zdrowia",
                "addr:street": "Drzonków-Cisowa",
                "addr:housenumber": "1A",
                "addr:city": "Zielona Góra",
                "addr:postcode": "66-004",
                "amenity": "pharmacy"
            },
            "geometry": {
                "type": "Point",
                "coordinates": [
                    15.571021659030652,
                    51.896870115165825
                ]
            }
        },
        {
            "type": "Feature",
            "properties": {
                "ref:csioz": 1177424,
                "name": "Ziko Apteka",
                "addr:street": "Stefana Żeromskiego",
                "addr:housenumber": "23",
                "addr:city": "Zielona Góra",
                "addr:postcode": "65-066",
                "amenity": "pharmacy"
            },
            "geometry": {
                "type": "Point",
                "coordinates": [
                    15.506754485438002,
                    51.9397686933958
                ]
            }
        },
        {
            "type": "Feature",
            "properties": {
                "ref:csioz": 1177435,
                "name": "Ziko Apteka",
                "addr:street": "Stary Rynek",
                "addr:housenumber": "18",
                "addr:city": "Zielona Góra",
                "addr:postcode": "65-067",
                "amenity": "pharmacy"
            },
            "geometry": {
                "type": "Point",
                "coordinates": [
                    15.504712720570744,
                    51.93857600714011
                ]
            }
        },
        {
            "type": "Feature",
            "properties": {
                "ref:csioz": 1207363,
                "name": "Dr. Max",
                "addr:street": "Leopolda Okulickiego",
                "addr:housenumber": "37",
                "addr:city": "Zielona Góra",
                "addr:postcode": "65-001",
                "amenity": "pharmacy"
            },
            "geometry": {
                "type": "Point",
                "coordinates": [
                    15.490272918222734,
                    51.93301497555777
                ]
            }
        },
        {
            "type": "Feature",
            "properties": {
                "ref:csioz": 1214350,
                "name": "Apteka Lawendowa",
                "addr:street": "Anieli Krzywoń",
                "addr:housenumber": "6",
                "addr:city": "Zielona Góra",
                "addr:postcode": "65-534",
                "amenity": "pharmacy"
            },
            "geometry": {
                "type": "Point",
                "coordinates": [
                    15.48938383473651,
                    51.92877201969117
                ]
            }
        },
        {
            "type": "Feature",
            "properties": {
                "ref:csioz": 1148664,
                "addr:street": "Racula-Drzonkowska",
                "addr:housenumber": "10",
                "addr:city": "Zielona Góra",
                "addr:postcode": "66-004",
                "amenity": "pharmacy"
            },
            "geometry": {
                "type": "Point",
                "coordinates": [
                    15.571588892298507,
                    51.90796194768791
                ]
            }
        },
        {
            "type": "Feature",
            "properties": {
                "ref:csioz": 1149114,
                "name": "\"Doz Apteka Dbam O Zdrowie \"\"Zacisze\"\"\"",
                "addr:street": "Agrestowa",
                "addr:housenumber": "87",
                "addr:city": "Zielona Góra",
                "addr:postcode": "65-001",
                "amenity": "pharmacy"
            },
            "geometry": {
                "type": "Point",
                "coordinates": [
                    15.471271520647825,
                    51.94563949032136
                ]
            }
        },
        {
            "type": "Feature",
            "properties": {
                "ref:csioz": 1149138,
                "name": "Apteka Dbam O Zdrowie",
                "addr:street": "Anieli Krzywoń",
                "addr:housenumber": "4a",
                "addr:city": "Zielona Góra",
                "addr:postcode": "65-534",
                "amenity": "pharmacy"
            },
            "geometry": {
                "type": "Point",
                "coordinates": [
                    15.488935982361749,
                    51.92853017341929
                ]
            }
        },
        {
            "type": "Feature",
            "properties": {
                "ref:csioz": 1149151,
                "name": "Galafarm",
                "addr:street": "Anny Jagiellonki",
                "addr:housenumber": "25",
                "addr:city": "Zielona Góra",
                "addr:postcode": "65-001",
                "amenity": "pharmacy"
            },
            "geometry": {
                "type": "Point",
                "coordinates": [
                    15.493820234105907,
                    51.95675326987346
                ]
            }
        },
        {
            "type": "Feature",
            "properties": {
                "ref:csioz": 1150049,
                "name": "Zielona",
                "addr:street": "Konstruktorów",
                "addr:housenumber": "36/3",
                "addr:city": "Zielona Góra",
                "addr:postcode": "65-119",
                "amenity": "pharmacy"
            },
            "geometry": {
                "type": "Point",
                "coordinates": [
                    15.498208999962372,
                    51.96091500001593
                ]
            }
        },
        {
            "type": "Feature",
            "properties": {
                "ref:csioz": 1150058,
                "addr:street": "Kożuchowska",
                "addr:housenumber": "24",
                "addr:city": "Zielona Góra",
                "addr:postcode": "65-364",
                "amenity": "pharmacy"
            },
            "geometry": {
                "type": "Point",
                "coordinates": [
                    15.50842100562091,
                    51.91987378188038
                ]
            }
        },
        {
            "type": "Feature",
            "properties": {
                "ref:csioz": 1150063,
                "name": "Prima",
                "addr:street": "Kraljevska",
                "addr:housenumber": "7F",
                "addr:city": "Zielona Góra",
                "addr:postcode": "65-001",
                "amenity": "pharmacy"
            },
            "geometry": {
                "type": "Point",
                "coordinates": [
                    15.480399590347218,
                    51.93712132479413
                ]
            }
        },
        {
            "type": "Feature",
            "properties": {
                "ref:csioz": 1150082,
                "name": "Doz Apteka Dbam O Zdrowie",
                "addr:street": "Kupiecka",
                "addr:housenumber": "25",
                "addr:city": "Zielona Góra",
                "addr:postcode": "65-001",
                "amenity": "pharmacy"
            },
            "geometry": {
                "type": "Point",
                "coordinates": [
                    15.50714661881111,
                    51.93987540296324
                ]
            }
        },
        {
            "type": "Feature",
            "properties": {
                "ref:csioz": 1150118,
                "name": "Remedium",
                "addr:street": "Makowa",
                "addr:housenumber": "14",
                "addr:city": "Zielona Góra",
                "addr:postcode": "65-001",
                "amenity": "pharmacy"
            },
            "geometry": {
                "type": "Point",
                "coordinates": [
                    15.507823288962019,
                    51.9063457503781
                ]
            }
        },
        {
            "type": "Feature",
            "properties": {
                "ref:csioz": 1150139,
                "name": "Morelowa",
                "addr:street": "Morelowa",
                "addr:housenumber": "40",
                "addr:city": "Zielona Góra",
                "addr:postcode": "65-434",
                "amenity": "pharmacy"
            },
            "geometry": {
                "type": "Point",
                "coordinates": [
                    15.519279194555303,
                    51.93258717997844
                ]
            }
        },
        {
            "type": "Feature",
            "properties": {
                "ref:csioz": 1164225,
                "name": "Apteka Alba",
                "addr:street": "Franciszka Rzeźniczaka",
                "addr:housenumber": "3A",
                "addr:city": "Zielona Góra",
                "addr:postcode": "65-119",
                "amenity": "pharmacy"
            },
            "geometry": {
                "type": "Point",
                "coordinates": [
                    15.503812103683297,
                    51.957518667231994
                ]
            }
        },
        {
            "type": "Feature",
            "properties": {
                "ref:csioz": 1167093,
                "addr:street": "Zyty",
                "addr:housenumber": "26",
                "addr:city": "Zielona Góra",
                "addr:postcode": "65-046",
                "amenity": "pharmacy"
            },
            "geometry": {
                "type": "Point",
                "coordinates": [
                    15.519327741646348,
                    51.94139061352046
                ]
            }
        },
        {
            "type": "Feature",
            "properties": {
                "ref:csioz": 1174628,
                "name": "Jaskółcza",
                "addr:street": "Kukułcza",
                "addr:housenumber": "10",
                "addr:city": "Zielona Góra",
                "addr:postcode": "65-472",
                "amenity": "pharmacy"
            },
            "geometry": {
                "type": "Point",
                "coordinates": [
                    15.502004439722093,
                    51.92862149929681
                ]
            }
        },
        {
            "type": "Feature",
            "properties": {
                "ref:csioz": 1175099,
                "name": "Apteka Wazów 42",
                "addr:street": "Wazów",
                "addr:housenumber": "42",
                "addr:city": "Zielona Góra",
                "addr:postcode": "65-044",
                "amenity": "pharmacy"
            },
            "geometry": {
                "type": "Point",
                "coordinates": [
                    15.520341047329158,
                    51.942076417737375
                ]
            }
        },
        {
            "type": "Feature",
            "properties": {
                "ref:csioz": 1185964,
                "name": "Apteka Z Misiem",
                "addr:street": "Budziszyńska",
                "addr:housenumber": "10",
                "addr:city": "Zielona Góra",
                "addr:postcode": "65-942",
                "amenity": "pharmacy"
            },
            "geometry": {
                "type": "Point",
                "coordinates": [
                    15.47592999996105,
                    51.93823900001591
                ]
            }
        },
        {
            "type": "Feature",
            "properties": {
                "ref:csioz": 1185986,
                "name": "Medis",
                "addr:street": "Stary Kisielin-Pionierów Lub.",
                "addr:housenumber": "30",
                "addr:city": "Zielona Góra",
                "addr:postcode": "66-002",
                "amenity": "pharmacy"
            },
            "geometry": {
                "type": "Point",
                "coordinates": [
                    15.585000489302935,
                    51.932932224993905
                ]
            }
        },
        {
            "type": "Feature",
            "properties": {
                "ref:csioz": 1200336,
                "name": "\"Apteka 37,5\"",
                "addr:street": "Piaskowa",
                "addr:housenumber": "3a",
                "addr:city": "Zielona Góra",
                "addr:postcode": "65-204",
                "amenity": "pharmacy"
            },
            "geometry": {
                "type": "Point",
                "coordinates": [
                    15.516479538739347,
                    51.938927198769946
                ]
            }
        },
        {
            "type": "Feature",
            "properties": {
                "ref:csioz": 1200399,
                "name": "\"Apteka 37,5\"",
                "addr:street": "Bohaterów Westerplatte",
                "addr:housenumber": "9",
                "addr:city": "Zielona Góra",
                "addr:postcode": "65-034",
                "amenity": "pharmacy"
            },
            "geometry": {
                "type": "Point",
                "coordinates": [
                    15.505299502992711,
                    51.941849088636616
                ]
            }
        },
        {
            "type": "Feature",
            "properties": {
                "ref:csioz": 1206402,
                "name": "Stylowa 2",
                "addr:street": "Stary Rynek",
                "addr:housenumber": "21",
                "addr:city": "Zielona Góra",
                "addr:postcode": "65-001",
                "amenity": "pharmacy"
            },
            "geometry": {
                "type": "Point",
                "coordinates": [
                    15.504734062806296,
                    51.9383305998279
                ]
            }
        },
        {
            "type": "Feature",
            "properties": {
                "ref:csioz": 1207178,
                "name": "Dr. Max",
                "addr:street": "Morelowa",
                "addr:housenumber": "34",
                "addr:city": "Zielona Góra",
                "addr:postcode": "65-001",
                "amenity": "pharmacy"
            },
            "geometry": {
                "type": "Point",
                "coordinates": [
                    15.516758370413296,
                    51.931831377054316
                ]
            }
        },
        {
            "type": "Feature",
            "properties": {
                "ref:csioz": 1213246,
                "addr:street": "Wazów",
                "addr:housenumber": "42",
                "addr:city": "Zielona Góra",
                "addr:postcode": "65-044",
                "amenity": "pharmacy"
            },
            "geometry": {
                "type": "Point",
                "coordinates": [
                    15.520341047329158,
                    51.942076417737375
                ]
            }
        },
        {
            "type": "Feature",
            "properties": {
                "ref:csioz": 1213267,
                "name": "\"'Salus'\"",
                "addr:street": "Podgórna",
                "addr:housenumber": "43A",
                "addr:city": "Zielona Góra",
                "addr:postcode": "65-001",
                "amenity": "pharmacy"
            },
            "geometry": {
                "type": "Point",
                "coordinates": [
                    15.523069566116707,
                    51.9390100980001
                ]
            }
        },
        {
            "type": "Feature",
            "properties": {
                "ref:csioz": 1213295,
                "name": "\"'Apteka Hygea'\"",
                "addr:street": "Stefana Wyszyńskiego",
                "addr:housenumber": "32D",
                "addr:city": "Zielona Góra",
                "addr:postcode": "65-001",
                "amenity": "pharmacy"
            },
            "geometry": {
                "type": "Point",
                "coordinates": [
                    15.481250623082255,
                    51.934632873585194
                ]
            }
        },
        {
            "type": "Feature",
            "properties": {
                "ref:csioz": 1213802,
                "name": "Doz Apteka Dbam O Zdrowie. Przy Biedronce",
                "addr:street": "Kożuchowska",
                "addr:housenumber": "8",
                "addr:city": "Zielona Góra",
                "addr:postcode": "65-364",
                "amenity": "pharmacy"
            },
            "geometry": {
                "type": "Point",
                "coordinates": [
                    15.508406585142719,
                    51.92625350204329
                ]
            }
        },
        {
            "type": "Feature",
            "properties": {
                "ref:csioz": 1214699,
                "name": "Zaciszna",
                "addr:street": "Zacisze",
                "addr:housenumber": "16",
                "addr:city": "Zielona Góra",
                "addr:postcode": "65-775",
                "amenity": "pharmacy"
            },
            "geometry": {
                "type": "Point",
                "coordinates": [
                    15.478786739812502,
                    51.94095174559799
                ]
            }
        },
        {
            "type": "Feature",
            "properties": {
                "ref:csioz": 1214943,
                "name": "Eskulap",
                "addr:street": "Anieli Krzywoń",
                "addr:housenumber": "2A",
                "addr:city": "Zielona Góra",
                "addr:postcode": "65-534",
                "amenity": "pharmacy"
            },
            "geometry": {
                "type": "Point",
                "coordinates": [
                    15.489123204146335,
                    51.92917530869833
                ]
            }
        },
        {
            "type": "Feature",
            "properties": {
                "ref:csioz": 1218580,
                "name": "Apteka Batorego",
                "addr:street": "Stefana Batorego",
                "addr:housenumber": "126 A",
                "addr:city": "Zielona Góra",
                "addr:postcode": "65-001",
                "amenity": "pharmacy"
            },
            "geometry": {
                "type": "Point",
                "coordinates": [
                    15.495875784805257,
                    51.959187489205114
                ]
            }
        },
        {
            "type": "Feature",
            "properties": {
                "ref:csioz": 1219777,
                "name": "Stylowa 4",
                "addr:street": "Stefana Wyszyńskiego",
                "addr:housenumber": "3",
                "addr:city": "Zielona Góra",
                "addr:postcode": "65-536",
                "amenity": "pharmacy"
            },
            "geometry": {
                "type": "Point",
                "coordinates": [
                    15.493680223502368,
                    51.92881996456719
                ]
            }
        },
        {
            "type": "Feature",
            "properties": {
                "ref:csioz": 1220452,
                "name": "Apteka Gemini",
                "addr:street": "Stefana Wyszyńskiego",
                "addr:housenumber": "29",
                "addr:city": "Zielona Góra",
                "addr:postcode": "65-536",
                "amenity": "pharmacy"
            },
            "geometry": {
                "type": "Point",
                "coordinates": [
                    15.486127618806039,
                    51.931714831948945
                ]
            }
        },
        {
            "type": "Feature",
            "properties": {
                "ref:csioz": 1221048,
                "name": "Apteka Gemini",
                "addr:street": "Podgórna",
                "addr:housenumber": "43D",
                "addr:city": "Zielona Góra",
                "addr:postcode": "65-213",
                "amenity": "pharmacy"
            },
            "geometry": {
                "type": "Point",
                "coordinates": [
                    15.52267340913981,
                    51.93875749028859
                ]
            }
        },
        {
            "type": "Feature",
            "properties": {
                "ref:csioz": 1222026,
                "name": "Stylowa 3",
                "addr:street": "Słowacka",
                "addr:housenumber": "27",
                "addr:city": "Zielona Góra",
                "addr:postcode": "65-943",
                "amenity": "pharmacy"
            },
            "geometry": {
                "type": "Point",
                "coordinates": [
                    15.48042288268408,
                    51.93450970003614
                ]
            }
        },
        {
            "type": "Feature",
            "properties": {
                "ref:csioz": 1227450,
                "addr:street": "Zyty",
                "addr:housenumber": "21",
                "addr:city": "Zielona Góra",
                "addr:postcode": "65-046",
                "amenity": "pharmacy"
            },
            "geometry": {
                "type": "Point",
                "coordinates": [
                    15.518866143538022,
                    51.940548249178605
                ]
            }
        },
        {
            "type": "Feature",
            "properties": {
                "ref:csioz": 1205044,
                "name": "Truskawkowa",
                "addr:street": "Truskawkowa",
                "addr:housenumber": "1 b",
                "addr:city": "Zielona Góra",
                "addr:postcode": "65-129",
                "amenity": "pharmacy"
            },
            "geometry": {
                "type": "Point",
                "coordinates": [
                    15.530031232585904,
                    51.96383147963551
                ]
            }
        },
        {
            "type": "Feature",
            "properties": {
                "ref:csioz": 1222018,
                "name": "\"Apteka \"\"99\"\"\"",
                "addr:street": "Stanisława Staszica",
                "addr:housenumber": "9",
                "addr:city": "Zielona Góra",
                "addr:postcode": "65-001",
                "amenity": "pharmacy"
            },
            "geometry": {
                "type": "Point",
                "coordinates": [
                    15.519841995698084,
                    51.946885810869624
                ]
            }
        }
    ]
}