{
    "type": "FeatureCollection",
    "name": "JPT_KOD_JE_0415",
    "features": [
        {
            "type": "Feature",
            "properties": {
                "ref:csioz": 1102509,
                "name": "Panaceum",
                "addr:street": "Kwiatowa",
                "addr:housenumber": "17a",
                "addr:city": "Czernikowo",
                "addr:postcode": "87-640",
                "amenity": "pharmacy",
                "dispensing": "yes"
            },
            "geometry": {
                "type": "Point",
                "coordinates": [
                    18.930540541562287,
                    52.94034654876152
                ]
            }
        },
        {
            "type": "Feature",
            "properties": {
                "ref:csioz": 1102514,
                "name": "Apteka Im. Jana Pawła Ii",
                "addr:street": "3 Maja",
                "addr:housenumber": "26",
                "addr:city": "Czernikowo",
                "addr:postcode": "87-640",
                "amenity": "pharmacy",
                "dispensing": "yes"
            },
            "geometry": {
                "type": "Point",
                "coordinates": [
                    18.940340558342587,
                    52.94501373095834
                ]
            }
        },
        {
            "type": "Feature",
            "properties": {
                "ref:csioz": 1218055,
                "name": "Apteka Dla Ciebie",
                "addr:street": "Juliusza Słowackiego",
                "addr:housenumber": "33",
                "addr:city": "Czernikowo",
                "addr:postcode": "87-640",
                "amenity": "pharmacy",
                "dispensing": "yes"
            },
            "geometry": {
                "type": "Point",
                "coordinates": [
                    18.936940799790825,
                    52.9436226182993
                ]
            }
        },
        {
            "type": "Feature",
            "properties": {
                "ref:csioz": 1102939,
                "name": "Valeriana",
                "addr:street": "Toruńska",
                "addr:housenumber": "97",
                "addr:city": "Łubianka",
                "addr:postcode": "87-152",
                "amenity": "pharmacy",
                "dispensing": "yes"
            },
            "geometry": {
                "type": "Point",
                "coordinates": [
                    18.50011786730159,
                    53.119538315496214
                ]
            }
        },
        {
            "type": "Feature",
            "properties": {
                "ref:csioz": 1102466,
                "name": "Pod Orłem",
                "addr:street": "Rynek",
                "addr:housenumber": "13",
                "addr:city": "Chełmża",
                "addr:postcode": "87-140",
                "amenity": "pharmacy",
                "dispensing": "yes"
            },
            "geometry": {
                "type": "Point",
                "coordinates": [
                    18.61136552611509,
                    53.18629411938437
                ]
            }
        },
        {
            "type": "Feature",
            "properties": {
                "ref:csioz": 1102477,
                "name": "Nova",
                "addr:street": "gen. Władysława Sikorskiego",
                "addr:housenumber": "50",
                "addr:city": "Chełmża",
                "addr:postcode": "87-140",
                "amenity": "pharmacy",
                "dispensing": "yes"
            },
            "geometry": {
                "type": "Point",
                "coordinates": [
                    18.60190337445338,
                    53.18347494382738
                ]
            }
        },
        {
            "type": "Feature",
            "properties": {
                "ref:csioz": 1102551,
                "addr:street": "Ottona Karwowskiego",
                "addr:housenumber": "5",
                "addr:city": "Grębocin",
                "addr:postcode": "87-122",
                "amenity": "pharmacy",
                "dispensing": "yes"
            },
            "geometry": {
                "type": "Point",
                "coordinates": [
                    18.727644999999892,
                    53.062512000017186
                ]
            }
        },
        {
            "type": "Feature",
            "properties": {
                "ref:csioz": 1102523,
                "name": "Puls 9",
                "addr:housenumber": "62B",
                "addr:postcode": "87-123",
                "amenity": "pharmacy",
                "addr:place": "Dobrzejewice",
                "dispensing": "yes"
            },
            "geometry": {
                "type": "Point",
                "coordinates": [
                    18.835566926465685,
                    53.00754028282809
                ]
            }
        },
        {
            "type": "Feature",
            "properties": {
                "ref:csioz": 1103314,
                "name": "Pod Różami",
                "addr:street": "Osiedlowa",
                "addr:housenumber": "1",
                "addr:city": "Turzno",
                "addr:postcode": "87-148",
                "amenity": "pharmacy",
                "dispensing": "yes"
            },
            "geometry": {
                "type": "Point",
                "coordinates": [
                    18.7328237188448,
                    53.10711612260333
                ]
            }
        },
        {
            "type": "Feature",
            "properties": {
                "ref:csioz": 1105113,
                "name": "Majeranek",
                "addr:street": "Agrestowa",
                "addr:housenumber": "6",
                "addr:city": "Łysomice",
                "addr:postcode": "87-148",
                "amenity": "pharmacy",
                "dispensing": "yes"
            },
            "geometry": {
                "type": "Point",
                "coordinates": [
                    18.625382035506764,
                    53.084861207872
                ]
            }
        },
        {
            "type": "Feature",
            "properties": {
                "ref:csioz": 1105244,
                "name": "Eskulap",
                "addr:street": "Toruńska",
                "addr:housenumber": "6",
                "addr:city": "Łubianka",
                "addr:postcode": "87-152",
                "amenity": "pharmacy",
                "dispensing": "yes"
            },
            "geometry": {
                "type": "Point",
                "coordinates": [
                    18.481905866407,
                    53.13701776198632
                ]
            }
        },
        {
            "type": "Feature",
            "properties": {
                "ref:csioz": 1105357,
                "name": "Pod Łabędziem",
                "addr:street": "Toruńska",
                "addr:housenumber": "14",
                "addr:city": "Wielka Nieszawka",
                "addr:postcode": "87-165",
                "amenity": "pharmacy",
                "dispensing": "yes"
            },
            "geometry": {
                "type": "Point",
                "coordinates": [
                    18.50976155419113,
                    52.9963297689264
                ]
            }
        },
        {
            "type": "Feature",
            "properties": {
                "ref:csioz": 1105679,
                "name": "Szpital Powiatowy",
                "addr:street": "Szewska",
                "addr:housenumber": "23",
                "addr:city": "Chełmża",
                "addr:postcode": "87-140",
                "amenity": "pharmacy",
                "dispensing": "yes"
            },
            "geometry": {
                "type": "Point",
                "coordinates": [
                    18.61047834269427,
                    53.18717060343231
                ]
            }
        },
        {
            "type": "Feature",
            "properties": {
                "ref:csioz": 1110543,
                "addr:street": "Owocowa",
                "addr:housenumber": "43B",
                "addr:city": "Brzozówka",
                "addr:postcode": "87-123",
                "amenity": "pharmacy",
                "dispensing": "yes"
            },
            "geometry": {
                "type": "Point",
                "coordinates": [
                    18.80813799999992,
                    53.024295000017105
                ]
            }
        },
        {
            "type": "Feature",
            "properties": {
                "ref:csioz": 1210139,
                "name": "Zdrówko",
                "addr:street": "Handlowa",
                "addr:housenumber": "4",
                "addr:city": "Osiek nad Wisłą",
                "addr:postcode": "87-125",
                "amenity": "pharmacy",
                "dispensing": "yes"
            },
            "geometry": {
                "type": "Point",
                "coordinates": [
                    18.805824609871703,
                    52.92625952350717
                ]
            }
        },
        {
            "type": "Feature",
            "properties": {
                "ref:csioz": 1211439,
                "name": "Doz Punkt Apteczny Dbam O Zdrowie Zdrówko 1",
                "addr:street": "Toruńska",
                "addr:housenumber": "112",
                "addr:city": "Mała Nieszawka",
                "addr:postcode": "87-103",
                "amenity": "pharmacy",
                "dispensing": "yes"
            },
            "geometry": {
                "type": "Point",
                "coordinates": [
                    18.535841740899173,
                    52.99005729161318
                ]
            }
        },
        {
            "type": "Feature",
            "properties": {
                "ref:csioz": 1103372,
                "name": "Nagietek",
                "addr:housenumber": "8",
                "addr:postcode": "87-141",
                "amenity": "pharmacy",
                "addr:place": "Zelgno",
                "dispensing": "yes"
            },
            "geometry": {
                "type": "Point",
                "coordinates": [
                    18.713756260118494,
                    53.208444088370136
                ]
            }
        },
        {
            "type": "Feature",
            "properties": {
                "ref:csioz": 1101437,
                "name": "Apteka Dbam O Zdrowie",
                "addr:street": "gen. Władysława Sikorskiego",
                "addr:housenumber": "30",
                "addr:city": "Chełmża",
                "addr:postcode": "87-140",
                "amenity": "pharmacy",
                "dispensing": "yes"
            },
            "geometry": {
                "type": "Point",
                "coordinates": [
                    18.604819396278838,
                    53.184870060888244
                ]
            }
        },
        {
            "type": "Feature",
            "properties": {
                "ref:csioz": 1102873,
                "name": "Nad Drwęcą",
                "addr:street": "Lipnowska",
                "addr:housenumber": "58",
                "addr:city": "Lubicz Górny",
                "addr:postcode": "87-162",
                "amenity": "pharmacy",
                "dispensing": "yes"
            },
            "geometry": {
                "type": "Point",
                "coordinates": [
                    18.7696354384174,
                    53.026282476785546
                ]
            }
        },
        {
            "type": "Feature",
            "properties": {
                "ref:csioz": 1102899,
                "name": "Pod Złotym Moździerzem",
                "addr:street": "Sadowa",
                "addr:housenumber": "2a",
                "addr:city": "Łysomice",
                "addr:postcode": "87-148",
                "amenity": "pharmacy",
                "dispensing": "yes"
            },
            "geometry": {
                "type": "Point",
                "coordinates": [
                    18.619245559958358,
                    53.08607430377426
                ]
            }
        },
        {
            "type": "Feature",
            "properties": {
                "ref:csioz": 1103395,
                "name": "Złotoria",
                "addr:street": "Toruńska",
                "addr:housenumber": "62",
                "addr:city": "Złotoria",
                "addr:postcode": "87-124",
                "amenity": "pharmacy",
                "dispensing": "yes"
            },
            "geometry": {
                "type": "Point",
                "coordinates": [
                    18.710432999999888,
                    52.99374100001705
                ]
            }
        },
        {
            "type": "Feature",
            "properties": {
                "ref:csioz": 1103757,
                "name": "Lubicz",
                "addr:street": "Bankowa",
                "addr:housenumber": "3",
                "addr:city": "Lubicz Górny",
                "addr:postcode": "87-162",
                "amenity": "pharmacy",
                "dispensing": "yes"
            },
            "geometry": {
                "type": "Point",
                "coordinates": [
                    18.77067171821069,
                    53.02524630606578
                ]
            }
        },
        {
            "type": "Feature",
            "properties": {
                "ref:csioz": 1119638,
                "name": "Puls 7",
                "addr:street": "Tadeusza Kościuszki",
                "addr:housenumber": "4",
                "addr:city": "Chełmża",
                "addr:postcode": "87-140",
                "amenity": "pharmacy",
                "dispensing": "yes"
            },
            "geometry": {
                "type": "Point",
                "coordinates": [
                    18.606561003018893,
                    53.182023220221296
                ]
            }
        },
        {
            "type": "Feature",
            "properties": {
                "ref:csioz": 1197229,
                "name": "Apteka Dla Ciebie",
                "addr:street": "Kowalewska",
                "addr:housenumber": "6",
                "addr:city": "Grębocin",
                "addr:postcode": "87-122",
                "amenity": "pharmacy",
                "dispensing": "yes"
            },
            "geometry": {
                "type": "Point",
                "coordinates": [
                    18.719511999999884,
                    53.05747400001717
                ]
            }
        },
        {
            "type": "Feature",
            "properties": {
                "ref:csioz": 1206376,
                "name": "Przysiek",
                "addr:street": "Leśna",
                "addr:housenumber": "3C",
                "addr:city": "Przysiek",
                "addr:postcode": "87-134",
                "amenity": "pharmacy",
                "dispensing": "yes"
            },
            "geometry": {
                "type": "Point",
                "coordinates": [
                    18.5003539999998,
                    53.03126700001713
                ]
            }
        },
        {
            "type": "Feature",
            "properties": {
                "ref:csioz": 1215245,
                "name": "Apteka Puls",
                "addr:street": "Paderewskiego",
                "addr:housenumber": "3",
                "addr:city": "Lubicz Górny",
                "addr:postcode": "87-162",
                "amenity": "pharmacy",
                "dispensing": "yes"
            },
            "geometry": {
                "type": "Point",
                "coordinates": [
                    18.76933172544204,
                    53.02260335343761
                ]
            }
        },
        {
            "type": "Feature",
            "properties": {
                "ref:csioz": 1208467,
                "name": "Słoneczny",
                "addr:street": "ul. Słoneczna",
                "addr:housenumber": "2A",
                "addr:city": "Górsk",
                "addr:postcode": "87-134",
                "amenity": "pharmacy",
                "dispensing": "yes"
            },
            "geometry": {
                "type": "Point",
                "coordinates": [
                    18.419270402916766,
                    53.057470419026984
                ]
            }
        }
    ]
}