{
    "type": "FeatureCollection",
    "name": "JPT_KOD_JE_2467",
    "features": [
        {
            "type": "Feature",
            "properties": {
                "ref:csioz": 1062725,
                "name": "Zdrój",
                "addr:street": "1 Maja",
                "addr:housenumber": "29",
                "addr:city": "Jastrzębie-Zdrój",
                "addr:postcode": "44-330",
                "amenity": "pharmacy",
                "dispensing": "yes"
            },
            "geometry": {
                "type": "Point",
                "coordinates": [
                    18.57083298260499,
                    49.94848146153626
                ]
            }
        },
        {
            "type": "Feature",
            "properties": {
                "ref:csioz": 1062749,
                "name": "Apteka Damian V",
                "addr:street": "Aleja Jana Pawła II",
                "addr:housenumber": "7",
                "addr:city": "Jastrzębie-Zdrój",
                "addr:postcode": "44-335",
                "amenity": "pharmacy",
                "dispensing": "yes"
            },
            "geometry": {
                "type": "Point",
                "coordinates": [
                    18.584069772742293,
                    49.947548948621275
                ]
            }
        },
        {
            "type": "Feature",
            "properties": {
                "ref:csioz": 1062758,
                "name": "Pod Lwem",
                "addr:street": "Aleja Józefa Piłsudskiego",
                "addr:housenumber": "2A",
                "addr:city": "Jastrzębie-Zdrój",
                "addr:postcode": "44-335",
                "amenity": "pharmacy",
                "dispensing": "yes"
            },
            "geometry": {
                "type": "Point",
                "coordinates": [
                    18.594214781435475,
                    49.949437212238045
                ]
            }
        },
        {
            "type": "Feature",
            "properties": {
                "ref:csioz": 1062774,
                "name": "Damian",
                "addr:street": "Harcerska",
                "addr:housenumber": "9",
                "addr:city": "Jastrzębie-Zdrój",
                "addr:postcode": "44-335",
                "amenity": "pharmacy",
                "dispensing": "yes"
            },
            "geometry": {
                "type": "Point",
                "coordinates": [
                    18.609888236135376,
                    49.9519259933039
                ]
            }
        },
        {
            "type": "Feature",
            "properties": {
                "ref:csioz": 1062796,
                "name": "Brak Nazwy",
                "addr:street": "KOMUNY PARYSKIEJ",
                "addr:housenumber": "18",
                "addr:city": "JASTRZĘBIE ZDRÓJ",
                "addr:postcode": "44-338",
                "amenity": "pharmacy",
                "dispensing": "yes"
            },
            "geometry": {
                "type": "Point",
                "coordinates": [
                    18.543322999999877,
                    49.93882300001242
                ]
            }
        },
        {
            "type": "Feature",
            "properties": {
                "ref:csioz": 1062816,
                "name": "Apteka Damian Iv",
                "addr:street": "Heleny Marusarzówny",
                "addr:housenumber": "21",
                "addr:city": "Jastrzębie-Zdrój",
                "addr:postcode": "44-335",
                "amenity": "pharmacy",
                "dispensing": "yes"
            },
            "geometry": {
                "type": "Point",
                "coordinates": [
                    18.57804728632445,
                    49.94342921728636
                ]
            }
        },
        {
            "type": "Feature",
            "properties": {
                "ref:csioz": 1062888,
                "name": "Dbam O Zdrowie",
                "addr:street": "Warmińska",
                "addr:housenumber": "2 B",
                "addr:city": "Jastrzębie-Zdrój",
                "addr:postcode": "44-335",
                "amenity": "pharmacy",
                "dispensing": "yes"
            },
            "geometry": {
                "type": "Point",
                "coordinates": [
                    18.604929878268905,
                    49.94582896551857
                ]
            }
        },
        {
            "type": "Feature",
            "properties": {
                "ref:csioz": 1062902,
                "name": "Apteka Zdrowit",
                "addr:street": "Wielkopolska",
                "addr:housenumber": "2 A",
                "addr:city": "Jastrzębie-Zdrój",
                "addr:postcode": "44-335",
                "amenity": "pharmacy",
                "dispensing": "yes"
            },
            "geometry": {
                "type": "Point",
                "coordinates": [
                    18.596400400786003,
                    49.949346384665645
                ]
            }
        },
        {
            "type": "Feature",
            "properties": {
                "ref:csioz": 1062915,
                "name": "Apteka Zdrowit",
                "addr:street": "Wielkopolska",
                "addr:housenumber": "5 A",
                "addr:city": "Jastrzębie-Zdrój",
                "addr:postcode": "44-335",
                "amenity": "pharmacy",
                "dispensing": "yes"
            },
            "geometry": {
                "type": "Point",
                "coordinates": [
                    18.59413642454733,
                    49.94808958452944
                ]
            }
        },
        {
            "type": "Feature",
            "properties": {
                "ref:csioz": 1062928,
                "name": "Pod Ręką",
                "addr:street": "Adolfa Wodeckiego",
                "addr:housenumber": "21",
                "addr:city": "Jastrzębie-Zdrój",
                "addr:postcode": "44-335",
                "amenity": "pharmacy",
                "dispensing": "yes"
            },
            "geometry": {
                "type": "Point",
                "coordinates": [
                    18.61999822056235,
                    49.96653526149296
                ]
            }
        },
        {
            "type": "Feature",
            "properties": {
                "ref:csioz": 1074151,
                "name": "Wojewódzki Szpital Specjalistyczny Nr 2 W Jastrzębiu-Zdrój",
                "addr:street": "AL.JANA PAWŁA II",
                "addr:housenumber": "7",
                "addr:city": "JASTRZĘBIE ZDRÓJ",
                "addr:postcode": "44-330",
                "amenity": "pharmacy",
                "dispensing": "yes"
            },
            "geometry": {
                "type": "Point",
                "coordinates": [
                    18.584069999999894,
                    49.94755000001243
                ]
            }
        },
        {
            "type": "Feature",
            "properties": {
                "ref:csioz": 1117391,
                "name": "\"Zakład Leczniczo-Opiekuńczy Dla Dzieci 'Betlejem'\"",
                "addr:street": "Pszczyńska",
                "addr:housenumber": "11",
                "addr:city": "Jastrzębie-Zdrój",
                "addr:postcode": "44-330",
                "amenity": "pharmacy",
                "dispensing": "yes"
            },
            "geometry": {
                "type": "Point",
                "coordinates": [
                    18.577778735993288,
                    49.95629827669554
                ]
            }
        },
        {
            "type": "Feature",
            "properties": {
                "ref:csioz": 1170553,
                "name": "Ziko Apteka",
                "addr:street": "11 Listopada",
                "addr:housenumber": "2",
                "addr:city": "Jastrzębie-Zdrój",
                "addr:postcode": "44-330",
                "amenity": "pharmacy",
                "dispensing": "yes"
            },
            "geometry": {
                "type": "Point",
                "coordinates": [
                    18.575354354703528,
                    49.95023732353352
                ]
            }
        },
        {
            "type": "Feature",
            "properties": {
                "ref:csioz": 1170566,
                "name": "Ziko Apteka",
                "addr:street": "Warmińska",
                "addr:housenumber": "2B",
                "addr:city": "Jastrzębie-Zdrój",
                "addr:postcode": "44-335",
                "amenity": "pharmacy",
                "dispensing": "yes"
            },
            "geometry": {
                "type": "Point",
                "coordinates": [
                    18.604929878268905,
                    49.94579896551857
                ]
            }
        },
        {
            "type": "Feature",
            "properties": {
                "ref:csioz": 1183079,
                "name": "Szpital Rehabilitacyjny Dla Dzieci",
                "addr:street": "Tadeusza Kościuszki",
                "addr:housenumber": "14",
                "addr:city": "Jastrzębie-Zdrój",
                "addr:postcode": "44-330",
                "amenity": "pharmacy",
                "dispensing": "yes"
            },
            "geometry": {
                "type": "Point",
                "coordinates": [
                    18.57170383710065,
                    49.947015724004245
                ]
            }
        },
        {
            "type": "Feature",
            "properties": {
                "ref:csioz": 1201265,
                "name": "Apteka Damian Vi",
                "addr:street": "Piastów",
                "addr:housenumber": "4",
                "addr:city": "Jastrzębie-Zdrój",
                "addr:postcode": "44-335",
                "amenity": "pharmacy",
                "dispensing": "yes"
            },
            "geometry": {
                "type": "Point",
                "coordinates": [
                    18.571488467716986,
                    49.96496375587244
                ]
            }
        },
        {
            "type": "Feature",
            "properties": {
                "ref:csioz": 1062834,
                "name": "Pod Ręką",
                "addr:street": "Osiedle 1000-lecia",
                "addr:housenumber": "3 B",
                "addr:city": "Jastrzębie-Zdrój",
                "addr:postcode": "44-268",
                "amenity": "pharmacy",
                "dispensing": "yes"
            },
            "geometry": {
                "type": "Point",
                "coordinates": [
                    18.6239749999999,
                    49.9916260000125
                ]
            }
        },
        {
            "type": "Feature",
            "properties": {
                "ref:csioz": 1062869,
                "name": "Dbam O Zdrowie",
                "addr:street": "Pszczyńska",
                "addr:housenumber": "8",
                "addr:city": "Jastrzębie-Zdrój",
                "addr:postcode": "44-335",
                "amenity": "pharmacy",
                "dispensing": "yes"
            },
            "geometry": {
                "type": "Point",
                "coordinates": [
                    18.57761771862703,
                    49.954818237079735
                ]
            }
        },
        {
            "type": "Feature",
            "properties": {
                "ref:csioz": 1062875,
                "name": "Damian 2",
                "addr:street": "Turystyczna",
                "addr:housenumber": "36",
                "addr:city": "Jastrzębie-Zdrój",
                "addr:postcode": "44-335",
                "amenity": "pharmacy",
                "dispensing": "yes"
            },
            "geometry": {
                "type": "Point",
                "coordinates": [
                    18.61314268282858,
                    49.94786776019193
                ]
            }
        },
        {
            "type": "Feature",
            "properties": {
                "ref:csioz": 1062931,
                "name": "Dr. Max",
                "addr:street": "Wrocławska",
                "addr:housenumber": "20",
                "addr:city": "Jastrzębie-Zdrój",
                "addr:postcode": "44-335",
                "amenity": "pharmacy",
                "dispensing": "yes"
            },
            "geometry": {
                "type": "Point",
                "coordinates": [
                    18.592352862835092,
                    49.95216860215896
                ]
            }
        },
        {
            "type": "Feature",
            "properties": {
                "ref:csioz": 1112154,
                "name": "Apteka Zdrowit",
                "addr:street": "Harcerska",
                "addr:housenumber": "1a",
                "addr:city": "Jastrzębie Zdrój",
                "addr:postcode": "44-335",
                "amenity": "pharmacy",
                "dispensing": "yes"
            },
            "geometry": {
                "type": "Point",
                "coordinates": [
                    18.6067089999999,
                    49.95202400001244
                ]
            }
        },
        {
            "type": "Feature",
            "properties": {
                "ref:csioz": 1122200,
                "name": "\"Leczniczo-Rehabilitacyjny Niepubliczny Zakład Opieki Zdrowotnej \"\"Orthogon\"\" Sp. Z O.O. - Stacjonarny\"",
                "addr:street": "Adolfa Wodeckiego",
                "addr:housenumber": "23",
                "addr:city": "Jastrzębie-Zdrój",
                "addr:postcode": "44-335",
                "amenity": "pharmacy",
                "dispensing": "yes"
            },
            "geometry": {
                "type": "Point",
                "coordinates": [
                    18.620587491497396,
                    49.966604837442326
                ]
            }
        },
        {
            "type": "Feature",
            "properties": {
                "ref:csioz": 1164697,
                "addr:street": "Łowicka",
                "addr:housenumber": "23",
                "addr:city": "Jastrzębie Zdrój",
                "addr:postcode": "44-335",
                "amenity": "pharmacy",
                "dispensing": "yes"
            },
            "geometry": {
                "type": "Point",
                "coordinates": [
                    18.603514999999906,
                    49.94741400001243
                ]
            }
        },
        {
            "type": "Feature",
            "properties": {
                "ref:csioz": 1180240,
                "name": "Duos",
                "addr:street": "Podhalańska",
                "addr:housenumber": "26",
                "addr:city": "Jastrzębie-Zdrój",
                "addr:postcode": "44-335",
                "amenity": "pharmacy",
                "dispensing": "yes"
            },
            "geometry": {
                "type": "Point",
                "coordinates": [
                    18.594316926973836,
                    49.93954680594022
                ]
            }
        },
        {
            "type": "Feature",
            "properties": {
                "ref:csioz": 1208725,
                "name": "Ziko Apteka",
                "addr:street": "Warszawska",
                "addr:housenumber": "2",
                "addr:city": "Jastrzębie-Zdrój",
                "addr:postcode": "44-335",
                "amenity": "pharmacy",
                "dispensing": "yes"
            },
            "geometry": {
                "type": "Point",
                "coordinates": [
                    18.596877692944084,
                    49.95133816081296
                ]
            }
        },
        {
            "type": "Feature",
            "properties": {
                "ref:csioz": 1225034,
                "name": "Maria-Pharm",
                "addr:street": "Niepodległości",
                "addr:housenumber": "178",
                "addr:city": "Jastrzębie-Zdrój",
                "addr:postcode": "44-336",
                "amenity": "pharmacy",
                "dispensing": "yes"
            },
            "geometry": {
                "type": "Point",
                "coordinates": [
                    18.6466213181934,
                    49.937557668008104
                ]
            }
        }
    ]
}