{
    "type": "FeatureCollection",
    "name": "JPT_KOD_JE_3016",
    "features": [
        {
            "type": "Feature",
            "properties": {
                "ref:csioz": 1047133,
                "name": "Apteka Dbam O Zdrowie",
                "addr:street": "11 Listopada",
                "addr:housenumber": "2",
                "addr:city": "Oborniki",
                "addr:postcode": "64-600",
                "amenity": "pharmacy"
            },
            "geometry": {
                "type": "Point",
                "coordinates": [
                    16.816262854096163,
                    52.64678378629332
                ]
            }
        },
        {
            "type": "Feature",
            "properties": {
                "ref:csioz": 1047494,
                "addr:street": "Młyńska",
                "addr:housenumber": "8B",
                "addr:city": "Oborniki",
                "addr:postcode": "64-600",
                "amenity": "pharmacy"
            },
            "geometry": {
                "type": "Point",
                "coordinates": [
                    16.817509013812515,
                    52.64997189934879
                ]
            }
        },
        {
            "type": "Feature",
            "properties": {
                "ref:csioz": 1050345,
                "name": "Dr. Max",
                "addr:street": "Marszałka Józefa Piłsudskiego",
                "addr:housenumber": "41",
                "addr:city": "Oborniki",
                "addr:postcode": "64-600",
                "amenity": "pharmacy"
            },
            "geometry": {
                "type": "Point",
                "coordinates": [
                    16.81296864212525,
                    52.650126365444
                ]
            }
        },
        {
            "type": "Feature",
            "properties": {
                "ref:csioz": 1051637,
                "addr:street": "Obrzycka",
                "addr:housenumber": "46",
                "addr:city": "Oborniki",
                "addr:postcode": "64-600",
                "amenity": "pharmacy"
            },
            "geometry": {
                "type": "Point",
                "coordinates": [
                    16.796057636716355,
                    52.64898599370329
                ]
            }
        },
        {
            "type": "Feature",
            "properties": {
                "ref:csioz": 1166751,
                "name": "Pod Wierzbą",
                "addr:street": "Edmunda Stefanowicza",
                "addr:housenumber": "33",
                "addr:city": "Oborniki",
                "addr:postcode": "64-600",
                "amenity": "pharmacy"
            },
            "geometry": {
                "type": "Point",
                "coordinates": [
                    16.82004399999609,
                    52.65262300001651
                ]
            }
        },
        {
            "type": "Feature",
            "properties": {
                "ref:csioz": 1191719,
                "name": "Apteka Dbam O Zdrowie",
                "addr:street": "Zamkowa",
                "addr:housenumber": "1C",
                "addr:city": "Oborniki",
                "addr:postcode": "64-600",
                "amenity": "pharmacy"
            },
            "geometry": {
                "type": "Point",
                "coordinates": [
                    16.808907268390385,
                    52.645001919710474
                ]
            }
        },
        {
            "type": "Feature",
            "properties": {
                "ref:csioz": 1044478,
                "addr:street": "SZPITALNA",
                "addr:housenumber": "2",
                "addr:city": "OBORNIKI WIELKOPOLSKIE",
                "addr:postcode": "64-600",
                "amenity": "pharmacy"
            },
            "geometry": {
                "type": "Point",
                "coordinates": [
                    16.816206999996062,
                    52.65331100001652
                ]
            }
        },
        {
            "type": "Feature",
            "properties": {
                "ref:csioz": 1051561,
                "name": "Leśna",
                "addr:street": "4 Stycznia 1919 r.",
                "addr:housenumber": "22",
                "addr:city": "Oborniki",
                "addr:postcode": "64-600",
                "amenity": "pharmacy"
            },
            "geometry": {
                "type": "Point",
                "coordinates": [
                    16.799958598398817,
                    52.65217693776395
                ]
            }
        },
        {
            "type": "Feature",
            "properties": {
                "ref:csioz": 1175652,
                "name": "Chiron",
                "addr:housenumber": "11G",
                "addr:postcode": "64-600",
                "amenity": "pharmacy",
                "addr:place": "Bogdanowo"
            },
            "geometry": {
                "type": "Point",
                "coordinates": [
                    16.81045003829928,
                    52.630189692921434
                ]
            }
        },
        {
            "type": "Feature",
            "properties": {
                "ref:csioz": 1191517,
                "name": "Św. Zuzanny",
                "addr:street": "Łazienkowa",
                "addr:housenumber": "1A",
                "addr:city": "Oborniki",
                "addr:postcode": "64-600",
                "amenity": "pharmacy"
            },
            "geometry": {
                "type": "Point",
                "coordinates": [
                    16.815492613843674,
                    52.65328799952311
                ]
            }
        },
        {
            "type": "Feature",
            "properties": {
                "ref:csioz": 1202049,
                "name": "Apteka W Galerii",
                "addr:street": "Młyńska",
                "addr:housenumber": "5",
                "addr:city": "Oborniki",
                "addr:postcode": "64-600",
                "amenity": "pharmacy"
            },
            "geometry": {
                "type": "Point",
                "coordinates": [
                    16.817789668798056,
                    52.650905282963215
                ]
            }
        },
        {
            "type": "Feature",
            "properties": {
                "ref:csioz": 1211927,
                "name": "Dr. Max",
                "addr:street": "Młyńska",
                "addr:housenumber": "7",
                "addr:city": "Oborniki",
                "addr:postcode": "64-600",
                "amenity": "pharmacy"
            },
            "geometry": {
                "type": "Point",
                "coordinates": [
                    16.818394943825137,
                    52.650554548837434
                ]
            }
        },
        {
            "type": "Feature",
            "properties": {
                "ref:csioz": 1205813,
                "name": "Obornickie Centrum Zdrowia",
                "addr:street": "Obrzycka",
                "addr:housenumber": "68",
                "addr:city": "Oborniki",
                "addr:postcode": "64-600",
                "amenity": "pharmacy"
            },
            "geometry": {
                "type": "Point",
                "coordinates": [
                    16.792225569505206,
                    52.649714781127464
                ]
            }
        },
        {
            "type": "Feature",
            "properties": {
                "ref:csioz": 1206779,
                "name": "Lawendowa",
                "addr:street": "Powstańców Wielkopolskich",
                "addr:housenumber": "23",
                "addr:city": "Oborniki",
                "addr:postcode": "64-600",
                "amenity": "pharmacy"
            },
            "geometry": {
                "type": "Point",
                "coordinates": [
                    16.813826681612415,
                    52.64503788870446
                ]
            }
        },
        {
            "type": "Feature",
            "properties": {
                "ref:csioz": 1208339,
                "name": "Apteka Obornicka",
                "addr:street": "Marszałka Józefa Piłsudskiego",
                "addr:housenumber": "1",
                "addr:city": "Oborniki",
                "addr:postcode": "64-600",
                "amenity": "pharmacy"
            },
            "geometry": {
                "type": "Point",
                "coordinates": [
                    16.80973405167384,
                    52.645869799462815
                ]
            }
        },
        {
            "type": "Feature",
            "properties": {
                "ref:csioz": 1215827,
                "name": "Apteka Prima",
                "addr:street": "Droga Leśna",
                "addr:housenumber": "78",
                "addr:city": "Oborniki",
                "addr:postcode": "64-600",
                "amenity": "pharmacy"
            },
            "geometry": {
                "type": "Point",
                "coordinates": [
                    16.79556091618548,
                    52.65226923316793
                ]
            }
        },
        {
            "type": "Feature",
            "properties": {
                "ref:csioz": 1045666,
                "name": "Sanitas",
                "addr:street": "KOLEJOWA",
                "addr:housenumber": "11",
                "addr:city": "RYCZYWÓŁ",
                "addr:postcode": "64-630",
                "amenity": "pharmacy"
            },
            "geometry": {
                "type": "Point",
                "coordinates": [
                    16.83382374721682,
                    52.80904045813519
                ]
            }
        },
        {
            "type": "Feature",
            "properties": {
                "ref:csioz": 1046914,
                "name": "Niezwykła",
                "addr:street": "Przemysława II",
                "addr:housenumber": "3",
                "addr:city": "Rogoźno",
                "addr:postcode": "64-610",
                "amenity": "pharmacy"
            },
            "geometry": {
                "type": "Point",
                "coordinates": [
                    16.988662939042975,
                    52.75077512591743
                ]
            }
        },
        {
            "type": "Feature",
            "properties": {
                "ref:csioz": 1047090,
                "name": "Słoneczna",
                "addr:street": "Powstańców Wlkp.",
                "addr:housenumber": "10",
                "addr:city": "Rogoźno",
                "addr:postcode": "64-610",
                "amenity": "pharmacy"
            },
            "geometry": {
                "type": "Point",
                "coordinates": [
                    17.002037090751433,
                    52.75323644581385
                ]
            }
        },
        {
            "type": "Feature",
            "properties": {
                "ref:csioz": 1050291,
                "name": "Pod Orłem",
                "addr:street": "WIELKA POZNAŃSKA",
                "addr:housenumber": "1",
                "addr:city": "ROGOŹNO",
                "addr:postcode": "64-610",
                "amenity": "pharmacy"
            },
            "geometry": {
                "type": "Point",
                "coordinates": [
                    17.003376355122285,
                    52.751106758307124
                ]
            }
        },
        {
            "type": "Feature",
            "properties": {
                "ref:csioz": 1055553,
                "name": "Św.Wita",
                "addr:street": "II Armii Wojska Polskiego",
                "addr:housenumber": "4A",
                "addr:city": "Rogoźno",
                "addr:postcode": "64-610",
                "amenity": "pharmacy"
            },
            "geometry": {
                "type": "Point",
                "coordinates": [
                    16.989422999997192,
                    52.752717000016666
                ]
            }
        },
        {
            "type": "Feature",
            "properties": {
                "ref:csioz": 1046039,
                "name": "Nowa",
                "addr:street": "Kolejowa",
                "addr:housenumber": "8",
                "addr:city": "Ryczywół",
                "addr:postcode": "64-630",
                "amenity": "pharmacy"
            },
            "geometry": {
                "type": "Point",
                "coordinates": [
                    16.83458867872111,
                    52.80989291616113
                ]
            }
        },
        {
            "type": "Feature",
            "properties": {
                "ref:csioz": 1192301,
                "name": "Passiflora",
                "addr:housenumber": "71",
                "addr:postcode": "64-603",
                "amenity": "pharmacy",
                "addr:place": "Ludomy"
            },
            "geometry": {
                "type": "Point",
                "coordinates": [
                    16.81984138657468,
                    52.756377913043
                ]
            }
        },
        {
            "type": "Feature",
            "properties": {
                "ref:csioz": 1226953,
                "name": "Agnus",
                "addr:housenumber": "99",
                "addr:postcode": "64-608",
                "amenity": "pharmacy",
                "addr:place": "Parkowo"
            },
            "geometry": {
                "type": "Point",
                "coordinates": [
                    16.915895279597663,
                    52.703551026716326
                ]
            }
        }
    ]
}