{
    "type": "FeatureCollection",
    "name": "JPT_KOD_JE_2263",
    "features": [
        {
            "type": "Feature",
            "properties": {
                "ref:csioz": 1028530,
                "addr:street": "Armii Krajowej",
                "addr:housenumber": "36",
                "addr:city": "Słupsk",
                "addr:postcode": "76-200",
                "amenity": "pharmacy",
                "dispensing": "yes"
            },
            "geometry": {
                "type": "Point",
                "coordinates": [
                    17.0360350873357,
                    54.467486088359934
                ]
            }
        },
        {
            "type": "Feature",
            "properties": {
                "ref:csioz": 1028921,
                "name": "Pod Emką",
                "addr:street": "Zygmunta Augusta",
                "addr:housenumber": "14",
                "addr:city": "Słupsk",
                "addr:postcode": "76-200",
                "amenity": "pharmacy",
                "dispensing": "yes"
            },
            "geometry": {
                "type": "Point",
                "coordinates": [
                    17.007356658363427,
                    54.467311272735124
                ]
            }
        },
        {
            "type": "Feature",
            "properties": {
                "ref:csioz": 1030688,
                "name": "Doz Apteka Dbam O Zdrowie",
                "addr:street": "Wolności",
                "addr:housenumber": "6",
                "addr:city": "Słupsk",
                "addr:postcode": "76-200",
                "amenity": "pharmacy",
                "dispensing": "yes"
            },
            "geometry": {
                "type": "Point",
                "coordinates": [
                    17.02494267578682,
                    54.47133969720275
                ]
            }
        },
        {
            "type": "Feature",
            "properties": {
                "ref:csioz": 1031966,
                "name": "Apteka Dyżurna",
                "addr:street": "Juliana Tuwima",
                "addr:housenumber": "32-33",
                "addr:city": "Słupsk",
                "addr:postcode": "76-200",
                "amenity": "pharmacy",
                "dispensing": "yes"
            },
            "geometry": {
                "type": "Point",
                "coordinates": [
                    17.024105458078292,
                    54.46484686152684
                ]
            }
        },
        {
            "type": "Feature",
            "properties": {
                "ref:csioz": 1032397,
                "name": "Centrum Zdrowia",
                "addr:street": "Józefa Piłsudskiego",
                "addr:housenumber": "2",
                "addr:city": "Słupsk",
                "addr:postcode": "76-200",
                "amenity": "pharmacy",
                "dispensing": "yes"
            },
            "geometry": {
                "type": "Point",
                "coordinates": [
                    17.006723149632997,
                    54.464478117419944
                ]
            }
        },
        {
            "type": "Feature",
            "properties": {
                "ref:csioz": 1032822,
                "name": "Aptaka Dbam O Zdrowie",
                "addr:street": "Jana Pawła II",
                "addr:housenumber": "1",
                "addr:city": "Słupsk",
                "addr:postcode": "76-200",
                "amenity": "pharmacy",
                "dispensing": "yes"
            },
            "geometry": {
                "type": "Point",
                "coordinates": [
                    17.029867678792638,
                    54.4634947790336
                ]
            }
        },
        {
            "type": "Feature",
            "properties": {
                "ref:csioz": 1033260,
                "name": "Apteka Dyżurna",
                "addr:street": "Wojska Polskiego",
                "addr:housenumber": "44",
                "addr:city": "Słupsk",
                "addr:postcode": "76-200",
                "amenity": "pharmacy",
                "dispensing": "yes"
            },
            "geometry": {
                "type": "Point",
                "coordinates": [
                    17.023282211176763,
                    54.467116853550536
                ]
            }
        },
        {
            "type": "Feature",
            "properties": {
                "ref:csioz": 1033344,
                "name": "Na Hubalczyków",
                "addr:street": "Hubalczyków",
                "addr:housenumber": "13B",
                "addr:city": "Słupsk",
                "addr:postcode": "76-200",
                "amenity": "pharmacy",
                "dispensing": "yes"
            },
            "geometry": {
                "type": "Point",
                "coordinates": [
                    17.061032999997693,
                    54.456863000019524
                ]
            }
        },
        {
            "type": "Feature",
            "properties": {
                "ref:csioz": 1118596,
                "name": "Apteka Cosmedica",
                "addr:street": "Stefana Starzyńskiego",
                "addr:housenumber": "6-7 lok. 3",
                "addr:city": "Słupsk",
                "addr:postcode": "76-200",
                "amenity": "pharmacy",
                "dispensing": "yes"
            },
            "geometry": {
                "type": "Point",
                "coordinates": [
                    17.023972708613766,
                    54.465842825589306
                ]
            }
        },
        {
            "type": "Feature",
            "properties": {
                "ref:csioz": 1120283,
                "name": "Hebeapteka",
                "addr:street": "Hugona Kołłątaja",
                "addr:housenumber": "29A",
                "addr:city": "Słupsk",
                "addr:postcode": "76-200",
                "amenity": "pharmacy",
                "dispensing": "yes"
            },
            "geometry": {
                "type": "Point",
                "coordinates": [
                    17.017355999997523,
                    54.469551000019564
                ]
            }
        },
        {
            "type": "Feature",
            "properties": {
                "ref:csioz": 1122221,
                "name": "Hebeapteka",
                "addr:street": "Dąbrowskiego",
                "addr:housenumber": "3",
                "addr:city": "Słupsk",
                "addr:postcode": "76-200",
                "amenity": "pharmacy",
                "dispensing": "yes"
            },
            "geometry": {
                "type": "Point",
                "coordinates": [
                    17.02192644072038,
                    54.463680546979504
                ]
            }
        },
        {
            "type": "Feature",
            "properties": {
                "ref:csioz": 1178914,
                "name": "Apteka Na Gierymskich",
                "addr:street": "Juliusza Kossaka",
                "addr:housenumber": "23 B",
                "addr:city": "Słupsk",
                "addr:postcode": "76-200",
                "amenity": "pharmacy",
                "dispensing": "yes"
            },
            "geometry": {
                "type": "Point",
                "coordinates": [
                    17.001793586012177,
                    54.45978905547827
                ]
            }
        },
        {
            "type": "Feature",
            "properties": {
                "ref:csioz": 1029912,
                "name": "Vitae",
                "addr:street": "Kołłątaja",
                "addr:housenumber": "25",
                "addr:city": "Słupsk",
                "addr:postcode": "76-200",
                "amenity": "pharmacy",
                "dispensing": "yes"
            },
            "geometry": {
                "type": "Point",
                "coordinates": [
                    17.01837850318038,
                    54.47157200932861
                ]
            }
        },
        {
            "type": "Feature",
            "properties": {
                "ref:csioz": 1192669,
                "name": "Dom Leków",
                "addr:street": "Władysława IV",
                "addr:housenumber": "9",
                "addr:city": "Słupsk",
                "addr:postcode": "76-200",
                "amenity": "pharmacy",
                "dispensing": "yes"
            },
            "geometry": {
                "type": "Point",
                "coordinates": [
                    17.008147833462868,
                    54.47033233054549
                ]
            }
        },
        {
            "type": "Feature",
            "properties": {
                "ref:csioz": 1197783,
                "name": "Hebeapteka",
                "addr:street": "Szczecińska",
                "addr:housenumber": "58",
                "addr:city": "Słupsk",
                "addr:postcode": "76-200",
                "amenity": "pharmacy",
                "dispensing": "yes"
            },
            "geometry": {
                "type": "Point",
                "coordinates": [
                    16.98889679759679,
                    54.45541200321747
                ]
            }
        },
        {
            "type": "Feature",
            "properties": {
                "ref:csioz": 1214369,
                "name": "Prima",
                "addr:street": "11 Listopada",
                "addr:housenumber": "17",
                "addr:city": "Słupsk",
                "addr:postcode": "76-200",
                "amenity": "pharmacy",
                "dispensing": "yes"
            },
            "geometry": {
                "type": "Point",
                "coordinates": [
                    16.98905315347217,
                    54.464860713394565
                ]
            }
        },
        {
            "type": "Feature",
            "properties": {
                "ref:csioz": 1028332,
                "name": "Apteka Dbam O Zdrowie",
                "addr:street": "Nowobramska",
                "addr:housenumber": "4",
                "addr:city": "Słupsk",
                "addr:postcode": "76-200",
                "amenity": "pharmacy",
                "dispensing": "yes"
            },
            "geometry": {
                "type": "Point",
                "coordinates": [
                    17.029268456944944,
                    54.466030760125264
                ]
            }
        },
        {
            "type": "Feature",
            "properties": {
                "ref:csioz": 1028341,
                "name": "Apteka Dbam O Zdrowie",
                "addr:street": "Wojska Polskiego",
                "addr:housenumber": "9",
                "addr:city": "Słupsk",
                "addr:postcode": "76-200",
                "amenity": "pharmacy",
                "dispensing": "yes"
            },
            "geometry": {
                "type": "Point",
                "coordinates": [
                    17.0236429280289,
                    54.467417612178444
                ]
            }
        },
        {
            "type": "Feature",
            "properties": {
                "ref:csioz": 1028386,
                "addr:street": "Hubalczyków",
                "addr:housenumber": "8",
                "addr:city": "Słupsk",
                "addr:postcode": "76-200",
                "amenity": "pharmacy",
                "dispensing": "yes"
            },
            "geometry": {
                "type": "Point",
                "coordinates": [
                    17.059886239763888,
                    54.45720920348218
                ]
            }
        },
        {
            "type": "Feature",
            "properties": {
                "ref:csioz": 1028454,
                "name": "Apteka Gemini",
                "addr:street": "Stary Rynek",
                "addr:housenumber": "5",
                "addr:city": "Słupsk",
                "addr:postcode": "76-200",
                "amenity": "pharmacy",
                "dispensing": "yes"
            },
            "geometry": {
                "type": "Point",
                "coordinates": [
                    17.030756192066622,
                    54.46661511813844
                ]
            }
        },
        {
            "type": "Feature",
            "properties": {
                "ref:csioz": 1030565,
                "name": "Centrum Farmaceutyczne",
                "addr:street": "Wileńska",
                "addr:housenumber": "38",
                "addr:city": "Słupsk",
                "addr:postcode": "76-200",
                "amenity": "pharmacy",
                "dispensing": "yes"
            },
            "geometry": {
                "type": "Point",
                "coordinates": [
                    17.02008623905882,
                    54.466174001206035
                ]
            }
        },
        {
            "type": "Feature",
            "properties": {
                "ref:csioz": 1030819,
                "name": "Medykament",
                "addr:street": "Bohaterów Westerplatte",
                "addr:housenumber": "7",
                "addr:city": "Słupsk",
                "addr:postcode": "76-200",
                "amenity": "pharmacy",
                "dispensing": "yes"
            },
            "geometry": {
                "type": "Point",
                "coordinates": [
                    17.045467999997637,
                    54.46106900001954
                ]
            }
        },
        {
            "type": "Feature",
            "properties": {
                "ref:csioz": 1030938,
                "name": "Prima",
                "addr:street": "Juliusza Słowackiego",
                "addr:housenumber": "4",
                "addr:city": "Słupsk",
                "addr:postcode": "76-200",
                "amenity": "pharmacy",
                "dispensing": "yes"
            },
            "geometry": {
                "type": "Point",
                "coordinates": [
                    17.030326345007698,
                    54.46171480984334
                ]
            }
        },
        {
            "type": "Feature",
            "properties": {
                "ref:csioz": 1031268,
                "name": "Jodłowa",
                "addr:street": "Jodłowa",
                "addr:housenumber": "53A",
                "addr:city": "Słupsk",
                "addr:postcode": "76-200",
                "amenity": "pharmacy",
                "dispensing": "yes"
            },
            "geometry": {
                "type": "Point",
                "coordinates": [
                    17.06032598123263,
                    54.4486144218006
                ]
            }
        },
        {
            "type": "Feature",
            "properties": {
                "ref:csioz": 1031902,
                "name": "Euro-Apteka",
                "addr:street": "Szczecińska",
                "addr:housenumber": "58",
                "addr:city": "Słupsk",
                "addr:postcode": "76-200",
                "amenity": "pharmacy",
                "dispensing": "yes"
            },
            "geometry": {
                "type": "Point",
                "coordinates": [
                    16.98889679759679,
                    54.45541200321747
                ]
            }
        },
        {
            "type": "Feature",
            "properties": {
                "ref:csioz": 1032343,
                "name": "Szybkaapteka.Pl",
                "addr:street": "3 Maja",
                "addr:housenumber": "82",
                "addr:city": "Słupsk",
                "addr:postcode": "76-200",
                "amenity": "pharmacy",
                "dispensing": "yes"
            },
            "geometry": {
                "type": "Point",
                "coordinates": [
                    17.012151999997496,
                    54.473108000019565
                ]
            }
        },
        {
            "type": "Feature",
            "properties": {
                "ref:csioz": 1032752,
                "name": "Apteka Pod Mnichem Ii Centrum Farmaceutyczne",
                "addr:street": "Nad Śluzami",
                "addr:housenumber": "33",
                "addr:city": "Słupsk",
                "addr:postcode": "76-200",
                "amenity": "pharmacy",
                "dispensing": "yes"
            },
            "geometry": {
                "type": "Point",
                "coordinates": [
                    17.041831717747403,
                    54.46224386342549
                ]
            }
        },
        {
            "type": "Feature",
            "properties": {
                "ref:csioz": 1034154,
                "name": "Apteka Szpitalna W Zakładzie Leczniczym: Wojewódzki Szpital Specjalistyczny W Słupsku",
                "addr:street": "Hubalczyków",
                "addr:housenumber": "1",
                "addr:city": "Słupsk",
                "addr:postcode": "76-200",
                "amenity": "pharmacy",
                "dispensing": "yes"
            },
            "geometry": {
                "type": "Point",
                "coordinates": [
                    17.060514893373444,
                    54.451494598157296
                ]
            }
        },
        {
            "type": "Feature",
            "properties": {
                "ref:csioz": 1034323,
                "name": "Dział Farmacji Szpitalnej W Centrum Zdrowia Salus",
                "addr:street": "Zielona",
                "addr:housenumber": "8",
                "addr:city": "Słupsk",
                "addr:postcode": "76-200",
                "amenity": "pharmacy",
                "dispensing": "yes"
            },
            "geometry": {
                "type": "Point",
                "coordinates": [
                    17.02898615322297,
                    54.45337447204298
                ]
            }
        },
        {
            "type": "Feature",
            "properties": {
                "ref:csioz": 1034338,
                "name": "Dział Farmacji Szpitalnej W Hospicjum Miłosierdzia Bożego Towarzystwo Opieki Paliatywnej Im. J. Różyckiej",
                "addr:street": "Jana Druyffa",
                "addr:housenumber": "2",
                "addr:city": "Słupsk",
                "addr:postcode": "76-200",
                "amenity": "pharmacy",
                "dispensing": "yes"
            },
            "geometry": {
                "type": "Point",
                "coordinates": [
                    17.046809316742923,
                    54.46943479093522
                ]
            }
        },
        {
            "type": "Feature",
            "properties": {
                "ref:csioz": 1112529,
                "name": "Apteka Miraculum",
                "addr:street": "Wileńska",
                "addr:housenumber": "12/47",
                "addr:city": "Słupsk",
                "addr:postcode": "76-200",
                "amenity": "pharmacy",
                "dispensing": "yes"
            },
            "geometry": {
                "type": "Point",
                "coordinates": [
                    17.020943999997538,
                    54.46929400001955
                ]
            }
        },
        {
            "type": "Feature",
            "properties": {
                "ref:csioz": 1114039,
                "name": "Dział Farmacji Szpitalnej W Stacji Pogotowia Ratunkowego",
                "addr:street": "Ignacego Jana Paderewskiego",
                "addr:housenumber": "5",
                "addr:city": "Słupsk",
                "addr:postcode": "76-200",
                "amenity": "pharmacy",
                "dispensing": "yes"
            },
            "geometry": {
                "type": "Point",
                "coordinates": [
                    17.02192712925954,
                    54.461129334774895
                ]
            }
        },
        {
            "type": "Feature",
            "properties": {
                "ref:csioz": 1117496,
                "name": "Apteka Na Kopernika",
                "addr:street": "Mikołaja Kopernika",
                "addr:housenumber": "37",
                "addr:city": "Słupsk",
                "addr:postcode": "76-200",
                "amenity": "pharmacy",
                "dispensing": "yes"
            },
            "geometry": {
                "type": "Point",
                "coordinates": [
                    17.027593716044848,
                    54.469978305614376
                ]
            }
        },
        {
            "type": "Feature",
            "properties": {
                "ref:csioz": 1187916,
                "name": "Dział Farmacji Szpitalnej W Przedsiębiorstwie Oddziały Dzienne I Całodobowe",
                "addr:street": "Obrońców Wybrzeża",
                "addr:housenumber": "4",
                "addr:city": "Słupsk",
                "addr:postcode": "76-200",
                "amenity": "pharmacy",
                "dispensing": "yes"
            },
            "geometry": {
                "type": "Point",
                "coordinates": [
                    17.044144779349843,
                    54.468823541695755
                ]
            }
        },
        {
            "type": "Feature",
            "properties": {
                "ref:csioz": 1187988,
                "name": "\"Apteka Cef@Rm 36,6\"",
                "addr:street": "Stefana Żółkiewskiego",
                "addr:housenumber": "16 a",
                "addr:city": "Słupsk",
                "addr:postcode": "76-200",
                "amenity": "pharmacy",
                "dispensing": "yes"
            },
            "geometry": {
                "type": "Point",
                "coordinates": [
                    17.00664399999748,
                    54.46927400001955
                ]
            }
        },
        {
            "type": "Feature",
            "properties": {
                "ref:csioz": 1189345,
                "name": "Dom Leków",
                "addr:street": "Szczecińska",
                "addr:housenumber": "36K",
                "addr:city": "Słupsk",
                "addr:postcode": "76-200",
                "amenity": "pharmacy",
                "dispensing": "yes"
            },
            "geometry": {
                "type": "Point",
                "coordinates": [
                    16.990504976710135,
                    54.45799383752902
                ]
            }
        },
        {
            "type": "Feature",
            "properties": {
                "ref:csioz": 1189477,
                "name": "Dom Leków Ratuszowa",
                "addr:street": "Juliana Tuwima",
                "addr:housenumber": "4",
                "addr:city": "Słupsk",
                "addr:postcode": "76-200",
                "amenity": "pharmacy",
                "dispensing": "yes"
            },
            "geometry": {
                "type": "Point",
                "coordinates": [
                    17.025675258091333,
                    54.46528962656759
                ]
            }
        },
        {
            "type": "Feature",
            "properties": {
                "ref:csioz": 1207052,
                "name": "Apteka Dyżurna",
                "addr:street": "Juliana Tuwima",
                "addr:housenumber": "6-7",
                "addr:city": "Słupsk",
                "addr:postcode": "76-200",
                "amenity": "pharmacy",
                "dispensing": "yes"
            },
            "geometry": {
                "type": "Point",
                "coordinates": [
                    17.024807771825,
                    54.465233123331515
                ]
            }
        },
        {
            "type": "Feature",
            "properties": {
                "ref:csioz": 1211656,
                "name": "Apteka Nowomiejska",
                "addr:street": "11 Listopada",
                "addr:housenumber": "5",
                "addr:city": "Słupsk",
                "addr:postcode": "76-200",
                "amenity": "pharmacy",
                "dispensing": "yes"
            },
            "geometry": {
                "type": "Point",
                "coordinates": [
                    16.989956002106013,
                    54.46039797930812
                ]
            }
        },
        {
            "type": "Feature",
            "properties": {
                "ref:csioz": 1215284,
                "name": "Dom Leków",
                "addr:street": "Hubalczyków",
                "addr:housenumber": "1",
                "addr:city": "Słupsk",
                "addr:postcode": "76-200",
                "amenity": "pharmacy",
                "dispensing": "yes"
            },
            "geometry": {
                "type": "Point",
                "coordinates": [
                    17.060514893373444,
                    54.451494598157296
                ]
            }
        },
        {
            "type": "Feature",
            "properties": {
                "ref:csioz": 1215371,
                "name": "Dom Leków",
                "addr:street": "Mikołaja Kopernika",
                "addr:housenumber": "28",
                "addr:city": "Słupsk",
                "addr:postcode": "76-200",
                "amenity": "pharmacy",
                "dispensing": "yes"
            },
            "geometry": {
                "type": "Point",
                "coordinates": [
                    17.027830709484196,
                    54.47231812801416
                ]
            }
        },
        {
            "type": "Feature",
            "properties": {
                "ref:csioz": 1215519,
                "name": "Dom Leków",
                "addr:street": "Jedności Narodowej",
                "addr:housenumber": "2",
                "addr:city": "Słupsk",
                "addr:postcode": "76-200",
                "amenity": "pharmacy",
                "dispensing": "yes"
            },
            "geometry": {
                "type": "Point",
                "coordinates": [
                    17.028015882208635,
                    54.46720110740039
                ]
            }
        },
        {
            "type": "Feature",
            "properties": {
                "ref:csioz": 1215869,
                "name": "Dom Leków",
                "addr:street": "Władysława Jagiełły",
                "addr:housenumber": "3",
                "addr:city": "Słupsk",
                "addr:postcode": "76-200",
                "amenity": "pharmacy",
                "dispensing": "yes"
            },
            "geometry": {
                "type": "Point",
                "coordinates": [
                    17.029200126919083,
                    54.46481888976282
                ]
            }
        },
        {
            "type": "Feature",
            "properties": {
                "ref:csioz": 1222459,
                "name": "Dom Leków",
                "addr:street": "Braci Gierymskich",
                "addr:housenumber": "1",
                "addr:city": "Słupsk",
                "addr:postcode": "76-200",
                "amenity": "pharmacy",
                "dispensing": "yes"
            },
            "geometry": {
                "type": "Point",
                "coordinates": [
                    17.00214973898034,
                    54.45870250406971
                ]
            }
        },
        {
            "type": "Feature",
            "properties": {
                "ref:csioz": 1228611,
                "name": "Dział Farmacji Szpitalnej W Zakładzie Leczniczym: Regionalne Centrum Krwiodawstwa I Krwiolecznictwa",
                "addr:street": "Szarych Szeregów",
                "addr:housenumber": "21",
                "addr:city": "Słupsk",
                "addr:postcode": "76-200",
                "amenity": "pharmacy",
                "dispensing": "yes"
            },
            "geometry": {
                "type": "Point",
                "coordinates": [
                    17.032588751261436,
                    54.469760708083115
                ]
            }
        }
    ]
}