{
    "type": "FeatureCollection",
    "name": "JPT_KOD_JE_2661",
    "features": [
        {
            "type": "Feature",
            "properties": {
                "ref:csioz": 1000367,
                "addr:street": "Wiśniowa",
                "addr:housenumber": "3",
                "addr:city": "Kielce",
                "addr:postcode": "25-552",
                "amenity": "pharmacy"
            },
            "geometry": {
                "type": "Point",
                "coordinates": [
                    20.637232033086207,
                    50.88600163479376
                ]
            }
        },
        {
            "type": "Feature",
            "properties": {
                "ref:csioz": 1000418,
                "addr:street": "Generała Tadeusza Kościuszki",
                "addr:housenumber": "7",
                "addr:city": "Kielce",
                "addr:postcode": "25-310",
                "amenity": "pharmacy"
            },
            "geometry": {
                "type": "Point",
                "coordinates": [
                    20.63552306045874,
                    50.870773218731074
                ]
            }
        },
        {
            "type": "Feature",
            "properties": {
                "ref:csioz": 1000439,
                "name": "\"'Apteka Słoneczna'\"",
                "addr:street": "Żelazna",
                "addr:housenumber": "43",
                "addr:city": "Kielce",
                "addr:postcode": "25-014",
                "amenity": "pharmacy"
            },
            "geometry": {
                "type": "Point",
                "coordinates": [
                    20.61882300443603,
                    50.87211977555941
                ]
            }
        },
        {
            "type": "Feature",
            "properties": {
                "ref:csioz": 1000532,
                "name": "\"Apteka Cef@Rm 36,6\"",
                "addr:street": "Jagiellońska",
                "addr:housenumber": "70",
                "addr:city": "Kielce",
                "addr:postcode": "25-734",
                "amenity": "pharmacy"
            },
            "geometry": {
                "type": "Point",
                "coordinates": [
                    20.604670989417027,
                    50.87182674176745
                ]
            }
        },
        {
            "type": "Feature",
            "properties": {
                "ref:csioz": 1000903,
                "name": "\"Apteka Cef@Rm 36,6\"",
                "addr:street": "Ignacego Paderewskiego",
                "addr:housenumber": "37",
                "addr:city": "Kielce",
                "addr:postcode": "25-502",
                "amenity": "pharmacy"
            },
            "geometry": {
                "type": "Point",
                "coordinates": [
                    20.624055000001327,
                    50.873158000013746
                ]
            }
        },
        {
            "type": "Feature",
            "properties": {
                "ref:csioz": 1001238,
                "name": "Apteka Na Barwinku",
                "addr:street": "Barwinek",
                "addr:housenumber": "26",
                "addr:city": "Kielce",
                "addr:postcode": "25-150",
                "amenity": "pharmacy"
            },
            "geometry": {
                "type": "Point",
                "coordinates": [
                    20.629084456555315,
                    50.85138790374023
                ]
            }
        },
        {
            "type": "Feature",
            "properties": {
                "ref:csioz": 1001251,
                "addr:street": "Krakowska",
                "addr:housenumber": "3",
                "addr:city": "Kielce",
                "addr:postcode": "25-029",
                "amenity": "pharmacy"
            },
            "geometry": {
                "type": "Point",
                "coordinates": [
                    20.62627200000134,
                    50.864107000013746
                ]
            }
        },
        {
            "type": "Feature",
            "properties": {
                "ref:csioz": 1001280,
                "name": "Apteka Od Pokoleń Dr N. Farm. Marek Jędrzejczak",
                "addr:street": "Stefana Żeromskiego",
                "addr:housenumber": "38",
                "addr:city": "Kielce",
                "addr:postcode": "25-370",
                "amenity": "pharmacy"
            },
            "geometry": {
                "type": "Point",
                "coordinates": [
                    20.634678470015547,
                    50.86357169647546
                ]
            }
        },
        {
            "type": "Feature",
            "properties": {
                "ref:csioz": 1001501,
                "name": "Apteka Od Pokoleń - Całodobowa",
                "addr:street": "Starodomaszowska",
                "addr:housenumber": "11",
                "addr:city": "Kielce",
                "addr:postcode": "25-315",
                "amenity": "pharmacy"
            },
            "geometry": {
                "type": "Point",
                "coordinates": [
                    20.638963515262382,
                    50.873177633424525
                ]
            }
        },
        {
            "type": "Feature",
            "properties": {
                "ref:csioz": 1001525,
                "name": "Apteka Milenium",
                "addr:street": "Piekoszowska",
                "addr:housenumber": "39",
                "addr:city": "Kielce",
                "addr:postcode": "25-735",
                "amenity": "pharmacy"
            },
            "geometry": {
                "type": "Point",
                "coordinates": [
                    20.606389429353474,
                    50.875432168051454
                ]
            }
        },
        {
            "type": "Feature",
            "properties": {
                "ref:csioz": 1001530,
                "name": "Apteka Na Kochanowskiego",
                "addr:street": "Jana Chryzostoma Paska",
                "addr:housenumber": "6",
                "addr:city": "Kielce",
                "addr:postcode": "25-113",
                "amenity": "pharmacy"
            },
            "geometry": {
                "type": "Point",
                "coordinates": [
                    20.632432118997716,
                    50.85352217010576
                ]
            }
        },
        {
            "type": "Feature",
            "properties": {
                "ref:csioz": 1001549,
                "name": "\"Doz Apteka. Dbam O Zdrowie \"\"Jantar\"\"\"",
                "addr:street": "Bursztynowa",
                "addr:housenumber": "3",
                "addr:city": "Kielce",
                "addr:postcode": "25-705",
                "amenity": "pharmacy"
            },
            "geometry": {
                "type": "Point",
                "coordinates": [
                    20.5841087650288,
                    50.86217489744571
                ]
            }
        },
        {
            "type": "Feature",
            "properties": {
                "ref:csioz": 1001618,
                "addr:street": "Hoża",
                "addr:housenumber": "39",
                "addr:city": "Kielce",
                "addr:postcode": "25-618",
                "amenity": "pharmacy"
            },
            "geometry": {
                "type": "Point",
                "coordinates": [
                    20.61432411743769,
                    50.881954341854495
                ]
            }
        },
        {
            "type": "Feature",
            "properties": {
                "ref:csioz": 1001660,
                "name": "Omega",
                "addr:street": "Bolesława Prusa",
                "addr:housenumber": "9",
                "addr:city": "Kielce",
                "addr:postcode": "25-107",
                "amenity": "pharmacy"
            },
            "geometry": {
                "type": "Point",
                "coordinates": [
                    20.62687338696253,
                    50.84879725813182
                ]
            }
        },
        {
            "type": "Feature",
            "properties": {
                "ref:csioz": 1001683,
                "name": "Rondo",
                "addr:street": "Ignacego Paderewskiego",
                "addr:housenumber": "48",
                "addr:city": "Kielce",
                "addr:postcode": "25-502",
                "amenity": "pharmacy"
            },
            "geometry": {
                "type": "Point",
                "coordinates": [
                    20.62605405394949,
                    50.874506950460066
                ]
            }
        },
        {
            "type": "Feature",
            "properties": {
                "ref:csioz": 1001828,
                "addr:street": "Śląska",
                "addr:housenumber": "10",
                "addr:city": "Kielce",
                "addr:postcode": "25-328",
                "amenity": "pharmacy"
            },
            "geometry": {
                "type": "Point",
                "coordinates": [
                    20.651977974570986,
                    50.87106185039004
                ]
            }
        },
        {
            "type": "Feature",
            "properties": {
                "ref:csioz": 1001976,
                "addr:street": "Fabryczna",
                "addr:housenumber": "3",
                "addr:city": "Kielce",
                "addr:postcode": "25-818",
                "amenity": "pharmacy"
            },
            "geometry": {
                "type": "Point",
                "coordinates": [
                    20.554088661999153,
                    50.85452543340645
                ]
            }
        },
        {
            "type": "Feature",
            "properties": {
                "ref:csioz": 1002107,
                "name": "Nova",
                "addr:street": "Henryka Sienkiewicza",
                "addr:housenumber": "78A",
                "addr:city": "Kielce",
                "addr:postcode": "25-501",
                "amenity": "pharmacy"
            },
            "geometry": {
                "type": "Point",
                "coordinates": [
                    20.62060341978698,
                    50.873652588608074
                ]
            }
        },
        {
            "type": "Feature",
            "properties": {
                "ref:csioz": 1002193,
                "name": "Apteka Dbam O Zdrowie",
                "addr:street": "Seminaryjska",
                "addr:housenumber": "29a",
                "addr:city": "Kielce",
                "addr:postcode": "25-372",
                "amenity": "pharmacy"
            },
            "geometry": {
                "type": "Point",
                "coordinates": [
                    20.639067441634044,
                    50.859332248463666
                ]
            }
        },
        {
            "type": "Feature",
            "properties": {
                "ref:csioz": 1002220,
                "name": "Twoja Apteka",
                "addr:street": "Orląt Lwowskich",
                "addr:housenumber": "72K",
                "addr:city": "Kielce",
                "addr:postcode": "25-437",
                "amenity": "pharmacy"
            },
            "geometry": {
                "type": "Point",
                "coordinates": [
                    20.662286000001455,
                    50.89472500001379
                ]
            }
        },
        {
            "type": "Feature",
            "properties": {
                "ref:csioz": 1002506,
                "name": "Apteka Plus",
                "addr:street": "Czarnowska",
                "addr:housenumber": "17",
                "addr:city": "Kielce",
                "addr:postcode": "25-504",
                "amenity": "pharmacy"
            },
            "geometry": {
                "type": "Point",
                "coordinates": [
                    20.62246123157011,
                    50.87427288769875
                ]
            }
        },
        {
            "type": "Feature",
            "properties": {
                "ref:csioz": 1002437,
                "name": "\"Apteka \"\"Codzienna\"\"\"",
                "addr:street": "Wojewódzka",
                "addr:housenumber": "2",
                "addr:city": "Kielce",
                "addr:postcode": "25-536",
                "amenity": "pharmacy"
            },
            "geometry": {
                "type": "Point",
                "coordinates": [
                    20.638374055508304,
                    50.88218855400559
                ]
            }
        },
        {
            "type": "Feature",
            "properties": {
                "ref:csioz": 1002650,
                "addr:street": "Krakowska",
                "addr:housenumber": "293",
                "addr:city": "KIELCE",
                "addr:postcode": "25-801",
                "amenity": "pharmacy"
            },
            "geometry": {
                "type": "Point",
                "coordinates": [
                    20.56259453875219,
                    50.852584523169874
                ]
            }
        },
        {
            "type": "Feature",
            "properties": {
                "ref:csioz": 1002808,
                "name": "Apteka Dbam O Zdrowie",
                "addr:street": "Edmunda Massalskiego",
                "addr:housenumber": "3",
                "addr:city": "Kielce",
                "addr:postcode": "25-636",
                "amenity": "pharmacy"
            },
            "geometry": {
                "type": "Point",
                "coordinates": [
                    20.582754477191767,
                    50.88284822692561
                ]
            }
        },
        {
            "type": "Feature",
            "properties": {
                "ref:csioz": 1002824,
                "name": "Na Targowej",
                "addr:street": "Targowa",
                "addr:housenumber": "2",
                "addr:city": "Kielce",
                "addr:postcode": "25-520",
                "amenity": "pharmacy"
            },
            "geometry": {
                "type": "Point",
                "coordinates": [
                    20.63354569184571,
                    50.87992397454007
                ]
            }
        },
        {
            "type": "Feature",
            "properties": {
                "ref:csioz": 1003025,
                "name": "Apteka Dbam O Zdrowie",
                "addr:street": "Warszawska",
                "addr:housenumber": "149A",
                "addr:city": "Kielce",
                "addr:postcode": "25-547",
                "amenity": "pharmacy"
            },
            "geometry": {
                "type": "Point",
                "coordinates": [
                    20.6474451398961,
                    50.89179403986171
                ]
            }
        },
        {
            "type": "Feature",
            "properties": {
                "ref:csioz": 1003063,
                "name": "Apteka Rodzinna",
                "addr:street": "Jagiellońska",
                "addr:housenumber": "62",
                "addr:city": "Kielce",
                "addr:postcode": "25-734",
                "amenity": "pharmacy"
            },
            "geometry": {
                "type": "Point",
                "coordinates": [
                    20.60744593309639,
                    50.87518437017316
                ]
            }
        },
        {
            "type": "Feature",
            "properties": {
                "ref:csioz": 1003096,
                "name": "Apteka Dbam O Zdrowie",
                "addr:street": "Kujawska",
                "addr:housenumber": "10",
                "addr:city": "Kielce",
                "addr:postcode": "25-344",
                "amenity": "pharmacy"
            },
            "geometry": {
                "type": "Point",
                "coordinates": [
                    20.650608315699905,
                    50.868297160990714
                ]
            }
        },
        {
            "type": "Feature",
            "properties": {
                "ref:csioz": 1003224,
                "name": "Sandomierska",
                "addr:street": "Sandomierska",
                "addr:housenumber": "74A",
                "addr:city": "Kielce",
                "addr:postcode": "25-318",
                "amenity": "pharmacy"
            },
            "geometry": {
                "type": "Point",
                "coordinates": [
                    20.64350758997856,
                    50.87066995221307
                ]
            }
        },
        {
            "type": "Feature",
            "properties": {
                "ref:csioz": 1003404,
                "name": "Apteka Na Bocianku - Apteki Polskie",
                "addr:street": "Marii Konopnickiej",
                "addr:housenumber": "5",
                "addr:city": "Kielce",
                "addr:postcode": "25-406",
                "amenity": "pharmacy"
            },
            "geometry": {
                "type": "Point",
                "coordinates": [
                    20.644812418441546,
                    50.88350618003719
                ]
            }
        },
        {
            "type": "Feature",
            "properties": {
                "ref:csioz": 1003420,
                "name": "Apteka Plus",
                "addr:street": "Kredowa",
                "addr:housenumber": "2",
                "addr:city": "Kielce",
                "addr:postcode": "25-640",
                "amenity": "pharmacy"
            },
            "geometry": {
                "type": "Point",
                "coordinates": [
                    20.582983687444766,
                    50.88410717165709
                ]
            }
        },
        {
            "type": "Feature",
            "properties": {
                "ref:csioz": 1003457,
                "name": "Apteka Słoneczna",
                "addr:street": "Słoneczna",
                "addr:housenumber": "24",
                "addr:city": "KIELCE",
                "addr:postcode": "25-731",
                "amenity": "pharmacy"
            },
            "geometry": {
                "type": "Point",
                "coordinates": [
                    20.609409332722002,
                    50.869499491384246
                ]
            }
        },
        {
            "type": "Feature",
            "properties": {
                "ref:csioz": 1003473,
                "name": "\"Apteka \"\"Codzienna\"\"\"",
                "addr:street": "Romualda",
                "addr:housenumber": "3",
                "addr:city": "Kielce",
                "addr:postcode": "25-322",
                "amenity": "pharmacy"
            },
            "geometry": {
                "type": "Point",
                "coordinates": [
                    20.61910603798522,
                    50.88918140052591
                ]
            }
        },
        {
            "type": "Feature",
            "properties": {
                "ref:csioz": 1003628,
                "name": "Mandarynka",
                "addr:street": "Jana Nowaka-Jeziorańskiego",
                "addr:housenumber": "87",
                "addr:city": "Kielce",
                "addr:postcode": "25-432",
                "amenity": "pharmacy"
            },
            "geometry": {
                "type": "Point",
                "coordinates": [
                    20.669547369599805,
                    50.89065738815742
                ]
            }
        },
        {
            "type": "Feature",
            "properties": {
                "ref:csioz": 1003823,
                "name": "Apteka Rodzinna",
                "addr:street": "Jana Kochanowskiego",
                "addr:housenumber": "8",
                "addr:city": "Kielce",
                "addr:postcode": "25-384",
                "amenity": "pharmacy"
            },
            "geometry": {
                "type": "Point",
                "coordinates": [
                    20.6302170595014,
                    50.85238775444678
                ]
            }
        },
        {
            "type": "Feature",
            "properties": {
                "ref:csioz": 1004010,
                "name": "Super-Pharm Apteka",
                "addr:street": "Świętokrzyska",
                "addr:housenumber": "20",
                "addr:city": "Kielce",
                "addr:postcode": "25-406",
                "amenity": "pharmacy"
            },
            "geometry": {
                "type": "Point",
                "coordinates": [
                    20.646871732851196,
                    50.88081943957234
                ]
            }
        },
        {
            "type": "Feature",
            "properties": {
                "ref:csioz": 1004250,
                "name": "Super-Pharm Apteka",
                "addr:street": "Warszawska",
                "addr:housenumber": "26",
                "addr:city": "Kielce",
                "addr:postcode": "25-317",
                "amenity": "pharmacy"
            },
            "geometry": {
                "type": "Point",
                "coordinates": [
                    20.636146681501383,
                    50.875910604302895
                ]
            }
        },
        {
            "type": "Feature",
            "properties": {
                "ref:csioz": 1111809,
                "name": "Apteka Osobista",
                "addr:street": "Ignacego Paderewskiego",
                "addr:housenumber": "4B/1",
                "addr:city": "Kielce",
                "addr:postcode": "25-017",
                "amenity": "pharmacy"
            },
            "geometry": {
                "type": "Point",
                "coordinates": [
                    20.622132000001322,
                    50.869474000013746
                ]
            }
        },
        {
            "type": "Feature",
            "properties": {
                "ref:csioz": 1111838,
                "name": "Apteka Plus",
                "addr:street": "Wojska Polskiego",
                "addr:housenumber": "51",
                "addr:city": "Kielce",
                "addr:postcode": "25-375",
                "amenity": "pharmacy"
            },
            "geometry": {
                "type": "Point",
                "coordinates": [
                    20.6351186676384,
                    50.859842736388075
                ]
            }
        },
        {
            "type": "Feature",
            "properties": {
                "ref:csioz": 1112015,
                "name": "Apteka Prywatna Aurora",
                "addr:street": "Prezydenta Stefana Artwińskiego",
                "addr:housenumber": "6",
                "addr:city": "Kielce",
                "addr:postcode": "25-734",
                "amenity": "pharmacy"
            },
            "geometry": {
                "type": "Point",
                "coordinates": [
                    20.60206599545275,
                    50.87216525674486
                ]
            }
        },
        {
            "type": "Feature",
            "properties": {
                "ref:csioz": 1123007,
                "name": "\"Nzoz \"\"Prosta-Lith\"\"\"",
                "addr:street": "Jagiellońska",
                "addr:housenumber": "13",
                "addr:city": "Kielce",
                "addr:postcode": "25-613",
                "amenity": "pharmacy"
            },
            "geometry": {
                "type": "Point",
                "coordinates": [
                    20.61532245911358,
                    50.88175887058507
                ]
            }
        },
        {
            "type": "Feature",
            "properties": {
                "ref:csioz": 1176346,
                "name": "Twoja Apteka",
                "addr:street": "Jagiellońska",
                "addr:housenumber": "76B",
                "addr:city": "Kielce",
                "addr:postcode": "25-734",
                "amenity": "pharmacy"
            },
            "geometry": {
                "type": "Point",
                "coordinates": [
                    20.60182578324513,
                    50.86874218577667
                ]
            }
        },
        {
            "type": "Feature",
            "properties": {
                "ref:csioz": 1178155,
                "name": "Apteka Na Bukówce",
                "addr:street": "Wojska Polskiego",
                "addr:housenumber": "255",
                "addr:city": "Kielce",
                "addr:postcode": "25-209",
                "amenity": "pharmacy"
            },
            "geometry": {
                "type": "Point",
                "coordinates": [
                    20.658700039193896,
                    50.83879491341161
                ]
            }
        },
        {
            "type": "Feature",
            "properties": {
                "ref:csioz": 1195863,
                "name": "Twoja Apteka",
                "addr:street": "Księdza Piotra Ściegiennego",
                "addr:housenumber": "66 A",
                "addr:city": "Kielce",
                "addr:postcode": "25-380",
                "amenity": "pharmacy"
            },
            "geometry": {
                "type": "Point",
                "coordinates": [
                    20.623277000001334,
                    50.84814600001373
                ]
            }
        },
        {
            "type": "Feature",
            "properties": {
                "ref:csioz": 1000133,
                "addr:street": "Jerzego Bogumiła Puscha",
                "addr:housenumber": "7",
                "addr:city": "Kielce",
                "addr:postcode": "25-635",
                "amenity": "pharmacy"
            },
            "geometry": {
                "type": "Point",
                "coordinates": [
                    20.59405157192428,
                    50.88314292095384
                ]
            }
        },
        {
            "type": "Feature",
            "properties": {
                "ref:csioz": 1001596,
                "name": "Zdrowie",
                "addr:street": "Henryka Sienkiewicza",
                "addr:housenumber": "58",
                "addr:city": "Kielce",
                "addr:postcode": "25-005",
                "amenity": "pharmacy"
            },
            "geometry": {
                "type": "Point",
                "coordinates": [
                    20.624359068064386,
                    50.87250091112917
                ]
            }
        },
        {
            "type": "Feature",
            "properties": {
                "ref:csioz": 1000927,
                "name": "\"Apteka Cef@Rm 36,6\"",
                "addr:street": "Henryka Sienkiewicza",
                "addr:housenumber": "28",
                "addr:city": "Kielce",
                "addr:postcode": "25-007",
                "amenity": "pharmacy"
            },
            "geometry": {
                "type": "Point",
                "coordinates": [
                    20.630380589703847,
                    50.87063298854767
                ]
            }
        },
        {
            "type": "Feature",
            "properties": {
                "ref:csioz": 1001341,
                "name": "\"Zakład Opiekuńczo-Leczniczy Dla Przewlekle Chorych, Zgromadzenia Sług Jezusa\"",
                "addr:street": "Wesoła",
                "addr:housenumber": "45",
                "addr:city": "Kielce",
                "addr:postcode": "25-363",
                "amenity": "pharmacy"
            },
            "geometry": {
                "type": "Point",
                "coordinates": [
                    20.631066015783954,
                    50.866736264698815
                ]
            }
        },
        {
            "type": "Feature",
            "properties": {
                "ref:csioz": 1001558,
                "addr:street": "Warszawska",
                "addr:housenumber": "154",
                "addr:city": "Kielce",
                "addr:postcode": "25-414",
                "amenity": "pharmacy"
            },
            "geometry": {
                "type": "Point",
                "coordinates": [
                    20.648292773760264,
                    50.889858755288856
                ]
            }
        },
        {
            "type": "Feature",
            "properties": {
                "ref:csioz": 1001563,
                "name": "Apteka Herby",
                "addr:street": "1 Maja",
                "addr:housenumber": "194",
                "addr:city": "Kielce",
                "addr:postcode": "25-614",
                "amenity": "pharmacy"
            },
            "geometry": {
                "type": "Point",
                "coordinates": [
                    20.61145077991348,
                    50.88960242734051
                ]
            }
        },
        {
            "type": "Feature",
            "properties": {
                "ref:csioz": 1001756,
                "addr:street": "Źródłowa",
                "addr:housenumber": "20",
                "addr:city": "Kielce",
                "addr:postcode": "25-335",
                "amenity": "pharmacy"
            },
            "geometry": {
                "type": "Point",
                "coordinates": [
                    20.641904689071815,
                    50.867152897620684
                ]
            }
        },
        {
            "type": "Feature",
            "properties": {
                "ref:csioz": 1001889,
                "addr:street": "Hipoteczna",
                "addr:housenumber": "4",
                "addr:city": "Kielce",
                "addr:postcode": "25-350",
                "amenity": "pharmacy"
            },
            "geometry": {
                "type": "Point",
                "coordinates": [
                    20.634290546268684,
                    50.86874449345383
                ]
            }
        },
        {
            "type": "Feature",
            "properties": {
                "ref:csioz": 1001921,
                "name": "Na Rogatce",
                "addr:street": "Jana Pawła II",
                "addr:housenumber": "13",
                "addr:city": "Kielce",
                "addr:postcode": "25-025",
                "amenity": "pharmacy"
            },
            "geometry": {
                "type": "Point",
                "coordinates": [
                    20.62878927577621,
                    50.8656740887372
                ]
            }
        },
        {
            "type": "Feature",
            "properties": {
                "ref:csioz": 1002349,
                "name": "\"Apteka \"\"Codzienna\"\"\"",
                "addr:street": "Elizy Orzeszkowej",
                "addr:housenumber": "51c",
                "addr:city": "Kielce",
                "addr:postcode": "25-435",
                "amenity": "pharmacy"
            },
            "geometry": {
                "type": "Point",
                "coordinates": [
                    20.65686500000143,
                    50.88589700001377
                ]
            }
        },
        {
            "type": "Feature",
            "properties": {
                "ref:csioz": 1002909,
                "name": "Apteka Rodzinna",
                "addr:street": "Zagórska",
                "addr:housenumber": "53",
                "addr:city": "Kielce",
                "addr:postcode": "25-339",
                "amenity": "pharmacy"
            },
            "geometry": {
                "type": "Point",
                "coordinates": [
                    20.64904595405459,
                    50.86558302725898
                ]
            }
        },
        {
            "type": "Feature",
            "properties": {
                "ref:csioz": 1002923,
                "addr:street": "Sandomierska",
                "addr:housenumber": "107",
                "addr:city": "Kielce",
                "addr:postcode": "25-324",
                "amenity": "pharmacy"
            },
            "geometry": {
                "type": "Point",
                "coordinates": [
                    20.65068464477177,
                    50.8699646438886
                ]
            }
        },
        {
            "type": "Feature",
            "properties": {
                "ref:csioz": 1003105,
                "name": "Apteka Rodzinna",
                "addr:street": "Elizy Orzeszkowej",
                "addr:housenumber": "52",
                "addr:city": "Kielce",
                "addr:postcode": "25-435",
                "amenity": "pharmacy"
            },
            "geometry": {
                "type": "Point",
                "coordinates": [
                    20.65684469634041,
                    50.88578341834474
                ]
            }
        },
        {
            "type": "Feature",
            "properties": {
                "ref:csioz": 1003281,
                "name": "Zdrowie",
                "addr:street": "Prezydenta Stefana Artwińskiego",
                "addr:housenumber": "9",
                "addr:city": "Kielce",
                "addr:postcode": "25-734",
                "amenity": "pharmacy"
            },
            "geometry": {
                "type": "Point",
                "coordinates": [
                    20.597132703279186,
                    50.87321668687875
                ]
            }
        },
        {
            "type": "Feature",
            "properties": {
                "ref:csioz": 1003297,
                "name": "Zdrowie",
                "addr:street": "Podklasztorna",
                "addr:housenumber": "117A",
                "addr:city": "Kielce",
                "addr:postcode": "25-714",
                "amenity": "pharmacy"
            },
            "geometry": {
                "type": "Point",
                "coordinates": [
                    20.593107720193146,
                    50.86215303657002
                ]
            }
        },
        {
            "type": "Feature",
            "properties": {
                "ref:csioz": 1003545,
                "addr:street": "Karczówkowska",
                "addr:housenumber": "20",
                "addr:city": "Kielce",
                "addr:postcode": "25-711",
                "amenity": "pharmacy"
            },
            "geometry": {
                "type": "Point",
                "coordinates": [
                    20.614106124935606,
                    50.86844820006198
                ]
            }
        },
        {
            "type": "Feature",
            "properties": {
                "ref:csioz": 1004359,
                "name": "Apteka Prima",
                "addr:street": "Lecha",
                "addr:housenumber": "14a",
                "addr:city": "Kielce",
                "addr:postcode": "25-622",
                "amenity": "pharmacy"
            },
            "geometry": {
                "type": "Point",
                "coordinates": [
                    20.60959192595432,
                    50.87830474529197
                ]
            }
        },
        {
            "type": "Feature",
            "properties": {
                "ref:csioz": 1004376,
                "name": "Apteka Prima",
                "addr:street": "1 Maja",
                "addr:housenumber": "196",
                "addr:city": "Kielce",
                "addr:postcode": "25-646",
                "amenity": "pharmacy"
            },
            "geometry": {
                "type": "Point",
                "coordinates": [
                    20.61212537929628,
                    50.88985278886727
                ]
            }
        },
        {
            "type": "Feature",
            "properties": {
                "ref:csioz": 1111851,
                "name": "Alfa",
                "addr:street": "Chęcińska",
                "addr:housenumber": "16a/22",
                "addr:city": "Kielce",
                "addr:postcode": "25-020",
                "amenity": "pharmacy"
            },
            "geometry": {
                "type": "Point",
                "coordinates": [
                    20.616727000001312,
                    50.86565900001374
                ]
            }
        },
        {
            "type": "Feature",
            "properties": {
                "ref:csioz": 1123010,
                "name": "Endomed - Centrum Diagnostyki I Leczenia Chorób Przewodu Pokarmowego",
                "addr:street": "Zagórska",
                "addr:housenumber": "20",
                "addr:city": "Kielce",
                "addr:postcode": "25-355",
                "amenity": "pharmacy"
            },
            "geometry": {
                "type": "Point",
                "coordinates": [
                    20.640163814179296,
                    50.86682840428713
                ]
            }
        },
        {
            "type": "Feature",
            "properties": {
                "ref:csioz": 1123029,
                "name": "Centrum Dermatologii Bella Derm Oddział Dzienny",
                "addr:street": "Klonowa",
                "addr:housenumber": "55 G",
                "addr:city": "Kielce",
                "addr:postcode": "25-553",
                "amenity": "pharmacy"
            },
            "geometry": {
                "type": "Point",
                "coordinates": [
                    20.636897000001376,
                    50.890675000013786
                ]
            }
        },
        {
            "type": "Feature",
            "properties": {
                "ref:csioz": 1123170,
                "name": "Medilens Szpital Okulistyczny",
                "addr:street": "Kozia",
                "addr:housenumber": "3 a",
                "addr:city": "Kielce",
                "addr:postcode": "25-514",
                "amenity": "pharmacy"
            },
            "geometry": {
                "type": "Point",
                "coordinates": [
                    20.630960113746227,
                    50.872754265361586
                ]
            }
        },
        {
            "type": "Feature",
            "properties": {
                "ref:csioz": 1137895,
                "name": "Apteka Szpitalna",
                "addr:street": "Grunwaldzka",
                "addr:housenumber": "45",
                "addr:city": "Kielce",
                "addr:postcode": "25-736",
                "amenity": "pharmacy"
            },
            "geometry": {
                "type": "Point",
                "coordinates": [
                    20.601021651738332,
                    50.87382229476722
                ]
            }
        },
        {
            "type": "Feature",
            "properties": {
                "ref:csioz": 1137932,
                "name": "Apteka Szpitalna",
                "addr:street": "Kościuszki",
                "addr:housenumber": "25",
                "addr:city": "Kielce",
                "addr:postcode": "25-316",
                "amenity": "pharmacy"
            },
            "geometry": {
                "type": "Point",
                "coordinates": [
                    20.63859091073152,
                    50.87373816444181
                ]
            }
        },
        {
            "type": "Feature",
            "properties": {
                "ref:csioz": 1137941,
                "name": "Apteka Szpitalna",
                "addr:street": "Prosta",
                "addr:housenumber": "30",
                "addr:city": "Kielce",
                "addr:postcode": "25-371",
                "amenity": "pharmacy"
            },
            "geometry": {
                "type": "Point",
                "coordinates": [
                    20.635892306794208,
                    50.86243872361167
                ]
            }
        },
        {
            "type": "Feature",
            "properties": {
                "ref:csioz": 1137955,
                "name": "Apteka Szpitalna",
                "addr:street": "Artwińskiego",
                "addr:housenumber": "3",
                "addr:city": "Kielce",
                "addr:postcode": "25-734",
                "amenity": "pharmacy"
            },
            "geometry": {
                "type": "Point",
                "coordinates": [
                    20.59840088401675,
                    50.871731350725916
                ]
            }
        },
        {
            "type": "Feature",
            "properties": {
                "ref:csioz": 1137964,
                "name": "Apteka Szpitalna",
                "addr:street": "Wojska Polskiego",
                "addr:housenumber": "51",
                "addr:city": "Kielce",
                "addr:postcode": "25-375",
                "amenity": "pharmacy"
            },
            "geometry": {
                "type": "Point",
                "coordinates": [
                    20.6351186676384,
                    50.859842736388075
                ]
            }
        },
        {
            "type": "Feature",
            "properties": {
                "ref:csioz": 1171765,
                "name": "Apteka Mgr Derlatka",
                "addr:street": "Warszawska",
                "addr:housenumber": "151",
                "addr:city": "Kielce",
                "addr:postcode": "25-547",
                "amenity": "pharmacy"
            },
            "geometry": {
                "type": "Point",
                "coordinates": [
                    20.648450557923542,
                    50.891461033637974
                ]
            }
        },
        {
            "type": "Feature",
            "properties": {
                "ref:csioz": 1171804,
                "name": "Malinka",
                "addr:street": "Króla Kazimierza Wielkiego",
                "addr:housenumber": "12",
                "addr:city": "Kielce",
                "addr:postcode": "25-633",
                "amenity": "pharmacy"
            },
            "geometry": {
                "type": "Point",
                "coordinates": [
                    20.587888146965497,
                    50.879499593311294
                ]
            }
        },
        {
            "type": "Feature",
            "properties": {
                "ref:csioz": 1173661,
                "name": "Apteka Dom Zdrowia",
                "addr:street": "Kazimierza Kaznowskiego",
                "addr:housenumber": "5",
                "addr:city": "Kielce",
                "addr:postcode": "25-636",
                "amenity": "pharmacy"
            },
            "geometry": {
                "type": "Point",
                "coordinates": [
                    20.580429200597067,
                    50.884915103007096
                ]
            }
        },
        {
            "type": "Feature",
            "properties": {
                "ref:csioz": 1182411,
                "name": "Apteka Uroczysko",
                "addr:street": "Władysława Orkana",
                "addr:housenumber": "11",
                "addr:city": "Kielce",
                "addr:postcode": "25-548",
                "amenity": "pharmacy"
            },
            "geometry": {
                "type": "Point",
                "coordinates": [
                    20.645454431066824,
                    50.89442741496752
                ]
            }
        },
        {
            "type": "Feature",
            "properties": {
                "ref:csioz": 1182797,
                "name": "Apteka Nova",
                "addr:street": "Jana Nowaka-Jeziorańskiego",
                "addr:housenumber": "67",
                "addr:city": "Kielce",
                "addr:postcode": "25-432",
                "amenity": "pharmacy"
            },
            "geometry": {
                "type": "Point",
                "coordinates": [
                    20.67046623746871,
                    50.891808251509126
                ]
            }
        },
        {
            "type": "Feature",
            "properties": {
                "ref:csioz": 1182900,
                "name": "Apteka Nowa Farmacja Na Pocieszka",
                "addr:street": "Pocieszka",
                "addr:housenumber": "11",
                "addr:city": "Kielce",
                "addr:postcode": "25-519",
                "amenity": "pharmacy"
            },
            "geometry": {
                "type": "Point",
                "coordinates": [
                    20.63483227048734,
                    50.88072315530052
                ]
            }
        },
        {
            "type": "Feature",
            "properties": {
                "ref:csioz": 1186248,
                "name": "Apteka Vanilia",
                "addr:street": "Na Stoku",
                "addr:housenumber": "113",
                "addr:city": "Kielce",
                "addr:postcode": "25-437",
                "amenity": "pharmacy"
            },
            "geometry": {
                "type": "Point",
                "coordinates": [
                    20.673856940145903,
                    50.896563752953526
                ]
            }
        },
        {
            "type": "Feature",
            "properties": {
                "ref:csioz": 1191214,
                "name": "Vita Plus",
                "addr:street": "Petyhorska",
                "addr:housenumber": "15",
                "addr:city": "Kielce",
                "addr:postcode": "25-125",
                "amenity": "pharmacy"
            },
            "geometry": {
                "type": "Point",
                "coordinates": [
                    20.617950043331255,
                    50.85397873448953
                ]
            }
        },
        {
            "type": "Feature",
            "properties": {
                "ref:csioz": 1191683,
                "addr:street": "Kozia",
                "addr:housenumber": "3 A",
                "addr:city": "Kielce",
                "addr:postcode": "25-514",
                "amenity": "pharmacy"
            },
            "geometry": {
                "type": "Point",
                "coordinates": [
                    20.630960113746227,
                    50.872754265361586
                ]
            }
        },
        {
            "type": "Feature",
            "properties": {
                "ref:csioz": 1191828,
                "name": "Dział Farmacji Szpitalnej",
                "addr:street": "Księcia Mieszka I",
                "addr:housenumber": "48 C",
                "addr:city": "Kielce",
                "addr:postcode": "25-624",
                "amenity": "pharmacy"
            },
            "geometry": {
                "type": "Point",
                "coordinates": [
                    20.602507158975975,
                    50.878961544950414
                ]
            }
        },
        {
            "type": "Feature",
            "properties": {
                "ref:csioz": 1201919,
                "addr:street": "Na Stoku",
                "addr:housenumber": "63 A",
                "addr:city": "Kielce",
                "addr:postcode": "25-437",
                "amenity": "pharmacy"
            },
            "geometry": {
                "type": "Point",
                "coordinates": [
                    20.663053482402347,
                    50.89390733513671
                ]
            }
        },
        {
            "type": "Feature",
            "properties": {
                "ref:csioz": 1205405,
                "name": "Centrum Medyczne Plus-Med. Sp. Z O.O. Sp.K.",
                "addr:street": "Warszawska",
                "addr:housenumber": "21",
                "addr:city": "Kielce",
                "addr:postcode": "25-512",
                "amenity": "pharmacy"
            },
            "geometry": {
                "type": "Point",
                "coordinates": [
                    20.633210227712475,
                    50.87524956154721
                ]
            }
        },
        {
            "type": "Feature",
            "properties": {
                "ref:csioz": 1206143,
                "addr:street": "Jana Nowaka-Jeziorańskiego",
                "addr:housenumber": "75",
                "addr:city": "Kielce",
                "addr:postcode": "25-408",
                "amenity": "pharmacy"
            },
            "geometry": {
                "type": "Point",
                "coordinates": [
                    20.666959776041484,
                    50.890527863397075
                ]
            }
        },
        {
            "type": "Feature",
            "properties": {
                "ref:csioz": 1211785,
                "name": "Apteka Plus",
                "addr:street": "al. IX Wieków Kielc",
                "addr:housenumber": "4",
                "addr:city": "Kielce",
                "addr:postcode": "25-516",
                "amenity": "pharmacy"
            },
            "geometry": {
                "type": "Point",
                "coordinates": [
                    20.630141000001355,
                    50.87417200001376
                ]
            }
        },
        {
            "type": "Feature",
            "properties": {
                "ref:csioz": 1212778,
                "name": "Twoja Apteka",
                "addr:street": "ul. Warszawska",
                "addr:housenumber": "21",
                "addr:city": "Kielce",
                "addr:postcode": "25-512",
                "amenity": "pharmacy"
            },
            "geometry": {
                "type": "Point",
                "coordinates": [
                    20.633210227712475,
                    50.87524956154721
                ]
            }
        },
        {
            "type": "Feature",
            "properties": {
                "ref:csioz": 1214661,
                "name": "Apteka Codzienna",
                "addr:street": "Żytnia",
                "addr:housenumber": "1F",
                "addr:city": "Kielce",
                "addr:postcode": "25-018",
                "amenity": "pharmacy"
            },
            "geometry": {
                "type": "Point",
                "coordinates": [
                    20.619857377325793,
                    50.86886379390753
                ]
            }
        },
        {
            "type": "Feature",
            "properties": {
                "ref:csioz": 1214792,
                "name": "Na Folwarku",
                "addr:street": "Sandomierska",
                "addr:housenumber": "326",
                "addr:city": "Kielce",
                "addr:postcode": "25-330",
                "amenity": "pharmacy"
            },
            "geometry": {
                "type": "Point",
                "coordinates": [
                    20.6799680000015,
                    50.86285600001374
                ]
            }
        },
        {
            "type": "Feature",
            "properties": {
                "ref:csioz": 1215423,
                "name": "Niezapominajka Dla Całej Rodziny",
                "addr:street": "Tarnowska",
                "addr:housenumber": "4",
                "addr:city": "Kielce",
                "addr:postcode": "25-394",
                "amenity": "pharmacy"
            },
            "geometry": {
                "type": "Point",
                "coordinates": [
                    20.64112991241977,
                    50.865798986338255
                ]
            }
        },
        {
            "type": "Feature",
            "properties": {
                "ref:csioz": 1216450,
                "name": "Dr Zdrowie",
                "addr:street": "Radomska",
                "addr:housenumber": "20C",
                "addr:city": "Kielce",
                "addr:postcode": "25-323",
                "amenity": "pharmacy"
            },
            "geometry": {
                "type": "Point",
                "coordinates": [
                    20.667359550007205,
                    50.88732108378658
                ]
            }
        },
        {
            "type": "Feature",
            "properties": {
                "ref:csioz": 1217982,
                "name": "Zakład Pielęgnacyjno-Opiekuńczy",
                "addr:street": "Króla Jana III Sobieskiego",
                "addr:housenumber": "30",
                "addr:city": "Kielce",
                "addr:postcode": "25-124",
                "amenity": "pharmacy"
            },
            "geometry": {
                "type": "Point",
                "coordinates": [
                    20.617598280091137,
                    50.8523606653787
                ]
            }
        },
        {
            "type": "Feature",
            "properties": {
                "ref:csioz": 1219141,
                "name": "Ziko Apteka",
                "addr:street": "Henryka Sienkiewicza",
                "addr:housenumber": "27",
                "addr:city": "Kielce",
                "addr:postcode": "25-007",
                "amenity": "pharmacy"
            },
            "geometry": {
                "type": "Point",
                "coordinates": [
                    20.627936803192167,
                    50.87099120044028
                ]
            }
        },
        {
            "type": "Feature",
            "properties": {
                "ref:csioz": 1219598,
                "name": "Apteka Plus",
                "addr:street": "Robotnicza",
                "addr:housenumber": "1",
                "addr:city": "Kielce",
                "addr:postcode": "25-662",
                "amenity": "pharmacy"
            },
            "geometry": {
                "type": "Point",
                "coordinates": [
                    20.627190733240365,
                    50.886383350496445
                ]
            }
        },
        {
            "type": "Feature",
            "properties": {
                "ref:csioz": 1220635,
                "name": "Apteka Św. Kosmy I Damiana",
                "addr:street": "Zagórska",
                "addr:housenumber": "18A",
                "addr:city": "Kielce",
                "addr:postcode": "25-355",
                "amenity": "pharmacy"
            },
            "geometry": {
                "type": "Point",
                "coordinates": [
                    20.639872231718805,
                    50.866893310854145
                ]
            }
        },
        {
            "type": "Feature",
            "properties": {
                "ref:csioz": 1224181,
                "name": "Apteka Plus",
                "addr:street": "1 Maja",
                "addr:housenumber": "135",
                "addr:city": "Kielce",
                "addr:postcode": "25-614",
                "amenity": "pharmacy"
            },
            "geometry": {
                "type": "Point",
                "coordinates": [
                    20.611187296212208,
                    50.88927522010337
                ]
            }
        },
        {
            "type": "Feature",
            "properties": {
                "ref:csioz": 1224857,
                "name": "Zakład Leczniczy Lumos Okulistyka Kielcecka W Kielcach",
                "addr:street": "Wspólna",
                "addr:housenumber": "1",
                "addr:city": "Kielce",
                "addr:postcode": "25-316",
                "amenity": "pharmacy"
            },
            "geometry": {
                "type": "Point",
                "coordinates": [
                    20.63859091073152,
                    50.87373816444181
                ]
            }
        },
        {
            "type": "Feature",
            "properties": {
                "ref:csioz": 1228622,
                "name": "Dział Farmacji Szpitalnej",
                "addr:street": "Jagiellońska",
                "addr:housenumber": "66",
                "addr:city": "Kielce",
                "addr:postcode": "25-734",
                "amenity": "pharmacy"
            },
            "geometry": {
                "type": "Point",
                "coordinates": [
                    20.605513464273834,
                    50.87290783286321
                ]
            }
        },
        {
            "type": "Feature",
            "properties": {
                "ref:csioz": 1003160,
                "name": "\"Apteka \"\"Codzienna\"\"\"",
                "addr:street": "Księdza Jerzego Popiełuszki",
                "addr:housenumber": "40",
                "addr:city": "Kielce",
                "addr:postcode": "25-394",
                "amenity": "pharmacy"
            },
            "geometry": {
                "type": "Point",
                "coordinates": [
                    20.63335328848679,
                    50.84802947362325
                ]
            }
        },
        {
            "type": "Feature",
            "properties": {
                "ref:csioz": 1002540,
                "name": "\"Apteka \"\"Codzienna\"\"\"",
                "addr:street": "Żytnia",
                "addr:housenumber": "14A",
                "addr:city": "Kielce",
                "addr:postcode": "25-018",
                "amenity": "pharmacy"
            },
            "geometry": {
                "type": "Point",
                "coordinates": [
                    20.619478590948756,
                    50.86986294827141
                ]
            }
        },
        {
            "type": "Feature",
            "properties": {
                "ref:csioz": 1198113,
                "name": "\"Apteka \"\"Codzienna\"\"\"",
                "addr:street": "1 Maja",
                "addr:housenumber": "158",
                "addr:city": "Kielce",
                "addr:postcode": "25-614",
                "amenity": "pharmacy"
            },
            "geometry": {
                "type": "Point",
                "coordinates": [
                    20.614092057261786,
                    50.88726997211299
                ]
            }
        },
        {
            "type": "Feature",
            "properties": {
                "ref:csioz": 1003322,
                "name": "\"Apteka Cef@Rm 36,6\"",
                "addr:street": "Kryształowa",
                "addr:housenumber": "4",
                "addr:city": "Kielce",
                "addr:postcode": "25-705",
                "amenity": "pharmacy"
            },
            "geometry": {
                "type": "Point",
                "coordinates": [
                    20.590314843208095,
                    50.86026897151111
                ]
            }
        },
        {
            "type": "Feature",
            "properties": {
                "ref:csioz": 1111955,
                "name": "Apteka Gemini",
                "addr:street": "Warszawska",
                "addr:housenumber": "218D",
                "addr:city": "Kielce",
                "addr:postcode": "25-414",
                "amenity": "pharmacy"
            },
            "geometry": {
                "type": "Point",
                "coordinates": [
                    20.661984720827856,
                    50.89622334143523
                ]
            }
        }
    ]
}