{
    "type": "FeatureCollection",
    "name": "JPT_KOD_JE_3006",
    "features": [
        {
            "type": "Feature",
            "properties": {
                "ref:csioz": 1027009,
                "name": "Eskulap",
                "addr:street": "DWORCOWA",
                "addr:housenumber": "19",
                "addr:city": "KOTLIN",
                "addr:postcode": "63-220",
                "amenity": "pharmacy",
                "dispensing": "yes"
            },
            "geometry": {
                "type": "Point",
                "coordinates": [
                    17.64773432333756,
                    51.91749039422432
                ]
            }
        },
        {
            "type": "Feature",
            "properties": {
                "ref:csioz": 1026998,
                "name": "Nova",
                "addr:street": "JAROCIŃSKA",
                "addr:housenumber": "15B",
                "addr:city": "ŻERKÓW",
                "addr:postcode": "63-210",
                "amenity": "pharmacy",
                "dispensing": "yes"
            },
            "geometry": {
                "type": "Point",
                "coordinates": [
                    17.56326615234279,
                    52.064805334263745
                ]
            }
        },
        {
            "type": "Feature",
            "properties": {
                "ref:csioz": 1026987,
                "name": "Stróżykowie",
                "addr:street": "RYNEK",
                "addr:housenumber": "7G",
                "addr:city": "ŻERKÓW",
                "addr:postcode": "63-210",
                "amenity": "pharmacy",
                "dispensing": "yes"
            },
            "geometry": {
                "type": "Point",
                "coordinates": [
                    17.563185700490383,
                    52.06827862109089
                ]
            }
        },
        {
            "type": "Feature",
            "properties": {
                "ref:csioz": 1027014,
                "name": "Witaminka",
                "addr:street": "WROCŁAWSKA",
                "addr:housenumber": "9",
                "addr:city": "JAROCIN",
                "addr:postcode": "63-200",
                "amenity": "pharmacy",
                "dispensing": "yes"
            },
            "geometry": {
                "type": "Point",
                "coordinates": [
                    17.50070488832915,
                    51.971438095351886
                ]
            }
        },
        {
            "type": "Feature",
            "properties": {
                "ref:csioz": 1027023,
                "name": "Panaceum",
                "addr:street": "CEGLANA",
                "addr:housenumber": "5a",
                "addr:city": "WITASZYCE",
                "addr:postcode": "62-230",
                "amenity": "pharmacy",
                "dispensing": "yes"
            },
            "geometry": {
                "type": "Point",
                "coordinates": [
                    17.559350861605406,
                    51.940224555057426
                ]
            }
        },
        {
            "type": "Feature",
            "properties": {
                "ref:csioz": 1051825,
                "name": "Bratek",
                "addr:street": "SZKOLNA",
                "addr:housenumber": "1A",
                "addr:city": "CIELCZA",
                "addr:postcode": "63-200",
                "amenity": "pharmacy",
                "dispensing": "yes"
            },
            "geometry": {
                "type": "Point",
                "coordinates": [
                    17.474550322923818,
                    52.006323993993675
                ]
            }
        },
        {
            "type": "Feature",
            "properties": {
                "ref:csioz": 1053052,
                "name": "Centrum",
                "addr:street": "WOJSKA POLSKIEGO",
                "addr:housenumber": "44",
                "addr:city": "JAROCIN",
                "addr:postcode": "63-200",
                "amenity": "pharmacy",
                "dispensing": "yes"
            },
            "geometry": {
                "type": "Point",
                "coordinates": [
                    17.507787757285723,
                    51.966053944249595
                ]
            }
        },
        {
            "type": "Feature",
            "properties": {
                "ref:csioz": 1053060,
                "name": "Bratek",
                "addr:street": "ŚW. DUCHA",
                "addr:housenumber": "30A",
                "addr:city": "JAROCIN",
                "addr:postcode": "63-200",
                "amenity": "pharmacy",
                "dispensing": "yes"
            },
            "geometry": {
                "type": "Point",
                "coordinates": [
                    17.50790410243079,
                    51.97532159018394
                ]
            }
        },
        {
            "type": "Feature",
            "properties": {
                "ref:csioz": 1053071,
                "name": "Dbam O Zdrowie",
                "addr:street": "KOŚCIUSZKI",
                "addr:housenumber": "16A",
                "addr:city": "JAROCIN",
                "addr:postcode": "63-200",
                "amenity": "pharmacy",
                "dispensing": "yes"
            },
            "geometry": {
                "type": "Point",
                "coordinates": [
                    17.500086536167696,
                    51.96728044923317
                ]
            }
        },
        {
            "type": "Feature",
            "properties": {
                "ref:csioz": 1053083,
                "name": "Przyjazna",
                "addr:street": "ŚRÓDMIEJSKA",
                "addr:housenumber": "32",
                "addr:city": "JAROCIN",
                "addr:postcode": "63-200",
                "amenity": "pharmacy",
                "dispensing": "yes"
            },
            "geometry": {
                "type": "Point",
                "coordinates": [
                    17.504814751326897,
                    51.96849943745176
                ]
            }
        },
        {
            "type": "Feature",
            "properties": {
                "ref:csioz": 1053094,
                "name": "Zdrowie",
                "addr:street": "KOLEJOWA",
                "addr:housenumber": "18",
                "addr:city": "JARACZEWO",
                "addr:postcode": "63-233",
                "amenity": "pharmacy",
                "dispensing": "yes"
            },
            "geometry": {
                "type": "Point",
                "coordinates": [
                    17.295412235897302,
                    51.96506802722148
                ]
            }
        },
        {
            "type": "Feature",
            "properties": {
                "ref:csioz": 1053627,
                "name": "Apteka Gemini",
                "addr:street": "Generała Józefa Hallera",
                "addr:housenumber": "14",
                "addr:city": "JAROCIN",
                "addr:postcode": "63-200",
                "amenity": "pharmacy",
                "dispensing": "yes"
            },
            "geometry": {
                "type": "Point",
                "coordinates": [
                    17.50363609017621,
                    51.968535409007046
                ]
            }
        },
        {
            "type": "Feature",
            "properties": {
                "ref:csioz": 1053634,
                "name": "Bratek",
                "addr:street": "KONSTYTUCJI 3 MAJA",
                "addr:housenumber": "30",
                "addr:city": "JAROCIN",
                "addr:postcode": "63-200",
                "amenity": "pharmacy",
                "dispensing": "yes"
            },
            "geometry": {
                "type": "Point",
                "coordinates": [
                    17.50666125121712,
                    51.95820967183473
                ]
            }
        },
        {
            "type": "Feature",
            "properties": {
                "ref:csioz": 1053946,
                "name": "Panaceum",
                "addr:street": "DWORCOWA",
                "addr:housenumber": "25",
                "addr:city": "GOLINA",
                "addr:postcode": "63-200",
                "amenity": "pharmacy",
                "dispensing": "yes"
            },
            "geometry": {
                "type": "Point",
                "coordinates": [
                    17.474126806423694,
                    51.91215042984719
                ]
            }
        },
        {
            "type": "Feature",
            "properties": {
                "ref:csioz": 1053967,
                "name": "Zdrowie",
                "addr:street": "KOŹMIŃSKA",
                "addr:housenumber": "7",
                "addr:city": "RUSKO",
                "addr:postcode": "63-233",
                "amenity": "pharmacy",
                "dispensing": "yes"
            },
            "geometry": {
                "type": "Point",
                "coordinates": [
                    17.369291029154944,
                    51.90715757357005
                ]
            }
        },
        {
            "type": "Feature",
            "properties": {
                "ref:csioz": 1117759,
                "name": "Agafarm",
                "addr:street": "DWORCOWA",
                "addr:housenumber": "22",
                "addr:city": "MIESZKÓW",
                "addr:postcode": "63-242",
                "amenity": "pharmacy",
                "dispensing": "yes"
            },
            "geometry": {
                "type": "Point",
                "coordinates": [
                    17.456433620175936,
                    52.022901060561985
                ]
            }
        },
        {
            "type": "Feature",
            "properties": {
                "ref:csioz": 1158010,
                "addr:housenumber": "22A",
                "addr:postcode": "23-155",
                "amenity": "pharmacy",
                "addr:place": "Zakrzew",
                "dispensing": "yes"
            },
            "geometry": {
                "type": "Point",
                "coordinates": [
                    17.53099174014289,
                    51.9328817581543
                ]
            }
        },
        {
            "type": "Feature",
            "properties": {
                "ref:csioz": 1184145,
                "name": "Stylowa 2",
                "addr:street": "Wrocławska",
                "addr:housenumber": "51",
                "addr:city": "Jarocin",
                "addr:postcode": "63-200",
                "amenity": "pharmacy",
                "dispensing": "yes"
            },
            "geometry": {
                "type": "Point",
                "coordinates": [
                    17.501208786888512,
                    51.966760695433365
                ]
            }
        },
        {
            "type": "Feature",
            "properties": {
                "ref:csioz": 1051979,
                "name": "Medicor",
                "addr:street": "DWORCOWA",
                "addr:housenumber": "5",
                "addr:city": "KOTLIN",
                "addr:postcode": "63-220",
                "amenity": "pharmacy",
                "dispensing": "yes"
            },
            "geometry": {
                "type": "Point",
                "coordinates": [
                    17.647755591273626,
                    51.91844948994169
                ]
            }
        },
        {
            "type": "Feature",
            "properties": {
                "ref:csioz": 1052784,
                "name": "Prima",
                "addr:street": "POWSTAŃCÓW WIELKOPOLSKICH",
                "addr:housenumber": "40",
                "addr:city": "JAROCIN",
                "addr:postcode": "63-200",
                "amenity": "pharmacy",
                "dispensing": "yes"
            },
            "geometry": {
                "type": "Point",
                "coordinates": [
                    17.517351137862388,
                    51.95565267520377
                ]
            }
        },
        {
            "type": "Feature",
            "properties": {
                "ref:csioz": 1120557,
                "name": "Osiedlowa",
                "addr:street": "NSZZ SOLIDARNOŚĆ",
                "addr:housenumber": "7",
                "addr:city": "JAROCIN",
                "addr:postcode": "63-200",
                "amenity": "pharmacy",
                "dispensing": "yes"
            },
            "geometry": {
                "type": "Point",
                "coordinates": [
                    17.507080826892835,
                    51.96027161343217
                ]
            }
        },
        {
            "type": "Feature",
            "properties": {
                "ref:csioz": 1198534,
                "name": "Stylowa",
                "addr:street": "Ignacego Paderewskiego",
                "addr:housenumber": "3A",
                "addr:city": "Jarocin",
                "addr:postcode": "63-200",
                "amenity": "pharmacy",
                "dispensing": "yes"
            },
            "geometry": {
                "type": "Point",
                "coordinates": [
                    17.49973853334702,
                    51.97012478937348
                ]
            }
        },
        {
            "type": "Feature",
            "properties": {
                "ref:csioz": 1201713,
                "name": "Apteka Szpitalna",
                "addr:street": "Szpitalna",
                "addr:housenumber": "1",
                "addr:city": "Jarocin",
                "addr:postcode": "63-200",
                "amenity": "pharmacy",
                "dispensing": "yes"
            },
            "geometry": {
                "type": "Point",
                "coordinates": [
                    17.504618459191242,
                    51.969579672839835
                ]
            }
        },
        {
            "type": "Feature",
            "properties": {
                "ref:csioz": 1203319,
                "name": "Apteka Z Misiem",
                "addr:street": "Kasztanowa",
                "addr:housenumber": "16",
                "addr:city": "Jarocin",
                "addr:postcode": "63-200",
                "amenity": "pharmacy",
                "dispensing": "yes"
            },
            "geometry": {
                "type": "Point",
                "coordinates": [
                    17.49971416527007,
                    51.97643955849059
                ]
            }
        },
        {
            "type": "Feature",
            "properties": {
                "ref:csioz": 1214604,
                "name": "Forte",
                "addr:street": "700-lecia",
                "addr:housenumber": "3C",
                "addr:city": "Żerków",
                "addr:postcode": "63-210",
                "amenity": "pharmacy",
                "dispensing": "yes"
            },
            "geometry": {
                "type": "Point",
                "coordinates": [
                    17.56168543205161,
                    52.070943217192536
                ]
            }
        },
        {
            "type": "Feature",
            "properties": {
                "ref:csioz": 1215033,
                "name": "Stylowa 3",
                "addr:street": "Wrocławska",
                "addr:housenumber": "20",
                "addr:city": "Jarocin",
                "addr:postcode": "63-200",
                "amenity": "pharmacy",
                "dispensing": "yes"
            },
            "geometry": {
                "type": "Point",
                "coordinates": [
                    17.50097297811932,
                    51.97013801722767
                ]
            }
        },
        {
            "type": "Feature",
            "properties": {
                "ref:csioz": 1222132,
                "name": "Przy Rynku",
                "addr:street": "Golska",
                "addr:housenumber": "22",
                "addr:city": "Jaraczewo",
                "addr:postcode": "63-233",
                "amenity": "pharmacy",
                "dispensing": "yes"
            },
            "geometry": {
                "type": "Point",
                "coordinates": [
                    17.294945689296355,
                    51.96927577325901
                ]
            }
        },
        {
            "type": "Feature",
            "properties": {
                "ref:csioz": 1222669,
                "name": "Stylowa 4",
                "addr:street": "Generała Józefa Hallera",
                "addr:housenumber": "8",
                "addr:city": "Jarocin",
                "addr:postcode": "63-200",
                "amenity": "pharmacy",
                "dispensing": "yes"
            },
            "geometry": {
                "type": "Point",
                "coordinates": [
                    17.50280018124971,
                    51.96844221606766
                ]
            }
        },
        {
            "type": "Feature",
            "properties": {
                "ref:csioz": 1224368,
                "name": "Bratek Trzy",
                "addr:street": "Piaskowa",
                "addr:housenumber": "3",
                "addr:city": "Jarocin",
                "addr:postcode": "63-200",
                "amenity": "pharmacy",
                "dispensing": "yes"
            },
            "geometry": {
                "type": "Point",
                "coordinates": [
                    17.508470949039165,
                    51.962357411933695
                ]
            }
        },
        {
            "type": "Feature",
            "properties": {
                "ref:csioz": 1229038,
                "name": "Medicamento",
                "addr:street": "Powstańców Wielkopolskich",
                "addr:housenumber": "60",
                "addr:city": "Wilkowyja",
                "addr:postcode": "63-200",
                "amenity": "pharmacy",
                "dispensing": "yes"
            },
            "geometry": {
                "type": "Point",
                "coordinates": [
                    17.54358117288257,
                    52.00866437301233
                ]
            }
        }
    ]
}