{
    "type": "FeatureCollection",
    "name": "JPT_KOD_JE_2208",
    "features": [
        {
            "type": "Feature",
            "properties": {
                "ref:csioz": 1028525,
                "name": "Doz Apteka Dbam O Zdrowie",
                "addr:street": "Osiedle Na Wzgórzu",
                "addr:housenumber": "35",
                "addr:city": "Cewice",
                "addr:postcode": "84-312",
                "amenity": "pharmacy",
                "dispensing": "yes"
            },
            "geometry": {
                "type": "Point",
                "coordinates": [
                    17.731019461204944,
                    54.433845429448304
                ]
            }
        },
        {
            "type": "Feature",
            "properties": {
                "ref:csioz": 1139714,
                "name": "Apteka Szpitalna",
                "addr:street": "Juliana Węgrzynowicza",
                "addr:housenumber": "13",
                "addr:city": "Lębork",
                "addr:postcode": "84-300",
                "amenity": "pharmacy",
                "dispensing": "yes"
            },
            "geometry": {
                "type": "Point",
                "coordinates": [
                    17.751188008440714,
                    54.53872860088584
                ]
            }
        },
        {
            "type": "Feature",
            "properties": {
                "ref:csioz": 1175223,
                "name": "Eskulap",
                "addr:street": "Łebska",
                "addr:housenumber": "54",
                "addr:city": "Nowęcin",
                "addr:postcode": "84-360",
                "amenity": "pharmacy",
                "dispensing": "yes"
            },
            "geometry": {
                "type": "Point",
                "coordinates": [
                    17.575046558290648,
                    54.750164800155034
                ]
            }
        },
        {
            "type": "Feature",
            "properties": {
                "ref:csioz": 1175246,
                "name": "Apteka Dbam O Zdrowie",
                "addr:street": "Wolności",
                "addr:housenumber": "40",
                "addr:city": "Lębork",
                "addr:postcode": "84-300",
                "amenity": "pharmacy",
                "dispensing": "yes"
            },
            "geometry": {
                "type": "Point",
                "coordinates": [
                    17.74590065795131,
                    54.54089061873092
                ]
            }
        },
        {
            "type": "Feature",
            "properties": {
                "ref:csioz": 1179467,
                "name": "Gemini",
                "addr:street": "Staromiejska",
                "addr:housenumber": "17",
                "addr:city": "Lębork",
                "addr:postcode": "84-300",
                "amenity": "pharmacy",
                "dispensing": "yes"
            },
            "geometry": {
                "type": "Point",
                "coordinates": [
                    17.74771998251113,
                    54.540504052404025
                ]
            }
        },
        {
            "type": "Feature",
            "properties": {
                "ref:csioz": 1028596,
                "name": "Pod Agawą",
                "addr:street": "Radosna",
                "addr:housenumber": "7 C",
                "addr:city": "Wicko",
                "addr:postcode": "84-352",
                "amenity": "pharmacy",
                "dispensing": "yes"
            },
            "geometry": {
                "type": "Point",
                "coordinates": [
                    17.61895969797057,
                    54.67102818301585
                ]
            }
        },
        {
            "type": "Feature",
            "properties": {
                "ref:csioz": 1028558,
                "addr:street": "Tadeusza Kościuszki",
                "addr:housenumber": "70a",
                "addr:city": "Łeba",
                "addr:postcode": "94-360",
                "amenity": "pharmacy",
                "dispensing": "yes"
            },
            "geometry": {
                "type": "Point",
                "coordinates": [
                    17.557248486219414,
                    54.75703671314621
                ]
            }
        },
        {
            "type": "Feature",
            "properties": {
                "ref:csioz": 1029255,
                "name": "Doz Apteka Dbam O Zdrowie Nowowiejska",
                "addr:street": "Grunwaldzka",
                "addr:housenumber": "24A",
                "addr:city": "Nowa Wieś Lęborska",
                "addr:postcode": "84-351",
                "amenity": "pharmacy",
                "dispensing": "yes"
            },
            "geometry": {
                "type": "Point",
                "coordinates": [
                    17.7325530656669,
                    54.562338404417595
                ]
            }
        },
        {
            "type": "Feature",
            "properties": {
                "ref:csioz": 1031022,
                "name": "Apteka Dbam O Zdrowie",
                "addr:street": "Toruńska",
                "addr:housenumber": "6",
                "addr:city": "Lębork",
                "addr:postcode": "84-300",
                "amenity": "pharmacy",
                "dispensing": "yes"
            },
            "geometry": {
                "type": "Point",
                "coordinates": [
                    17.753391936580876,
                    54.53283667113437
                ]
            }
        },
        {
            "type": "Feature",
            "properties": {
                "ref:csioz": 1031199,
                "name": "Łebska",
                "addr:street": "10 Marca",
                "addr:housenumber": "2",
                "addr:city": "Łeba",
                "addr:postcode": "84-360",
                "amenity": "pharmacy",
                "dispensing": "yes"
            },
            "geometry": {
                "type": "Point",
                "coordinates": [
                    17.55729073956732,
                    54.75891505684331
                ]
            }
        },
        {
            "type": "Feature",
            "properties": {
                "ref:csioz": 1031472,
                "name": "Gemini",
                "addr:street": "Wolności",
                "addr:housenumber": "30",
                "addr:city": "Lębork",
                "addr:postcode": "84-300",
                "amenity": "pharmacy",
                "dispensing": "yes"
            },
            "geometry": {
                "type": "Point",
                "coordinates": [
                    17.744692182488585,
                    54.541889515466444
                ]
            }
        },
        {
            "type": "Feature",
            "properties": {
                "ref:csioz": 1170059,
                "name": "Dr. Max",
                "addr:street": "1 Maja",
                "addr:housenumber": "1A",
                "addr:city": "Lębork",
                "addr:postcode": "84-300",
                "amenity": "pharmacy",
                "dispensing": "yes"
            },
            "geometry": {
                "type": "Point",
                "coordinates": [
                    17.74651194219103,
                    54.54020587983358
                ]
            }
        },
        {
            "type": "Feature",
            "properties": {
                "ref:csioz": 1170084,
                "name": "Dr. Max",
                "addr:street": "Bohaterów Monte Cassino",
                "addr:housenumber": "16A",
                "addr:city": "Lębork",
                "addr:postcode": "84-300",
                "amenity": "pharmacy",
                "dispensing": "yes"
            },
            "geometry": {
                "type": "Point",
                "coordinates": [
                    17.748423051849795,
                    54.535259853773404
                ]
            }
        },
        {
            "type": "Feature",
            "properties": {
                "ref:csioz": 1185910,
                "name": "Twoja Apteka",
                "addr:street": "Wincentego Witosa",
                "addr:housenumber": "42",
                "addr:city": "Cewice",
                "addr:postcode": "84-312",
                "amenity": "pharmacy",
                "dispensing": "yes"
            },
            "geometry": {
                "type": "Point",
                "coordinates": [
                    17.734823790902542,
                    54.43552002309459
                ]
            }
        },
        {
            "type": "Feature",
            "properties": {
                "ref:csioz": 1187991,
                "name": "\"Apteka Cef@Rm 36,6\"",
                "addr:street": "Armii Krajowej",
                "addr:housenumber": "32 / 1",
                "addr:city": "Lębork",
                "addr:postcode": "84-300",
                "amenity": "pharmacy",
                "dispensing": "yes"
            },
            "geometry": {
                "type": "Point",
                "coordinates": [
                    17.742366999999234,
                    54.54057800001967
                ]
            }
        },
        {
            "type": "Feature",
            "properties": {
                "ref:csioz": 1210727,
                "name": "Apteka Miraculum",
                "addr:street": "Grunwaldzka",
                "addr:housenumber": "18 / A",
                "addr:city": "Lębork",
                "addr:postcode": "84-300",
                "amenity": "pharmacy",
                "dispensing": "yes"
            },
            "geometry": {
                "type": "Point",
                "coordinates": [
                    17.749410999999238,
                    54.53724200001967
                ]
            }
        }
    ]
}