{
    "type": "FeatureCollection",
    "name": "JPT_KOD_JE_2862",
    "features": [
        {
            "type": "Feature",
            "properties": {
                "ref:csioz": 1037514,
                "name": "Apteka Dbam O Zdrowie",
                "addr:street": "Mieczysława Orłowicza",
                "addr:housenumber": "8A",
                "addr:city": "Olsztyn",
                "addr:postcode": "10-684",
                "amenity": "pharmacy",
                "dispensing": "yes"
            },
            "geometry": {
                "type": "Point",
                "coordinates": [
                    20.492989304425638,
                    53.75362591549509
                ]
            }
        },
        {
            "type": "Feature",
            "properties": {
                "ref:csioz": 1120645,
                "addr:street": "Jagiellońska",
                "addr:housenumber": "78",
                "addr:city": "Olsztyn",
                "addr:postcode": "10-357",
                "amenity": "pharmacy",
                "dispensing": "yes"
            },
            "geometry": {
                "type": "Point",
                "coordinates": [
                    20.508275391213623,
                    53.801906767744725
                ]
            }
        },
        {
            "type": "Feature",
            "properties": {
                "ref:csioz": 1138053,
                "addr:street": "Żołnierska",
                "addr:housenumber": "18A",
                "addr:city": "Olsztyn",
                "addr:postcode": "10-561",
                "amenity": "pharmacy",
                "dispensing": "yes"
            },
            "geometry": {
                "type": "Point",
                "coordinates": [
                    20.495394928005627,
                    53.76864495977263
                ]
            }
        },
        {
            "type": "Feature",
            "properties": {
                "ref:csioz": 1037376,
                "name": "Apteka Prima",
                "addr:street": "Kołobrzeska",
                "addr:housenumber": "13",
                "addr:city": "Olsztyn",
                "addr:postcode": "10-444",
                "amenity": "pharmacy",
                "dispensing": "yes"
            },
            "geometry": {
                "type": "Point",
                "coordinates": [
                    20.496599675534412,
                    53.778606092506244
                ]
            }
        },
        {
            "type": "Feature",
            "properties": {
                "ref:csioz": 1113019,
                "name": "Apteka Tania",
                "addr:street": "Partyzantów",
                "addr:housenumber": "63",
                "addr:city": "Olsztyn",
                "addr:postcode": "10-402",
                "amenity": "pharmacy",
                "dispensing": "yes"
            },
            "geometry": {
                "type": "Point",
                "coordinates": [
                    20.49499504505665,
                    53.78432136808161
                ]
            }
        },
        {
            "type": "Feature",
            "properties": {
                "ref:csioz": 1113035,
                "addr:street": "Budowlana",
                "addr:housenumber": "3A",
                "addr:city": "Olsztyn",
                "addr:postcode": "10-424",
                "amenity": "pharmacy",
                "dispensing": "yes"
            },
            "geometry": {
                "type": "Point",
                "coordinates": [
                    20.53013213082139,
                    53.784183222985966
                ]
            }
        },
        {
            "type": "Feature",
            "properties": {
                "ref:csioz": 1138066,
                "addr:street": "Żołnierska",
                "addr:housenumber": "18",
                "addr:city": "Olsztyn",
                "addr:postcode": "10-561",
                "amenity": "pharmacy",
                "dispensing": "yes"
            },
            "geometry": {
                "type": "Point",
                "coordinates": [
                    20.49400233020357,
                    53.768756081430105
                ]
            }
        },
        {
            "type": "Feature",
            "properties": {
                "ref:csioz": 1204626,
                "name": "Apteka Gemini",
                "addr:street": "Dworcowa",
                "addr:housenumber": "25",
                "addr:city": "Olsztyn",
                "addr:postcode": "10-438",
                "amenity": "pharmacy",
                "dispensing": "yes"
            },
            "geometry": {
                "type": "Point",
                "coordinates": [
                    20.50256050379693,
                    53.77460063477521
                ]
            }
        },
        {
            "type": "Feature",
            "properties": {
                "ref:csioz": 1216879,
                "name": "Dr.Max",
                "addr:street": "Aleja Marszałka Józefa Piłsudskiego",
                "addr:housenumber": "50",
                "addr:city": "Olsztyn",
                "addr:postcode": "10-450",
                "amenity": "pharmacy",
                "dispensing": "yes"
            },
            "geometry": {
                "type": "Point",
                "coordinates": [
                    20.499971313231548,
                    53.772659339452275
                ]
            }
        },
        {
            "type": "Feature",
            "properties": {
                "ref:csioz": 1014030,
                "addr:street": "Niepodległości",
                "addr:housenumber": "44",
                "addr:city": "Olsztyn",
                "addr:postcode": "10-045",
                "amenity": "pharmacy",
                "dispensing": "yes"
            },
            "geometry": {
                "type": "Point",
                "coordinates": [
                    20.480435961677557,
                    53.77058464719882
                ]
            }
        },
        {
            "type": "Feature",
            "properties": {
                "ref:csioz": 1014152,
                "addr:street": "Aleja Wojska Polskiego",
                "addr:housenumber": "35",
                "addr:city": "Olsztyn",
                "addr:postcode": "10-228",
                "amenity": "pharmacy",
                "dispensing": "yes"
            },
            "geometry": {
                "type": "Point",
                "coordinates": [
                    20.482611719877152,
                    53.795204757889806
                ]
            }
        },
        {
            "type": "Feature",
            "properties": {
                "ref:csioz": 1036348,
                "name": "Agameda",
                "addr:street": "Żytnia",
                "addr:housenumber": "70A",
                "addr:city": "Olsztyn",
                "addr:postcode": "10-823",
                "amenity": "pharmacy",
                "dispensing": "yes"
            },
            "geometry": {
                "type": "Point",
                "coordinates": [
                    20.429532858857055,
                    53.76588862672579
                ]
            }
        },
        {
            "type": "Feature",
            "properties": {
                "ref:csioz": 1037431,
                "name": "Avena",
                "addr:street": "Jarosława Iwaszkiewicza",
                "addr:housenumber": "22C",
                "addr:city": "Olsztyn",
                "addr:postcode": "10-900",
                "amenity": "pharmacy",
                "dispensing": "yes"
            },
            "geometry": {
                "type": "Point",
                "coordinates": [
                    20.471724009055247,
                    53.7626326156369
                ]
            }
        },
        {
            "type": "Feature",
            "properties": {
                "ref:csioz": 1037490,
                "name": "Apteka Dbam O Zdrowie",
                "addr:street": "Plac gen. Józefa Bema",
                "addr:housenumber": "5",
                "addr:city": "Olsztyn",
                "addr:postcode": "10-516",
                "amenity": "pharmacy",
                "dispensing": "yes"
            },
            "geometry": {
                "type": "Point",
                "coordinates": [
                    20.491923214238412,
                    53.78336626822654
                ]
            }
        },
        {
            "type": "Feature",
            "properties": {
                "ref:csioz": 1037509,
                "name": "Apteka Dbam O Zdrowie",
                "addr:street": "Dąbrowszczaków",
                "addr:housenumber": "34",
                "addr:city": "Olsztyn",
                "addr:postcode": "10-541",
                "amenity": "pharmacy",
                "dispensing": "yes"
            },
            "geometry": {
                "type": "Point",
                "coordinates": [
                    20.48617324301049,
                    53.78043551316649
                ]
            }
        },
        {
            "type": "Feature",
            "properties": {
                "ref:csioz": 1037546,
                "name": "Euro-Apteka",
                "addr:street": "Aleja Marszałka Józefa Piłsudskiego",
                "addr:housenumber": "16",
                "addr:city": "Olsztyn",
                "addr:postcode": "10-576",
                "amenity": "pharmacy",
                "dispensing": "yes"
            },
            "geometry": {
                "type": "Point",
                "coordinates": [
                    20.482327643181424,
                    53.77767508258997
                ]
            }
        },
        {
            "type": "Feature",
            "properties": {
                "ref:csioz": 1037551,
                "name": "Doz Apteka. Dbam O Zdrowie. Ewa",
                "addr:street": "Kardynała Stefana Wyszyńskiego",
                "addr:housenumber": "18A",
                "addr:city": "Olsztyn",
                "addr:postcode": "10-455",
                "amenity": "pharmacy",
                "dispensing": "yes"
            },
            "geometry": {
                "type": "Point",
                "coordinates": [
                    20.503979527800446,
                    53.76736027937858
                ]
            }
        },
        {
            "type": "Feature",
            "properties": {
                "ref:csioz": 1037477,
                "name": "\"Doz Apteka. Dbam O Zdrowie. \"\"Centrum\"\"\"",
                "addr:street": "Konstantego Ildefonsa Gałczyńskiego",
                "addr:housenumber": "1",
                "addr:city": "Olsztyn",
                "addr:postcode": "10-089",
                "amenity": "pharmacy",
                "dispensing": "yes"
            },
            "geometry": {
                "type": "Point",
                "coordinates": [
                    20.469208692384488,
                    53.76499645869207
                ]
            }
        },
        {
            "type": "Feature",
            "properties": {
                "ref:csioz": 1037572,
                "name": "Apteka Farmakon Domin Sp.J.",
                "addr:street": "Immanuela Kanta",
                "addr:housenumber": "1",
                "addr:city": "Olsztyn",
                "addr:postcode": "10-691",
                "amenity": "pharmacy",
                "dispensing": "yes"
            },
            "geometry": {
                "type": "Point",
                "coordinates": [
                    20.501718282193277,
                    53.74052805725144
                ]
            }
        },
        {
            "type": "Feature",
            "properties": {
                "ref:csioz": 1037601,
                "name": "Hibiskus",
                "addr:street": "Dworcowa",
                "addr:housenumber": "28B",
                "addr:city": "Olsztyn",
                "addr:postcode": "10-437",
                "amenity": "pharmacy",
                "dispensing": "yes"
            },
            "geometry": {
                "type": "Point",
                "coordinates": [
                    20.50208996867803,
                    53.77508695191437
                ]
            }
        },
        {
            "type": "Feature",
            "properties": {
                "ref:csioz": 1037625,
                "name": "Katharsis",
                "addr:street": "Jagiellońska",
                "addr:housenumber": "10",
                "addr:city": "Olsztyn",
                "addr:postcode": "10-272",
                "amenity": "pharmacy",
                "dispensing": "yes"
            },
            "geometry": {
                "type": "Point",
                "coordinates": [
                    20.485697848123262,
                    53.7863232567992
                ]
            }
        },
        {
            "type": "Feature",
            "properties": {
                "ref:csioz": 1037630,
                "name": "Apteka Lawendowa",
                "addr:street": "Grunwaldzka",
                "addr:housenumber": "24",
                "addr:city": "Olsztyn",
                "addr:postcode": "10-124",
                "amenity": "pharmacy",
                "dispensing": "yes"
            },
            "geometry": {
                "type": "Point",
                "coordinates": [
                    20.47018308636253,
                    53.77590976488181
                ]
            }
        },
        {
            "type": "Feature",
            "properties": {
                "ref:csioz": 1037658,
                "addr:street": "Wincentego Pstrowskiego",
                "addr:housenumber": "36",
                "addr:city": "Olsztyn",
                "addr:postcode": "10-602",
                "amenity": "pharmacy",
                "dispensing": "yes"
            },
            "geometry": {
                "type": "Point",
                "coordinates": [
                    20.506476841966805,
                    53.76137170654847
                ]
            }
        },
        {
            "type": "Feature",
            "properties": {
                "ref:csioz": 1037674,
                "name": "Melisa",
                "addr:street": "Pana Tadeusza",
                "addr:housenumber": "6",
                "addr:city": "Olsztyn",
                "addr:postcode": "10-461",
                "amenity": "pharmacy",
                "dispensing": "yes"
            },
            "geometry": {
                "type": "Point",
                "coordinates": [
                    20.506488000001088,
                    53.776941000018354
                ]
            }
        },
        {
            "type": "Feature",
            "properties": {
                "ref:csioz": 1037696,
                "name": "Na Podgrodziu",
                "addr:street": "Walentego Barczewskiego",
                "addr:housenumber": "14",
                "addr:city": "Olsztyn",
                "addr:postcode": "10-061",
                "amenity": "pharmacy",
                "dispensing": "yes"
            },
            "geometry": {
                "type": "Point",
                "coordinates": [
                    20.474804529547118,
                    53.76928399395758
                ]
            }
        },
        {
            "type": "Feature",
            "properties": {
                "ref:csioz": 1037722,
                "name": "Pod Lipą",
                "addr:street": "Żołnierska",
                "addr:housenumber": "41A",
                "addr:city": "Olsztyn",
                "addr:postcode": "10-560",
                "amenity": "pharmacy",
                "dispensing": "yes"
            },
            "geometry": {
                "type": "Point",
                "coordinates": [
                    20.4967791882072,
                    53.769090886149854
                ]
            }
        },
        {
            "type": "Feature",
            "properties": {
                "ref:csioz": 1037812,
                "name": "Verbena",
                "addr:street": "Tadeusza Kościuszki",
                "addr:housenumber": "85A",
                "addr:city": "Olsztyn",
                "addr:postcode": "10-554",
                "amenity": "pharmacy",
                "dispensing": "yes"
            },
            "geometry": {
                "type": "Point",
                "coordinates": [
                    20.486634828455657,
                    53.77464878817968
                ]
            }
        },
        {
            "type": "Feature",
            "properties": {
                "ref:csioz": 1037857,
                "addr:street": "Władysława Gębika",
                "addr:housenumber": "10",
                "addr:city": "Olsztyn",
                "addr:postcode": "10-691",
                "amenity": "pharmacy",
                "dispensing": "yes"
            },
            "geometry": {
                "type": "Point",
                "coordinates": [
                    20.513369557584692,
                    53.74012521698172
                ]
            }
        },
        {
            "type": "Feature",
            "properties": {
                "ref:csioz": 1037861,
                "addr:street": "Gronowa",
                "addr:housenumber": "51",
                "addr:city": "Olsztyn",
                "addr:postcode": "10-824",
                "amenity": "pharmacy",
                "dispensing": "yes"
            },
            "geometry": {
                "type": "Point",
                "coordinates": [
                    20.418905485387672,
                    53.76574359835363
                ]
            }
        },
        {
            "type": "Feature",
            "properties": {
                "ref:csioz": 1037873,
                "addr:street": "gen. Józefa Hallera",
                "addr:housenumber": "4A",
                "addr:city": "Olsztyn",
                "addr:postcode": "10-693",
                "amenity": "pharmacy",
                "dispensing": "yes"
            },
            "geometry": {
                "type": "Point",
                "coordinates": [
                    20.479139076225888,
                    53.73996274651135
                ]
            }
        },
        {
            "type": "Feature",
            "properties": {
                "ref:csioz": 1037899,
                "addr:street": "Ignacego Krasickiego",
                "addr:housenumber": "1B",
                "addr:city": "Olsztyn",
                "addr:postcode": "10-685",
                "amenity": "pharmacy",
                "dispensing": "yes"
            },
            "geometry": {
                "type": "Point",
                "coordinates": [
                    20.505150314926443,
                    53.75009377125909
                ]
            }
        },
        {
            "type": "Feature",
            "properties": {
                "ref:csioz": 1037926,
                "addr:street": "Różowa",
                "addr:housenumber": "22",
                "addr:city": "Olsztyn",
                "addr:postcode": "10-142",
                "amenity": "pharmacy",
                "dispensing": "yes"
            },
            "geometry": {
                "type": "Point",
                "coordinates": [
                    20.457878300362204,
                    53.780712575336
                ]
            }
        },
        {
            "type": "Feature",
            "properties": {
                "ref:csioz": 1037939,
                "name": "Apteki Polskie",
                "addr:street": "Wrocławska",
                "addr:housenumber": "2",
                "addr:city": "Olsztyn",
                "addr:postcode": "10-248",
                "amenity": "pharmacy",
                "dispensing": "yes"
            },
            "geometry": {
                "type": "Point",
                "coordinates": [
                    20.49689931404003,
                    53.79239092769639
                ]
            }
        },
        {
            "type": "Feature",
            "properties": {
                "ref:csioz": 1037952,
                "addr:street": "Biskupa Tomasza Wilczyńskiego",
                "addr:housenumber": "21",
                "addr:city": "Olsztyn",
                "addr:postcode": "10-692",
                "amenity": "pharmacy",
                "dispensing": "yes"
            },
            "geometry": {
                "type": "Point",
                "coordinates": [
                    20.501236527394322,
                    53.74140465648196
                ]
            }
        },
        {
            "type": "Feature",
            "properties": {
                "ref:csioz": 1113925,
                "name": "Apteka Miętowa S.C.",
                "addr:street": "Floriana Piotrowskiego",
                "addr:housenumber": "16D",
                "addr:city": "Olsztyn",
                "addr:postcode": "10-692",
                "amenity": "pharmacy",
                "dispensing": "yes"
            },
            "geometry": {
                "type": "Point",
                "coordinates": [
                    20.490663000001057,
                    53.737118000018285
                ]
            }
        },
        {
            "type": "Feature",
            "properties": {
                "ref:csioz": 1170163,
                "addr:street": "Aleja Wojska Polskiego",
                "addr:housenumber": "80",
                "addr:city": "Olsztyn",
                "addr:postcode": "10-290",
                "amenity": "pharmacy",
                "dispensing": "yes"
            },
            "geometry": {
                "type": "Point",
                "coordinates": [
                    20.48194974057525,
                    53.783736566207395
                ]
            }
        },
        {
            "type": "Feature",
            "properties": {
                "ref:csioz": 1180594,
                "name": "Apteka Hibiskus",
                "addr:street": "Jagiellońska",
                "addr:housenumber": "33",
                "addr:city": "Olsztyn",
                "addr:postcode": "10-271",
                "amenity": "pharmacy",
                "dispensing": "yes"
            },
            "geometry": {
                "type": "Point",
                "coordinates": [
                    20.488232924081466,
                    53.78867364212357
                ]
            }
        },
        {
            "type": "Feature",
            "properties": {
                "ref:csioz": 1183040,
                "name": "Doz Apteka. Dbam O Zdrowie",
                "addr:street": "Aleja Marszałka Józefa Piłsudskiego",
                "addr:housenumber": "44A",
                "addr:city": "Olsztyn",
                "addr:postcode": "10-450",
                "amenity": "pharmacy",
                "dispensing": "yes"
            },
            "geometry": {
                "type": "Point",
                "coordinates": [
                    20.498132775109315,
                    53.77330624893857
                ]
            }
        },
        {
            "type": "Feature",
            "properties": {
                "ref:csioz": 1188621,
                "name": "Apteka Sokrates",
                "addr:street": "Kołobrzeska",
                "addr:housenumber": "32",
                "addr:city": "Olsztyn",
                "addr:postcode": "10-434",
                "amenity": "pharmacy",
                "dispensing": "yes"
            },
            "geometry": {
                "type": "Point",
                "coordinates": [
                    20.502364942762554,
                    53.77943786069601
                ]
            }
        },
        {
            "type": "Feature",
            "properties": {
                "ref:csioz": 1188637,
                "name": "Doz Apteka Dbam O Zdrowie",
                "addr:street": "Franciszka Barcza",
                "addr:housenumber": "3B",
                "addr:city": "Olsztyn",
                "addr:postcode": "10-685",
                "amenity": "pharmacy",
                "dispensing": "yes"
            },
            "geometry": {
                "type": "Point",
                "coordinates": [
                    20.49963884632911,
                    53.75257892156104
                ]
            }
        },
        {
            "type": "Feature",
            "properties": {
                "ref:csioz": 1201206,
                "name": "Gemini",
                "addr:street": "Dąbrowszczaków",
                "addr:housenumber": "1",
                "addr:city": "Olsztyn",
                "addr:postcode": "10-538",
                "amenity": "pharmacy",
                "dispensing": "yes"
            },
            "geometry": {
                "type": "Point",
                "coordinates": [
                    20.481664967545928,
                    53.778491065269094
                ]
            }
        },
        {
            "type": "Feature",
            "properties": {
                "ref:csioz": 1202677,
                "name": "Cosmedica",
                "addr:street": "Juliana Tuwima",
                "addr:housenumber": "26",
                "addr:city": "Olsztyn",
                "addr:postcode": "10-748",
                "amenity": "pharmacy",
                "dispensing": "yes"
            },
            "geometry": {
                "type": "Point",
                "coordinates": [
                    20.485209274647996,
                    53.755019113624954
                ]
            }
        },
        {
            "type": "Feature",
            "properties": {
                "ref:csioz": 1208641,
                "addr:street": "Jana Boenigka",
                "addr:housenumber": "29",
                "addr:city": "Olsztyn",
                "addr:postcode": "10-686",
                "amenity": "pharmacy",
                "dispensing": "yes"
            },
            "geometry": {
                "type": "Point",
                "coordinates": [
                    20.502117142887805,
                    53.741828839426795
                ]
            }
        },
        {
            "type": "Feature",
            "properties": {
                "ref:csioz": 1213191,
                "name": "Apteka Savita",
                "addr:street": "Aleja Wojska Polskiego",
                "addr:housenumber": "19",
                "addr:city": "Olsztyn",
                "addr:postcode": "10-224",
                "amenity": "pharmacy",
                "dispensing": "yes"
            },
            "geometry": {
                "type": "Point",
                "coordinates": [
                    20.48185951763664,
                    53.789224666090085
                ]
            }
        },
        {
            "type": "Feature",
            "properties": {
                "ref:csioz": 1213209,
                "name": "Apteki Polskie",
                "addr:street": "Narcyzowa",
                "addr:housenumber": "1A",
                "addr:city": "Olsztyn",
                "addr:postcode": "11-041",
                "amenity": "pharmacy",
                "dispensing": "yes"
            },
            "geometry": {
                "type": "Point",
                "coordinates": [
                    20.440647052932054,
                    53.800012101070756
                ]
            }
        },
        {
            "type": "Feature",
            "properties": {
                "ref:csioz": 1220198,
                "name": "Doz Apteka. Dbam O Zdrowie",
                "addr:street": "Jarocka",
                "addr:housenumber": "86",
                "addr:city": "Olsztyn",
                "addr:postcode": "10-699",
                "amenity": "pharmacy",
                "dispensing": "yes"
            },
            "geometry": {
                "type": "Point",
                "coordinates": [
                    20.492943077747427,
                    53.73282427299946
                ]
            }
        },
        {
            "type": "Feature",
            "properties": {
                "ref:csioz": 1227833,
                "name": "Pobieranie Krwi - Regionalne Centrum Krwiodawstwa I Krwiolecznictwa W Olsztynie",
                "addr:street": "Malborska",
                "addr:housenumber": "2",
                "addr:city": "Olsztyn",
                "addr:postcode": "10-255",
                "amenity": "pharmacy",
                "dispensing": "yes"
            },
            "geometry": {
                "type": "Point",
                "coordinates": [
                    20.48994820575521,
                    53.79315219311006
                ]
            }
        },
        {
            "type": "Feature",
            "properties": {
                "ref:csioz": 1014074,
                "addr:street": "Jagiellońska",
                "addr:housenumber": "78",
                "addr:city": "Olsztyn",
                "addr:postcode": "10-357",
                "amenity": "pharmacy",
                "dispensing": "yes"
            },
            "geometry": {
                "type": "Point",
                "coordinates": [
                    20.508275391213623,
                    53.801906767744725
                ]
            }
        },
        {
            "type": "Feature",
            "properties": {
                "ref:csioz": 1014096,
                "addr:street": "Aleja Wojska Polskiego",
                "addr:housenumber": "37",
                "addr:city": "Olsztyn",
                "addr:postcode": "10-228",
                "amenity": "pharmacy",
                "dispensing": "yes"
            },
            "geometry": {
                "type": "Point",
                "coordinates": [
                    20.482990907943314,
                    53.79376683690766
                ]
            }
        },
        {
            "type": "Feature",
            "properties": {
                "ref:csioz": 1014118,
                "addr:street": "Aleja Warszawska",
                "addr:housenumber": "30",
                "addr:city": "Olsztyn",
                "addr:postcode": "10-082",
                "amenity": "pharmacy",
                "dispensing": "yes"
            },
            "geometry": {
                "type": "Point",
                "coordinates": [
                    20.470701100796603,
                    53.77216205695239
                ]
            }
        },
        {
            "type": "Feature",
            "properties": {
                "ref:csioz": 1037337,
                "name": "Apteki Polskie",
                "addr:street": "Mieczysława Orłowicza",
                "addr:housenumber": "39",
                "addr:city": "Olsztyn",
                "addr:postcode": "10-684",
                "amenity": "pharmacy",
                "dispensing": "yes"
            },
            "geometry": {
                "type": "Point",
                "coordinates": [
                    20.49858242053772,
                    53.755252361915815
                ]
            }
        },
        {
            "type": "Feature",
            "properties": {
                "ref:csioz": 1037345,
                "name": "Apteka Api",
                "addr:street": "Biskupa Tomasza Wilczyńskiego",
                "addr:housenumber": "36",
                "addr:city": "Olsztyn",
                "addr:postcode": "10-686",
                "amenity": "pharmacy",
                "dispensing": "yes"
            },
            "geometry": {
                "type": "Point",
                "coordinates": [
                    20.48023763576645,
                    53.73974081088717
                ]
            }
        },
        {
            "type": "Feature",
            "properties": {
                "ref:csioz": 1037368,
                "name": "Apteki Polskie",
                "addr:street": "Jana Janowicza",
                "addr:housenumber": "3L",
                "addr:city": "Olsztyn",
                "addr:postcode": "10-692",
                "amenity": "pharmacy",
                "dispensing": "yes"
            },
            "geometry": {
                "type": "Point",
                "coordinates": [
                    20.49692100000106,
                    53.74124900001833
                ]
            }
        },
        {
            "type": "Feature",
            "properties": {
                "ref:csioz": 1110928,
                "name": "Nowa",
                "addr:street": "Dąbrowszczaków",
                "addr:housenumber": "1",
                "addr:city": "Olsztyn",
                "addr:postcode": "10-538",
                "amenity": "pharmacy",
                "dispensing": "yes"
            },
            "geometry": {
                "type": "Point",
                "coordinates": [
                    20.481664967545928,
                    53.778491065269094
                ]
            }
        },
        {
            "type": "Feature",
            "properties": {
                "ref:csioz": 1113070,
                "addr:street": "Aleja Wojska Polskiego",
                "addr:housenumber": "30",
                "addr:city": "Olsztyn",
                "addr:postcode": "10-226",
                "amenity": "pharmacy",
                "dispensing": "yes"
            },
            "geometry": {
                "type": "Point",
                "coordinates": [
                    20.4828437783778,
                    53.7984608205737
                ]
            }
        },
        {
            "type": "Feature",
            "properties": {
                "ref:csioz": 1113097,
                "addr:street": "Brzozowa",
                "addr:housenumber": "14",
                "addr:city": "Olsztyn",
                "addr:postcode": "10-177",
                "amenity": "pharmacy",
                "dispensing": "yes"
            },
            "geometry": {
                "type": "Point",
                "coordinates": [
                    20.441776843932008,
                    53.78886309450512
                ]
            }
        },
        {
            "type": "Feature",
            "properties": {
                "ref:csioz": 1121569,
                "name": "Hebeapteka",
                "addr:street": "Stefana Okrzei",
                "addr:housenumber": "10",
                "addr:city": "Olsztyn",
                "addr:postcode": "10-266",
                "amenity": "pharmacy",
                "dispensing": "yes"
            },
            "geometry": {
                "type": "Point",
                "coordinates": [
                    20.488394000001044,
                    53.78464700001838
                ]
            }
        },
        {
            "type": "Feature",
            "properties": {
                "ref:csioz": 1122763,
                "name": "Vita Plus",
                "addr:street": "Melchiora Wańkowicza",
                "addr:housenumber": "22",
                "addr:city": "Olsztyn",
                "addr:postcode": "10-684",
                "amenity": "pharmacy",
                "dispensing": "yes"
            },
            "geometry": {
                "type": "Point",
                "coordinates": [
                    20.497984510676872,
                    53.75343973316623
                ]
            }
        },
        {
            "type": "Feature",
            "properties": {
                "ref:csioz": 1123181,
                "name": "Dr.Max",
                "addr:street": "Metalowa",
                "addr:housenumber": "2",
                "addr:city": "Olsztyn",
                "addr:postcode": "10-603",
                "amenity": "pharmacy",
                "dispensing": "yes"
            },
            "geometry": {
                "type": "Point",
                "coordinates": [
                    20.49597271432357,
                    53.76304135456167
                ]
            }
        },
        {
            "type": "Feature",
            "properties": {
                "ref:csioz": 1171162,
                "addr:street": "Franciszka Barcza",
                "addr:housenumber": "48",
                "addr:city": "Olsztyn",
                "addr:postcode": "10-685",
                "amenity": "pharmacy",
                "dispensing": "yes"
            },
            "geometry": {
                "type": "Point",
                "coordinates": [
                    20.500493721816454,
                    53.74919729315245
                ]
            }
        },
        {
            "type": "Feature",
            "properties": {
                "ref:csioz": 1171617,
                "name": "Doz Apteka. Dbam O Zdrowie. Elixir",
                "addr:street": "Bolesława Limanowskiego",
                "addr:housenumber": "1-13",
                "addr:city": "Olsztyn",
                "addr:postcode": "10-340",
                "amenity": "pharmacy",
                "dispensing": "yes"
            },
            "geometry": {
                "type": "Point",
                "coordinates": [
                    20.49083493720145,
                    53.785356780225634
                ]
            }
        },
        {
            "type": "Feature",
            "properties": {
                "ref:csioz": 1173388,
                "name": "Lancet Chirurgia Jednego Dnia",
                "addr:street": "Aleja Wojska Polskiego",
                "addr:housenumber": "39",
                "addr:city": "Olsztyn",
                "addr:postcode": "10-295",
                "amenity": "pharmacy",
                "dispensing": "yes"
            },
            "geometry": {
                "type": "Point",
                "coordinates": [
                    20.48259658651553,
                    53.79142793387194
                ]
            }
        },
        {
            "type": "Feature",
            "properties": {
                "ref:csioz": 1181680,
                "name": "Apteka Alfa",
                "addr:street": "Walentego Barczewskiego",
                "addr:housenumber": "1",
                "addr:city": "Olsztyn",
                "addr:postcode": "10-061",
                "amenity": "pharmacy",
                "dispensing": "yes"
            },
            "geometry": {
                "type": "Point",
                "coordinates": [
                    20.47234424505798,
                    53.7700355185353
                ]
            }
        },
        {
            "type": "Feature",
            "properties": {
                "ref:csioz": 1183686,
                "name": "Doz Apteka. Dbam O Zdrowie",
                "addr:street": "Aleja Marszałka Józefa Piłsudskiego",
                "addr:housenumber": "2",
                "addr:city": "Olsztyn",
                "addr:postcode": "10-576",
                "amenity": "pharmacy",
                "dispensing": "yes"
            },
            "geometry": {
                "type": "Point",
                "coordinates": [
                    20.480371000001032,
                    53.778100000018355
                ]
            }
        },
        {
            "type": "Feature",
            "properties": {
                "ref:csioz": 1183693,
                "addr:street": "gen. Józefa Hallera",
                "addr:housenumber": "4B",
                "addr:city": "Olsztyn",
                "addr:postcode": "10-693",
                "amenity": "pharmacy",
                "dispensing": "yes"
            },
            "geometry": {
                "type": "Point",
                "coordinates": [
                    20.479309582134597,
                    53.73973022323717
                ]
            }
        },
        {
            "type": "Feature",
            "properties": {
                "ref:csioz": 1184852,
                "name": "Apteka Dom Leków",
                "addr:street": "Jagiellońska",
                "addr:housenumber": "26",
                "addr:city": "Olsztyn",
                "addr:postcode": "10-273",
                "amenity": "pharmacy",
                "dispensing": "yes"
            },
            "geometry": {
                "type": "Point",
                "coordinates": [
                    20.487901467400594,
                    53.78801763833231
                ]
            }
        },
        {
            "type": "Feature",
            "properties": {
                "ref:csioz": 1184860,
                "name": "Apteka Przyjazna",
                "addr:street": "Aleja Sybiraków",
                "addr:housenumber": "2",
                "addr:city": "Olsztyn",
                "addr:postcode": "10-257",
                "amenity": "pharmacy",
                "dispensing": "yes"
            },
            "geometry": {
                "type": "Point",
                "coordinates": [
                    20.49124253217972,
                    53.79067025349339
                ]
            }
        },
        {
            "type": "Feature",
            "properties": {
                "ref:csioz": 1184958,
                "name": "Apteka Feniks",
                "addr:street": "Bałtycka",
                "addr:housenumber": "130",
                "addr:city": "Olsztyn",
                "addr:postcode": "11-041",
                "amenity": "pharmacy",
                "dispensing": "yes"
            },
            "geometry": {
                "type": "Point",
                "coordinates": [
                    20.41199163561629,
                    53.80099093629514
                ]
            }
        },
        {
            "type": "Feature",
            "properties": {
                "ref:csioz": 1187643,
                "name": "Apteka Nowa - Aptegro24.Pl",
                "addr:street": "Jerzego Burskiego",
                "addr:housenumber": "1",
                "addr:city": "Olsztyn",
                "addr:postcode": "10-686",
                "amenity": "pharmacy",
                "dispensing": "yes"
            },
            "geometry": {
                "type": "Point",
                "coordinates": [
                    20.504793914543992,
                    53.74190606228895
                ]
            }
        },
        {
            "type": "Feature",
            "properties": {
                "ref:csioz": 1190608,
                "name": "Apteka Dom Leków",
                "addr:street": "Aleja Wojska Polskiego",
                "addr:housenumber": "37",
                "addr:city": "Olsztyn",
                "addr:postcode": "10-228",
                "amenity": "pharmacy",
                "dispensing": "yes"
            },
            "geometry": {
                "type": "Point",
                "coordinates": [
                    20.482990907943314,
                    53.79376683690766
                ]
            }
        },
        {
            "type": "Feature",
            "properties": {
                "ref:csioz": 1192897,
                "name": "Doz Apteka Dbam O Zdrowie",
                "addr:street": "Hugona Kołłątaja",
                "addr:housenumber": "11",
                "addr:city": "Olsztyn",
                "addr:postcode": "10-034",
                "amenity": "pharmacy",
                "dispensing": "yes"
            },
            "geometry": {
                "type": "Point",
                "coordinates": [
                    20.474445237062355,
                    53.77501425155506
                ]
            }
        },
        {
            "type": "Feature",
            "properties": {
                "ref:csioz": 1200622,
                "name": "Apteka Społeczna Na Kościuszki Grupa Nowa Farmacja",
                "addr:street": "Tadeusza Kościuszki",
                "addr:housenumber": "25",
                "addr:city": "Olsztyn",
                "addr:postcode": "10-503",
                "amenity": "pharmacy",
                "dispensing": "yes"
            },
            "geometry": {
                "type": "Point",
                "coordinates": [
                    20.49421999812511,
                    53.78246952585804
                ]
            }
        },
        {
            "type": "Feature",
            "properties": {
                "ref:csioz": 1204057,
                "name": "Olsztyńscy Ortopedzi Szpital",
                "addr:street": "Johanna Gottfrieda Herdera",
                "addr:housenumber": "10",
                "addr:city": "Olsztyn",
                "addr:postcode": "10-691",
                "amenity": "pharmacy",
                "dispensing": "yes"
            },
            "geometry": {
                "type": "Point",
                "coordinates": [
                    20.507921913110504,
                    53.740064426728125
                ]
            }
        },
        {
            "type": "Feature",
            "properties": {
                "ref:csioz": 1216667,
                "name": "Dr Zdrowie",
                "addr:street": "Aleja Generała Władysława Sikorskiego",
                "addr:housenumber": "2B",
                "addr:city": "Olsztyn",
                "addr:postcode": "10-088",
                "amenity": "pharmacy",
                "dispensing": "yes"
            },
            "geometry": {
                "type": "Point",
                "coordinates": [
                    20.483865643815566,
                    53.750416086058756
                ]
            }
        },
        {
            "type": "Feature",
            "properties": {
                "ref:csioz": 1216771,
                "name": "Apteka Savita",
                "addr:street": "Balbiny Świtycz-Widackiej",
                "addr:housenumber": "3A",
                "addr:city": "Olsztyn",
                "addr:postcode": "10-691",
                "amenity": "pharmacy",
                "dispensing": "yes"
            },
            "geometry": {
                "type": "Point",
                "coordinates": [
                    20.51344565251749,
                    53.739678227435746
                ]
            }
        },
        {
            "type": "Feature",
            "properties": {
                "ref:csioz": 1221012,
                "name": "Doz Apteka Dbam O Zdrowie",
                "addr:street": "Wrocławska",
                "addr:housenumber": "1",
                "addr:city": "Olsztyn",
                "addr:postcode": "10-283",
                "amenity": "pharmacy",
                "dispensing": "yes"
            },
            "geometry": {
                "type": "Point",
                "coordinates": [
                    20.495783993982908,
                    53.79230851894433
                ]
            }
        },
        {
            "type": "Feature",
            "properties": {
                "ref:csioz": 1221295,
                "name": "Apteka Sielska",
                "addr:street": "Sielska",
                "addr:housenumber": "34B",
                "addr:city": "Olsztyn",
                "addr:postcode": "10-802",
                "amenity": "pharmacy",
                "dispensing": "yes"
            },
            "geometry": {
                "type": "Point",
                "coordinates": [
                    20.418844500730955,
                    53.768479388791015
                ]
            }
        },
        {
            "type": "Feature",
            "properties": {
                "ref:csioz": 1222766,
                "name": "Opieka Długoterminowa I Rehabilitacja",
                "addr:street": "Jana Boenigka",
                "addr:housenumber": "9",
                "addr:city": "Olsztyn",
                "addr:postcode": "10-686",
                "amenity": "pharmacy",
                "dispensing": "yes"
            },
            "geometry": {
                "type": "Point",
                "coordinates": [
                    20.503892582533467,
                    53.74388184026851
                ]
            }
        },
        {
            "type": "Feature",
            "properties": {
                "ref:csioz": 1226136,
                "name": "\"Olsztyński Ośrodek Onkologiczny \"\"Kopernik\"\" Leczenie Stacjonarne\"",
                "addr:street": "Mikołaja Kopernika",
                "addr:housenumber": "30",
                "addr:city": "Olsztyn",
                "addr:postcode": "10-513",
                "amenity": "pharmacy",
                "dispensing": "yes"
            },
            "geometry": {
                "type": "Point",
                "coordinates": [
                    20.491855950761217,
                    53.782667275050414
                ]
            }
        },
        {
            "type": "Feature",
            "properties": {
                "ref:csioz": 1229254,
                "name": "Neo",
                "addr:street": "Biskupa Tomasza Wilczyńskiego",
                "addr:housenumber": "25D",
                "addr:city": "Olsztyn",
                "addr:postcode": "10-686",
                "amenity": "pharmacy",
                "dispensing": "yes"
            },
            "geometry": {
                "type": "Point",
                "coordinates": [
                    20.49456711929322,
                    53.74102403603469
                ]
            }
        },
        {
            "type": "Feature",
            "properties": {
                "ref:csioz": 1178675,
                "name": "\"Apteka \"\"Pod Gryfem\"\" Joanna Nazarko-Sadowska\"",
                "addr:street": "Aleja Wojska Polskiego",
                "addr:housenumber": "70",
                "addr:city": "Olsztyn",
                "addr:postcode": "10-291",
                "amenity": "pharmacy",
                "dispensing": "yes"
            },
            "geometry": {
                "type": "Point",
                "coordinates": [
                    20.482690710498954,
                    53.785899147916766
                ]
            }
        },
        {
            "type": "Feature",
            "properties": {
                "ref:csioz": 1037321,
                "name": "\"Apteka \"\"Alfa\"\" S.C.\"",
                "addr:street": "Dworcowa",
                "addr:housenumber": "60B",
                "addr:city": "Olsztyn",
                "addr:postcode": "10-437",
                "amenity": "pharmacy",
                "dispensing": "yes"
            },
            "geometry": {
                "type": "Point",
                "coordinates": [
                    20.495131129340177,
                    53.76610787977022
                ]
            }
        }
    ]
}