{
    "type": "FeatureCollection",
    "name": "JPT_KOD_JE_1005",
    "features": [
        {
            "type": "Feature",
            "properties": {
                "ref:csioz": 1010840,
                "name": "Bonifraterska",
                "addr:street": "Bonifraterska",
                "addr:housenumber": "2",
                "addr:city": "Łowicz",
                "addr:postcode": "99-400",
                "amenity": "pharmacy"
            },
            "geometry": {
                "type": "Point",
                "coordinates": [
                    19.931715629542207,
                    52.10715004774272
                ]
            }
        },
        {
            "type": "Feature",
            "properties": {
                "ref:csioz": 1010898,
                "addr:street": "Kościelna",
                "addr:housenumber": "3",
                "addr:city": "Łyszkowice",
                "addr:postcode": "99-420",
                "amenity": "pharmacy"
            },
            "geometry": {
                "type": "Point",
                "coordinates": [
                    19.907715586992012,
                    51.98543962536992
                ]
            }
        },
        {
            "type": "Feature",
            "properties": {
                "ref:csioz": 1011275,
                "name": "Zdrowie",
                "addr:street": "Rynek Kopernika",
                "addr:housenumber": "12",
                "addr:city": "Kiernozia",
                "addr:postcode": "99-412",
                "amenity": "pharmacy"
            },
            "geometry": {
                "type": "Point",
                "coordinates": [
                    19.86934160519442,
                    52.268611525150895
                ]
            }
        },
        {
            "type": "Feature",
            "properties": {
                "ref:csioz": 1013784,
                "name": "Słoneczko",
                "addr:street": "Stanisława Stanisławskiego",
                "addr:housenumber": "27",
                "addr:city": "Łowicz",
                "addr:postcode": "99-400",
                "amenity": "pharmacy"
            },
            "geometry": {
                "type": "Point",
                "coordinates": [
                    19.934113401654297,
                    52.10365365895266
                ]
            }
        },
        {
            "type": "Feature",
            "properties": {
                "ref:csioz": 1013864,
                "name": "\"Apteka Prywatna \"\"Bratek\"\"\"",
                "addr:street": "Bratkowice",
                "addr:housenumber": "2B",
                "addr:city": "Łowicz",
                "addr:postcode": "99-400",
                "amenity": "pharmacy"
            },
            "geometry": {
                "type": "Point",
                "coordinates": [
                    19.92597300000037,
                    52.10282400001563
                ]
            }
        },
        {
            "type": "Feature",
            "properties": {
                "ref:csioz": 1015307,
                "name": "Hibiscus",
                "addr:street": "Tkaczew",
                "addr:housenumber": "9",
                "addr:city": "Łowicz",
                "addr:postcode": "99-400",
                "amenity": "pharmacy"
            },
            "geometry": {
                "type": "Point",
                "coordinates": [
                    19.94854767733449,
                    52.10647864557415
                ]
            }
        },
        {
            "type": "Feature",
            "properties": {
                "ref:csioz": 1016122,
                "name": "Avena",
                "addr:street": "Bolimowska",
                "addr:housenumber": "21",
                "addr:city": "Łowicz",
                "addr:postcode": "99-400",
                "amenity": "pharmacy"
            },
            "geometry": {
                "type": "Point",
                "coordinates": [
                    19.95863665274587,
                    52.10600077702493
                ]
            }
        },
        {
            "type": "Feature",
            "properties": {
                "ref:csioz": 1017755,
                "name": "Rodzinny Punkt Apteczny",
                "addr:street": "Tadeusza Kościuszki",
                "addr:housenumber": "6",
                "addr:city": "Kiernozia",
                "addr:postcode": "99-412",
                "amenity": "pharmacy"
            },
            "geometry": {
                "type": "Point",
                "coordinates": [
                    19.87745507034548,
                    52.26769689147876
                ]
            }
        },
        {
            "type": "Feature",
            "properties": {
                "ref:csioz": 1018325,
                "name": "Medest Iv",
                "addr:street": "3 Maja",
                "addr:housenumber": "6",
                "addr:city": "Łowicz",
                "addr:postcode": "99-400",
                "amenity": "pharmacy"
            },
            "geometry": {
                "type": "Point",
                "coordinates": [
                    19.947310736588435,
                    52.10731353665958
                ]
            }
        },
        {
            "type": "Feature",
            "properties": {
                "ref:csioz": 1224477,
                "name": "Apteka Słoneczna",
                "addr:street": "Wolności",
                "addr:housenumber": "10",
                "addr:city": "Łyszkowice",
                "addr:postcode": "99-420",
                "amenity": "pharmacy"
            },
            "geometry": {
                "type": "Point",
                "coordinates": [
                    19.906718307311987,
                    51.98307848019737
                ]
            }
        },
        {
            "type": "Feature",
            "properties": {
                "ref:csioz": 1197174,
                "name": "Zespół Opieki Zdrowotnej",
                "addr:street": "Ułańska",
                "addr:housenumber": "28",
                "addr:city": "Łowicz",
                "addr:postcode": "99-400",
                "amenity": "pharmacy"
            },
            "geometry": {
                "type": "Point",
                "coordinates": [
                    19.928925815530327,
                    52.09920192355221
                ]
            }
        },
        {
            "type": "Feature",
            "properties": {
                "ref:csioz": 1021838,
                "addr:housenumber": "209",
                "addr:postcode": "99-416",
                "amenity": "pharmacy",
                "addr:place": "Nieborów"
            },
            "geometry": {
                "type": "Point",
                "coordinates": [
                    20.072027000000467,
                    52.06930400001557
                ]
            }
        },
        {
            "type": "Feature",
            "properties": {
                "ref:csioz": 1021993,
                "name": "Słoneczna",
                "addr:housenumber": "101",
                "addr:postcode": "99-414",
                "amenity": "pharmacy",
                "addr:place": "Kocierzew Południowy"
            },
            "geometry": {
                "type": "Point",
                "coordinates": [
                    20.018785718624766,
                    52.22734127628807
                ]
            }
        },
        {
            "type": "Feature",
            "properties": {
                "ref:csioz": 1026668,
                "name": "Słoneczko",
                "addr:street": "Stary Rynek",
                "addr:housenumber": "15",
                "addr:city": "Łowicz",
                "addr:postcode": "99-400",
                "amenity": "pharmacy"
            },
            "geometry": {
                "type": "Point",
                "coordinates": [
                    19.94427414882847,
                    52.107279091947134
                ]
            }
        },
        {
            "type": "Feature",
            "properties": {
                "ref:csioz": 1164483,
                "name": "Punkt Apteczny - Słoneczko",
                "addr:street": "Przemysłowa",
                "addr:housenumber": "2",
                "addr:city": "Bełchów",
                "addr:postcode": "99-418",
                "amenity": "pharmacy"
            },
            "geometry": {
                "type": "Point",
                "coordinates": [
                    20.034358904612915,
                    52.022343437496644
                ]
            }
        },
        {
            "type": "Feature",
            "properties": {
                "ref:csioz": 1189093,
                "name": "Doz Apteka. Dbam O Zdrowie. Pod Brzozami",
                "addr:street": "Wolności",
                "addr:housenumber": "6b",
                "addr:city": "Łyszkowice",
                "addr:postcode": "99-420",
                "amenity": "pharmacy"
            },
            "geometry": {
                "type": "Point",
                "coordinates": [
                    19.907203206488166,
                    51.98263880896728
                ]
            }
        },
        {
            "type": "Feature",
            "properties": {
                "ref:csioz": 1210058,
                "name": "Cito",
                "addr:housenumber": "53A",
                "addr:postcode": "99-413",
                "amenity": "pharmacy",
                "addr:place": "Chąśno"
            },
            "geometry": {
                "type": "Point",
                "coordinates": [
                    19.917185325365676,
                    52.1875666463481
                ]
            }
        },
        {
            "type": "Feature",
            "properties": {
                "ref:csioz": 1024598,
                "name": "\"Apteka \"\"Łowicka\"\"\"",
                "addr:street": "Warszawska",
                "addr:housenumber": "4",
                "addr:city": "Łowicz",
                "addr:postcode": "99-400",
                "amenity": "pharmacy"
            },
            "geometry": {
                "type": "Point",
                "coordinates": [
                    19.955292921835266,
                    52.10742779437643
                ]
            }
        },
        {
            "type": "Feature",
            "properties": {
                "ref:csioz": 1017016,
                "addr:housenumber": "34",
                "addr:postcode": "99-440",
                "amenity": "pharmacy",
                "addr:place": "Zduny"
            },
            "geometry": {
                "type": "Point",
                "coordinates": [
                    19.80695574251252,
                    52.147336726773396
                ]
            }
        },
        {
            "type": "Feature",
            "properties": {
                "ref:csioz": 1018731,
                "name": "Avena",
                "addr:street": "Garbarska",
                "addr:housenumber": "10",
                "addr:city": "Bielawy",
                "addr:postcode": "99-423",
                "amenity": "pharmacy"
            },
            "geometry": {
                "type": "Point",
                "coordinates": [
                    19.654596247654855,
                    52.0763154711403
                ]
            }
        },
        {
            "type": "Feature",
            "properties": {
                "ref:csioz": 1018753,
                "name": "Medest V",
                "addr:street": "Tuszewska",
                "addr:housenumber": "45",
                "addr:city": "Łowicz",
                "addr:postcode": "99-400",
                "amenity": "pharmacy"
            },
            "geometry": {
                "type": "Point",
                "coordinates": [
                    19.921450086983235,
                    52.100202091521695
                ]
            }
        },
        {
            "type": "Feature",
            "properties": {
                "ref:csioz": 1118386,
                "name": "Apteka Św. Stanisława - Łowicz",
                "addr:street": "Nowy Rynek",
                "addr:housenumber": "11",
                "addr:city": "Łowicz",
                "addr:postcode": "99-400",
                "amenity": "pharmacy"
            },
            "geometry": {
                "type": "Point",
                "coordinates": [
                    19.936383898279892,
                    52.10543020390502
                ]
            }
        },
        {
            "type": "Feature",
            "properties": {
                "ref:csioz": 1010232,
                "addr:street": "gen. Władysława Sikorskiego",
                "addr:housenumber": "1A",
                "addr:city": "Łowicz",
                "addr:postcode": "99-400",
                "amenity": "pharmacy"
            },
            "geometry": {
                "type": "Point",
                "coordinates": [
                    19.93826500000038,
                    52.10321900001564
                ]
            }
        },
        {
            "type": "Feature",
            "properties": {
                "ref:csioz": 1018468,
                "name": "Apteka Dbam O Zdrowie",
                "addr:street": "Stanisława Stanisławskiego",
                "addr:housenumber": "2",
                "addr:city": "Łowicz",
                "addr:postcode": "99-400",
                "amenity": "pharmacy"
            },
            "geometry": {
                "type": "Point",
                "coordinates": [
                    19.93560505745031,
                    52.105170733952505
                ]
            }
        },
        {
            "type": "Feature",
            "properties": {
                "ref:csioz": 1021895,
                "name": "Apteka Dbam O Zdrowie",
                "addr:street": "Stefana Starzyńskiego",
                "addr:housenumber": "10/12",
                "addr:city": "Łowicz",
                "addr:postcode": "99-400",
                "amenity": "pharmacy"
            },
            "geometry": {
                "type": "Point",
                "coordinates": [
                    19.94134484833915,
                    52.10107450535114
                ]
            }
        },
        {
            "type": "Feature",
            "properties": {
                "ref:csioz": 1121429,
                "addr:street": "Ułańska",
                "addr:housenumber": "12",
                "addr:city": "Łowicz",
                "addr:postcode": "99-400",
                "amenity": "pharmacy"
            },
            "geometry": {
                "type": "Point",
                "coordinates": [
                    19.927594204344018,
                    52.10046311756424
                ]
            }
        },
        {
            "type": "Feature",
            "properties": {
                "ref:csioz": 1180166,
                "name": "Medest Bis I",
                "addr:street": "Kurkowa",
                "addr:housenumber": "3",
                "addr:city": "Łowicz",
                "addr:postcode": "99-400",
                "amenity": "pharmacy"
            },
            "geometry": {
                "type": "Point",
                "coordinates": [
                    19.936487695044217,
                    52.10364006294499
                ]
            }
        },
        {
            "type": "Feature",
            "properties": {
                "ref:csioz": 1205154,
                "name": "Cosmedica",
                "addr:street": "Zduńska",
                "addr:housenumber": "45/47",
                "addr:city": "Łowicz",
                "addr:postcode": "99-400",
                "amenity": "pharmacy"
            },
            "geometry": {
                "type": "Point",
                "coordinates": [
                    19.93880333730259,
                    52.10667073419932
                ]
            }
        },
        {
            "type": "Feature",
            "properties": {
                "ref:csioz": 1205799,
                "name": "Apteka Słoneczna Centrum Farmaceutyczne",
                "addr:street": "Zduńska",
                "addr:housenumber": "38",
                "addr:city": "Łowicz",
                "addr:postcode": "99-400",
                "amenity": "pharmacy"
            },
            "geometry": {
                "type": "Point",
                "coordinates": [
                    19.939031849060676,
                    52.10678513574668
                ]
            }
        },
        {
            "type": "Feature",
            "properties": {
                "ref:csioz": 1217746,
                "name": "Apteka Przyjazna",
                "addr:street": "3 Maja",
                "addr:housenumber": "13",
                "addr:city": "Łowicz",
                "addr:postcode": "99-400",
                "amenity": "pharmacy"
            },
            "geometry": {
                "type": "Point",
                "coordinates": [
                    19.95103089255706,
                    52.10712561644232
                ]
            }
        },
        {
            "type": "Feature",
            "properties": {
                "ref:csioz": 1024261,
                "name": "\"Apteka \"\"Przy Łowickiej\"\"\"",
                "addr:street": "Łowicka",
                "addr:housenumber": "12A",
                "addr:city": "Kiernozia",
                "addr:postcode": "99-412",
                "amenity": "pharmacy"
            },
            "geometry": {
                "type": "Point",
                "coordinates": [
                    19.871126950919155,
                    52.267548159936666
                ]
            }
        },
        {
            "type": "Feature",
            "properties": {
                "ref:csioz": 1010356,
                "name": "\"Apteka \"\"Remedium\"\" S.C.\"",
                "addr:street": "Główna",
                "addr:housenumber": "9",
                "addr:city": "Domaniewice",
                "addr:postcode": "99-434",
                "amenity": "pharmacy"
            },
            "geometry": {
                "type": "Point",
                "coordinates": [
                    19.80727301568392,
                    52.00697160387598
                ]
            }
        },
        {
            "type": "Feature",
            "properties": {
                "ref:csioz": 1025509,
                "name": "Apteka Słoneczko",
                "addr:street": "Górna",
                "addr:housenumber": "1A",
                "addr:city": "Domaniewice",
                "addr:postcode": "99-434",
                "amenity": "pharmacy"
            },
            "geometry": {
                "type": "Point",
                "coordinates": [
                    19.80760509367269,
                    52.00806366299104
                ]
            }
        },
        {
            "type": "Feature",
            "properties": {
                "ref:csioz": 1010021,
                "addr:housenumber": "1A",
                "addr:postcode": "99-440",
                "amenity": "pharmacy",
                "addr:place": "Zduny"
            },
            "geometry": {
                "type": "Point",
                "coordinates": [
                    19.803034112665053,
                    52.13902122254323
                ]
            }
        }
    ]
}