{
    "type": "FeatureCollection",
    "name": "JPT_KOD_JE_1403",
    "features": [
        {
            "type": "Feature",
            "properties": {
                "ref:csioz": 1096546,
                "addr:street": "Garwolińska",
                "addr:housenumber": "9",
                "addr:city": "Borowie",
                "addr:postcode": "08-412",
                "amenity": "pharmacy"
            },
            "geometry": {
                "type": "Point",
                "coordinates": [
                    21.768894773315214,
                    51.948949111039596
                ]
            }
        },
        {
            "type": "Feature",
            "properties": {
                "ref:csioz": 1096663,
                "addr:street": "Jana Kochanowskiego",
                "addr:housenumber": "1",
                "addr:city": "Miastków Kościelny",
                "addr:postcode": "08-420",
                "amenity": "pharmacy"
            },
            "geometry": {
                "type": "Point",
                "coordinates": [
                    21.824993042790535,
                    51.88583124020672
                ]
            }
        },
        {
            "type": "Feature",
            "properties": {
                "ref:csioz": 1096706,
                "addr:housenumber": "65",
                "addr:postcode": "08-445",
                "amenity": "pharmacy",
                "addr:place": "Trojanów"
            },
            "geometry": {
                "type": "Point",
                "coordinates": [
                    21.818434780198363,
                    51.693591890600196
                ]
            }
        },
        {
            "type": "Feature",
            "properties": {
                "ref:csioz": 1096722,
                "addr:street": "Długa",
                "addr:housenumber": "120",
                "addr:city": "Żelechów",
                "addr:postcode": "08-430",
                "amenity": "pharmacy"
            },
            "geometry": {
                "type": "Point",
                "coordinates": [
                    21.89623503531861,
                    51.810777187856644
                ]
            }
        },
        {
            "type": "Feature",
            "properties": {
                "ref:csioz": 1096733,
                "name": "Receptum",
                "addr:street": "Rynek",
                "addr:housenumber": "17",
                "addr:city": "Żelechów",
                "addr:postcode": "08-430",
                "amenity": "pharmacy"
            },
            "geometry": {
                "type": "Point",
                "coordinates": [
                    21.89441124365458,
                    51.80908826493852
                ]
            }
        },
        {
            "type": "Feature",
            "properties": {
                "ref:csioz": 1117648,
                "name": "Słoneczna Mgr Farm. Joanna Bartołd",
                "addr:street": "Garwolińska",
                "addr:housenumber": "11",
                "addr:city": "Borowie",
                "addr:postcode": "08-412",
                "amenity": "pharmacy"
            },
            "geometry": {
                "type": "Point",
                "coordinates": [
                    21.768200933595995,
                    51.948825780117886
                ]
            }
        },
        {
            "type": "Feature",
            "properties": {
                "ref:csioz": 1120377,
                "name": "Żelechowska",
                "addr:street": "Rynek",
                "addr:housenumber": "6",
                "addr:city": "Żelechów",
                "addr:postcode": "08-430",
                "amenity": "pharmacy"
            },
            "geometry": {
                "type": "Point",
                "coordinates": [
                    21.896391955487857,
                    51.80967528752145
                ]
            }
        },
        {
            "type": "Feature",
            "properties": {
                "ref:csioz": 1221246,
                "name": "Centrum",
                "addr:street": "Rynek",
                "addr:housenumber": "19",
                "addr:city": "Żelechów",
                "addr:postcode": "08-430",
                "amenity": "pharmacy"
            },
            "geometry": {
                "type": "Point",
                "coordinates": [
                    21.89464575878807,
                    51.80961941707698
                ]
            }
        },
        {
            "type": "Feature",
            "properties": {
                "ref:csioz": 1221355,
                "name": "Centrum",
                "addr:street": "Chłopickiego",
                "addr:housenumber": "54",
                "addr:city": "Żelechów",
                "addr:postcode": "08-430",
                "amenity": "pharmacy"
            },
            "geometry": {
                "type": "Point",
                "coordinates": [
                    21.889165635944117,
                    51.806154885824135
                ]
            }
        },
        {
            "type": "Feature",
            "properties": {
                "ref:csioz": 1096567,
                "name": "Na Starówce Mgr Farm. Beata Mikulska-Gładysz",
                "addr:street": "Długa",
                "addr:housenumber": "48",
                "addr:city": "Garwolin",
                "addr:postcode": "08-400",
                "amenity": "pharmacy"
            },
            "geometry": {
                "type": "Point",
                "coordinates": [
                    21.608954487298288,
                    51.89593771698727
                ]
            }
        },
        {
            "type": "Feature",
            "properties": {
                "ref:csioz": 1096572,
                "name": "Na Romanówce",
                "addr:street": "Janusza Korczaka",
                "addr:housenumber": "35",
                "addr:city": "Garwolin",
                "addr:postcode": "08-400",
                "amenity": "pharmacy"
            },
            "geometry": {
                "type": "Point",
                "coordinates": [
                    21.60298718843379,
                    51.90479449866351
                ]
            }
        },
        {
            "type": "Feature",
            "properties": {
                "ref:csioz": 1096580,
                "name": "Na Dobrej Mgr Farm. Paweł Głaszczka",
                "addr:street": "Dobra",
                "addr:housenumber": "1",
                "addr:city": "Garwolin",
                "addr:postcode": "08-400",
                "amenity": "pharmacy"
            },
            "geometry": {
                "type": "Point",
                "coordinates": [
                    21.62791471817742,
                    51.883950780935876
                ]
            }
        },
        {
            "type": "Feature",
            "properties": {
                "ref:csioz": 1096595,
                "addr:street": "Długa",
                "addr:housenumber": "2",
                "addr:city": "Górzno",
                "addr:postcode": "08-404",
                "amenity": "pharmacy"
            },
            "geometry": {
                "type": "Point",
                "coordinates": [
                    21.70851870449773,
                    51.8470328293138
                ]
            }
        },
        {
            "type": "Feature",
            "properties": {
                "ref:csioz": 1096787,
                "addr:housenumber": "127D",
                "addr:postcode": "08-460",
                "amenity": "pharmacy",
                "addr:place": "Gończyce"
            },
            "geometry": {
                "type": "Point",
                "coordinates": [
                    21.732031692201648,
                    51.782781892713494
                ]
            }
        },
        {
            "type": "Feature",
            "properties": {
                "ref:csioz": 1098173,
                "name": "Monika",
                "addr:housenumber": "58",
                "addr:postcode": "08-480",
                "amenity": "pharmacy",
                "addr:place": "Podłęż"
            },
            "geometry": {
                "type": "Point",
                "coordinates": [
                    21.470901967060897,
                    51.74566720598128
                ]
            }
        },
        {
            "type": "Feature",
            "properties": {
                "ref:csioz": 1177849,
                "name": "Orchis Małgorzata Górska",
                "addr:street": "Targowa",
                "addr:housenumber": "1C",
                "addr:city": "Garwolin",
                "addr:postcode": "08-400",
                "amenity": "pharmacy"
            },
            "geometry": {
                "type": "Point",
                "coordinates": [
                    21.619648000009402,
                    51.89017100001535
                ]
            }
        },
        {
            "type": "Feature",
            "properties": {
                "ref:csioz": 1186178,
                "name": "Serum Kościelna",
                "addr:street": "Kościelna",
                "addr:housenumber": "10",
                "addr:city": "Garwolin",
                "addr:postcode": "08-400",
                "amenity": "pharmacy"
            },
            "geometry": {
                "type": "Point",
                "coordinates": [
                    21.618442590266767,
                    51.897713275202854
                ]
            }
        },
        {
            "type": "Feature",
            "properties": {
                "ref:csioz": 1194779,
                "name": "Sosnowa",
                "addr:street": "Garwolińska",
                "addr:housenumber": "70",
                "addr:city": "Łaskarzew",
                "addr:postcode": "08-450",
                "amenity": "pharmacy"
            },
            "geometry": {
                "type": "Point",
                "coordinates": [
                    21.589327263047508,
                    51.79428650685435
                ]
            }
        },
        {
            "type": "Feature",
            "properties": {
                "ref:csioz": 1199009,
                "name": "Nasze Apteki",
                "addr:street": "Nadwodna",
                "addr:housenumber": "15",
                "addr:city": "Garwolin",
                "addr:postcode": "08-400",
                "amenity": "pharmacy"
            },
            "geometry": {
                "type": "Point",
                "coordinates": [
                    21.616689323976573,
                    51.8964156154612
                ]
            }
        },
        {
            "type": "Feature",
            "properties": {
                "ref:csioz": 1225123,
                "name": "\"Niepubliczny Zakład Opieki Zdrowotnej \"\"Sana\"\" - Opieka Stacjonarna\"",
                "addr:street": "Topolowa",
                "addr:housenumber": "80",
                "addr:city": "Wola Rębkowska",
                "addr:postcode": "08-410",
                "amenity": "pharmacy"
            },
            "geometry": {
                "type": "Point",
                "coordinates": [
                    21.570979800244093,
                    51.91033992582601
                ]
            }
        },
        {
            "type": "Feature",
            "properties": {
                "ref:csioz": 1226535,
                "name": "Doz Apteka Dbam O Zdrowie Główna",
                "addr:street": "Reymonta",
                "addr:housenumber": "3",
                "addr:city": "Wilga",
                "addr:postcode": "08-470",
                "amenity": "pharmacy"
            },
            "geometry": {
                "type": "Point",
                "coordinates": [
                    21.376229254073312,
                    51.85372581267593
                ]
            }
        },
        {
            "type": "Feature",
            "properties": {
                "ref:csioz": 1096466,
                "name": "Dr.Optima Ceny Hurtowe",
                "addr:street": "Długa",
                "addr:housenumber": "6",
                "addr:city": "Garwolin",
                "addr:postcode": "08-400",
                "amenity": "pharmacy"
            },
            "geometry": {
                "type": "Point",
                "coordinates": [
                    21.6138357957444,
                    51.896904641773354
                ]
            }
        },
        {
            "type": "Feature",
            "properties": {
                "ref:csioz": 1096477,
                "name": "Dr. Optima",
                "addr:street": "Kościelna",
                "addr:housenumber": "2",
                "addr:city": "Garwolin",
                "addr:postcode": "08-400",
                "amenity": "pharmacy"
            },
            "geometry": {
                "type": "Point",
                "coordinates": [
                    21.616406588999933,
                    51.89740190639319
                ]
            }
        },
        {
            "type": "Feature",
            "properties": {
                "ref:csioz": 1096489,
                "addr:street": "Kościuszki",
                "addr:housenumber": "19",
                "addr:city": "Garwolin",
                "addr:postcode": "08-400",
                "amenity": "pharmacy"
            },
            "geometry": {
                "type": "Point",
                "coordinates": [
                    21.6152785294303,
                    51.89651325417567
                ]
            }
        },
        {
            "type": "Feature",
            "properties": {
                "ref:csioz": 1096490,
                "addr:street": "Kościuszki",
                "addr:housenumber": "23",
                "addr:city": "Garwolin",
                "addr:postcode": "08-400",
                "amenity": "pharmacy"
            },
            "geometry": {
                "type": "Point",
                "coordinates": [
                    21.614938204798143,
                    51.896912641525525
                ]
            }
        },
        {
            "type": "Feature",
            "properties": {
                "ref:csioz": 1096509,
                "name": "Doz Apteka. Dbam O Zdrowie. Mgr Farm. Aldona Mirońska",
                "addr:street": "Kościuszki",
                "addr:housenumber": "49F",
                "addr:city": "Garwolin",
                "addr:postcode": "08-400",
                "amenity": "pharmacy"
            },
            "geometry": {
                "type": "Point",
                "coordinates": [
                    21.610658682961237,
                    51.901572498549115
                ]
            }
        },
        {
            "type": "Feature",
            "properties": {
                "ref:csioz": 1096514,
                "addr:street": "Mazowiecka",
                "addr:housenumber": "17",
                "addr:city": "Garwolin",
                "addr:postcode": "08-400",
                "amenity": "pharmacy"
            },
            "geometry": {
                "type": "Point",
                "coordinates": [
                    21.60967560231327,
                    51.899891396196345
                ]
            }
        },
        {
            "type": "Feature",
            "properties": {
                "ref:csioz": 1096523,
                "addr:street": "Nadwodna",
                "addr:housenumber": "13",
                "addr:city": "Garwolin",
                "addr:postcode": "08-400",
                "amenity": "pharmacy"
            },
            "geometry": {
                "type": "Point",
                "coordinates": [
                    21.617160548820106,
                    51.89660719057273
                ]
            }
        },
        {
            "type": "Feature",
            "properties": {
                "ref:csioz": 1096538,
                "addr:street": "Senatorska",
                "addr:housenumber": "4",
                "addr:city": "Garwolin",
                "addr:postcode": "08-400",
                "amenity": "pharmacy"
            },
            "geometry": {
                "type": "Point",
                "coordinates": [
                    21.616285659580118,
                    51.89708042307689
                ]
            }
        },
        {
            "type": "Feature",
            "properties": {
                "ref:csioz": 1096551,
                "name": "Dr. Optima",
                "addr:street": "Kościuszki",
                "addr:housenumber": "4A",
                "addr:city": "Garwolin",
                "addr:postcode": "08-400",
                "amenity": "pharmacy"
            },
            "geometry": {
                "type": "Point",
                "coordinates": [
                    21.61677597445344,
                    51.89545119833101
                ]
            }
        },
        {
            "type": "Feature",
            "properties": {
                "ref:csioz": 1096601,
                "addr:street": "Garwolińska",
                "addr:housenumber": "55",
                "addr:city": "Łaskarzew",
                "addr:postcode": "08-450",
                "amenity": "pharmacy"
            },
            "geometry": {
                "type": "Point",
                "coordinates": [
                    21.5821041707135,
                    51.79063481768046
                ]
            }
        },
        {
            "type": "Feature",
            "properties": {
                "ref:csioz": 1096625,
                "name": "Doz Apteka. Dbam O Zdrowie",
                "addr:street": "Szkolna",
                "addr:housenumber": "14",
                "addr:city": "Łaskarzew",
                "addr:postcode": "08-450",
                "amenity": "pharmacy"
            },
            "geometry": {
                "type": "Point",
                "coordinates": [
                    21.590740097107567,
                    51.79002574234568
                ]
            }
        },
        {
            "type": "Feature",
            "properties": {
                "ref:csioz": 1096649,
                "addr:street": "Kościelna",
                "addr:housenumber": "2",
                "addr:city": "Maciejowice",
                "addr:postcode": "08-480",
                "amenity": "pharmacy"
            },
            "geometry": {
                "type": "Point",
                "coordinates": [
                    21.55059852846214,
                    51.69360138898324
                ]
            }
        },
        {
            "type": "Feature",
            "properties": {
                "ref:csioz": 1096658,
                "name": "Apteka Mgr Farm. Beata Poboży",
                "addr:street": "Sportowa",
                "addr:housenumber": "9",
                "addr:city": "Maciejowice",
                "addr:postcode": "08-480",
                "amenity": "pharmacy"
            },
            "geometry": {
                "type": "Point",
                "coordinates": [
                    21.553758646159125,
                    51.69499377269431
                ]
            }
        },
        {
            "type": "Feature",
            "properties": {
                "ref:csioz": 1096682,
                "addr:street": "Kościuszki",
                "addr:housenumber": "25",
                "addr:city": "Sobolew",
                "addr:postcode": "08-460",
                "amenity": "pharmacy"
            },
            "geometry": {
                "type": "Point",
                "coordinates": [
                    21.67031500001044,
                    51.739660000015135
                ]
            }
        },
        {
            "type": "Feature",
            "properties": {
                "ref:csioz": 1096696,
                "name": "Doz Apteka. Dbam O Zdrowie",
                "addr:street": "3 Maja",
                "addr:housenumber": "3",
                "addr:city": "Sobolew",
                "addr:postcode": "08-460",
                "amenity": "pharmacy"
            },
            "geometry": {
                "type": "Point",
                "coordinates": [
                    21.66974968534459,
                    51.740424029114926
                ]
            }
        },
        {
            "type": "Feature",
            "properties": {
                "ref:csioz": 1096711,
                "addr:street": "Wojska Polskiego",
                "addr:housenumber": "8",
                "addr:city": "Wilga",
                "addr:postcode": "08-470",
                "amenity": "pharmacy"
            },
            "geometry": {
                "type": "Point",
                "coordinates": [
                    21.38054145705106,
                    51.853799350155946
                ]
            }
        },
        {
            "type": "Feature",
            "properties": {
                "ref:csioz": 1096754,
                "name": "Doz Apteka. Dbam O Zdrowie. Mgr Farm. Aldona Mirońska",
                "addr:street": "Letniskowa",
                "addr:housenumber": "1",
                "addr:city": "Pilawa",
                "addr:postcode": "08-440",
                "amenity": "pharmacy"
            },
            "geometry": {
                "type": "Point",
                "coordinates": [
                    21.52983762170779,
                    51.95996732082667
                ]
            }
        },
        {
            "type": "Feature",
            "properties": {
                "ref:csioz": 1117604,
                "name": "\"Anna Ćwiek, Joanna Kałaska-Spółka Cywilna\"",
                "addr:street": "Wyzwolenia",
                "addr:housenumber": "77",
                "addr:city": "Pilawa",
                "addr:postcode": "08-440",
                "amenity": "pharmacy"
            },
            "geometry": {
                "type": "Point",
                "coordinates": [
                    21.52983425012984,
                    51.959131097314014
                ]
            }
        },
        {
            "type": "Feature",
            "properties": {
                "ref:csioz": 1124794,
                "name": "Szpital Psychiatrii Nieletnich",
                "addr:street": "Legionów",
                "addr:housenumber": "11",
                "addr:city": "Garwolin",
                "addr:postcode": "08-400",
                "amenity": "pharmacy"
            },
            "geometry": {
                "type": "Point",
                "coordinates": [
                    21.627047539328395,
                    51.88699086132855
                ]
            }
        },
        {
            "type": "Feature",
            "properties": {
                "ref:csioz": 1124811,
                "name": "Szpital Mazowiecki W Garwolinie",
                "addr:street": "Legionów",
                "addr:housenumber": "11",
                "addr:city": "Garwolin",
                "addr:postcode": "08-400",
                "amenity": "pharmacy"
            },
            "geometry": {
                "type": "Point",
                "coordinates": [
                    21.627047539328395,
                    51.88699086132855
                ]
            }
        },
        {
            "type": "Feature",
            "properties": {
                "ref:csioz": 1153332,
                "name": "Apteka Szpitalna",
                "addr:street": "Lubelska",
                "addr:housenumber": "50",
                "addr:city": "Garwolin",
                "addr:postcode": "08-400",
                "amenity": "pharmacy"
            },
            "geometry": {
                "type": "Point",
                "coordinates": [
                    21.636856251323486,
                    51.870335459992184
                ]
            }
        },
        {
            "type": "Feature",
            "properties": {
                "ref:csioz": 1171674,
                "name": "Słoneczna",
                "addr:street": "Rynek",
                "addr:housenumber": "47A",
                "addr:city": "Parysów",
                "addr:postcode": "08-441",
                "amenity": "pharmacy"
            },
            "geometry": {
                "type": "Point",
                "coordinates": [
                    21.68054519325291,
                    51.974952835991196
                ]
            }
        },
        {
            "type": "Feature",
            "properties": {
                "ref:csioz": 1185568,
                "name": "Mgr Farm. Klaudia Pielacka",
                "addr:street": "Warszawska",
                "addr:housenumber": "10",
                "addr:city": "Łaskarzew",
                "addr:postcode": "08-450",
                "amenity": "pharmacy"
            },
            "geometry": {
                "type": "Point",
                "coordinates": [
                    21.593457677796522,
                    51.78973688376083
                ]
            }
        },
        {
            "type": "Feature",
            "properties": {
                "ref:csioz": 1208065,
                "addr:street": "Osadnicza",
                "addr:housenumber": "10",
                "addr:city": "Trąbki",
                "addr:postcode": "08-440",
                "amenity": "pharmacy"
            },
            "geometry": {
                "type": "Point",
                "coordinates": [
                    21.59455650282932,
                    51.94873788803132
                ]
            }
        },
        {
            "type": "Feature",
            "properties": {
                "ref:csioz": 1210978,
                "addr:street": "Akacjowa",
                "addr:housenumber": "45",
                "addr:city": "Ruda Talubska",
                "addr:postcode": "08-400",
                "amenity": "pharmacy"
            },
            "geometry": {
                "type": "Point",
                "coordinates": [
                    21.59374819899699,
                    51.85319739256515
                ]
            }
        },
        {
            "type": "Feature",
            "properties": {
                "ref:csioz": 1221558,
                "name": "Przy Stacji",
                "addr:street": "Dworcowa",
                "addr:housenumber": "4",
                "addr:city": "Wola Rębkowska",
                "addr:postcode": "08-410",
                "amenity": "pharmacy"
            },
            "geometry": {
                "type": "Point",
                "coordinates": [
                    21.55592099398897,
                    51.90149678079325
                ]
            }
        },
        {
            "type": "Feature",
            "properties": {
                "ref:csioz": 1222484,
                "name": "Serum",
                "addr:street": "Kościuszki",
                "addr:housenumber": "49L",
                "addr:city": "Garwolin",
                "addr:postcode": "08-400",
                "amenity": "pharmacy"
            },
            "geometry": {
                "type": "Point",
                "coordinates": [
                    21.609942659590796,
                    51.902547732667884
                ]
            }
        },
        {
            "type": "Feature",
            "properties": {
                "ref:csioz": 1215803,
                "name": "Ostrowia Zol",
                "addr:housenumber": "15A",
                "addr:postcode": "08-404",
                "amenity": "pharmacy",
                "addr:place": "Wólka Ostrożeńska"
            },
            "geometry": {
                "type": "Point",
                "coordinates": [
                    21.7490043922727,
                    51.80462641696224
                ]
            }
        },
        {
            "type": "Feature",
            "properties": {
                "ref:csioz": 1228081,
                "name": "\"Niepubliczny Zakład Pielęgnacyjno-Opiekuńczy \"\"Beata\"\"\"",
                "addr:housenumber": "32",
                "addr:postcode": "08-470",
                "amenity": "pharmacy",
                "addr:place": "Trzcianka"
            },
            "geometry": {
                "type": "Point",
                "coordinates": [
                    21.484272973105593,
                    51.86360968069251
                ]
            }
        }
    ]
}