{
    "type": "FeatureCollection",
    "name": "JPT_KOD_JE_2210",
    "features": [
        {
            "type": "Feature",
            "properties": {
                "ref:csioz": 1033294,
                "name": "Apteka Medfarm",
                "addr:street": "Gdańska",
                "addr:housenumber": "36",
                "addr:city": "Stegna",
                "addr:postcode": "82-103",
                "amenity": "pharmacy",
                "dispensing": "yes"
            },
            "geometry": {
                "type": "Point",
                "coordinates": [
                    19.11894127003408,
                    54.32658529608439
                ]
            }
        },
        {
            "type": "Feature",
            "properties": {
                "ref:csioz": 1034217,
                "name": "Dział Farmacji Szpitalnej W Szpitalu Wielospecjalistycznym",
                "addr:street": "Rybacka",
                "addr:housenumber": "15",
                "addr:city": "Jantar",
                "addr:postcode": "82-103",
                "amenity": "pharmacy",
                "dispensing": "yes"
            },
            "geometry": {
                "type": "Point",
                "coordinates": [
                    19.037130826434467,
                    54.335919481718285
                ]
            }
        },
        {
            "type": "Feature",
            "properties": {
                "ref:csioz": 1029434,
                "name": "Pod Lipami",
                "addr:street": "Gdańska",
                "addr:housenumber": "63",
                "addr:city": "Sztutowo",
                "addr:postcode": "82-110",
                "amenity": "pharmacy",
                "dispensing": "yes"
            },
            "geometry": {
                "type": "Point",
                "coordinates": [
                    19.179810835196825,
                    54.32623254869915
                ]
            }
        },
        {
            "type": "Feature",
            "properties": {
                "ref:csioz": 1219039,
                "name": "Verbena",
                "addr:street": "Rybacka",
                "addr:housenumber": "61",
                "addr:city": "Kąty Rybackie",
                "addr:postcode": "82-110",
                "amenity": "pharmacy",
                "dispensing": "yes"
            },
            "geometry": {
                "type": "Point",
                "coordinates": [
                    19.229836011661373,
                    54.34000191138409
                ]
            }
        },
        {
            "type": "Feature",
            "properties": {
                "ref:csioz": 1179915,
                "name": "Punkt Apteczny Jantar",
                "addr:street": "Gdańska",
                "addr:housenumber": "40",
                "addr:city": "Stegna",
                "addr:postcode": "82-103",
                "amenity": "pharmacy",
                "dispensing": "yes"
            },
            "geometry": {
                "type": "Point",
                "coordinates": [
                    19.117668420292517,
                    54.32664027352624
                ]
            }
        },
        {
            "type": "Feature",
            "properties": {
                "ref:csioz": 1230836,
                "name": "Dział Farmacji Szpitalnej W Zakładzie Leczniczym: Szpitalny Oddział Rehabilitacji Narządu Ruchu",
                "addr:street": "Rybacka",
                "addr:housenumber": "44",
                "addr:city": "Jantar",
                "addr:postcode": "82-103",
                "amenity": "pharmacy",
                "dispensing": "yes"
            },
            "geometry": {
                "type": "Point",
                "coordinates": [
                    19.028315467348275,
                    54.33581479800778
                ]
            }
        },
        {
            "type": "Feature",
            "properties": {
                "ref:csioz": 1028267,
                "name": "Morska",
                "addr:street": "Marii Konopnickiej",
                "addr:housenumber": "4",
                "addr:city": "Nowy Dwór Gdański",
                "addr:postcode": "82-100",
                "amenity": "pharmacy",
                "dispensing": "yes"
            },
            "geometry": {
                "type": "Point",
                "coordinates": [
                    19.113220869481065,
                    54.210118717014296
                ]
            }
        },
        {
            "type": "Feature",
            "properties": {
                "ref:csioz": 1029229,
                "name": "Nowa",
                "addr:street": "gen. Władysława Sikorskiego",
                "addr:housenumber": "24",
                "addr:city": "Nowy Dwór Gdański",
                "addr:postcode": "82-100",
                "amenity": "pharmacy",
                "dispensing": "yes"
            },
            "geometry": {
                "type": "Point",
                "coordinates": [
                    19.11410587210219,
                    54.21418635630519
                ]
            }
        },
        {
            "type": "Feature",
            "properties": {
                "ref:csioz": 1032705,
                "name": "Wracam Do Zdrowia",
                "addr:street": "Morska",
                "addr:housenumber": "1",
                "addr:city": "Nowy Dwór Gdański",
                "addr:postcode": "82-100",
                "amenity": "pharmacy",
                "dispensing": "yes"
            },
            "geometry": {
                "type": "Point",
                "coordinates": [
                    19.110108906931007,
                    54.21153074637903
                ]
            }
        },
        {
            "type": "Feature",
            "properties": {
                "ref:csioz": 1032811,
                "name": "Apteka Medfarm",
                "addr:street": "Dworcowa",
                "addr:housenumber": "18",
                "addr:city": "Nowy Dwór Gdański",
                "addr:postcode": "82-100",
                "amenity": "pharmacy",
                "dispensing": "yes"
            },
            "geometry": {
                "type": "Point",
                "coordinates": [
                    19.121069284418557,
                    54.21155812894974
                ]
            }
        },
        {
            "type": "Feature",
            "properties": {
                "ref:csioz": 1033801,
                "name": "Punkt Apteczny W Ostaszewie",
                "addr:street": "Kościuszki",
                "addr:housenumber": "34",
                "addr:city": "Ostaszewo",
                "addr:postcode": "82-112",
                "amenity": "pharmacy",
                "dispensing": "yes"
            },
            "geometry": {
                "type": "Point",
                "coordinates": [
                    18.949797595664613,
                    54.214417458978275
                ]
            }
        },
        {
            "type": "Feature",
            "properties": {
                "ref:csioz": 1030731,
                "name": "Pod Lipą",
                "addr:street": "Wiślana",
                "addr:housenumber": "23",
                "addr:city": "Drewnica",
                "addr:postcode": "82-103",
                "amenity": "pharmacy",
                "dispensing": "yes"
            },
            "geometry": {
                "type": "Point",
                "coordinates": [
                    18.959610207627893,
                    54.28722870521627
                ]
            }
        },
        {
            "type": "Feature",
            "properties": {
                "ref:csioz": 1032760,
                "name": "Apteka Dbam O Zdrowie",
                "addr:street": "Warszawska",
                "addr:housenumber": "2E",
                "addr:city": "Nowy Dwór Gdański",
                "addr:postcode": "82-100",
                "amenity": "pharmacy",
                "dispensing": "yes"
            },
            "geometry": {
                "type": "Point",
                "coordinates": [
                    19.111465494863854,
                    54.2094666765169
                ]
            }
        },
        {
            "type": "Feature",
            "properties": {
                "ref:csioz": 1029475,
                "name": "\"Apteka \"\"Centrum Leków\"\"\"",
                "addr:street": "Henryka Sienkiewicza",
                "addr:housenumber": "17",
                "addr:city": "Nowy Dwór Gdański",
                "addr:postcode": "82-100",
                "amenity": "pharmacy",
                "dispensing": "yes"
            },
            "geometry": {
                "type": "Point",
                "coordinates": [
                    19.119423735633298,
                    54.209417179856274
                ]
            }
        },
        {
            "type": "Feature",
            "properties": {
                "ref:csioz": 1181084,
                "name": "Apteka Jarari S.C.",
                "addr:street": "Gdańska",
                "addr:housenumber": "89",
                "addr:city": "Krynica Morska",
                "addr:postcode": "82-120",
                "amenity": "pharmacy",
                "dispensing": "yes"
            },
            "geometry": {
                "type": "Point",
                "coordinates": [
                    19.440406145831968,
                    54.378984722058384
                ]
            }
        }
    ]
}