{
    "type": "FeatureCollection",
    "name": "JPT_KOD_JE_0619",
    "features": [
        {
            "type": "Feature",
            "properties": {
                "ref:csioz": 1106417,
                "name": "\"Punkt Apteczny \"\"Vita\"\"\"",
                "addr:housenumber": "155",
                "addr:postcode": "22-205",
                "amenity": "pharmacy",
                "addr:place": "Wyryki-Połód",
                "dispensing": "yes"
            },
            "geometry": {
                "type": "Point",
                "coordinates": [
                    23.39372656798354,
                    51.562530046553064
                ]
            }
        },
        {
            "type": "Feature",
            "properties": {
                "ref:csioz": 1156865,
                "name": "Apteka W Dworku",
                "addr:street": "Józefa Piłsudskiego",
                "addr:housenumber": "22",
                "addr:city": "Włodawa",
                "addr:postcode": "22-200",
                "amenity": "pharmacy",
                "dispensing": "yes"
            },
            "geometry": {
                "type": "Point",
                "coordinates": [
                    23.555431784233367,
                    51.547296687176605
                ]
            }
        },
        {
            "type": "Feature",
            "properties": {
                "ref:csioz": 1156898,
                "addr:street": "Mielczarskiego",
                "addr:housenumber": "9",
                "addr:city": "Włodawa",
                "addr:postcode": "22-200",
                "amenity": "pharmacy",
                "dispensing": "yes"
            },
            "geometry": {
                "type": "Point",
                "coordinates": [
                    23.552041583949148,
                    51.55003097852852
                ]
            }
        },
        {
            "type": "Feature",
            "properties": {
                "ref:csioz": 1156912,
                "name": "Doz Apteka. Dbam O Zdrowie. Rondo Sp.Zo.O.",
                "addr:street": "Chełmska",
                "addr:housenumber": "25",
                "addr:city": "Włodawa",
                "addr:postcode": "22-200",
                "amenity": "pharmacy",
                "dispensing": "yes"
            },
            "geometry": {
                "type": "Point",
                "coordinates": [
                    23.544013892986808,
                    51.54630057471328
                ]
            }
        },
        {
            "type": "Feature",
            "properties": {
                "ref:csioz": 1157184,
                "name": "Apteka Maria Jolanta Kotko",
                "addr:street": "Wojska Polskiego",
                "addr:housenumber": "1",
                "addr:city": "Włodawa",
                "addr:postcode": "22-200",
                "amenity": "pharmacy",
                "dispensing": "yes"
            },
            "geometry": {
                "type": "Point",
                "coordinates": [
                    23.55465649479629,
                    51.55510313879005
                ]
            }
        },
        {
            "type": "Feature",
            "properties": {
                "ref:csioz": 1157202,
                "addr:street": "Jana Pawła II",
                "addr:housenumber": "19",
                "addr:city": "Włodawa",
                "addr:postcode": "22-100",
                "amenity": "pharmacy",
                "dispensing": "yes"
            },
            "geometry": {
                "type": "Point",
                "coordinates": [
                    23.5477259950343,
                    51.54726750139328
                ]
            }
        },
        {
            "type": "Feature",
            "properties": {
                "ref:csioz": 1157266,
                "name": "Dankor",
                "addr:street": "1000-lecia Państwa Polskiego",
                "addr:housenumber": "13 A",
                "addr:city": "Włodawa",
                "addr:postcode": "22-200",
                "amenity": "pharmacy",
                "dispensing": "yes"
            },
            "geometry": {
                "type": "Point",
                "coordinates": [
                    23.553047091205425,
                    51.535745837874416
                ]
            }
        },
        {
            "type": "Feature",
            "properties": {
                "ref:csioz": 1157304,
                "addr:street": "Rynek",
                "addr:housenumber": "18",
                "addr:city": "Włodawa",
                "addr:postcode": "22-200",
                "amenity": "pharmacy",
                "dispensing": "yes"
            },
            "geometry": {
                "type": "Point",
                "coordinates": [
                    23.55412058000199,
                    51.54359152411508
                ]
            }
        },
        {
            "type": "Feature",
            "properties": {
                "ref:csioz": 1188226,
                "name": "Nasze Apteki",
                "addr:street": "Żeromskiego",
                "addr:housenumber": "33",
                "addr:city": "Włodawa",
                "addr:postcode": "22-200",
                "amenity": "pharmacy",
                "dispensing": "yes"
            },
            "geometry": {
                "type": "Point",
                "coordinates": [
                    23.552661802692306,
                    51.54708654520285
                ]
            }
        },
        {
            "type": "Feature",
            "properties": {
                "ref:csioz": 1189939,
                "name": "Apteka Szpitalna",
                "addr:street": "Józefa Piłsudskiego",
                "addr:housenumber": "64",
                "addr:city": "Włodawa",
                "addr:postcode": "22-200",
                "amenity": "pharmacy",
                "dispensing": "yes"
            },
            "geometry": {
                "type": "Point",
                "coordinates": [
                    23.553477061910105,
                    51.55736719534282
                ]
            }
        },
        {
            "type": "Feature",
            "properties": {
                "ref:csioz": 1156760,
                "addr:street": "Piłsudskiego",
                "addr:housenumber": "4",
                "addr:city": "Włodawa",
                "addr:postcode": "22-200",
                "amenity": "pharmacy",
                "dispensing": "yes"
            },
            "geometry": {
                "type": "Point",
                "coordinates": [
                    23.554722652182505,
                    51.544989866397806
                ]
            }
        },
        {
            "type": "Feature",
            "properties": {
                "ref:csioz": 1157035,
                "addr:street": "Tysiąclecia PP",
                "addr:housenumber": "3",
                "addr:city": "Włodawa",
                "addr:postcode": "22-200",
                "amenity": "pharmacy",
                "dispensing": "yes"
            },
            "geometry": {
                "type": "Point",
                "coordinates": [
                    23.552594009859522,
                    51.54380260388112
                ]
            }
        },
        {
            "type": "Feature",
            "properties": {
                "ref:csioz": 1196902,
                "name": "Dfs",
                "addr:street": "Józefa Piłsudskiego",
                "addr:housenumber": "64",
                "addr:city": "Włodawa",
                "addr:postcode": "22-200",
                "amenity": "pharmacy",
                "dispensing": "yes"
            },
            "geometry": {
                "type": "Point",
                "coordinates": [
                    23.553477061910105,
                    51.55736719534282
                ]
            }
        },
        {
            "type": "Feature",
            "properties": {
                "ref:csioz": 1199102,
                "name": "Apteka Przyszpitalna",
                "addr:street": "Józefa Piłsudskiego",
                "addr:housenumber": "115",
                "addr:city": "Włodawa",
                "addr:postcode": "22-200",
                "amenity": "pharmacy",
                "dispensing": "yes"
            },
            "geometry": {
                "type": "Point",
                "coordinates": [
                    23.552411356515126,
                    51.557746205378564
                ]
            }
        },
        {
            "type": "Feature",
            "properties": {
                "ref:csioz": 1156999,
                "name": "Nova",
                "addr:street": "Nowa",
                "addr:housenumber": "2",
                "addr:city": "Urszulin",
                "addr:postcode": "22-234",
                "amenity": "pharmacy",
                "dispensing": "yes"
            },
            "geometry": {
                "type": "Point",
                "coordinates": [
                    23.194685357777225,
                    51.396141742573626
                ]
            }
        },
        {
            "type": "Feature",
            "properties": {
                "ref:csioz": 1157137,
                "addr:housenumber": "8",
                "addr:postcode": "22-244",
                "amenity": "pharmacy",
                "addr:place": "Stary Brus",
                "dispensing": "yes"
            },
            "geometry": {
                "type": "Point",
                "coordinates": [
                    23.295386197983294,
                    51.479777755489515
                ]
            }
        },
        {
            "type": "Feature",
            "properties": {
                "ref:csioz": 1156623,
                "addr:street": "Modrzewiowa",
                "addr:housenumber": "1",
                "addr:city": "Urszulin",
                "addr:postcode": "22-234",
                "amenity": "pharmacy",
                "dispensing": "yes"
            },
            "geometry": {
                "type": "Point",
                "coordinates": [
                    23.194430807716955,
                    51.39539857521291
                ]
            }
        },
        {
            "type": "Feature",
            "properties": {
                "ref:csioz": 1156783,
                "name": "Apteka Salus Barbara Ślepaczuk-Kania",
                "addr:street": "Osiedlowa",
                "addr:housenumber": "1 A",
                "addr:city": "Hańsk Pierwszy",
                "addr:postcode": "22-235",
                "amenity": "pharmacy",
                "dispensing": "yes"
            },
            "geometry": {
                "type": "Point",
                "coordinates": [
                    23.407762773570205,
                    51.40191013504309
                ]
            }
        },
        {
            "type": "Feature",
            "properties": {
                "ref:csioz": 1202521,
                "name": "Apteka Nadburzańska",
                "addr:street": "Dworcowa",
                "addr:housenumber": "11",
                "addr:city": "Wola Uhruska",
                "addr:postcode": "22-230",
                "amenity": "pharmacy",
                "dispensing": "yes"
            },
            "geometry": {
                "type": "Point",
                "coordinates": [
                    23.622332520614194,
                    51.32246631286257
                ]
            }
        }
    ]
}