{
    "type": "FeatureCollection",
    "name": "JPT_KOD_JE_1437",
    "features": [
        {
            "type": "Feature",
            "properties": {
                "ref:csioz": 1081662,
                "name": "Rodzinna",
                "addr:street": "Stary Rynek",
                "addr:housenumber": "26",
                "addr:city": "Bieżuń",
                "addr:postcode": "09-320",
                "amenity": "pharmacy",
                "dispensing": "yes"
            },
            "geometry": {
                "type": "Point",
                "coordinates": [
                    19.891407176195358,
                    52.96204465018445
                ]
            }
        },
        {
            "type": "Feature",
            "properties": {
                "ref:csioz": 1091943,
                "addr:street": "Podświętna",
                "addr:housenumber": "14",
                "addr:city": "Lubowidz",
                "addr:postcode": "09-304",
                "amenity": "pharmacy",
                "dispensing": "yes"
            },
            "geometry": {
                "type": "Point",
                "coordinates": [
                    19.840250898861957,
                    53.122985739065896
                ]
            }
        },
        {
            "type": "Feature",
            "properties": {
                "ref:csioz": 1091956,
                "addr:street": "Władysława Reymonta",
                "addr:housenumber": "3B",
                "addr:city": "Siemiątkowo",
                "addr:postcode": "09-135",
                "amenity": "pharmacy",
                "dispensing": "yes"
            },
            "geometry": {
                "type": "Point",
                "coordinates": [
                    20.0319844585975,
                    52.880847492057065
                ]
            }
        },
        {
            "type": "Feature",
            "properties": {
                "ref:csioz": 1092666,
                "addr:street": "Szpitalna",
                "addr:housenumber": "52",
                "addr:city": "Żuromin",
                "addr:postcode": "09-300",
                "amenity": "pharmacy",
                "dispensing": "yes"
            },
            "geometry": {
                "type": "Point",
                "coordinates": [
                    19.917564000000407,
                    53.06886800001719
                ]
            }
        },
        {
            "type": "Feature",
            "properties": {
                "ref:csioz": 1092677,
                "addr:street": "Szpitalna",
                "addr:housenumber": "56",
                "addr:city": "Żuromin",
                "addr:postcode": "09-300",
                "amenity": "pharmacy",
                "dispensing": "yes"
            },
            "geometry": {
                "type": "Point",
                "coordinates": [
                    19.919068125632954,
                    53.07028389778759
                ]
            }
        },
        {
            "type": "Feature",
            "properties": {
                "ref:csioz": 1092615,
                "addr:street": "Stary Rynek",
                "addr:housenumber": "2",
                "addr:city": "Bieżuń",
                "addr:postcode": "09-320",
                "amenity": "pharmacy",
                "dispensing": "yes"
            },
            "geometry": {
                "type": "Point",
                "coordinates": [
                    19.890600149154196,
                    52.961285527348274
                ]
            }
        },
        {
            "type": "Feature",
            "properties": {
                "ref:csioz": 1092628,
                "addr:street": "Żeromskiego",
                "addr:housenumber": "2",
                "addr:city": "Lutocin",
                "addr:postcode": "09-317",
                "amenity": "pharmacy",
                "dispensing": "yes"
            },
            "geometry": {
                "type": "Point",
                "coordinates": [
                    19.765010191631344,
                    52.98191862123795
                ]
            }
        },
        {
            "type": "Feature",
            "properties": {
                "ref:csioz": 1092631,
                "addr:street": "Mławska",
                "addr:housenumber": "19",
                "addr:city": "Żuromin",
                "addr:postcode": "09-300",
                "amenity": "pharmacy",
                "dispensing": "yes"
            },
            "geometry": {
                "type": "Point",
                "coordinates": [
                    19.913860154694685,
                    53.0705931831994
                ]
            }
        },
        {
            "type": "Feature",
            "properties": {
                "ref:csioz": 1092644,
                "addr:street": "Plac Józefa Piłsudskiego",
                "addr:housenumber": "23",
                "addr:city": "Żuromin",
                "addr:postcode": "09-300",
                "amenity": "pharmacy",
                "dispensing": "yes"
            },
            "geometry": {
                "type": "Point",
                "coordinates": [
                    19.91031088149876,
                    53.06603720487966
                ]
            }
        },
        {
            "type": "Feature",
            "properties": {
                "ref:csioz": 1092653,
                "name": "Przy Kościele",
                "addr:street": "Plac Józefa Piłsudskiego",
                "addr:housenumber": "7",
                "addr:city": "Żuromin",
                "addr:postcode": "09-300",
                "amenity": "pharmacy",
                "dispensing": "yes"
            },
            "geometry": {
                "type": "Point",
                "coordinates": [
                    19.909666083441763,
                    53.067746553430695
                ]
            }
        },
        {
            "type": "Feature",
            "properties": {
                "ref:csioz": 1092689,
                "addr:street": "Zielony Rynek",
                "addr:housenumber": "16",
                "addr:city": "Żuromin",
                "addr:postcode": "09-300",
                "amenity": "pharmacy",
                "dispensing": "yes"
            },
            "geometry": {
                "type": "Point",
                "coordinates": [
                    19.912615226870038,
                    53.0687871141317
                ]
            }
        },
        {
            "type": "Feature",
            "properties": {
                "ref:csioz": 1124879,
                "name": "Przy Szpitalu",
                "addr:street": "Szpitalna",
                "addr:housenumber": "65",
                "addr:city": "Żuromin",
                "addr:postcode": "09-300",
                "amenity": "pharmacy",
                "dispensing": "yes"
            },
            "geometry": {
                "type": "Point",
                "coordinates": [
                    19.91543987711261,
                    53.06779425009532
                ]
            }
        },
        {
            "type": "Feature",
            "properties": {
                "ref:csioz": 1197771,
                "name": "Doz Punkt Apteczny. Dbam O Zdrowie Mgr Adam Justyn Cichoń",
                "addr:street": "Świętojańska",
                "addr:housenumber": "6",
                "addr:city": "Zieluń",
                "addr:postcode": "09-304",
                "amenity": "pharmacy",
                "dispensing": "yes"
            },
            "geometry": {
                "type": "Point",
                "coordinates": [
                    19.857018539178597,
                    53.17333035650964
                ]
            }
        },
        {
            "type": "Feature",
            "properties": {
                "ref:csioz": 1201864,
                "name": "Na Plus +",
                "addr:street": "Przemysłowa",
                "addr:housenumber": "4/8A",
                "addr:city": "Żuromin",
                "addr:postcode": "09-300",
                "amenity": "pharmacy",
                "dispensing": "yes"
            },
            "geometry": {
                "type": "Point",
                "coordinates": [
                    19.897004976807956,
                    53.07085455951033
                ]
            }
        },
        {
            "type": "Feature",
            "properties": {
                "ref:csioz": 1208087,
                "name": "Lecznictwo Szpitalne",
                "addr:street": "Szpitalna",
                "addr:housenumber": "56",
                "addr:city": "Żuromin",
                "addr:postcode": "09-300",
                "amenity": "pharmacy",
                "dispensing": "yes"
            },
            "geometry": {
                "type": "Point",
                "coordinates": [
                    19.919068125632954,
                    53.07025389778759
                ]
            }
        },
        {
            "type": "Feature",
            "properties": {
                "ref:csioz": 1220282,
                "addr:street": "Adama Mickiewicza",
                "addr:housenumber": "7E",
                "addr:city": "Kuczbork-Osada",
                "addr:postcode": "09-310",
                "amenity": "pharmacy",
                "dispensing": "yes"
            },
            "geometry": {
                "type": "Point",
                "coordinates": [
                    20.04445163566161,
                    53.082461135195864
                ]
            }
        }
    ]
}