{
    "type": "FeatureCollection",
    "name": "JPT_KOD_JE_2476",
    "features": [
        {
            "type": "Feature",
            "properties": {
                "ref:csioz": 1200839,
                "name": "Pharmakon",
                "addr:street": "Łagiewnicka",
                "addr:housenumber": "6",
                "addr:city": "Świętochłowice",
                "addr:postcode": "41-608",
                "amenity": "pharmacy",
                "dispensing": "yes"
            },
            "geometry": {
                "type": "Point",
                "coordinates": [
                    18.915661849283566,
                    50.31624348695754
                ]
            }
        },
        {
            "type": "Feature",
            "properties": {
                "ref:csioz": 1074389,
                "name": "Szpital",
                "addr:street": "CHORZOWSKA",
                "addr:housenumber": "36",
                "addr:city": "ŚWIĘTOCHŁOWICE",
                "addr:postcode": "41-605",
                "amenity": "pharmacy",
                "dispensing": "yes"
            },
            "geometry": {
                "type": "Point",
                "coordinates": [
                    18.915929631431048,
                    50.30588532407192
                ]
            }
        },
        {
            "type": "Feature",
            "properties": {
                "ref:csioz": 1069876,
                "name": "Apteka Słoneczna",
                "addr:street": "Bytomska",
                "addr:housenumber": "15-17",
                "addr:city": "Świętochłowice",
                "addr:postcode": "41-600",
                "amenity": "pharmacy",
                "dispensing": "yes"
            },
            "geometry": {
                "type": "Point",
                "coordinates": [
                    18.91625634142434,
                    50.29236885790118
                ]
            }
        },
        {
            "type": "Feature",
            "properties": {
                "ref:csioz": 1069892,
                "name": "Apteka Dbam O Zdrowie",
                "addr:street": "Chorzowska",
                "addr:housenumber": "81",
                "addr:city": "Świętochłowice",
                "addr:postcode": "41-605",
                "amenity": "pharmacy",
                "dispensing": "yes"
            },
            "geometry": {
                "type": "Point",
                "coordinates": [
                    18.902224403551372,
                    50.30706006835272
                ]
            }
        },
        {
            "type": "Feature",
            "properties": {
                "ref:csioz": 1069969,
                "name": "Apteka Zdrowit",
                "addr:street": "Katowicka",
                "addr:housenumber": "3",
                "addr:city": "Świętochłowice",
                "addr:postcode": "41-600",
                "amenity": "pharmacy",
                "dispensing": "yes"
            },
            "geometry": {
                "type": "Point",
                "coordinates": [
                    18.916541030236335,
                    50.29119493739369
                ]
            }
        },
        {
            "type": "Feature",
            "properties": {
                "ref:csioz": 1069975,
                "name": "Apteka Rodzinna",
                "addr:street": "Katowicka",
                "addr:housenumber": "36",
                "addr:city": "Świętochłowice",
                "addr:postcode": "41-600",
                "amenity": "pharmacy",
                "dispensing": "yes"
            },
            "geometry": {
                "type": "Point",
                "coordinates": [
                    18.924850614542205,
                    50.287757591591294
                ]
            }
        },
        {
            "type": "Feature",
            "properties": {
                "ref:csioz": 1069988,
                "name": "Brak Nazwy",
                "addr:street": "Wojciecha Korfantego",
                "addr:housenumber": "1",
                "addr:city": "Świętochłowice",
                "addr:postcode": "41-605",
                "amenity": "pharmacy",
                "dispensing": "yes"
            },
            "geometry": {
                "type": "Point",
                "coordinates": [
                    18.912557998468138,
                    50.30228297585114
                ]
            }
        },
        {
            "type": "Feature",
            "properties": {
                "ref:csioz": 1057281,
                "name": "Niepubliczny Zakład Opieki Zdrowotnej Medycyny Rodzinnej",
                "addr:street": "ul. Katowicka",
                "addr:housenumber": "11",
                "addr:city": "Świętochłowice",
                "addr:postcode": "41-600",
                "amenity": "pharmacy",
                "dispensing": "yes"
            },
            "geometry": {
                "type": "Point",
                "coordinates": [
                    18.919096356559823,
                    50.29054324968066
                ]
            }
        },
        {
            "type": "Feature",
            "properties": {
                "ref:csioz": 1069934,
                "name": "Sante",
                "addr:street": "Karpacka",
                "addr:housenumber": "33",
                "addr:city": "Świętochłowice",
                "addr:postcode": "41-608",
                "amenity": "pharmacy",
                "dispensing": "yes"
            },
            "geometry": {
                "type": "Point",
                "coordinates": [
                    18.91558917870373,
                    50.31107929899446
                ]
            }
        },
        {
            "type": "Feature",
            "properties": {
                "ref:csioz": 1069942,
                "name": "Rodzinna",
                "addr:street": "Katowicka",
                "addr:housenumber": "11",
                "addr:city": "Świętochłowice",
                "addr:postcode": "41-600",
                "amenity": "pharmacy",
                "dispensing": "yes"
            },
            "geometry": {
                "type": "Point",
                "coordinates": [
                    18.919096356559823,
                    50.29051324968066
                ]
            }
        },
        {
            "type": "Feature",
            "properties": {
                "ref:csioz": 1122148,
                "name": "Euro Apteka",
                "addr:street": "Chorzowska",
                "addr:housenumber": "19",
                "addr:city": "Świętochłowice",
                "addr:postcode": "41-605",
                "amenity": "pharmacy",
                "dispensing": "yes"
            },
            "geometry": {
                "type": "Point",
                "coordinates": [
                    18.91731918026447,
                    50.30474525488448
                ]
            }
        },
        {
            "type": "Feature",
            "properties": {
                "ref:csioz": 1179535,
                "name": "Apfarm Gnc",
                "addr:street": "Chorzowska",
                "addr:housenumber": "36",
                "addr:city": "Świętochłowice",
                "addr:postcode": "41-600",
                "amenity": "pharmacy",
                "dispensing": "yes"
            },
            "geometry": {
                "type": "Point",
                "coordinates": [
                    18.915929631431048,
                    50.30585532407192
                ]
            }
        },
        {
            "type": "Feature",
            "properties": {
                "ref:csioz": 1206466,
                "name": "Hygieia",
                "addr:street": "ul. Śląska",
                "addr:housenumber": "109",
                "addr:city": "Świętochłowice",
                "addr:postcode": "41-600",
                "amenity": "pharmacy",
                "dispensing": "yes"
            },
            "geometry": {
                "type": "Point",
                "coordinates": [
                    18.908171952675787,
                    50.27575762618163
                ]
            }
        }
    ]
}