{
    "type": "FeatureCollection",
    "name": "JPT_KOD_JE_2009",
    "features": [
        {
            "type": "Feature",
            "properties": {
                "ref:csioz": 1019352,
                "name": "Remedium",
                "addr:street": "1 Maja",
                "addr:housenumber": "3",
                "addr:city": "Sejny",
                "addr:postcode": "16-500",
                "amenity": "pharmacy",
                "dispensing": "yes"
            },
            "geometry": {
                "type": "Point",
                "coordinates": [
                    23.35130043123415,
                    54.104326106690394
                ]
            }
        },
        {
            "type": "Feature",
            "properties": {
                "ref:csioz": 1024923,
                "addr:street": "Henryka Sienkiewicza",
                "addr:housenumber": "5",
                "addr:city": "Krasnopol",
                "addr:postcode": "16-503",
                "amenity": "pharmacy",
                "dispensing": "yes"
            },
            "geometry": {
                "type": "Point",
                "coordinates": [
                    23.205394130713955,
                    54.11726529837699
                ]
            }
        },
        {
            "type": "Feature",
            "properties": {
                "ref:csioz": 1024967,
                "name": "\"Apteka \"\"Św. Michała\"\" Mgr Farm. Maria Aneszko\"",
                "addr:street": "Józefa Piłsudskiego",
                "addr:housenumber": "20",
                "addr:city": "Sejny",
                "addr:postcode": "16-500",
                "amenity": "pharmacy",
                "dispensing": "yes"
            },
            "geometry": {
                "type": "Point",
                "coordinates": [
                    23.348672180782803,
                    54.10659337791685
                ]
            }
        },
        {
            "type": "Feature",
            "properties": {
                "ref:csioz": 1180878,
                "addr:street": "dr. Edwarda Rittlera",
                "addr:housenumber": "1",
                "addr:city": "Sejny",
                "addr:postcode": "16-500",
                "amenity": "pharmacy",
                "dispensing": "yes"
            },
            "geometry": {
                "type": "Point",
                "coordinates": [
                    23.351307650471448,
                    54.11501002579435
                ]
            }
        },
        {
            "type": "Feature",
            "properties": {
                "ref:csioz": 1021986,
                "name": "Apteka Radix Zyta Wensławska",
                "addr:street": "Szkolna",
                "addr:housenumber": "26",
                "addr:city": "Puńsk",
                "addr:postcode": "16-515",
                "amenity": "pharmacy",
                "dispensing": "yes"
            },
            "geometry": {
                "type": "Point",
                "coordinates": [
                    23.18672263754246,
                    54.24876334560642
                ]
            }
        },
        {
            "type": "Feature",
            "properties": {
                "ref:csioz": 1024980,
                "name": "Apteka Malwa",
                "addr:street": "Zawadzkiego",
                "addr:housenumber": "19",
                "addr:city": "Sejny",
                "addr:postcode": "16-500",
                "amenity": "pharmacy",
                "dispensing": "yes"
            },
            "geometry": {
                "type": "Point",
                "coordinates": [
                    23.345621587542148,
                    54.105692722858315
                ]
            }
        },
        {
            "type": "Feature",
            "properties": {
                "ref:csioz": 1230741,
                "name": "Punkt Apteczny W Gibach",
                "addr:housenumber": "7",
                "addr:postcode": "16-506",
                "amenity": "pharmacy",
                "addr:place": "Dziemianówka",
                "dispensing": "yes"
            },
            "geometry": {
                "type": "Point",
                "coordinates": [
                    23.354600352948136,
                    54.04074565617296
                ]
            }
        }
    ]
}