{
    "type": "FeatureCollection",
    "name": "JPT_KOD_JE_2603",
    "features": [
        {
            "type": "Feature",
            "properties": {
                "ref:csioz": 1000643,
                "addr:street": "Partyzantów",
                "addr:housenumber": "28a",
                "addr:city": "Kazimierza Wielka",
                "addr:postcode": "28-500",
                "amenity": "pharmacy",
                "dispensing": "yes"
            },
            "geometry": {
                "type": "Point",
                "coordinates": [
                    20.48408256671488,
                    50.269446161935015
                ]
            }
        },
        {
            "type": "Feature",
            "properties": {
                "ref:csioz": 1002005,
                "addr:street": "Partyzantów",
                "addr:housenumber": "13",
                "addr:city": "Kazimierza Wielka",
                "addr:postcode": "28-500",
                "amenity": "pharmacy",
                "dispensing": "yes"
            },
            "geometry": {
                "type": "Point",
                "coordinates": [
                    20.483425635647578,
                    50.26958043380643
                ]
            }
        },
        {
            "type": "Feature",
            "properties": {
                "ref:csioz": 1002039,
                "addr:street": "Armii Krajowej",
                "addr:housenumber": "5B",
                "addr:city": "Kazimierza Wielka",
                "addr:postcode": "28-500",
                "amenity": "pharmacy",
                "dispensing": "yes"
            },
            "geometry": {
                "type": "Point",
                "coordinates": [
                    20.49239074842836,
                    50.26414775059178
                ]
            }
        },
        {
            "type": "Feature",
            "properties": {
                "ref:csioz": 1003895,
                "addr:street": "gen. Wł. Andersa",
                "addr:housenumber": "2",
                "addr:city": "Skalbmierz",
                "addr:postcode": "28-530",
                "amenity": "pharmacy",
                "dispensing": "yes"
            },
            "geometry": {
                "type": "Point",
                "coordinates": [
                    20.40046544277301,
                    50.31942238283108
                ]
            }
        },
        {
            "type": "Feature",
            "properties": {
                "ref:csioz": 1001913,
                "addr:street": "ppor. Sokoła",
                "addr:housenumber": "22",
                "addr:city": "Skalbmierz",
                "addr:postcode": "28-530",
                "amenity": "pharmacy",
                "dispensing": "yes"
            },
            "geometry": {
                "type": "Point",
                "coordinates": [
                    20.39553356986895,
                    50.31891733872781
                ]
            }
        },
        {
            "type": "Feature",
            "properties": {
                "ref:csioz": 1002382,
                "addr:street": "1 Maja",
                "addr:housenumber": "11",
                "addr:city": "Kazimierza Wielka",
                "addr:postcode": "28-500",
                "amenity": "pharmacy",
                "dispensing": "yes"
            },
            "geometry": {
                "type": "Point",
                "coordinates": [
                    20.491434909163676,
                    50.26617986718597
                ]
            }
        },
        {
            "type": "Feature",
            "properties": {
                "ref:csioz": 1003769,
                "name": "Apteka Codzienna",
                "addr:street": "Kolejowa",
                "addr:housenumber": "27G",
                "addr:city": "Kazimierza Wielka",
                "addr:postcode": "28-500",
                "amenity": "pharmacy",
                "dispensing": "yes"
            },
            "geometry": {
                "type": "Point",
                "coordinates": [
                    20.48337400000097,
                    50.27327700001288
                ]
            }
        },
        {
            "type": "Feature",
            "properties": {
                "ref:csioz": 1137880,
                "name": "Apteka Szpitalna",
                "addr:street": "Partyzantów",
                "addr:housenumber": "11",
                "addr:city": "Kazimierza Wielka",
                "addr:postcode": "28-500",
                "amenity": "pharmacy",
                "dispensing": "yes"
            },
            "geometry": {
                "type": "Point",
                "coordinates": [
                    20.483286541010127,
                    50.26899895033102
                ]
            }
        },
        {
            "type": "Feature",
            "properties": {
                "ref:csioz": 1220510,
                "name": "Apteka Pod Aniołami",
                "addr:street": "Partyzantów",
                "addr:housenumber": "5",
                "addr:city": "Kazimierza Wielka",
                "addr:postcode": "28-500",
                "amenity": "pharmacy",
                "dispensing": "yes"
            },
            "geometry": {
                "type": "Point",
                "coordinates": [
                    20.48418311426096,
                    50.26870703441325
                ]
            }
        },
        {
            "type": "Feature",
            "properties": {
                "ref:csioz": 1197811,
                "name": "\"Apteka \"\"Zdrowie\"\"\"",
                "addr:street": "Marii Curie Skłodowskiej",
                "addr:housenumber": "2",
                "addr:city": "Skalbmierz",
                "addr:postcode": "28-530",
                "amenity": "pharmacy",
                "dispensing": "yes"
            },
            "geometry": {
                "type": "Point",
                "coordinates": [
                    20.398995425496462,
                    50.31952527910748
                ]
            }
        },
        {
            "type": "Feature",
            "properties": {
                "ref:csioz": 1004143,
                "name": "Nowa",
                "addr:street": "Okrężna",
                "addr:housenumber": "7",
                "addr:city": "Kazimierza Wielka",
                "addr:postcode": "28-500",
                "amenity": "pharmacy",
                "dispensing": "yes"
            },
            "geometry": {
                "type": "Point",
                "coordinates": [
                    20.493279411661664,
                    50.26364116956674
                ]
            }
        },
        {
            "type": "Feature",
            "properties": {
                "ref:csioz": 1002522,
                "name": "Nowa",
                "addr:street": "Kolejowa",
                "addr:housenumber": "25A",
                "addr:city": "Kazimierza Wielka",
                "addr:postcode": "28-500",
                "amenity": "pharmacy",
                "dispensing": "yes"
            },
            "geometry": {
                "type": "Point",
                "coordinates": [
                    20.483502335823857,
                    50.27263719743391
                ]
            }
        },
        {
            "type": "Feature",
            "properties": {
                "ref:csioz": 1000187,
                "addr:street": "Garncarska",
                "addr:housenumber": "2",
                "addr:city": "Opatowiec",
                "addr:postcode": "28-520",
                "amenity": "pharmacy",
                "dispensing": "yes"
            },
            "geometry": {
                "type": "Point",
                "coordinates": [
                    20.725080337949745,
                    50.2413357195915
                ]
            }
        },
        {
            "type": "Feature",
            "properties": {
                "ref:csioz": 1000635,
                "name": "Apteka Nowa",
                "addr:housenumber": "236/C",
                "addr:postcode": "28-512",
                "amenity": "pharmacy",
                "addr:place": "Bejsce",
                "dispensing": "yes"
            },
            "geometry": {
                "type": "Point",
                "coordinates": [
                    20.602668000001277,
                    50.24166300001285
                ]
            }
        },
        {
            "type": "Feature",
            "properties": {
                "ref:csioz": 1004453,
                "addr:housenumber": "43A",
                "addr:postcode": "28-520",
                "amenity": "pharmacy",
                "addr:place": "Krzczonów",
                "dispensing": "yes"
            },
            "geometry": {
                "type": "Point",
                "coordinates": [
                    20.647053670444265,
                    50.288148326196264
                ]
            }
        }
    ]
}