{
    "type": "FeatureCollection",
    "name": "JPT_KOD_JE_0413",
    "features": [
        {
            "type": "Feature",
            "properties": {
                "ref:csioz": 1099283,
                "addr:street": "29 Stycznia",
                "addr:housenumber": "63",
                "addr:city": "Sypniewo",
                "addr:postcode": "89-422",
                "amenity": "pharmacy",
                "dispensing": "yes"
            },
            "geometry": {
                "type": "Point",
                "coordinates": [
                    17.324691563543325,
                    53.37061891484547
                ]
            }
        },
        {
            "type": "Feature",
            "properties": {
                "ref:csioz": 1099331,
                "name": "Apteka Pod Wieżą",
                "addr:street": "Ogrodowa",
                "addr:housenumber": "1",
                "addr:city": "Więcbork",
                "addr:postcode": "89-410",
                "amenity": "pharmacy",
                "dispensing": "yes"
            },
            "geometry": {
                "type": "Point",
                "coordinates": [
                    17.48703553869569,
                    53.35031364216941
                ]
            }
        },
        {
            "type": "Feature",
            "properties": {
                "ref:csioz": 1099344,
                "name": "Centrum Zdrowia I Urody",
                "addr:street": "Jana Pawła II",
                "addr:housenumber": "8",
                "addr:city": "Więcbork",
                "addr:postcode": "89-410",
                "amenity": "pharmacy",
                "dispensing": "yes"
            },
            "geometry": {
                "type": "Point",
                "coordinates": [
                    17.488438285942287,
                    53.35115558210301
                ]
            }
        },
        {
            "type": "Feature",
            "properties": {
                "ref:csioz": 1099366,
                "name": "Wracam Do Zdrowia",
                "addr:street": "Wolności",
                "addr:housenumber": "3",
                "addr:city": "Sępólno Krajeńskie",
                "addr:postcode": "89-400",
                "amenity": "pharmacy",
                "dispensing": "yes"
            },
            "geometry": {
                "type": "Point",
                "coordinates": [
                    17.533262923781773,
                    53.45284960015516
                ]
            }
        },
        {
            "type": "Feature",
            "properties": {
                "ref:csioz": 1101358,
                "name": "Jantar",
                "addr:street": "Stanisława Wyspiańskiego",
                "addr:housenumber": "2",
                "addr:city": "Kamień Krajeński",
                "addr:postcode": "89-430",
                "amenity": "pharmacy",
                "dispensing": "yes"
            },
            "geometry": {
                "type": "Point",
                "coordinates": [
                    17.51753508623822,
                    53.53161119890416
                ]
            }
        },
        {
            "type": "Feature",
            "properties": {
                "ref:csioz": 1101603,
                "name": "Centrum Zdrowia",
                "addr:street": "Adama Mickiewicza",
                "addr:housenumber": "24",
                "addr:city": "Więcbork",
                "addr:postcode": "89-410",
                "amenity": "pharmacy",
                "dispensing": "yes"
            },
            "geometry": {
                "type": "Point",
                "coordinates": [
                    17.49117599999892,
                    53.35391000001764
                ]
            }
        },
        {
            "type": "Feature",
            "properties": {
                "ref:csioz": 1101789,
                "name": "Wracam Do Zdrowia",
                "addr:street": "Tadeusza Kościuszki",
                "addr:housenumber": "22",
                "addr:city": "Sępólno Krajeńskie",
                "addr:postcode": "89-400",
                "amenity": "pharmacy",
                "dispensing": "yes"
            },
            "geometry": {
                "type": "Point",
                "coordinates": [
                    17.54116056296625,
                    53.456915080006496
                ]
            }
        },
        {
            "type": "Feature",
            "properties": {
                "ref:csioz": 1218234,
                "name": "Dr. Max",
                "addr:street": "Powstańców Wielkopolskich",
                "addr:housenumber": "2A",
                "addr:city": "Więcbork",
                "addr:postcode": "89-410",
                "amenity": "pharmacy",
                "dispensing": "yes"
            },
            "geometry": {
                "type": "Point",
                "coordinates": [
                    17.492402843213046,
                    53.35407964642578
                ]
            }
        },
        {
            "type": "Feature",
            "properties": {
                "ref:csioz": 1218625,
                "name": "Źródło Zdrowia",
                "addr:street": "Tadeusza Kościuszki",
                "addr:housenumber": "24",
                "addr:city": "Sępólno Krajeńskie",
                "addr:postcode": "89-400",
                "amenity": "pharmacy",
                "dispensing": "yes"
            },
            "geometry": {
                "type": "Point",
                "coordinates": [
                    17.544976283828767,
                    53.45757236241137
                ]
            }
        },
        {
            "type": "Feature",
            "properties": {
                "ref:csioz": 1099732,
                "name": "Apteka Rodzinna",
                "addr:street": "Szkolna",
                "addr:housenumber": "4",
                "addr:city": "Sępólno Krajeńskie",
                "addr:postcode": "89-400",
                "amenity": "pharmacy",
                "dispensing": "yes"
            },
            "geometry": {
                "type": "Point",
                "coordinates": [
                    17.536934479255205,
                    53.45681081457991
                ]
            }
        },
        {
            "type": "Feature",
            "properties": {
                "ref:csioz": 1101299,
                "name": "Apteka Dbam O Zdrowie",
                "addr:street": "Hallera",
                "addr:housenumber": "8",
                "addr:city": "Sępólno Krajeńskie",
                "addr:postcode": "89-400",
                "amenity": "pharmacy",
                "dispensing": "yes"
            },
            "geometry": {
                "type": "Point",
                "coordinates": [
                    17.531608318038607,
                    53.45174469520958
                ]
            }
        },
        {
            "type": "Feature",
            "properties": {
                "ref:csioz": 1101642,
                "name": "Apteka Więcborska",
                "addr:street": "Gdańska",
                "addr:housenumber": "18",
                "addr:city": "Więcbork",
                "addr:postcode": "89-410",
                "amenity": "pharmacy",
                "dispensing": "yes"
            },
            "geometry": {
                "type": "Point",
                "coordinates": [
                    17.490165999998915,
                    53.35928600001766
                ]
            }
        },
        {
            "type": "Feature",
            "properties": {
                "ref:csioz": 1173115,
                "name": "Szpital Powiatowy Im. Dr A. Gacy I Dr J. Łaskiego Niepubliczny Zakład Opieki Zdrowotnej W Więcborku",
                "addr:street": "Mickiewicza",
                "addr:housenumber": "26",
                "addr:city": "Więcbork",
                "addr:postcode": "89-410",
                "amenity": "pharmacy",
                "dispensing": "yes"
            },
            "geometry": {
                "type": "Point",
                "coordinates": [
                    17.492145822347705,
                    53.355016563122774
                ]
            }
        },
        {
            "type": "Feature",
            "properties": {
                "ref:csioz": 1214298,
                "name": "Apteka Pharma-Land",
                "addr:street": "Hallera",
                "addr:housenumber": "7",
                "addr:city": "Sępólno Krajeńskie",
                "addr:postcode": "89-400",
                "amenity": "pharmacy",
                "dispensing": "yes"
            },
            "geometry": {
                "type": "Point",
                "coordinates": [
                    17.53179307507476,
                    53.451506351133645
                ]
            }
        },
        {
            "type": "Feature",
            "properties": {
                "ref:csioz": 1219071,
                "name": "Żyj-Zdrowo.Com",
                "addr:street": "Leśna",
                "addr:housenumber": "7",
                "addr:city": "Sośno",
                "addr:postcode": "89-412",
                "amenity": "pharmacy",
                "dispensing": "yes"
            },
            "geometry": {
                "type": "Point",
                "coordinates": [
                    17.684607795497943,
                    53.386875783015114
                ]
            }
        }
    ]
}