{
    "type": "FeatureCollection",
    "name": "JPT_KOD_JE_1012",
    "features": [
        {
            "type": "Feature",
            "properties": {
                "ref:csioz": 1224124,
                "name": "Doz Apteka Dbam O Zdrowie",
                "addr:street": "Radomszczańska",
                "addr:housenumber": "7",
                "addr:city": "Wielgomłyny",
                "addr:postcode": "97-525",
                "amenity": "pharmacy",
                "dispensing": "yes"
            },
            "geometry": {
                "type": "Point",
                "coordinates": [
                    19.760442015941525,
                    51.01253775735102
                ]
            }
        },
        {
            "type": "Feature",
            "properties": {
                "ref:csioz": 1185379,
                "addr:street": "Rybacka",
                "addr:housenumber": "3",
                "addr:city": "Maluszyn",
                "addr:postcode": "97-532",
                "amenity": "pharmacy",
                "dispensing": "yes"
            },
            "geometry": {
                "type": "Point",
                "coordinates": [
                    19.79758460683249,
                    50.91273934321268
                ]
            }
        },
        {
            "type": "Feature",
            "properties": {
                "ref:csioz": 1185404,
                "name": "Punkt Apteczny Mgr Farm. Magdalena Retwińska",
                "addr:street": "Wolności",
                "addr:housenumber": "6",
                "addr:city": "Maluszyn",
                "addr:postcode": "97-532",
                "amenity": "pharmacy",
                "dispensing": "yes"
            },
            "geometry": {
                "type": "Point",
                "coordinates": [
                    19.7977516755452,
                    50.91212364813086
                ]
            }
        },
        {
            "type": "Feature",
            "properties": {
                "ref:csioz": 1018914,
                "addr:street": "Mostowa",
                "addr:housenumber": "26F",
                "addr:city": "Przedbórz",
                "addr:postcode": "97-750",
                "amenity": "pharmacy",
                "dispensing": "yes"
            },
            "geometry": {
                "type": "Point",
                "coordinates": [
                    19.879580087132812,
                    51.08609477150297
                ]
            }
        },
        {
            "type": "Feature",
            "properties": {
                "ref:csioz": 1201962,
                "name": "Doz Apteka Dbam O Zdrowie",
                "addr:street": "Trytwa",
                "addr:housenumber": "4C",
                "addr:city": "Przedbórz",
                "addr:postcode": "97-570",
                "amenity": "pharmacy",
                "dispensing": "yes"
            },
            "geometry": {
                "type": "Point",
                "coordinates": [
                    19.871523942667334,
                    51.08911082947886
                ]
            }
        },
        {
            "type": "Feature",
            "properties": {
                "ref:csioz": 1019284,
                "name": "Vita",
                "addr:street": "Trytwa",
                "addr:housenumber": "15",
                "addr:city": "Przedbórz",
                "addr:postcode": "97-570",
                "amenity": "pharmacy",
                "dispensing": "yes"
            },
            "geometry": {
                "type": "Point",
                "coordinates": [
                    19.86892116819673,
                    51.08958724085353
                ]
            }
        },
        {
            "type": "Feature",
            "properties": {
                "ref:csioz": 1009417,
                "name": "Apteka Gemini",
                "addr:street": "Armii Krajowej",
                "addr:housenumber": "32",
                "addr:city": "Radomsko",
                "addr:postcode": "97-500",
                "amenity": "pharmacy",
                "dispensing": "yes"
            },
            "geometry": {
                "type": "Point",
                "coordinates": [
                    19.446609570373557,
                    51.05792175244197
                ]
            }
        },
        {
            "type": "Feature",
            "properties": {
                "ref:csioz": 1013375,
                "name": "Zdrowie",
                "addr:street": "Mickiewicza",
                "addr:housenumber": "16",
                "addr:city": "Radomsko",
                "addr:postcode": "97-500",
                "amenity": "pharmacy",
                "dispensing": "yes"
            },
            "geometry": {
                "type": "Point",
                "coordinates": [
                    19.44945632362731,
                    51.07056334062695
                ]
            }
        },
        {
            "type": "Feature",
            "properties": {
                "ref:csioz": 1017366,
                "name": "Miła",
                "addr:street": "Miła",
                "addr:housenumber": "5",
                "addr:city": "Radomsko",
                "addr:postcode": "97-500",
                "amenity": "pharmacy",
                "dispensing": "yes"
            },
            "geometry": {
                "type": "Point",
                "coordinates": [
                    19.42820040004881,
                    51.069526655511375
                ]
            }
        },
        {
            "type": "Feature",
            "properties": {
                "ref:csioz": 1019268,
                "name": "Prima",
                "addr:street": "Leszka Czarnego",
                "addr:housenumber": "6",
                "addr:city": "Radomsko",
                "addr:postcode": "97-500",
                "amenity": "pharmacy",
                "dispensing": "yes"
            },
            "geometry": {
                "type": "Point",
                "coordinates": [
                    19.453130776225315,
                    51.06094916403029
                ]
            }
        },
        {
            "type": "Feature",
            "properties": {
                "ref:csioz": 1021851,
                "name": "Apteka Z Uśmiechem",
                "addr:street": "Przedborska",
                "addr:housenumber": "47",
                "addr:city": "Radomsko",
                "addr:postcode": "97-500",
                "amenity": "pharmacy",
                "dispensing": "yes"
            },
            "geometry": {
                "type": "Point",
                "coordinates": [
                    19.451813704341948,
                    51.07045305777304
                ]
            }
        },
        {
            "type": "Feature",
            "properties": {
                "ref:csioz": 1024220,
                "name": "Apteka Dbam O Zdrowie",
                "addr:street": "Prymasa Wyszyńskiego",
                "addr:housenumber": "2/6",
                "addr:city": "Radomsko",
                "addr:postcode": "97-500",
                "amenity": "pharmacy",
                "dispensing": "yes"
            },
            "geometry": {
                "type": "Point",
                "coordinates": [
                    19.445500550587468,
                    51.066594440677136
                ]
            }
        },
        {
            "type": "Feature",
            "properties": {
                "ref:csioz": 1025119,
                "addr:street": "Niepodległości",
                "addr:housenumber": "23",
                "addr:city": "Kodrąb",
                "addr:postcode": "97-512",
                "amenity": "pharmacy",
                "dispensing": "yes"
            },
            "geometry": {
                "type": "Point",
                "coordinates": [
                    19.62852880940725,
                    51.101664092003745
                ]
            }
        },
        {
            "type": "Feature",
            "properties": {
                "ref:csioz": 1025291,
                "name": "Apteka Stylowa",
                "addr:street": "Reymonta",
                "addr:housenumber": "42",
                "addr:city": "Radomsko",
                "addr:postcode": "97-500",
                "amenity": "pharmacy",
                "dispensing": "yes"
            },
            "geometry": {
                "type": "Point",
                "coordinates": [
                    19.438477265198408,
                    51.06983613218883
                ]
            }
        },
        {
            "type": "Feature",
            "properties": {
                "ref:csioz": 1185677,
                "name": "Apteka Medica 2",
                "addr:street": "Brzeźnicka",
                "addr:housenumber": "41",
                "addr:city": "Radomsko",
                "addr:postcode": "97-500",
                "amenity": "pharmacy",
                "dispensing": "yes"
            },
            "geometry": {
                "type": "Point",
                "coordinates": [
                    19.42949050527494,
                    51.07021023121779
                ]
            }
        },
        {
            "type": "Feature",
            "properties": {
                "ref:csioz": 1214417,
                "name": "\"Apteka 'Marta'\"",
                "addr:street": "Krasińskiego",
                "addr:housenumber": "8A",
                "addr:city": "Gomunice",
                "addr:postcode": "97-545",
                "amenity": "pharmacy",
                "dispensing": "yes"
            },
            "geometry": {
                "type": "Point",
                "coordinates": [
                    19.48456395879438,
                    51.17370467262201
                ]
            }
        },
        {
            "type": "Feature",
            "properties": {
                "ref:csioz": 1014791,
                "name": "Dr. Max",
                "addr:street": "Jagiellońska",
                "addr:housenumber": "8",
                "addr:city": "Radomsko",
                "addr:postcode": "97-500",
                "amenity": "pharmacy",
                "dispensing": "yes"
            },
            "geometry": {
                "type": "Point",
                "coordinates": [
                    19.44909432614272,
                    51.05568457847051
                ]
            }
        },
        {
            "type": "Feature",
            "properties": {
                "ref:csioz": 1017830,
                "name": "Punkt Apteczny Przyjazny",
                "addr:street": "Częstochowska",
                "addr:housenumber": "1",
                "addr:city": "Gidle",
                "addr:postcode": "97-540",
                "amenity": "pharmacy",
                "dispensing": "yes"
            },
            "geometry": {
                "type": "Point",
                "coordinates": [
                    19.46797325798902,
                    50.96381578082263
                ]
            }
        },
        {
            "type": "Feature",
            "properties": {
                "ref:csioz": 1018039,
                "addr:street": "Częstochowska",
                "addr:housenumber": "9",
                "addr:city": "Gidle",
                "addr:postcode": "97-540",
                "amenity": "pharmacy",
                "dispensing": "yes"
            },
            "geometry": {
                "type": "Point",
                "coordinates": [
                    19.46704369224296,
                    50.963227426849926
                ]
            }
        },
        {
            "type": "Feature",
            "properties": {
                "ref:csioz": 1018445,
                "name": "Dr. Max",
                "addr:street": "Juliusza Słowackiego",
                "addr:housenumber": "12/14",
                "addr:city": "Kamieńsk",
                "addr:postcode": "97-360",
                "amenity": "pharmacy",
                "dispensing": "yes"
            },
            "geometry": {
                "type": "Point",
                "coordinates": [
                    19.49803500000016,
                    51.202807000014246
                ]
            }
        },
        {
            "type": "Feature",
            "properties": {
                "ref:csioz": 1019774,
                "name": "Apteka Mgr Farm. Magdalena Retwińska",
                "addr:street": "Konopnickiej",
                "addr:housenumber": "72",
                "addr:city": "Żytno",
                "addr:postcode": "97-532",
                "amenity": "pharmacy",
                "dispensing": "yes"
            },
            "geometry": {
                "type": "Point",
                "coordinates": [
                    19.628011609693008,
                    50.926948422492806
                ]
            }
        },
        {
            "type": "Feature",
            "properties": {
                "ref:csioz": 1022593,
                "name": "Apteka Piastowska",
                "addr:street": "Piastowska",
                "addr:housenumber": "20D",
                "addr:city": "Radomsko",
                "addr:postcode": "97-500",
                "amenity": "pharmacy",
                "dispensing": "yes"
            },
            "geometry": {
                "type": "Point",
                "coordinates": [
                    19.45424700952077,
                    51.05988286237015
                ]
            }
        },
        {
            "type": "Feature",
            "properties": {
                "ref:csioz": 1023312,
                "addr:street": "1000-lecia",
                "addr:housenumber": "2",
                "addr:city": "Borzykowa",
                "addr:postcode": "97-532",
                "amenity": "pharmacy",
                "dispensing": "yes"
            },
            "geometry": {
                "type": "Point",
                "coordinates": [
                    19.69179524464636,
                    50.876838250870065
                ]
            }
        },
        {
            "type": "Feature",
            "properties": {
                "ref:csioz": 1025216,
                "name": "\"Apteka \"\"Kwiaty Polskie\"\"\"",
                "addr:street": "Armii Krajowej",
                "addr:housenumber": "9",
                "addr:city": "Radomsko",
                "addr:postcode": "97-500",
                "amenity": "pharmacy",
                "dispensing": "yes"
            },
            "geometry": {
                "type": "Point",
                "coordinates": [
                    19.446255074160845,
                    51.059916974795975
                ]
            }
        },
        {
            "type": "Feature",
            "properties": {
                "ref:csioz": 1025820,
                "addr:street": "Jagiellońska",
                "addr:housenumber": "36",
                "addr:city": "Radomsko",
                "addr:postcode": "97-500",
                "amenity": "pharmacy",
                "dispensing": "yes"
            },
            "geometry": {
                "type": "Point",
                "coordinates": [
                    19.460743485499915,
                    51.05740697170883
                ]
            }
        },
        {
            "type": "Feature",
            "properties": {
                "ref:csioz": 1189453,
                "name": "\"Apteki Burchacińscy; Wejdź Po Zdrowie!\"",
                "addr:street": "Sierakowskiego",
                "addr:housenumber": "11",
                "addr:city": "Radomsko",
                "addr:postcode": "97-500",
                "amenity": "pharmacy",
                "dispensing": "yes"
            },
            "geometry": {
                "type": "Point",
                "coordinates": [
                    19.435159641273884,
                    51.07002564359826
                ]
            }
        },
        {
            "type": "Feature",
            "properties": {
                "ref:csioz": 1196977,
                "name": "Szpital Powiatowy W Radomsku",
                "addr:street": "Jagiellońska",
                "addr:housenumber": "36",
                "addr:city": "Radomsko",
                "addr:postcode": "97-500",
                "amenity": "pharmacy",
                "dispensing": "yes"
            },
            "geometry": {
                "type": "Point",
                "coordinates": [
                    19.460743485499915,
                    51.05737697170883
                ]
            }
        },
        {
            "type": "Feature",
            "properties": {
                "ref:csioz": 1198228,
                "name": "Apteka Medica",
                "addr:street": "Przedborska",
                "addr:housenumber": "29",
                "addr:city": "Radomsko",
                "addr:postcode": "97-500",
                "amenity": "pharmacy",
                "dispensing": "yes"
            },
            "geometry": {
                "type": "Point",
                "coordinates": [
                    19.44867543317672,
                    51.069005771880754
                ]
            }
        },
        {
            "type": "Feature",
            "properties": {
                "ref:csioz": 1203241,
                "name": "Apteka Sowa",
                "addr:street": "Armii Krajowej",
                "addr:housenumber": "34",
                "addr:city": "Radomsko",
                "addr:postcode": "97-500",
                "amenity": "pharmacy",
                "dispensing": "yes"
            },
            "geometry": {
                "type": "Point",
                "coordinates": [
                    19.44701977899883,
                    51.05759491912837
                ]
            }
        },
        {
            "type": "Feature",
            "properties": {
                "ref:csioz": 1205916,
                "name": "Wrzosowa",
                "addr:street": "Brzeźnicka",
                "addr:housenumber": "63-65",
                "addr:city": "Radomsko",
                "addr:postcode": "97-500",
                "amenity": "pharmacy",
                "dispensing": "yes"
            },
            "geometry": {
                "type": "Point",
                "coordinates": [
                    19.412332110452038,
                    51.073355994879996
                ]
            }
        },
        {
            "type": "Feature",
            "properties": {
                "ref:csioz": 1211314,
                "addr:street": "Wojska Polskiego",
                "addr:housenumber": "28",
                "addr:city": "Gomunice",
                "addr:postcode": "97-545",
                "amenity": "pharmacy",
                "dispensing": "yes"
            },
            "geometry": {
                "type": "Point",
                "coordinates": [
                    19.486903979150963,
                    51.17145484191267
                ]
            }
        },
        {
            "type": "Feature",
            "properties": {
                "ref:csioz": 1213889,
                "name": "Apteka Wspólna",
                "addr:street": "Metalurgii",
                "addr:housenumber": "2",
                "addr:city": "Radomsko",
                "addr:postcode": "97-500",
                "amenity": "pharmacy",
                "dispensing": "yes"
            },
            "geometry": {
                "type": "Point",
                "coordinates": [
                    19.438813173582833,
                    51.07289780845667
                ]
            }
        },
        {
            "type": "Feature",
            "properties": {
                "ref:csioz": 1218939,
                "name": "Apteka Codzienna Drive",
                "addr:street": "Piastowska",
                "addr:housenumber": "17",
                "addr:city": "Radomsko",
                "addr:postcode": "97-500",
                "amenity": "pharmacy",
                "dispensing": "yes"
            },
            "geometry": {
                "type": "Point",
                "coordinates": [
                    19.450177240886482,
                    51.062372007085784
                ]
            }
        },
        {
            "type": "Feature",
            "properties": {
                "ref:csioz": 1223224,
                "name": "Wracam Do Zdrowia",
                "addr:street": "Krakowska",
                "addr:housenumber": "29-37",
                "addr:city": "Radomsko",
                "addr:postcode": "97-500",
                "amenity": "pharmacy",
                "dispensing": "yes"
            },
            "geometry": {
                "type": "Point",
                "coordinates": [
                    19.443985138701265,
                    51.06395158271038
                ]
            }
        },
        {
            "type": "Feature",
            "properties": {
                "ref:csioz": 1118440,
                "name": "\"Apteka \"\"Rosa\"\"\"",
                "addr:street": "Reymonta",
                "addr:housenumber": "79",
                "addr:city": "Kobiele Wielkie",
                "addr:postcode": "97-524",
                "amenity": "pharmacy",
                "dispensing": "yes"
            },
            "geometry": {
                "type": "Point",
                "coordinates": [
                    19.623211561646155,
                    51.03655406189967
                ]
            }
        },
        {
            "type": "Feature",
            "properties": {
                "ref:csioz": 1177732,
                "name": "Remedium",
                "addr:street": "Wieluńska",
                "addr:housenumber": "25",
                "addr:city": "Kamieńsk",
                "addr:postcode": "97-360",
                "amenity": "pharmacy",
                "dispensing": "yes"
            },
            "geometry": {
                "type": "Point",
                "coordinates": [
                    19.495700052760498,
                    51.203595147491974
                ]
            }
        },
        {
            "type": "Feature",
            "properties": {
                "ref:csioz": 1189119,
                "name": "\"Punkt Apteczny \"\"Marta\"\"\"",
                "addr:street": "Wieluńska",
                "addr:housenumber": "3",
                "addr:city": "Dobryszyce",
                "addr:postcode": "97-505",
                "amenity": "pharmacy",
                "dispensing": "yes"
            },
            "geometry": {
                "type": "Point",
                "coordinates": [
                    19.405861989252344,
                    51.146216386756024
                ]
            }
        },
        {
            "type": "Feature",
            "properties": {
                "ref:csioz": 1121493,
                "name": "Doz Punkt Apteczny Dbam O Zdrowie",
                "addr:street": "Radomszczańska",
                "addr:housenumber": "58",
                "addr:city": "Lgota Wielka",
                "addr:postcode": "97-565",
                "amenity": "pharmacy",
                "dispensing": "yes"
            },
            "geometry": {
                "type": "Point",
                "coordinates": [
                    19.33066857464741,
                    51.148676041952804
                ]
            }
        },
        {
            "type": "Feature",
            "properties": {
                "ref:csioz": 1204770,
                "name": "Wrzosowa",
                "addr:street": "Ogrodowa",
                "addr:housenumber": "1",
                "addr:city": "Ładzice",
                "addr:postcode": "97-561",
                "amenity": "pharmacy",
                "dispensing": "yes"
            },
            "geometry": {
                "type": "Point",
                "coordinates": [
                    19.3594253956648,
                    51.08145452298217
                ]
            }
        },
        {
            "type": "Feature",
            "properties": {
                "ref:csioz": 1225987,
                "name": "Koniczynka 4",
                "addr:street": "Radomszczańska",
                "addr:housenumber": "81",
                "addr:city": "Lgota Wielka",
                "addr:postcode": "97-565",
                "amenity": "pharmacy",
                "dispensing": "yes"
            },
            "geometry": {
                "type": "Point",
                "coordinates": [
                    19.327212762285285,
                    51.14842571474824
                ]
            }
        }
    ]
}