{
    "type": "FeatureCollection",
    "name": "JPT_KOD_JE_2014",
    "features": [
        {
            "type": "Feature",
            "properties": {
                "ref:csioz": 1025321,
                "addr:street": "1 Maja",
                "addr:housenumber": "54",
                "addr:city": "Szumowo",
                "addr:postcode": "18-305",
                "amenity": "pharmacy"
            },
            "geometry": {
                "type": "Point",
                "coordinates": [
                    22.083991355045033,
                    52.919351843837596
                ]
            }
        },
        {
            "type": "Feature",
            "properties": {
                "ref:csioz": 1017344,
                "name": "Apteka Dbam O Zdrowie",
                "addr:street": "Wojska Polskiego",
                "addr:housenumber": "42",
                "addr:city": "Zambrów",
                "addr:postcode": "18-300",
                "amenity": "pharmacy"
            },
            "geometry": {
                "type": "Point",
                "coordinates": [
                    22.24455636855414,
                    52.97389836206034
                ]
            }
        },
        {
            "type": "Feature",
            "properties": {
                "ref:csioz": 1019079,
                "name": "Apteka T&P S.C.",
                "addr:street": "Ignacego Paderewskiego",
                "addr:housenumber": "6",
                "addr:city": "Zambrów",
                "addr:postcode": "18-300",
                "amenity": "pharmacy"
            },
            "geometry": {
                "type": "Point",
                "coordinates": [
                    22.246260468912787,
                    52.98595774642794
                ]
            }
        },
        {
            "type": "Feature",
            "properties": {
                "ref:csioz": 1019394,
                "name": "Apteka Na Białostockiej Nowa Farmacja",
                "addr:street": "Białostocka",
                "addr:housenumber": "24",
                "addr:city": "Zambrów",
                "addr:postcode": "18-300",
                "amenity": "pharmacy"
            },
            "geometry": {
                "type": "Point",
                "coordinates": [
                    22.24878903070767,
                    52.98870496851102
                ]
            }
        },
        {
            "type": "Feature",
            "properties": {
                "ref:csioz": 1019524,
                "name": "Apteka Dbam O Zdrowie",
                "addr:street": "Rynek",
                "addr:housenumber": "7",
                "addr:city": "Rutki-Kossaki",
                "addr:postcode": "18-312",
                "amenity": "pharmacy"
            },
            "geometry": {
                "type": "Point",
                "coordinates": [
                    22.4385693911992,
                    53.08876532662639
                ]
            }
        },
        {
            "type": "Feature",
            "properties": {
                "ref:csioz": 1024212,
                "name": "Osiedlowa",
                "addr:street": "Grunwaldzka",
                "addr:housenumber": "4F",
                "addr:city": "Zambrów",
                "addr:postcode": "18-300",
                "amenity": "pharmacy"
            },
            "geometry": {
                "type": "Point",
                "coordinates": [
                    22.246938675305664,
                    52.969924366119734
                ]
            }
        },
        {
            "type": "Feature",
            "properties": {
                "ref:csioz": 1025402,
                "addr:street": "gen. Władysława Sikorskiego",
                "addr:housenumber": "2",
                "addr:city": "Zambrów",
                "addr:postcode": "18-300",
                "amenity": "pharmacy"
            },
            "geometry": {
                "type": "Point",
                "coordinates": [
                    22.242119000022633,
                    52.98578100001733
                ]
            }
        },
        {
            "type": "Feature",
            "properties": {
                "ref:csioz": 1025787,
                "addr:street": "Papieża Jana Pawła II",
                "addr:housenumber": "3",
                "addr:city": "Zambrów",
                "addr:postcode": "18-300",
                "amenity": "pharmacy"
            },
            "geometry": {
                "type": "Point",
                "coordinates": [
                    22.252976775298595,
                    52.98804759412707
                ]
            }
        },
        {
            "type": "Feature",
            "properties": {
                "ref:csioz": 1020360,
                "name": "Pro Nobis",
                "addr:street": "Kazimierza Pułaskiego",
                "addr:housenumber": "2B",
                "addr:city": "Zambrów",
                "addr:postcode": "18-300",
                "amenity": "pharmacy"
            },
            "geometry": {
                "type": "Point",
                "coordinates": [
                    22.248571326198178,
                    52.99169404048682
                ]
            }
        },
        {
            "type": "Feature",
            "properties": {
                "ref:csioz": 1120205,
                "name": "Apteka Zambrowska",
                "addr:street": "Świętokrzyska",
                "addr:housenumber": "11",
                "addr:city": "Zambrów",
                "addr:postcode": "18-300",
                "amenity": "pharmacy"
            },
            "geometry": {
                "type": "Point",
                "coordinates": [
                    22.244691593234123,
                    52.98421041513256
                ]
            }
        },
        {
            "type": "Feature",
            "properties": {
                "ref:csioz": 1175073,
                "name": "Mapteka",
                "addr:street": "Wojska Polskiego",
                "addr:housenumber": "8",
                "addr:city": "Zambrów",
                "addr:postcode": "18-300",
                "amenity": "pharmacy"
            },
            "geometry": {
                "type": "Point",
                "coordinates": [
                    22.244856311501906,
                    52.97835373169558
                ]
            }
        },
        {
            "type": "Feature",
            "properties": {
                "ref:csioz": 1176859,
                "name": "Ekoapteka",
                "addr:street": "Łomżyńska",
                "addr:housenumber": "4",
                "addr:city": "Rutki-Kossaki",
                "addr:postcode": "18-312",
                "amenity": "pharmacy"
            },
            "geometry": {
                "type": "Point",
                "coordinates": [
                    22.439493929100678,
                    53.089890380799005
                ]
            }
        },
        {
            "type": "Feature",
            "properties": {
                "ref:csioz": 1208758,
                "name": "Top Apteka",
                "addr:street": "Fabryczna",
                "addr:housenumber": "1",
                "addr:city": "Zambrów",
                "addr:postcode": "18-300",
                "amenity": "pharmacy"
            },
            "geometry": {
                "type": "Point",
                "coordinates": [
                    22.245900422116787,
                    52.97562145471804
                ]
            }
        }
    ]
}