{
    "type": "FeatureCollection",
    "name": "JPT_KOD_JE_1418",
    "features": [
        {
            "type": "Feature",
            "properties": {
                "ref:csioz": 1088580,
                "name": "Viola",
                "addr:street": "Wacława Kauna",
                "addr:housenumber": "31",
                "addr:city": "Piaseczno",
                "addr:postcode": "05-500",
                "amenity": "pharmacy"
            },
            "geometry": {
                "type": "Point",
                "coordinates": [
                    21.030990000003015,
                    52.06841100001558
                ]
            }
        },
        {
            "type": "Feature",
            "properties": {
                "ref:csioz": 1088601,
                "name": "Doz Apteka Dbam O Zdrowie",
                "addr:street": "Ludowa",
                "addr:housenumber": "5",
                "addr:city": "Piaseczno",
                "addr:postcode": "05-500",
                "amenity": "pharmacy"
            },
            "geometry": {
                "type": "Point",
                "coordinates": [
                    21.023960551024675,
                    52.07558149109685
                ]
            }
        },
        {
            "type": "Feature",
            "properties": {
                "ref:csioz": 1088617,
                "name": "Dbam O Zdrowie",
                "addr:street": "Łabędzia",
                "addr:housenumber": "23",
                "addr:city": "Piaseczno",
                "addr:postcode": "05-500",
                "amenity": "pharmacy"
            },
            "geometry": {
                "type": "Point",
                "coordinates": [
                    21.01526692124264,
                    52.09651307590915
                ]
            }
        },
        {
            "type": "Feature",
            "properties": {
                "ref:csioz": 1088649,
                "name": "Apteka Pod Dębem",
                "addr:street": "Pod Bateriami",
                "addr:housenumber": "4",
                "addr:city": "Piaseczno",
                "addr:postcode": "05-502",
                "amenity": "pharmacy"
            },
            "geometry": {
                "type": "Point",
                "coordinates": [
                    21.007445950547197,
                    52.055626181530805
                ]
            }
        },
        {
            "type": "Feature",
            "properties": {
                "ref:csioz": 1089587,
                "name": "Doz Apteka Dbam O Zdrowie",
                "addr:street": "Topolowa",
                "addr:housenumber": "2",
                "addr:city": "Mysiadło",
                "addr:postcode": "05-500",
                "amenity": "pharmacy"
            },
            "geometry": {
                "type": "Point",
                "coordinates": [
                    21.008044389848077,
                    52.096637028924505
                ]
            }
        },
        {
            "type": "Feature",
            "properties": {
                "ref:csioz": 1089702,
                "name": "Paticarius",
                "addr:street": "Postępu",
                "addr:housenumber": "7",
                "addr:city": "Nowa Wola",
                "addr:postcode": "05-506",
                "amenity": "pharmacy"
            },
            "geometry": {
                "type": "Point",
                "coordinates": [
                    20.967839061403993,
                    52.082408940303914
                ]
            }
        },
        {
            "type": "Feature",
            "properties": {
                "ref:csioz": 1089790,
                "name": "Dominikańska",
                "addr:street": "Dominikańska",
                "addr:housenumber": "7",
                "addr:city": "Góra Kalwaria",
                "addr:postcode": "05-530",
                "amenity": "pharmacy"
            },
            "geometry": {
                "type": "Point",
                "coordinates": [
                    21.2164393778726,
                    51.98021600881622
                ]
            }
        },
        {
            "type": "Feature",
            "properties": {
                "ref:csioz": 1090043,
                "name": "Remedium",
                "addr:street": "Pijarska",
                "addr:housenumber": "97C",
                "addr:city": "Góra Kalwaria",
                "addr:postcode": "05-530",
                "amenity": "pharmacy"
            },
            "geometry": {
                "type": "Point",
                "coordinates": [
                    21.207277230731503,
                    51.98649095283027
                ]
            }
        },
        {
            "type": "Feature",
            "properties": {
                "ref:csioz": 1094976,
                "name": "Apteka Pod Lipą",
                "addr:street": "Komornicka",
                "addr:housenumber": "4",
                "addr:city": "Tarczyn",
                "addr:postcode": "05-555",
                "amenity": "pharmacy"
            },
            "geometry": {
                "type": "Point",
                "coordinates": [
                    20.83460750828616,
                    51.97821718348258
                ]
            }
        },
        {
            "type": "Feature",
            "properties": {
                "ref:csioz": 1094984,
                "addr:street": "Warszawska",
                "addr:housenumber": "42",
                "addr:city": "Tarczyn",
                "addr:postcode": "05-555",
                "amenity": "pharmacy"
            },
            "geometry": {
                "type": "Point",
                "coordinates": [
                    20.83670789521496,
                    51.985829104922615
                ]
            }
        },
        {
            "type": "Feature",
            "properties": {
                "ref:csioz": 1115337,
                "addr:street": "ks. Jerzego Popiełuszki",
                "addr:housenumber": "2A",
                "addr:city": "Góra Kalwaria",
                "addr:postcode": "05-530",
                "amenity": "pharmacy"
            },
            "geometry": {
                "type": "Point",
                "coordinates": [
                    21.21239173433946,
                    51.98824451836286
                ]
            }
        },
        {
            "type": "Feature",
            "properties": {
                "ref:csioz": 1121723,
                "name": "Pod Dębem",
                "addr:street": "Społeczna",
                "addr:housenumber": "52",
                "addr:city": "Henryków-Urocze",
                "addr:postcode": "05-504",
                "amenity": "pharmacy"
            },
            "geometry": {
                "type": "Point",
                "coordinates": [
                    20.92521772659057,
                    51.99752427574543
                ]
            }
        },
        {
            "type": "Feature",
            "properties": {
                "ref:csioz": 1170887,
                "name": "Prestige Numer 1",
                "addr:street": "Kazimierza Jarząbka",
                "addr:housenumber": "26",
                "addr:flats": "221",
                "addr:city": "Piaseczno",
                "addr:postcode": "05-500",
                "amenity": "pharmacy"
            },
            "geometry": {
                "type": "Point",
                "coordinates": [
                    21.008823979103738,
                    52.080107048729296
                ]
            }
        },
        {
            "type": "Feature",
            "properties": {
                "ref:csioz": 1088514,
                "name": "Aptekarz Polski",
                "addr:street": "Józefa Piłsudskiego",
                "addr:housenumber": "15",
                "addr:city": "Konstancin-Jeziorna",
                "addr:postcode": "05-510",
                "amenity": "pharmacy"
            },
            "geometry": {
                "type": "Point",
                "coordinates": [
                    21.12063417860523,
                    52.085834655551224
                ]
            }
        },
        {
            "type": "Feature",
            "properties": {
                "ref:csioz": 1088523,
                "addr:street": "Warszawska",
                "addr:housenumber": "44B",
                "addr:city": "Konstancin-Jeziorna",
                "addr:postcode": "05-520",
                "amenity": "pharmacy"
            },
            "geometry": {
                "type": "Point",
                "coordinates": [
                    21.116480607298584,
                    52.098336568765205
                ]
            }
        },
        {
            "type": "Feature",
            "properties": {
                "ref:csioz": 1088551,
                "name": "Pod Wagą",
                "addr:street": "Ludwika Czajewicza",
                "addr:housenumber": "24",
                "addr:city": "Piaseczno",
                "addr:postcode": "05-500",
                "amenity": "pharmacy"
            },
            "geometry": {
                "type": "Point",
                "coordinates": [
                    21.02558300000299,
                    52.068490000015565
                ]
            }
        },
        {
            "type": "Feature",
            "properties": {
                "ref:csioz": 1088572,
                "name": "Apteka Codzienna Joanna Kucińska",
                "addr:street": "Jana Pawła II",
                "addr:housenumber": "24",
                "addr:city": "Piaseczno",
                "addr:postcode": "05-500",
                "amenity": "pharmacy"
            },
            "geometry": {
                "type": "Point",
                "coordinates": [
                    21.020944265121354,
                    52.07506444112625
                ]
            }
        },
        {
            "type": "Feature",
            "properties": {
                "ref:csioz": 1088706,
                "addr:street": "Skrzetuskiego",
                "addr:housenumber": "17",
                "addr:city": "Piaseczno",
                "addr:postcode": "05-502",
                "amenity": "pharmacy"
            },
            "geometry": {
                "type": "Point",
                "coordinates": [
                    20.9867851208071,
                    52.05371765568341
                ]
            }
        },
        {
            "type": "Feature",
            "properties": {
                "ref:csioz": 1088711,
                "addr:street": "Modrzewiowa",
                "addr:housenumber": "2",
                "addr:city": "Piaseczno",
                "addr:postcode": "05-501",
                "amenity": "pharmacy"
            },
            "geometry": {
                "type": "Point",
                "coordinates": [
                    21.008928730302255,
                    52.05706806105252
                ]
            }
        },
        {
            "type": "Feature",
            "properties": {
                "ref:csioz": 1088722,
                "name": "Pod Dębem",
                "addr:street": "Franciszka Ryxa",
                "addr:housenumber": "76A",
                "addr:city": "Prażmów",
                "addr:postcode": "05-505",
                "amenity": "pharmacy"
            },
            "geometry": {
                "type": "Point",
                "coordinates": [
                    20.952140746957117,
                    51.94472526472569
                ]
            }
        },
        {
            "type": "Feature",
            "properties": {
                "ref:csioz": 1088754,
                "name": "Domowa",
                "addr:street": "Łączności",
                "addr:housenumber": "6",
                "addr:city": "Łazy",
                "addr:postcode": "05-552",
                "amenity": "pharmacy"
            },
            "geometry": {
                "type": "Point",
                "coordinates": [
                    20.884988885477643,
                    52.0803264436856
                ]
            }
        },
        {
            "type": "Feature",
            "properties": {
                "ref:csioz": 1090357,
                "name": "Cosmedica",
                "addr:street": "Geodetów",
                "addr:housenumber": "23",
                "addr:city": "Józefosław",
                "addr:postcode": "05-500",
                "amenity": "pharmacy"
            },
            "geometry": {
                "type": "Point",
                "coordinates": [
                    21.037709875690826,
                    52.093145665109596
                ]
            }
        },
        {
            "type": "Feature",
            "properties": {
                "ref:csioz": 1098610,
                "name": "Dział Farmacji Szpitalnej",
                "addr:street": "Wierzejewskiego",
                "addr:housenumber": "12",
                "addr:city": "Konstancin-Jeziorna",
                "addr:postcode": "05-510",
                "amenity": "pharmacy"
            },
            "geometry": {
                "type": "Point",
                "coordinates": [
                    21.113349607870077,
                    52.0825178711382
                ]
            }
        },
        {
            "type": "Feature",
            "properties": {
                "ref:csioz": 1114766,
                "addr:street": "Nadrzeczna",
                "addr:housenumber": "3F",
                "addr:flats": "1",
                "addr:city": "Wólka Kosowska",
                "addr:postcode": "05-552",
                "amenity": "pharmacy"
            },
            "geometry": {
                "type": "Point",
                "coordinates": [
                    20.862235000002144,
                    52.05759900001556
                ]
            }
        },
        {
            "type": "Feature",
            "properties": {
                "ref:csioz": 1120390,
                "name": "Centralna",
                "addr:street": "Puławska",
                "addr:housenumber": "43",
                "addr:flats": "6",
                "addr:city": "Piaseczno",
                "addr:postcode": "05-500",
                "amenity": "pharmacy"
            },
            "geometry": {
                "type": "Point",
                "coordinates": [
                    21.01835232141299,
                    52.09032812235068
                ]
            }
        },
        {
            "type": "Feature",
            "properties": {
                "ref:csioz": 1123546,
                "name": "Zdrowie Piaseczna",
                "addr:street": "Aleja Kalin",
                "addr:housenumber": "55",
                "addr:flats": "6",
                "addr:city": "Piaseczno",
                "addr:postcode": "05-500",
                "amenity": "pharmacy"
            },
            "geometry": {
                "type": "Point",
                "coordinates": [
                    21.036224428470828,
                    52.06314272024871
                ]
            }
        },
        {
            "type": "Feature",
            "properties": {
                "ref:csioz": 1124286,
                "name": "Szpital Wielospecjalistyczny",
                "addr:street": "Gąsiorowskiego",
                "addr:housenumber": "12/14",
                "addr:city": "Konstancin-Jeziorna",
                "addr:postcode": "05-510",
                "amenity": "pharmacy"
            },
            "geometry": {
                "type": "Point",
                "coordinates": [
                    21.103134830182004,
                    52.078948058613804
                ]
            }
        },
        {
            "type": "Feature",
            "properties": {
                "ref:csioz": 1124450,
                "name": "Szpital Rehabilitacji",
                "addr:street": "Sue Ryder",
                "addr:housenumber": "1",
                "addr:city": "Konstancin-Jeziorna",
                "addr:postcode": "05-510",
                "amenity": "pharmacy"
            },
            "geometry": {
                "type": "Point",
                "coordinates": [
                    21.121793294067324,
                    52.06949560094379
                ]
            }
        },
        {
            "type": "Feature",
            "properties": {
                "ref:csioz": 1124475,
                "name": "Lux Med Tabita Niepubliczny Zakład Opiekuńczo-Leczniczy",
                "addr:street": "Długa",
                "addr:housenumber": "43",
                "addr:city": "Konstancin-Jeziorna",
                "addr:postcode": "05-510",
                "amenity": "pharmacy"
            },
            "geometry": {
                "type": "Point",
                "coordinates": [
                    21.088525189179283,
                    52.079275537228646
                ]
            }
        },
        {
            "type": "Feature",
            "properties": {
                "ref:csioz": 1125060,
                "name": "Centralna",
                "addr:street": "Fabryczna",
                "addr:housenumber": "2",
                "addr:flats": "27",
                "addr:city": "Piaseczno",
                "addr:postcode": "05-500",
                "amenity": "pharmacy"
            },
            "geometry": {
                "type": "Point",
                "coordinates": [
                    21.025807203553594,
                    52.07666786527063
                ]
            }
        },
        {
            "type": "Feature",
            "properties": {
                "ref:csioz": 1177858,
                "addr:housenumber": "14",
                "addr:postcode": "05-530",
                "amenity": "pharmacy",
                "addr:place": "Sobików"
            },
            "geometry": {
                "type": "Point",
                "coordinates": [
                    21.136424000003757,
                    51.96074600001542
                ]
            }
        },
        {
            "type": "Feature",
            "properties": {
                "ref:csioz": 1188922,
                "name": "Papaya 6",
                "addr:street": "mjr. Edwarda Ziółkowskiego",
                "addr:housenumber": "8/10",
                "addr:flats": "1",
                "addr:city": "Tarczyn",
                "addr:postcode": "05-555",
                "amenity": "pharmacy"
            },
            "geometry": {
                "type": "Point",
                "coordinates": [
                    20.836344926411545,
                    51.97949633511482
                ]
            }
        },
        {
            "type": "Feature",
            "properties": {
                "ref:csioz": 1195260,
                "name": "Doz Apteka. Dbam O Zdrowie",
                "addr:street": "Łączności",
                "addr:housenumber": "35",
                "addr:city": "Łazy",
                "addr:postcode": "05-552",
                "amenity": "pharmacy"
            },
            "geometry": {
                "type": "Point",
                "coordinates": [
                    20.87861089775655,
                    52.08140847157789
                ]
            }
        },
        {
            "type": "Feature",
            "properties": {
                "ref:csioz": 1200591,
                "name": "Centralna",
                "addr:street": "Tadeusza Kościuszki",
                "addr:housenumber": "39",
                "addr:city": "Piaseczno",
                "addr:postcode": "05-500",
                "amenity": "pharmacy"
            },
            "geometry": {
                "type": "Point",
                "coordinates": [
                    21.027529000003007,
                    52.069199000015594
                ]
            }
        },
        {
            "type": "Feature",
            "properties": {
                "ref:csioz": 1211187,
                "name": "Polna",
                "addr:street": "Polna",
                "addr:housenumber": "1",
                "addr:city": "Wólka Kosowska",
                "addr:postcode": "05-552",
                "amenity": "pharmacy"
            },
            "geometry": {
                "type": "Point",
                "coordinates": [
                    20.853321320081452,
                    52.05796215027738
                ]
            }
        },
        {
            "type": "Feature",
            "properties": {
                "ref:csioz": 1212088,
                "name": "Słoneczna",
                "addr:street": "Powstańców Warszawy",
                "addr:housenumber": "21",
                "addr:city": "Piaseczno",
                "addr:postcode": "05-500",
                "amenity": "pharmacy"
            },
            "geometry": {
                "type": "Point",
                "coordinates": [
                    21.01537287082157,
                    52.07936083514904
                ]
            }
        },
        {
            "type": "Feature",
            "properties": {
                "ref:csioz": 1219675,
                "addr:street": "Łubińska",
                "addr:housenumber": "1A",
                "addr:city": "Łubna",
                "addr:postcode": "05-532",
                "amenity": "pharmacy"
            },
            "geometry": {
                "type": "Point",
                "coordinates": [
                    21.124151576495755,
                    52.02512053275537
                ]
            }
        },
        {
            "type": "Feature",
            "properties": {
                "ref:csioz": 1230353,
                "name": "Rehabilitacja Konstancin",
                "addr:housenumber": "5",
                "addr:postcode": "05-532",
                "amenity": "pharmacy",
                "addr:place": "Szymanów"
            },
            "geometry": {
                "type": "Point",
                "coordinates": [
                    21.114279678221326,
                    52.04415110620432
                ]
            }
        },
        {
            "type": "Feature",
            "properties": {
                "ref:csioz": 1230791,
                "name": "A&B",
                "addr:street": "Antoniego Wierzejewskiego",
                "addr:housenumber": "12",
                "addr:city": "Konstancin-Jeziorna",
                "addr:postcode": "05-510",
                "amenity": "pharmacy"
            },
            "geometry": {
                "type": "Point",
                "coordinates": [
                    21.113077000003553,
                    52.0819130000156
                ]
            }
        },
        {
            "type": "Feature",
            "properties": {
                "ref:csioz": 1088595,
                "name": "Z Uśmiechem",
                "addr:street": "Tadeusza Kościuszki",
                "addr:housenumber": "33",
                "addr:city": "Piaseczno",
                "addr:postcode": "05-500",
                "amenity": "pharmacy"
            },
            "geometry": {
                "type": "Point",
                "coordinates": [
                    21.027243000003,
                    52.069717000015594
                ]
            }
        },
        {
            "type": "Feature",
            "properties": {
                "ref:csioz": 1088630,
                "name": "Apteka Od Serca",
                "addr:street": "gen. Leopolda Okulickiego",
                "addr:housenumber": "10",
                "addr:city": "Piaseczno",
                "addr:postcode": "05-500",
                "amenity": "pharmacy"
            },
            "geometry": {
                "type": "Point",
                "coordinates": [
                    21.027689000002997,
                    52.0814370000156
                ]
            }
        },
        {
            "type": "Feature",
            "properties": {
                "ref:csioz": 1088674,
                "addr:street": "Puławska",
                "addr:housenumber": "46",
                "addr:city": "Piaseczno",
                "addr:postcode": "05-500",
                "amenity": "pharmacy"
            },
            "geometry": {
                "type": "Point",
                "coordinates": [
                    21.02100100325508,
                    52.09346368408944
                ]
            }
        },
        {
            "type": "Feature",
            "properties": {
                "ref:csioz": 1088765,
                "name": "Salus",
                "addr:street": "Józefa Górskiego",
                "addr:housenumber": "4A",
                "addr:city": "Mroków",
                "addr:postcode": "05-552",
                "amenity": "pharmacy"
            },
            "geometry": {
                "type": "Point",
                "coordinates": [
                    20.857952636108983,
                    52.03902184275355
                ]
            }
        },
        {
            "type": "Feature",
            "properties": {
                "ref:csioz": 1088779,
                "name": "\"Cef@Rm 36,6\"",
                "addr:street": "Wiekowej Sosny",
                "addr:housenumber": "58",
                "addr:city": "Zalesie Górne",
                "addr:postcode": "05-540",
                "amenity": "pharmacy"
            },
            "geometry": {
                "type": "Point",
                "coordinates": [
                    21.040325983526184,
                    52.02223883575045
                ]
            }
        },
        {
            "type": "Feature",
            "properties": {
                "ref:csioz": 1089744,
                "name": "Słodka Mgr Farm. Beata Słodka-Paczkowska",
                "addr:street": "Fryderyka Chopina",
                "addr:housenumber": "2",
                "addr:city": "Góra Kalwaria",
                "addr:postcode": "05-530",
                "amenity": "pharmacy"
            },
            "geometry": {
                "type": "Point",
                "coordinates": [
                    21.1977322406132,
                    51.98790166834632
                ]
            }
        },
        {
            "type": "Feature",
            "properties": {
                "ref:csioz": 1090228,
                "name": "Od Serca",
                "addr:street": "Słowicza",
                "addr:housenumber": "1A",
                "addr:city": "Ustanów",
                "addr:postcode": "05-540",
                "amenity": "pharmacy"
            },
            "geometry": {
                "type": "Point",
                "coordinates": [
                    21.03919820131167,
                    52.00946127871442
                ]
            }
        },
        {
            "type": "Feature",
            "properties": {
                "ref:csioz": 1090478,
                "name": "49",
                "addr:street": "Puławska",
                "addr:housenumber": "49",
                "addr:city": "Piaseczno",
                "addr:postcode": "05-500",
                "amenity": "pharmacy"
            },
            "geometry": {
                "type": "Point",
                "coordinates": [
                    21.018258957056617,
                    52.09731522723836
                ]
            }
        },
        {
            "type": "Feature",
            "properties": {
                "ref:csioz": 1114484,
                "name": "Panaceum",
                "addr:street": "Raszyńska",
                "addr:housenumber": "16",
                "addr:city": "Piaseczno",
                "addr:postcode": "05-500",
                "amenity": "pharmacy"
            },
            "geometry": {
                "type": "Point",
                "coordinates": [
                    21.01526732520517,
                    52.09205466922482
                ]
            }
        },
        {
            "type": "Feature",
            "properties": {
                "ref:csioz": 1117943,
                "addr:street": "Warszawska",
                "addr:housenumber": "28",
                "addr:city": "Konstancin-Jeziorna",
                "addr:postcode": "05-520",
                "amenity": "pharmacy"
            },
            "geometry": {
                "type": "Point",
                "coordinates": [
                    21.117406198034434,
                    52.095216986867435
                ]
            }
        },
        {
            "type": "Feature",
            "properties": {
                "ref:csioz": 1118004,
                "name": "Przy Biedronce",
                "addr:street": "Puławska",
                "addr:housenumber": "14",
                "addr:city": "Baniocha",
                "addr:postcode": "05-532",
                "amenity": "pharmacy"
            },
            "geometry": {
                "type": "Point",
                "coordinates": [
                    21.12614590607055,
                    52.022098973952446
                ]
            }
        },
        {
            "type": "Feature",
            "properties": {
                "ref:csioz": 1124362,
                "name": "Niepubliczny Zakład Opieki Zdrowotnej Szpital Św. Anny W Piasecznie",
                "addr:street": "Mickiewicza",
                "addr:housenumber": "39",
                "addr:city": "Piaseczno",
                "addr:postcode": "05-500",
                "amenity": "pharmacy"
            },
            "geometry": {
                "type": "Point",
                "coordinates": [
                    21.025287389872016,
                    52.0625544960878
                ]
            }
        },
        {
            "type": "Feature",
            "properties": {
                "ref:csioz": 1199189,
                "name": "Farmacja24",
                "addr:street": "Powstańców Warszawy",
                "addr:housenumber": "29",
                "addr:city": "Piaseczno",
                "addr:postcode": "05-500",
                "amenity": "pharmacy"
            },
            "geometry": {
                "type": "Point",
                "coordinates": [
                    21.014902000002916,
                    52.081021000015596
                ]
            }
        },
        {
            "type": "Feature",
            "properties": {
                "ref:csioz": 1088477,
                "addr:street": "Dominikańska",
                "addr:housenumber": "2/4",
                "addr:city": "Góra Kalwaria",
                "addr:postcode": "05-530",
                "amenity": "pharmacy"
            },
            "geometry": {
                "type": "Point",
                "coordinates": [
                    21.21511521463954,
                    51.98137413001798
                ]
            }
        },
        {
            "type": "Feature",
            "properties": {
                "ref:csioz": 1088490,
                "addr:street": "Aleja Wojska Polskiego",
                "addr:housenumber": "3",
                "addr:city": "Konstancin-Jeziorna",
                "addr:postcode": "05-520",
                "amenity": "pharmacy"
            },
            "geometry": {
                "type": "Point",
                "coordinates": [
                    21.121922528071575,
                    52.09091937067844
                ]
            }
        },
        {
            "type": "Feature",
            "properties": {
                "ref:csioz": 1088509,
                "addr:street": "Mirkowska",
                "addr:housenumber": "56",
                "addr:city": "Konstancin-Jeziorna",
                "addr:postcode": "05-520",
                "amenity": "pharmacy"
            },
            "geometry": {
                "type": "Point",
                "coordinates": [
                    21.13534567682493,
                    52.09734054874736
                ]
            }
        },
        {
            "type": "Feature",
            "properties": {
                "ref:csioz": 1088538,
                "name": "Apteka Skolimowska",
                "addr:street": "Wojewódzka",
                "addr:housenumber": "16",
                "addr:city": "Konstancin-Jeziorna",
                "addr:postcode": "05-520",
                "amenity": "pharmacy"
            },
            "geometry": {
                "type": "Point",
                "coordinates": [
                    21.101625000003484,
                    52.0776510000156
                ]
            }
        },
        {
            "type": "Feature",
            "properties": {
                "ref:csioz": 1088567,
                "addr:street": "Fabryczna",
                "addr:housenumber": "2",
                "addr:city": "Piaseczno",
                "addr:postcode": "05-520",
                "amenity": "pharmacy"
            },
            "geometry": {
                "type": "Point",
                "coordinates": [
                    21.025807203553594,
                    52.07666786527063
                ]
            }
        },
        {
            "type": "Feature",
            "properties": {
                "ref:csioz": 1089967,
                "name": "Główna",
                "addr:street": "Wojska Polskiego",
                "addr:housenumber": "28",
                "addr:flats": "78",
                "addr:city": "Piaseczno",
                "addr:postcode": "05-500",
                "amenity": "pharmacy"
            },
            "geometry": {
                "type": "Point",
                "coordinates": [
                    21.022523894539145,
                    52.072825907084344
                ]
            }
        },
        {
            "type": "Feature",
            "properties": {
                "ref:csioz": 1090159,
                "name": "Doz Apteka Dbam O Zdrowie",
                "addr:street": "Wilanowska",
                "addr:housenumber": "10",
                "addr:city": "Konstancin-Jeziorna",
                "addr:postcode": "05-520",
                "amenity": "pharmacy"
            },
            "geometry": {
                "type": "Point",
                "coordinates": [
                    21.123885376014087,
                    52.08755356346986
                ]
            }
        },
        {
            "type": "Feature",
            "properties": {
                "ref:csioz": 1090289,
                "name": "Julianowska",
                "addr:street": "Julianowska",
                "addr:housenumber": "88J",
                "addr:flats": "1",
                "addr:city": "Julianów",
                "addr:postcode": "05-550",
                "amenity": "pharmacy"
            },
            "geometry": {
                "type": "Point",
                "coordinates": [
                    21.053886045038855,
                    52.09685961330084
                ]
            }
        },
        {
            "type": "Feature",
            "properties": {
                "ref:csioz": 1090486,
                "name": "Niskich Cen",
                "addr:street": "Błędna",
                "addr:housenumber": "14C",
                "addr:city": "Zamienie",
                "addr:postcode": "05-500",
                "amenity": "pharmacy"
            },
            "geometry": {
                "type": "Point",
                "coordinates": [
                    20.977990365957993,
                    52.11532855976371
                ]
            }
        },
        {
            "type": "Feature",
            "properties": {
                "ref:csioz": 1090493,
                "addr:street": "Kazimierza Pułaskiego",
                "addr:housenumber": "20F",
                "addr:city": "Konstancin-Jeziorna",
                "addr:postcode": "05-510",
                "amenity": "pharmacy"
            },
            "geometry": {
                "type": "Point",
                "coordinates": [
                    21.08393631292529,
                    52.08425347777203
                ]
            }
        },
        {
            "type": "Feature",
            "properties": {
                "ref:csioz": 1094694,
                "name": "Nasza",
                "addr:street": "Rynek",
                "addr:housenumber": "37",
                "addr:city": "Tarczyn",
                "addr:postcode": "05-555",
                "amenity": "pharmacy"
            },
            "geometry": {
                "type": "Point",
                "coordinates": [
                    20.833491369924214,
                    51.979407483869025
                ]
            }
        },
        {
            "type": "Feature",
            "properties": {
                "ref:csioz": 1113746,
                "name": "Złotej Jesieni Dorota Tucholska-Owczarczyk",
                "addr:street": "Złotej Jesieni",
                "addr:housenumber": "2A",
                "addr:city": "Zalesie Górne",
                "addr:postcode": "05-540",
                "amenity": "pharmacy"
            },
            "geometry": {
                "type": "Point",
                "coordinates": [
                    21.03002002101946,
                    52.02968733677169
                ]
            }
        },
        {
            "type": "Feature",
            "properties": {
                "ref:csioz": 1113767,
                "name": "Dr Zdrowie",
                "addr:street": "Warszawska",
                "addr:housenumber": "94",
                "addr:city": "Bielawa",
                "addr:postcode": "05-520",
                "amenity": "pharmacy"
            },
            "geometry": {
                "type": "Point",
                "coordinates": [
                    21.114627631243476,
                    52.107983237695365
                ]
            }
        },
        {
            "type": "Feature",
            "properties": {
                "ref:csioz": 1115572,
                "addr:street": "Dominikańska",
                "addr:housenumber": "8",
                "addr:city": "Góra Kalwaria",
                "addr:postcode": "05-530",
                "amenity": "pharmacy"
            },
            "geometry": {
                "type": "Point",
                "coordinates": [
                    21.21572186626073,
                    51.9800898423342
                ]
            }
        },
        {
            "type": "Feature",
            "properties": {
                "ref:csioz": 1119319,
                "name": "Nefrytowa",
                "addr:street": "Nefrytowa",
                "addr:housenumber": "16",
                "addr:city": "Piaseczno",
                "addr:postcode": "05-500",
                "amenity": "pharmacy"
            },
            "geometry": {
                "type": "Point",
                "coordinates": [
                    21.028940606008838,
                    52.0949557901013
                ]
            }
        },
        {
            "type": "Feature",
            "properties": {
                "ref:csioz": 1177940,
                "name": "Konstancja Zol",
                "addr:street": "Lipowa",
                "addr:housenumber": "1",
                "addr:city": "Bielawa",
                "addr:postcode": "05-520",
                "amenity": "pharmacy"
            },
            "geometry": {
                "type": "Point",
                "coordinates": [
                    21.130933085565903,
                    52.10680942703832
                ]
            }
        },
        {
            "type": "Feature",
            "properties": {
                "ref:csioz": 1187593,
                "name": "Amica",
                "addr:street": "Warszawska",
                "addr:housenumber": "63",
                "addr:city": "Konstancin-Jeziorna",
                "addr:postcode": "05-520",
                "amenity": "pharmacy"
            },
            "geometry": {
                "type": "Point",
                "coordinates": [
                    21.114437141614847,
                    52.101592319256895
                ]
            }
        },
        {
            "type": "Feature",
            "properties": {
                "ref:csioz": 1197450,
                "name": "Sieciowa",
                "addr:street": "Pijarska",
                "addr:housenumber": "65",
                "addr:city": "Góra Kalwaria",
                "addr:postcode": "05-530",
                "amenity": "pharmacy"
            },
            "geometry": {
                "type": "Point",
                "coordinates": [
                    21.21206943550161,
                    51.9859780327703
                ]
            }
        },
        {
            "type": "Feature",
            "properties": {
                "ref:csioz": 1199759,
                "name": "Farmacja24",
                "addr:street": "Puławska",
                "addr:housenumber": "30",
                "addr:city": "Piaseczno",
                "addr:postcode": "05-500",
                "amenity": "pharmacy"
            },
            "geometry": {
                "type": "Point",
                "coordinates": [
                    21.02537596729846,
                    52.07868258434618
                ]
            }
        },
        {
            "type": "Feature",
            "properties": {
                "ref:csioz": 1200588,
                "name": "Centralna",
                "addr:street": "Nadarzyńska",
                "addr:housenumber": "1",
                "addr:city": "Piaseczno",
                "addr:postcode": "05-500",
                "amenity": "pharmacy"
            },
            "geometry": {
                "type": "Point",
                "coordinates": [
                    21.02658336351985,
                    52.07181723904833
                ]
            }
        },
        {
            "type": "Feature",
            "properties": {
                "ref:csioz": 1206428,
                "name": "Przyjazna",
                "addr:street": "Świetlicowa",
                "addr:housenumber": "7/9",
                "addr:city": "Konstancin-Jeziorna",
                "addr:postcode": "05-520",
                "amenity": "pharmacy"
            },
            "geometry": {
                "type": "Point",
                "coordinates": [
                    21.122000566604594,
                    52.09709718557687
                ]
            }
        },
        {
            "type": "Feature",
            "properties": {
                "ref:csioz": 1211154,
                "name": "Papaya 8",
                "addr:street": "Plac Marszałka Piłsudskiego",
                "addr:housenumber": "6",
                "addr:city": "Piaseczno",
                "addr:postcode": "05-500",
                "amenity": "pharmacy"
            },
            "geometry": {
                "type": "Point",
                "coordinates": [
                    21.028401000003008,
                    52.074565000015596
                ]
            }
        },
        {
            "type": "Feature",
            "properties": {
                "ref:csioz": 1213465,
                "name": "Szpital Ambroziak Oddział Piaseczno",
                "addr:street": "Młynarska",
                "addr:housenumber": "2",
                "addr:city": "Piaseczno",
                "addr:postcode": "05-500",
                "amenity": "pharmacy"
            },
            "geometry": {
                "type": "Point",
                "coordinates": [
                    21.02623191015011,
                    52.07760696133292
                ]
            }
        },
        {
            "type": "Feature",
            "properties": {
                "ref:csioz": 1228633,
                "name": "Ośrodek Terapeutyczny Alira",
                "addr:street": "Zielonych Sosen",
                "addr:housenumber": "4",
                "addr:city": "Ławki",
                "addr:postcode": "05-505",
                "amenity": "pharmacy"
            },
            "geometry": {
                "type": "Point",
                "coordinates": [
                    21.068194506934244,
                    51.94974534085267
                ]
            }
        },
        {
            "type": "Feature",
            "properties": {
                "ref:csioz": 1228640,
                "name": "Super-Pharm Apteka",
                "addr:street": "Nowa",
                "addr:housenumber": "4A",
                "addr:flats": "B.05",
                "addr:city": "Stara Iwiczna",
                "addr:postcode": "05-500",
                "amenity": "pharmacy"
            },
            "geometry": {
                "type": "Point",
                "coordinates": [
                    21.011326390306074,
                    52.082425940528324
                ]
            }
        },
        {
            "type": "Feature",
            "properties": {
                "ref:csioz": 1229571,
                "name": "Detox Vip",
                "addr:street": "Leśna",
                "addr:housenumber": "30",
                "addr:city": "Magdalenka",
                "addr:postcode": "05-506",
                "amenity": "pharmacy"
            },
            "geometry": {
                "type": "Point",
                "coordinates": [
                    20.905664499114533,
                    52.09735356307401
                ]
            }
        },
        {
            "type": "Feature",
            "properties": {
                "ref:csioz": 1088546,
                "addr:street": "Słoneczna",
                "addr:housenumber": "275",
                "addr:city": "Magdalenka",
                "addr:postcode": "05-506",
                "amenity": "pharmacy"
            },
            "geometry": {
                "type": "Point",
                "coordinates": [
                    20.909185007473706,
                    52.098091109593895
                ]
            }
        },
        {
            "type": "Feature",
            "properties": {
                "ref:csioz": 1090290,
                "name": "Apteka Słoneczna",
                "addr:street": "Fabryczna",
                "addr:housenumber": "32",
                "addr:city": "Piaseczno",
                "addr:postcode": "05-500",
                "amenity": "pharmacy"
            },
            "geometry": {
                "type": "Point",
                "coordinates": [
                    21.01849773554044,
                    52.07566817233674
                ]
            }
        }
    ]
}