{
    "type": "FeatureCollection",
    "name": "JPT_KOD_JE_3001",
    "features": [
        {
            "type": "Feature",
            "properties": {
                "ref:csioz": 1042797,
                "name": "Nova",
                "addr:street": "Rynek",
                "addr:housenumber": "8i10",
                "addr:city": "Szamocin",
                "addr:postcode": "64-820",
                "amenity": "pharmacy"
            },
            "geometry": {
                "type": "Point",
                "coordinates": [
                    17.12412999999786,
                    53.02955400001713
                ]
            }
        },
        {
            "type": "Feature",
            "properties": {
                "ref:csioz": 1042984,
                "name": "Dr. Max",
                "addr:street": "MAŁACHOWSKIEGO",
                "addr:housenumber": "2",
                "addr:city": "CHODZIEŻ",
                "addr:postcode": "64-800",
                "amenity": "pharmacy"
            },
            "geometry": {
                "type": "Point",
                "coordinates": [
                    16.917641184185857,
                    52.986905426635474
                ]
            }
        },
        {
            "type": "Feature",
            "properties": {
                "ref:csioz": 1043006,
                "name": "Przy Polnej",
                "addr:street": "Polna",
                "addr:housenumber": "2A",
                "addr:city": "Margonin",
                "addr:postcode": "64-830",
                "amenity": "pharmacy"
            },
            "geometry": {
                "type": "Point",
                "coordinates": [
                    17.09659565149594,
                    52.974445349529006
                ]
            }
        },
        {
            "type": "Feature",
            "properties": {
                "ref:csioz": 1043011,
                "name": "Apteka Dbam O Zdrowie",
                "addr:street": "Jagiellońska",
                "addr:housenumber": "22",
                "addr:city": "Chodzież",
                "addr:postcode": "64-800",
                "amenity": "pharmacy"
            },
            "geometry": {
                "type": "Point",
                "coordinates": [
                    16.911143840063318,
                    52.98917497543412
                ]
            }
        },
        {
            "type": "Feature",
            "properties": {
                "ref:csioz": 1043185,
                "name": "Przy Rynku",
                "addr:street": "Wojska Polskiego",
                "addr:housenumber": "1",
                "addr:city": "Chodzież",
                "addr:postcode": "64-800",
                "amenity": "pharmacy"
            },
            "geometry": {
                "type": "Point",
                "coordinates": [
                    16.917927007437022,
                    52.99240818872432
                ]
            }
        },
        {
            "type": "Feature",
            "properties": {
                "ref:csioz": 1043632,
                "name": "Pod Orłem",
                "addr:street": "Bugaje",
                "addr:housenumber": "2",
                "addr:city": "Budzyń",
                "addr:postcode": "64-840",
                "amenity": "pharmacy"
            },
            "geometry": {
                "type": "Point",
                "coordinates": [
                    16.98389298146571,
                    52.889477446757155
                ]
            }
        },
        {
            "type": "Feature",
            "properties": {
                "ref:csioz": 1044097,
                "name": "Pod Jarzębinami",
                "addr:housenumber": "22",
                "addr:city": "Wyszyny",
                "addr:postcode": "64-834",
                "amenity": "pharmacy"
            },
            "geometry": {
                "type": "Point",
                "coordinates": [
                    16.85830130133863,
                    52.89104340476819
                ]
            }
        },
        {
            "type": "Feature",
            "properties": {
                "ref:csioz": 1044202,
                "name": "Pod Eskulapem",
                "addr:street": "Rynkowa",
                "addr:housenumber": "29",
                "addr:city": "Budzyń",
                "addr:postcode": "64-840",
                "amenity": "pharmacy"
            },
            "geometry": {
                "type": "Point",
                "coordinates": [
                    16.985096988287783,
                    52.891031748720906
                ]
            }
        },
        {
            "type": "Feature",
            "properties": {
                "ref:csioz": 1172385,
                "name": "Chodzieskie Centrum Zdrowia",
                "addr:street": "Prymasa Stefana Wyszyńskiego",
                "addr:housenumber": "1A",
                "addr:city": "Chodzież",
                "addr:postcode": "64-800",
                "amenity": "pharmacy"
            },
            "geometry": {
                "type": "Point",
                "coordinates": [
                    16.913228358949418,
                    52.99298105028683
                ]
            }
        },
        {
            "type": "Feature",
            "properties": {
                "ref:csioz": 1194392,
                "name": "Doz Apteka Dbam O Zdrowie. Centrum",
                "addr:street": "Dworcowa",
                "addr:housenumber": "17a",
                "addr:city": "Budzyń",
                "addr:postcode": "64-840",
                "amenity": "pharmacy"
            },
            "geometry": {
                "type": "Point",
                "coordinates": [
                    16.97872152132125,
                    52.8907275308566
                ]
            }
        },
        {
            "type": "Feature",
            "properties": {
                "ref:csioz": 1204150,
                "name": "Rynkowa",
                "addr:street": "Rynkowa",
                "addr:housenumber": "23",
                "addr:city": "Budzyń",
                "addr:postcode": "64-840",
                "amenity": "pharmacy"
            },
            "geometry": {
                "type": "Point",
                "coordinates": [
                    16.9855573979218,
                    52.890899454161925
                ]
            }
        },
        {
            "type": "Feature",
            "properties": {
                "ref:csioz": 1223147,
                "addr:street": "Stefana Żeromskiego",
                "addr:housenumber": "29",
                "addr:city": "Chodzież",
                "addr:postcode": "64-800",
                "amenity": "pharmacy"
            },
            "geometry": {
                "type": "Point",
                "coordinates": [
                    16.91477925591498,
                    52.987895349056714
                ]
            }
        },
        {
            "type": "Feature",
            "properties": {
                "ref:csioz": 1026911,
                "name": "Doz Apteka Dbam O Zdrowie.Centrum",
                "addr:street": "Wojska Polskiego",
                "addr:housenumber": "20",
                "addr:flats": "1",
                "addr:city": "Chodzież",
                "addr:postcode": "64-800",
                "amenity": "pharmacy"
            },
            "geometry": {
                "type": "Point",
                "coordinates": [
                    16.919787697667754,
                    52.99231892094371
                ]
            }
        },
        {
            "type": "Feature",
            "properties": {
                "ref:csioz": 1042708,
                "name": "Przy Rynku",
                "addr:street": "Rynek",
                "addr:housenumber": "2",
                "addr:city": "Szamocin",
                "addr:postcode": "64-820",
                "amenity": "pharmacy"
            },
            "geometry": {
                "type": "Point",
                "coordinates": [
                    17.12336316784229,
                    53.02942661133741
                ]
            }
        },
        {
            "type": "Feature",
            "properties": {
                "ref:csioz": 1042756,
                "name": "Doz Apteka Dbam O Zdrowie.Na Żeromskiego",
                "addr:street": "Stefana Żeromskiego",
                "addr:housenumber": "26",
                "addr:city": "Chodzież",
                "addr:postcode": "64-800",
                "amenity": "pharmacy"
            },
            "geometry": {
                "type": "Point",
                "coordinates": [
                    16.914819079993347,
                    52.98882089642737
                ]
            }
        },
        {
            "type": "Feature",
            "properties": {
                "ref:csioz": 1043352,
                "name": "Apteka Leków Gotowych-Mgr Farm. Maria Winiecka",
                "addr:street": "Władysława Reymonta",
                "addr:housenumber": "14",
                "addr:city": "Chodzież",
                "addr:postcode": "64-800",
                "amenity": "pharmacy"
            },
            "geometry": {
                "type": "Point",
                "coordinates": [
                    16.922969999996855,
                    52.993925000017065
                ]
            }
        },
        {
            "type": "Feature",
            "properties": {
                "ref:csioz": 1043543,
                "name": "Pharmakon",
                "addr:street": "Rynek",
                "addr:housenumber": "26",
                "addr:city": "Margonin",
                "addr:postcode": "64-830",
                "amenity": "pharmacy"
            },
            "geometry": {
                "type": "Point",
                "coordinates": [
                    17.097795620683197,
                    52.97171774863271
                ]
            }
        },
        {
            "type": "Feature",
            "properties": {
                "ref:csioz": 1043581,
                "name": "Pod Łabędziem",
                "addr:street": "Ignacego Jana Paderewskiego",
                "addr:housenumber": "10",
                "addr:city": "Chodzież",
                "addr:postcode": "64-800",
                "amenity": "pharmacy"
            },
            "geometry": {
                "type": "Point",
                "coordinates": [
                    16.915975344149572,
                    52.99490973969597
                ]
            }
        },
        {
            "type": "Feature",
            "properties": {
                "ref:csioz": 1179556,
                "name": "Apteka Dr. Optima",
                "addr:street": "Tadeusza Kościuszki",
                "addr:housenumber": "30",
                "addr:city": "Chodzież",
                "addr:postcode": "64-800",
                "amenity": "pharmacy"
            },
            "geometry": {
                "type": "Point",
                "coordinates": [
                    16.911612937530354,
                    52.99066000934792
                ]
            }
        }
    ]
}