{
    "type": "FeatureCollection",
    "name": "JPT_KOD_JE_3217",
    "features": [
        {
            "type": "Feature",
            "properties": {
                "ref:csioz": 1147669,
                "name": "Apteka Nowa",
                "addr:street": "Polna",
                "addr:housenumber": "23",
                "addr:city": "Mirosławiec",
                "addr:postcode": "78-650",
                "amenity": "pharmacy",
                "dispensing": "yes"
            },
            "geometry": {
                "type": "Point",
                "coordinates": [
                    16.08389767540564,
                    53.339898878848516
                ]
            }
        },
        {
            "type": "Feature",
            "properties": {
                "ref:csioz": 1152599,
                "name": "Centralna",
                "addr:street": "Kilińszczaków",
                "addr:housenumber": "53",
                "addr:city": "Wałcz",
                "addr:postcode": "78-600",
                "amenity": "pharmacy",
                "dispensing": "yes"
            },
            "geometry": {
                "type": "Point",
                "coordinates": [
                    16.469157555399104,
                    53.27210221889613
                ]
            }
        },
        {
            "type": "Feature",
            "properties": {
                "ref:csioz": 1139751,
                "name": "\"Doz Apteka.Dbam O Zdrowie. W 'Podkowie'\"",
                "addr:street": "Tęczowa",
                "addr:housenumber": "\"5 , 7\"",
                "addr:city": "Wałcz",
                "addr:postcode": "78-600",
                "amenity": "pharmacy",
                "dispensing": "yes"
            },
            "geometry": {
                "type": "Point",
                "coordinates": [
                    16.47069999999298,
                    53.272925000017565
                ]
            }
        },
        {
            "type": "Feature",
            "properties": {
                "ref:csioz": 1139963,
                "name": "Dbam O Zdrowie",
                "addr:street": "Budowlanych",
                "addr:housenumber": "3",
                "addr:city": "Wałcz",
                "addr:postcode": "76-100",
                "amenity": "pharmacy",
                "dispensing": "yes"
            },
            "geometry": {
                "type": "Point",
                "coordinates": [
                    16.487003124601245,
                    53.275061362823585
                ]
            }
        },
        {
            "type": "Feature",
            "properties": {
                "ref:csioz": 1147702,
                "name": "Pod Gwiazdą",
                "addr:street": "Aleja Tysiąclecia",
                "addr:housenumber": "2a",
                "addr:city": "Wałcz",
                "addr:postcode": "78-600",
                "amenity": "pharmacy",
                "dispensing": "yes"
            },
            "geometry": {
                "type": "Point",
                "coordinates": [
                    16.48057498358522,
                    53.27483331112835
                ]
            }
        },
        {
            "type": "Feature",
            "properties": {
                "ref:csioz": 1152793,
                "name": "\"Apteka \"\"Wrzosowa\"\"\"",
                "addr:street": "Witosa",
                "addr:housenumber": "10b",
                "addr:city": "Człopa",
                "addr:postcode": "78-630",
                "amenity": "pharmacy",
                "dispensing": "yes"
            },
            "geometry": {
                "type": "Point",
                "coordinates": [
                    16.12261669997451,
                    53.08608208239496
                ]
            }
        },
        {
            "type": "Feature",
            "properties": {
                "ref:csioz": 1152637,
                "name": "Apteka Dbam O Zdrowie",
                "addr:street": "Budowlanych",
                "addr:housenumber": "1b",
                "addr:city": "Wałcz",
                "addr:postcode": "78-600",
                "amenity": "pharmacy",
                "dispensing": "yes"
            },
            "geometry": {
                "type": "Point",
                "coordinates": [
                    16.486816516314573,
                    53.27615379858002
                ]
            }
        },
        {
            "type": "Feature",
            "properties": {
                "ref:csioz": 1152801,
                "name": "\"Apteka \"\"W Przychodni\"\"\"",
                "addr:street": "Kościuszkowców",
                "addr:housenumber": "10",
                "addr:city": "Wałcz",
                "addr:postcode": "78-600",
                "amenity": "pharmacy",
                "dispensing": "yes"
            },
            "geometry": {
                "type": "Point",
                "coordinates": [
                    16.46808445537991,
                    53.272515709465665
                ]
            }
        },
        {
            "type": "Feature",
            "properties": {
                "ref:csioz": 1152817,
                "name": "\"Apteka \"\"Ratuszowa\"\"\"",
                "addr:street": "Ks. Domańskiego",
                "addr:housenumber": "13",
                "addr:city": "Wałcz",
                "addr:postcode": "78-600",
                "amenity": "pharmacy",
                "dispensing": "yes"
            },
            "geometry": {
                "type": "Point",
                "coordinates": [
                    16.466480335232074,
                    53.271363492838034
                ]
            }
        },
        {
            "type": "Feature",
            "properties": {
                "ref:csioz": 1199924,
                "name": "\"Apteka \"\"Przy Szpitalu\"\"\"",
                "addr:street": "Kołobrzeska",
                "addr:housenumber": "44",
                "addr:city": "Wałcz",
                "addr:postcode": "78-600",
                "amenity": "pharmacy",
                "dispensing": "yes"
            },
            "geometry": {
                "type": "Point",
                "coordinates": [
                    16.46021199999285,
                    53.28239800001758
                ]
            }
        },
        {
            "type": "Feature",
            "properties": {
                "ref:csioz": 1200818,
                "name": "Doz Apteka Dbam O Zdrowie. Centrum",
                "addr:street": "Kilińszczaków",
                "addr:housenumber": "60-64",
                "addr:city": "Wałcz",
                "addr:postcode": "78-600",
                "amenity": "pharmacy",
                "dispensing": "yes"
            },
            "geometry": {
                "type": "Point",
                "coordinates": [
                    16.468301450797583,
                    53.271397347835
                ]
            }
        },
        {
            "type": "Feature",
            "properties": {
                "ref:csioz": 1147484,
                "name": "Słoneczna",
                "addr:street": "Spokojna",
                "addr:housenumber": "1a",
                "addr:city": "Mirosławiec",
                "addr:postcode": "78-650",
                "amenity": "pharmacy",
                "dispensing": "yes"
            },
            "geometry": {
                "type": "Point",
                "coordinates": [
                    16.086235456989986,
                    53.34263584483588
                ]
            }
        },
        {
            "type": "Feature",
            "properties": {
                "ref:csioz": 1147579,
                "name": "Retro",
                "addr:street": "Wolności",
                "addr:housenumber": "8",
                "addr:city": "Tuczno",
                "addr:postcode": "78-640",
                "amenity": "pharmacy",
                "dispensing": "yes"
            },
            "geometry": {
                "type": "Point",
                "coordinates": [
                    16.156412930996563,
                    53.194934931219656
                ]
            }
        },
        {
            "type": "Feature",
            "properties": {
                "ref:csioz": 1147766,
                "name": "Jas-Farm",
                "addr:street": "Wolności",
                "addr:housenumber": "20",
                "addr:city": "Tuczno",
                "addr:postcode": "78-640",
                "amenity": "pharmacy",
                "dispensing": "yes"
            },
            "geometry": {
                "type": "Point",
                "coordinates": [
                    16.15774274380142,
                    53.19636701628632
                ]
            }
        },
        {
            "type": "Feature",
            "properties": {
                "ref:csioz": 1147789,
                "name": "Aspirynka",
                "addr:street": "Plac Zwycięstwa",
                "addr:housenumber": "2",
                "addr:city": "Człopa",
                "addr:postcode": "78-630",
                "amenity": "pharmacy",
                "dispensing": "yes"
            },
            "geometry": {
                "type": "Point",
                "coordinates": [
                    16.121158970581305,
                    53.087615946330246
                ]
            }
        },
        {
            "type": "Feature",
            "properties": {
                "ref:csioz": 1148006,
                "addr:street": "Wojska Polskiego",
                "addr:housenumber": "12",
                "addr:city": "Wałcz",
                "addr:postcode": "78-600",
                "amenity": "pharmacy",
                "dispensing": "yes"
            },
            "geometry": {
                "type": "Point",
                "coordinates": [
                    16.477399955085218,
                    53.27404429533963
                ]
            }
        },
        {
            "type": "Feature",
            "properties": {
                "ref:csioz": 1164426,
                "name": "\"Apteka \"\"Dolne Miasto\"\"\"",
                "addr:street": "12 Lutego",
                "addr:housenumber": "9",
                "addr:city": "Wałcz",
                "addr:postcode": "78-600",
                "amenity": "pharmacy",
                "dispensing": "yes"
            },
            "geometry": {
                "type": "Point",
                "coordinates": [
                    16.461341999992857,
                    53.264794000017545
                ]
            }
        },
        {
            "type": "Feature",
            "properties": {
                "ref:csioz": 1175036,
                "addr:street": "Staszica",
                "addr:housenumber": "5",
                "addr:city": "Tuczno",
                "addr:postcode": "78-640",
                "amenity": "pharmacy",
                "dispensing": "yes"
            },
            "geometry": {
                "type": "Point",
                "coordinates": [
                    16.16017787864887,
                    53.19151383565127
                ]
            }
        },
        {
            "type": "Feature",
            "properties": {
                "ref:csioz": 1200527,
                "name": "107 Szpital Wojskowy Z Przychodnią Samodzielny Publiczny Zakład Opieki Zdrowotnej",
                "addr:street": "Kołobrzeska",
                "addr:housenumber": "44",
                "addr:city": "Wałcz",
                "addr:postcode": "78-600",
                "amenity": "pharmacy",
                "dispensing": "yes"
            },
            "geometry": {
                "type": "Point",
                "coordinates": [
                    16.46021199999285,
                    53.28239800001758
                ]
            }
        },
        {
            "type": "Feature",
            "properties": {
                "ref:csioz": 1209172,
                "name": "Apteka Gemini",
                "addr:street": "Kilińszczaków",
                "addr:housenumber": "50",
                "addr:city": "Wałcz",
                "addr:postcode": "78-600",
                "amenity": "pharmacy",
                "dispensing": "yes"
            },
            "geometry": {
                "type": "Point",
                "coordinates": [
                    16.469200999992964,
                    53.271715000017565
                ]
            }
        },
        {
            "type": "Feature",
            "properties": {
                "ref:csioz": 1217024,
                "name": "Apteka Centrum Zdrowia",
                "addr:street": "Wojska Polskiego",
                "addr:housenumber": "13",
                "addr:city": "Wałcz",
                "addr:postcode": "78-600",
                "amenity": "pharmacy",
                "dispensing": "yes"
            },
            "geometry": {
                "type": "Point",
                "coordinates": [
                    16.476542366004324,
                    53.27412911451612
                ]
            }
        }
    ]
}