{
    "type": "FeatureCollection",
    "name": "JPT_KOD_JE_3015",
    "features": [
        {
            "type": "Feature",
            "properties": {
                "ref:csioz": 1043869,
                "name": "Pod Lipami",
                "addr:street": "Lipowa",
                "addr:housenumber": "2",
                "addr:city": "Wąsowo",
                "addr:postcode": "64-316",
                "amenity": "pharmacy",
                "dispensing": "yes"
            },
            "geometry": {
                "type": "Point",
                "coordinates": [
                    16.24907113547392,
                    52.36354070017515
                ]
            }
        },
        {
            "type": "Feature",
            "properties": {
                "ref:csioz": 1045631,
                "name": "Centrum Leków",
                "addr:street": "27 Grudnia",
                "addr:housenumber": "1",
                "addr:city": "Opalenica",
                "addr:postcode": "64-330",
                "amenity": "pharmacy",
                "dispensing": "yes"
            },
            "geometry": {
                "type": "Point",
                "coordinates": [
                    16.41703398411262,
                    52.30864623039604
                ]
            }
        },
        {
            "type": "Feature",
            "properties": {
                "ref:csioz": 1045653,
                "name": "Apteka Od Serca",
                "addr:street": "Kościelny",
                "addr:housenumber": "9A",
                "addr:city": "Boruja Kościelna",
                "addr:postcode": "64-300",
                "amenity": "pharmacy",
                "dispensing": "yes"
            },
            "geometry": {
                "type": "Point",
                "coordinates": [
                    16.13280216535051,
                    52.26765166945367
                ]
            }
        },
        {
            "type": "Feature",
            "properties": {
                "ref:csioz": 1046565,
                "name": "Św. Józefa",
                "addr:street": "Powstańców Wielkopolskich",
                "addr:housenumber": "2B",
                "addr:city": "Opalenica",
                "addr:postcode": "64-330",
                "amenity": "pharmacy",
                "dispensing": "yes"
            },
            "geometry": {
                "type": "Point",
                "coordinates": [
                    16.40373231217245,
                    52.30873598812755
                ]
            }
        },
        {
            "type": "Feature",
            "properties": {
                "ref:csioz": 1047274,
                "name": "Doz Apteka. Dbam O Zdrowie. Remedia",
                "addr:street": "17 Stycznia",
                "addr:housenumber": "59B",
                "addr:city": "Zbąszyń",
                "addr:postcode": "64-360",
                "amenity": "pharmacy",
                "dispensing": "yes"
            },
            "geometry": {
                "type": "Point",
                "coordinates": [
                    15.907406550724273,
                    52.254616257169424
                ]
            }
        },
        {
            "type": "Feature",
            "properties": {
                "ref:csioz": 1047813,
                "name": "\"Doz Apteka. Dbam O Zdrowie.Apteka Im. \"\"Powstańców Wielkopolskich\"\"\"",
                "addr:street": "Rynek",
                "addr:housenumber": "29",
                "addr:city": "Lwówek",
                "addr:postcode": "64-310",
                "amenity": "pharmacy",
                "dispensing": "yes"
            },
            "geometry": {
                "type": "Point",
                "coordinates": [
                    16.17940374089429,
                    52.4491025427784
                ]
            }
        },
        {
            "type": "Feature",
            "properties": {
                "ref:csioz": 1049947,
                "name": "Centrum Zdrowia",
                "addr:street": "Władysława Stanisława Reymonta",
                "addr:housenumber": "14",
                "addr:city": "Opalenica",
                "addr:postcode": "64-330",
                "amenity": "pharmacy",
                "dispensing": "yes"
            },
            "geometry": {
                "type": "Point",
                "coordinates": [
                    16.414455667708307,
                    52.30851596485822
                ]
            }
        },
        {
            "type": "Feature",
            "properties": {
                "ref:csioz": 1050359,
                "name": "Świetego Rocha",
                "addr:street": "Osiedle Północ",
                "addr:housenumber": "12",
                "addr:city": "Nowy Tomyśl",
                "addr:postcode": "64-300",
                "amenity": "pharmacy",
                "dispensing": "yes"
            },
            "geometry": {
                "type": "Point",
                "coordinates": [
                    16.121435611897162,
                    52.3200236087533
                ]
            }
        },
        {
            "type": "Feature",
            "properties": {
                "ref:csioz": 1055515,
                "name": "Panaceum",
                "addr:street": "Emilii Sczanieckiej",
                "addr:housenumber": "4",
                "addr:city": "Kuślin",
                "addr:postcode": "64-316",
                "amenity": "pharmacy",
                "dispensing": "yes"
            },
            "geometry": {
                "type": "Point",
                "coordinates": [
                    16.318522062717737,
                    52.363189864400915
                ]
            }
        },
        {
            "type": "Feature",
            "properties": {
                "ref:csioz": 1055667,
                "name": "Św. Mateusza",
                "addr:street": "Rynek",
                "addr:housenumber": "22",
                "addr:city": "Opalenica",
                "addr:postcode": "64-330",
                "amenity": "pharmacy",
                "dispensing": "yes"
            },
            "geometry": {
                "type": "Point",
                "coordinates": [
                    16.41193665389324,
                    52.30900034230434
                ]
            }
        },
        {
            "type": "Feature",
            "properties": {
                "ref:csioz": 1056012,
                "addr:street": "Henryka Sienkiewicza",
                "addr:housenumber": "3",
                "addr:city": "NOWY TOMYŚL",
                "addr:postcode": "64-300",
                "amenity": "pharmacy",
                "dispensing": "yes"
            },
            "geometry": {
                "type": "Point",
                "coordinates": [
                    16.141361571086055,
                    52.31529299261695
                ]
            }
        },
        {
            "type": "Feature",
            "properties": {
                "ref:csioz": 1123572,
                "name": "Apteka Prima",
                "addr:street": "Poznańska",
                "addr:housenumber": "40",
                "addr:city": "Nowy Tomyśl",
                "addr:postcode": "64-300",
                "amenity": "pharmacy",
                "dispensing": "yes"
            },
            "geometry": {
                "type": "Point",
                "coordinates": [
                    16.13923667310083,
                    52.31566920884372
                ]
            }
        },
        {
            "type": "Feature",
            "properties": {
                "ref:csioz": 1123952,
                "name": "Lekabel - Centrum Leków",
                "addr:street": "Powstańca Kozaka",
                "addr:housenumber": "10",
                "addr:city": "Opalenica",
                "addr:postcode": "64-330",
                "amenity": "pharmacy",
                "dispensing": "yes"
            },
            "geometry": {
                "type": "Point",
                "coordinates": [
                    16.408717359956178,
                    52.30931816483697
                ]
            }
        },
        {
            "type": "Feature",
            "properties": {
                "ref:csioz": 1185311,
                "name": "Apteka Od Serca",
                "addr:street": "Adama Mickiewicza",
                "addr:housenumber": "4",
                "addr:city": "Nowy Tomyśl",
                "addr:postcode": "64-300",
                "amenity": "pharmacy",
                "dispensing": "yes"
            },
            "geometry": {
                "type": "Point",
                "coordinates": [
                    16.130431466768073,
                    52.31719908504301
                ]
            }
        },
        {
            "type": "Feature",
            "properties": {
                "ref:csioz": 1215686,
                "name": "Topfarm",
                "addr:street": "Senatorska",
                "addr:housenumber": "30",
                "addr:city": "Zbąszyń",
                "addr:postcode": "64-360",
                "amenity": "pharmacy",
                "dispensing": "yes"
            },
            "geometry": {
                "type": "Point",
                "coordinates": [
                    15.921755959860947,
                    52.24993629939568
                ]
            }
        },
        {
            "type": "Feature",
            "properties": {
                "ref:csioz": 1230839,
                "name": "Doz Apteka.Dbam O Zdrowie",
                "addr:street": "Nowa",
                "addr:housenumber": "1",
                "addr:city": "Bolewice",
                "addr:postcode": "64-305",
                "amenity": "pharmacy",
                "dispensing": "yes"
            },
            "geometry": {
                "type": "Point",
                "coordinates": [
                    16.11998292298112,
                    52.397241057851865
                ]
            }
        },
        {
            "type": "Feature",
            "properties": {
                "ref:csioz": 1044709,
                "name": "Farmacja",
                "addr:street": "3 Stycznia",
                "addr:housenumber": "2",
                "addr:city": "Nowy Tomyśl",
                "addr:postcode": "64-300",
                "amenity": "pharmacy",
                "dispensing": "yes"
            },
            "geometry": {
                "type": "Point",
                "coordinates": [
                    16.126873437083137,
                    52.31844221485693
                ]
            }
        },
        {
            "type": "Feature",
            "properties": {
                "ref:csioz": 1045049,
                "name": "Pomarańczowa 2",
                "addr:street": "Zbąszyńska",
                "addr:housenumber": "9",
                "addr:city": "Nowy Tomyśl",
                "addr:postcode": "64-300",
                "amenity": "pharmacy",
                "dispensing": "yes"
            },
            "geometry": {
                "type": "Point",
                "coordinates": [
                    16.11857812908401,
                    52.31581189424286
                ]
            }
        },
        {
            "type": "Feature",
            "properties": {
                "ref:csioz": 1046248,
                "name": "Pomarańczowa",
                "addr:street": "Stefana Batorego",
                "addr:housenumber": "52C",
                "addr:city": "Nowy Tomyśl",
                "addr:postcode": "64-300",
                "amenity": "pharmacy",
                "dispensing": "yes"
            },
            "geometry": {
                "type": "Point",
                "coordinates": [
                    16.122537999986026,
                    52.314870000016086
                ]
            }
        },
        {
            "type": "Feature",
            "properties": {
                "ref:csioz": 1051557,
                "name": "Nova",
                "addr:street": "Tadeusza Kościuszki",
                "addr:housenumber": "54",
                "addr:city": "Nowy Tomyśl",
                "addr:postcode": "64-300",
                "amenity": "pharmacy",
                "dispensing": "yes"
            },
            "geometry": {
                "type": "Point",
                "coordinates": [
                    16.144512282313883,
                    52.32007897303371
                ]
            }
        },
        {
            "type": "Feature",
            "properties": {
                "ref:csioz": 1055229,
                "name": "Moderna 12",
                "addr:street": "Poznańska",
                "addr:housenumber": "22",
                "addr:city": "Nowy Tomyśl",
                "addr:postcode": "64-300",
                "amenity": "pharmacy",
                "dispensing": "yes"
            },
            "geometry": {
                "type": "Point",
                "coordinates": [
                    16.13686211490399,
                    52.316739156975885
                ]
            }
        },
        {
            "type": "Feature",
            "properties": {
                "ref:csioz": 1055638,
                "addr:street": "Rynek",
                "addr:housenumber": "4",
                "addr:city": "Zbąszyń",
                "addr:postcode": "64-360",
                "amenity": "pharmacy",
                "dispensing": "yes"
            },
            "geometry": {
                "type": "Point",
                "coordinates": [
                    15.9211350072638,
                    52.250349360370414
                ]
            }
        },
        {
            "type": "Feature",
            "properties": {
                "ref:csioz": 1119059,
                "name": "Apteka Od Serca",
                "addr:street": "Stefana Batorego",
                "addr:housenumber": "52",
                "addr:city": "Nowy Tomyśl",
                "addr:postcode": "64-305",
                "amenity": "pharmacy",
                "dispensing": "yes"
            },
            "geometry": {
                "type": "Point",
                "coordinates": [
                    16.122777967615555,
                    52.31527342608892
                ]
            }
        },
        {
            "type": "Feature",
            "properties": {
                "ref:csioz": 1123926,
                "name": "Apteka Prima",
                "addr:street": "Na Kępie",
                "addr:housenumber": "7B",
                "addr:city": "Zbąszyń",
                "addr:postcode": "64-360",
                "amenity": "pharmacy",
                "dispensing": "yes"
            },
            "geometry": {
                "type": "Point",
                "coordinates": [
                    15.915938179350006,
                    52.25486169881759
                ]
            }
        },
        {
            "type": "Feature",
            "properties": {
                "ref:csioz": 1175770,
                "name": "Apteka Od Serca",
                "addr:street": "Mostowa",
                "addr:housenumber": "4B",
                "addr:city": "Zbąszyń",
                "addr:postcode": "64-360",
                "amenity": "pharmacy",
                "dispensing": "yes"
            },
            "geometry": {
                "type": "Point",
                "coordinates": [
                    15.921183809107028,
                    52.25308747429843
                ]
            }
        },
        {
            "type": "Feature",
            "properties": {
                "ref:csioz": 1186511,
                "name": "Lekabel",
                "addr:street": "Rynek",
                "addr:housenumber": "1",
                "addr:city": "Opalenica",
                "addr:postcode": "64-330",
                "amenity": "pharmacy",
                "dispensing": "yes"
            },
            "geometry": {
                "type": "Point",
                "coordinates": [
                    16.41214107456904,
                    52.30856786673676
                ]
            }
        },
        {
            "type": "Feature",
            "properties": {
                "ref:csioz": 1186587,
                "name": "Apteka Prima",
                "addr:street": "Senatorska",
                "addr:housenumber": "25",
                "addr:city": "Zbąszyń",
                "addr:postcode": "64-360",
                "amenity": "pharmacy",
                "dispensing": "yes"
            },
            "geometry": {
                "type": "Point",
                "coordinates": [
                    15.921782455771597,
                    52.24982906769654
                ]
            }
        },
        {
            "type": "Feature",
            "properties": {
                "ref:csioz": 1202750,
                "name": "Doz Apteka Dbam O Zdrowie",
                "addr:street": "Muzealna",
                "addr:housenumber": "1",
                "addr:city": "Konin",
                "addr:postcode": "62-510",
                "amenity": "pharmacy",
                "dispensing": "yes"
            },
            "geometry": {
                "type": "Point",
                "coordinates": [
                    16.17731699998747,
                    52.47773700001632
                ]
            }
        },
        {
            "type": "Feature",
            "properties": {
                "ref:csioz": 1204238,
                "name": "Doz Apteka. Dbam O Zdrowie",
                "addr:street": "Pniewska",
                "addr:housenumber": "53A",
                "addr:city": "Lwówek",
                "addr:postcode": "64-310",
                "amenity": "pharmacy",
                "dispensing": "yes"
            },
            "geometry": {
                "type": "Point",
                "coordinates": [
                    16.18925273105129,
                    52.45331333243778
                ]
            }
        },
        {
            "type": "Feature",
            "properties": {
                "ref:csioz": 1205090,
                "name": "Apteka Od Serca",
                "addr:street": "Kolejowa",
                "addr:housenumber": "1B",
                "addr:city": "Nowy Tomyśl",
                "addr:postcode": "64-300",
                "amenity": "pharmacy",
                "dispensing": "yes"
            },
            "geometry": {
                "type": "Point",
                "coordinates": [
                    16.13111199998622,
                    52.310311000016064
                ]
            }
        },
        {
            "type": "Feature",
            "properties": {
                "ref:csioz": 1213770,
                "name": "Moderna 2",
                "addr:street": "Poznańska",
                "addr:housenumber": "12",
                "addr:city": "Nowy Tomyśl",
                "addr:postcode": "64-300",
                "amenity": "pharmacy",
                "dispensing": "yes"
            },
            "geometry": {
                "type": "Point",
                "coordinates": [
                    16.137033999986368,
                    52.31676800001607
                ]
            }
        }
    ]
}