{
    "type": "FeatureCollection",
    "name": "JPT_KOD_JE_0809",
    "features": [
        {
            "type": "Feature",
            "properties": {
                "ref:csioz": 1138876,
                "name": "Odnowa",
                "addr:street": "Bolesława Chrobrego",
                "addr:housenumber": "1A",
                "addr:city": "Czerwieńsk",
                "addr:postcode": "66-016",
                "amenity": "pharmacy"
            },
            "geometry": {
                "type": "Point",
                "coordinates": [
                    15.422248654614611,
                    52.01314059807417
                ]
            }
        },
        {
            "type": "Feature",
            "properties": {
                "ref:csioz": 1148749,
                "addr:street": "Jana Pawła II",
                "addr:housenumber": "42",
                "addr:city": "Sulechów",
                "addr:postcode": "66-100",
                "amenity": "pharmacy"
            },
            "geometry": {
                "type": "Point",
                "coordinates": [
                    15.626112773195148,
                    52.08883391704593
                ]
            }
        },
        {
            "type": "Feature",
            "properties": {
                "ref:csioz": 1148758,
                "addr:street": "Krańcowa",
                "addr:housenumber": "26A",
                "addr:city": "Sulechów",
                "addr:postcode": "66-100",
                "amenity": "pharmacy"
            },
            "geometry": {
                "type": "Point",
                "coordinates": [
                    15.618889999968795,
                    52.07860800001598
                ]
            }
        },
        {
            "type": "Feature",
            "properties": {
                "ref:csioz": 1148763,
                "name": "Apteka Dbam O Zdrowie",
                "addr:street": "Niepodległości",
                "addr:housenumber": "15",
                "addr:city": "Sulechów",
                "addr:postcode": "66-100",
                "amenity": "pharmacy"
            },
            "geometry": {
                "type": "Point",
                "coordinates": [
                    15.621648500767906,
                    52.09003012414622
                ]
            }
        },
        {
            "type": "Feature",
            "properties": {
                "ref:csioz": 1164608,
                "name": "Sp Zoz Centrum Leczenia Dzieci I Młodzieży",
                "addr:street": "Zamkowa",
                "addr:housenumber": "1",
                "addr:city": "Zabór",
                "addr:postcode": "66-003",
                "amenity": "pharmacy"
            },
            "geometry": {
                "type": "Point",
                "coordinates": [
                    15.716022152896764,
                    51.94952061894332
                ]
            }
        },
        {
            "type": "Feature",
            "properties": {
                "ref:csioz": 1165166,
                "name": "Uro-Laser",
                "addr:street": "Zwycięstwa",
                "addr:housenumber": "1",
                "addr:city": "Sulechów",
                "addr:postcode": "66-100",
                "amenity": "pharmacy"
            },
            "geometry": {
                "type": "Point",
                "coordinates": [
                    15.622261180230385,
                    52.08953423747685
                ]
            }
        },
        {
            "type": "Feature",
            "properties": {
                "ref:csioz": 1166772,
                "name": "Witaminka",
                "addr:street": "Słoneczna",
                "addr:housenumber": "1",
                "addr:city": "Bojadła",
                "addr:postcode": "66-130",
                "amenity": "pharmacy"
            },
            "geometry": {
                "type": "Point",
                "coordinates": [
                    15.810084769570341,
                    51.95541659153827
                ]
            }
        },
        {
            "type": "Feature",
            "properties": {
                "ref:csioz": 1166930,
                "addr:street": "Tadeusza Kościuszki",
                "addr:housenumber": "67",
                "addr:city": "Nietków",
                "addr:postcode": "66-016",
                "amenity": "pharmacy"
            },
            "geometry": {
                "type": "Point",
                "coordinates": [
                    15.349989488366246,
                    52.02536153554941
                ]
            }
        },
        {
            "type": "Feature",
            "properties": {
                "ref:csioz": 1166982,
                "addr:street": "Długa",
                "addr:housenumber": "1",
                "addr:city": "Świdnica",
                "addr:postcode": "66-008",
                "amenity": "pharmacy"
            },
            "geometry": {
                "type": "Point",
                "coordinates": [
                    15.390582632385062,
                    51.88773584381573
                ]
            }
        },
        {
            "type": "Feature",
            "properties": {
                "ref:csioz": 1167029,
                "name": "Nagietek",
                "addr:street": "Lipowa",
                "addr:housenumber": "4",
                "addr:city": "Zabór",
                "addr:postcode": "66-003",
                "amenity": "pharmacy"
            },
            "geometry": {
                "type": "Point",
                "coordinates": [
                    15.715653354559361,
                    51.9508711771421
                ]
            }
        },
        {
            "type": "Feature",
            "properties": {
                "ref:csioz": 1167064,
                "addr:street": "Zwycięstwa",
                "addr:housenumber": "1",
                "addr:city": "Sulechów",
                "addr:postcode": "66-100",
                "amenity": "pharmacy"
            },
            "geometry": {
                "type": "Point",
                "coordinates": [
                    15.622261180230385,
                    52.08953423747685
                ]
            }
        },
        {
            "type": "Feature",
            "properties": {
                "ref:csioz": 1183495,
                "name": "Dobre Zdrowie",
                "addr:street": "Jana Pawła II",
                "addr:housenumber": "12",
                "addr:city": "Sulechów",
                "addr:postcode": "66-100",
                "amenity": "pharmacy"
            },
            "geometry": {
                "type": "Point",
                "coordinates": [
                    15.61785053824738,
                    52.09499615816774
                ]
            }
        },
        {
            "type": "Feature",
            "properties": {
                "ref:csioz": 1207374,
                "name": "Apteka Salus Nowogród Bobrzański",
                "addr:street": "Rynek",
                "addr:housenumber": "8",
                "addr:city": "Nowogród Bobrzański",
                "addr:postcode": "66-010",
                "amenity": "pharmacy"
            },
            "geometry": {
                "type": "Point",
                "coordinates": [
                    15.247902934943589,
                    51.801485009143
                ]
            }
        },
        {
            "type": "Feature",
            "properties": {
                "ref:csioz": 1148185,
                "name": "Moderna 4",
                "addr:street": "Kościelna",
                "addr:housenumber": "33",
                "addr:city": "Kargowa",
                "addr:postcode": "66-120",
                "amenity": "pharmacy"
            },
            "geometry": {
                "type": "Point",
                "coordinates": [
                    15.857950614874103,
                    52.070146456865885
                ]
            }
        },
        {
            "type": "Feature",
            "properties": {
                "ref:csioz": 1148199,
                "name": "Dbam O Zdrowie",
                "addr:street": "Rynek",
                "addr:housenumber": "1",
                "addr:city": "Kargowa",
                "addr:postcode": "66-120",
                "amenity": "pharmacy"
            },
            "geometry": {
                "type": "Point",
                "coordinates": [
                    15.86088303584901,
                    52.0713830404803
                ]
            }
        },
        {
            "type": "Feature",
            "properties": {
                "ref:csioz": 1148717,
                "addr:street": "Wielkopolska",
                "addr:housenumber": "13",
                "addr:city": "Sulechów",
                "addr:postcode": "66-100",
                "amenity": "pharmacy"
            },
            "geometry": {
                "type": "Point",
                "coordinates": [
                    15.62776527209133,
                    52.08604591472872
                ]
            }
        },
        {
            "type": "Feature",
            "properties": {
                "ref:csioz": 1148774,
                "addr:street": "Nadodrzańskie",
                "addr:housenumber": "2",
                "addr:city": "Sulechów",
                "addr:postcode": "66-100",
                "amenity": "pharmacy"
            },
            "geometry": {
                "type": "Point",
                "coordinates": [
                    15.616817672653532,
                    52.07965936112503
                ]
            }
        },
        {
            "type": "Feature",
            "properties": {
                "ref:csioz": 1148782,
                "addr:street": "Ratuszowy",
                "addr:housenumber": "6",
                "addr:city": "Sulechów",
                "addr:postcode": "66-100",
                "amenity": "pharmacy"
            },
            "geometry": {
                "type": "Point",
                "coordinates": [
                    15.626112980415177,
                    52.0851636035087
                ]
            }
        },
        {
            "type": "Feature",
            "properties": {
                "ref:csioz": 1180841,
                "name": "Dr. Max",
                "addr:street": "gen. Sikorskiego",
                "addr:housenumber": "18a",
                "addr:city": "Sulechów",
                "addr:postcode": "66-100",
                "amenity": "pharmacy"
            },
            "geometry": {
                "type": "Point",
                "coordinates": [
                    15.625164131692756,
                    52.084112978683166
                ]
            }
        },
        {
            "type": "Feature",
            "properties": {
                "ref:csioz": 1184795,
                "name": "Apteka Z Misiem",
                "addr:street": "Biskupa Wilhelma Pluty",
                "addr:housenumber": "5",
                "addr:city": "Sulechów",
                "addr:postcode": "66-100",
                "amenity": "pharmacy"
            },
            "geometry": {
                "type": "Point",
                "coordinates": [
                    15.626681460633778,
                    52.0863663225765
                ]
            }
        },
        {
            "type": "Feature",
            "properties": {
                "ref:csioz": 1227335,
                "name": "Punkt Apteczny Aronia",
                "addr:street": "Aleja Lipowa",
                "addr:housenumber": "8",
                "addr:city": "Trzebiechów",
                "addr:postcode": "66-132",
                "amenity": "pharmacy"
            },
            "geometry": {
                "type": "Point",
                "coordinates": [
                    15.734386913030022,
                    52.02234453009362
                ]
            }
        },
        {
            "type": "Feature",
            "properties": {
                "ref:csioz": 1229449,
                "name": "Apteka Orion",
                "addr:street": "Konopnickiej",
                "addr:housenumber": "3",
                "addr:city": "Nowogród Bobrzański",
                "addr:postcode": "66-010",
                "amenity": "pharmacy"
            },
            "geometry": {
                "type": "Point",
                "coordinates": [
                    15.23542042086443,
                    51.79797963551332
                ]
            }
        },
        {
            "type": "Feature",
            "properties": {
                "ref:csioz": 1138800,
                "name": "\"Apteka \"\"Moderna 10\"\"\"",
                "addr:street": "Gagarina",
                "addr:housenumber": "18",
                "addr:city": "Babimost",
                "addr:postcode": "66-110",
                "amenity": "pharmacy"
            },
            "geometry": {
                "type": "Point",
                "coordinates": [
                    15.831879904155036,
                    52.168390563484294
                ]
            }
        },
        {
            "type": "Feature",
            "properties": {
                "ref:csioz": 1216084,
                "name": "Apteka Od Serca",
                "addr:street": "Lotnicza",
                "addr:housenumber": "1",
                "addr:city": "Babimost",
                "addr:postcode": "66-110",
                "amenity": "pharmacy"
            },
            "geometry": {
                "type": "Point",
                "coordinates": [
                    15.835512161406998,
                    52.16678731059811
                ]
            }
        }
    ]
}