{
    "type": "FeatureCollection",
    "name": "JPT_KOD_JE_2813",
    "features": [
        {
            "type": "Feature",
            "properties": {
                "ref:csioz": 1041589,
                "addr:street": "Witosa",
                "addr:housenumber": "1A",
                "addr:city": "Kowale Oleckie",
                "addr:postcode": "19-420",
                "amenity": "pharmacy"
            },
            "geometry": {
                "type": "Point",
                "coordinates": [
                    22.41801759097595,
                    54.16335211492374
                ]
            }
        },
        {
            "type": "Feature",
            "properties": {
                "ref:csioz": 1014929,
                "name": "Szpital Olmedica",
                "addr:street": "Gołdapska",
                "addr:housenumber": "1",
                "addr:city": "Olecko",
                "addr:postcode": "19-400",
                "amenity": "pharmacy"
            },
            "geometry": {
                "type": "Point",
                "coordinates": [
                    22.49727475445959,
                    54.042385767510766
                ]
            }
        },
        {
            "type": "Feature",
            "properties": {
                "ref:csioz": 1041623,
                "name": "Apteka Na Placu Wolności Nowa Farmacja",
                "addr:street": "Plac Wolności",
                "addr:housenumber": "25",
                "addr:city": "Olecko",
                "addr:postcode": "19-400",
                "amenity": "pharmacy"
            },
            "geometry": {
                "type": "Point",
                "coordinates": [
                    22.50581915504304,
                    54.03700128749371
                ]
            }
        },
        {
            "type": "Feature",
            "properties": {
                "ref:csioz": 1041646,
                "name": "\"Apteka Cef@Rm 36,6\"",
                "addr:street": "Składowa",
                "addr:housenumber": "6",
                "addr:city": "Olecko",
                "addr:postcode": "19-400",
                "amenity": "pharmacy"
            },
            "geometry": {
                "type": "Point",
                "coordinates": [
                    22.503347575742126,
                    54.03928713265453
                ]
            }
        },
        {
            "type": "Feature",
            "properties": {
                "ref:csioz": 1041651,
                "addr:street": "Plac Wolności",
                "addr:housenumber": "7B",
                "addr:city": "Olecko",
                "addr:postcode": "19-400",
                "amenity": "pharmacy"
            },
            "geometry": {
                "type": "Point",
                "coordinates": [
                    22.503002325720622,
                    54.037526234031894
                ]
            }
        },
        {
            "type": "Feature",
            "properties": {
                "ref:csioz": 1041667,
                "addr:street": "Zielona",
                "addr:housenumber": "35",
                "addr:city": "Olecko",
                "addr:postcode": "19-400",
                "amenity": "pharmacy"
            },
            "geometry": {
                "type": "Point",
                "coordinates": [
                    22.499770281024997,
                    54.0390126618395
                ]
            }
        },
        {
            "type": "Feature",
            "properties": {
                "ref:csioz": 1041672,
                "name": "\"Apteka Cef@Rm 36,6\"",
                "addr:street": "Zielona",
                "addr:housenumber": "37",
                "addr:city": "Olecko",
                "addr:postcode": "19-400",
                "amenity": "pharmacy"
            },
            "geometry": {
                "type": "Point",
                "coordinates": [
                    22.499703870186917,
                    54.039210050582675
                ]
            }
        },
        {
            "type": "Feature",
            "properties": {
                "ref:csioz": 1201211,
                "name": "Gemini",
                "addr:street": "Plac Wolności",
                "addr:housenumber": "12",
                "addr:city": "Olecko",
                "addr:postcode": "19-400",
                "amenity": "pharmacy"
            },
            "geometry": {
                "type": "Point",
                "coordinates": [
                    22.50428763406189,
                    54.03928438375901
                ]
            }
        },
        {
            "type": "Feature",
            "properties": {
                "ref:csioz": 1041854,
                "addr:housenumber": "104",
                "addr:city": "Świętajno",
                "addr:postcode": "19-411",
                "amenity": "pharmacy"
            },
            "geometry": {
                "type": "Point",
                "coordinates": [
                    22.319988722844716,
                    54.00116309015642
                ]
            }
        },
        {
            "type": "Feature",
            "properties": {
                "ref:csioz": 1041920,
                "name": "Vita",
                "addr:street": "Jeziorna",
                "addr:housenumber": "14",
                "addr:city": "Wieliczki",
                "addr:postcode": "19-404",
                "amenity": "pharmacy"
            },
            "geometry": {
                "type": "Point",
                "coordinates": [
                    22.553902906089252,
                    53.985431789191026
                ]
            }
        },
        {
            "type": "Feature",
            "properties": {
                "ref:csioz": 1121588,
                "name": "Zakład Opieki Długoterminowej",
                "addr:housenumber": "4",
                "addr:city": "Olecko-Kolonia",
                "addr:postcode": "19-400",
                "amenity": "pharmacy"
            },
            "geometry": {
                "type": "Point",
                "coordinates": [
                    22.465171834088466,
                    54.04330574985506
                ]
            }
        },
        {
            "type": "Feature",
            "properties": {
                "ref:csioz": 1192675,
                "name": "Apteka Społeczna Na Składowej Grupa Nowa Farmacja",
                "addr:street": "Składowa",
                "addr:housenumber": "2A",
                "addr:city": "Olecko",
                "addr:postcode": "19-400",
                "amenity": "pharmacy"
            },
            "geometry": {
                "type": "Point",
                "coordinates": [
                    22.50239268258189,
                    54.03865259626969
                ]
            }
        },
        {
            "type": "Feature",
            "properties": {
                "ref:csioz": 1217860,
                "name": "Apteka Melissa",
                "addr:street": "Gołdapska",
                "addr:housenumber": "1",
                "addr:city": "Olecko",
                "addr:postcode": "19-400",
                "amenity": "pharmacy"
            },
            "geometry": {
                "type": "Point",
                "coordinates": [
                    22.49727475445959,
                    54.042385767510766
                ]
            }
        }
    ]
}