{
    "type": "FeatureCollection",
    "name": "JPT_KOD_JE_2013",
    "features": [
        {
            "type": "Feature",
            "properties": {
                "ref:csioz": 1017315,
                "addr:street": "Polna",
                "addr:housenumber": "5B",
                "addr:city": "Czyżew",
                "addr:postcode": "18-220",
                "amenity": "pharmacy"
            },
            "geometry": {
                "type": "Point",
                "coordinates": [
                    22.32109647195644,
                    52.797759401817196
                ]
            }
        },
        {
            "type": "Feature",
            "properties": {
                "ref:csioz": 1018951,
                "name": "Apteka W Rynku",
                "addr:street": "Duży Rynek",
                "addr:housenumber": "12A",
                "addr:city": "Czyżew",
                "addr:postcode": "18-220",
                "amenity": "pharmacy"
            },
            "geometry": {
                "type": "Point",
                "coordinates": [
                    22.312631960918416,
                    52.79851014002555
                ]
            }
        },
        {
            "type": "Feature",
            "properties": {
                "ref:csioz": 1019562,
                "name": "Apteka Im. Prof. W.J. Strażewicza",
                "addr:street": "3 Maja",
                "addr:housenumber": "26",
                "addr:city": "Ciechanowiec",
                "addr:postcode": "18-230",
                "amenity": "pharmacy"
            },
            "geometry": {
                "type": "Point",
                "coordinates": [
                    22.499272999550932,
                    52.6785830901159
                ]
            }
        },
        {
            "type": "Feature",
            "properties": {
                "ref:csioz": 1019701,
                "name": "\"Apteka \"\"Nova\"\" Marta Pakieła-Suchowierska\"",
                "addr:street": "3 Maja",
                "addr:housenumber": "1",
                "addr:city": "Ciechanowiec",
                "addr:postcode": "18-230",
                "amenity": "pharmacy"
            },
            "geometry": {
                "type": "Point",
                "coordinates": [
                    22.49777199735733,
                    52.67836034451633
                ]
            }
        },
        {
            "type": "Feature",
            "properties": {
                "ref:csioz": 1197887,
                "name": "Punkt Apteczny Nowa Farmacja",
                "addr:street": "Szkolna",
                "addr:housenumber": "4C",
                "addr:city": "Klukowo",
                "addr:postcode": "18-214",
                "amenity": "pharmacy"
            },
            "geometry": {
                "type": "Point",
                "coordinates": [
                    22.507813728623145,
                    52.77628861243518
                ]
            }
        },
        {
            "type": "Feature",
            "properties": {
                "ref:csioz": 1022028,
                "name": "Pogodna Apteka",
                "addr:street": "Polska",
                "addr:housenumber": "2",
                "addr:city": "Ciechanowiec",
                "addr:postcode": "18-230",
                "amenity": "pharmacy"
            },
            "geometry": {
                "type": "Point",
                "coordinates": [
                    22.498960812544706,
                    52.676895292462405
                ]
            }
        },
        {
            "type": "Feature",
            "properties": {
                "ref:csioz": 1187338,
                "name": "Pogodna",
                "addr:street": "Zambrowska",
                "addr:housenumber": "1B",
                "addr:city": "Czyżew",
                "addr:postcode": "18-220",
                "amenity": "pharmacy"
            },
            "geometry": {
                "type": "Point",
                "coordinates": [
                    22.309773487099413,
                    52.80129957035939
                ]
            }
        },
        {
            "type": "Feature",
            "properties": {
                "ref:csioz": 1015103,
                "name": "Dbam O Zdrowie",
                "addr:housenumber": "52",
                "addr:postcode": "18-200",
                "amenity": "pharmacy",
                "addr:place": "Jabłonka Kościelna"
            },
            "geometry": {
                "type": "Point",
                "coordinates": [
                    22.37265734492056,
                    52.95221968993466
                ]
            }
        },
        {
            "type": "Feature",
            "properties": {
                "ref:csioz": 1015127,
                "addr:street": "Cmentarna",
                "addr:housenumber": "4",
                "addr:city": "Jabłoń Kościelna",
                "addr:postcode": "18-212",
                "amenity": "pharmacy"
            },
            "geometry": {
                "type": "Point",
                "coordinates": [
                    22.649113000040117,
                    52.92075900001764
                ]
            }
        },
        {
            "type": "Feature",
            "properties": {
                "ref:csioz": 1015310,
                "addr:street": "Piękna",
                "addr:housenumber": "8",
                "addr:city": "Kulesze Kościelne",
                "addr:postcode": "18-208",
                "amenity": "pharmacy"
            },
            "geometry": {
                "type": "Point",
                "coordinates": [
                    22.516291178057003,
                    53.017328702674895
                ]
            }
        },
        {
            "type": "Feature",
            "properties": {
                "ref:csioz": 1019112,
                "name": "Apteka Przy Banku",
                "addr:street": "Ludowa",
                "addr:housenumber": "17A",
                "addr:city": "Wysokie Mazowieckie",
                "addr:postcode": "18-200",
                "amenity": "pharmacy"
            },
            "geometry": {
                "type": "Point",
                "coordinates": [
                    22.51252602172543,
                    52.91516366146006
                ]
            }
        },
        {
            "type": "Feature",
            "properties": {
                "ref:csioz": 1020524,
                "name": "Pogodna",
                "addr:street": "Białostocka",
                "addr:housenumber": "4/4",
                "addr:flats": "C",
                "addr:city": "Wysokie Mazowieckie",
                "addr:postcode": "18-200",
                "amenity": "pharmacy"
            },
            "geometry": {
                "type": "Point",
                "coordinates": [
                    22.522552000033887,
                    52.919538000017475
                ]
            }
        },
        {
            "type": "Feature",
            "properties": {
                "ref:csioz": 1024094,
                "name": "Doz Apteka Dbam O Zdrowie Na Rampie",
                "addr:street": "Ludowa",
                "addr:housenumber": "54",
                "addr:city": "Wysokie Mazowieckie",
                "addr:postcode": "18-200",
                "amenity": "pharmacy"
            },
            "geometry": {
                "type": "Point",
                "coordinates": [
                    22.510817678026843,
                    52.915180659757375
                ]
            }
        },
        {
            "type": "Feature",
            "properties": {
                "ref:csioz": 1025300,
                "addr:street": "Lipowa",
                "addr:housenumber": "1",
                "addr:city": "Szepietowo",
                "addr:postcode": "18-210",
                "amenity": "pharmacy"
            },
            "geometry": {
                "type": "Point",
                "coordinates": [
                    22.537843102999414,
                    52.86790509849593
                ]
            }
        },
        {
            "type": "Feature",
            "properties": {
                "ref:csioz": 1111126,
                "name": "Bliska Apteka",
                "addr:street": "gen. Władysława Sikorskiego",
                "addr:housenumber": "8",
                "addr:city": "Sokoły",
                "addr:postcode": "18-218",
                "amenity": "pharmacy"
            },
            "geometry": {
                "type": "Point",
                "coordinates": [
                    22.702413000042544,
                    52.99163300001784
                ]
            }
        },
        {
            "type": "Feature",
            "properties": {
                "ref:csioz": 1182708,
                "addr:street": "Główna",
                "addr:housenumber": "6",
                "addr:flats": "2",
                "addr:city": "Nowe Piekuty",
                "addr:postcode": "18-212",
                "amenity": "pharmacy"
            },
            "geometry": {
                "type": "Point",
                "coordinates": [
                    22.70686537439611,
                    52.8554423570171
                ]
            }
        },
        {
            "type": "Feature",
            "properties": {
                "ref:csioz": 1225109,
                "name": "Doz Apteka Dbam O Zdrowie Z Sercem",
                "addr:street": "Szpitalna",
                "addr:housenumber": "16",
                "addr:city": "Wysokie Mazowieckie",
                "addr:postcode": "18-200",
                "amenity": "pharmacy"
            },
            "geometry": {
                "type": "Point",
                "coordinates": [
                    22.520379633150164,
                    52.914935556850395
                ]
            }
        },
        {
            "type": "Feature",
            "properties": {
                "ref:csioz": 1015238,
                "addr:street": "Lipowa",
                "addr:housenumber": "15",
                "addr:city": "Kobylin-Borzymy",
                "addr:postcode": "18-204",
                "amenity": "pharmacy"
            },
            "geometry": {
                "type": "Point",
                "coordinates": [
                    22.67399380732588,
                    53.091003552574335
                ]
            }
        },
        {
            "type": "Feature",
            "properties": {
                "ref:csioz": 1017271,
                "addr:street": "Rynek Mickiewicza",
                "addr:housenumber": "6",
                "addr:city": "Sokoły",
                "addr:postcode": "18-218",
                "amenity": "pharmacy"
            },
            "geometry": {
                "type": "Point",
                "coordinates": [
                    22.699886148624458,
                    52.99235652753564
                ]
            }
        },
        {
            "type": "Feature",
            "properties": {
                "ref:csioz": 1021823,
                "addr:street": "Szpitalna",
                "addr:housenumber": "5A",
                "addr:city": "Wysokie Mazowieckie",
                "addr:postcode": "18-200",
                "amenity": "pharmacy"
            },
            "geometry": {
                "type": "Point",
                "coordinates": [
                    22.519886522000064,
                    52.91549191890773
                ]
            }
        },
        {
            "type": "Feature",
            "properties": {
                "ref:csioz": 1023320,
                "name": "Świętych Kosmy I Damiana",
                "addr:street": "Mazowiecka",
                "addr:housenumber": "1",
                "addr:city": "Szepietowo",
                "addr:postcode": "18-210",
                "amenity": "pharmacy"
            },
            "geometry": {
                "type": "Point",
                "coordinates": [
                    22.543460380940626,
                    52.870026519279556
                ]
            }
        },
        {
            "type": "Feature",
            "properties": {
                "ref:csioz": 1138748,
                "addr:street": "Szpitalna",
                "addr:housenumber": "5",
                "addr:city": "Wysokie Mazowieckie",
                "addr:postcode": "18-200",
                "amenity": "pharmacy"
            },
            "geometry": {
                "type": "Point",
                "coordinates": [
                    22.522200083702604,
                    52.91547981543156
                ]
            }
        },
        {
            "type": "Feature",
            "properties": {
                "ref:csioz": 1185208,
                "name": "Farmacja Choma Apteki Społeczne",
                "addr:street": "Długa",
                "addr:housenumber": "5",
                "addr:city": "Wysokie Mazowieckie",
                "addr:postcode": "18-200",
                "amenity": "pharmacy"
            },
            "geometry": {
                "type": "Point",
                "coordinates": [
                    22.51117489737426,
                    52.91877552679213
                ]
            }
        },
        {
            "type": "Feature",
            "properties": {
                "ref:csioz": 1195755,
                "name": "Pogodna",
                "addr:street": "Jagiellońska",
                "addr:housenumber": "6",
                "addr:city": "Wysokie Mazowieckie",
                "addr:postcode": "18-200",
                "amenity": "pharmacy"
            },
            "geometry": {
                "type": "Point",
                "coordinates": [
                    22.510374843774994,
                    52.918913622003785
                ]
            }
        },
        {
            "type": "Feature",
            "properties": {
                "ref:csioz": 1228826,
                "addr:housenumber": "46",
                "addr:postcode": "18-218",
                "amenity": "pharmacy",
                "addr:place": "Dworaki-Staśki"
            },
            "geometry": {
                "type": "Point",
                "coordinates": [
                    22.75296725212342,
                    52.95143820804476
                ]
            }
        }
    ]
}