{
    "type": "FeatureCollection",
    "name": "JPT_KOD_JE_3027",
    "features": [
        {
            "type": "Feature",
            "properties": {
                "ref:csioz": 1048764,
                "name": "Grodzka",
                "addr:street": "KALISKA",
                "addr:housenumber": "2A",
                "addr:city": "WŁADYSŁAWÓW",
                "addr:postcode": "62-710",
                "amenity": "pharmacy",
                "dispensing": "yes"
            },
            "geometry": {
                "type": "Point",
                "coordinates": [
                    18.471474042934485,
                    52.10303413219255
                ]
            }
        },
        {
            "type": "Feature",
            "properties": {
                "ref:csioz": 1048180,
                "addr:street": "RYNEK",
                "addr:housenumber": "28",
                "addr:city": "WŁADYSŁAWÓW",
                "addr:postcode": "62-710",
                "amenity": "pharmacy",
                "dispensing": "yes"
            },
            "geometry": {
                "type": "Point",
                "coordinates": [
                    18.472866260176936,
                    52.10373974077268
                ]
            }
        },
        {
            "type": "Feature",
            "properties": {
                "ref:csioz": 1048600,
                "name": "Pod Wagą",
                "addr:street": "WOLNOŚCI",
                "addr:housenumber": "30",
                "addr:city": "BRUDZEW",
                "addr:postcode": "62-720",
                "amenity": "pharmacy",
                "dispensing": "yes"
            },
            "geometry": {
                "type": "Point",
                "coordinates": [
                    18.60554527641397,
                    52.098823918728236
                ]
            }
        },
        {
            "type": "Feature",
            "properties": {
                "ref:csioz": 1048637,
                "name": "Zielona",
                "addr:housenumber": "53",
                "addr:postcode": "62-704",
                "amenity": "pharmacy",
                "addr:place": "KOWALE PAŃSKIE KOLONIA",
                "dispensing": "yes"
            },
            "geometry": {
                "type": "Point",
                "coordinates": [
                    18.534428999999832,
                    51.93852100001537
                ]
            }
        },
        {
            "type": "Feature",
            "properties": {
                "ref:csioz": 1048858,
                "name": "Alba",
                "addr:street": "KONIŃSKA",
                "addr:housenumber": "24",
                "addr:city": "TUREK",
                "addr:postcode": "62-700",
                "amenity": "pharmacy",
                "dispensing": "yes"
            },
            "geometry": {
                "type": "Point",
                "coordinates": [
                    18.46768861848089,
                    52.01685664424423
                ]
            }
        },
        {
            "type": "Feature",
            "properties": {
                "ref:csioz": 1049203,
                "name": "Wspólna",
                "addr:street": "BRACI MARSZLÓW",
                "addr:housenumber": "4",
                "addr:city": "TUREK",
                "addr:postcode": "62-700",
                "amenity": "pharmacy",
                "dispensing": "yes"
            },
            "geometry": {
                "type": "Point",
                "coordinates": [
                    18.49357417135799,
                    52.01070393435962
                ]
            }
        },
        {
            "type": "Feature",
            "properties": {
                "ref:csioz": 1049227,
                "name": "Stars",
                "addr:street": "WOJSKA POLSKIEGO",
                "addr:housenumber": "4",
                "addr:city": "DOBRA",
                "addr:postcode": "62-730",
                "amenity": "pharmacy",
                "dispensing": "yes"
            },
            "geometry": {
                "type": "Point",
                "coordinates": [
                    18.614812321058228,
                    51.91647571456995
                ]
            }
        },
        {
            "type": "Feature",
            "properties": {
                "ref:csioz": 1049392,
                "name": "Prima",
                "addr:street": "KOLSKA SZOSA",
                "addr:housenumber": "3",
                "addr:city": "TUREK",
                "addr:postcode": "62-700",
                "amenity": "pharmacy",
                "dispensing": "yes"
            },
            "geometry": {
                "type": "Point",
                "coordinates": [
                    18.507459543874816,
                    52.01754314819294
                ]
            }
        },
        {
            "type": "Feature",
            "properties": {
                "ref:csioz": 1049415,
                "name": "Kwiaty Polskie",
                "addr:street": "KĄCZKOWSKIEGO",
                "addr:housenumber": "12",
                "addr:city": "TUREK",
                "addr:postcode": "62-700",
                "amenity": "pharmacy",
                "dispensing": "yes"
            },
            "geometry": {
                "type": "Point",
                "coordinates": [
                    18.4947074393907,
                    52.01979631842582
                ]
            }
        },
        {
            "type": "Feature",
            "properties": {
                "ref:csioz": 1049649,
                "name": "Eskulap",
                "addr:street": "SŁONECZNA",
                "addr:housenumber": "5",
                "addr:city": "MALANÓW",
                "addr:postcode": "62-709",
                "amenity": "pharmacy",
                "dispensing": "yes"
            },
            "geometry": {
                "type": "Point",
                "coordinates": [
                    18.395412720324103,
                    51.9531130179714
                ]
            }
        },
        {
            "type": "Feature",
            "properties": {
                "ref:csioz": 1121591,
                "name": "Prima",
                "addr:street": "ŁĄKOWA",
                "addr:housenumber": "3",
                "addr:city": "TUREK",
                "addr:postcode": "62-700",
                "amenity": "pharmacy",
                "dispensing": "yes"
            },
            "geometry": {
                "type": "Point",
                "coordinates": [
                    18.48913951333884,
                    52.01170236447901
                ]
            }
        },
        {
            "type": "Feature",
            "properties": {
                "ref:csioz": 1180046,
                "name": "Zielona",
                "addr:street": "Wojska Polskiego",
                "addr:housenumber": "30",
                "addr:city": "Dobra",
                "addr:postcode": "62-730",
                "amenity": "pharmacy",
                "dispensing": "yes"
            },
            "geometry": {
                "type": "Point",
                "coordinates": [
                    18.61601719055004,
                    51.9157168615205
                ]
            }
        },
        {
            "type": "Feature",
            "properties": {
                "ref:csioz": 1192790,
                "name": "Zielona",
                "addr:street": "Armii Krajowej",
                "addr:housenumber": "1",
                "addr:city": "Turek",
                "addr:postcode": "62-700",
                "amenity": "pharmacy",
                "dispensing": "yes"
            },
            "geometry": {
                "type": "Point",
                "coordinates": [
                    18.510133391930854,
                    52.017481804296416
                ]
            }
        },
        {
            "type": "Feature",
            "properties": {
                "ref:csioz": 1199211,
                "name": "Stylowa",
                "addr:street": "Wojska Polskiego",
                "addr:housenumber": "8",
                "addr:city": "Turek",
                "addr:postcode": "62-700",
                "amenity": "pharmacy",
                "dispensing": "yes"
            },
            "geometry": {
                "type": "Point",
                "coordinates": [
                    18.50170784036995,
                    52.0158624546092
                ]
            }
        },
        {
            "type": "Feature",
            "properties": {
                "ref:csioz": 1049836,
                "addr:street": "PODUCHOWNE",
                "addr:housenumber": "1",
                "addr:city": "TUREK",
                "addr:postcode": "62-700",
                "amenity": "pharmacy",
                "dispensing": "yes"
            },
            "geometry": {
                "type": "Point",
                "coordinates": [
                    18.490794873570543,
                    52.0103200705419
                ]
            }
        },
        {
            "type": "Feature",
            "properties": {
                "ref:csioz": 1048906,
                "addr:street": "JÓZEFA PIŁSUDSKIEGO",
                "addr:housenumber": "1",
                "addr:city": "TUREK",
                "addr:postcode": "62-700",
                "amenity": "pharmacy",
                "dispensing": "yes"
            },
            "geometry": {
                "type": "Point",
                "coordinates": [
                    18.504940650078005,
                    52.01774426842276
                ]
            }
        },
        {
            "type": "Feature",
            "properties": {
                "ref:csioz": 1048911,
                "name": "Vitafarm 2",
                "addr:street": "WYZWOLENIA",
                "addr:housenumber": "2A",
                "addr:city": "TUREK",
                "addr:postcode": "62-700",
                "amenity": "pharmacy",
                "dispensing": "yes"
            },
            "geometry": {
                "type": "Point",
                "coordinates": [
                    18.51786279262596,
                    52.01286104370323
                ]
            }
        },
        {
            "type": "Feature",
            "properties": {
                "ref:csioz": 1049250,
                "name": "Stylowa 2",
                "addr:street": "LEGIONÓW POLSKICH",
                "addr:housenumber": "2",
                "addr:city": "TUREK",
                "addr:postcode": "62-700",
                "amenity": "pharmacy",
                "dispensing": "yes"
            },
            "geometry": {
                "type": "Point",
                "coordinates": [
                    18.50609048393727,
                    52.01594859007286
                ]
            }
        },
        {
            "type": "Feature",
            "properties": {
                "ref:csioz": 1049601,
                "name": "Pod Skorpionem",
                "addr:street": "SZKOLNA",
                "addr:housenumber": "12",
                "addr:city": "PRZYKONA",
                "addr:postcode": "62-731",
                "amenity": "pharmacy",
                "dispensing": "yes"
            },
            "geometry": {
                "type": "Point",
                "coordinates": [
                    18.61482821946564,
                    51.98549311785861
                ]
            }
        },
        {
            "type": "Feature",
            "properties": {
                "ref:csioz": 1120042,
                "name": "Twoje Leki 2",
                "addr:street": "KONIŃSKA",
                "addr:housenumber": "6",
                "addr:city": "GRZYMISZEW",
                "addr:postcode": "62-740",
                "amenity": "pharmacy",
                "dispensing": "yes"
            },
            "geometry": {
                "type": "Point",
                "coordinates": [
                    18.36639865315512,
                    52.04426704743467
                ]
            }
        },
        {
            "type": "Feature",
            "properties": {
                "ref:csioz": 1120167,
                "name": "Stylowa",
                "addr:street": "POWSTAŃCÓW STYCZNIOWYCH",
                "addr:housenumber": "1A",
                "addr:city": "TULISZKÓW",
                "addr:postcode": "62-740",
                "amenity": "pharmacy",
                "dispensing": "yes"
            },
            "geometry": {
                "type": "Point",
                "coordinates": [
                    18.300963763827546,
                    52.0764221790131
                ]
            }
        },
        {
            "type": "Feature",
            "properties": {
                "ref:csioz": 1123119,
                "addr:street": "PODUCHOWNE",
                "addr:housenumber": "1",
                "addr:city": "TUREK",
                "addr:postcode": "62-700",
                "amenity": "pharmacy",
                "dispensing": "yes"
            },
            "geometry": {
                "type": "Point",
                "coordinates": [
                    18.490794873570543,
                    52.0102900705419
                ]
            }
        },
        {
            "type": "Feature",
            "properties": {
                "ref:csioz": 1179664,
                "name": "Stars",
                "addr:housenumber": "4A",
                "addr:postcode": "62-709",
                "amenity": "pharmacy",
                "addr:place": "Malanów",
                "dispensing": "yes"
            },
            "geometry": {
                "type": "Point",
                "coordinates": [
                    18.39248413582294,
                    51.953241729786484
                ]
            }
        },
        {
            "type": "Feature",
            "properties": {
                "ref:csioz": 1191487,
                "name": "Stars",
                "addr:housenumber": "37A",
                "addr:postcode": "62-704",
                "amenity": "pharmacy",
                "addr:place": "Tokary Pierwsze",
                "dispensing": "yes"
            },
            "geometry": {
                "type": "Point",
                "coordinates": [
                    18.531089228838024,
                    51.871133285825216
                ]
            }
        },
        {
            "type": "Feature",
            "properties": {
                "ref:csioz": 1198503,
                "name": "Apteka Społeczna Na 650 Lecia Grupa Nowa Farmacja",
                "addr:street": "650-lecia",
                "addr:housenumber": "6",
                "addr:city": "Turek",
                "addr:postcode": "62-700",
                "amenity": "pharmacy",
                "dispensing": "yes"
            },
            "geometry": {
                "type": "Point",
                "coordinates": [
                    18.50884272753652,
                    52.01548776892264
                ]
            }
        },
        {
            "type": "Feature",
            "properties": {
                "ref:csioz": 1203278,
                "name": "Lawendowa",
                "addr:street": "Wolności",
                "addr:housenumber": "19",
                "addr:city": "Tuliszków",
                "addr:postcode": "62-740",
                "amenity": "pharmacy",
                "dispensing": "yes"
            },
            "geometry": {
                "type": "Point",
                "coordinates": [
                    18.298741999999745,
                    52.07699700001558
                ]
            }
        },
        {
            "type": "Feature",
            "properties": {
                "ref:csioz": 1205969,
                "name": "Wena",
                "addr:street": "Jarosława Dąbrowskiego",
                "addr:housenumber": "7",
                "addr:city": "Turek",
                "addr:postcode": "62-700",
                "amenity": "pharmacy",
                "dispensing": "yes"
            },
            "geometry": {
                "type": "Point",
                "coordinates": [
                    18.50784799999983,
                    52.0144330000155
                ]
            }
        },
        {
            "type": "Feature",
            "properties": {
                "ref:csioz": 1209600,
                "name": "Wena",
                "addr:street": "Kaliska",
                "addr:housenumber": "18",
                "addr:city": "Turek",
                "addr:postcode": "62-700",
                "amenity": "pharmacy",
                "dispensing": "yes"
            },
            "geometry": {
                "type": "Point",
                "coordinates": [
                    18.497789770392604,
                    52.0155376408874
                ]
            }
        },
        {
            "type": "Feature",
            "properties": {
                "ref:csioz": 1213828,
                "name": "Kaliniec",
                "addr:street": "kard. Stefana Wyszyńskiego",
                "addr:housenumber": "3a",
                "addr:city": "Turek",
                "addr:postcode": "62-700",
                "amenity": "pharmacy",
                "dispensing": "yes"
            },
            "geometry": {
                "type": "Point",
                "coordinates": [
                    18.5138669867071,
                    52.01418059981592
                ]
            }
        },
        {
            "type": "Feature",
            "properties": {
                "ref:csioz": 1214265,
                "name": "Stylowa 3",
                "addr:street": "kard. Stefana Wyszyńskiego",
                "addr:housenumber": "1A",
                "addr:city": "Turek",
                "addr:postcode": "62-700",
                "amenity": "pharmacy",
                "dispensing": "yes"
            },
            "geometry": {
                "type": "Point",
                "coordinates": [
                    18.514757081019766,
                    52.01480564408825
                ]
            }
        },
        {
            "type": "Feature",
            "properties": {
                "ref:csioz": 1219881,
                "name": "Pod Turem",
                "addr:street": "Goleszczyzna",
                "addr:housenumber": "2A",
                "addr:city": "Brudzew",
                "addr:postcode": "62-720",
                "amenity": "pharmacy",
                "dispensing": "yes"
            },
            "geometry": {
                "type": "Point",
                "coordinates": [
                    18.604516498583443,
                    52.103792199192036
                ]
            }
        },
        {
            "type": "Feature",
            "properties": {
                "ref:csioz": 1221992,
                "name": "Stylowa 4",
                "addr:street": "Komunalna",
                "addr:housenumber": "2",
                "addr:city": "Turek",
                "addr:postcode": "62-700",
                "amenity": "pharmacy",
                "dispensing": "yes"
            },
            "geometry": {
                "type": "Point",
                "coordinates": [
                    18.488163387981615,
                    52.01984594608391
                ]
            }
        },
        {
            "type": "Feature",
            "properties": {
                "ref:csioz": 1222204,
                "name": "Doz Apteka Dbam O Zdrowie Nowa",
                "addr:street": "Nowa",
                "addr:housenumber": "22",
                "addr:city": "Turek",
                "addr:postcode": "62-700",
                "amenity": "pharmacy",
                "dispensing": "yes"
            },
            "geometry": {
                "type": "Point",
                "coordinates": [
                    18.51061348593219,
                    52.01161497715877
                ]
            }
        },
        {
            "type": "Feature",
            "properties": {
                "ref:csioz": 1229759,
                "name": "Róża",
                "addr:street": "Jana Pawła II",
                "addr:housenumber": "20A",
                "addr:city": "Wyszyna",
                "addr:postcode": "62-710",
                "amenity": "pharmacy",
                "dispensing": "yes"
            },
            "geometry": {
                "type": "Point",
                "coordinates": [
                    18.40384024276962,
                    52.1374375957656
                ]
            }
        },
        {
            "type": "Feature",
            "properties": {
                "ref:csioz": 1230470,
                "name": "Zielona",
                "addr:street": "Południowa",
                "addr:housenumber": "1",
                "addr:city": "Malanów",
                "addr:postcode": "62-709",
                "amenity": "pharmacy",
                "dispensing": "yes"
            },
            "geometry": {
                "type": "Point",
                "coordinates": [
                    18.39172284612498,
                    51.95296417498384
                ]
            }
        }
    ]
}