{
    "type": "FeatureCollection",
    "name": "JPT_KOD_JE_2403",
    "features": [
        {
            "type": "Feature",
            "properties": {
                "ref:csioz": 1062629,
                "name": "Na Dzielcu",
                "addr:housenumber": "1475",
                "addr:city": "Istebna",
                "addr:postcode": "43-470",
                "amenity": "pharmacy"
            },
            "geometry": {
                "type": "Point",
                "coordinates": [
                    18.889040640402484,
                    49.56941820159581
                ]
            }
        },
        {
            "type": "Feature",
            "properties": {
                "ref:csioz": 1062632,
                "name": "Brak",
                "addr:housenumber": "68",
                "addr:city": "Istebna",
                "addr:postcode": "43-470",
                "amenity": "pharmacy"
            },
            "geometry": {
                "type": "Point",
                "coordinates": [
                    18.892517313289627,
                    49.5639261955082
                ]
            }
        },
        {
            "type": "Feature",
            "properties": {
                "ref:csioz": 1064912,
                "name": "Apteka Pod Ochodzitą",
                "addr:housenumber": "783",
                "addr:city": "Koniaków",
                "addr:postcode": "43-474",
                "amenity": "pharmacy"
            },
            "geometry": {
                "type": "Point",
                "coordinates": [
                    18.936704763852013,
                    49.54961414003443
                ]
            }
        },
        {
            "type": "Feature",
            "properties": {
                "ref:csioz": 1174147,
                "name": "Szpital Kubalonka",
                "addr:housenumber": "500",
                "addr:city": "Istebna",
                "addr:postcode": "43-470",
                "amenity": "pharmacy"
            },
            "geometry": {
                "type": "Point",
                "coordinates": [
                    18.899719812726357,
                    49.60214898614902
                ]
            }
        },
        {
            "type": "Feature",
            "properties": {
                "ref:csioz": 1183519,
                "name": "Apteka Dr Libro",
                "addr:street": "Wyzwolenia",
                "addr:housenumber": "61c",
                "addr:city": "Wisła",
                "addr:postcode": "43-460",
                "amenity": "pharmacy"
            },
            "geometry": {
                "type": "Point",
                "coordinates": [
                    18.88616502754577,
                    49.63480360136765
                ]
            }
        },
        {
            "type": "Feature",
            "properties": {
                "ref:csioz": 1063321,
                "name": "Brak",
                "addr:housenumber": "641",
                "addr:city": "Jaworzynka",
                "addr:postcode": "43-476",
                "amenity": "pharmacy"
            },
            "geometry": {
                "type": "Point",
                "coordinates": [
                    18.867982713882103,
                    49.5381913681703
                ]
            }
        },
        {
            "type": "Feature",
            "properties": {
                "ref:csioz": 1070913,
                "name": "Apteka Molin-Paweł Molin",
                "addr:street": "1 Maja",
                "addr:housenumber": "53",
                "addr:city": "Wisła",
                "addr:postcode": "43-460",
                "amenity": "pharmacy"
            },
            "geometry": {
                "type": "Point",
                "coordinates": [
                    18.860011105992843,
                    49.6539330103241
                ]
            }
        },
        {
            "type": "Feature",
            "properties": {
                "ref:csioz": 1172410,
                "name": "Apteka Główna Wisła Oaza",
                "addr:street": "1 Maja",
                "addr:housenumber": "27",
                "addr:city": "Wisła",
                "addr:postcode": "43-460",
                "amenity": "pharmacy"
            },
            "geometry": {
                "type": "Point",
                "coordinates": [
                    18.86839670606376,
                    49.64651253625938
                ]
            }
        },
        {
            "type": "Feature",
            "properties": {
                "ref:csioz": 1195882,
                "name": "Apteka Główna Pod Arkadami",
                "addr:street": "1 Maja",
                "addr:housenumber": "57",
                "addr:city": "Wisła",
                "addr:postcode": "43-460",
                "amenity": "pharmacy"
            },
            "geometry": {
                "type": "Point",
                "coordinates": [
                    18.85873699738086,
                    49.655065428710145
                ]
            }
        },
        {
            "type": "Feature",
            "properties": {
                "ref:csioz": 1201604,
                "name": "Apteka Molin - Dr N. Farm. Pawe Molin",
                "addr:street": "Dziechcinka",
                "addr:housenumber": "4",
                "addr:city": "Wisła",
                "addr:postcode": "43-460",
                "amenity": "pharmacy"
            },
            "geometry": {
                "type": "Point",
                "coordinates": [
                    18.86677268015351,
                    49.646707728740004
                ]
            }
        },
        {
            "type": "Feature",
            "properties": {
                "ref:csioz": 1224754,
                "name": "Apteka Główna Wisła",
                "addr:street": "Jawornik",
                "addr:housenumber": "1a",
                "addr:flats": "4",
                "addr:city": "Wisła",
                "addr:postcode": "43-460",
                "amenity": "pharmacy"
            },
            "geometry": {
                "type": "Point",
                "coordinates": [
                    18.8455265676662,
                    49.66645628060217
                ]
            }
        },
        {
            "type": "Feature",
            "properties": {
                "ref:csioz": 1058608,
                "name": "Przy Wiarusie",
                "addr:street": "Wyzwolenia",
                "addr:housenumber": "34A",
                "addr:city": "Brenna",
                "addr:postcode": "43-438",
                "amenity": "pharmacy"
            },
            "geometry": {
                "type": "Point",
                "coordinates": [
                    18.90897799999998,
                    49.72352300001212
                ]
            }
        },
        {
            "type": "Feature",
            "properties": {
                "ref:csioz": 1174306,
                "name": "Centrum",
                "addr:street": "Wyzwolenia",
                "addr:housenumber": "38B",
                "addr:city": "Brenna",
                "addr:postcode": "43-438",
                "amenity": "pharmacy"
            },
            "geometry": {
                "type": "Point",
                "coordinates": [
                    18.91386999999998,
                    49.721594000012125
                ]
            }
        },
        {
            "type": "Feature",
            "properties": {
                "ref:csioz": 1016712,
                "name": "Samodzielny Publiczny Zakład Opieki Zdrowotnej Śląskiego Centrum Rehabilitacji W Ustroniu",
                "addr:street": "Zdrojowa",
                "addr:housenumber": "6",
                "addr:city": "Ustroń",
                "addr:postcode": "44-450",
                "amenity": "pharmacy"
            },
            "geometry": {
                "type": "Point",
                "coordinates": [
                    18.828502832722727,
                    49.717916906056615
                ]
            }
        },
        {
            "type": "Feature",
            "properties": {
                "ref:csioz": 1059738,
                "name": "Słoneczna",
                "addr:street": "Bielska",
                "addr:housenumber": "33A",
                "addr:city": "Chybie",
                "addr:postcode": "43-520",
                "amenity": "pharmacy"
            },
            "geometry": {
                "type": "Point",
                "coordinates": [
                    18.818217182609878,
                    49.892130941720104
                ]
            }
        },
        {
            "type": "Feature",
            "properties": {
                "ref:csioz": 1059746,
                "name": "Brak",
                "addr:street": "Bielska",
                "addr:housenumber": "61",
                "addr:city": "Chybie",
                "addr:postcode": "43-520",
                "amenity": "pharmacy"
            },
            "geometry": {
                "type": "Point",
                "coordinates": [
                    18.812485085501155,
                    49.895415898862026
                ]
            }
        },
        {
            "type": "Feature",
            "properties": {
                "ref:csioz": 1059772,
                "name": "Medea",
                "addr:street": "Bielska",
                "addr:housenumber": "8",
                "addr:city": "Cieszyn",
                "addr:postcode": "43-400",
                "amenity": "pharmacy"
            },
            "geometry": {
                "type": "Point",
                "coordinates": [
                    18.639956252668192,
                    49.74657299707779
                ]
            }
        },
        {
            "type": "Feature",
            "properties": {
                "ref:csioz": 1059805,
                "name": "Medea 3",
                "addr:street": "Frysztacka",
                "addr:housenumber": "20",
                "addr:city": "Cieszyn",
                "addr:postcode": "43-400",
                "amenity": "pharmacy"
            },
            "geometry": {
                "type": "Point",
                "coordinates": [
                    18.62641779366952,
                    49.75495821979649
                ]
            }
        },
        {
            "type": "Feature",
            "properties": {
                "ref:csioz": 1062543,
                "name": "W Górkach",
                "addr:street": "Zalesie",
                "addr:housenumber": "3",
                "addr:city": "Górki Małe",
                "addr:postcode": "43-436",
                "amenity": "pharmacy"
            },
            "geometry": {
                "type": "Point",
                "coordinates": [
                    18.850819999999956,
                    49.770693000012194
                ]
            }
        },
        {
            "type": "Feature",
            "properties": {
                "ref:csioz": 1062556,
                "name": "Górki",
                "addr:street": "Breńska",
                "addr:housenumber": "2",
                "addr:city": "Górki Wielkie",
                "addr:postcode": "43-436",
                "amenity": "pharmacy"
            },
            "geometry": {
                "type": "Point",
                "coordinates": [
                    18.852047999999968,
                    49.77163800001219
                ]
            }
        },
        {
            "type": "Feature",
            "properties": {
                "ref:csioz": 1062562,
                "name": "Hażlach",
                "addr:street": "Długa",
                "addr:housenumber": "25B",
                "addr:city": "Hażlach",
                "addr:postcode": "43-419",
                "amenity": "pharmacy"
            },
            "geometry": {
                "type": "Point",
                "coordinates": [
                    18.662792817604963,
                    49.80178793106345
                ]
            }
        },
        {
            "type": "Feature",
            "properties": {
                "ref:csioz": 1070724,
                "name": "Pod Najadą",
                "addr:street": "3 Maja",
                "addr:housenumber": "13",
                "addr:city": "Ustroń",
                "addr:postcode": "43-450",
                "amenity": "pharmacy"
            },
            "geometry": {
                "type": "Point",
                "coordinates": [
                    18.814859466711912,
                    49.71741779484186
                ]
            }
        },
        {
            "type": "Feature",
            "properties": {
                "ref:csioz": 1070735,
                "name": "Na Szlaku",
                "addr:street": "3 Maja",
                "addr:housenumber": "46",
                "addr:city": "Ustroń",
                "addr:postcode": "43-450",
                "amenity": "pharmacy"
            },
            "geometry": {
                "type": "Point",
                "coordinates": [
                    18.818527719371943,
                    49.71231228434089
                ]
            }
        },
        {
            "type": "Feature",
            "properties": {
                "ref:csioz": 1070743,
                "name": "Apteka Dr Libro",
                "addr:street": "Andrzeja Brody",
                "addr:housenumber": "8A",
                "addr:city": "Ustroń",
                "addr:postcode": "43-450",
                "amenity": "pharmacy"
            },
            "geometry": {
                "type": "Point",
                "coordinates": [
                    18.807850328328982,
                    49.7186856022585
                ]
            }
        },
        {
            "type": "Feature",
            "properties": {
                "ref:csioz": 1070762,
                "name": "Centrum",
                "addr:street": "Ignacego Daszyńskiego",
                "addr:housenumber": "8",
                "addr:city": "Ustroń",
                "addr:postcode": "43-450",
                "amenity": "pharmacy"
            },
            "geometry": {
                "type": "Point",
                "coordinates": [
                    18.811035263811732,
                    49.720133809769145
                ]
            }
        },
        {
            "type": "Feature",
            "properties": {
                "ref:csioz": 1070781,
                "name": "Brak",
                "addr:street": "Sanatoryjna",
                "addr:housenumber": "7",
                "addr:city": "Ustroń",
                "addr:postcode": "43-450",
                "amenity": "pharmacy"
            },
            "geometry": {
                "type": "Point",
                "coordinates": [
                    18.824878872595686,
                    49.72151105688108
                ]
            }
        },
        {
            "type": "Feature",
            "properties": {
                "ref:csioz": 1072630,
                "name": "Punkt Apteczny W Drogomyślu",
                "addr:street": "Oblaski",
                "addr:housenumber": "10",
                "addr:city": "Drogomyśl",
                "addr:postcode": "43-424",
                "amenity": "pharmacy"
            },
            "geometry": {
                "type": "Point",
                "coordinates": [
                    18.761826481967788,
                    49.86757921345368
                ]
            }
        },
        {
            "type": "Feature",
            "properties": {
                "ref:csioz": 1072812,
                "name": "Brak",
                "addr:street": "JANA III SOBIESKIEGO",
                "addr:housenumber": "12",
                "addr:city": "KACZYCE",
                "addr:postcode": "43-417",
                "amenity": "pharmacy"
            },
            "geometry": {
                "type": "Point",
                "coordinates": [
                    18.586328770423716,
                    49.832012705096176
                ]
            }
        },
        {
            "type": "Feature",
            "properties": {
                "ref:csioz": 1073077,
                "name": "Nasze Leki",
                "addr:street": "Centralna",
                "addr:housenumber": "10",
                "addr:city": "Ogrodzona",
                "addr:postcode": "43-426",
                "amenity": "pharmacy"
            },
            "geometry": {
                "type": "Point",
                "coordinates": [
                    18.726927224936638,
                    49.770283832274494
                ]
            }
        },
        {
            "type": "Feature",
            "properties": {
                "ref:csioz": 1073198,
                "name": "Nasze Leki",
                "addr:street": "Sportowa",
                "addr:housenumber": "4",
                "addr:city": "Puńców",
                "addr:postcode": "43-400",
                "amenity": "pharmacy"
            },
            "geometry": {
                "type": "Point",
                "coordinates": [
                    18.667996864961648,
                    49.71724427132122
                ]
            }
        },
        {
            "type": "Feature",
            "properties": {
                "ref:csioz": 1110842,
                "name": "Apteka Centrum",
                "addr:street": "Ks. A. Janusza",
                "addr:housenumber": "10A",
                "addr:city": "Zebrzydowice",
                "addr:postcode": "43-410",
                "amenity": "pharmacy"
            },
            "geometry": {
                "type": "Point",
                "coordinates": [
                    18.613233571148474,
                    49.879814325097094
                ]
            }
        },
        {
            "type": "Feature",
            "properties": {
                "ref:csioz": 1122423,
                "name": "Apteka Zdrowit",
                "addr:street": "Cieszyńska",
                "addr:housenumber": "3B",
                "addr:city": "Skoczów",
                "addr:postcode": "43-430",
                "amenity": "pharmacy"
            },
            "geometry": {
                "type": "Point",
                "coordinates": [
                    18.78724814272077,
                    49.80061590312836
                ]
            }
        },
        {
            "type": "Feature",
            "properties": {
                "ref:csioz": 1174485,
                "name": "Apteka Dr.Zdrowitt",
                "addr:street": "Ignacego Daszyńskiego",
                "addr:housenumber": "73",
                "addr:city": "Ustroń",
                "addr:postcode": "43-450",
                "amenity": "pharmacy"
            },
            "geometry": {
                "type": "Point",
                "coordinates": [
                    18.805595875744004,
                    49.7301617152187
                ]
            }
        },
        {
            "type": "Feature",
            "properties": {
                "ref:csioz": 1185851,
                "name": "Medea",
                "addr:street": "Katowicka",
                "addr:housenumber": "15",
                "addr:city": "Pogwizdów",
                "addr:postcode": "43-418",
                "amenity": "pharmacy"
            },
            "geometry": {
                "type": "Point",
                "coordinates": [
                    18.601831996080698,
                    49.80403340702879
                ]
            }
        },
        {
            "type": "Feature",
            "properties": {
                "ref:csioz": 1215326,
                "name": "Medea",
                "addr:street": "1 Maja",
                "addr:housenumber": "12",
                "addr:city": "Goleszów",
                "addr:postcode": "43-440",
                "amenity": "pharmacy"
            },
            "geometry": {
                "type": "Point",
                "coordinates": [
                    18.739349853136318,
                    49.735932282359244
                ]
            }
        },
        {
            "type": "Feature",
            "properties": {
                "ref:csioz": 1221968,
                "name": "Apteka Zdrój Przy Biedronce",
                "addr:street": "Jutrzenki",
                "addr:housenumber": "2C",
                "addr:city": "Zebrzydowice",
                "addr:postcode": "43-410",
                "amenity": "pharmacy"
            },
            "geometry": {
                "type": "Point",
                "coordinates": [
                    18.605727934366712,
                    49.877123929073406
                ]
            }
        },
        {
            "type": "Feature",
            "properties": {
                "ref:csioz": 1225732,
                "name": "Apteka Max",
                "addr:street": "Bielska",
                "addr:housenumber": "45a",
                "addr:city": "Skoczów",
                "addr:postcode": "43-430",
                "amenity": "pharmacy"
            },
            "geometry": {
                "type": "Point",
                "coordinates": [
                    18.80064763322282,
                    49.80353309728928
                ]
            }
        },
        {
            "type": "Feature",
            "properties": {
                "ref:csioz": 1057297,
                "name": "Zakład Opiekuńczo-Leczniczy Prowadzony Przez Zgromadzenie Sióstr Miłosierdzia Św. Karola Boromeusza",
                "addr:street": "Górny Rynek",
                "addr:housenumber": "6",
                "addr:city": "Cieszyn",
                "addr:postcode": "43-400",
                "amenity": "pharmacy"
            },
            "geometry": {
                "type": "Point",
                "coordinates": [
                    18.63564961627951,
                    49.7475282396381
                ]
            }
        },
        {
            "type": "Feature",
            "properties": {
                "ref:csioz": 1059818,
                "name": "Pod Zamkiem",
                "addr:street": "Głęboka",
                "addr:housenumber": "62",
                "addr:city": "Cieszyn",
                "addr:postcode": "43-400",
                "amenity": "pharmacy"
            },
            "geometry": {
                "type": "Point",
                "coordinates": [
                    18.62820212859034,
                    49.750302947327846
                ]
            }
        },
        {
            "type": "Feature",
            "properties": {
                "ref:csioz": 1059839,
                "name": "Na Banotówce",
                "addr:street": "gen. Józefa Hallera",
                "addr:housenumber": "65",
                "addr:city": "Cieszyn",
                "addr:postcode": "43-400",
                "amenity": "pharmacy"
            },
            "geometry": {
                "type": "Point",
                "coordinates": [
                    18.649562220919858,
                    49.741699296666404
                ]
            }
        },
        {
            "type": "Feature",
            "properties": {
                "ref:csioz": 1059847,
                "name": "Apteka Dbam O Zdrowie",
                "addr:street": "Kolejowa",
                "addr:housenumber": "20",
                "addr:city": "Cieszyn",
                "addr:postcode": "43-400",
                "amenity": "pharmacy"
            },
            "geometry": {
                "type": "Point",
                "coordinates": [
                    18.64136311980974,
                    49.74759053368302
                ]
            }
        },
        {
            "type": "Feature",
            "properties": {
                "ref:csioz": 1059852,
                "name": "Galen",
                "addr:street": "Liburnia",
                "addr:housenumber": "22",
                "addr:city": "Cieszyn",
                "addr:postcode": "43-400",
                "amenity": "pharmacy"
            },
            "geometry": {
                "type": "Point",
                "coordinates": [
                    18.637299947064328,
                    49.751870402968606
                ]
            }
        },
        {
            "type": "Feature",
            "properties": {
                "ref:csioz": 1059860,
                "name": "Medea 2",
                "addr:street": "Bolesława Limanowskiego",
                "addr:housenumber": "9",
                "addr:flats": "1",
                "addr:city": "Cieszyn",
                "addr:postcode": "43-400",
                "amenity": "pharmacy"
            },
            "geometry": {
                "type": "Point",
                "coordinates": [
                    18.634068128103525,
                    49.74708246913526
                ]
            }
        },
        {
            "type": "Feature",
            "properties": {
                "ref:csioz": 1059883,
                "name": "U Miłosiernych",
                "addr:street": "Józefa Londzina",
                "addr:housenumber": "1",
                "addr:city": "Cieszyn",
                "addr:postcode": "43-400",
                "amenity": "pharmacy"
            },
            "geometry": {
                "type": "Point",
                "coordinates": [
                    18.635019207236873,
                    49.75013243569292
                ]
            }
        },
        {
            "type": "Feature",
            "properties": {
                "ref:csioz": 1059894,
                "name": "Dr. Max",
                "addr:street": "Rynek",
                "addr:housenumber": "6",
                "addr:city": "Cieszyn",
                "addr:postcode": "43-400",
                "amenity": "pharmacy"
            },
            "geometry": {
                "type": "Point",
                "coordinates": [
                    18.632953052503265,
                    49.748855062817
                ]
            }
        },
        {
            "type": "Feature",
            "properties": {
                "ref:csioz": 1061767,
                "name": "Arnika",
                "addr:street": "Katowicka",
                "addr:housenumber": "3",
                "addr:city": "Dębowiec",
                "addr:postcode": "43-426",
                "amenity": "pharmacy"
            },
            "geometry": {
                "type": "Point",
                "coordinates": [
                    18.718481163573692,
                    49.81363064368765
                ]
            }
        },
        {
            "type": "Feature",
            "properties": {
                "ref:csioz": 1064985,
                "name": "W Kończycach",
                "addr:street": "Kasztelańska",
                "addr:housenumber": "2A",
                "addr:city": "Kończyce Małe",
                "addr:postcode": "43-410",
                "amenity": "pharmacy"
            },
            "geometry": {
                "type": "Point",
                "coordinates": [
                    18.63253232814417,
                    49.84660542298213
                ]
            }
        },
        {
            "type": "Feature",
            "properties": {
                "ref:csioz": 1068745,
                "name": "Mediq Apteka Niskich Cen",
                "addr:street": "Fabryczna",
                "addr:housenumber": "9",
                "addr:city": "Skoczów",
                "addr:postcode": "43-430",
                "amenity": "pharmacy"
            },
            "geometry": {
                "type": "Point",
                "coordinates": [
                    18.790406959874325,
                    49.801200162609604
                ]
            }
        },
        {
            "type": "Feature",
            "properties": {
                "ref:csioz": 1068776,
                "name": "Apteka Familia Na Górnym Borze",
                "addr:street": "Gustawa Morcinka",
                "addr:housenumber": "10",
                "addr:city": "Skoczów",
                "addr:postcode": "43-430",
                "amenity": "pharmacy"
            },
            "geometry": {
                "type": "Point",
                "coordinates": [
                    18.78725382778409,
                    49.79502170902142
                ]
            }
        },
        {
            "type": "Feature",
            "properties": {
                "ref:csioz": 1068784,
                "name": "Apteka Melisa",
                "addr:street": "Gustawa Morcinka",
                "addr:housenumber": "16B",
                "addr:city": "Skoczów",
                "addr:postcode": "43-430",
                "amenity": "pharmacy"
            },
            "geometry": {
                "type": "Point",
                "coordinates": [
                    18.786274784472543,
                    49.7948583297449
                ]
            }
        },
        {
            "type": "Feature",
            "properties": {
                "ref:csioz": 1068792,
                "name": "Familia Centrum",
                "addr:street": "Mickiewicza",
                "addr:housenumber": "7",
                "addr:city": "Skoczów",
                "addr:postcode": "43-430",
                "amenity": "pharmacy"
            },
            "geometry": {
                "type": "Point",
                "coordinates": [
                    18.786672907210356,
                    49.7996739280398
                ]
            }
        },
        {
            "type": "Feature",
            "properties": {
                "ref:csioz": 1068807,
                "name": "Apteka Dbam O Zdrowie",
                "addr:street": "Rynek",
                "addr:housenumber": "11",
                "addr:city": "Skoczów",
                "addr:postcode": "43-430",
                "amenity": "pharmacy"
            },
            "geometry": {
                "type": "Point",
                "coordinates": [
                    18.78877046921512,
                    49.800858516013896
                ]
            }
        },
        {
            "type": "Feature",
            "properties": {
                "ref:csioz": 1068829,
                "name": "Twoja Apteka",
                "addr:street": "Stalmacha",
                "addr:housenumber": "8",
                "addr:city": "Skoczów",
                "addr:postcode": "43-430",
                "amenity": "pharmacy"
            },
            "geometry": {
                "type": "Point",
                "coordinates": [
                    18.787750795348718,
                    49.80364315322159
                ]
            }
        },
        {
            "type": "Feature",
            "properties": {
                "ref:csioz": 1068832,
                "name": "Przy Pomniku",
                "addr:street": "Targowa",
                "addr:housenumber": "26",
                "addr:city": "Skoczów",
                "addr:postcode": "43-430",
                "amenity": "pharmacy"
            },
            "geometry": {
                "type": "Point",
                "coordinates": [
                    18.78870448626646,
                    49.79565146145744
                ]
            }
        },
        {
            "type": "Feature",
            "properties": {
                "ref:csioz": 1069736,
                "name": "Eskulap",
                "addr:street": "Księdza Londzina",
                "addr:housenumber": "1",
                "addr:city": "Strumień",
                "addr:postcode": "43-246",
                "amenity": "pharmacy"
            },
            "geometry": {
                "type": "Point",
                "coordinates": [
                    18.76401751847325,
                    49.91745239727816
                ]
            }
        },
        {
            "type": "Feature",
            "properties": {
                "ref:csioz": 1073800,
                "name": "Zespól Zakładów Opieki Zdrowotnej W Cieszynie",
                "addr:street": "Bielska",
                "addr:housenumber": "4",
                "addr:city": "Cieszyn",
                "addr:postcode": "43-400",
                "amenity": "pharmacy"
            },
            "geometry": {
                "type": "Point",
                "coordinates": [
                    18.63901511457676,
                    49.7456395550259
                ]
            }
        },
        {
            "type": "Feature",
            "properties": {
                "ref:csioz": 1074419,
                "name": "\"Śląskie Centrum Reumatologii, Rehabilitacji I Zapobiegania Niepełnosprawności Im. Gen. Jerzego Ziętka\"",
                "addr:street": "Szpitalna",
                "addr:housenumber": "11",
                "addr:city": "Ustroń",
                "addr:postcode": "43-450",
                "amenity": "pharmacy"
            },
            "geometry": {
                "type": "Point",
                "coordinates": [
                    18.821327651716675,
                    49.72650548918073
                ]
            }
        },
        {
            "type": "Feature",
            "properties": {
                "ref:csioz": 1113215,
                "name": "Centrum Medyczne Sióstr Elżbietanek",
                "addr:street": "Katowicka",
                "addr:housenumber": "1",
                "addr:city": "Cieszyn",
                "addr:postcode": "43-400",
                "amenity": "pharmacy"
            },
            "geometry": {
                "type": "Point",
                "coordinates": [
                    18.640112923444118,
                    49.75299530255179
                ]
            }
        },
        {
            "type": "Feature",
            "properties": {
                "ref:csioz": 1115918,
                "name": "Apteka Melisa",
                "addr:street": "1 Maja",
                "addr:housenumber": "13",
                "addr:city": "Strumień",
                "addr:postcode": "43-246",
                "amenity": "pharmacy"
            },
            "geometry": {
                "type": "Point",
                "coordinates": [
                    18.76001743965895,
                    49.91621126870942
                ]
            }
        },
        {
            "type": "Feature",
            "properties": {
                "ref:csioz": 1122524,
                "name": "Doz Apteka. Dbam O Zdrowie Rumiankowa",
                "addr:street": "Skoczowska",
                "addr:housenumber": "76",
                "addr:city": "Ustroń",
                "addr:postcode": "43-450",
                "amenity": "pharmacy"
            },
            "geometry": {
                "type": "Point",
                "coordinates": [
                    18.805334977191524,
                    49.74566196330311
                ]
            }
        },
        {
            "type": "Feature",
            "properties": {
                "ref:csioz": 1176225,
                "name": "Lawenda",
                "addr:street": "Skoczowska",
                "addr:housenumber": "137",
                "addr:city": "Ustroń",
                "addr:postcode": "43-450",
                "amenity": "pharmacy"
            },
            "geometry": {
                "type": "Point",
                "coordinates": [
                    18.80439694843665,
                    49.75436143939228
                ]
            }
        },
        {
            "type": "Feature",
            "properties": {
                "ref:csioz": 1177218,
                "name": "Dr.Max",
                "addr:street": "Liburnia",
                "addr:housenumber": "28",
                "addr:city": "Cieszyn",
                "addr:postcode": "43-400",
                "amenity": "pharmacy"
            },
            "geometry": {
                "type": "Point",
                "coordinates": [
                    18.63880782753724,
                    49.75203365816208
                ]
            }
        },
        {
            "type": "Feature",
            "properties": {
                "ref:csioz": 1181488,
                "name": "Apteka Centrum Leków Max",
                "addr:street": "Ignacego Daszyńskiego",
                "addr:housenumber": "1",
                "addr:city": "Ustroń",
                "addr:postcode": "43-450",
                "amenity": "pharmacy"
            },
            "geometry": {
                "type": "Point",
                "coordinates": [
                    18.811270055719827,
                    49.71970691558105
                ]
            }
        },
        {
            "type": "Feature",
            "properties": {
                "ref:csioz": 1185537,
                "name": "Medea",
                "addr:street": "Główna",
                "addr:housenumber": "68",
                "addr:city": "Pruchna",
                "addr:postcode": "43-523",
                "amenity": "pharmacy"
            },
            "geometry": {
                "type": "Point",
                "coordinates": [
                    18.699693436190426,
                    49.86689836278391
                ]
            }
        },
        {
            "type": "Feature",
            "properties": {
                "ref:csioz": 1186843,
                "addr:street": "Olsztyńska",
                "addr:housenumber": "37",
                "addr:city": "Zaborze",
                "addr:postcode": "42-310",
                "amenity": "pharmacy"
            },
            "geometry": {
                "type": "Point",
                "coordinates": [
                    18.814514217529492,
                    49.87098179326676
                ]
            }
        },
        {
            "type": "Feature",
            "properties": {
                "ref:csioz": 1188692,
                "name": "Nasze Leki",
                "addr:street": "ks. Olszaka",
                "addr:housenumber": "8",
                "addr:city": "Kończyce Wielkie",
                "addr:postcode": "43-419",
                "amenity": "pharmacy"
            },
            "geometry": {
                "type": "Point",
                "coordinates": [
                    18.653879708234733,
                    49.8322249023975
                ]
            }
        },
        {
            "type": "Feature",
            "properties": {
                "ref:csioz": 1198348,
                "name": "Medea W Intermarche",
                "addr:street": "Górna",
                "addr:housenumber": "21",
                "addr:city": "Cieszyn",
                "addr:postcode": "43-400",
                "amenity": "pharmacy"
            },
            "geometry": {
                "type": "Point",
                "coordinates": [
                    18.63902538449475,
                    49.74317839718425
                ]
            }
        },
        {
            "type": "Feature",
            "properties": {
                "ref:csioz": 1200312,
                "name": "Medea W Ubezpieczalni",
                "addr:street": "Bielska",
                "addr:housenumber": "37",
                "addr:city": "Cieszyn",
                "addr:postcode": "43-400",
                "amenity": "pharmacy"
            },
            "geometry": {
                "type": "Point",
                "coordinates": [
                    18.64288535528044,
                    49.749058971827765
                ]
            }
        },
        {
            "type": "Feature",
            "properties": {
                "ref:csioz": 1203904,
                "name": "Apteka Słoneczna",
                "addr:street": "Kolejowa",
                "addr:housenumber": "16",
                "addr:city": "Cieszyn",
                "addr:postcode": "43-400",
                "amenity": "pharmacy"
            },
            "geometry": {
                "type": "Point",
                "coordinates": [
                    18.64085406096866,
                    49.74825945059051
                ]
            }
        },
        {
            "type": "Feature",
            "properties": {
                "ref:csioz": 1203912,
                "addr:street": "Sanatoryjna",
                "addr:housenumber": "7",
                "addr:flats": "AHP",
                "addr:city": "Ustroń",
                "addr:postcode": "43-450",
                "amenity": "pharmacy"
            },
            "geometry": {
                "type": "Point",
                "coordinates": [
                    18.824878872595686,
                    49.72151105688108
                ]
            }
        },
        {
            "type": "Feature",
            "properties": {
                "ref:csioz": 1204272,
                "name": "Centrum Za Wisłą",
                "addr:street": "Górecka",
                "addr:housenumber": "25",
                "addr:city": "Skoczów",
                "addr:postcode": "43-430",
                "amenity": "pharmacy"
            },
            "geometry": {
                "type": "Point",
                "coordinates": [
                    18.79836112168312,
                    49.799723277872815
                ]
            }
        },
        {
            "type": "Feature",
            "properties": {
                "ref:csioz": 1207579,
                "name": "Apteka Isofarm",
                "addr:street": "Objazdowa",
                "addr:housenumber": "2",
                "addr:city": "Skoczów",
                "addr:postcode": "43-430",
                "amenity": "pharmacy"
            },
            "geometry": {
                "type": "Point",
                "coordinates": [
                    18.78987379460684,
                    49.803564187986034
                ]
            }
        },
        {
            "type": "Feature",
            "properties": {
                "ref:csioz": 1210521,
                "name": "Apteka Centrum Leków Max",
                "addr:street": "Cieszyńska",
                "addr:housenumber": "16",
                "addr:city": "Goleszów",
                "addr:postcode": "43-440",
                "amenity": "pharmacy"
            },
            "geometry": {
                "type": "Point",
                "coordinates": [
                    18.736998669472232,
                    49.734436707627545
                ]
            }
        },
        {
            "type": "Feature",
            "properties": {
                "ref:csioz": 1212151,
                "name": "Hygieia",
                "addr:street": "Mennicza",
                "addr:housenumber": "20",
                "addr:city": "Cieszyn",
                "addr:postcode": "43-400",
                "amenity": "pharmacy"
            },
            "geometry": {
                "type": "Point",
                "coordinates": [
                    18.631844983339995,
                    49.749805861205736
                ]
            }
        },
        {
            "type": "Feature",
            "properties": {
                "ref:csioz": 1213652,
                "name": "\"Nzoz Centrum Lekarskie 'Alfa' Sp. J. Ryszard Sędziak I Wspólnicy - Opieka Całodobowa\"",
                "addr:street": "Gustawa Morcinka",
                "addr:housenumber": "16B",
                "addr:flats": "lok. 2",
                "addr:city": "Skoczów",
                "addr:postcode": "43-430",
                "amenity": "pharmacy"
            },
            "geometry": {
                "type": "Point",
                "coordinates": [
                    18.786274784472543,
                    49.7948583297449
                ]
            }
        },
        {
            "type": "Feature",
            "properties": {
                "ref:csioz": 1222506,
                "name": "Apteka W Cieszynie",
                "addr:street": "Hilarego Filasiewicza",
                "addr:housenumber": "3A",
                "addr:city": "Cieszyn",
                "addr:postcode": "43-400",
                "amenity": "pharmacy"
            },
            "geometry": {
                "type": "Point",
                "coordinates": [
                    18.638229837792842,
                    49.75592689033047
                ]
            }
        },
        {
            "type": "Feature",
            "properties": {
                "ref:csioz": 1226157,
                "name": "Ośrodek Rehabilitacyjno-Leczniczy Sanatorium Ustroń-Tulipan",
                "addr:street": "Szpitalna",
                "addr:housenumber": "21",
                "addr:city": "Ustroń",
                "addr:postcode": "43-450",
                "amenity": "pharmacy"
            },
            "geometry": {
                "type": "Point",
                "coordinates": [
                    18.817783969270295,
                    49.72786367559093
                ]
            }
        },
        {
            "type": "Feature",
            "properties": {
                "ref:csioz": 1228818,
                "name": "Punkt Apteczny Nasze Leki",
                "addr:street": "Główna",
                "addr:housenumber": "101",
                "addr:city": "Ochaby Małe",
                "addr:postcode": "43-430",
                "amenity": "pharmacy"
            },
            "geometry": {
                "type": "Point",
                "coordinates": [
                    18.76851703685779,
                    49.84204882069918
                ]
            }
        },
        {
            "type": "Feature",
            "properties": {
                "ref:csioz": 1113231,
                "name": "\"Niepubliczny Zakład Opieki Zdrowotnej \"\"Medica\"\" Sp. Z O.O.\"",
                "addr:street": "Adama Mickiewicza",
                "addr:housenumber": "13",
                "addr:city": "Cieszyn",
                "addr:postcode": "43-400",
                "amenity": "pharmacy"
            },
            "geometry": {
                "type": "Point",
                "coordinates": [
                    18.638185171866517,
                    49.73868846596726
                ]
            }
        },
        {
            "type": "Feature",
            "properties": {
                "ref:csioz": 1221142,
                "name": "Paracelsus",
                "addr:street": "Nad Potokiem",
                "addr:housenumber": "2",
                "addr:city": "Pierściec",
                "addr:postcode": "43-430",
                "amenity": "pharmacy"
            },
            "geometry": {
                "type": "Point",
                "coordinates": [
                    18.824660228924458,
                    49.83814513219186
                ]
            }
        },
        {
            "type": "Feature",
            "properties": {
                "ref:csioz": 1225637,
                "name": "\"Elvita Nzoz Sanatorium Uzdrowiskowe \"\"Elektron\"\"\"",
                "addr:street": "Zdrojowa",
                "addr:housenumber": "5",
                "addr:city": "Ustroń",
                "addr:postcode": "43-450",
                "amenity": "pharmacy"
            },
            "geometry": {
                "type": "Point",
                "coordinates": [
                    18.82691393021175,
                    49.72089333514175
                ]
            }
        },
        {
            "type": "Feature",
            "properties": {
                "ref:csioz": 1173657,
                "name": "\"Ośrodek Rehabilitacyjno-Leczniczy \"\"Uzdrowisko Ustroń\"\" Uzdrowiskowy Zakład Przyrodoleczniczy\"",
                "addr:street": "Sanatoryjna",
                "addr:housenumber": "7",
                "addr:city": "Ustroń",
                "addr:postcode": "43-450",
                "amenity": "pharmacy"
            },
            "geometry": {
                "type": "Point",
                "coordinates": [
                    18.824878872595686,
                    49.72151105688108
                ]
            }
        },
        {
            "type": "Feature",
            "properties": {
                "ref:csioz": 1184320,
                "name": "\"Apteki Ogólnodostępne 24H \"\"Farmarosa\"\"\"",
                "addr:street": "Bobrecka",
                "addr:housenumber": "27",
                "addr:city": "Cieszyn",
                "addr:postcode": "43-400",
                "amenity": "pharmacy"
            },
            "geometry": {
                "type": "Point",
                "coordinates": [
                    18.639805467232748,
                    49.751144906018894
                ]
            }
        }
    ]
}