{
    "type": "FeatureCollection",
    "name": "JPT_KOD_JE_1433",
    "features": [
        {
            "type": "Feature",
            "properties": {
                "ref:csioz": 1097914,
                "name": "Justyna Kurkus-Tchórzewska",
                "addr:street": "Lipowa",
                "addr:housenumber": "8",
                "addr:city": "Grębków",
                "addr:postcode": "07-110",
                "amenity": "pharmacy",
                "dispensing": "yes"
            },
            "geometry": {
                "type": "Point",
                "coordinates": [
                    21.91791848274116,
                    52.27179648380627
                ]
            }
        },
        {
            "type": "Feature",
            "properties": {
                "ref:csioz": 1097897,
                "name": "Dbam O Zdrowie",
                "addr:street": "Przemysłowa",
                "addr:housenumber": "1",
                "addr:city": "Węgrów",
                "addr:postcode": "07-100",
                "amenity": "pharmacy",
                "dispensing": "yes"
            },
            "geometry": {
                "type": "Point",
                "coordinates": [
                    22.0154118640042,
                    52.39699645186665
                ]
            }
        },
        {
            "type": "Feature",
            "properties": {
                "ref:csioz": 1098112,
                "addr:housenumber": "86A",
                "addr:postcode": "07-111",
                "amenity": "pharmacy",
                "addr:place": "Wierzbno",
                "dispensing": "yes"
            },
            "geometry": {
                "type": "Point",
                "coordinates": [
                    21.859172633510525,
                    52.30812602369926
                ]
            }
        },
        {
            "type": "Feature",
            "properties": {
                "ref:csioz": 1117316,
                "name": "Remedium",
                "addr:street": "Adama Małkowskiego",
                "addr:housenumber": "18",
                "addr:city": "Korytnica",
                "addr:postcode": "07-120",
                "amenity": "pharmacy",
                "dispensing": "yes"
            },
            "geometry": {
                "type": "Point",
                "coordinates": [
                    21.848944478466194,
                    52.41366816036238
                ]
            }
        },
        {
            "type": "Feature",
            "properties": {
                "ref:csioz": 1177283,
                "name": "Centrum Zdrowia",
                "addr:housenumber": "28",
                "addr:postcode": "07-100",
                "amenity": "pharmacy",
                "addr:place": "Wyszków",
                "dispensing": "yes"
            },
            "geometry": {
                "type": "Point",
                "coordinates": [
                    22.00794165857127,
                    52.305588332226236
                ]
            }
        },
        {
            "type": "Feature",
            "properties": {
                "ref:csioz": 1097870,
                "addr:street": "Stefana Żeromskiego",
                "addr:housenumber": "7",
                "addr:city": "Węgrów",
                "addr:postcode": "07-100",
                "amenity": "pharmacy",
                "dispensing": "yes"
            },
            "geometry": {
                "type": "Point",
                "coordinates": [
                    22.01401140571885,
                    52.3985249941012
                ]
            }
        },
        {
            "type": "Feature",
            "properties": {
                "ref:csioz": 1097881,
                "name": "Apteka K.P Vita",
                "addr:street": "11 Listopada",
                "addr:housenumber": "13",
                "addr:city": "Węgrów",
                "addr:postcode": "07-100",
                "amenity": "pharmacy",
                "dispensing": "yes"
            },
            "geometry": {
                "type": "Point",
                "coordinates": [
                    22.02160406217066,
                    52.39543027496585
                ]
            }
        },
        {
            "type": "Feature",
            "properties": {
                "ref:csioz": 1117583,
                "addr:street": "Strażacka",
                "addr:housenumber": "2",
                "addr:city": "Węgrów",
                "addr:postcode": "07-100",
                "amenity": "pharmacy",
                "dispensing": "yes"
            },
            "geometry": {
                "type": "Point",
                "coordinates": [
                    22.018427592119842,
                    52.39798914710162
                ]
            }
        },
        {
            "type": "Feature",
            "properties": {
                "ref:csioz": 1118020,
                "name": "Farmacja Choma",
                "addr:street": "kard. Stefana Wyszyńskiego",
                "addr:housenumber": "7",
                "addr:city": "Węgrów",
                "addr:postcode": "07-100",
                "amenity": "pharmacy",
                "dispensing": "yes"
            },
            "geometry": {
                "type": "Point",
                "coordinates": [
                    22.018541628376774,
                    52.39541198726668
                ]
            }
        },
        {
            "type": "Feature",
            "properties": {
                "ref:csioz": 1153341,
                "name": "Apteka Szpitalna",
                "addr:street": "Tadeusza Kościuszki",
                "addr:housenumber": "201",
                "addr:city": "Węgrów",
                "addr:postcode": "07-100",
                "amenity": "pharmacy",
                "dispensing": "yes"
            },
            "geometry": {
                "type": "Point",
                "coordinates": [
                    22.06368833662851,
                    52.40559025107789
                ]
            }
        },
        {
            "type": "Feature",
            "properties": {
                "ref:csioz": 1178236,
                "name": "Choma",
                "addr:street": "Rynek Mariacki",
                "addr:housenumber": "23/24",
                "addr:city": "Węgrów",
                "addr:postcode": "07-100",
                "amenity": "pharmacy",
                "dispensing": "yes"
            },
            "geometry": {
                "type": "Point",
                "coordinates": [
                    22.0162210000173,
                    52.399306000016274
                ]
            }
        },
        {
            "type": "Feature",
            "properties": {
                "ref:csioz": 1215758,
                "name": "Społeczna",
                "addr:street": "Zwycięstwa",
                "addr:housenumber": "2",
                "addr:city": "Węgrów",
                "addr:postcode": "07-100",
                "amenity": "pharmacy",
                "dispensing": "yes"
            },
            "geometry": {
                "type": "Point",
                "coordinates": [
                    22.01646459255744,
                    52.39698600754023
                ]
            }
        },
        {
            "type": "Feature",
            "properties": {
                "ref:csioz": 1230088,
                "name": "Farmacja Choma",
                "addr:street": "Wolności",
                "addr:housenumber": "8",
                "addr:city": "Miedzna",
                "addr:postcode": "07-106",
                "amenity": "pharmacy",
                "dispensing": "yes"
            },
            "geometry": {
                "type": "Point",
                "coordinates": [
                    22.090800581442018,
                    52.467182110807364
                ]
            }
        },
        {
            "type": "Feature",
            "properties": {
                "ref:csioz": 1162904,
                "addr:housenumber": "39",
                "addr:postcode": "21-102",
                "amenity": "pharmacy",
                "addr:place": "Ostrówek",
                "dispensing": "yes"
            },
            "geometry": {
                "type": "Point",
                "coordinates": [
                    21.774478686934636,
                    52.548194319154874
                ]
            }
        },
        {
            "type": "Feature",
            "properties": {
                "ref:csioz": 1117571,
                "name": "Lek-Med",
                "addr:street": "Pokoju",
                "addr:housenumber": "52",
                "addr:city": "Łochów",
                "addr:postcode": "07-130",
                "amenity": "pharmacy",
                "dispensing": "yes"
            },
            "geometry": {
                "type": "Point",
                "coordinates": [
                    21.686243519563963,
                    52.52896615728395
                ]
            }
        },
        {
            "type": "Feature",
            "properties": {
                "ref:csioz": 1117612,
                "name": "\"T & P S. C P. Tokarski, G. Piotrowski\"",
                "addr:street": "Pokoju",
                "addr:housenumber": "2",
                "addr:city": "Łochów",
                "addr:postcode": "07-130",
                "amenity": "pharmacy",
                "dispensing": "yes"
            },
            "geometry": {
                "type": "Point",
                "coordinates": [
                    21.6944418924947,
                    52.53500069079364
                ]
            }
        },
        {
            "type": "Feature",
            "properties": {
                "ref:csioz": 1097923,
                "addr:street": "Kościuszki",
                "addr:housenumber": "82",
                "addr:city": "Sadowne",
                "addr:postcode": "07-140",
                "amenity": "pharmacy",
                "dispensing": "yes"
            },
            "geometry": {
                "type": "Point",
                "coordinates": [
                    21.852668347077177,
                    52.63329189415429
                ]
            }
        },
        {
            "type": "Feature",
            "properties": {
                "ref:csioz": 1097819,
                "addr:street": "Łochowska",
                "addr:housenumber": "67",
                "addr:city": "Łochów",
                "addr:postcode": "07-130",
                "amenity": "pharmacy",
                "dispensing": "yes"
            },
            "geometry": {
                "type": "Point",
                "coordinates": [
                    21.693213308783744,
                    52.53478241979914
                ]
            }
        },
        {
            "type": "Feature",
            "properties": {
                "ref:csioz": 1097824,
                "name": "Apteka Verbena",
                "addr:street": "Kolejowa",
                "addr:housenumber": "1",
                "addr:city": "Łochów",
                "addr:postcode": "07-130",
                "amenity": "pharmacy",
                "dispensing": "yes"
            },
            "geometry": {
                "type": "Point",
                "coordinates": [
                    21.68812900000994,
                    52.53276000001639
                ]
            }
        },
        {
            "type": "Feature",
            "properties": {
                "ref:csioz": 1097835,
                "name": "Amica",
                "addr:street": "Węgrowska",
                "addr:housenumber": "2B",
                "addr:city": "Łochów",
                "addr:postcode": "07-130",
                "amenity": "pharmacy",
                "dispensing": "yes"
            },
            "geometry": {
                "type": "Point",
                "coordinates": [
                    21.68249249107417,
                    52.529709214253984
                ]
            }
        },
        {
            "type": "Feature",
            "properties": {
                "ref:csioz": 1097856,
                "addr:street": "Kościelny",
                "addr:housenumber": "10",
                "addr:city": "Sadowne",
                "addr:postcode": "07-140",
                "amenity": "pharmacy",
                "dispensing": "yes"
            },
            "geometry": {
                "type": "Point",
                "coordinates": [
                    21.847498726834207,
                    52.64029935150713
                ]
            }
        },
        {
            "type": "Feature",
            "properties": {
                "ref:csioz": 1097862,
                "name": "Prywatna Olga Wojtyło-Parys",
                "addr:street": "3 Maja",
                "addr:housenumber": "1A",
                "addr:city": "Stoczek",
                "addr:postcode": "07-104",
                "amenity": "pharmacy",
                "dispensing": "yes"
            },
            "geometry": {
                "type": "Point",
                "coordinates": [
                    21.893223078266253,
                    52.54481811894837
                ]
            }
        }
    ]
}