{
    "type": "FeatureCollection",
    "name": "JPT_KOD_JE_1419",
    "features": [
        {
            "type": "Feature",
            "properties": {
                "ref:csioz": 1093255,
                "name": "Apteka Galenika",
                "addr:street": "Rębowska",
                "addr:housenumber": "42",
                "addr:city": "Wyszogród",
                "addr:postcode": "09-450",
                "amenity": "pharmacy"
            },
            "geometry": {
                "type": "Point",
                "coordinates": [
                    20.19134430087405,
                    52.38808039127371
                ]
            }
        },
        {
            "type": "Feature",
            "properties": {
                "ref:csioz": 1093264,
                "name": "Dbam O Zdrowie",
                "addr:street": "Rębowska",
                "addr:housenumber": "54",
                "addr:city": "Wyszogród",
                "addr:postcode": "09-450",
                "amenity": "pharmacy"
            },
            "geometry": {
                "type": "Point",
                "coordinates": [
                    20.19103800456479,
                    52.3892867178771
                ]
            }
        },
        {
            "type": "Feature",
            "properties": {
                "ref:csioz": 1094048,
                "name": "Avena 4",
                "addr:street": "Bankowa",
                "addr:housenumber": "14",
                "addr:city": "Chodkowo-Działki",
                "addr:postcode": "09-470",
                "amenity": "pharmacy"
            },
            "geometry": {
                "type": "Point",
                "coordinates": [
                    20.030542748023713,
                    52.497106018589534
                ]
            }
        },
        {
            "type": "Feature",
            "properties": {
                "ref:csioz": 1094378,
                "name": "Jerzy Bujnowski",
                "addr:street": "Południowa",
                "addr:housenumber": "9A",
                "addr:city": "Nowe Miszewo",
                "addr:postcode": "09-471",
                "amenity": "pharmacy"
            },
            "geometry": {
                "type": "Point",
                "coordinates": [
                    19.93080103209846,
                    52.48743272270925
                ]
            }
        },
        {
            "type": "Feature",
            "properties": {
                "ref:csioz": 1093783,
                "name": "Medicor 3",
                "addr:street": "Jana Kochanowskiego",
                "addr:housenumber": "9A",
                "addr:city": "Mała Wieś",
                "addr:postcode": "09-460",
                "amenity": "pharmacy"
            },
            "geometry": {
                "type": "Point",
                "coordinates": [
                    20.10329590566562,
                    52.457798551338115
                ]
            }
        },
        {
            "type": "Feature",
            "properties": {
                "ref:csioz": 1092978,
                "addr:street": "Adama Mickiewicza",
                "addr:housenumber": "16",
                "addr:city": "Bodzanów",
                "addr:postcode": "09-470",
                "amenity": "pharmacy"
            },
            "geometry": {
                "type": "Point",
                "coordinates": [
                    20.03381240402488,
                    52.499548349666334
                ]
            }
        },
        {
            "type": "Feature",
            "properties": {
                "ref:csioz": 1093229,
                "name": "Apteka Vademecum",
                "addr:street": "Płocka",
                "addr:housenumber": "50",
                "addr:city": "Słubice",
                "addr:postcode": "09-533",
                "amenity": "pharmacy"
            },
            "geometry": {
                "type": "Point",
                "coordinates": [
                    19.934673257850623,
                    52.37055172222335
                ]
            }
        },
        {
            "type": "Feature",
            "properties": {
                "ref:csioz": 1094134,
                "addr:street": "Płocka",
                "addr:housenumber": "7",
                "addr:city": "Bulkowo-Kolonia",
                "addr:postcode": "09-454",
                "amenity": "pharmacy"
            },
            "geometry": {
                "type": "Point",
                "coordinates": [
                    20.114875521068267,
                    52.543358564136724
                ]
            }
        },
        {
            "type": "Feature",
            "properties": {
                "ref:csioz": 1094175,
                "name": "Medicor",
                "addr:street": "Spółdzielcza",
                "addr:housenumber": "7",
                "addr:city": "Radzanowo",
                "addr:postcode": "09-451",
                "amenity": "pharmacy"
            },
            "geometry": {
                "type": "Point",
                "coordinates": [
                    19.891227615915447,
                    52.574726099669725
                ]
            }
        },
        {
            "type": "Feature",
            "properties": {
                "ref:csioz": 1230512,
                "name": "Doz Apteka Dbam O Zdrowie Mgr Farm. Ernest Niewiadomski",
                "addr:housenumber": "4",
                "addr:postcode": "09-454",
                "amenity": "pharmacy",
                "addr:place": "Nowe Łubki"
            },
            "geometry": {
                "type": "Point",
                "coordinates": [
                    20.034030998901798,
                    52.57755082336115
                ]
            }
        },
        {
            "type": "Feature",
            "properties": {
                "ref:csioz": 1230710,
                "name": "Dział Farmacji Szpitalnej",
                "addr:housenumber": "59",
                "addr:postcode": "09-460",
                "amenity": "pharmacy",
                "addr:place": "Ciućkowo"
            },
            "geometry": {
                "type": "Point",
                "coordinates": [
                    20.12652940499513,
                    52.42077895778403
                ]
            }
        },
        {
            "type": "Feature",
            "properties": {
                "ref:csioz": 1093241,
                "name": "Apteka Przy Klasztorze",
                "addr:street": "Kościelna",
                "addr:housenumber": "31A",
                "addr:city": "Staroźreby",
                "addr:postcode": "09-440",
                "amenity": "pharmacy"
            },
            "geometry": {
                "type": "Point",
                "coordinates": [
                    19.995555223107157,
                    52.63577575859829
                ]
            }
        },
        {
            "type": "Feature",
            "properties": {
                "ref:csioz": 1094341,
                "name": "Milmed Milena Mazurkiewicz",
                "addr:housenumber": "22",
                "addr:postcode": "09-230",
                "amenity": "pharmacy",
                "addr:place": "Zągoty"
            },
            "geometry": {
                "type": "Point",
                "coordinates": [
                    19.742943703719217,
                    52.65896784148642
                ]
            }
        },
        {
            "type": "Feature",
            "properties": {
                "ref:csioz": 1115428,
                "name": "Nova S.C",
                "addr:street": "Mostowa",
                "addr:housenumber": "2A",
                "addr:city": "Staroźreby",
                "addr:postcode": "09-440",
                "amenity": "pharmacy"
            },
            "geometry": {
                "type": "Point",
                "coordinates": [
                    19.979861789246858,
                    52.63078172688254
                ]
            }
        },
        {
            "type": "Feature",
            "properties": {
                "ref:csioz": 1092993,
                "addr:street": "Marszałka Piłsudskiego",
                "addr:housenumber": "4",
                "addr:city": "Drobin",
                "addr:postcode": "09-210",
                "amenity": "pharmacy"
            },
            "geometry": {
                "type": "Point",
                "coordinates": [
                    19.991222779372674,
                    52.73719861137664
                ]
            }
        },
        {
            "type": "Feature",
            "properties": {
                "ref:csioz": 1094127,
                "addr:street": "Wolności",
                "addr:housenumber": "6",
                "addr:city": "Bielsk",
                "addr:postcode": "09-230",
                "amenity": "pharmacy"
            },
            "geometry": {
                "type": "Point",
                "coordinates": [
                    19.80420800000033,
                    52.67159500001654
                ]
            }
        },
        {
            "type": "Feature",
            "properties": {
                "ref:csioz": 1094150,
                "addr:street": "Dojazd",
                "addr:housenumber": "3",
                "addr:city": "Nowa Góra",
                "addr:postcode": "09-440",
                "amenity": "pharmacy"
            },
            "geometry": {
                "type": "Point",
                "coordinates": [
                    20.0890450000005,
                    52.6451970000165
                ]
            }
        },
        {
            "type": "Feature",
            "properties": {
                "ref:csioz": 1116676,
                "name": "Apteka Pod Lipą",
                "addr:street": "Jana Pawła II",
                "addr:housenumber": "3",
                "addr:city": "Brudzeń Duży",
                "addr:postcode": "09-414",
                "amenity": "pharmacy"
            },
            "geometry": {
                "type": "Point",
                "coordinates": [
                    19.50501989388857,
                    52.66916943162265
                ]
            }
        },
        {
            "type": "Feature",
            "properties": {
                "ref:csioz": 1207110,
                "name": "Przyjazna",
                "addr:street": "Gospodarska",
                "addr:housenumber": "7",
                "addr:city": "Drobin",
                "addr:postcode": "09-210",
                "amenity": "pharmacy"
            },
            "geometry": {
                "type": "Point",
                "coordinates": [
                    19.986724856946065,
                    52.737101818691166
                ]
            }
        },
        {
            "type": "Feature",
            "properties": {
                "ref:csioz": 1213479,
                "name": "Avena 9",
                "addr:street": "Płocka",
                "addr:housenumber": "7",
                "addr:city": "Bielsk",
                "addr:postcode": "09-230",
                "amenity": "pharmacy"
            },
            "geometry": {
                "type": "Point",
                "coordinates": [
                    19.80254267811511,
                    52.66986993834807
                ]
            }
        },
        {
            "type": "Feature",
            "properties": {
                "ref:csioz": 1219938,
                "name": "Avena 10",
                "addr:street": "Wincentego Witosa",
                "addr:housenumber": "7",
                "addr:city": "Brudzeń Duży",
                "addr:postcode": "09-414",
                "amenity": "pharmacy"
            },
            "geometry": {
                "type": "Point",
                "coordinates": [
                    19.504169518355017,
                    52.666189539254
                ]
            }
        },
        {
            "type": "Feature",
            "properties": {
                "ref:csioz": 1223689,
                "name": "Doz Punkt Apteczny Dbam O Zdrowie Zdrówko 2",
                "addr:street": "Płocka",
                "addr:housenumber": "4A",
                "addr:city": "Nowe Proboszczewice",
                "addr:postcode": "09-412",
                "amenity": "pharmacy"
            },
            "geometry": {
                "type": "Point",
                "coordinates": [
                    19.69719600000027,
                    52.658164000016505
                ]
            }
        },
        {
            "type": "Feature",
            "properties": {
                "ref:csioz": 1230803,
                "name": "Zdrówko 3",
                "addr:street": "Jana Kazimierza",
                "addr:housenumber": "1",
                "addr:city": "Biała",
                "addr:postcode": "09-411",
                "amenity": "pharmacy"
            },
            "geometry": {
                "type": "Point",
                "coordinates": [
                    19.64948606133871,
                    52.60593798145304
                ]
            }
        },
        {
            "type": "Feature",
            "properties": {
                "ref:csioz": 1093651,
                "name": "Wracam Do Zdrowia",
                "addr:street": "Kilińskiego",
                "addr:housenumber": "3",
                "addr:city": "Gąbin",
                "addr:postcode": "09-530",
                "amenity": "pharmacy"
            },
            "geometry": {
                "type": "Point",
                "coordinates": [
                    19.73477476460224,
                    52.399376739968446
                ]
            }
        },
        {
            "type": "Feature",
            "properties": {
                "ref:csioz": 1164541,
                "name": "Zdrowie",
                "addr:housenumber": "20",
                "addr:postcode": "36-053",
                "amenity": "pharmacy",
                "addr:place": "Nowy Kamień"
            },
            "geometry": {
                "type": "Point",
                "coordinates": [
                    19.723131366337377,
                    52.36457111420676
                ]
            }
        },
        {
            "type": "Feature",
            "properties": {
                "ref:csioz": 1186164,
                "name": "Doz Apteka Dbam O Zdrowie Aspirynka",
                "addr:street": "Lipnowska",
                "addr:housenumber": "2",
                "addr:flats": "3",
                "addr:city": "Maszewo Duże",
                "addr:postcode": "09-400",
                "amenity": "pharmacy"
            },
            "geometry": {
                "type": "Point",
                "coordinates": [
                    19.645944010422102,
                    52.57171066735689
                ]
            }
        },
        {
            "type": "Feature",
            "properties": {
                "ref:csioz": 1207744,
                "name": "Wspólna",
                "addr:street": "Kutnowska",
                "addr:housenumber": "2",
                "addr:city": "Gąbin",
                "addr:postcode": "09-530",
                "amenity": "pharmacy"
            },
            "geometry": {
                "type": "Point",
                "coordinates": [
                    19.731250146798605,
                    52.398674708981936
                ]
            }
        },
        {
            "type": "Feature",
            "properties": {
                "ref:csioz": 1092986,
                "name": "Apteka Rodzinna",
                "addr:street": "Słoneczna",
                "addr:housenumber": "5A",
                "addr:city": "Dobrzyków",
                "addr:postcode": "09-522",
                "amenity": "pharmacy"
            },
            "geometry": {
                "type": "Point",
                "coordinates": [
                    19.745837419071467,
                    52.469033751645924
                ]
            }
        },
        {
            "type": "Feature",
            "properties": {
                "ref:csioz": 1093232,
                "name": "Doz Apteka Dbam O Zdrowie Mgr Farm. Ernest Niewiadomski",
                "addr:street": "Miszewska",
                "addr:housenumber": "8A",
                "addr:city": "Słupno",
                "addr:postcode": "09-472",
                "amenity": "pharmacy"
            },
            "geometry": {
                "type": "Point",
                "coordinates": [
                    19.839359764621417,
                    52.506280972485406
                ]
            }
        },
        {
            "type": "Feature",
            "properties": {
                "ref:csioz": 1116684,
                "name": "Apteka Avena",
                "addr:street": "Płocka",
                "addr:housenumber": "20D",
                "addr:city": "Gąbin",
                "addr:postcode": "09-530",
                "amenity": "pharmacy"
            },
            "geometry": {
                "type": "Point",
                "coordinates": [
                    19.731903754576678,
                    52.403134292049295
                ]
            }
        },
        {
            "type": "Feature",
            "properties": {
                "ref:csioz": 1182719,
                "name": "Medest Bis Ii",
                "addr:street": "Gostynińska",
                "addr:housenumber": "4",
                "addr:city": "Łąck",
                "addr:postcode": "09-520",
                "amenity": "pharmacy"
            },
            "geometry": {
                "type": "Point",
                "coordinates": [
                    19.607720594602007,
                    52.46516504444464
                ]
            }
        }
    ]
}