{
    "type": "FeatureCollection",
    "name": "JPT_KOD_JE_1607",
    "features": [
        {
            "type": "Feature",
            "properties": {
                "ref:csioz": 1109082,
                "name": "Vita",
                "addr:street": "Słowackiego",
                "addr:housenumber": "4",
                "addr:city": "Paczków",
                "addr:postcode": "48-370",
                "amenity": "pharmacy",
                "dispensing": "yes"
            },
            "geometry": {
                "type": "Point",
                "coordinates": [
                    17.004680136706746,
                    50.46434219495827
                ]
            }
        },
        {
            "type": "Feature",
            "properties": {
                "ref:csioz": 1109096,
                "name": "Verbena",
                "addr:street": "Witosa",
                "addr:housenumber": "2A",
                "addr:city": "Paczków",
                "addr:postcode": "48-370",
                "amenity": "pharmacy",
                "dispensing": "yes"
            },
            "geometry": {
                "type": "Point",
                "coordinates": [
                    17.010151169512415,
                    50.46528464579494
                ]
            }
        },
        {
            "type": "Feature",
            "properties": {
                "ref:csioz": 1109118,
                "name": "\"Apteka \"\"Pod Atlasami\"\" Mgr Farm. Z. Patkowski\"",
                "addr:street": "Wrocławska",
                "addr:housenumber": "2",
                "addr:city": "Paczków",
                "addr:postcode": "48-370",
                "amenity": "pharmacy",
                "dispensing": "yes"
            },
            "geometry": {
                "type": "Point",
                "coordinates": [
                    17.007642135381023,
                    50.464420231868594
                ]
            }
        },
        {
            "type": "Feature",
            "properties": {
                "ref:csioz": 1107268,
                "addr:street": "Kościuszki",
                "addr:housenumber": "2",
                "addr:city": "Kamiennik",
                "addr:postcode": "48-388",
                "amenity": "pharmacy",
                "dispensing": "yes"
            },
            "geometry": {
                "type": "Point",
                "coordinates": [
                    17.1523794202103,
                    50.573591549190056
                ]
            }
        },
        {
            "type": "Feature",
            "properties": {
                "ref:csioz": 1109017,
                "addr:street": "Rynek",
                "addr:housenumber": "19",
                "addr:city": "Otmuchów",
                "addr:postcode": "48-385",
                "amenity": "pharmacy",
                "dispensing": "yes"
            },
            "geometry": {
                "type": "Point",
                "coordinates": [
                    17.173292354834224,
                    50.46480982122519
                ]
            }
        },
        {
            "type": "Feature",
            "properties": {
                "ref:csioz": 1109025,
                "name": "Otmuchowska",
                "addr:street": "Rynek",
                "addr:housenumber": "39b",
                "addr:city": "Otmuchów",
                "addr:postcode": "48-385",
                "amenity": "pharmacy",
                "dispensing": "yes"
            },
            "geometry": {
                "type": "Point",
                "coordinates": [
                    17.17236824449137,
                    50.46567918367918
                ]
            }
        },
        {
            "type": "Feature",
            "properties": {
                "ref:csioz": 1108999,
                "addr:street": "Krakowska",
                "addr:housenumber": "14",
                "addr:city": "Otmuchów",
                "addr:postcode": "48-385",
                "amenity": "pharmacy",
                "dispensing": "yes"
            },
            "geometry": {
                "type": "Point",
                "coordinates": [
                    17.17075271514986,
                    50.46744480936981
                ]
            }
        },
        {
            "type": "Feature",
            "properties": {
                "ref:csioz": 1109001,
                "name": "Apteka Nasza",
                "addr:street": "Nyska",
                "addr:housenumber": "7",
                "addr:city": "Otmuchów",
                "addr:postcode": "48-385",
                "amenity": "pharmacy",
                "dispensing": "yes"
            },
            "geometry": {
                "type": "Point",
                "coordinates": [
                    17.173643248054418,
                    50.46610491721906
                ]
            }
        },
        {
            "type": "Feature",
            "properties": {
                "ref:csioz": 1109074,
                "addr:street": "Rynek",
                "addr:housenumber": "39",
                "addr:city": "Paczków",
                "addr:postcode": "48-370",
                "amenity": "pharmacy",
                "dispensing": "yes"
            },
            "geometry": {
                "type": "Point",
                "coordinates": [
                    17.006432415577894,
                    50.46482122488238
                ]
            }
        },
        {
            "type": "Feature",
            "properties": {
                "ref:csioz": 1119370,
                "name": "Dział Farmacji Szpitalnej W Szpitalu W Paczkowie",
                "addr:street": "Stanisława Staszica",
                "addr:housenumber": "3",
                "addr:city": "Paczków",
                "addr:postcode": "48-370",
                "amenity": "pharmacy",
                "dispensing": "yes"
            },
            "geometry": {
                "type": "Point",
                "coordinates": [
                    17.002908999996915,
                    50.46301900001316
                ]
            }
        },
        {
            "type": "Feature",
            "properties": {
                "ref:csioz": 1212684,
                "name": "Apteka Isofarm",
                "addr:street": "Henryka Sienkiewicza",
                "addr:housenumber": "5",
                "addr:city": "Paczków",
                "addr:postcode": "48-370",
                "amenity": "pharmacy",
                "dispensing": "yes"
            },
            "geometry": {
                "type": "Point",
                "coordinates": [
                    17.00718814645874,
                    50.46134273689222
                ]
            }
        },
        {
            "type": "Feature",
            "properties": {
                "ref:csioz": 1219299,
                "name": "Apteka Kolorowa",
                "addr:street": "KRAKOWSKA",
                "addr:housenumber": "15",
                "addr:city": "Otmuchów",
                "addr:postcode": "48-385",
                "amenity": "pharmacy",
                "dispensing": "yes"
            },
            "geometry": {
                "type": "Point",
                "coordinates": [
                    17.170415682983204,
                    50.467117941492226
                ]
            }
        },
        {
            "type": "Feature",
            "properties": {
                "ref:csioz": 1107112,
                "name": "Apteka Św. Wawrzyńca",
                "addr:street": "Rynek",
                "addr:housenumber": "26",
                "addr:city": "Głuchołazy",
                "addr:postcode": "48-340",
                "amenity": "pharmacy",
                "dispensing": "yes"
            },
            "geometry": {
                "type": "Point",
                "coordinates": [
                    17.382942791469397,
                    50.317011256301235
                ]
            }
        },
        {
            "type": "Feature",
            "properties": {
                "ref:csioz": 1107763,
                "addr:street": "Wyzwolenia",
                "addr:housenumber": "19",
                "addr:city": "Korfantów",
                "addr:postcode": "48-317",
                "amenity": "pharmacy",
                "dispensing": "yes"
            },
            "geometry": {
                "type": "Point",
                "coordinates": [
                    17.594275217283972,
                    50.488453470427274
                ]
            }
        },
        {
            "type": "Feature",
            "properties": {
                "ref:csioz": 1107977,
                "name": "Apteka Na Rondzie",
                "addr:street": "Tadeusza Zawadzkiego",
                "addr:housenumber": "1A",
                "addr:city": "Łambinowice",
                "addr:postcode": "48-316",
                "amenity": "pharmacy",
                "dispensing": "yes"
            },
            "geometry": {
                "type": "Point",
                "coordinates": [
                    17.559599272728818,
                    50.538240967594206
                ]
            }
        },
        {
            "type": "Feature",
            "properties": {
                "ref:csioz": 1108196,
                "addr:street": "Kolejowa",
                "addr:housenumber": "2A",
                "addr:city": "Nysa",
                "addr:postcode": "48-300",
                "amenity": "pharmacy",
                "dispensing": "yes"
            },
            "geometry": {
                "type": "Point",
                "coordinates": [
                    17.338559786048993,
                    50.47867555856172
                ]
            }
        },
        {
            "type": "Feature",
            "properties": {
                "ref:csioz": 1108182,
                "name": "\"Apteka \"\"Pod Kasztanem\"\"\"",
                "addr:street": "Drzymały",
                "addr:housenumber": "1",
                "addr:city": "Nysa",
                "addr:postcode": "48-300",
                "amenity": "pharmacy",
                "dispensing": "yes"
            },
            "geometry": {
                "type": "Point",
                "coordinates": [
                    17.335990753872355,
                    50.47945946690779
                ]
            }
        },
        {
            "type": "Feature",
            "properties": {
                "ref:csioz": 1109354,
                "name": "Apteka Słońca",
                "addr:street": "Działkowa",
                "addr:housenumber": "12",
                "addr:city": "Skoroszyce",
                "addr:postcode": "48-320",
                "amenity": "pharmacy",
                "dispensing": "yes"
            },
            "geometry": {
                "type": "Point",
                "coordinates": [
                    17.381627549753713,
                    50.59921607954303
                ]
            }
        },
        {
            "type": "Feature",
            "properties": {
                "ref:csioz": 1109846,
                "name": "Teresa Neudek Punkt Apteczny",
                "addr:housenumber": "16",
                "addr:postcode": "48-315",
                "amenity": "pharmacy",
                "addr:place": "Jasienica Dolna",
                "dispensing": "yes"
            },
            "geometry": {
                "type": "Point",
                "coordinates": [
                    17.499753011312464,
                    50.51613391380871
                ]
            }
        },
        {
            "type": "Feature",
            "properties": {
                "ref:csioz": 1110221,
                "name": "Apteka Szpitalna W Szpitalu W Nysie",
                "addr:street": "Bohaterów Warszawy",
                "addr:housenumber": "23",
                "addr:city": "Nysa",
                "addr:postcode": "48-300",
                "amenity": "pharmacy",
                "dispensing": "yes"
            },
            "geometry": {
                "type": "Point",
                "coordinates": [
                    17.329248268345008,
                    50.47139063461616
                ]
            }
        },
        {
            "type": "Feature",
            "properties": {
                "ref:csioz": 1110245,
                "name": "Dział Farmacji Szpitalnej Zakładu Opiekuńczo-Leczniczego Samodzielnego Publicznego Zakładu Opieki Zdrowotnej W Głuchołazach",
                "addr:street": "Parkowa",
                "addr:housenumber": "9",
                "addr:city": "Głuchołazy",
                "addr:postcode": "48-340",
                "amenity": "pharmacy",
                "dispensing": "yes"
            },
            "geometry": {
                "type": "Point",
                "coordinates": [
                    17.383757443109833,
                    50.306169499981905
                ]
            }
        },
        {
            "type": "Feature",
            "properties": {
                "ref:csioz": 1116027,
                "name": "Punkt Zdrowia",
                "addr:street": "Ogrodowa",
                "addr:housenumber": "67 c",
                "addr:city": "Chróścina",
                "addr:postcode": "48-319",
                "amenity": "pharmacy",
                "dispensing": "yes"
            },
            "geometry": {
                "type": "Point",
                "coordinates": [
                    17.365190343953852,
                    50.62226461797583
                ]
            }
        },
        {
            "type": "Feature",
            "properties": {
                "ref:csioz": 1121244,
                "name": "Centrum Zdrowia Lekfarm",
                "addr:street": "Rynek",
                "addr:housenumber": "16",
                "addr:city": "Głuchołazy",
                "addr:postcode": "48-340",
                "amenity": "pharmacy",
                "dispensing": "yes"
            },
            "geometry": {
                "type": "Point",
                "coordinates": [
                    17.383678751286645,
                    50.316431069144095
                ]
            }
        },
        {
            "type": "Feature",
            "properties": {
                "ref:csioz": 1122011,
                "name": "Prima",
                "addr:street": "Józefa Bema",
                "addr:housenumber": "2 A",
                "addr:city": "Nysa",
                "addr:postcode": "48-300",
                "amenity": "pharmacy",
                "dispensing": "yes"
            },
            "geometry": {
                "type": "Point",
                "coordinates": [
                    17.336736547337505,
                    50.479075529821486
                ]
            }
        },
        {
            "type": "Feature",
            "properties": {
                "ref:csioz": 1122022,
                "name": "Euro Apteka",
                "addr:street": "Marszałka Józefa Piłsudskiego",
                "addr:housenumber": "7",
                "addr:city": "Nysa",
                "addr:postcode": "48-303",
                "amenity": "pharmacy",
                "dispensing": "yes"
            },
            "geometry": {
                "type": "Point",
                "coordinates": [
                    17.342574785884395,
                    50.46601460192611
                ]
            }
        },
        {
            "type": "Feature",
            "properties": {
                "ref:csioz": 1122664,
                "name": "\"Dział Farmacji Szpitalnej Niepubliczny Zakład Opieki Zdrowotnej \"\"Ortopedia\"\"\"",
                "addr:street": "Karłowicza",
                "addr:housenumber": "40",
                "addr:city": "Głuchołazy",
                "addr:postcode": "48-340",
                "amenity": "pharmacy",
                "dispensing": "yes"
            },
            "geometry": {
                "type": "Point",
                "coordinates": [
                    17.385488205365192,
                    50.30454907501514
                ]
            }
        },
        {
            "type": "Feature",
            "properties": {
                "ref:csioz": 1135308,
                "name": "Sanitas",
                "addr:housenumber": "21",
                "addr:postcode": "56-200",
                "amenity": "pharmacy",
                "addr:place": "Chróścina",
                "dispensing": "yes"
            },
            "geometry": {
                "type": "Point",
                "coordinates": [
                    17.36302830832172,
                    50.62484782469338
                ]
            }
        },
        {
            "type": "Feature",
            "properties": {
                "ref:csioz": 1177050,
                "name": "Z Uśmiechem",
                "addr:street": "Fryderyka Szopena",
                "addr:housenumber": "16",
                "addr:city": "Nysa",
                "addr:postcode": "48-300",
                "amenity": "pharmacy",
                "dispensing": "yes"
            },
            "geometry": {
                "type": "Point",
                "coordinates": [
                    17.33039038533128,
                    50.473116600869
                ]
            }
        },
        {
            "type": "Feature",
            "properties": {
                "ref:csioz": 1178946,
                "name": "Apteka Rodzinna",
                "addr:street": "Wyzwolenia",
                "addr:housenumber": "16",
                "addr:city": "Korfantów",
                "addr:postcode": "48-317",
                "amenity": "pharmacy",
                "dispensing": "yes"
            },
            "geometry": {
                "type": "Point",
                "coordinates": [
                    17.59398592354245,
                    50.48987481011721
                ]
            }
        },
        {
            "type": "Feature",
            "properties": {
                "ref:csioz": 1107087,
                "name": "\"'Na Dobre I Na Złe'\"",
                "addr:street": "Prymasa Stefana Wyszyńskiego",
                "addr:housenumber": "1a",
                "addr:city": "Głuchołazy",
                "addr:postcode": "48-340",
                "amenity": "pharmacy",
                "dispensing": "yes"
            },
            "geometry": {
                "type": "Point",
                "coordinates": [
                    17.386311655399865,
                    50.31648848942867
                ]
            }
        },
        {
            "type": "Feature",
            "properties": {
                "ref:csioz": 1108207,
                "name": "Doz Apteka. Dbam O Zdrowie",
                "addr:street": "Komisji Edukacji Narodowej",
                "addr:housenumber": "35",
                "addr:city": "Nysa",
                "addr:postcode": "48-300",
                "amenity": "pharmacy",
                "dispensing": "yes"
            },
            "geometry": {
                "type": "Point",
                "coordinates": [
                    17.340195347755735,
                    50.46263463306359
                ]
            }
        },
        {
            "type": "Feature",
            "properties": {
                "ref:csioz": 1108210,
                "name": "Apteka Dbam O Zdrowie",
                "addr:street": "Kościuszki",
                "addr:housenumber": "3",
                "addr:city": "Nysa",
                "addr:postcode": "48-300",
                "amenity": "pharmacy",
                "dispensing": "yes"
            },
            "geometry": {
                "type": "Point",
                "coordinates": [
                    17.32391431079087,
                    50.478188867539345
                ]
            }
        },
        {
            "type": "Feature",
            "properties": {
                "ref:csioz": 1108232,
                "name": "Centrum",
                "addr:street": "Krzywoustego",
                "addr:housenumber": "6",
                "addr:city": "Nysa",
                "addr:postcode": "48-300",
                "amenity": "pharmacy",
                "dispensing": "yes"
            },
            "geometry": {
                "type": "Point",
                "coordinates": [
                    17.332014799438443,
                    50.47410517653754
                ]
            }
        },
        {
            "type": "Feature",
            "properties": {
                "ref:csioz": 1108241,
                "name": "Apteka Eliksir",
                "addr:street": "Mariacka",
                "addr:housenumber": "7",
                "addr:city": "Nysa",
                "addr:postcode": "48-300",
                "amenity": "pharmacy",
                "dispensing": "yes"
            },
            "geometry": {
                "type": "Point",
                "coordinates": [
                    17.33818018974772,
                    50.469501891735696
                ]
            }
        },
        {
            "type": "Feature",
            "properties": {
                "ref:csioz": 1108255,
                "name": "Apteka Centrum",
                "addr:street": "Mariacka",
                "addr:housenumber": "10",
                "addr:city": "Nysa",
                "addr:postcode": "48-300",
                "amenity": "pharmacy",
                "dispensing": "yes"
            },
            "geometry": {
                "type": "Point",
                "coordinates": [
                    17.336700833715202,
                    50.46937005272647
                ]
            }
        },
        {
            "type": "Feature",
            "properties": {
                "ref:csioz": 1108286,
                "name": "\"Apteki Burchacińscy; Wejdź Po Zdrowie!\"",
                "addr:street": "Marszałka Józefa Piłsudskiego",
                "addr:housenumber": "1a",
                "addr:city": "Nysa",
                "addr:postcode": "48-300",
                "amenity": "pharmacy",
                "dispensing": "yes"
            },
            "geometry": {
                "type": "Point",
                "coordinates": [
                    17.33854877109525,
                    50.466808601108696
                ]
            }
        },
        {
            "type": "Feature",
            "properties": {
                "ref:csioz": 1108293,
                "addr:street": "Piłsudskiego",
                "addr:housenumber": "12a",
                "addr:city": "Nysa",
                "addr:postcode": "48-300",
                "amenity": "pharmacy",
                "dispensing": "yes"
            },
            "geometry": {
                "type": "Point",
                "coordinates": [
                    17.3415352560358,
                    50.46612542962967
                ]
            }
        },
        {
            "type": "Feature",
            "properties": {
                "ref:csioz": 1108308,
                "name": "Apteka Lekosfera Dga6",
                "addr:street": "Piłsudskiego",
                "addr:housenumber": "21",
                "addr:city": "Nysa",
                "addr:postcode": "48-300",
                "amenity": "pharmacy",
                "dispensing": "yes"
            },
            "geometry": {
                "type": "Point",
                "coordinates": [
                    17.34473444752313,
                    50.4644393490886
                ]
            }
        },
        {
            "type": "Feature",
            "properties": {
                "ref:csioz": 1108319,
                "name": "\"Apteka Cef@Rm 36,6\"",
                "addr:street": "Marszałka Józefa Piłsudskiego",
                "addr:housenumber": "47",
                "addr:city": "Nysa",
                "addr:postcode": "48-303",
                "amenity": "pharmacy",
                "dispensing": "yes"
            },
            "geometry": {
                "type": "Point",
                "coordinates": [
                    17.326578168831468,
                    50.46329155014092
                ]
            }
        },
        {
            "type": "Feature",
            "properties": {
                "ref:csioz": 1108335,
                "addr:street": "Słowiańska",
                "addr:housenumber": "21A",
                "addr:city": "Nysa",
                "addr:postcode": "48-300",
                "amenity": "pharmacy",
                "dispensing": "yes"
            },
            "geometry": {
                "type": "Point",
                "coordinates": [
                    17.332533093158478,
                    50.483371989002094
                ]
            }
        },
        {
            "type": "Feature",
            "properties": {
                "ref:csioz": 1108356,
                "addr:street": "Torowa",
                "addr:housenumber": "1",
                "addr:city": "Nysa",
                "addr:postcode": "48-300",
                "amenity": "pharmacy",
                "dispensing": "yes"
            },
            "geometry": {
                "type": "Point",
                "coordinates": [
                    17.340588999998555,
                    50.48315900001319
                ]
            }
        },
        {
            "type": "Feature",
            "properties": {
                "ref:csioz": 1108362,
                "name": "\"Doz Apteka. Dbam O Zdrowie. \"\"Pod Basztą\"\"\"",
                "addr:street": "Wrocławska",
                "addr:housenumber": "11c",
                "addr:city": "Nysa",
                "addr:postcode": "48-300",
                "amenity": "pharmacy",
                "dispensing": "yes"
            },
            "geometry": {
                "type": "Point",
                "coordinates": [
                    17.333850999998532,
                    50.475416000013176
                ]
            }
        },
        {
            "type": "Feature",
            "properties": {
                "ref:csioz": 1110347,
                "name": "Dział Farmacji Szpitalnej W Szpitalu Ocr",
                "addr:street": "Wyzwolenia",
                "addr:housenumber": "11",
                "addr:city": "Korfantów",
                "addr:postcode": "48-317",
                "amenity": "pharmacy",
                "dispensing": "yes"
            },
            "geometry": {
                "type": "Point",
                "coordinates": [
                    17.59300997813025,
                    50.488302883376875
                ]
            }
        },
        {
            "type": "Feature",
            "properties": {
                "ref:csioz": 1122915,
                "name": "Apteka Św. Franciszka",
                "addr:street": "Korfantego",
                "addr:housenumber": "1-3",
                "addr:city": "Głuchołazy",
                "addr:postcode": "48-340",
                "amenity": "pharmacy",
                "dispensing": "yes"
            },
            "geometry": {
                "type": "Point",
                "coordinates": [
                    17.384138265938926,
                    50.316320912460974
                ]
            }
        },
        {
            "type": "Feature",
            "properties": {
                "ref:csioz": 1159186,
                "name": "Apteka Szpitalna",
                "addr:street": "Lompy",
                "addr:housenumber": "2",
                "addr:city": "Głuchołazy",
                "addr:postcode": "48-340",
                "amenity": "pharmacy",
                "dispensing": "yes"
            },
            "geometry": {
                "type": "Point",
                "coordinates": [
                    17.383248699821802,
                    50.30189950186467
                ]
            }
        },
        {
            "type": "Feature",
            "properties": {
                "ref:csioz": 1176942,
                "name": "Apteka Szpitalna W Nyskim Centrum Sercowo - Naczyniowym Polsko - Amerykańskich Klinik Serca",
                "addr:street": "Marii Curie-Skłodowskiej",
                "addr:housenumber": "1",
                "addr:city": "Nysa",
                "addr:postcode": "48-300",
                "amenity": "pharmacy",
                "dispensing": "yes"
            },
            "geometry": {
                "type": "Point",
                "coordinates": [
                    17.338531554836038,
                    50.46694629421712
                ]
            }
        },
        {
            "type": "Feature",
            "properties": {
                "ref:csioz": 1177180,
                "name": "\"Apteka \"\"Na Dobre I Na Złe\"\" - Centrum Farmaceutyczne\"",
                "addr:street": "Celna",
                "addr:housenumber": "26",
                "addr:city": "Nysa",
                "addr:postcode": "48-300",
                "amenity": "pharmacy",
                "dispensing": "yes"
            },
            "geometry": {
                "type": "Point",
                "coordinates": [
                    17.335408904904636,
                    50.47128042344816
                ]
            }
        },
        {
            "type": "Feature",
            "properties": {
                "ref:csioz": 1181434,
                "name": "Apteka Szpitalna W Szpitalu Specjalistycznym Mswia W Głuchołazach",
                "addr:street": "Karłowicza",
                "addr:housenumber": "40",
                "addr:city": "Głuchołazy",
                "addr:postcode": "48-340",
                "amenity": "pharmacy",
                "dispensing": "yes"
            },
            "geometry": {
                "type": "Point",
                "coordinates": [
                    17.385488205365192,
                    50.30454907501514
                ]
            }
        },
        {
            "type": "Feature",
            "properties": {
                "ref:csioz": 1181427,
                "name": "\"Apteki Burchacińscy; \"\"Wejdź Po Zdrowie\"\"\"",
                "addr:street": "Bolesława Krzywoustego",
                "addr:housenumber": "16 A i B",
                "addr:city": "Nysa",
                "addr:postcode": "48-300",
                "amenity": "pharmacy",
                "dispensing": "yes"
            },
            "geometry": {
                "type": "Point",
                "coordinates": [
                    17.33043642626506,
                    50.47473955415985
                ]
            }
        },
        {
            "type": "Feature",
            "properties": {
                "ref:csioz": 1207220,
                "name": "Dział Farmacji Szpitalnej W Klinice Kort W Korfantowie",
                "addr:street": "Jana Kilińskiego",
                "addr:housenumber": "3A",
                "addr:city": "Korfantów",
                "addr:postcode": "48-317",
                "amenity": "pharmacy",
                "dispensing": "yes"
            },
            "geometry": {
                "type": "Point",
                "coordinates": [
                    17.59630868913124,
                    50.48862272552247
                ]
            }
        },
        {
            "type": "Feature",
            "properties": {
                "ref:csioz": 1212729,
                "name": "Niezapominajka Dla Całej Rodziny",
                "addr:street": "Celna",
                "addr:housenumber": "23a",
                "addr:city": "Nysa",
                "addr:postcode": "48-300",
                "amenity": "pharmacy",
                "dispensing": "yes"
            },
            "geometry": {
                "type": "Point",
                "coordinates": [
                    17.33575531002363,
                    50.47145799780553
                ]
            }
        },
        {
            "type": "Feature",
            "properties": {
                "ref:csioz": 1214425,
                "name": "Hibiskus Alina Rucińska",
                "addr:street": "Obozowa",
                "addr:housenumber": "40",
                "addr:city": "Łambinowice",
                "addr:postcode": "48-316",
                "amenity": "pharmacy",
                "dispensing": "yes"
            },
            "geometry": {
                "type": "Point",
                "coordinates": [
                    17.569213279407418,
                    50.54465480612705
                ]
            }
        },
        {
            "type": "Feature",
            "properties": {
                "ref:csioz": 1220106,
                "name": "Ziko Apteka",
                "addr:street": "Rynek",
                "addr:housenumber": "35",
                "addr:city": "Nysa",
                "addr:postcode": "48-300",
                "amenity": "pharmacy",
                "dispensing": "yes"
            },
            "geometry": {
                "type": "Point",
                "coordinates": [
                    17.332759006031125,
                    50.4743695720943
                ]
            }
        },
        {
            "type": "Feature",
            "properties": {
                "ref:csioz": 1222273,
                "name": "\"Apteki Burchacińscy; Wejdź Po Zdrowie!\"",
                "addr:street": "Rynek",
                "addr:housenumber": "33",
                "addr:city": "Głuchołazy",
                "addr:postcode": "48-340",
                "amenity": "pharmacy",
                "dispensing": "yes"
            },
            "geometry": {
                "type": "Point",
                "coordinates": [
                    17.383160465095028,
                    50.317632822210406
                ]
            }
        },
        {
            "type": "Feature",
            "properties": {
                "ref:csioz": 1225283,
                "name": "Na Dobre I Na Złe",
                "addr:street": "Prudnicka",
                "addr:housenumber": "7",
                "addr:city": "Nysa",
                "addr:postcode": "48-300",
                "amenity": "pharmacy",
                "dispensing": "yes"
            },
            "geometry": {
                "type": "Point",
                "coordinates": [
                    17.337354554998424,
                    50.469932901653316
                ]
            }
        },
        {
            "type": "Feature",
            "properties": {
                "ref:csioz": 1108278,
                "name": "\"Apteka \"\"Eliksir\"\"\"",
                "addr:street": "Osmańczyka",
                "addr:housenumber": "18A",
                "addr:city": "Nysa",
                "addr:postcode": "48-304",
                "amenity": "pharmacy",
                "dispensing": "yes"
            },
            "geometry": {
                "type": "Point",
                "coordinates": [
                    17.32477149641494,
                    50.461508010636265
                ]
            }
        },
        {
            "type": "Feature",
            "properties": {
                "ref:csioz": 1108324,
                "name": "\"Apteka \"\"Eliksir\"\"\"",
                "addr:street": "Prusa",
                "addr:housenumber": "3",
                "addr:city": "Nysa",
                "addr:postcode": "48-300",
                "amenity": "pharmacy",
                "dispensing": "yes"
            },
            "geometry": {
                "type": "Point",
                "coordinates": [
                    17.338506885975484,
                    50.465824286687244
                ]
            }
        },
        {
            "type": "Feature",
            "properties": {
                "ref:csioz": 1116123,
                "name": "\"W Hospicjum Stacjonarnym I Domowym Stowarzyszenia Auxilium \"\"Hospicjum Św. Arnolda Janssena W Nysie\"\"\"",
                "addr:street": "Sienkiewicza",
                "addr:housenumber": "7B",
                "addr:city": "Nysa",
                "addr:postcode": "48-304",
                "amenity": "pharmacy",
                "dispensing": "yes"
            },
            "geometry": {
                "type": "Point",
                "coordinates": [
                    17.33179081129541,
                    50.464868862757136
                ]
            }
        },
        {
            "type": "Feature",
            "properties": {
                "ref:csioz": 1107098,
                "name": "Na Dobre I Na Złe",
                "addr:street": "Rynek",
                "addr:housenumber": "12/14",
                "addr:city": "Głuchołazy",
                "addr:postcode": "48-340",
                "amenity": "pharmacy",
                "dispensing": "yes"
            },
            "geometry": {
                "type": "Point",
                "coordinates": [
                    17.384050999998678,
                    50.316625000012955
                ]
            }
        },
        {
            "type": "Feature",
            "properties": {
                "ref:csioz": 1107079,
                "name": "\"Apteka \"\"Przyjazna\"\"\"",
                "addr:street": "Kraszewskiego",
                "addr:housenumber": "7 B",
                "addr:city": "Głuchołazy",
                "addr:postcode": "48-340",
                "amenity": "pharmacy",
                "dispensing": "yes"
            },
            "geometry": {
                "type": "Point",
                "coordinates": [
                    17.377544313971306,
                    50.31716547780816
                ]
            }
        }
    ]
}