{
    "type": "FeatureCollection",
    "name": "JPT_KOD_JE_2605",
    "features": [
        {
            "type": "Feature",
            "properties": {
                "ref:csioz": 1186731,
                "name": "Apteka Mgr Bober Apteki Polskie",
                "addr:housenumber": "33 A",
                "addr:postcode": "26-234",
                "amenity": "pharmacy",
                "addr:place": "Słupia",
                "dispensing": "yes"
            },
            "geometry": {
                "type": "Point",
                "coordinates": [
                    20.139921388036658,
                    51.01311861994731
                ]
            }
        },
        {
            "type": "Feature",
            "properties": {
                "ref:csioz": 1002026,
                "name": "Radoszycka",
                "addr:street": "Mickiewicza",
                "addr:housenumber": "3a",
                "addr:city": "Radoszyce",
                "addr:postcode": "26-230",
                "amenity": "pharmacy",
                "dispensing": "yes"
            },
            "geometry": {
                "type": "Point",
                "coordinates": [
                    20.250861459150965,
                    51.07180542044593
                ]
            }
        },
        {
            "type": "Feature",
            "properties": {
                "ref:csioz": 1002634,
                "addr:street": "Zamkowa",
                "addr:housenumber": "1",
                "addr:city": "FAŁKÓW",
                "addr:postcode": "26-260",
                "amenity": "pharmacy",
                "dispensing": "yes"
            },
            "geometry": {
                "type": "Point",
                "coordinates": [
                    20.106383802099288,
                    51.13474630962703
                ]
            }
        },
        {
            "type": "Feature",
            "properties": {
                "ref:csioz": 1003791,
                "name": "Apteka Melisa",
                "addr:street": "Mickiewicza",
                "addr:housenumber": "2",
                "addr:city": "Radoszyce",
                "addr:postcode": "26-230",
                "amenity": "pharmacy",
                "dispensing": "yes"
            },
            "geometry": {
                "type": "Point",
                "coordinates": [
                    20.250079291055343,
                    51.07220259342602
                ]
            }
        },
        {
            "type": "Feature",
            "properties": {
                "ref:csioz": 1119293,
                "addr:street": "Kościelna",
                "addr:housenumber": "105",
                "addr:city": "Czermno",
                "addr:postcode": "26-260",
                "amenity": "pharmacy",
                "dispensing": "yes"
            },
            "geometry": {
                "type": "Point",
                "coordinates": [
                    20.023877351504122,
                    51.10785018737915
                ]
            }
        },
        {
            "type": "Feature",
            "properties": {
                "ref:csioz": 1121633,
                "name": "Punkt Apteczny Melisa",
                "addr:housenumber": "99A",
                "addr:postcode": "26-242",
                "amenity": "pharmacy",
                "addr:place": "Ruda Maleniecka",
                "dispensing": "yes"
            },
            "geometry": {
                "type": "Point",
                "coordinates": [
                    20.217659219863474,
                    51.147551471217525
                ]
            }
        },
        {
            "type": "Feature",
            "properties": {
                "ref:csioz": 1000044,
                "addr:street": "Południowa",
                "addr:housenumber": "1",
                "addr:city": "Końskie",
                "addr:postcode": "26-200",
                "amenity": "pharmacy",
                "dispensing": "yes"
            },
            "geometry": {
                "type": "Point",
                "coordinates": [
                    20.411678017563542,
                    51.18673136207934
                ]
            }
        },
        {
            "type": "Feature",
            "properties": {
                "ref:csioz": 1000053,
                "addr:housenumber": "52",
                "addr:postcode": "26-220",
                "amenity": "pharmacy",
                "addr:place": "Krasna",
                "dispensing": "yes"
            },
            "geometry": {
                "type": "Point",
                "coordinates": [
                    20.548296186152882,
                    51.07824705422021
                ]
            }
        },
        {
            "type": "Feature",
            "properties": {
                "ref:csioz": 1000077,
                "name": "\"Apteka \"\"Pod Zegarem\"\"\"",
                "addr:street": "Spółdzielcza",
                "addr:housenumber": "8",
                "addr:city": "Końskie",
                "addr:postcode": "26-200",
                "amenity": "pharmacy",
                "dispensing": "yes"
            },
            "geometry": {
                "type": "Point",
                "coordinates": [
                    20.4113993654491,
                    51.193119545080044
                ]
            }
        },
        {
            "type": "Feature",
            "properties": {
                "ref:csioz": 1000066,
                "name": "\"Apteka \"\"Pod Słoniem\"\"\"",
                "addr:street": "Gimnazjalna",
                "addr:housenumber": "41",
                "addr:city": "Końskie",
                "addr:postcode": "26-200",
                "amenity": "pharmacy",
                "dispensing": "yes"
            },
            "geometry": {
                "type": "Point",
                "coordinates": [
                    20.392583728385016,
                    51.19259622498347
                ]
            }
        },
        {
            "type": "Feature",
            "properties": {
                "ref:csioz": 1001246,
                "addr:street": "1 Maja",
                "addr:housenumber": "1",
                "addr:city": "Stąporków",
                "addr:postcode": "26-220",
                "amenity": "pharmacy",
                "dispensing": "yes"
            },
            "geometry": {
                "type": "Point",
                "coordinates": [
                    20.5595166922452,
                    51.136921013157334
                ]
            }
        },
        {
            "type": "Feature",
            "properties": {
                "ref:csioz": 1001498,
                "addr:street": "Spółdzielcza",
                "addr:housenumber": "4",
                "addr:city": "Końskie",
                "addr:postcode": "26-200",
                "amenity": "pharmacy",
                "dispensing": "yes"
            },
            "geometry": {
                "type": "Point",
                "coordinates": [
                    20.408291321808623,
                    51.192740869421385
                ]
            }
        },
        {
            "type": "Feature",
            "properties": {
                "ref:csioz": 1001866,
                "addr:street": "Juliusza Słowackiego",
                "addr:housenumber": "4",
                "addr:city": "Stąporków",
                "addr:postcode": "26-220",
                "amenity": "pharmacy",
                "dispensing": "yes"
            },
            "geometry": {
                "type": "Point",
                "coordinates": [
                    20.565127844250217,
                    51.1364384031453
                ]
            }
        },
        {
            "type": "Feature",
            "properties": {
                "ref:csioz": 1002110,
                "name": "Vita",
                "addr:street": "3 Maja",
                "addr:housenumber": "1A",
                "addr:city": "Końskie",
                "addr:postcode": "26-200",
                "amenity": "pharmacy",
                "dispensing": "yes"
            },
            "geometry": {
                "type": "Point",
                "coordinates": [
                    20.40315878370723,
                    51.193114931914764
                ]
            }
        },
        {
            "type": "Feature",
            "properties": {
                "ref:csioz": 1002421,
                "name": "Quarta Decima",
                "addr:street": "16 Stycznia",
                "addr:housenumber": "1B",
                "addr:city": "Końskie",
                "addr:postcode": "26-200",
                "amenity": "pharmacy",
                "dispensing": "yes"
            },
            "geometry": {
                "type": "Point",
                "coordinates": [
                    20.410259405783204,
                    51.18895247199522
                ]
            }
        },
        {
            "type": "Feature",
            "properties": {
                "ref:csioz": 1003082,
                "name": "Apteka Melisa",
                "addr:street": "Marszałka Józefa Piłsudskiego",
                "addr:housenumber": "125C",
                "addr:city": "Stąporków",
                "addr:postcode": "26-220",
                "amenity": "pharmacy",
                "dispensing": "yes"
            },
            "geometry": {
                "type": "Point",
                "coordinates": [
                    20.566577466317625,
                    51.137590510058
                ]
            }
        },
        {
            "type": "Feature",
            "properties": {
                "ref:csioz": 1203887,
                "name": "Konecka",
                "addr:street": "Spółdzielcza",
                "addr:housenumber": "22",
                "addr:city": "Końskie",
                "addr:postcode": "26-200",
                "amenity": "pharmacy",
                "dispensing": "yes"
            },
            "geometry": {
                "type": "Point",
                "coordinates": [
                    20.409194099820226,
                    51.192872048802876
                ]
            }
        },
        {
            "type": "Feature",
            "properties": {
                "ref:csioz": 1000165,
                "name": "Pod Kasztanami",
                "addr:street": "marsz. Piłsudskiego",
                "addr:housenumber": "16",
                "addr:city": "Końskie",
                "addr:postcode": "26-200",
                "amenity": "pharmacy",
                "dispensing": "yes"
            },
            "geometry": {
                "type": "Point",
                "coordinates": [
                    20.40914512571196,
                    51.191026965996606
                ]
            }
        },
        {
            "type": "Feature",
            "properties": {
                "ref:csioz": 1002744,
                "addr:street": "Warszawska",
                "addr:housenumber": "3",
                "addr:city": "KOŃSKIE",
                "addr:postcode": "26-200",
                "amenity": "pharmacy",
                "dispensing": "yes"
            },
            "geometry": {
                "type": "Point",
                "coordinates": [
                    20.406860231940005,
                    51.191788942594435
                ]
            }
        },
        {
            "type": "Feature",
            "properties": {
                "ref:csioz": 1003147,
                "name": "Apteka Gminy Smyków",
                "addr:housenumber": "91",
                "addr:postcode": "26-212",
                "amenity": "pharmacy",
                "addr:place": "Smyków",
                "dispensing": "yes"
            },
            "geometry": {
                "type": "Point",
                "coordinates": [
                    20.4003033755895,
                    51.05473915172771
                ]
            }
        },
        {
            "type": "Feature",
            "properties": {
                "ref:csioz": 1003270,
                "name": "Słoneczna",
                "addr:street": "Południowa",
                "addr:housenumber": "89",
                "addr:city": "Końskie",
                "addr:postcode": "26-200",
                "amenity": "pharmacy",
                "dispensing": "yes"
            },
            "geometry": {
                "type": "Point",
                "coordinates": [
                    20.407979255823612,
                    51.178129828857315
                ]
            }
        },
        {
            "type": "Feature",
            "properties": {
                "ref:csioz": 1004119,
                "name": "Apteka Melisa",
                "addr:street": "Zamkowa",
                "addr:housenumber": "21",
                "addr:city": "Końskie",
                "addr:postcode": "26-200",
                "amenity": "pharmacy",
                "dispensing": "yes"
            },
            "geometry": {
                "type": "Point",
                "coordinates": [
                    20.41133225522493,
                    51.18835963054546
                ]
            }
        },
        {
            "type": "Feature",
            "properties": {
                "ref:csioz": 1004300,
                "name": "Apteka Plus",
                "addr:street": "Gimnazjalna",
                "addr:housenumber": "41",
                "addr:city": "Końskie",
                "addr:postcode": "26-200",
                "amenity": "pharmacy",
                "dispensing": "yes"
            },
            "geometry": {
                "type": "Point",
                "coordinates": [
                    20.392583728385016,
                    51.192566224983466
                ]
            }
        },
        {
            "type": "Feature",
            "properties": {
                "ref:csioz": 1111932,
                "name": "Dr. Max",
                "addr:street": "Wojska Polskiego",
                "addr:housenumber": "3",
                "addr:city": "Końskie",
                "addr:postcode": "26-200",
                "amenity": "pharmacy",
                "dispensing": "yes"
            },
            "geometry": {
                "type": "Point",
                "coordinates": [
                    20.413535277903023,
                    51.1945802213951
                ]
            }
        },
        {
            "type": "Feature",
            "properties": {
                "ref:csioz": 1123162,
                "addr:street": "Gimnazjalna",
                "addr:housenumber": "45A",
                "addr:city": "Końskie",
                "addr:postcode": "26-200",
                "amenity": "pharmacy",
                "dispensing": "yes"
            },
            "geometry": {
                "type": "Point",
                "coordinates": [
                    20.391418519577464,
                    51.19188743018551
                ]
            }
        },
        {
            "type": "Feature",
            "properties": {
                "ref:csioz": 1137978,
                "name": "Apteka Szpitalna",
                "addr:street": "Gimnazjalna",
                "addr:housenumber": "41 B",
                "addr:city": "Końskie",
                "addr:postcode": "26-200",
                "amenity": "pharmacy",
                "dispensing": "yes"
            },
            "geometry": {
                "type": "Point",
                "coordinates": [
                    20.391652641643365,
                    51.19085180525577
                ]
            }
        },
        {
            "type": "Feature",
            "properties": {
                "ref:csioz": 1187903,
                "name": "Apteka Lawendowa",
                "addr:street": "Stefana Żeromskiego",
                "addr:housenumber": "3",
                "addr:city": "Gowarczów",
                "addr:postcode": "26-225",
                "amenity": "pharmacy",
                "dispensing": "yes"
            },
            "geometry": {
                "type": "Point",
                "coordinates": [
                    20.436995892968774,
                    51.278947739506286
                ]
            }
        },
        {
            "type": "Feature",
            "properties": {
                "ref:csioz": 1191831,
                "name": "Dział Farmacji Szpitalnej",
                "addr:housenumber": "43",
                "addr:postcode": "26-220",
                "amenity": "pharmacy",
                "addr:place": "Czarniecka Góra",
                "dispensing": "yes"
            },
            "geometry": {
                "type": "Point",
                "coordinates": [
                    20.528416592507334,
                    51.13631869567809
                ]
            }
        },
        {
            "type": "Feature",
            "properties": {
                "ref:csioz": 1198847,
                "name": "Mandarynka",
                "addr:street": "Kilińskiego",
                "addr:housenumber": "21",
                "addr:city": "Końskie",
                "addr:postcode": "26-200",
                "amenity": "pharmacy",
                "dispensing": "yes"
            },
            "geometry": {
                "type": "Point",
                "coordinates": [
                    20.41263465614626,
                    51.19393541530965
                ]
            }
        },
        {
            "type": "Feature",
            "properties": {
                "ref:csioz": 1199997,
                "name": "Pani Magister",
                "addr:street": "Marszałka Józefa Piłsudskiego",
                "addr:housenumber": "151",
                "addr:city": "Stąporków",
                "addr:postcode": "26-220",
                "amenity": "pharmacy",
                "dispensing": "yes"
            },
            "geometry": {
                "type": "Point",
                "coordinates": [
                    20.56055500000116,
                    51.13809100001416
                ]
            }
        },
        {
            "type": "Feature",
            "properties": {
                "ref:csioz": 1224275,
                "name": "Stowarzyszenie Opieki Paliatywno-Hospicyjnej Im. Bł. Ks. Kazimierza Sykulskiego W Rudzie Białaczowskiej",
                "addr:housenumber": "1A",
                "addr:postcode": "26-225",
                "amenity": "pharmacy",
                "addr:place": "Ruda Białaczowska",
                "dispensing": "yes"
            },
            "geometry": {
                "type": "Point",
                "coordinates": [
                    20.400198032568653,
                    51.26151137932125
                ]
            }
        }
    ]
}