{
    "type": "FeatureCollection",
    "name": "JPT_KOD_JE_0606",
    "features": [
        {
            "type": "Feature",
            "properties": {
                "ref:csioz": 1157100,
                "addr:street": "Jana Sobieskiego",
                "addr:housenumber": "2",
                "addr:city": "Żółkiewka",
                "addr:postcode": "22-335",
                "amenity": "pharmacy",
                "dispensing": "yes"
            },
            "geometry": {
                "type": "Point",
                "coordinates": [
                    22.834342670997497,
                    50.91063610313707
                ]
            }
        },
        {
            "type": "Feature",
            "properties": {
                "ref:csioz": 1106166,
                "addr:street": "Główna",
                "addr:housenumber": "21",
                "addr:city": "Gorzków",
                "addr:postcode": "22-315",
                "amenity": "pharmacy",
                "dispensing": "yes"
            },
            "geometry": {
                "type": "Point",
                "coordinates": [
                    23.013737201079678,
                    50.94579641110363
                ]
            }
        },
        {
            "type": "Feature",
            "properties": {
                "ref:csioz": 1141391,
                "addr:housenumber": "29",
                "addr:postcode": "37-534",
                "amenity": "pharmacy",
                "addr:place": "Adamówka",
                "dispensing": "yes"
            },
            "geometry": {
                "type": "Point",
                "coordinates": [
                    22.802269211371033,
                    50.93433158118881
                ]
            }
        },
        {
            "type": "Feature",
            "properties": {
                "ref:csioz": 1156680,
                "addr:street": "Nadrzeczna",
                "addr:housenumber": "1",
                "addr:city": "Gorzków",
                "addr:postcode": "22-315",
                "amenity": "pharmacy",
                "dispensing": "yes"
            },
            "geometry": {
                "type": "Point",
                "coordinates": [
                    23.014103805529412,
                    50.94605371592184
                ]
            }
        },
        {
            "type": "Feature",
            "properties": {
                "ref:csioz": 1156695,
                "addr:street": "Rynek",
                "addr:housenumber": "32",
                "addr:city": "Izbica",
                "addr:postcode": "22-375",
                "amenity": "pharmacy",
                "dispensing": "yes"
            },
            "geometry": {
                "type": "Point",
                "coordinates": [
                    23.15763895989418,
                    50.893200081401865
                ]
            }
        },
        {
            "type": "Feature",
            "properties": {
                "ref:csioz": 1156718,
                "name": "Apteka Medicus",
                "addr:street": "Okrzei",
                "addr:housenumber": "23",
                "addr:city": "Krasnystaw",
                "addr:postcode": "22-300",
                "amenity": "pharmacy",
                "dispensing": "yes"
            },
            "geometry": {
                "type": "Point",
                "coordinates": [
                    23.162326100249384,
                    50.98484282108233
                ]
            }
        },
        {
            "type": "Feature",
            "properties": {
                "ref:csioz": 1156973,
                "addr:housenumber": "259A",
                "addr:postcode": "22-304",
                "amenity": "pharmacy",
                "addr:place": "Siennica Różana",
                "dispensing": "yes"
            },
            "geometry": {
                "type": "Point",
                "coordinates": [
                    23.298897221900777,
                    51.00164434845371
                ]
            }
        },
        {
            "type": "Feature",
            "properties": {
                "ref:csioz": 1157145,
                "addr:street": "Żółkiewskiego",
                "addr:housenumber": "25",
                "addr:city": "Żółkiewka",
                "addr:postcode": "22-335",
                "amenity": "pharmacy",
                "dispensing": "yes"
            },
            "geometry": {
                "type": "Point",
                "coordinates": [
                    22.836336451911958,
                    50.91004552152008
                ]
            }
        },
        {
            "type": "Feature",
            "properties": {
                "ref:csioz": 1157215,
                "addr:street": "Żółkiewskiego",
                "addr:housenumber": "18",
                "addr:city": "Żółkiewka",
                "addr:postcode": "22-335",
                "amenity": "pharmacy",
                "dispensing": "yes"
            },
            "geometry": {
                "type": "Point",
                "coordinates": [
                    22.83678329730731,
                    50.91066095566296
                ]
            }
        },
        {
            "type": "Feature",
            "properties": {
                "ref:csioz": 1157361,
                "addr:street": "Lubelska",
                "addr:housenumber": "98",
                "addr:city": "Izbica",
                "addr:postcode": "22-375",
                "amenity": "pharmacy",
                "dispensing": "yes"
            },
            "geometry": {
                "type": "Point",
                "coordinates": [
                    23.158356000103453,
                    50.89340000001557
                ]
            }
        },
        {
            "type": "Feature",
            "properties": {
                "ref:csioz": 1157385,
                "name": "Apteka Sda",
                "addr:street": "Okrzei",
                "addr:housenumber": "25",
                "addr:city": "Krasnystaw",
                "addr:postcode": "22-300",
                "amenity": "pharmacy",
                "dispensing": "yes"
            },
            "geometry": {
                "type": "Point",
                "coordinates": [
                    23.161495759587265,
                    50.985285617861386
                ]
            }
        },
        {
            "type": "Feature",
            "properties": {
                "ref:csioz": 1181747,
                "name": "Apteka Rodzinna",
                "addr:housenumber": "24",
                "addr:postcode": "21-060",
                "amenity": "pharmacy",
                "addr:place": "Fajsławice",
                "dispensing": "yes"
            },
            "geometry": {
                "type": "Point",
                "coordinates": [
                    22.964030712259717,
                    51.09100107895547
                ]
            }
        },
        {
            "type": "Feature",
            "properties": {
                "ref:csioz": 1209561,
                "name": "Nowa",
                "addr:street": "Główna",
                "addr:housenumber": "21",
                "addr:city": "Gorzków-Osada",
                "addr:postcode": "22-315",
                "amenity": "pharmacy",
                "dispensing": "yes"
            },
            "geometry": {
                "type": "Point",
                "coordinates": [
                    23.013737201079678,
                    50.94576641110363
                ]
            }
        },
        {
            "type": "Feature",
            "properties": {
                "ref:csioz": 1119210,
                "name": "Apteka Medicus Ii",
                "addr:street": "Cicha",
                "addr:housenumber": "2",
                "addr:city": "Krasnystaw",
                "addr:postcode": "22-300",
                "amenity": "pharmacy",
                "dispensing": "yes"
            },
            "geometry": {
                "type": "Point",
                "coordinates": [
                    23.170394010498757,
                    50.985343508614186
                ]
            }
        },
        {
            "type": "Feature",
            "properties": {
                "ref:csioz": 1156553,
                "name": "Apteka Na Pocztowej Apteka Sda",
                "addr:street": "Pocztowa",
                "addr:housenumber": "2",
                "addr:city": "Krasnystaw",
                "addr:postcode": "22-300",
                "amenity": "pharmacy",
                "dispensing": "yes"
            },
            "geometry": {
                "type": "Point",
                "coordinates": [
                    23.17093912367938,
                    50.98423928175426
                ]
            }
        },
        {
            "type": "Feature",
            "properties": {
                "ref:csioz": 1157056,
                "addr:housenumber": "101",
                "addr:postcode": "22-351",
                "amenity": "pharmacy",
                "addr:place": "Łopiennik Nadrzeczny",
                "dispensing": "yes"
            },
            "geometry": {
                "type": "Point",
                "coordinates": [
                    23.045437806535713,
                    51.04406626542073
                ]
            }
        },
        {
            "type": "Feature",
            "properties": {
                "ref:csioz": 1157336,
                "name": "Apteka Eskulap Apteka Sda",
                "addr:street": "Okrzei",
                "addr:housenumber": "15",
                "addr:city": "Krasnystaw",
                "addr:postcode": "22-300",
                "amenity": "pharmacy",
                "dispensing": "yes"
            },
            "geometry": {
                "type": "Point",
                "coordinates": [
                    23.16467729135682,
                    50.98387985317506
                ]
            }
        },
        {
            "type": "Feature",
            "properties": {
                "ref:csioz": 1189926,
                "name": "Apteka Szpitalna",
                "addr:street": "Głowackiego",
                "addr:housenumber": "3",
                "addr:city": "Krasnystaw",
                "addr:postcode": "22-300",
                "amenity": "pharmacy",
                "dispensing": "yes"
            },
            "geometry": {
                "type": "Point",
                "coordinates": [
                    23.162257234848983,
                    50.98399385059259
                ]
            }
        },
        {
            "type": "Feature",
            "properties": {
                "ref:csioz": 1197589,
                "name": "\"Apteka \"\"Anika\"\"\"",
                "addr:street": "Tadeusza Kościuszki",
                "addr:housenumber": "22",
                "addr:city": "Kraśniczyn",
                "addr:postcode": "23-310",
                "amenity": "pharmacy",
                "dispensing": "yes"
            },
            "geometry": {
                "type": "Point",
                "coordinates": [
                    23.352361359135042,
                    50.93205763103274
                ]
            }
        },
        {
            "type": "Feature",
            "properties": {
                "ref:csioz": 1200231,
                "name": "Apteka Doz Dbam O Zdrowie",
                "addr:street": "Zakręcie",
                "addr:housenumber": "2 J",
                "addr:city": "Krasnystaw",
                "addr:postcode": "22-300",
                "amenity": "pharmacy",
                "dispensing": "yes"
            },
            "geometry": {
                "type": "Point",
                "coordinates": [
                    23.14447300010021,
                    50.99570200001567
                ]
            }
        },
        {
            "type": "Feature",
            "properties": {
                "ref:csioz": 1210716,
                "name": "-",
                "addr:street": "Lubelska",
                "addr:housenumber": "118",
                "addr:city": "Izbica-Wieś",
                "addr:postcode": "22-375",
                "amenity": "pharmacy",
                "dispensing": "yes"
            },
            "geometry": {
                "type": "Point",
                "coordinates": [
                    23.156567354966526,
                    50.8917763524822
                ]
            }
        },
        {
            "type": "Feature",
            "properties": {
                "ref:csioz": 1211053,
                "name": "Apteka Premium-Lek",
                "addr:street": "Poniatowskiego",
                "addr:housenumber": "7",
                "addr:city": "Krasnystaw",
                "addr:postcode": "22-300",
                "amenity": "pharmacy",
                "dispensing": "yes"
            },
            "geometry": {
                "type": "Point",
                "coordinates": [
                    23.171183410593866,
                    50.98491276425301
                ]
            }
        },
        {
            "type": "Feature",
            "properties": {
                "ref:csioz": 1211066,
                "name": "Premium-Lek",
                "addr:housenumber": "15G",
                "addr:postcode": "22-302",
                "amenity": "pharmacy",
                "addr:place": "Siennica Nadolna",
                "dispensing": "yes"
            },
            "geometry": {
                "type": "Point",
                "coordinates": [
                    23.18579431686322,
                    51.01971507181319
                ]
            }
        },
        {
            "type": "Feature",
            "properties": {
                "ref:csioz": 1217591,
                "name": "-",
                "addr:housenumber": "64",
                "addr:postcode": "22-330",
                "amenity": "pharmacy",
                "addr:place": "Rudnik",
                "dispensing": "yes"
            },
            "geometry": {
                "type": "Point",
                "coordinates": [
                    22.974195408570512,
                    50.880139719672144
                ]
            }
        },
        {
            "type": "Feature",
            "properties": {
                "ref:csioz": 1230600,
                "addr:housenumber": "64",
                "addr:postcode": "22-330",
                "amenity": "pharmacy",
                "addr:place": "Rudnik",
                "dispensing": "yes"
            },
            "geometry": {
                "type": "Point",
                "coordinates": [
                    22.974195408570512,
                    50.88010971967214
                ]
            }
        }
    ]
}