{
    "type": "FeatureCollection",
    "name": "JPT_KOD_JE_1213",
    "features": [
        {
            "type": "Feature",
            "properties": {
                "ref:csioz": 1077292,
                "name": "Apteka Nowa",
                "addr:street": "Plac Jana Kilińskiego",
                "addr:housenumber": "1",
                "addr:city": "Chełmek",
                "addr:postcode": "32-660",
                "amenity": "pharmacy",
                "dispensing": "yes"
            },
            "geometry": {
                "type": "Point",
                "coordinates": [
                    19.252984937934233,
                    50.10436929383653
                ]
            }
        },
        {
            "type": "Feature",
            "properties": {
                "ref:csioz": 1194952,
                "name": "Apteka Świat Leków",
                "addr:street": "Brzozowa",
                "addr:housenumber": "6",
                "addr:city": "Chełmek",
                "addr:postcode": "32-600",
                "amenity": "pharmacy",
                "dispensing": "yes"
            },
            "geometry": {
                "type": "Point",
                "coordinates": [
                    19.263345879333663,
                    50.104180359724786
                ]
            }
        },
        {
            "type": "Feature",
            "properties": {
                "ref:csioz": 1077065,
                "name": "Doz Apteka. Dbam O Zdrowie. Ziołolek",
                "addr:street": "Krakowska",
                "addr:housenumber": "26",
                "addr:city": "Chełmek",
                "addr:postcode": "32-660",
                "amenity": "pharmacy",
                "dispensing": "yes"
            },
            "geometry": {
                "type": "Point",
                "coordinates": [
                    19.26558350892158,
                    50.09673264946594
                ]
            }
        },
        {
            "type": "Feature",
            "properties": {
                "ref:csioz": 1213440,
                "name": "Apteka Nowa Zdrowa",
                "addr:street": "Staicha",
                "addr:housenumber": "1",
                "addr:city": "Chełmek",
                "addr:postcode": "32-600",
                "amenity": "pharmacy",
                "dispensing": "yes"
            },
            "geometry": {
                "type": "Point",
                "coordinates": [
                    19.251395882249593,
                    50.102359664223506
                ]
            }
        },
        {
            "type": "Feature",
            "properties": {
                "ref:csioz": 1034884,
                "name": "Sigma",
                "addr:street": "Piłsudskiego",
                "addr:housenumber": "13A",
                "addr:city": "Brzeszcze",
                "addr:postcode": "32-620",
                "amenity": "pharmacy",
                "dispensing": "yes"
            },
            "geometry": {
                "type": "Point",
                "coordinates": [
                    19.136618785121467,
                    49.96891523182847
                ]
            }
        },
        {
            "type": "Feature",
            "properties": {
                "ref:csioz": 1035080,
                "addr:street": "Władysława Łokietka",
                "addr:housenumber": "39",
                "addr:city": "Brzeszcze",
                "addr:postcode": "32-620",
                "amenity": "pharmacy",
                "dispensing": "yes"
            },
            "geometry": {
                "type": "Point",
                "coordinates": [
                    19.131526384225307,
                    49.971310821109974
                ]
            }
        },
        {
            "type": "Feature",
            "properties": {
                "ref:csioz": 1036805,
                "name": "Fantazja",
                "addr:street": "Legionów",
                "addr:housenumber": "28",
                "addr:city": "Kęty",
                "addr:postcode": "32-650",
                "amenity": "pharmacy",
                "dispensing": "yes"
            },
            "geometry": {
                "type": "Point",
                "coordinates": [
                    19.212734085309595,
                    49.87771141995695
                ]
            }
        },
        {
            "type": "Feature",
            "properties": {
                "ref:csioz": 1036930,
                "addr:street": "Władysława Jagiełły",
                "addr:housenumber": "6",
                "addr:city": "Oświęcim",
                "addr:postcode": "32-600",
                "amenity": "pharmacy",
                "dispensing": "yes"
            },
            "geometry": {
                "type": "Point",
                "coordinates": [
                    19.220502579695367,
                    50.037575668895556
                ]
            }
        },
        {
            "type": "Feature",
            "properties": {
                "ref:csioz": 1036996,
                "name": "Apteka Jana Kantego",
                "addr:street": "Żwirki i Wigury",
                "addr:housenumber": "25",
                "addr:city": "Kęty",
                "addr:postcode": "32-650",
                "amenity": "pharmacy",
                "dispensing": "yes"
            },
            "geometry": {
                "type": "Point",
                "coordinates": [
                    19.21854882158961,
                    49.87611434859657
                ]
            }
        },
        {
            "type": "Feature",
            "properties": {
                "ref:csioz": 1037041,
                "addr:street": "Andrzeja Nideckiego",
                "addr:housenumber": "24A",
                "addr:city": "Oświęcim",
                "addr:postcode": "32-600",
                "amenity": "pharmacy",
                "dispensing": "yes"
            },
            "geometry": {
                "type": "Point",
                "coordinates": [
                    19.2148397913289,
                    50.0477646856743
                ]
            }
        },
        {
            "type": "Feature",
            "properties": {
                "ref:csioz": 1038584,
                "name": "Centrum - Centrum Tanich Leków",
                "addr:street": "Ofiar Oświęcimia",
                "addr:housenumber": "31",
                "addr:city": "Brzeszcze",
                "addr:postcode": "32-620",
                "amenity": "pharmacy",
                "dispensing": "yes"
            },
            "geometry": {
                "type": "Point",
                "coordinates": [
                    19.153714483908573,
                    49.98286997534098
                ]
            }
        },
        {
            "type": "Feature",
            "properties": {
                "ref:csioz": 1038592,
                "name": "Centrum - Centrum Tanich Leków",
                "addr:street": "Ofiar Oświęcimia",
                "addr:housenumber": "20",
                "addr:city": "Brzeszcze",
                "addr:postcode": "32-620",
                "amenity": "pharmacy",
                "dispensing": "yes"
            },
            "geometry": {
                "type": "Point",
                "coordinates": [
                    19.145805702226866,
                    49.97406566116054
                ]
            }
        },
        {
            "type": "Feature",
            "properties": {
                "ref:csioz": 1074561,
                "name": "Dr. Max",
                "addr:street": "Królowej Jadwigi",
                "addr:housenumber": "11",
                "addr:city": "Oświęcim",
                "addr:postcode": "32-600",
                "amenity": "pharmacy",
                "dispensing": "yes"
            },
            "geometry": {
                "type": "Point",
                "coordinates": [
                    19.22386558898143,
                    50.03448595066586
                ]
            }
        },
        {
            "type": "Feature",
            "properties": {
                "ref:csioz": 1075137,
                "name": "Apteka Na Różanej Centrum Tanich Leków",
                "addr:street": "Różana",
                "addr:housenumber": "2",
                "addr:city": "Kęty",
                "addr:postcode": "32-650",
                "amenity": "pharmacy",
                "dispensing": "yes"
            },
            "geometry": {
                "type": "Point",
                "coordinates": [
                    19.222039344451357,
                    49.88252093845727
                ]
            }
        },
        {
            "type": "Feature",
            "properties": {
                "ref:csioz": 1075385,
                "name": "Centrum - Centrum Tanich Leków",
                "addr:street": "Ofiar Oświęcimia",
                "addr:housenumber": "34",
                "addr:city": "Brzeszcze",
                "addr:postcode": "32-620",
                "amenity": "pharmacy",
                "dispensing": "yes"
            },
            "geometry": {
                "type": "Point",
                "coordinates": [
                    19.156674472112744,
                    49.984894400487846
                ]
            }
        },
        {
            "type": "Feature",
            "properties": {
                "ref:csioz": 1075399,
                "name": "Centrum - Centrum Tanich Leków",
                "addr:street": "Szarych Szeregów",
                "addr:housenumber": "22",
                "addr:city": "Oświęcim",
                "addr:postcode": "32-606",
                "amenity": "pharmacy",
                "dispensing": "yes"
            },
            "geometry": {
                "type": "Point",
                "coordinates": [
                    19.207789026805816,
                    50.03634425682987
                ]
            }
        },
        {
            "type": "Feature",
            "properties": {
                "ref:csioz": 1077011,
                "name": "Apteka „Vita”",
                "addr:street": "Szpitalna",
                "addr:housenumber": "2",
                "addr:city": "Oświęcim",
                "addr:postcode": "32-600",
                "amenity": "pharmacy",
                "dispensing": "yes"
            },
            "geometry": {
                "type": "Point",
                "coordinates": [
                    19.243341428925735,
                    50.04380555653613
                ]
            }
        },
        {
            "type": "Feature",
            "properties": {
                "ref:csioz": 1115971,
                "name": "Apteka Na Turystycznej Centrum Tanich Leków",
                "addr:street": "Piłsudskiego",
                "addr:housenumber": "2",
                "addr:city": "Brzeszcze",
                "addr:postcode": "32-620",
                "amenity": "pharmacy",
                "dispensing": "yes"
            },
            "geometry": {
                "type": "Point",
                "coordinates": [
                    19.13799661589526,
                    49.96915257876766
                ]
            }
        },
        {
            "type": "Feature",
            "properties": {
                "ref:csioz": 1117737,
                "name": "Niezapominajka Dla Całej Rodziny",
                "addr:street": "Rynek",
                "addr:housenumber": "27",
                "addr:city": "Kęty",
                "addr:postcode": "32-650",
                "amenity": "pharmacy",
                "dispensing": "yes"
            },
            "geometry": {
                "type": "Point",
                "coordinates": [
                    19.220702050223302,
                    49.88364412973821
                ]
            }
        },
        {
            "type": "Feature",
            "properties": {
                "ref:csioz": 1119887,
                "name": "\"Centrum Kardiologii Inwazyjnej, Elektroterapii I Angiologii W Oświęcimiu\"",
                "addr:street": "Wysokie Brzegi",
                "addr:housenumber": "4",
                "addr:city": "Oświęcim",
                "addr:postcode": "32-600",
                "amenity": "pharmacy",
                "dispensing": "yes"
            },
            "geometry": {
                "type": "Point",
                "coordinates": [
                    19.235719565563556,
                    50.0405944750924
                ]
            }
        },
        {
            "type": "Feature",
            "properties": {
                "ref:csioz": 1120091,
                "name": "Apteka Zdrowit",
                "addr:street": "Jędrzeja Śniadeckiego",
                "addr:housenumber": "23-39",
                "addr:city": "Oświęcim",
                "addr:postcode": "32-600",
                "amenity": "pharmacy",
                "dispensing": "yes"
            },
            "geometry": {
                "type": "Point",
                "coordinates": [
                    19.238386290681007,
                    50.03451152691152
                ]
            }
        },
        {
            "type": "Feature",
            "properties": {
                "ref:csioz": 1171415,
                "name": "Apteka Św. Anny",
                "addr:street": "Henryka Sienkiewicza",
                "addr:housenumber": "13",
                "addr:city": "Kęty",
                "addr:postcode": "32-650",
                "amenity": "pharmacy",
                "dispensing": "yes"
            },
            "geometry": {
                "type": "Point",
                "coordinates": [
                    19.226154051087036,
                    49.88126384054916
                ]
            }
        },
        {
            "type": "Feature",
            "properties": {
                "ref:csioz": 1190903,
                "name": "Apteka Słoneczna",
                "addr:street": "Józefa Nojego",
                "addr:housenumber": "1D",
                "addr:city": "Oświęcim",
                "addr:postcode": "32-600",
                "amenity": "pharmacy",
                "dispensing": "yes"
            },
            "geometry": {
                "type": "Point",
                "coordinates": [
                    19.233498962632943,
                    50.037898305861034
                ]
            }
        },
        {
            "type": "Feature",
            "properties": {
                "ref:csioz": 1200253,
                "name": "\"Hospicjum \"\"Pomnik Miastu Oświęcim\"\"\"",
                "addr:street": "Wysokie Brzegi",
                "addr:housenumber": "4A",
                "addr:city": "Oświęcim",
                "addr:postcode": "32-600",
                "amenity": "pharmacy",
                "dispensing": "yes"
            },
            "geometry": {
                "type": "Point",
                "coordinates": [
                    19.235405848438134,
                    50.04183008035908
                ]
            }
        },
        {
            "type": "Feature",
            "properties": {
                "ref:csioz": 1226508,
                "name": "Hygieia",
                "addr:street": "Tadeusza Kościuszki",
                "addr:housenumber": "106",
                "addr:city": "Kęty",
                "addr:postcode": "32-650",
                "amenity": "pharmacy",
                "dispensing": "yes"
            },
            "geometry": {
                "type": "Point",
                "coordinates": [
                    19.225303121428972,
                    49.87010638592058
                ]
            }
        },
        {
            "type": "Feature",
            "properties": {
                "ref:csioz": 1037108,
                "name": "Apteka Blisko Ciebie",
                "addr:street": "Więźniów Oświęcimia",
                "addr:housenumber": "7A",
                "addr:city": "Oświęcim",
                "addr:postcode": "32-600",
                "amenity": "pharmacy",
                "dispensing": "yes"
            },
            "geometry": {
                "type": "Point",
                "coordinates": [
                    19.200820704907308,
                    50.03667127296734
                ]
            }
        },
        {
            "type": "Feature",
            "properties": {
                "ref:csioz": 1038602,
                "name": "Centrum - Centrum Tanich Leków",
                "addr:street": "Wysokie Brzegi",
                "addr:housenumber": "4",
                "addr:city": "Oświęcim",
                "addr:postcode": "32-600",
                "amenity": "pharmacy",
                "dispensing": "yes"
            },
            "geometry": {
                "type": "Point",
                "coordinates": [
                    19.235719565563556,
                    50.040564475092395
                ]
            }
        },
        {
            "type": "Feature",
            "properties": {
                "ref:csioz": 1042061,
                "name": "Apteka Rodzinna",
                "addr:street": "Jana III Sobieskiego",
                "addr:housenumber": "5",
                "addr:city": "Oświęcim",
                "addr:postcode": "32-600",
                "amenity": "pharmacy",
                "dispensing": "yes"
            },
            "geometry": {
                "type": "Point",
                "coordinates": [
                    19.23832597309604,
                    50.03133559416348
                ]
            }
        },
        {
            "type": "Feature",
            "properties": {
                "ref:csioz": 1056329,
                "name": "Apteka Miętowa",
                "addr:street": "Bronisława Czecha",
                "addr:housenumber": "2",
                "addr:city": "Oświęcim",
                "addr:postcode": "32-600",
                "amenity": "pharmacy",
                "dispensing": "yes"
            },
            "geometry": {
                "type": "Point",
                "coordinates": [
                    19.234441923671046,
                    50.03495433666528
                ]
            }
        },
        {
            "type": "Feature",
            "properties": {
                "ref:csioz": 1056341,
                "addr:street": "Żwirki i Wigury",
                "addr:housenumber": "5",
                "addr:city": "Oświęcim",
                "addr:postcode": "32-600",
                "amenity": "pharmacy",
                "dispensing": "yes"
            },
            "geometry": {
                "type": "Point",
                "coordinates": [
                    19.229017467001615,
                    50.03972961684071
                ]
            }
        },
        {
            "type": "Feature",
            "properties": {
                "ref:csioz": 1056355,
                "addr:street": "Kościelna",
                "addr:housenumber": "5",
                "addr:city": "Osiek",
                "addr:postcode": "32-608",
                "amenity": "pharmacy",
                "dispensing": "yes"
            },
            "geometry": {
                "type": "Point",
                "coordinates": [
                    19.264775647664315,
                    49.951190001485415
                ]
            }
        },
        {
            "type": "Feature",
            "properties": {
                "ref:csioz": 1077259,
                "name": "Aspirynka",
                "addr:street": "Bielska",
                "addr:housenumber": "52",
                "addr:city": "Bulowice",
                "addr:postcode": "32-652",
                "amenity": "pharmacy",
                "dispensing": "yes"
            },
            "geometry": {
                "type": "Point",
                "coordinates": [
                    19.281373285084356,
                    49.87737509897785
                ]
            }
        },
        {
            "type": "Feature",
            "properties": {
                "ref:csioz": 1076211,
                "name": "\"'Libra'\"",
                "addr:street": "gen. Jarosława Dąbrowskiego",
                "addr:housenumber": "11A",
                "addr:city": "Oświęcim",
                "addr:postcode": "32-600",
                "amenity": "pharmacy",
                "dispensing": "yes"
            },
            "geometry": {
                "type": "Point",
                "coordinates": [
                    19.22541146332456,
                    50.038685825059936
                ]
            }
        },
        {
            "type": "Feature",
            "properties": {
                "ref:csioz": 1076279,
                "name": "„Multi-Vita”",
                "addr:street": "Chemików",
                "addr:housenumber": "5",
                "addr:city": "Oświęcim",
                "addr:postcode": "32-600",
                "amenity": "pharmacy",
                "dispensing": "yes"
            },
            "geometry": {
                "type": "Point",
                "coordinates": [
                    19.254331040534318,
                    50.0348416345585
                ]
            }
        },
        {
            "type": "Feature",
            "properties": {
                "ref:csioz": 1076496,
                "name": "\"Apteka \"\"Remedium\"\" - Centrum Niskich Cen\"",
                "addr:street": "Jana III Sobieskiego",
                "addr:housenumber": "39",
                "addr:city": "Kęty",
                "addr:postcode": "32-650",
                "amenity": "pharmacy",
                "dispensing": "yes"
            },
            "geometry": {
                "type": "Point",
                "coordinates": [
                    19.214877633247692,
                    49.88132646253055
                ]
            }
        },
        {
            "type": "Feature",
            "properties": {
                "ref:csioz": 1076768,
                "addr:street": "Garbarska",
                "addr:housenumber": "1",
                "addr:city": "Oświęcim",
                "addr:postcode": "32-600",
                "amenity": "pharmacy",
                "dispensing": "yes"
            },
            "geometry": {
                "type": "Point",
                "coordinates": [
                    19.209012429205835,
                    50.03770264099616
                ]
            }
        },
        {
            "type": "Feature",
            "properties": {
                "ref:csioz": 1114236,
                "name": "Apteka Duży Berlin Centrum Tanich Leków",
                "addr:street": "Aleja Juliusza Słowackiego",
                "addr:housenumber": "43",
                "addr:city": "Oświęcim",
                "addr:postcode": "32-600",
                "amenity": "pharmacy",
                "dispensing": "yes"
            },
            "geometry": {
                "type": "Point",
                "coordinates": [
                    19.24293838453347,
                    50.03621221003877
                ]
            }
        },
        {
            "type": "Feature",
            "properties": {
                "ref:csioz": 1120933,
                "name": "Apteka Bądź Zdrów",
                "addr:street": "Dworcowa",
                "addr:housenumber": "1a",
                "addr:city": "Brzeszcze",
                "addr:postcode": "32-620",
                "amenity": "pharmacy",
                "dispensing": "yes"
            },
            "geometry": {
                "type": "Point",
                "coordinates": [
                    19.137748996413816,
                    49.97196914620844
                ]
            }
        },
        {
            "type": "Feature",
            "properties": {
                "ref:csioz": 1122966,
                "addr:street": "Wypoczynkowa",
                "addr:housenumber": "74",
                "addr:city": "Zasole",
                "addr:postcode": "32-626",
                "amenity": "pharmacy",
                "dispensing": "yes"
            },
            "geometry": {
                "type": "Point",
                "coordinates": [
                    19.191327027906528,
                    49.96141981519912
                ]
            }
        },
        {
            "type": "Feature",
            "properties": {
                "ref:csioz": 1174030,
                "name": "Zakład Opiekuńczo Leczniczy",
                "addr:street": "Tadeusza Kościuszki",
                "addr:housenumber": "10",
                "addr:city": "Oświęcim",
                "addr:postcode": "32-600",
                "amenity": "pharmacy",
                "dispensing": "yes"
            },
            "geometry": {
                "type": "Point",
                "coordinates": [
                    19.22501478635366,
                    50.03773151363032
                ]
            }
        },
        {
            "type": "Feature",
            "properties": {
                "ref:csioz": 1185750,
                "addr:street": "Królowej Jadwigi",
                "addr:housenumber": "13",
                "addr:city": "Oświęcim",
                "addr:postcode": "32-600",
                "amenity": "pharmacy",
                "dispensing": "yes"
            },
            "geometry": {
                "type": "Point",
                "coordinates": [
                    19.224140628169497,
                    50.035237549789635
                ]
            }
        },
        {
            "type": "Feature",
            "properties": {
                "ref:csioz": 1193872,
                "name": "Szpital Powiatowy Im. Św. Maksymiliana",
                "addr:street": "Wysokie Brzegi",
                "addr:housenumber": "4",
                "addr:city": "Oświęcim",
                "addr:postcode": "32-600",
                "amenity": "pharmacy",
                "dispensing": "yes"
            },
            "geometry": {
                "type": "Point",
                "coordinates": [
                    19.235719565563556,
                    50.040564475092395
                ]
            }
        },
        {
            "type": "Feature",
            "properties": {
                "ref:csioz": 1195801,
                "name": "Nowa Duża",
                "addr:street": "Jana III Sobieskiego",
                "addr:housenumber": "19",
                "addr:city": "Kęty",
                "addr:postcode": "32-650",
                "amenity": "pharmacy",
                "dispensing": "yes"
            },
            "geometry": {
                "type": "Point",
                "coordinates": [
                    19.219728014904103,
                    49.88192002318028
                ]
            }
        },
        {
            "type": "Feature",
            "properties": {
                "ref:csioz": 1196326,
                "name": "Prima",
                "addr:street": "Oświęcimska",
                "addr:housenumber": "52 A",
                "addr:city": "Nowa Wieś",
                "addr:postcode": "32-651",
                "amenity": "pharmacy",
                "dispensing": "yes"
            },
            "geometry": {
                "type": "Point",
                "coordinates": [
                    19.217655509573206,
                    49.90392018020856
                ]
            }
        },
        {
            "type": "Feature",
            "properties": {
                "ref:csioz": 1206321,
                "name": "Prima",
                "addr:street": "Główna",
                "addr:housenumber": "219",
                "addr:city": "Osiek",
                "addr:postcode": "32-608",
                "amenity": "pharmacy",
                "dispensing": "yes"
            },
            "geometry": {
                "type": "Point",
                "coordinates": [
                    19.27274687675147,
                    49.9460315993965
                ]
            }
        },
        {
            "type": "Feature",
            "properties": {
                "ref:csioz": 1216174,
                "addr:street": "Zygmunta Wróblewskiego",
                "addr:housenumber": "26",
                "addr:city": "Oświęcim",
                "addr:postcode": "32-600",
                "amenity": "pharmacy",
                "dispensing": "yes"
            },
            "geometry": {
                "type": "Point",
                "coordinates": [
                    19.242243376769114,
                    50.03316448739281
                ]
            }
        },
        {
            "type": "Feature",
            "properties": {
                "ref:csioz": 1217100,
                "name": "Zakład Opieuńczo Leczniczy",
                "addr:street": "Ogrodowa",
                "addr:housenumber": "1",
                "addr:city": "Grojec",
                "addr:postcode": "32-615",
                "amenity": "pharmacy",
                "dispensing": "yes"
            },
            "geometry": {
                "type": "Point",
                "coordinates": [
                    19.23650034457907,
                    49.97946008244886
                ]
            }
        },
        {
            "type": "Feature",
            "properties": {
                "ref:csioz": 1219107,
                "name": "Prima",
                "addr:street": "Kazimierza Jagiellończyka",
                "addr:housenumber": "9a",
                "addr:city": "Grojec",
                "addr:postcode": "32-615",
                "amenity": "pharmacy",
                "dispensing": "yes"
            },
            "geometry": {
                "type": "Point",
                "coordinates": [
                    19.232818655713075,
                    49.98001729264836
                ]
            }
        },
        {
            "type": "Feature",
            "properties": {
                "ref:csioz": 1230252,
                "name": "\"Elvita Specjalistyczny Zakład Opieki Zdrowotnej \"\"Multimed\"\" Szpital\"",
                "addr:street": "Chemików",
                "addr:housenumber": "5",
                "addr:city": "Oświęcim",
                "addr:postcode": "32-600",
                "amenity": "pharmacy",
                "dispensing": "yes"
            },
            "geometry": {
                "type": "Point",
                "coordinates": [
                    19.254331040534318,
                    50.034811634558494
                ]
            }
        },
        {
            "type": "Feature",
            "properties": {
                "ref:csioz": 1230283,
                "name": "Dr.Max",
                "addr:street": "Powstańców Śląskich",
                "addr:housenumber": "1",
                "addr:city": "Oświęcim",
                "addr:postcode": "32-600",
                "amenity": "pharmacy",
                "dispensing": "yes"
            },
            "geometry": {
                "type": "Point",
                "coordinates": [
                    19.20468583618949,
                    50.04366134522462
                ]
            }
        },
        {
            "type": "Feature",
            "properties": {
                "ref:csioz": 1035265,
                "name": "Apteka 4 Pory Roku",
                "addr:street": "Aleja Juliusza Słowackiego",
                "addr:housenumber": "1",
                "addr:city": "Oświęcim",
                "addr:postcode": "32-600",
                "amenity": "pharmacy",
                "dispensing": "yes"
            },
            "geometry": {
                "type": "Point",
                "coordinates": [
                    19.240844165831433,
                    50.02897515345932
                ]
            }
        },
        {
            "type": "Feature",
            "properties": {
                "ref:csioz": 1035375,
                "name": "Pod Lwem",
                "addr:street": "Rynek",
                "addr:housenumber": "7",
                "addr:city": "Zator",
                "addr:postcode": "32-640",
                "amenity": "pharmacy",
                "dispensing": "yes"
            },
            "geometry": {
                "type": "Point",
                "coordinates": [
                    19.43781240763976,
                    49.99580759997667
                ]
            }
        },
        {
            "type": "Feature",
            "properties": {
                "ref:csioz": 1036534,
                "addr:street": "Leszka Palimąki",
                "addr:housenumber": "2",
                "addr:city": "Zator",
                "addr:postcode": "32-640",
                "amenity": "pharmacy",
                "dispensing": "yes"
            },
            "geometry": {
                "type": "Point",
                "coordinates": [
                    19.433656107646648,
                    49.99437067216555
                ]
            }
        },
        {
            "type": "Feature",
            "properties": {
                "ref:csioz": 1042223,
                "addr:street": "Długa",
                "addr:housenumber": "5",
                "addr:city": "Polanka Wielka",
                "addr:postcode": "32-607",
                "amenity": "pharmacy",
                "dispensing": "yes"
            },
            "geometry": {
                "type": "Point",
                "coordinates": [
                    19.324686195835564,
                    49.9849437001662
                ]
            }
        },
        {
            "type": "Feature",
            "properties": {
                "ref:csioz": 1122678,
                "name": "Zakład Opiekuńczo-Leczniczy Im.Hanny Chrzanowskiej W Zatorze",
                "addr:street": "Jana Pawła II",
                "addr:housenumber": "1",
                "addr:city": "Zator",
                "addr:postcode": "32-640",
                "amenity": "pharmacy",
                "dispensing": "yes"
            },
            "geometry": {
                "type": "Point",
                "coordinates": [
                    19.436659019030795,
                    49.99276669422375
                ]
            }
        },
        {
            "type": "Feature",
            "properties": {
                "ref:csioz": 1124232,
                "name": "Apteka Rodzinna",
                "addr:street": "Podlesie",
                "addr:housenumber": "3",
                "addr:city": "Przeciszów",
                "addr:postcode": "32-641",
                "amenity": "pharmacy",
                "dispensing": "yes"
            },
            "geometry": {
                "type": "Point",
                "coordinates": [
                    19.37181185182802,
                    50.010890828701584
                ]
            }
        },
        {
            "type": "Feature",
            "properties": {
                "ref:csioz": 1035482,
                "name": "\"Punkt Apteczny \"\"Arnika\"\"\"",
                "addr:street": "Andrychowska",
                "addr:housenumber": "77",
                "addr:city": "Piotrowice",
                "addr:postcode": "32-641",
                "amenity": "pharmacy",
                "dispensing": "yes"
            },
            "geometry": {
                "type": "Point",
                "coordinates": [
                    19.36337377108777,
                    49.98371285438408
                ]
            }
        },
        {
            "type": "Feature",
            "properties": {
                "ref:csioz": 1042057,
                "name": "Apteka Nowa Zatorska",
                "addr:street": "Kolejowa",
                "addr:housenumber": "17",
                "addr:city": "Zator",
                "addr:postcode": "32-640",
                "amenity": "pharmacy",
                "dispensing": "yes"
            },
            "geometry": {
                "type": "Point",
                "coordinates": [
                    19.429369998988548,
                    49.998425105073366
                ]
            }
        },
        {
            "type": "Feature",
            "properties": {
                "ref:csioz": 1042563,
                "name": "Apteka Prywatna Anna Boba",
                "addr:street": "Długa",
                "addr:housenumber": "3",
                "addr:city": "Polanka Wielka",
                "addr:postcode": "32-607",
                "amenity": "pharmacy",
                "dispensing": "yes"
            },
            "geometry": {
                "type": "Point",
                "coordinates": [
                    19.324524921555344,
                    49.983859087468915
                ]
            }
        },
        {
            "type": "Feature",
            "properties": {
                "ref:csioz": 1197196,
                "name": "Apteka Przyjazna",
                "addr:street": "Kasztanowa",
                "addr:housenumber": "5A",
                "addr:city": "Polanka Wielka",
                "addr:postcode": "32-607",
                "amenity": "pharmacy",
                "dispensing": "yes"
            },
            "geometry": {
                "type": "Point",
                "coordinates": [
                    19.325566427484944,
                    49.98610183260675
                ]
            }
        },
        {
            "type": "Feature",
            "properties": {
                "ref:csioz": 1209252,
                "name": "Apteka Artfarm",
                "addr:street": "Juliusza Słowackiego",
                "addr:housenumber": "1",
                "addr:city": "Zator",
                "addr:postcode": "32-640",
                "amenity": "pharmacy",
                "dispensing": "yes"
            },
            "geometry": {
                "type": "Point",
                "coordinates": [
                    19.43236107094592,
                    49.995961799303615
                ]
            }
        }
    ]
}