{
    "type": "FeatureCollection",
    "name": "JPT_KOD_JE_1813",
    "features": [
        {
            "type": "Feature",
            "properties": {
                "ref:csioz": 1136708,
                "addr:street": "Jana Pawła II",
                "addr:housenumber": "218",
                "addr:city": "Żurawica",
                "addr:postcode": "37-710",
                "amenity": "pharmacy"
            },
            "geometry": {
                "type": "Point",
                "coordinates": [
                    22.791698219114522,
                    49.823175139753126
                ]
            }
        },
        {
            "type": "Feature",
            "properties": {
                "ref:csioz": 1140043,
                "addr:housenumber": "479a",
                "addr:postcode": "37-732",
                "amenity": "pharmacy",
                "addr:place": "Medyka"
            },
            "geometry": {
                "type": "Point",
                "coordinates": [
                    22.93033724779612,
                    49.80706234460833
                ]
            }
        },
        {
            "type": "Feature",
            "properties": {
                "ref:csioz": 1140081,
                "name": "Niezapominajka Dla Całej Rodziny",
                "addr:housenumber": "69a",
                "addr:postcode": "37-723",
                "amenity": "pharmacy",
                "addr:place": "Stubno"
            },
            "geometry": {
                "type": "Point",
                "coordinates": [
                    22.951700613442863,
                    49.89893823347846
                ]
            }
        },
        {
            "type": "Feature",
            "properties": {
                "ref:csioz": 1166097,
                "addr:housenumber": "55",
                "addr:postcode": "37-716",
                "amenity": "pharmacy",
                "addr:place": "Wacławice"
            },
            "geometry": {
                "type": "Point",
                "coordinates": [
                    22.755266148462024,
                    49.8851908234229
                ]
            }
        },
        {
            "type": "Feature",
            "properties": {
                "ref:csioz": 1230823,
                "name": "Danfam Punkt Apteczny Żurawica",
                "addr:street": "Rzeszowska",
                "addr:housenumber": "2",
                "addr:city": "Żurawica",
                "addr:postcode": "37-710",
                "amenity": "pharmacy"
            },
            "geometry": {
                "type": "Point",
                "coordinates": [
                    22.789220542705063,
                    49.823483608751744
                ]
            }
        },
        {
            "type": "Feature",
            "properties": {
                "ref:csioz": 1190845,
                "name": "Medika",
                "addr:street": "Przemyska",
                "addr:housenumber": "8",
                "addr:city": "Orły",
                "addr:postcode": "37-716",
                "amenity": "pharmacy"
            },
            "geometry": {
                "type": "Point",
                "coordinates": [
                    22.811376525297625,
                    49.874211030454894
                ]
            }
        },
        {
            "type": "Feature",
            "properties": {
                "ref:csioz": 1192731,
                "addr:street": "Przemyska",
                "addr:housenumber": "22",
                "addr:city": "Orły",
                "addr:postcode": "37-716",
                "amenity": "pharmacy"
            },
            "geometry": {
                "type": "Point",
                "coordinates": [
                    22.810551700175804,
                    49.873180043353955
                ]
            }
        },
        {
            "type": "Feature",
            "properties": {
                "ref:csioz": 1217534,
                "name": "Słoneczko",
                "addr:housenumber": "405A",
                "addr:flats": "80",
                "addr:postcode": "37-732",
                "amenity": "pharmacy",
                "addr:place": "Medyka"
            },
            "geometry": {
                "type": "Point",
                "coordinates": [
                    22.940414297609067,
                    49.80124297425808
                ]
            }
        },
        {
            "type": "Feature",
            "properties": {
                "ref:csioz": 1224960,
                "name": "Dział Farmacji Szpitalnej Wojewódzkiego Podkarpackiego Szpitala Psychiatrycznego W Żurawicy",
                "addr:street": "Różana",
                "addr:housenumber": "9",
                "addr:city": "Żurawica",
                "addr:postcode": "37-710",
                "amenity": "pharmacy"
            },
            "geometry": {
                "type": "Point",
                "coordinates": [
                    22.768364824179365,
                    49.82628313915404
                ]
            }
        },
        {
            "type": "Feature",
            "properties": {
                "ref:csioz": 1229924,
                "addr:street": "Marcina Króla",
                "addr:housenumber": "3",
                "addr:city": "Żurawica",
                "addr:postcode": "37-710",
                "amenity": "pharmacy"
            },
            "geometry": {
                "type": "Point",
                "coordinates": [
                    22.813430282632886,
                    49.82175867651187
                ]
            }
        },
        {
            "type": "Feature",
            "properties": {
                "ref:csioz": 1230771,
                "name": "Danfarm Punkt Apteczny Wyszatyce",
                "addr:housenumber": "214a",
                "addr:postcode": "37-722",
                "amenity": "pharmacy",
                "addr:place": "Wyszatyce"
            },
            "geometry": {
                "type": "Point",
                "coordinates": [
                    22.882913024226703,
                    49.842886930162145
                ]
            }
        },
        {
            "type": "Feature",
            "properties": {
                "ref:csioz": 1140019,
                "addr:street": "Rynek",
                "addr:housenumber": "3",
                "addr:flats": "1",
                "addr:city": "Bircza",
                "addr:postcode": "37-740",
                "amenity": "pharmacy"
            },
            "geometry": {
                "type": "Point",
                "coordinates": [
                    22.480254625777217,
                    49.69163937445006
                ]
            }
        },
        {
            "type": "Feature",
            "properties": {
                "ref:csioz": 1140062,
                "addr:housenumber": "67",
                "addr:postcode": "37-754",
                "amenity": "pharmacy",
                "addr:place": "Krzywcza"
            },
            "geometry": {
                "type": "Point",
                "coordinates": [
                    22.543995608763705,
                    49.798105810175585
                ]
            }
        },
        {
            "type": "Feature",
            "properties": {
                "ref:csioz": 1199316,
                "name": "Apteka Lafarma",
                "addr:street": "Przemyska",
                "addr:housenumber": "16",
                "addr:city": "Dubiecko",
                "addr:postcode": "37-750",
                "amenity": "pharmacy"
            },
            "geometry": {
                "type": "Point",
                "coordinates": [
                    22.393821415954505,
                    49.82407475752861
                ]
            }
        },
        {
            "type": "Feature",
            "properties": {
                "ref:csioz": 1190372,
                "name": "Animed",
                "addr:street": "Przemyska",
                "addr:housenumber": "41",
                "addr:city": "Dubiecko",
                "addr:postcode": "37-750",
                "amenity": "pharmacy"
            },
            "geometry": {
                "type": "Point",
                "coordinates": [
                    22.39093174720767,
                    49.825780951182814
                ]
            }
        },
        {
            "type": "Feature",
            "properties": {
                "ref:csioz": 1229878,
                "name": "Danfarm Punkt Apteczny Krasiczyn",
                "addr:housenumber": "138",
                "addr:postcode": "37-741",
                "amenity": "pharmacy",
                "addr:place": "Krasiczyn"
            },
            "geometry": {
                "type": "Point",
                "coordinates": [
                    22.65291987861876,
                    49.77598773031019
                ]
            }
        },
        {
            "type": "Feature",
            "properties": {
                "ref:csioz": 1225940,
                "name": "\"Niepubliczny Zakład Opiekuńczo-Leczniczy \"\"Zacisze\"\"\"",
                "addr:housenumber": "11",
                "addr:postcode": "37-750",
                "amenity": "pharmacy",
                "addr:place": "Winne-Podbukowina"
            },
            "geometry": {
                "type": "Point",
                "coordinates": [
                    22.3672363308438,
                    49.823307813829906
                ]
            }
        }
    ]
}