{
    "type": "FeatureCollection",
    "name": "JPT_KOD_JE_1263",
    "features": [
        {
            "type": "Feature",
            "properties": {
                "ref:csioz": 1207164,
                "name": "Apteka Słoneczna",
                "addr:street": "Krakowska",
                "addr:housenumber": "8",
                "addr:city": "Tarnów",
                "addr:postcode": "33-100",
                "amenity": "pharmacy"
            },
            "geometry": {
                "type": "Point",
                "coordinates": [
                    20.983565195454542,
                    50.01124966160125
                ]
            }
        },
        {
            "type": "Feature",
            "properties": {
                "ref:csioz": 1017940,
                "addr:street": "Długa",
                "addr:housenumber": "19",
                "addr:city": "Tarnów",
                "addr:postcode": "33-100",
                "amenity": "pharmacy"
            },
            "geometry": {
                "type": "Point",
                "coordinates": [
                    21.00897307890428,
                    50.01983726618147
                ]
            }
        },
        {
            "type": "Feature",
            "properties": {
                "ref:csioz": 1018107,
                "addr:street": "Jana Kochanowskiego",
                "addr:housenumber": "30",
                "addr:city": "Tarnów",
                "addr:postcode": "33-100",
                "amenity": "pharmacy"
            },
            "geometry": {
                "type": "Point",
                "coordinates": [
                    20.957907948099436,
                    50.00781154574144
                ]
            }
        },
        {
            "type": "Feature",
            "properties": {
                "ref:csioz": 1018141,
                "name": "\"Apteka Cef@Rm 36,6\"",
                "addr:street": "Tadeusza Kościuszki",
                "addr:housenumber": "1",
                "addr:city": "Tarnów",
                "addr:postcode": "33-100",
                "amenity": "pharmacy"
            },
            "geometry": {
                "type": "Point",
                "coordinates": [
                    20.977316168447576,
                    50.010054586487406
                ]
            }
        },
        {
            "type": "Feature",
            "properties": {
                "ref:csioz": 1018178,
                "name": "\"Apteka Im. L. Pasteur'A\"",
                "addr:street": "Tadeusza Kościuszki",
                "addr:housenumber": "35",
                "addr:city": "Tarnów",
                "addr:postcode": "33-100",
                "amenity": "pharmacy"
            },
            "geometry": {
                "type": "Point",
                "coordinates": [
                    20.971702720966146,
                    50.00970854333126
                ]
            }
        },
        {
            "type": "Feature",
            "properties": {
                "ref:csioz": 1077827,
                "addr:street": "Osiedle Niepodległości",
                "addr:housenumber": "1",
                "addr:city": "Tarnów",
                "addr:postcode": "33-100",
                "amenity": "pharmacy"
            },
            "geometry": {
                "type": "Point",
                "coordinates": [
                    21.00349935227341,
                    50.017176914299576
                ]
            }
        },
        {
            "type": "Feature",
            "properties": {
                "ref:csioz": 1077842,
                "name": "Dobra Apteka",
                "addr:street": "Dworcowy",
                "addr:housenumber": "1",
                "addr:city": "Tarnów",
                "addr:postcode": "33-100",
                "amenity": "pharmacy"
            },
            "geometry": {
                "type": "Point",
                "coordinates": [
                    20.9748352972398,
                    50.006235808746574
                ]
            }
        },
        {
            "type": "Feature",
            "properties": {
                "ref:csioz": 1077816,
                "name": "Prolek",
                "addr:street": "Osiedle Niepodległości",
                "addr:housenumber": "3A",
                "addr:city": "Tarnów",
                "addr:postcode": "33-100",
                "amenity": "pharmacy"
            },
            "geometry": {
                "type": "Point",
                "coordinates": [
                    21.001500725917353,
                    50.01675500338095
                ]
            }
        },
        {
            "type": "Feature",
            "properties": {
                "ref:csioz": 1077834,
                "name": "Vitaminka",
                "addr:street": "Osiedle Zielone",
                "addr:housenumber": "16A",
                "addr:city": "Tarnów",
                "addr:postcode": "33-100",
                "amenity": "pharmacy"
            },
            "geometry": {
                "type": "Point",
                "coordinates": [
                    21.015059567405572,
                    50.01982018830656
                ]
            }
        },
        {
            "type": "Feature",
            "properties": {
                "ref:csioz": 1077931,
                "addr:street": "Lwowska",
                "addr:housenumber": "22",
                "addr:city": "Tarnów",
                "addr:postcode": "33-100",
                "amenity": "pharmacy"
            },
            "geometry": {
                "type": "Point",
                "coordinates": [
                    20.995019676784363,
                    50.01356926098862
                ]
            }
        },
        {
            "type": "Feature",
            "properties": {
                "ref:csioz": 1077944,
                "name": "Apteka Słoneczna",
                "addr:street": "Lwowska",
                "addr:housenumber": "32A",
                "addr:city": "Tarnów",
                "addr:postcode": "33-100",
                "amenity": "pharmacy"
            },
            "geometry": {
                "type": "Point",
                "coordinates": [
                    20.99804156423063,
                    50.013983033202
                ]
            }
        },
        {
            "type": "Feature",
            "properties": {
                "ref:csioz": 1077989,
                "name": "Apteka Prima",
                "addr:street": "Lwowska",
                "addr:housenumber": "178A",
                "addr:city": "Tarnów",
                "addr:postcode": "33-100",
                "amenity": "pharmacy"
            },
            "geometry": {
                "type": "Point",
                "coordinates": [
                    21.032421240628228,
                    50.013197282186034
                ]
            }
        },
        {
            "type": "Feature",
            "properties": {
                "ref:csioz": 1077990,
                "name": "Apteka Słoneczna",
                "addr:street": "Marii Skłodowskiej-Curie",
                "addr:housenumber": "1",
                "addr:city": "Tarnów",
                "addr:postcode": "33-100",
                "amenity": "pharmacy"
            },
            "geometry": {
                "type": "Point",
                "coordinates": [
                    20.993450746588195,
                    50.01719422442209
                ]
            }
        },
        {
            "type": "Feature",
            "properties": {
                "ref:csioz": 1077966,
                "name": "Apteka Dbam O Zdrowie",
                "addr:street": "Lwowska",
                "addr:housenumber": "63",
                "addr:city": "Tarnów",
                "addr:postcode": "33-100",
                "amenity": "pharmacy"
            },
            "geometry": {
                "type": "Point",
                "coordinates": [
                    21.006611746692776,
                    50.01298538612061
                ]
            }
        },
        {
            "type": "Feature",
            "properties": {
                "ref:csioz": 1077953,
                "name": "Apteka Pod Wezwaniem Świętej Agnieszki",
                "addr:street": "Lwowska",
                "addr:housenumber": "34",
                "addr:city": "Tarnów",
                "addr:postcode": "33-100",
                "amenity": "pharmacy"
            },
            "geometry": {
                "type": "Point",
                "coordinates": [
                    20.998373226579528,
                    50.013975575320195
                ]
            }
        },
        {
            "type": "Feature",
            "properties": {
                "ref:csioz": 1078149,
                "name": "Apteka Słoneczna",
                "addr:street": "Targowa",
                "addr:housenumber": "7",
                "addr:city": "Tarnów",
                "addr:postcode": "33-100",
                "amenity": "pharmacy"
            },
            "geometry": {
                "type": "Point",
                "coordinates": [
                    20.986886060109995,
                    50.011355101122426
                ]
            }
        },
        {
            "type": "Feature",
            "properties": {
                "ref:csioz": 1078158,
                "name": "Apteka Twoje Leki",
                "addr:street": "Urszulańska",
                "addr:housenumber": "7",
                "addr:city": "Tarnów",
                "addr:postcode": "33-100",
                "amenity": "pharmacy"
            },
            "geometry": {
                "type": "Point",
                "coordinates": [
                    20.983092273665534,
                    50.01029401614113
                ]
            }
        },
        {
            "type": "Feature",
            "properties": {
                "ref:csioz": 1078163,
                "name": "Ziko Apteka",
                "addr:street": "Wałowa",
                "addr:housenumber": "2",
                "addr:city": "Tarnów",
                "addr:postcode": "33-100",
                "amenity": "pharmacy"
            },
            "geometry": {
                "type": "Point",
                "coordinates": [
                    20.985601885692937,
                    50.01233588112317
                ]
            }
        },
        {
            "type": "Feature",
            "properties": {
                "ref:csioz": 1078174,
                "name": "Apteka Jaśminowa Mgr Farm. Ewa Sokół",
                "addr:street": "Wałowa",
                "addr:housenumber": "23",
                "addr:city": "Tarnów",
                "addr:postcode": "33-100",
                "amenity": "pharmacy"
            },
            "geometry": {
                "type": "Point",
                "coordinates": [
                    20.98768181942822,
                    50.01382271385475
                ]
            }
        },
        {
            "type": "Feature",
            "properties": {
                "ref:csioz": 1078210,
                "name": "\"Apteka P.W. \"\"Świętej Rodziny\"\"\"",
                "addr:street": "Żydowska",
                "addr:housenumber": "6",
                "addr:city": "Tarnów",
                "addr:postcode": "33-100",
                "amenity": "pharmacy"
            },
            "geometry": {
                "type": "Point",
                "coordinates": [
                    20.98922770333454,
                    50.01301474498439
                ]
            }
        },
        {
            "type": "Feature",
            "properties": {
                "ref:csioz": 1078130,
                "name": "Apteka Pomarańczowa",
                "addr:street": "Szpitalna",
                "addr:housenumber": "26",
                "addr:city": "Tarnów",
                "addr:postcode": "33-100",
                "amenity": "pharmacy"
            },
            "geometry": {
                "type": "Point",
                "coordinates": [
                    20.993663213256937,
                    50.016525476848315
                ]
            }
        },
        {
            "type": "Feature",
            "properties": {
                "ref:csioz": 1113591,
                "addr:street": "Czerwonych Klonów",
                "addr:housenumber": "4",
                "addr:city": "Tarnów",
                "addr:postcode": "33-101",
                "amenity": "pharmacy"
            },
            "geometry": {
                "type": "Point",
                "coordinates": [
                    20.924110199792995,
                    50.01344340323802
                ]
            }
        },
        {
            "type": "Feature",
            "properties": {
                "ref:csioz": 1114330,
                "name": "Apteka Rodzinna",
                "addr:street": "Słoneczna",
                "addr:housenumber": "\"56 E,F\"",
                "addr:city": "Tarnów",
                "addr:postcode": "33-100",
                "amenity": "pharmacy"
            },
            "geometry": {
                "type": "Point",
                "coordinates": [
                    21.005761505366433,
                    50.01793045910627
                ]
            }
        },
        {
            "type": "Feature",
            "properties": {
                "ref:csioz": 1124623,
                "name": "\"Apteka Cef@Rm 36,6\"",
                "addr:street": "Błonie",
                "addr:housenumber": "2",
                "addr:city": "Tarnów",
                "addr:postcode": "33-100",
                "amenity": "pharmacy"
            },
            "geometry": {
                "type": "Point",
                "coordinates": [
                    21.005913780481556,
                    50.036416615170694
                ]
            }
        },
        {
            "type": "Feature",
            "properties": {
                "ref:csioz": 1148524,
                "name": "Specjalistyczny Szpital Im. E. Szczeklika W Tarnowie",
                "addr:street": "Szpitalna",
                "addr:housenumber": "13",
                "addr:city": "Tarnów",
                "addr:postcode": "33-100",
                "amenity": "pharmacy"
            },
            "geometry": {
                "type": "Point",
                "coordinates": [
                    20.994415372975187,
                    50.017246153704505
                ]
            }
        },
        {
            "type": "Feature",
            "properties": {
                "ref:csioz": 1188778,
                "name": "Apteka Dbam O Zdrowie",
                "addr:street": "Lwowska",
                "addr:housenumber": "197",
                "addr:city": "Tarnów",
                "addr:postcode": "33-100",
                "amenity": "pharmacy"
            },
            "geometry": {
                "type": "Point",
                "coordinates": [
                    21.023165175136665,
                    50.012388948559845
                ]
            }
        },
        {
            "type": "Feature",
            "properties": {
                "ref:csioz": 1192018,
                "name": "Apteka Na Bema",
                "addr:street": "Generała Józefa Bema",
                "addr:housenumber": "5",
                "addr:city": "Tarnów",
                "addr:postcode": "33-100",
                "amenity": "pharmacy"
            },
            "geometry": {
                "type": "Point",
                "coordinates": [
                    20.987799170146427,
                    50.01049277150883
                ]
            }
        },
        {
            "type": "Feature",
            "properties": {
                "ref:csioz": 1197528,
                "name": "Cosmedica",
                "addr:street": "Szkotnik",
                "addr:housenumber": "1A",
                "addr:city": "Tarnów",
                "addr:postcode": "33-100",
                "amenity": "pharmacy"
            },
            "geometry": {
                "type": "Point",
                "coordinates": [
                    20.976691542618717,
                    50.01187410918472
                ]
            }
        },
        {
            "type": "Feature",
            "properties": {
                "ref:csioz": 1199700,
                "name": "Apteka Gemini",
                "addr:street": "Ochronek",
                "addr:housenumber": "34",
                "addr:city": "Tarnów",
                "addr:postcode": "33-100",
                "amenity": "pharmacy"
            },
            "geometry": {
                "type": "Point",
                "coordinates": [
                    20.999589195532238,
                    50.017532205134735
                ]
            }
        },
        {
            "type": "Feature",
            "properties": {
                "ref:csioz": 1201009,
                "name": "Dział Farmacji Szpitalnej",
                "addr:street": "Szewska",
                "addr:housenumber": "12",
                "addr:city": "Tarnów",
                "addr:postcode": "33-100",
                "amenity": "pharmacy"
            },
            "geometry": {
                "type": "Point",
                "coordinates": [
                    20.990844409670462,
                    50.00925416462051
                ]
            }
        },
        {
            "type": "Feature",
            "properties": {
                "ref:csioz": 1017965,
                "name": "Apteka Tarnowska",
                "addr:street": "Garbarska",
                "addr:housenumber": "31A",
                "addr:city": "Tarnów",
                "addr:postcode": "33-100",
                "amenity": "pharmacy"
            },
            "geometry": {
                "type": "Point",
                "coordinates": [
                    21.00106272851763,
                    50.01727010989093
                ]
            }
        },
        {
            "type": "Feature",
            "properties": {
                "ref:csioz": 1018005,
                "name": "Apteka Im. Św. Marcina",
                "addr:street": "Gumniska",
                "addr:housenumber": "11",
                "addr:city": "Tarnów",
                "addr:postcode": "33-100",
                "amenity": "pharmacy"
            },
            "geometry": {
                "type": "Point",
                "coordinates": [
                    20.995955209852703,
                    50.00863721272327
                ]
            }
        },
        {
            "type": "Feature",
            "properties": {
                "ref:csioz": 1018047,
                "name": "Apteka Jasna",
                "addr:street": "Jasna",
                "addr:housenumber": "71",
                "addr:city": "Tarnów",
                "addr:postcode": "33-100",
                "amenity": "pharmacy"
            },
            "geometry": {
                "type": "Point",
                "coordinates": [
                    21.00605817763657,
                    50.02021652633203
                ]
            }
        },
        {
            "type": "Feature",
            "properties": {
                "ref:csioz": 1078045,
                "name": "Apteka Twoje Leki",
                "addr:street": "Nowodąbrowska",
                "addr:housenumber": "127",
                "addr:city": "Tarnów",
                "addr:postcode": "33-100",
                "amenity": "pharmacy"
            },
            "geometry": {
                "type": "Point",
                "coordinates": [
                    21.002271745967693,
                    50.03018879069194
                ]
            }
        },
        {
            "type": "Feature",
            "properties": {
                "ref:csioz": 1078092,
                "name": "Apteka Na Piaskówce",
                "addr:street": "Tadeusza Romanowicza",
                "addr:housenumber": "57",
                "addr:city": "Tarnów",
                "addr:postcode": "33-100",
                "amenity": "pharmacy"
            },
            "geometry": {
                "type": "Point",
                "coordinates": [
                    20.975018088080212,
                    50.024198317395694
                ]
            }
        },
        {
            "type": "Feature",
            "properties": {
                "ref:csioz": 1077875,
                "name": "\"Apteka \"\"Pod Koroną\"\" A.W. Grabarz, K Popiołek\"",
                "addr:street": "Krakowska",
                "addr:housenumber": "15",
                "addr:city": "Tarnów",
                "addr:postcode": "33-100",
                "amenity": "pharmacy"
            },
            "geometry": {
                "type": "Point",
                "coordinates": [
                    20.982160735859967,
                    50.01096884094212
                ]
            }
        },
        {
            "type": "Feature",
            "properties": {
                "ref:csioz": 1077888,
                "name": "Apteka Dbam O Zdrowie",
                "addr:street": "Krakowska",
                "addr:housenumber": "34",
                "addr:city": "Tarnów",
                "addr:postcode": "33-100",
                "amenity": "pharmacy"
            },
            "geometry": {
                "type": "Point",
                "coordinates": [
                    20.97901867878413,
                    50.009481901817125
                ]
            }
        },
        {
            "type": "Feature",
            "properties": {
                "ref:csioz": 1077891,
                "name": "Apteka Dbam O Zdrowie",
                "addr:street": "Krakowska",
                "addr:housenumber": "53",
                "addr:city": "Tarnów",
                "addr:postcode": "33-100",
                "amenity": "pharmacy"
            },
            "geometry": {
                "type": "Point",
                "coordinates": [
                    20.973961311666873,
                    50.00747873094342
                ]
            }
        },
        {
            "type": "Feature",
            "properties": {
                "ref:csioz": 1078084,
                "name": "Apteka Dbam O Zdrowie",
                "addr:street": "Władysława Reymonta",
                "addr:housenumber": "35",
                "addr:city": "Tarnów",
                "addr:postcode": "33-100",
                "amenity": "pharmacy"
            },
            "geometry": {
                "type": "Point",
                "coordinates": [
                    20.969936286325105,
                    50.01128622282899
                ]
            }
        },
        {
            "type": "Feature",
            "properties": {
                "ref:csioz": 1079742,
                "name": "Szpital Wojewódzki Im. Św. Łukasza Sp Zoz W Tarnowie",
                "addr:street": "Lwowska",
                "addr:housenumber": "178A",
                "addr:city": "Tarnów",
                "addr:postcode": "33-100",
                "amenity": "pharmacy"
            },
            "geometry": {
                "type": "Point",
                "coordinates": [
                    21.032421240628228,
                    50.013197282186034
                ]
            }
        },
        {
            "type": "Feature",
            "properties": {
                "ref:csioz": 1118169,
                "name": "Dział Farmacji Szpitalnej",
                "addr:street": "Eugeniusza Kwiatkowskiego",
                "addr:housenumber": "15",
                "addr:city": "Tarnów",
                "addr:postcode": "33-101",
                "amenity": "pharmacy"
            },
            "geometry": {
                "type": "Point",
                "coordinates": [
                    20.9183837468566,
                    50.01409057345738
                ]
            }
        },
        {
            "type": "Feature",
            "properties": {
                "ref:csioz": 1118175,
                "name": "Zdrowe Ceny",
                "addr:street": "Tadeusza Kościuszki",
                "addr:housenumber": "3",
                "addr:city": "Tarnów",
                "addr:postcode": "33-100",
                "amenity": "pharmacy"
            },
            "geometry": {
                "type": "Point",
                "coordinates": [
                    20.978555497075646,
                    50.009765127352374
                ]
            }
        },
        {
            "type": "Feature",
            "properties": {
                "ref:csioz": 1120151,
                "name": "Dział Farmacji Szpitalnej",
                "addr:street": "Marii Skłodowskiej-Curie",
                "addr:housenumber": "1",
                "addr:city": "Tarnów",
                "addr:postcode": "33-100",
                "amenity": "pharmacy"
            },
            "geometry": {
                "type": "Point",
                "coordinates": [
                    20.993450746588195,
                    50.01719422442209
                ]
            }
        },
        {
            "type": "Feature",
            "properties": {
                "ref:csioz": 1122185,
                "name": "Hebeapteka",
                "addr:street": "Nowodąbrowska",
                "addr:housenumber": "127",
                "addr:city": "Tarnów",
                "addr:postcode": "33-100",
                "amenity": "pharmacy"
            },
            "geometry": {
                "type": "Point",
                "coordinates": [
                    21.002271745967693,
                    50.03018879069194
                ]
            }
        },
        {
            "type": "Feature",
            "properties": {
                "ref:csioz": 1173430,
                "name": "Ziko Apteka",
                "addr:street": "Leśna",
                "addr:housenumber": "18",
                "addr:city": "Tarnów",
                "addr:postcode": "33-100",
                "amenity": "pharmacy"
            },
            "geometry": {
                "type": "Point",
                "coordinates": [
                    21.006490416985596,
                    50.017563044123264
                ]
            }
        },
        {
            "type": "Feature",
            "properties": {
                "ref:csioz": 1173449,
                "name": "Ziko Apteka",
                "addr:street": "Polskiego Czerwonego Krzyża",
                "addr:housenumber": "26",
                "addr:city": "Tarnów",
                "addr:postcode": "33-100",
                "amenity": "pharmacy"
            },
            "geometry": {
                "type": "Point",
                "coordinates": [
                    20.97805729839108,
                    50.016467470887356
                ]
            }
        },
        {
            "type": "Feature",
            "properties": {
                "ref:csioz": 1173855,
                "name": "Apteka Centrum",
                "addr:street": "Eugeniusza Kwiatkowskiego",
                "addr:housenumber": "15",
                "addr:city": "Tarnów",
                "addr:postcode": "33-101",
                "amenity": "pharmacy"
            },
            "geometry": {
                "type": "Point",
                "coordinates": [
                    20.9183837468566,
                    50.01409057345738
                ]
            }
        },
        {
            "type": "Feature",
            "properties": {
                "ref:csioz": 1175454,
                "name": "Dobra Apteka",
                "addr:street": "Szkotnik",
                "addr:housenumber": "19",
                "addr:city": "Tarnów",
                "addr:postcode": "33-100",
                "amenity": "pharmacy"
            },
            "geometry": {
                "type": "Point",
                "coordinates": [
                    20.97641030382567,
                    50.01456120923356
                ]
            }
        },
        {
            "type": "Feature",
            "properties": {
                "ref:csioz": 1182743,
                "name": "Dobraapteka24.Pl",
                "addr:street": "Słoneczna",
                "addr:housenumber": "32",
                "addr:city": "Tarnów",
                "addr:postcode": "33-100",
                "amenity": "pharmacy"
            },
            "geometry": {
                "type": "Point",
                "coordinates": [
                    21.00172361324826,
                    50.01804019189771
                ]
            }
        },
        {
            "type": "Feature",
            "properties": {
                "ref:csioz": 1192164,
                "name": "Cosmedica",
                "addr:street": "Krakowska",
                "addr:housenumber": "149",
                "addr:city": "Tarnów",
                "addr:postcode": "33-100",
                "amenity": "pharmacy"
            },
            "geometry": {
                "type": "Point",
                "coordinates": [
                    20.95892148579427,
                    50.00108793166898
                ]
            }
        },
        {
            "type": "Feature",
            "properties": {
                "ref:csioz": 1203229,
                "name": "Apteka Słoneczna",
                "addr:street": "Bitwy o Wał Pomorski",
                "addr:housenumber": "6F",
                "addr:city": "Tarnów",
                "addr:postcode": "33-100",
                "amenity": "pharmacy"
            },
            "geometry": {
                "type": "Point",
                "coordinates": [
                    21.003706753946314,
                    50.017794777511966
                ]
            }
        },
        {
            "type": "Feature",
            "properties": {
                "ref:csioz": 1205031,
                "name": "Apteka Słoneczna",
                "addr:street": "Lwowska",
                "addr:housenumber": "70",
                "addr:city": "Tarnów",
                "addr:postcode": "33-100",
                "amenity": "pharmacy"
            },
            "geometry": {
                "type": "Point",
                "coordinates": [
                    21.00682960346775,
                    50.014914034634906
                ]
            }
        },
        {
            "type": "Feature",
            "properties": {
                "ref:csioz": 1211969,
                "name": "Apteka Nova",
                "addr:street": "Tadeusza Romanowicza",
                "addr:housenumber": "39A",
                "addr:city": "Tarnów",
                "addr:postcode": "33-100",
                "amenity": "pharmacy"
            },
            "geometry": {
                "type": "Point",
                "coordinates": [
                    20.977659000003026,
                    50.02381400001255
                ]
            }
        },
        {
            "type": "Feature",
            "properties": {
                "ref:csioz": 1214636,
                "name": "Apteka Słoneczna",
                "addr:street": "Krakowska",
                "addr:housenumber": "49",
                "addr:city": "Tarnów",
                "addr:postcode": "33-100",
                "amenity": "pharmacy"
            },
            "geometry": {
                "type": "Point",
                "coordinates": [
                    20.97471575114455,
                    50.00781192923447
                ]
            }
        },
        {
            "type": "Feature",
            "properties": {
                "ref:csioz": 1078037,
                "name": "Apteka Aronia",
                "addr:street": "Najświętszej Marii Panny",
                "addr:housenumber": "2",
                "addr:city": "Tarnów",
                "addr:postcode": "33-100",
                "amenity": "pharmacy"
            },
            "geometry": {
                "type": "Point",
                "coordinates": [
                    20.988189231654797,
                    50.01006312557196
                ]
            }
        },
        {
            "type": "Feature",
            "properties": {
                "ref:csioz": 1078000,
                "name": "Vita",
                "addr:street": "Mostowa",
                "addr:housenumber": "4A",
                "addr:city": "Tarnów",
                "addr:postcode": "33-100",
                "amenity": "pharmacy"
            },
            "geometry": {
                "type": "Point",
                "coordinates": [
                    20.99858800162074,
                    50.012599935607376
                ]
            }
        },
        {
            "type": "Feature",
            "properties": {
                "ref:csioz": 1078013,
                "name": "\"Apteka \"\"Melisa\"\"\"",
                "addr:street": "Ignacego Mościckiego",
                "addr:housenumber": "15",
                "addr:city": "Tarnów",
                "addr:postcode": "33-100",
                "amenity": "pharmacy"
            },
            "geometry": {
                "type": "Point",
                "coordinates": [
                    20.979551990241006,
                    50.0115941934819
                ]
            }
        },
        {
            "type": "Feature",
            "properties": {
                "ref:csioz": 1017801,
                "name": "Apteka Im. I. Łukasiewicza",
                "addr:street": "Akacjowa",
                "addr:housenumber": "3",
                "addr:city": "Tarnów",
                "addr:postcode": "33-101",
                "amenity": "pharmacy"
            },
            "geometry": {
                "type": "Point",
                "coordinates": [
                    20.92581634241399,
                    50.01326522331674
                ]
            }
        },
        {
            "type": "Feature",
            "properties": {
                "ref:csioz": 1018060,
                "name": "Apteka Zielona",
                "addr:street": "Klikowska",
                "addr:housenumber": "2",
                "addr:city": "Tarnów",
                "addr:postcode": "33-100",
                "amenity": "pharmacy"
            },
            "geometry": {
                "type": "Point",
                "coordinates": [
                    20.978219657482843,
                    50.015369595408764
                ]
            }
        },
        {
            "type": "Feature",
            "properties": {
                "ref:csioz": 1018026,
                "name": "\"Apteka \"\"Kalina\"\"\"",
                "addr:street": "Hodowlana",
                "addr:housenumber": "4",
                "addr:city": "Tarnów",
                "addr:postcode": "33-100",
                "amenity": "pharmacy"
            },
            "geometry": {
                "type": "Point",
                "coordinates": [
                    20.95799198535448,
                    50.016556079126104
                ]
            }
        }
    ]
}