{
    "type": "FeatureCollection",
    "name": "JPT_KOD_JE_0407",
    "features": [
        {
            "type": "Feature",
            "properties": {
                "ref:csioz": 1102291,
                "name": "Remedium",
                "addr:street": "Szkolna",
                "addr:housenumber": "1",
                "addr:city": "Kołodziejewo",
                "addr:postcode": "88-160",
                "amenity": "pharmacy"
            },
            "geometry": {
                "type": "Point",
                "coordinates": [
                    18.034797095320066,
                    52.709589848282626
                ]
            }
        },
        {
            "type": "Feature",
            "properties": {
                "ref:csioz": 1099252,
                "name": "Św. Marka",
                "addr:housenumber": "26",
                "addr:postcode": "88-150",
                "amenity": "pharmacy",
                "addr:place": "Polanowice"
            },
            "geometry": {
                "type": "Point",
                "coordinates": [
                    18.289776622520908,
                    52.64257242135142
                ]
            }
        },
        {
            "type": "Feature",
            "properties": {
                "ref:csioz": 1099462,
                "name": "Całodobowa Chirofarm",
                "addr:street": "Marulewska",
                "addr:housenumber": "41",
                "addr:city": "Inowrocław",
                "addr:postcode": "88-100",
                "amenity": "pharmacy"
            },
            "geometry": {
                "type": "Point",
                "coordinates": [
                    18.27149299999971,
                    52.790459000016725
                ]
            }
        },
        {
            "type": "Feature",
            "properties": {
                "ref:csioz": 1099817,
                "name": "Zagople",
                "addr:street": "Kujawska",
                "addr:housenumber": "12",
                "addr:city": "Kruszwica",
                "addr:postcode": "88-150",
                "amenity": "pharmacy"
            },
            "geometry": {
                "type": "Point",
                "coordinates": [
                    18.332248324996076,
                    52.67596574359425
                ]
            }
        },
        {
            "type": "Feature",
            "properties": {
                "ref:csioz": 1100209,
                "name": "Dr.Max",
                "addr:street": "Dworcowa",
                "addr:housenumber": "9",
                "addr:city": "Janikowo",
                "addr:postcode": "88-160",
                "amenity": "pharmacy"
            },
            "geometry": {
                "type": "Point",
                "coordinates": [
                    18.110322092373284,
                    52.751755800032015
                ]
            }
        },
        {
            "type": "Feature",
            "properties": {
                "ref:csioz": 1100724,
                "name": "Zdrojowa",
                "addr:street": "Okrężna",
                "addr:housenumber": "79",
                "addr:city": "Inowrocław",
                "addr:postcode": "88-100",
                "amenity": "pharmacy"
            },
            "geometry": {
                "type": "Point",
                "coordinates": [
                    18.24080222442544,
                    52.79912768014412
                ]
            }
        },
        {
            "type": "Feature",
            "properties": {
                "ref:csioz": 1101204,
                "name": "Doz Apteka Dbam O Zdrowie",
                "addr:street": "Wodna",
                "addr:housenumber": "15",
                "addr:city": "Inowrocław",
                "addr:postcode": "88-100",
                "amenity": "pharmacy"
            },
            "geometry": {
                "type": "Point",
                "coordinates": [
                    18.25821437963373,
                    52.79524487504253
                ]
            }
        },
        {
            "type": "Feature",
            "properties": {
                "ref:csioz": 1101212,
                "name": "Doz Apteka Dbam O Zdrowie",
                "addr:street": "Cegielna",
                "addr:housenumber": "36B",
                "addr:city": "Inowrocław",
                "addr:postcode": "88-100",
                "amenity": "pharmacy"
            },
            "geometry": {
                "type": "Point",
                "coordinates": [
                    18.26595279971279,
                    52.793691231935924
                ]
            }
        },
        {
            "type": "Feature",
            "properties": {
                "ref:csioz": 1101363,
                "name": "Apteka Dbam O Zdrowie",
                "addr:street": "Klonowa",
                "addr:housenumber": "9",
                "addr:city": "Janikowo",
                "addr:postcode": "88-160",
                "amenity": "pharmacy"
            },
            "geometry": {
                "type": "Point",
                "coordinates": [
                    18.104813281156595,
                    52.75458395501785
                ]
            }
        },
        {
            "type": "Feature",
            "properties": {
                "ref:csioz": 1101374,
                "name": "Apteka Dbam O Zdrowie",
                "addr:street": "Główna",
                "addr:housenumber": "17B",
                "addr:city": "Janikowo",
                "addr:postcode": "88-160",
                "amenity": "pharmacy"
            },
            "geometry": {
                "type": "Point",
                "coordinates": [
                    18.107665840695706,
                    52.75288962295232
                ]
            }
        },
        {
            "type": "Feature",
            "properties": {
                "ref:csioz": 1101627,
                "name": "Centrum Zdrowia",
                "addr:street": "Rybacka",
                "addr:housenumber": "11",
                "addr:city": "Kruszwica",
                "addr:postcode": "88-150",
                "amenity": "pharmacy"
            },
            "geometry": {
                "type": "Point",
                "coordinates": [
                    18.322866290854677,
                    52.67606363982983
                ]
            }
        },
        {
            "type": "Feature",
            "properties": {
                "ref:csioz": 1101870,
                "name": "Mątewska",
                "addr:street": "Kamienna",
                "addr:housenumber": "8",
                "addr:city": "Inowrocław",
                "addr:postcode": "88-100",
                "amenity": "pharmacy"
            },
            "geometry": {
                "type": "Point",
                "coordinates": [
                    18.25502504144149,
                    52.760053434319566
                ]
            }
        },
        {
            "type": "Feature",
            "properties": {
                "ref:csioz": 1101881,
                "name": "Apteka Vitafarm",
                "addr:street": "Niepodległości",
                "addr:housenumber": "4",
                "addr:city": "Kruszwica",
                "addr:postcode": "88-150",
                "amenity": "pharmacy"
            },
            "geometry": {
                "type": "Point",
                "coordinates": [
                    18.321325435219787,
                    52.67508843619329
                ]
            }
        },
        {
            "type": "Feature",
            "properties": {
                "ref:csioz": 1102124,
                "name": "Dr.Max",
                "addr:street": "Poznańska",
                "addr:housenumber": "100",
                "addr:city": "Inowrocław",
                "addr:postcode": "88-100",
                "amenity": "pharmacy"
            },
            "geometry": {
                "type": "Point",
                "coordinates": [
                    18.259401638474174,
                    52.78053176156771
                ]
            }
        },
        {
            "type": "Feature",
            "properties": {
                "ref:csioz": 1102162,
                "name": "Św. Łukasza",
                "addr:housenumber": "90",
                "addr:postcode": "88-121",
                "amenity": "pharmacy",
                "addr:place": "Chełmce"
            },
            "geometry": {
                "type": "Point",
                "coordinates": [
                    18.441151998112918,
                    52.612272899299676
                ]
            }
        },
        {
            "type": "Feature",
            "properties": {
                "ref:csioz": 1173190,
                "name": "Centrum Uzdrowiskowe Energetyk Spółka Z Ograniczoną Odpowiedzialnością",
                "addr:street": "Zygmunta Wilkońskiego",
                "addr:housenumber": "2",
                "addr:city": "Inowrocław",
                "addr:postcode": "88-100",
                "amenity": "pharmacy"
            },
            "geometry": {
                "type": "Point",
                "coordinates": [
                    18.24421579081328,
                    52.793936749571216
                ]
            }
        },
        {
            "type": "Feature",
            "properties": {
                "ref:csioz": 1188613,
                "name": "Prima",
                "addr:street": "Zamkowa",
                "addr:housenumber": "3",
                "addr:city": "Kruszwica",
                "addr:postcode": "88-150",
                "amenity": "pharmacy"
            },
            "geometry": {
                "type": "Point",
                "coordinates": [
                    18.32376878238956,
                    52.67332451625171
                ]
            }
        },
        {
            "type": "Feature",
            "properties": {
                "ref:csioz": 1224313,
                "name": "Dr. Max",
                "addr:street": "Emilii Plater",
                "addr:housenumber": "10",
                "addr:city": "Inowrocław",
                "addr:postcode": "88-100",
                "amenity": "pharmacy"
            },
            "geometry": {
                "type": "Point",
                "coordinates": [
                    18.245405281169827,
                    52.77587580365109
                ]
            }
        },
        {
            "type": "Feature",
            "properties": {
                "ref:csioz": 1225692,
                "name": "Apteka Melisa",
                "addr:street": "Jankowska",
                "addr:housenumber": "6B",
                "addr:city": "Pakość",
                "addr:postcode": "88-170",
                "amenity": "pharmacy"
            },
            "geometry": {
                "type": "Point",
                "coordinates": [
                    18.08355093687927,
                    52.79975028233164
                ]
            }
        },
        {
            "type": "Feature",
            "properties": {
                "ref:csioz": 1098977,
                "name": "Apteka Dbam O Zdrowie",
                "addr:street": "Królowej Jadwigi",
                "addr:housenumber": "38",
                "addr:city": "Inowrocław",
                "addr:postcode": "88-100",
                "amenity": "pharmacy"
            },
            "geometry": {
                "type": "Point",
                "coordinates": [
                    18.2571804738444,
                    52.797841721323614
                ]
            }
        },
        {
            "type": "Feature",
            "properties": {
                "ref:csioz": 1098989,
                "name": "Apteka Dbam O Zdrowie",
                "addr:street": "Jacewska",
                "addr:housenumber": "25",
                "addr:city": "Inowrocław",
                "addr:postcode": "88-100",
                "amenity": "pharmacy"
            },
            "geometry": {
                "type": "Point",
                "coordinates": [
                    18.268450062189007,
                    52.7990711373294
                ]
            }
        },
        {
            "type": "Feature",
            "properties": {
                "ref:csioz": 1099408,
                "name": "Nad Gopłem",
                "addr:street": "Rynek",
                "addr:housenumber": "18",
                "addr:city": "Kruszwica",
                "addr:postcode": "88-150",
                "amenity": "pharmacy"
            },
            "geometry": {
                "type": "Point",
                "coordinates": [
                    18.321239878310568,
                    52.673341324880546
                ]
            }
        },
        {
            "type": "Feature",
            "properties": {
                "ref:csioz": 1099692,
                "name": "Pogodna",
                "addr:street": "Wojska Polskiego",
                "addr:housenumber": "17A",
                "addr:city": "Inowrocław",
                "addr:postcode": "88-100",
                "amenity": "pharmacy"
            },
            "geometry": {
                "type": "Point",
                "coordinates": [
                    18.244658171092095,
                    52.7828972660156
                ]
            }
        },
        {
            "type": "Feature",
            "properties": {
                "ref:csioz": 1099710,
                "addr:street": "Ignacego Paderewskiego",
                "addr:housenumber": "8",
                "addr:city": "Inowrocław",
                "addr:postcode": "88-100",
                "amenity": "pharmacy"
            },
            "geometry": {
                "type": "Point",
                "coordinates": [
                    18.260085089327543,
                    52.79406284772528
                ]
            }
        },
        {
            "type": "Feature",
            "properties": {
                "ref:csioz": 1099778,
                "name": "Osiedlowa",
                "addr:street": "Niepodległości",
                "addr:housenumber": "70a/1",
                "addr:city": "Inowrocław",
                "addr:postcode": "88-100",
                "amenity": "pharmacy"
            },
            "geometry": {
                "type": "Point",
                "coordinates": [
                    18.25409766853235,
                    52.76717118742785
                ]
            }
        },
        {
            "type": "Feature",
            "properties": {
                "ref:csioz": 1099911,
                "name": "W Przychodni",
                "addr:street": "Rybacka",
                "addr:housenumber": "20",
                "addr:city": "Kruszwica",
                "addr:postcode": "88-150",
                "amenity": "pharmacy"
            },
            "geometry": {
                "type": "Point",
                "coordinates": [
                    18.323264549414112,
                    52.67603710946723
                ]
            }
        },
        {
            "type": "Feature",
            "properties": {
                "ref:csioz": 1099940,
                "name": "Św. Jana",
                "addr:street": "św. Jana",
                "addr:housenumber": "21",
                "addr:city": "Pakość",
                "addr:postcode": "88-170",
                "amenity": "pharmacy"
            },
            "geometry": {
                "type": "Point",
                "coordinates": [
                    18.08838697769203,
                    52.80345991665622
                ]
            }
        },
        {
            "type": "Feature",
            "properties": {
                "ref:csioz": 1100099,
                "name": "Przy Toruńskiej",
                "addr:street": "Toruńska",
                "addr:housenumber": "60",
                "addr:city": "Inowrocław",
                "addr:postcode": "88-100",
                "amenity": "pharmacy"
            },
            "geometry": {
                "type": "Point",
                "coordinates": [
                    18.266752881479892,
                    52.80107649451209
                ]
            }
        },
        {
            "type": "Feature",
            "properties": {
                "ref:csioz": 1100134,
                "name": "Eskulap",
                "addr:street": "Magazynowa",
                "addr:housenumber": "23",
                "addr:city": "Inowrocław",
                "addr:postcode": "88-100",
                "amenity": "pharmacy"
            },
            "geometry": {
                "type": "Point",
                "coordinates": [
                    18.244953330765426,
                    52.80415130793695
                ]
            }
        },
        {
            "type": "Feature",
            "properties": {
                "ref:csioz": 1100169,
                "name": "Dr.Max",
                "addr:street": "św. Jana",
                "addr:housenumber": "19",
                "addr:city": "Pakość",
                "addr:postcode": "88-170",
                "amenity": "pharmacy"
            },
            "geometry": {
                "type": "Point",
                "coordinates": [
                    18.088503173384193,
                    52.803736166653614
                ]
            }
        },
        {
            "type": "Feature",
            "properties": {
                "ref:csioz": 1100479,
                "name": "Alba",
                "addr:street": "Dworcowa",
                "addr:housenumber": "33",
                "addr:city": "Inowrocław",
                "addr:postcode": "88-100",
                "amenity": "pharmacy"
            },
            "geometry": {
                "type": "Point",
                "coordinates": [
                    18.252302017717525,
                    52.80054294075653
                ]
            }
        },
        {
            "type": "Feature",
            "properties": {
                "ref:csioz": 1100877,
                "name": "Vita",
                "addr:street": "Długa",
                "addr:housenumber": "105",
                "addr:city": "Dąbrowa Biskupia",
                "addr:postcode": "88-133",
                "amenity": "pharmacy"
            },
            "geometry": {
                "type": "Point",
                "coordinates": [
                    18.537655101448536,
                    52.778016705457595
                ]
            }
        },
        {
            "type": "Feature",
            "properties": {
                "ref:csioz": 1100992,
                "name": "Apteka Z Uśmiechem",
                "addr:street": "bp. Antoniego Laubitza",
                "addr:housenumber": "3",
                "addr:city": "Inowrocław",
                "addr:postcode": "88-100",
                "amenity": "pharmacy"
            },
            "geometry": {
                "type": "Point",
                "coordinates": [
                    18.257150713454152,
                    52.800381525657535
                ]
            }
        },
        {
            "type": "Feature",
            "properties": {
                "ref:csioz": 1101060,
                "name": "Pod Orłem",
                "addr:street": "Bolesława Krzywoustego",
                "addr:housenumber": "23",
                "addr:city": "Inowrocław",
                "addr:postcode": "88-100",
                "amenity": "pharmacy"
            },
            "geometry": {
                "type": "Point",
                "coordinates": [
                    18.278159273540428,
                    52.793589866826046
                ]
            }
        },
        {
            "type": "Feature",
            "properties": {
                "ref:csioz": 1101396,
                "name": "Apteka Dbam O Zdrowie",
                "addr:street": "Szarych Szeregów",
                "addr:housenumber": "18",
                "addr:city": "Inowrocław",
                "addr:postcode": "88-100",
                "amenity": "pharmacy"
            },
            "geometry": {
                "type": "Point",
                "coordinates": [
                    18.243175798055802,
                    52.78056093504846
                ]
            }
        },
        {
            "type": "Feature",
            "properties": {
                "ref:csioz": 1101445,
                "name": "Rodzinna",
                "addr:street": "Dmowskiego",
                "addr:housenumber": "8",
                "addr:city": "Inowrocław",
                "addr:postcode": "88-100",
                "amenity": "pharmacy"
            },
            "geometry": {
                "type": "Point",
                "coordinates": [
                    18.2511915293013,
                    52.7714951533253
                ]
            }
        },
        {
            "type": "Feature",
            "properties": {
                "ref:csioz": 1114731,
                "name": "Centrum Medyczne Sir Med Spółka Z Ograniczoną Odpowiedzialnością",
                "addr:street": "Staropoznańska",
                "addr:housenumber": "131-133",
                "addr:city": "Inowrocław",
                "addr:postcode": "88-100",
                "amenity": "pharmacy"
            },
            "geometry": {
                "type": "Point",
                "coordinates": [
                    18.25409676438273,
                    52.75423681159058
                ]
            }
        },
        {
            "type": "Feature",
            "properties": {
                "ref:csioz": 1121137,
                "name": "Apteka Królewska",
                "addr:street": "Stanisława Staszica",
                "addr:housenumber": "19",
                "addr:city": "Inowrocław",
                "addr:postcode": "88-100",
                "amenity": "pharmacy"
            },
            "geometry": {
                "type": "Point",
                "coordinates": [
                    18.256578390145116,
                    52.7951445632895
                ]
            }
        },
        {
            "type": "Feature",
            "properties": {
                "ref:csioz": 1170973,
                "name": "Szpital Wielospecjalistyczny Im. Dr. Ludwika Błażka W Inowrocławiu",
                "addr:street": "Poznańska",
                "addr:housenumber": "97",
                "addr:city": "Inowrocław",
                "addr:postcode": "88-100",
                "amenity": "pharmacy"
            },
            "geometry": {
                "type": "Point",
                "coordinates": [
                    18.262942063872117,
                    52.78084971546705
                ]
            }
        },
        {
            "type": "Feature",
            "properties": {
                "ref:csioz": 1175169,
                "name": "\"'Benefactor - Galeria Solna' \"",
                "addr:street": "Wojska Polskiego",
                "addr:housenumber": "16",
                "addr:city": "Inowrocław",
                "addr:postcode": "88-100",
                "amenity": "pharmacy"
            },
            "geometry": {
                "type": "Point",
                "coordinates": [
                    18.24104647499572,
                    52.783933149449325
                ]
            }
        },
        {
            "type": "Feature",
            "properties": {
                "ref:csioz": 1178257,
                "name": "Euro-Apteka",
                "addr:street": "bp. Antoniego Laubitza",
                "addr:housenumber": "8",
                "addr:city": "Inowrocław",
                "addr:postcode": "88-100",
                "amenity": "pharmacy"
            },
            "geometry": {
                "type": "Point",
                "coordinates": [
                    18.258165120517965,
                    52.79936118066552
                ]
            }
        },
        {
            "type": "Feature",
            "properties": {
                "ref:csioz": 1179834,
                "name": "Ziko Apteka",
                "addr:street": "Andrzeja",
                "addr:housenumber": "19",
                "addr:city": "Inowrocław",
                "addr:postcode": "88-100",
                "amenity": "pharmacy"
            },
            "geometry": {
                "type": "Point",
                "coordinates": [
                    18.26558650364721,
                    52.79433981894486
                ]
            }
        },
        {
            "type": "Feature",
            "properties": {
                "ref:csioz": 1183326,
                "name": "Wracam Do Zdrowia",
                "addr:street": "Prezydenta Gabriela Narutowicza",
                "addr:housenumber": "62",
                "addr:city": "Inowrocław",
                "addr:postcode": "88-100",
                "amenity": "pharmacy"
            },
            "geometry": {
                "type": "Point",
                "coordinates": [
                    18.247332945336122,
                    52.79797130253936
                ]
            }
        },
        {
            "type": "Feature",
            "properties": {
                "ref:csioz": 1187507,
                "name": "Apteka Żyj-Zdrowo.Com",
                "addr:street": "Poznańska",
                "addr:housenumber": "97",
                "addr:city": "Inowrocław",
                "addr:postcode": "88-100",
                "amenity": "pharmacy"
            },
            "geometry": {
                "type": "Point",
                "coordinates": [
                    18.262942063872117,
                    52.78084971546705
                ]
            }
        },
        {
            "type": "Feature",
            "properties": {
                "ref:csioz": 1211868,
                "name": "Apteka Przyjazna Im. Mgr Farm. Z.Furche",
                "addr:street": "gen. Franciszka Kleeberga",
                "addr:housenumber": "1",
                "addr:city": "Inowrocław",
                "addr:postcode": "88-100",
                "amenity": "pharmacy"
            },
            "geometry": {
                "type": "Point",
                "coordinates": [
                    18.250616823348302,
                    52.78676735953875
                ]
            }
        },
        {
            "type": "Feature",
            "properties": {
                "ref:csioz": 1215352,
                "name": "Apteka Gemini",
                "addr:street": "Wojska Polskiego",
                "addr:housenumber": "2",
                "addr:city": "Inowrocław",
                "addr:postcode": "88-100",
                "amenity": "pharmacy"
            },
            "geometry": {
                "type": "Point",
                "coordinates": [
                    18.251667999999704,
                    52.78636600001672
                ]
            }
        },
        {
            "type": "Feature",
            "properties": {
                "ref:csioz": 1221214,
                "name": "Apteka Gemini",
                "addr:street": "Królowej Jadwigi",
                "addr:housenumber": "20",
                "addr:city": "Inowrocław",
                "addr:postcode": "88-100",
                "amenity": "pharmacy"
            },
            "geometry": {
                "type": "Point",
                "coordinates": [
                    18.258298773510976,
                    52.79641072757342
                ]
            }
        },
        {
            "type": "Feature",
            "properties": {
                "ref:csioz": 1225239,
                "name": "Punkt Apteczny Parchanie",
                "addr:housenumber": "11",
                "addr:postcode": "88-110",
                "amenity": "pharmacy",
                "addr:place": "Parchanie"
            },
            "geometry": {
                "type": "Point",
                "coordinates": [
                    18.399114906597745,
                    52.803141478373156
                ]
            }
        },
        {
            "type": "Feature",
            "properties": {
                "ref:csioz": 1173144,
                "name": "Solanki Uzdrowisko Inowrocław Spółka Z Ograniczoną Odpowiedzialnością",
                "addr:street": "Solankowa",
                "addr:housenumber": "77",
                "addr:city": "Inowrocław",
                "addr:postcode": "88-100",
                "amenity": "pharmacy"
            },
            "geometry": {
                "type": "Point",
                "coordinates": [
                    18.24141244723281,
                    52.7945077507938
                ]
            }
        },
        {
            "type": "Feature",
            "properties": {
                "ref:csioz": 1196006,
                "name": "U Magistrów",
                "addr:street": "Przemysłowa",
                "addr:housenumber": "14",
                "addr:city": "Janikowo",
                "addr:postcode": "88-160",
                "amenity": "pharmacy"
            },
            "geometry": {
                "type": "Point",
                "coordinates": [
                    18.11368671473407,
                    52.75402055354314
                ]
            }
        },
        {
            "type": "Feature",
            "properties": {
                "ref:csioz": 1229648,
                "addr:housenumber": "17A",
                "addr:postcode": "88-140",
                "amenity": "pharmacy",
                "addr:place": "Szadłowice"
            },
            "geometry": {
                "type": "Point",
                "coordinates": [
                    18.3346522297091,
                    52.845557990172765
                ]
            }
        },
        {
            "type": "Feature",
            "properties": {
                "ref:csioz": 1099419,
                "name": "Pod Orłem",
                "addr:street": "Króla Jana III Sobieskiego",
                "addr:housenumber": "15",
                "addr:city": "Gniewkowo",
                "addr:postcode": "88-140",
                "amenity": "pharmacy"
            },
            "geometry": {
                "type": "Point",
                "coordinates": [
                    18.410541533795342,
                    52.89485293433232
                ]
            }
        },
        {
            "type": "Feature",
            "properties": {
                "ref:csioz": 1099481,
                "addr:housenumber": "97",
                "addr:postcode": "88-111",
                "amenity": "pharmacy",
                "addr:place": "Rojewo"
            },
            "geometry": {
                "type": "Point",
                "coordinates": [
                    18.27292438059991,
                    52.900742163562256
                ]
            }
        },
        {
            "type": "Feature",
            "properties": {
                "ref:csioz": 1100295,
                "name": "Waleriana",
                "addr:street": "Dworcowa",
                "addr:housenumber": "1",
                "addr:city": "Gniewkowo",
                "addr:postcode": "88-140",
                "amenity": "pharmacy"
            },
            "geometry": {
                "type": "Point",
                "coordinates": [
                    18.408349408696797,
                    52.89410597888702
                ]
            }
        },
        {
            "type": "Feature",
            "properties": {
                "ref:csioz": 1101616,
                "name": "Centrum Zdrowia",
                "addr:street": "Rynek",
                "addr:housenumber": "3",
                "addr:city": "Gniewkowo",
                "addr:postcode": "88-140",
                "amenity": "pharmacy"
            },
            "geometry": {
                "type": "Point",
                "coordinates": [
                    18.406346228506816,
                    52.89488452740015
                ]
            }
        },
        {
            "type": "Feature",
            "properties": {
                "ref:csioz": 1101257,
                "name": "Złotnicka",
                "addr:street": "Podgórna",
                "addr:housenumber": "4A",
                "addr:city": "Złotniki Kujawskie",
                "addr:postcode": "88-180",
                "amenity": "pharmacy"
            },
            "geometry": {
                "type": "Point",
                "coordinates": [
                    18.147235264012274,
                    52.90016015285363
                ]
            }
        },
        {
            "type": "Feature",
            "properties": {
                "ref:csioz": 1227646,
                "name": "Panaceum",
                "addr:street": "Dworcowa",
                "addr:housenumber": "8",
                "addr:city": "Jaksice",
                "addr:postcode": "88-181",
                "amenity": "pharmacy"
            },
            "geometry": {
                "type": "Point",
                "coordinates": [
                    18.19605917522814,
                    52.85437013111438
                ]
            }
        }
    ]
}