{
    "type": "FeatureCollection",
    "name": "JPT_KOD_JE_2609",
    "features": [
        {
            "type": "Feature",
            "properties": {
                "ref:csioz": 1001048,
                "addr:street": "11 Listopada",
                "addr:housenumber": "32a",
                "addr:city": "Koprzywnica",
                "addr:postcode": "27-660",
                "amenity": "pharmacy",
                "dispensing": "yes"
            },
            "geometry": {
                "type": "Point",
                "coordinates": [
                    21.581430000017516,
                    50.59343799998499
                ]
            }
        },
        {
            "type": "Feature",
            "properties": {
                "ref:csioz": 1001209,
                "addr:street": "Starowiejska",
                "addr:housenumber": "8",
                "addr:city": "Dwikozy",
                "addr:postcode": "27-620",
                "amenity": "pharmacy",
                "dispensing": "yes"
            },
            "geometry": {
                "type": "Point",
                "coordinates": [
                    21.788147742569294,
                    50.735530546124906
                ]
            }
        },
        {
            "type": "Feature",
            "properties": {
                "ref:csioz": 1001393,
                "addr:street": "Krakowska",
                "addr:housenumber": "17A",
                "addr:city": "Klimontów",
                "addr:postcode": "27-640",
                "amenity": "pharmacy",
                "dispensing": "yes"
            },
            "geometry": {
                "type": "Point",
                "coordinates": [
                    21.447305540977368,
                    50.657238159209854
                ]
            }
        },
        {
            "type": "Feature",
            "properties": {
                "ref:csioz": 1001422,
                "addr:street": "dr. Aleksandra Dobkiewicza",
                "addr:housenumber": "12",
                "addr:city": "Sandomierz",
                "addr:postcode": "27-600",
                "amenity": "pharmacy",
                "dispensing": "yes"
            },
            "geometry": {
                "type": "Point",
                "coordinates": [
                    21.751808858633687,
                    50.69629425096455
                ]
            }
        },
        {
            "type": "Feature",
            "properties": {
                "ref:csioz": 1001454,
                "name": "\"Apteka Cef@Rm 36,6\"",
                "addr:street": "Rynek",
                "addr:housenumber": "4",
                "addr:city": "Sandomierz",
                "addr:postcode": "27-600",
                "amenity": "pharmacy",
                "dispensing": "yes"
            },
            "geometry": {
                "type": "Point",
                "coordinates": [
                    21.74881241228711,
                    50.67904672236846
                ]
            }
        },
        {
            "type": "Feature",
            "properties": {
                "ref:csioz": 1001465,
                "name": "\"Apteka Cef@Rm 36,6\"",
                "addr:street": "Armii Krajowej",
                "addr:housenumber": "2",
                "addr:city": "Sandomierz",
                "addr:postcode": "27-600",
                "amenity": "pharmacy",
                "dispensing": "yes"
            },
            "geometry": {
                "type": "Point",
                "coordinates": [
                    21.733064643682106,
                    50.683411023593834
                ]
            }
        },
        {
            "type": "Feature",
            "properties": {
                "ref:csioz": 1002616,
                "name": "Apteka Słoneczna",
                "addr:street": "Ignacego Maciejowskiego",
                "addr:housenumber": "17",
                "addr:city": "Sandomierz",
                "addr:postcode": "27-600",
                "amenity": "pharmacy",
                "dispensing": "yes"
            },
            "geometry": {
                "type": "Point",
                "coordinates": [
                    21.729180029650696,
                    50.684747097964596
                ]
            }
        },
        {
            "type": "Feature",
            "properties": {
                "ref:csioz": 1003485,
                "name": "Apteka Nova",
                "addr:street": "Adama Mickiewicza",
                "addr:housenumber": "32",
                "addr:city": "Sandomierz",
                "addr:postcode": "27-600",
                "amenity": "pharmacy",
                "dispensing": "yes"
            },
            "geometry": {
                "type": "Point",
                "coordinates": [
                    21.741433883784346,
                    50.685794532767545
                ]
            }
        },
        {
            "type": "Feature",
            "properties": {
                "ref:csioz": 1003727,
                "name": "Apteka Miętowa",
                "addr:street": "Adama Mickiewicza",
                "addr:housenumber": "44C",
                "addr:city": "Sandomierz",
                "addr:postcode": "27-600",
                "amenity": "pharmacy",
                "dispensing": "yes"
            },
            "geometry": {
                "type": "Point",
                "coordinates": [
                    21.731987581494902,
                    50.688173129100285
                ]
            }
        },
        {
            "type": "Feature",
            "properties": {
                "ref:csioz": 1004029,
                "name": "Arnika",
                "addr:street": "Szkolna",
                "addr:housenumber": "10",
                "addr:city": "Koprzywnica",
                "addr:postcode": "27-660",
                "amenity": "pharmacy",
                "dispensing": "yes"
            },
            "geometry": {
                "type": "Point",
                "coordinates": [
                    21.576720473774195,
                    50.589834067511674
                ]
            }
        },
        {
            "type": "Feature",
            "properties": {
                "ref:csioz": 1004740,
                "addr:housenumber": "30A",
                "addr:postcode": "27-612",
                "amenity": "pharmacy",
                "addr:place": "Wilczyce",
                "dispensing": "yes"
            },
            "geometry": {
                "type": "Point",
                "coordinates": [
                    21.653389134309556,
                    50.7468512247787
                ]
            }
        },
        {
            "type": "Feature",
            "properties": {
                "ref:csioz": 1004857,
                "name": "Zdrowie",
                "addr:housenumber": "7",
                "addr:postcode": "27-640",
                "amenity": "pharmacy",
                "addr:place": "Goźlice",
                "dispensing": "yes"
            },
            "geometry": {
                "type": "Point",
                "coordinates": [
                    21.473350769444917,
                    50.699367109779125
                ]
            }
        },
        {
            "type": "Feature",
            "properties": {
                "ref:csioz": 1004926,
                "name": "Punkt Apteczny Miętowy",
                "addr:housenumber": "144",
                "addr:postcode": "27-641",
                "amenity": "pharmacy",
                "addr:place": "Kleczanów",
                "dispensing": "yes"
            },
            "geometry": {
                "type": "Point",
                "coordinates": [
                    21.570061694202053,
                    50.717223536976874
                ]
            }
        },
        {
            "type": "Feature",
            "properties": {
                "ref:csioz": 1114843,
                "name": "Rodzinny",
                "addr:housenumber": "78",
                "addr:postcode": "27-670",
                "amenity": "pharmacy",
                "addr:place": "Sulisławice",
                "dispensing": "yes"
            },
            "geometry": {
                "type": "Point",
                "coordinates": [
                    21.472899737679302,
                    50.583346993179646
                ]
            }
        },
        {
            "type": "Feature",
            "properties": {
                "ref:csioz": 1184357,
                "name": "Apteka Słoneczna",
                "addr:street": "Por. Tadeusza Króla",
                "addr:housenumber": "1",
                "addr:city": "Sandomierz",
                "addr:postcode": "27-600",
                "amenity": "pharmacy",
                "dispensing": "yes"
            },
            "geometry": {
                "type": "Point",
                "coordinates": [
                    21.7631857325424,
                    50.68829669399776
                ]
            }
        },
        {
            "type": "Feature",
            "properties": {
                "ref:csioz": 1198611,
                "name": "\"Nzoz 'Medyk\"\"\"",
                "addr:street": "Szkolna",
                "addr:housenumber": "12",
                "addr:city": "Koprzywnica",
                "addr:postcode": "27-660",
                "amenity": "pharmacy",
                "dispensing": "yes"
            },
            "geometry": {
                "type": "Point",
                "coordinates": [
                    21.57700914753871,
                    50.58967210912741
                ]
            }
        },
        {
            "type": "Feature",
            "properties": {
                "ref:csioz": 1203590,
                "name": "Apteka Nova",
                "addr:street": "Portowa",
                "addr:housenumber": "30",
                "addr:city": "Sandomierz",
                "addr:postcode": "27-600",
                "amenity": "pharmacy",
                "dispensing": "yes"
            },
            "geometry": {
                "type": "Point",
                "coordinates": [
                    21.752543668172013,
                    50.66270192535045
                ]
            }
        },
        {
            "type": "Feature",
            "properties": {
                "ref:csioz": 1207358,
                "name": "Arnika",
                "addr:housenumber": "43",
                "addr:postcode": "27-650",
                "amenity": "pharmacy",
                "addr:place": "Samborzec",
                "dispensing": "yes"
            },
            "geometry": {
                "type": "Point",
                "coordinates": [
                    21.64587951574941,
                    50.64461368175746
                ]
            }
        },
        {
            "type": "Feature",
            "properties": {
                "ref:csioz": 1001175,
                "name": "\"Apteka Cef@Rm 36,6\"",
                "addr:street": "Sandomierska",
                "addr:housenumber": "63",
                "addr:city": "Klimontów",
                "addr:postcode": "27-640",
                "amenity": "pharmacy",
                "dispensing": "yes"
            },
            "geometry": {
                "type": "Point",
                "coordinates": [
                    21.460789226150386,
                    50.65488051797975
                ]
            }
        },
        {
            "type": "Feature",
            "properties": {
                "ref:csioz": 1001364,
                "addr:street": "dr. Zygmunta Schinzla",
                "addr:housenumber": "24",
                "addr:city": "Sandomierz",
                "addr:postcode": "27-600",
                "amenity": "pharmacy",
                "dispensing": "yes"
            },
            "geometry": {
                "type": "Point",
                "coordinates": [
                    21.75020873039868,
                    50.69781859763086
                ]
            }
        },
        {
            "type": "Feature",
            "properties": {
                "ref:csioz": 1002951,
                "addr:housenumber": "71",
                "addr:postcode": "27-650",
                "amenity": "pharmacy",
                "addr:place": "Samborzec",
                "dispensing": "yes"
            },
            "geometry": {
                "type": "Point",
                "coordinates": [
                    21.645155408291856,
                    50.64450107506096
                ]
            }
        },
        {
            "type": "Feature",
            "properties": {
                "ref:csioz": 1003333,
                "name": "Arnika",
                "addr:street": "Adama Mickiewicza",
                "addr:housenumber": "51A",
                "addr:city": "Sandomierz",
                "addr:postcode": "27-600",
                "amenity": "pharmacy",
                "dispensing": "yes"
            },
            "geometry": {
                "type": "Point",
                "coordinates": [
                    21.7300961389555,
                    50.688256548489
                ]
            }
        },
        {
            "type": "Feature",
            "properties": {
                "ref:csioz": 1003750,
                "name": "Apteka Rodzinna",
                "addr:street": "Sandomierska",
                "addr:housenumber": "76A",
                "addr:city": "Klimontów",
                "addr:postcode": "27-640",
                "amenity": "pharmacy",
                "dispensing": "yes"
            },
            "geometry": {
                "type": "Point",
                "coordinates": [
                    21.460556348532116,
                    50.654424672403415
                ]
            }
        },
        {
            "type": "Feature",
            "properties": {
                "ref:csioz": 1138015,
                "name": "Apteka Szpitalna",
                "addr:street": "dr. Zygmunta Schinzla",
                "addr:housenumber": "13",
                "addr:city": "Sandomierz",
                "addr:postcode": "27-600",
                "amenity": "pharmacy",
                "dispensing": "yes"
            },
            "geometry": {
                "type": "Point",
                "coordinates": [
                    21.75103851966075,
                    50.698216048333364
                ]
            }
        },
        {
            "type": "Feature",
            "properties": {
                "ref:csioz": 1180737,
                "name": "Apteka Wilczyce Jacek Kwiecień",
                "addr:housenumber": "173",
                "addr:postcode": "27-612",
                "amenity": "pharmacy",
                "addr:place": "Wilczyce",
                "dispensing": "yes"
            },
            "geometry": {
                "type": "Point",
                "coordinates": [
                    21.657242888659376,
                    50.745062554455984
                ]
            }
        },
        {
            "type": "Feature",
            "properties": {
                "ref:csioz": 1180768,
                "name": "Apteka Nova",
                "addr:street": "Adama Mickiewicza",
                "addr:housenumber": "11",
                "addr:city": "Sandomierz",
                "addr:postcode": "27-600",
                "amenity": "pharmacy",
                "dispensing": "yes"
            },
            "geometry": {
                "type": "Point",
                "coordinates": [
                    21.741426170818425,
                    50.684957926959534
                ]
            }
        },
        {
            "type": "Feature",
            "properties": {
                "ref:csioz": 1182267,
                "name": "Słoneczna",
                "addr:street": "Rynek Duży",
                "addr:housenumber": "5",
                "addr:city": "Zawichost",
                "addr:postcode": "27-630",
                "amenity": "pharmacy",
                "dispensing": "yes"
            },
            "geometry": {
                "type": "Point",
                "coordinates": [
                    21.852224241208496,
                    50.80699146688225
                ]
            }
        },
        {
            "type": "Feature",
            "properties": {
                "ref:csioz": 1185727,
                "name": "Apteka W Centrum",
                "addr:street": "Juliusza Słowackiego",
                "addr:housenumber": "18",
                "addr:city": "Sandomierz",
                "addr:postcode": "27-600",
                "amenity": "pharmacy",
                "dispensing": "yes"
            },
            "geometry": {
                "type": "Point",
                "coordinates": [
                    21.73667812135137,
                    50.68545818831446
                ]
            }
        },
        {
            "type": "Feature",
            "properties": {
                "ref:csioz": 1196749,
                "addr:street": "Błonie",
                "addr:housenumber": "2",
                "addr:city": "Sandomierz",
                "addr:postcode": "27-600",
                "amenity": "pharmacy",
                "dispensing": "yes"
            },
            "geometry": {
                "type": "Point",
                "coordinates": [
                    21.764716764445993,
                    50.68770979282828
                ]
            }
        },
        {
            "type": "Feature",
            "properties": {
                "ref:csioz": 1212849,
                "name": "Apteka Sandomierska",
                "addr:street": "Eugeniusza Kwiatkowskiego",
                "addr:housenumber": "63 A",
                "addr:city": "Sandomierz",
                "addr:postcode": "27-600",
                "amenity": "pharmacy",
                "dispensing": "yes"
            },
            "geometry": {
                "type": "Point",
                "coordinates": [
                    21.736036277944574,
                    50.697749455312824
                ]
            }
        },
        {
            "type": "Feature",
            "properties": {
                "ref:csioz": 1212911,
                "name": "Arnika",
                "addr:housenumber": "50",
                "addr:postcode": "27-670",
                "amenity": "pharmacy",
                "addr:place": "Łoniów",
                "dispensing": "yes"
            },
            "geometry": {
                "type": "Point",
                "coordinates": [
                    21.52265221778042,
                    50.564135824178905
                ]
            }
        },
        {
            "type": "Feature",
            "properties": {
                "ref:csioz": 1213073,
                "name": "Apteka Nova",
                "addr:street": "Stefana Żeromskiego",
                "addr:housenumber": "16",
                "addr:city": "Zawichost",
                "addr:postcode": "27-630",
                "amenity": "pharmacy",
                "dispensing": "yes"
            },
            "geometry": {
                "type": "Point",
                "coordinates": [
                    21.856198182784777,
                    50.80712935843322
                ]
            }
        },
        {
            "type": "Feature",
            "properties": {
                "ref:csioz": 1215259,
                "name": "Apteka Rodzinna",
                "addr:street": "Osiecka",
                "addr:housenumber": "10",
                "addr:city": "Klimontów",
                "addr:postcode": "27-640",
                "amenity": "pharmacy",
                "dispensing": "yes"
            },
            "geometry": {
                "type": "Point",
                "coordinates": [
                    21.45053007755675,
                    50.65578574943964
                ]
            }
        },
        {
            "type": "Feature",
            "properties": {
                "ref:csioz": 1215467,
                "name": "Doz Apteka Dbam O Zdrowie",
                "addr:street": "Armii Krajowej",
                "addr:housenumber": "10",
                "addr:city": "Sandomierz",
                "addr:postcode": "27-600",
                "amenity": "pharmacy",
                "dispensing": "yes"
            },
            "geometry": {
                "type": "Point",
                "coordinates": [
                    21.732186884766808,
                    50.68580655258644
                ]
            }
        },
        {
            "type": "Feature",
            "properties": {
                "ref:csioz": 1217455,
                "name": "Rokitek",
                "addr:street": "Rokitek",
                "addr:housenumber": "41a",
                "addr:city": "Sandomierz",
                "addr:postcode": "27-600",
                "amenity": "pharmacy",
                "dispensing": "yes"
            },
            "geometry": {
                "type": "Point",
                "coordinates": [
                    21.72931027174881,
                    50.68012167823922
                ]
            }
        },
        {
            "type": "Feature",
            "properties": {
                "ref:csioz": 1221831,
                "name": "Punkt Apteczny Rodzinny",
                "addr:housenumber": "29",
                "addr:postcode": "27-670",
                "amenity": "pharmacy",
                "addr:place": "Świniary Stare",
                "dispensing": "yes"
            },
            "geometry": {
                "type": "Point",
                "coordinates": [
                    21.53393151731137,
                    50.54299435636303
                ]
            }
        },
        {
            "type": "Feature",
            "properties": {
                "ref:csioz": 1222005,
                "name": "Apteka Nova",
                "addr:housenumber": "50A",
                "addr:postcode": "27-650",
                "amenity": "pharmacy",
                "addr:place": "Samborzec",
                "dispensing": "yes"
            },
            "geometry": {
                "type": "Point",
                "coordinates": [
                    21.643880634897332,
                    50.64318396945491
                ]
            }
        },
        {
            "type": "Feature",
            "properties": {
                "ref:csioz": 1230684,
                "addr:housenumber": "124A",
                "addr:postcode": "27-630",
                "amenity": "pharmacy",
                "addr:place": "Czyżów Szlachecki",
                "dispensing": "yes"
            },
            "geometry": {
                "type": "Point",
                "coordinates": [
                    21.78470084869375,
                    50.82538410068781
                ]
            }
        },
        {
            "type": "Feature",
            "properties": {
                "ref:csioz": 1004291,
                "name": "\"Apteka \"\"Zielona\"\"\"",
                "addr:street": "Spółdzielcza",
                "addr:housenumber": "7",
                "addr:city": "Dwikozy",
                "addr:postcode": "27-620",
                "amenity": "pharmacy",
                "dispensing": "yes"
            },
            "geometry": {
                "type": "Point",
                "coordinates": [
                    21.789077787105576,
                    50.73755034916809
                ]
            }
        }
    ]
}