{
    "type": "FeatureCollection",
    "name": "JPT_KOD_JE_3205",
    "features": [
        {
            "type": "Feature",
            "properties": {
                "ref:csioz": 1126270,
                "addr:street": "Wincentego Witosa",
                "addr:housenumber": "11",
                "addr:city": "Trzebiatów",
                "addr:postcode": "72-320",
                "amenity": "pharmacy"
            },
            "geometry": {
                "type": "Point",
                "coordinates": [
                    15.264505811070187,
                    54.062073168136386
                ]
            }
        },
        {
            "type": "Feature",
            "properties": {
                "ref:csioz": 1126311,
                "name": "Centrum Zdrowia",
                "addr:street": "Niepodległości",
                "addr:housenumber": "65",
                "addr:city": "Gryfice",
                "addr:postcode": "72-300",
                "amenity": "pharmacy"
            },
            "geometry": {
                "type": "Point",
                "coordinates": [
                    15.197506157409927,
                    53.913422530465596
                ]
            }
        },
        {
            "type": "Feature",
            "properties": {
                "ref:csioz": 1152443,
                "addr:street": "Mazowiecka",
                "addr:housenumber": "2",
                "addr:city": "Niechorze",
                "addr:postcode": "72-350",
                "amenity": "pharmacy"
            },
            "geometry": {
                "type": "Point",
                "coordinates": [
                    15.078588440876981,
                    54.095363334416625
                ]
            }
        },
        {
            "type": "Feature",
            "properties": {
                "ref:csioz": 1152504,
                "addr:street": "Grunwaldzka",
                "addr:housenumber": "75",
                "addr:city": "Pobierowo",
                "addr:postcode": "72-346",
                "amenity": "pharmacy"
            },
            "geometry": {
                "type": "Point",
                "coordinates": [
                    14.930926830022019,
                    54.05981419341664
                ]
            }
        },
        {
            "type": "Feature",
            "properties": {
                "ref:csioz": 1164314,
                "name": "Apteka Puls",
                "addr:street": "Nowa",
                "addr:housenumber": "8",
                "addr:city": "Trzebiatów",
                "addr:postcode": "72-320",
                "amenity": "pharmacy"
            },
            "geometry": {
                "type": "Point",
                "coordinates": [
                    15.274440571897955,
                    54.06450688211024
                ]
            }
        },
        {
            "type": "Feature",
            "properties": {
                "ref:csioz": 1164950,
                "name": "Apteka Rodzinna",
                "addr:street": "Grunwaldzka",
                "addr:housenumber": "1c",
                "addr:city": "Płoty",
                "addr:postcode": "72-310",
                "amenity": "pharmacy"
            },
            "geometry": {
                "type": "Point",
                "coordinates": [
                    15.265967410520757,
                    53.80616285531381
                ]
            }
        },
        {
            "type": "Feature",
            "properties": {
                "ref:csioz": 1169280,
                "name": "Vita - Lek",
                "addr:street": "Szkolna",
                "addr:housenumber": "4",
                "addr:city": "Cerkwica",
                "addr:postcode": "72-300",
                "amenity": "pharmacy"
            },
            "geometry": {
                "type": "Point",
                "coordinates": [
                    15.108083197726636,
                    54.00734905920246
                ]
            }
        },
        {
            "type": "Feature",
            "properties": {
                "ref:csioz": 1168986,
                "name": "Słoneczna",
                "addr:street": "Mickiewicza",
                "addr:housenumber": "25",
                "addr:city": "Rewal",
                "addr:postcode": "72-344",
                "amenity": "pharmacy"
            },
            "geometry": {
                "type": "Point",
                "coordinates": [
                    15.021487067997345,
                    54.08367574683947
                ]
            }
        },
        {
            "type": "Feature",
            "properties": {
                "ref:csioz": 1168993,
                "name": "Zdrojowa",
                "addr:street": "11 Listopada",
                "addr:housenumber": "1",
                "addr:city": "Gryfice",
                "addr:postcode": "72-300",
                "amenity": "pharmacy"
            },
            "geometry": {
                "type": "Point",
                "coordinates": [
                    15.193805798427642,
                    53.91155145517483
                ]
            }
        },
        {
            "type": "Feature",
            "properties": {
                "ref:csioz": 1187263,
                "name": "Apteka Puls",
                "addr:street": "Jana Dąbskiego",
                "addr:housenumber": "5A",
                "addr:city": "Gryfice",
                "addr:postcode": "72-300",
                "amenity": "pharmacy"
            },
            "geometry": {
                "type": "Point",
                "coordinates": [
                    15.206290618963155,
                    53.91668478137369
                ]
            }
        },
        {
            "type": "Feature",
            "properties": {
                "ref:csioz": 1207790,
                "name": "\"Doz Apteka,. Dbam O Zdrowie. Na Grunwaldzkiej \"",
                "addr:street": "Grunwaldzka",
                "addr:housenumber": "52",
                "addr:flats": "B",
                "addr:city": "Pobierowo",
                "addr:postcode": "72-346",
                "amenity": "pharmacy"
            },
            "geometry": {
                "type": "Point",
                "coordinates": [
                    14.946008578739058,
                    54.05120292005204
                ]
            }
        },
        {
            "type": "Feature",
            "properties": {
                "ref:csioz": 1137769,
                "name": "Auxilium",
                "addr:street": "ks. Stanisława Ruta",
                "addr:housenumber": "10",
                "addr:city": "Gryfice",
                "addr:postcode": "72-300",
                "amenity": "pharmacy"
            },
            "geometry": {
                "type": "Point",
                "coordinates": [
                    15.193210440703915,
                    53.915857853641945
                ]
            }
        },
        {
            "type": "Feature",
            "properties": {
                "ref:csioz": 1138969,
                "addr:street": "Niechorska",
                "addr:housenumber": "27",
                "addr:city": "Gryfice",
                "addr:postcode": "72-300",
                "amenity": "pharmacy"
            },
            "geometry": {
                "type": "Point",
                "coordinates": [
                    15.174423495803985,
                    53.92430159999884
                ]
            }
        },
        {
            "type": "Feature",
            "properties": {
                "ref:csioz": 1151564,
                "name": "\"Apteka Cef@Rm 36,6\"",
                "addr:street": "Nadrzeczna",
                "addr:housenumber": "3",
                "addr:city": "Gryfice",
                "addr:postcode": "72-300",
                "amenity": "pharmacy"
            },
            "geometry": {
                "type": "Point",
                "coordinates": [
                    15.198989424721482,
                    53.91662008123465
                ]
            }
        },
        {
            "type": "Feature",
            "properties": {
                "ref:csioz": 1151656,
                "name": "\"Apteka Cef@Rm 36,6\"",
                "addr:street": "Wojska Polskiego",
                "addr:housenumber": "60",
                "addr:city": "Trzebiatów",
                "addr:postcode": "72-320",
                "amenity": "pharmacy"
            },
            "geometry": {
                "type": "Point",
                "coordinates": [
                    15.26794793156403,
                    54.062891793151
                ]
            }
        },
        {
            "type": "Feature",
            "properties": {
                "ref:csioz": 1151748,
                "name": "Arnika",
                "addr:street": "Wałowa",
                "addr:housenumber": "2",
                "addr:city": "Gryfice",
                "addr:postcode": "72-300",
                "amenity": "pharmacy"
            },
            "geometry": {
                "type": "Point",
                "coordinates": [
                    15.197643634315003,
                    53.91645892300733
                ]
            }
        },
        {
            "type": "Feature",
            "properties": {
                "ref:csioz": 1151845,
                "name": "Apteka Rodzinna",
                "addr:street": "Jedności Narodowej",
                "addr:housenumber": "19",
                "addr:flats": "b",
                "addr:city": "Płoty",
                "addr:postcode": "72-300",
                "amenity": "pharmacy"
            },
            "geometry": {
                "type": "Point",
                "coordinates": [
                    15.266433999987909,
                    53.80461299976055
                ]
            }
        },
        {
            "type": "Feature",
            "properties": {
                "ref:csioz": 1168049,
                "name": "Mediq Apteka Bio Vita",
                "addr:street": "Rynek",
                "addr:housenumber": "32",
                "addr:city": "Trzebiatów",
                "addr:postcode": "73-320",
                "amenity": "pharmacy"
            },
            "geometry": {
                "type": "Point",
                "coordinates": [
                    15.26666669915421,
                    54.06219130278632
                ]
            }
        },
        {
            "type": "Feature",
            "properties": {
                "ref:csioz": 1168171,
                "name": "Apteka Staromiejska",
                "addr:street": "Rynek",
                "addr:housenumber": "5",
                "addr:city": "Trzebiatów",
                "addr:postcode": "72-320",
                "amenity": "pharmacy"
            },
            "geometry": {
                "type": "Point",
                "coordinates": [
                    15.26650271349082,
                    54.0626536006112
                ]
            }
        },
        {
            "type": "Feature",
            "properties": {
                "ref:csioz": 1169103,
                "addr:street": "Tysiąclecia",
                "addr:housenumber": "3H",
                "addr:city": "Mrzeżyno",
                "addr:postcode": "72-330",
                "amenity": "pharmacy"
            },
            "geometry": {
                "type": "Point",
                "coordinates": [
                    15.292577396710788,
                    54.14444317154098
                ]
            }
        },
        {
            "type": "Feature",
            "properties": {
                "ref:csioz": 1169295,
                "name": "Malwa",
                "addr:street": "Długa",
                "addr:housenumber": "19",
                "addr:city": "Brojce",
                "addr:postcode": "72-304",
                "amenity": "pharmacy"
            },
            "geometry": {
                "type": "Point",
                "coordinates": [
                    15.347720478914411,
                    53.957841507863094
                ]
            }
        }
    ]
}