{
    "type": "FeatureCollection",
    "name": "JPT_KOD_JE_2204",
    "features": [
        {
            "type": "Feature",
            "properties": {
                "ref:csioz": 1032488,
                "name": "Tęczowa",
                "addr:street": "Współczesna",
                "addr:housenumber": "1",
                "addr:city": "Borkowo",
                "addr:postcode": "80-180",
                "amenity": "pharmacy"
            },
            "geometry": {
                "type": "Point",
                "coordinates": [
                    18.578483866119313,
                    54.30150548726298
                ]
            }
        },
        {
            "type": "Feature",
            "properties": {
                "ref:csioz": 1220372,
                "name": "Dr. Max",
                "addr:street": "Staropolska",
                "addr:housenumber": "32 A",
                "addr:city": "Kowale",
                "addr:postcode": "80-180",
                "amenity": "pharmacy"
            },
            "geometry": {
                "type": "Point",
                "coordinates": [
                    18.566812645583653,
                    54.311210918070834
                ]
            }
        },
        {
            "type": "Feature",
            "properties": {
                "ref:csioz": 1028889,
                "addr:street": "Obrońców Wybrzeża",
                "addr:housenumber": "9",
                "addr:city": "Pruszcz Gdański",
                "addr:postcode": "83-000",
                "amenity": "pharmacy"
            },
            "geometry": {
                "type": "Point",
                "coordinates": [
                    18.628270996284968,
                    54.25862307101624
                ]
            }
        },
        {
            "type": "Feature",
            "properties": {
                "ref:csioz": 1029577,
                "name": "Panaceum",
                "addr:street": "Aleja ks. Józefa Waląga",
                "addr:housenumber": "3",
                "addr:city": "Pruszcz Gdański",
                "addr:postcode": "83-000",
                "amenity": "pharmacy"
            },
            "geometry": {
                "type": "Point",
                "coordinates": [
                    18.63831061220615,
                    54.26119792617171
                ]
            }
        },
        {
            "type": "Feature",
            "properties": {
                "ref:csioz": 1029638,
                "name": "Apteka Nad Radunią",
                "addr:street": "Kaszubski",
                "addr:housenumber": "7B",
                "addr:city": "Kolbudy",
                "addr:postcode": "83-050",
                "amenity": "pharmacy"
            },
            "geometry": {
                "type": "Point",
                "coordinates": [
                    18.4673282244196,
                    54.27224555290249
                ]
            }
        },
        {
            "type": "Feature",
            "properties": {
                "ref:csioz": 1032434,
                "addr:street": "Cisowa",
                "addr:housenumber": "4",
                "addr:city": "Przywidz",
                "addr:postcode": "83-047",
                "amenity": "pharmacy"
            },
            "geometry": {
                "type": "Point",
                "coordinates": [
                    18.318761136419475,
                    54.19385824973816
                ]
            }
        },
        {
            "type": "Feature",
            "properties": {
                "ref:csioz": 1032718,
                "name": "Apteka Centrum",
                "addr:street": "Gdańska",
                "addr:housenumber": "27J",
                "addr:city": "Trąbki Wielkie",
                "addr:postcode": "83-034",
                "amenity": "pharmacy"
            },
            "geometry": {
                "type": "Point",
                "coordinates": [
                    18.53417358291966,
                    54.17288453074416
                ]
            }
        },
        {
            "type": "Feature",
            "properties": {
                "ref:csioz": 1033114,
                "name": "Anafarm",
                "addr:street": "Henryka Sienkiewicza",
                "addr:housenumber": "7",
                "addr:city": "Pruszcz Gdański",
                "addr:postcode": "83-000",
                "amenity": "pharmacy"
            },
            "geometry": {
                "type": "Point",
                "coordinates": [
                    18.658535790274993,
                    54.26438549770142
                ]
            }
        },
        {
            "type": "Feature",
            "properties": {
                "ref:csioz": 1171010,
                "name": "Centralna",
                "addr:street": "Wojska Polskiego",
                "addr:housenumber": "11",
                "addr:city": "Pruszcz Gdański",
                "addr:postcode": "83-000",
                "amenity": "pharmacy"
            },
            "geometry": {
                "type": "Point",
                "coordinates": [
                    18.632999541472024,
                    54.25554012238847
                ]
            }
        },
        {
            "type": "Feature",
            "properties": {
                "ref:csioz": 1178881,
                "name": "Na Zdrowie",
                "addr:street": "Dworcowa",
                "addr:housenumber": "3",
                "addr:city": "Sobowidz",
                "addr:postcode": "83-033",
                "amenity": "pharmacy"
            },
            "geometry": {
                "type": "Point",
                "coordinates": [
                    18.60413246608066,
                    54.14339843721754
                ]
            }
        },
        {
            "type": "Feature",
            "properties": {
                "ref:csioz": 1178897,
                "name": "Słoneczny",
                "addr:street": "Krótka",
                "addr:housenumber": "2",
                "addr:city": "Mierzeszyn",
                "addr:postcode": "83-041",
                "amenity": "pharmacy"
            },
            "geometry": {
                "type": "Point",
                "coordinates": [
                    18.420534843901503,
                    54.19648728905478
                ]
            }
        },
        {
            "type": "Feature",
            "properties": {
                "ref:csioz": 1184348,
                "name": "Apteka Społeczna Na Wojska Polskiego Grupa Nowa Farmacja",
                "addr:street": "Wojska Polskiego",
                "addr:housenumber": "18",
                "addr:city": "Pruszcz Gdański",
                "addr:postcode": "83-000",
                "amenity": "pharmacy"
            },
            "geometry": {
                "type": "Point",
                "coordinates": [
                    18.63359306742544,
                    54.259798266401674
                ]
            }
        },
        {
            "type": "Feature",
            "properties": {
                "ref:csioz": 1206242,
                "name": "Apteka Bursztynowa",
                "addr:street": "Stefana Rogozińskiego",
                "addr:housenumber": "6",
                "addr:city": "Pruszcz Gdański",
                "addr:postcode": "83-000",
                "amenity": "pharmacy"
            },
            "geometry": {
                "type": "Point",
                "coordinates": [
                    18.625481173129113,
                    54.270438761435166
                ]
            }
        },
        {
            "type": "Feature",
            "properties": {
                "ref:csioz": 1218820,
                "name": "Apteka Przyjazna Doz - Dbam O Zdrowie",
                "addr:street": "Antoniego Dobrowolskiego",
                "addr:housenumber": "8",
                "addr:city": "Pruszcz Gdański",
                "addr:postcode": "83-000",
                "amenity": "pharmacy"
            },
            "geometry": {
                "type": "Point",
                "coordinates": [
                    18.63099180589843,
                    54.26577975561221
                ]
            }
        },
        {
            "type": "Feature",
            "properties": {
                "ref:csioz": 1027583,
                "name": "Apteka Dbam O Zdrowie",
                "addr:street": "Pomorska",
                "addr:housenumber": "27",
                "addr:city": "Pszczółki",
                "addr:postcode": "83-032",
                "amenity": "pharmacy"
            },
            "geometry": {
                "type": "Point",
                "coordinates": [
                    18.699411046801476,
                    54.17281071717584
                ]
            }
        },
        {
            "type": "Feature",
            "properties": {
                "ref:csioz": 1029293,
                "name": "Magnolia",
                "addr:street": "Józefa Konrada Korzeniowskiego",
                "addr:housenumber": "66",
                "addr:city": "Pruszcz Gdański",
                "addr:postcode": "83-000",
                "amenity": "pharmacy"
            },
            "geometry": {
                "type": "Point",
                "coordinates": [
                    18.673237514319755,
                    54.25991573696806
                ]
            }
        },
        {
            "type": "Feature",
            "properties": {
                "ref:csioz": 1030533,
                "name": "Rodzinna",
                "addr:street": "Wojska Polskiego",
                "addr:housenumber": "14",
                "addr:city": "Pruszcz Gdański",
                "addr:postcode": "83-000",
                "amenity": "pharmacy"
            },
            "geometry": {
                "type": "Point",
                "coordinates": [
                    18.63393875321762,
                    54.2610653306708
                ]
            }
        },
        {
            "type": "Feature",
            "properties": {
                "ref:csioz": 1030702,
                "name": "Apteka Rodzinna",
                "addr:street": "Przedszkolna",
                "addr:housenumber": "34",
                "addr:city": "Kolbudy",
                "addr:postcode": "83-050",
                "amenity": "pharmacy"
            },
            "geometry": {
                "type": "Point",
                "coordinates": [
                    18.474973266999537,
                    54.273575478029734
                ]
            }
        },
        {
            "type": "Feature",
            "properties": {
                "ref:csioz": 1030972,
                "name": "Gdańska",
                "addr:street": "Pomorska",
                "addr:housenumber": "1",
                "addr:city": "Pszczółki",
                "addr:postcode": "83-032",
                "amenity": "pharmacy"
            },
            "geometry": {
                "type": "Point",
                "coordinates": [
                    18.69352558707932,
                    54.17313952201824
                ]
            }
        },
        {
            "type": "Feature",
            "properties": {
                "ref:csioz": 1031259,
                "name": "Apteka Medica",
                "addr:street": "Fryderyka Chopina",
                "addr:housenumber": "36",
                "addr:city": "Pruszcz Gdański",
                "addr:postcode": "83-000",
                "amenity": "pharmacy"
            },
            "geometry": {
                "type": "Point",
                "coordinates": [
                    18.649414140979683,
                    54.26031589197491
                ]
            }
        },
        {
            "type": "Feature",
            "properties": {
                "ref:csioz": 1031284,
                "name": "Apteka Gemini",
                "addr:street": "Aleja ks. Józefa Waląga",
                "addr:housenumber": "4",
                "addr:city": "Pruszcz Gdański",
                "addr:postcode": "83-000",
                "amenity": "pharmacy"
            },
            "geometry": {
                "type": "Point",
                "coordinates": [
                    18.638019999999834,
                    54.26136400001921
                ]
            }
        },
        {
            "type": "Feature",
            "properties": {
                "ref:csioz": 1031610,
                "name": "Apteka Pod Lampionami",
                "addr:street": "Powstańców Warszawy",
                "addr:housenumber": "21",
                "addr:city": "Pruszcz Gdański",
                "addr:postcode": "83-000",
                "amenity": "pharmacy"
            },
            "geometry": {
                "type": "Point",
                "coordinates": [
                    18.650962697922324,
                    54.25746407503285
                ]
            }
        },
        {
            "type": "Feature",
            "properties": {
                "ref:csioz": 1032092,
                "addr:street": "Sportowa",
                "addr:housenumber": "1B",
                "addr:city": "Pszczółki",
                "addr:postcode": "83-032",
                "amenity": "pharmacy"
            },
            "geometry": {
                "type": "Point",
                "coordinates": [
                    18.690252263566,
                    54.17308542450778
                ]
            }
        },
        {
            "type": "Feature",
            "properties": {
                "ref:csioz": 1112564,
                "name": "Apteka Rodzinna Ii Sp. J.",
                "addr:street": "Leśna",
                "addr:housenumber": "2",
                "addr:city": "Kolbudy",
                "addr:postcode": "83-050",
                "amenity": "pharmacy"
            },
            "geometry": {
                "type": "Point",
                "coordinates": [
                    18.468588249147057,
                    54.26964969255574
                ]
            }
        },
        {
            "type": "Feature",
            "properties": {
                "ref:csioz": 1122451,
                "name": "Żuławska",
                "addr:street": "M. Płażyńskiego",
                "addr:housenumber": "20",
                "addr:city": "Cedry Wielkie",
                "addr:postcode": "83-020",
                "amenity": "pharmacy"
            },
            "geometry": {
                "type": "Point",
                "coordinates": [
                    18.846294074225188,
                    54.244161224541386
                ]
            }
        },
        {
            "type": "Feature",
            "properties": {
                "ref:csioz": 1184056,
                "name": "Multipharm",
                "addr:street": "Jana Kasprowicza",
                "addr:housenumber": "52",
                "addr:city": "Pruszcz Gdański",
                "addr:postcode": "83-000",
                "amenity": "pharmacy"
            },
            "geometry": {
                "type": "Point",
                "coordinates": [
                    18.664338804516,
                    54.26461908548823
                ]
            }
        },
        {
            "type": "Feature",
            "properties": {
                "ref:csioz": 1205296,
                "name": "Wracam Do Zdrowia",
                "addr:street": "Długa",
                "addr:housenumber": "101A",
                "addr:city": "Cieplewo",
                "addr:postcode": "83-031",
                "amenity": "pharmacy"
            },
            "geometry": {
                "type": "Point",
                "coordinates": [
                    18.634926674304968,
                    54.23156299368527
                ]
            }
        },
        {
            "type": "Feature",
            "properties": {
                "ref:csioz": 1211635,
                "name": "Anafarm",
                "addr:street": "Bajki",
                "addr:housenumber": "6",
                "addr:city": "Rotmanka",
                "addr:postcode": "83-010",
                "amenity": "pharmacy"
            },
            "geometry": {
                "type": "Point",
                "coordinates": [
                    18.612190029532744,
                    54.27270956675203
                ]
            }
        },
        {
            "type": "Feature",
            "properties": {
                "ref:csioz": 1214956,
                "name": "Familijna",
                "addr:street": "Henryka Sienkiewicza",
                "addr:housenumber": "13",
                "addr:city": "Pruszcz Gdański",
                "addr:postcode": "83-000",
                "amenity": "pharmacy"
            },
            "geometry": {
                "type": "Point",
                "coordinates": [
                    18.658832953512988,
                    54.265450421591744
                ]
            }
        },
        {
            "type": "Feature",
            "properties": {
                "ref:csioz": 1217826,
                "name": "Apteka Rodzinna",
                "addr:street": "Komandora Kazimierza Kraszewskiego",
                "addr:housenumber": "1",
                "addr:city": "Straszyn",
                "addr:postcode": "83-010",
                "amenity": "pharmacy"
            },
            "geometry": {
                "type": "Point",
                "coordinates": [
                    18.585449850160803,
                    54.275466371145235
                ]
            }
        },
        {
            "type": "Feature",
            "properties": {
                "ref:csioz": 1225353,
                "name": "Punkt Apteczny Medical",
                "addr:street": "Gdańska",
                "addr:housenumber": "32",
                "addr:city": "Suchy Dąb",
                "addr:postcode": "83-022",
                "amenity": "pharmacy"
            },
            "geometry": {
                "type": "Point",
                "coordinates": [
                    18.768208446225565,
                    54.20582675120102
                ]
            }
        },
        {
            "type": "Feature",
            "properties": {
                "ref:csioz": 1230271,
                "name": "Dział Farmacji Szpitalnej W Zakładzie Leczniczym: Medical Medycyna Zakład Opiekuńczo-Leczniczy W Pszczółkach",
                "addr:street": "Sportowa",
                "addr:housenumber": "1C",
                "addr:city": "Pszczółki",
                "addr:postcode": "83-032",
                "amenity": "pharmacy"
            },
            "geometry": {
                "type": "Point",
                "coordinates": [
                    18.69060086210854,
                    54.1728958013754
                ]
            }
        }
    ]
}