{
    "type": "FeatureCollection",
    "name": "JPT_KOD_JE_1602",
    "features": [
        {
            "type": "Feature",
            "properties": {
                "ref:csioz": 1106776,
                "addr:street": "Rynek",
                "addr:housenumber": "11",
                "addr:city": "Baborów",
                "addr:postcode": "48-120",
                "amenity": "pharmacy",
                "dispensing": "yes"
            },
            "geometry": {
                "type": "Point",
                "coordinates": [
                    17.985259572365973,
                    50.15690479080532
                ]
            }
        },
        {
            "type": "Feature",
            "properties": {
                "ref:csioz": 1106768,
                "name": "\"Apteka \"\"Sanitas\"\" Mgr Farm. Jacek Hylak\"",
                "addr:street": "Wiejska",
                "addr:housenumber": "2B",
                "addr:city": "Baborów",
                "addr:postcode": "48-120",
                "amenity": "pharmacy",
                "dispensing": "yes"
            },
            "geometry": {
                "type": "Point",
                "coordinates": [
                    17.98634972053046,
                    50.15805196882567
                ]
            }
        },
        {
            "type": "Feature",
            "properties": {
                "ref:csioz": 1107562,
                "name": "Eskulap",
                "addr:street": "Wojska Polskiego",
                "addr:housenumber": "1 D",
                "addr:city": "Kietrz",
                "addr:postcode": "48-130",
                "amenity": "pharmacy",
                "dispensing": "yes"
            },
            "geometry": {
                "type": "Point",
                "coordinates": [
                    18.003165271614023,
                    50.08022671457229
                ]
            }
        },
        {
            "type": "Feature",
            "properties": {
                "ref:csioz": 1107570,
                "addr:street": "Wojska Polskiego",
                "addr:housenumber": "5-7",
                "addr:city": "Kietrz",
                "addr:postcode": "48-130",
                "amenity": "pharmacy",
                "dispensing": "yes"
            },
            "geometry": {
                "type": "Point",
                "coordinates": [
                    18.005216741697726,
                    50.080109498099205
                ]
            }
        },
        {
            "type": "Feature",
            "properties": {
                "ref:csioz": 1109955,
                "addr:street": "Młyńska",
                "addr:housenumber": "13",
                "addr:city": "Nowa Cerekwia",
                "addr:postcode": "48-133",
                "amenity": "pharmacy",
                "dispensing": "yes"
            },
            "geometry": {
                "type": "Point",
                "coordinates": [
                    17.93553012331451,
                    50.09236128021803
                ]
            }
        },
        {
            "type": "Feature",
            "properties": {
                "ref:csioz": 1116088,
                "name": "Regionalnego Ośrodka Psychiatrii Sądowej W Branicach Szpital Psychiatryczny",
                "addr:street": "Szpitalna",
                "addr:housenumber": "19",
                "addr:city": "Branice",
                "addr:postcode": "48-140",
                "amenity": "pharmacy",
                "dispensing": "yes"
            },
            "geometry": {
                "type": "Point",
                "coordinates": [
                    17.794362970156563,
                    50.055748178652784
                ]
            }
        },
        {
            "type": "Feature",
            "properties": {
                "ref:csioz": 1159178,
                "name": "Dział Farmacji Szpitalnej W Szpitalu Powiatowym W Głubczycach",
                "addr:street": "Skłodowskiej",
                "addr:housenumber": "26",
                "addr:city": "Głubczyce",
                "addr:postcode": "48-100",
                "amenity": "pharmacy",
                "dispensing": "yes"
            },
            "geometry": {
                "type": "Point",
                "coordinates": [
                    17.81254594299444,
                    50.20388966613221
                ]
            }
        },
        {
            "type": "Feature",
            "properties": {
                "ref:csioz": 1208827,
                "name": "Aqua Apteka",
                "addr:street": "Szpitalna",
                "addr:housenumber": "18",
                "addr:city": "Branice",
                "addr:postcode": "48-140",
                "amenity": "pharmacy",
                "dispensing": "yes"
            },
            "geometry": {
                "type": "Point",
                "coordinates": [
                    17.795581267817685,
                    50.05257739311869
                ]
            }
        },
        {
            "type": "Feature",
            "properties": {
                "ref:csioz": 1107006,
                "name": "Apteka M&T Schmidt",
                "addr:street": "Kochanowskiego",
                "addr:housenumber": "9",
                "addr:city": "Głubczyce",
                "addr:postcode": "48-100",
                "amenity": "pharmacy",
                "dispensing": "yes"
            },
            "geometry": {
                "type": "Point",
                "coordinates": [
                    17.82322870392325,
                    50.201139834889105
                ]
            }
        },
        {
            "type": "Feature",
            "properties": {
                "ref:csioz": 1107011,
                "addr:street": "Kościuszki",
                "addr:housenumber": "16",
                "addr:city": "Głubczyce",
                "addr:postcode": "48-100",
                "amenity": "pharmacy",
                "dispensing": "yes"
            },
            "geometry": {
                "type": "Point",
                "coordinates": [
                    17.824900290355348,
                    50.200391208845716
                ]
            }
        },
        {
            "type": "Feature",
            "properties": {
                "ref:csioz": 1107022,
                "name": "Apteka Pod Herbem",
                "addr:street": "Moniuszki",
                "addr:housenumber": "11C",
                "addr:city": "Głubczyce",
                "addr:postcode": "48-100",
                "amenity": "pharmacy",
                "dispensing": "yes"
            },
            "geometry": {
                "type": "Point",
                "coordinates": [
                    17.83126190176891,
                    50.19918304463691
                ]
            }
        },
        {
            "type": "Feature",
            "properties": {
                "ref:csioz": 1107033,
                "name": "Zdrowie",
                "addr:street": "Powstańców",
                "addr:housenumber": "11A",
                "addr:city": "Głubczyce",
                "addr:postcode": "48-100",
                "amenity": "pharmacy",
                "dispensing": "yes"
            },
            "geometry": {
                "type": "Point",
                "coordinates": [
                    17.81562429191245,
                    50.202288102103736
                ]
            }
        },
        {
            "type": "Feature",
            "properties": {
                "ref:csioz": 1107054,
                "name": "Pod Białym Lwem",
                "addr:street": "Sobieskiego",
                "addr:housenumber": "2",
                "addr:city": "Głubczyce",
                "addr:postcode": "48-100",
                "amenity": "pharmacy",
                "dispensing": "yes"
            },
            "geometry": {
                "type": "Point",
                "coordinates": [
                    17.82797417509575,
                    50.20248049616148
                ]
            }
        },
        {
            "type": "Feature",
            "properties": {
                "ref:csioz": 1119182,
                "name": "Dział Farmacji Szpitalnej Samodzielnego Wojewódzkiego Szpitala Dla Nerwowo I Psychicznie Chorych Im. Ks. Józefa Nathana W Branicach",
                "addr:street": "Szpitalna",
                "addr:housenumber": "18",
                "addr:city": "Branice",
                "addr:postcode": "48-140",
                "amenity": "pharmacy",
                "dispensing": "yes"
            },
            "geometry": {
                "type": "Point",
                "coordinates": [
                    17.795581267817685,
                    50.05257739311869
                ]
            }
        },
        {
            "type": "Feature",
            "properties": {
                "ref:csioz": 1177069,
                "name": "\"Apteka \"\"Przyjazna\"\"\"",
                "addr:street": "Sobieskiego",
                "addr:housenumber": "27",
                "addr:city": "Głubczyce",
                "addr:postcode": "48-100",
                "amenity": "pharmacy",
                "dispensing": "yes"
            },
            "geometry": {
                "type": "Point",
                "coordinates": [
                    17.823266776808172,
                    50.204729837930074
                ]
            }
        },
        {
            "type": "Feature",
            "properties": {
                "ref:csioz": 1182142,
                "name": "Apteka Kolorowa",
                "addr:street": "Kościuszki",
                "addr:housenumber": "28",
                "addr:city": "Głubczyce",
                "addr:postcode": "48-100",
                "amenity": "pharmacy",
                "dispensing": "yes"
            },
            "geometry": {
                "type": "Point",
                "coordinates": [
                    17.824940792857564,
                    50.201850923252266
                ]
            }
        },
        {
            "type": "Feature",
            "properties": {
                "ref:csioz": 1194227,
                "name": "Jaśmin Punkt Apteczny",
                "addr:housenumber": "15",
                "addr:postcode": "48-140",
                "amenity": "pharmacy",
                "addr:place": "Włodzienin",
                "dispensing": "yes"
            },
            "geometry": {
                "type": "Point",
                "coordinates": [
                    17.844567764366463,
                    50.11777705855628
                ]
            }
        },
        {
            "type": "Feature",
            "properties": {
                "ref:csioz": 1213671,
                "name": "Apteka Zdrowit",
                "addr:street": "1 Maja",
                "addr:housenumber": "9",
                "addr:city": "Głubczyce",
                "addr:postcode": "48-100",
                "amenity": "pharmacy",
                "dispensing": "yes"
            },
            "geometry": {
                "type": "Point",
                "coordinates": [
                    17.82690797662471,
                    50.20291259817261
                ]
            }
        },
        {
            "type": "Feature",
            "properties": {
                "ref:csioz": 1215570,
                "name": "Apteka M&T Schmidt",
                "addr:street": "ul. Henryka Sienkiewicza",
                "addr:housenumber": "1",
                "addr:city": "Głubczyce",
                "addr:postcode": "48-100",
                "amenity": "pharmacy",
                "dispensing": "yes"
            },
            "geometry": {
                "type": "Point",
                "coordinates": [
                    17.82811368714346,
                    50.20304829021371
                ]
            }
        },
        {
            "type": "Feature",
            "properties": {
                "ref:csioz": 1218288,
                "name": "Drofarm",
                "addr:street": "Wojska Polskiego",
                "addr:housenumber": "2",
                "addr:city": "Kietrz",
                "addr:postcode": "48-130",
                "amenity": "pharmacy",
                "dispensing": "yes"
            },
            "geometry": {
                "type": "Point",
                "coordinates": [
                    18.00367900474179,
                    50.07994076620247
                ]
            }
        }
    ]
}