{
    "type": "FeatureCollection",
    "name": "JPT_KOD_JE_3063",
    "features": [
        {
            "type": "Feature",
            "properties": {
                "ref:csioz": 1054011,
                "addr:street": "Niepodległości",
                "addr:housenumber": "31",
                "addr:city": "Leszno",
                "addr:postcode": "64-100",
                "amenity": "pharmacy",
                "dispensing": "yes"
            },
            "geometry": {
                "type": "Point",
                "coordinates": [
                    16.57868319265209,
                    51.84543517127968
                ]
            }
        },
        {
            "type": "Feature",
            "properties": {
                "ref:csioz": 1054040,
                "name": "Sanitas",
                "addr:street": "Karola Marcinkowskiego",
                "addr:housenumber": "14",
                "addr:city": "Leszno",
                "addr:postcode": "64-100",
                "amenity": "pharmacy",
                "dispensing": "yes"
            },
            "geometry": {
                "type": "Point",
                "coordinates": [
                    16.573137408303342,
                    51.84582663065079
                ]
            }
        },
        {
            "type": "Feature",
            "properties": {
                "ref:csioz": 1054079,
                "name": "Medina",
                "addr:street": "17 Stycznia",
                "addr:housenumber": "50",
                "addr:city": "Leszno",
                "addr:postcode": "64-100",
                "amenity": "pharmacy",
                "dispensing": "yes"
            },
            "geometry": {
                "type": "Point",
                "coordinates": [
                    16.58135068288248,
                    51.837137823912066
                ]
            }
        },
        {
            "type": "Feature",
            "properties": {
                "ref:csioz": 1054098,
                "name": "Rodzinna",
                "addr:street": "Nowy Rynek",
                "addr:housenumber": "38",
                "addr:city": "Leszno",
                "addr:postcode": "64-100",
                "amenity": "pharmacy",
                "dispensing": "yes"
            },
            "geometry": {
                "type": "Point",
                "coordinates": [
                    16.56996333813337,
                    51.841529018843254
                ]
            }
        },
        {
            "type": "Feature",
            "properties": {
                "ref:csioz": 1054104,
                "name": "Apteka Dbam O Zdrowie",
                "addr:street": "Rynek",
                "addr:housenumber": "16",
                "addr:city": "Leszno",
                "addr:postcode": "64-100",
                "amenity": "pharmacy",
                "dispensing": "yes"
            },
            "geometry": {
                "type": "Point",
                "coordinates": [
                    16.574609914311058,
                    51.84389876967313
                ]
            }
        },
        {
            "type": "Feature",
            "properties": {
                "ref:csioz": 1054977,
                "name": "Stylowa 2",
                "addr:street": "Grunwaldzka",
                "addr:housenumber": "129",
                "addr:city": "Leszno",
                "addr:postcode": "64-100",
                "amenity": "pharmacy",
                "dispensing": "yes"
            },
            "geometry": {
                "type": "Point",
                "coordinates": [
                    16.587172907921616,
                    51.844291260823645
                ]
            }
        },
        {
            "type": "Feature",
            "properties": {
                "ref:csioz": 1055037,
                "name": "Nasza Apteka 2",
                "addr:street": "Jana Sobieskiego",
                "addr:housenumber": "1",
                "addr:city": "Leszno",
                "addr:postcode": "64-100",
                "amenity": "pharmacy",
                "dispensing": "yes"
            },
            "geometry": {
                "type": "Point",
                "coordinates": [
                    16.585896957895834,
                    51.83613847675093
                ]
            }
        },
        {
            "type": "Feature",
            "properties": {
                "ref:csioz": 1055045,
                "name": "Arcyapteka",
                "addr:street": "Aleje Konstytucji 3 Maja",
                "addr:housenumber": "12",
                "addr:city": "Leszno",
                "addr:postcode": "64-100",
                "amenity": "pharmacy",
                "dispensing": "yes"
            },
            "geometry": {
                "type": "Point",
                "coordinates": [
                    16.599820798242654,
                    51.82696712354457
                ]
            }
        },
        {
            "type": "Feature",
            "properties": {
                "ref:csioz": 1055059,
                "name": "Stylowa 3",
                "addr:street": "Słowiańska",
                "addr:housenumber": "40",
                "addr:city": "Leszno",
                "addr:postcode": "64-100",
                "amenity": "pharmacy",
                "dispensing": "yes"
            },
            "geometry": {
                "type": "Point",
                "coordinates": [
                    16.568688835553896,
                    51.843066674879275
                ]
            }
        },
        {
            "type": "Feature",
            "properties": {
                "ref:csioz": 1124577,
                "name": "Stylowa 4",
                "addr:street": "KS. TEODORA KORCZA",
                "addr:housenumber": "5A",
                "addr:city": "LESZNO",
                "addr:postcode": "64-100",
                "amenity": "pharmacy",
                "dispensing": "yes"
            },
            "geometry": {
                "type": "Point",
                "coordinates": [
                    16.579104792030087,
                    51.83964669462227
                ]
            }
        },
        {
            "type": "Feature",
            "properties": {
                "ref:csioz": 1186018,
                "name": "Dom Leków",
                "addr:street": "Cicha",
                "addr:housenumber": "12",
                "addr:city": "Leszno",
                "addr:postcode": "64-100",
                "amenity": "pharmacy",
                "dispensing": "yes"
            },
            "geometry": {
                "type": "Point",
                "coordinates": [
                    16.576359025654526,
                    51.8491842390235
                ]
            }
        },
        {
            "type": "Feature",
            "properties": {
                "ref:csioz": 1186951,
                "name": "Dom Leków",
                "addr:street": "Święciechowska",
                "addr:housenumber": "1 A",
                "addr:city": "Leszno",
                "addr:postcode": "64-100",
                "amenity": "pharmacy",
                "dispensing": "yes"
            },
            "geometry": {
                "type": "Point",
                "coordinates": [
                    16.564072401636736,
                    51.84314508435827
                ]
            }
        },
        {
            "type": "Feature",
            "properties": {
                "ref:csioz": 1205697,
                "name": "Topfarm",
                "addr:street": "Świętego Franciszka z Asyżu",
                "addr:housenumber": "2",
                "addr:city": "Leszno",
                "addr:postcode": "64-100",
                "amenity": "pharmacy",
                "dispensing": "yes"
            },
            "geometry": {
                "type": "Point",
                "coordinates": [
                    16.561150258319746,
                    51.84478495484239
                ]
            }
        },
        {
            "type": "Feature",
            "properties": {
                "ref:csioz": 1054054,
                "name": "Nasza Apteka",
                "addr:street": "Bohaterów Westerplatte",
                "addr:housenumber": "7-9",
                "addr:city": "Leszno",
                "addr:postcode": "64-100",
                "amenity": "pharmacy",
                "dispensing": "yes"
            },
            "geometry": {
                "type": "Point",
                "coordinates": [
                    16.584282838543153,
                    51.84141660998129
                ]
            }
        },
        {
            "type": "Feature",
            "properties": {
                "ref:csioz": 1054581,
                "name": "Pod Wagą",
                "addr:street": "55. Pułku Piechoty",
                "addr:housenumber": "30",
                "addr:city": "Leszno",
                "addr:postcode": "64-100",
                "amenity": "pharmacy",
                "dispensing": "yes"
            },
            "geometry": {
                "type": "Point",
                "coordinates": [
                    16.591585248743137,
                    51.837846523997094
                ]
            }
        },
        {
            "type": "Feature",
            "properties": {
                "ref:csioz": 1054607,
                "name": "Euro-Apteka",
                "addr:street": "Jana Kiepury",
                "addr:housenumber": "45",
                "addr:city": "Leszno",
                "addr:postcode": "64-100",
                "amenity": "pharmacy",
                "dispensing": "yes"
            },
            "geometry": {
                "type": "Point",
                "coordinates": [
                    16.60778563053876,
                    51.83829161877807
                ]
            }
        },
        {
            "type": "Feature",
            "properties": {
                "ref:csioz": 1054610,
                "name": "Dr. Max",
                "addr:street": "Aleje Konstytucji 3 Maja",
                "addr:housenumber": "9",
                "addr:city": "Leszno",
                "addr:postcode": "64-100",
                "amenity": "pharmacy",
                "dispensing": "yes"
            },
            "geometry": {
                "type": "Point",
                "coordinates": [
                    16.599093509011688,
                    51.83232865643461
                ]
            }
        },
        {
            "type": "Feature",
            "properties": {
                "ref:csioz": 1054869,
                "name": "Pod Wagą-Manhattan",
                "addr:street": "Aleje Jana Pawła II",
                "addr:housenumber": "16",
                "addr:city": "Leszno",
                "addr:postcode": "64-100",
                "amenity": "pharmacy",
                "dispensing": "yes"
            },
            "geometry": {
                "type": "Point",
                "coordinates": [
                    16.590136475976156,
                    51.840919040601214
                ]
            }
        },
        {
            "type": "Feature",
            "properties": {
                "ref:csioz": 1055092,
                "name": "Dr. Max",
                "addr:street": "Poznańska",
                "addr:housenumber": "3",
                "addr:city": "Leszno",
                "addr:postcode": "64-100",
                "amenity": "pharmacy",
                "dispensing": "yes"
            },
            "geometry": {
                "type": "Point",
                "coordinates": [
                    16.573520784958,
                    51.8595934885867
                ]
            }
        },
        {
            "type": "Feature",
            "properties": {
                "ref:csioz": 1056057,
                "addr:street": "KIEPURY",
                "addr:housenumber": "45",
                "addr:city": "LESZNO",
                "addr:postcode": "64-100",
                "amenity": "pharmacy",
                "dispensing": "yes"
            },
            "geometry": {
                "type": "Point",
                "coordinates": [
                    16.60778563053876,
                    51.83829161877807
                ]
            }
        },
        {
            "type": "Feature",
            "properties": {
                "ref:csioz": 1124739,
                "addr:street": "JANA KIEPURY",
                "addr:housenumber": "12",
                "addr:city": "LESZNO",
                "addr:postcode": "64-100",
                "amenity": "pharmacy",
                "dispensing": "yes"
            },
            "geometry": {
                "type": "Point",
                "coordinates": [
                    16.60138366411453,
                    51.836720988873694
                ]
            }
        },
        {
            "type": "Feature",
            "properties": {
                "ref:csioz": 1124747,
                "addr:street": "KRÓLOWEJ JADWIGI",
                "addr:housenumber": "4",
                "addr:city": "LESZNO",
                "addr:postcode": "64-100",
                "amenity": "pharmacy",
                "dispensing": "yes"
            },
            "geometry": {
                "type": "Point",
                "coordinates": [
                    16.57842508407718,
                    51.844393566906376
                ]
            }
        },
        {
            "type": "Feature",
            "properties": {
                "ref:csioz": 1124308,
                "name": "Moderna 6",
                "addr:street": "RÓŻANA",
                "addr:housenumber": "3",
                "addr:city": "LESZNO",
                "addr:postcode": "64-100",
                "amenity": "pharmacy",
                "dispensing": "yes"
            },
            "geometry": {
                "type": "Point",
                "coordinates": [
                    16.569317628783075,
                    51.84215888809944
                ]
            }
        },
        {
            "type": "Feature",
            "properties": {
                "ref:csioz": 1124515,
                "name": "Gronowska",
                "addr:street": "Stanisława Żółkiewskiego",
                "addr:housenumber": "2",
                "addr:city": "Leszno",
                "addr:postcode": "64-100",
                "amenity": "pharmacy",
                "dispensing": "yes"
            },
            "geometry": {
                "type": "Point",
                "coordinates": [
                    16.55390599537717,
                    51.85543278452596
                ]
            }
        },
        {
            "type": "Feature",
            "properties": {
                "ref:csioz": 1124726,
                "addr:street": "Słowiańska",
                "addr:housenumber": "41",
                "addr:city": "LESZNO",
                "addr:postcode": "64-100",
                "amenity": "pharmacy",
                "dispensing": "yes"
            },
            "geometry": {
                "type": "Point",
                "coordinates": [
                    16.569631662652863,
                    51.842935247185295
                ]
            }
        },
        {
            "type": "Feature",
            "properties": {
                "ref:csioz": 1189156,
                "name": "Stylowa",
                "addr:street": "Gabriela Narutowicza",
                "addr:housenumber": "29",
                "addr:city": "Leszno",
                "addr:postcode": "64-100",
                "amenity": "pharmacy",
                "dispensing": "yes"
            },
            "geometry": {
                "type": "Point",
                "coordinates": [
                    16.574498862452792,
                    51.845097017664145
                ]
            }
        },
        {
            "type": "Feature",
            "properties": {
                "ref:csioz": 1189509,
                "name": "Centrum Zdrowia",
                "addr:street": "Racławicka",
                "addr:housenumber": "1",
                "addr:city": "Leszno",
                "addr:postcode": "64-100",
                "amenity": "pharmacy",
                "dispensing": "yes"
            },
            "geometry": {
                "type": "Point",
                "coordinates": [
                    16.579194999993433,
                    51.83570500001524
                ]
            }
        },
        {
            "type": "Feature",
            "properties": {
                "ref:csioz": 1190697,
                "name": "Moderna 9 Apteka",
                "addr:street": "Skarbowa",
                "addr:housenumber": "2A",
                "addr:city": "Leszno",
                "addr:postcode": "64-100",
                "amenity": "pharmacy",
                "dispensing": "yes"
            },
            "geometry": {
                "type": "Point",
                "coordinates": [
                    16.569776628515708,
                    51.844178163174405
                ]
            }
        },
        {
            "type": "Feature",
            "properties": {
                "ref:csioz": 1200575,
                "name": "Apteka Społeczna Na Słowiańskiej Grupa Nowa Farmacja",
                "addr:street": "Słowiańska",
                "addr:housenumber": "35",
                "addr:city": "Leszno",
                "addr:postcode": "64-100",
                "amenity": "pharmacy",
                "dispensing": "yes"
            },
            "geometry": {
                "type": "Point",
                "coordinates": [
                    16.570029906750573,
                    51.8429512352923
                ]
            }
        },
        {
            "type": "Feature",
            "properties": {
                "ref:csioz": 1204530,
                "name": "Dom Leków",
                "addr:street": "Armii Krajowej",
                "addr:housenumber": "15",
                "addr:city": "Leszno",
                "addr:postcode": "64-100",
                "amenity": "pharmacy",
                "dispensing": "yes"
            },
            "geometry": {
                "type": "Point",
                "coordinates": [
                    16.597953392145847,
                    51.84647978210918
                ]
            }
        },
        {
            "type": "Feature",
            "properties": {
                "ref:csioz": 1209732,
                "name": "Stylowa 5",
                "addr:street": "Jana  Kiepury",
                "addr:housenumber": "10",
                "addr:city": "Leszno",
                "addr:postcode": "64-100",
                "amenity": "pharmacy",
                "dispensing": "yes"
            },
            "geometry": {
                "type": "Point",
                "coordinates": [
                    16.60086201901304,
                    51.83666766959701
                ]
            }
        },
        {
            "type": "Feature",
            "properties": {
                "ref:csioz": 1218682,
                "addr:street": "1 Maja",
                "addr:housenumber": "20",
                "addr:city": "Leszno",
                "addr:postcode": "64-100",
                "amenity": "pharmacy",
                "dispensing": "yes"
            },
            "geometry": {
                "type": "Point",
                "coordinates": [
                    16.580032130540637,
                    51.82608017285006
                ]
            }
        },
        {
            "type": "Feature",
            "properties": {
                "ref:csioz": 1220111,
                "name": "Internetowa",
                "addr:street": "Leszczyńskich",
                "addr:housenumber": "43",
                "addr:city": "Leszno",
                "addr:postcode": "64-100",
                "amenity": "pharmacy",
                "dispensing": "yes"
            },
            "geometry": {
                "type": "Point",
                "coordinates": [
                    16.575027085597956,
                    51.840328272739725
                ]
            }
        },
        {
            "type": "Feature",
            "properties": {
                "ref:csioz": 1223063,
                "name": "Apteka Gemini",
                "addr:street": "Królowej Jadwigi",
                "addr:housenumber": "30",
                "addr:city": "Leszno",
                "addr:postcode": "64-100",
                "amenity": "pharmacy",
                "dispensing": "yes"
            },
            "geometry": {
                "type": "Point",
                "coordinates": [
                    16.578724692606162,
                    51.842686152942214
                ]
            }
        }
    ]
}