{
    "type": "FeatureCollection",
    "name": "JPT_KOD_JE_1219",
    "features": [
        {
            "type": "Feature",
            "properties": {
                "ref:csioz": 1076102,
                "name": "Twoja Apteka",
                "addr:housenumber": "651",
                "addr:postcode": "32-014",
                "amenity": "pharmacy",
                "addr:place": "Kłaj",
                "dispensing": "yes"
            },
            "geometry": {
                "type": "Point",
                "coordinates": [
                    20.29878017576754,
                    49.99518215366752
                ]
            }
        },
        {
            "type": "Feature",
            "properties": {
                "ref:csioz": 1202311,
                "addr:housenumber": "53",
                "addr:postcode": "32-007",
                "amenity": "pharmacy",
                "addr:place": "Zabierzów Bocheński",
                "dispensing": "yes"
            },
            "geometry": {
                "type": "Point",
                "coordinates": [
                    20.31813974197354,
                    50.06737082166305
                ]
            }
        },
        {
            "type": "Feature",
            "properties": {
                "ref:csioz": 1224567,
                "name": "Apteka Promienna",
                "addr:housenumber": "820",
                "addr:postcode": "32-015",
                "amenity": "pharmacy",
                "addr:place": "Kłaj",
                "dispensing": "yes"
            },
            "geometry": {
                "type": "Point",
                "coordinates": [
                    20.29873283217022,
                    49.99453776992519
                ]
            }
        },
        {
            "type": "Feature",
            "properties": {
                "ref:csioz": 1194918,
                "name": "Dr. Max",
                "addr:housenumber": "53",
                "addr:postcode": "32-420",
                "amenity": "pharmacy",
                "addr:place": "Gdów",
                "dispensing": "yes"
            },
            "geometry": {
                "type": "Point",
                "coordinates": [
                    20.19761089701793,
                    49.906187710807274
                ]
            }
        },
        {
            "type": "Feature",
            "properties": {
                "ref:csioz": 1114220,
                "name": "Zdrowe Ceny",
                "addr:housenumber": "336",
                "addr:postcode": "32-420",
                "amenity": "pharmacy",
                "addr:place": "Gdów",
                "dispensing": "yes"
            },
            "geometry": {
                "type": "Point",
                "coordinates": [
                    20.196835532298074,
                    49.90497640699328
                ]
            }
        },
        {
            "type": "Feature",
            "properties": {
                "ref:csioz": 1204866,
                "addr:housenumber": "294",
                "addr:postcode": "32-420",
                "amenity": "pharmacy",
                "addr:place": "Gdów",
                "dispensing": "yes"
            },
            "geometry": {
                "type": "Point",
                "coordinates": [
                    20.19850371538121,
                    49.906676690823005
                ]
            }
        },
        {
            "type": "Feature",
            "properties": {
                "ref:csioz": 1224359,
                "name": "Doz Apteka. Dbam O Zdrowie. Vita",
                "addr:housenumber": "331",
                "addr:postcode": "32-420",
                "amenity": "pharmacy",
                "addr:place": "Gdów",
                "dispensing": "yes"
            },
            "geometry": {
                "type": "Point",
                "coordinates": [
                    20.198778290421373,
                    49.906943086104626
                ]
            }
        },
        {
            "type": "Feature",
            "properties": {
                "ref:csioz": 1075320,
                "name": "Apteka „Magda”. Gorzków",
                "addr:housenumber": "242",
                "addr:postcode": "32-020",
                "amenity": "pharmacy",
                "addr:place": "Gorzków",
                "dispensing": "yes"
            },
            "geometry": {
                "type": "Point",
                "coordinates": [
                    20.028791402369666,
                    49.928715145327175
                ]
            }
        },
        {
            "type": "Feature",
            "properties": {
                "ref:csioz": 1075550,
                "name": "\"Apteka \"\"Mniszek\"\"\"",
                "addr:housenumber": "666",
                "addr:postcode": "32-020",
                "amenity": "pharmacy",
                "addr:place": "Koźmice Wielkie",
                "dispensing": "yes"
            },
            "geometry": {
                "type": "Point",
                "coordinates": [
                    20.036081734526235,
                    49.95084693283842
                ]
            }
        },
        {
            "type": "Feature",
            "properties": {
                "ref:csioz": 1115711,
                "name": "Apteka Nowa Farmacja Centrum Tanich Leków",
                "addr:street": "Tadeusza Kościuszki",
                "addr:housenumber": "36 A",
                "addr:city": "Wieliczka",
                "addr:postcode": "32-020",
                "amenity": "pharmacy",
                "dispensing": "yes"
            },
            "geometry": {
                "type": "Point",
                "coordinates": [
                    20.04134407313001,
                    49.991374156411084
                ]
            }
        },
        {
            "type": "Feature",
            "properties": {
                "ref:csioz": 1224765,
                "name": "Twoja Apteka",
                "addr:street": "Leśna",
                "addr:housenumber": "1A",
                "addr:city": "Wieliczka",
                "addr:postcode": "32-020",
                "amenity": "pharmacy",
                "dispensing": "yes"
            },
            "geometry": {
                "type": "Point",
                "coordinates": [
                    20.019038494164047,
                    49.996643189956394
                ]
            }
        },
        {
            "type": "Feature",
            "properties": {
                "ref:csioz": 1036588,
                "addr:housenumber": "140",
                "addr:postcode": "32-020",
                "amenity": "pharmacy",
                "addr:place": "Chorągwica",
                "dispensing": "yes"
            },
            "geometry": {
                "type": "Point",
                "coordinates": [
                    20.089687872064616,
                    49.95791917741366
                ]
            }
        },
        {
            "type": "Feature",
            "properties": {
                "ref:csioz": 1036168,
                "name": "Zdrowe Ceny",
                "addr:street": "Bocheńska",
                "addr:housenumber": "28A",
                "addr:city": "Niepołomice",
                "addr:postcode": "32-005",
                "amenity": "pharmacy",
                "dispensing": "yes"
            },
            "geometry": {
                "type": "Point",
                "coordinates": [
                    20.221707550462057,
                    50.029769359575674
                ]
            }
        },
        {
            "type": "Feature",
            "properties": {
                "ref:csioz": 1037032,
                "name": "Apteka Nad Solą",
                "addr:street": "Zamkowa",
                "addr:housenumber": "3",
                "addr:city": "Wieliczka",
                "addr:postcode": "32-020",
                "amenity": "pharmacy",
                "dispensing": "yes"
            },
            "geometry": {
                "type": "Point",
                "coordinates": [
                    20.05986300692989,
                    49.983037275382955
                ]
            }
        },
        {
            "type": "Feature",
            "properties": {
                "ref:csioz": 1074481,
                "addr:street": "Stanisława Moniuszki",
                "addr:housenumber": "2",
                "addr:city": "Wieliczka",
                "addr:postcode": "32-020",
                "amenity": "pharmacy",
                "dispensing": "yes"
            },
            "geometry": {
                "type": "Point",
                "coordinates": [
                    20.05950388033335,
                    49.984857014740875
                ]
            }
        },
        {
            "type": "Feature",
            "properties": {
                "ref:csioz": 1074676,
                "addr:housenumber": "121",
                "addr:postcode": "32-013",
                "amenity": "pharmacy",
                "addr:place": "Niegowić",
                "dispensing": "yes"
            },
            "geometry": {
                "type": "Point",
                "coordinates": [
                    20.237853000624554,
                    49.93444365118576
                ]
            }
        },
        {
            "type": "Feature",
            "properties": {
                "ref:csioz": 1075184,
                "name": "Apteka Pod Figurką",
                "addr:street": "Bocheńska",
                "addr:housenumber": "15",
                "addr:city": "Niepołomice",
                "addr:postcode": "32-005",
                "amenity": "pharmacy",
                "dispensing": "yes"
            },
            "geometry": {
                "type": "Point",
                "coordinates": [
                    20.22036164672887,
                    50.03091166870371
                ]
            }
        },
        {
            "type": "Feature",
            "properties": {
                "ref:csioz": 1076547,
                "addr:street": "Powstania Warszawskiego",
                "addr:housenumber": "12",
                "addr:city": "Wieliczka",
                "addr:postcode": "32-020",
                "amenity": "pharmacy",
                "dispensing": "yes"
            },
            "geometry": {
                "type": "Point",
                "coordinates": [
                    20.061337429986835,
                    49.984532598372006
                ]
            }
        },
        {
            "type": "Feature",
            "properties": {
                "ref:csioz": 1121746,
                "name": "Apteka „Lekarka”. Wieliczka",
                "addr:street": "Artura Grottgera",
                "addr:housenumber": "30",
                "addr:city": "Wieliczka",
                "addr:postcode": "32-020",
                "amenity": "pharmacy",
                "dispensing": "yes"
            },
            "geometry": {
                "type": "Point",
                "coordinates": [
                    20.072923669576888,
                    49.99353594094867
                ]
            }
        },
        {
            "type": "Feature",
            "properties": {
                "ref:csioz": 1172738,
                "name": "Nzoz Zakład Opiekuńczo-Leczniczy Archanioła Michała",
                "addr:street": "Czarnochowska",
                "addr:housenumber": "23",
                "addr:city": "Wieliczka",
                "addr:postcode": "32-020",
                "amenity": "pharmacy",
                "dispensing": "yes"
            },
            "geometry": {
                "type": "Point",
                "coordinates": [
                    20.066145179740737,
                    49.993455422842025
                ]
            }
        },
        {
            "type": "Feature",
            "properties": {
                "ref:csioz": 1217679,
                "name": "Apteka Niezapominajka Dla Całej Rodziny",
                "addr:street": "Juliusza Słowackiego",
                "addr:housenumber": "4",
                "addr:city": "Wieliczka",
                "addr:postcode": "32-020",
                "amenity": "pharmacy",
                "dispensing": "yes"
            },
            "geometry": {
                "type": "Point",
                "coordinates": [
                    20.062781650330336,
                    49.98460631980505
                ]
            }
        },
        {
            "type": "Feature",
            "properties": {
                "ref:csioz": 1034624,
                "addr:housenumber": "605",
                "addr:postcode": "32-003",
                "amenity": "pharmacy",
                "addr:place": "Podłęże",
                "dispensing": "yes"
            },
            "geometry": {
                "type": "Point",
                "coordinates": [
                    20.172565640248635,
                    50.0116008707007
                ]
            }
        },
        {
            "type": "Feature",
            "properties": {
                "ref:csioz": 1035864,
                "name": "Słoneczna",
                "addr:street": "Bolesława Szpunara",
                "addr:housenumber": "20A",
                "addr:city": "Wieliczka",
                "addr:postcode": "32-020",
                "amenity": "pharmacy",
                "dispensing": "yes"
            },
            "geometry": {
                "type": "Point",
                "coordinates": [
                    20.06450590104047,
                    49.98315535635694
                ]
            }
        },
        {
            "type": "Feature",
            "properties": {
                "ref:csioz": 1036202,
                "name": "Zdrowe Ceny",
                "addr:street": "Rynek",
                "addr:housenumber": "15",
                "addr:city": "Niepołomice",
                "addr:postcode": "32-005",
                "amenity": "pharmacy",
                "dispensing": "yes"
            },
            "geometry": {
                "type": "Point",
                "coordinates": [
                    20.21830482936173,
                    50.03264064294653
                ]
            }
        },
        {
            "type": "Feature",
            "properties": {
                "ref:csioz": 1037119,
                "name": "Panoramix",
                "addr:housenumber": "340",
                "addr:postcode": "32-020",
                "amenity": "pharmacy",
                "addr:place": "Trąbki",
                "dispensing": "yes"
            },
            "geometry": {
                "type": "Point",
                "coordinates": [
                    20.14548716807536,
                    49.95858156590089
                ]
            }
        },
        {
            "type": "Feature",
            "properties": {
                "ref:csioz": 1075056,
                "name": "Salamandra Królewska",
                "addr:street": "Grunwaldzka",
                "addr:housenumber": "9",
                "addr:city": "Niepołomice",
                "addr:postcode": "32-005",
                "amenity": "pharmacy",
                "dispensing": "yes"
            },
            "geometry": {
                "type": "Point",
                "coordinates": [
                    20.210971326430798,
                    50.03290078729299
                ]
            }
        },
        {
            "type": "Feature",
            "properties": {
                "ref:csioz": 1075070,
                "name": "Apteka Panaceum",
                "addr:street": "Adama Asnyka",
                "addr:housenumber": "6",
                "addr:city": "Wieliczka",
                "addr:postcode": "32-020",
                "amenity": "pharmacy",
                "dispensing": "yes"
            },
            "geometry": {
                "type": "Point",
                "coordinates": [
                    20.069093894939268,
                    49.982352684509124
                ]
            }
        },
        {
            "type": "Feature",
            "properties": {
                "ref:csioz": 1075795,
                "name": "\"Apteka \"\"Niebieska\"\"\"",
                "addr:street": "Stefana Batorego",
                "addr:housenumber": "5",
                "addr:city": "Niepołomice",
                "addr:postcode": "32-005",
                "amenity": "pharmacy",
                "dispensing": "yes"
            },
            "geometry": {
                "type": "Point",
                "coordinates": [
                    20.21739747276181,
                    50.038896092877735
                ]
            }
        },
        {
            "type": "Feature",
            "properties": {
                "ref:csioz": 1179693,
                "name": "Apteka Słoneczna",
                "addr:street": "Bolesława Szpunara",
                "addr:housenumber": "17",
                "addr:city": "Wieliczka",
                "addr:postcode": "32-020",
                "amenity": "pharmacy",
                "dispensing": "yes"
            },
            "geometry": {
                "type": "Point",
                "coordinates": [
                    20.064463511294605,
                    49.98271643568775
                ]
            }
        },
        {
            "type": "Feature",
            "properties": {
                "ref:csioz": 1194291,
                "name": "Apteka Krokus",
                "addr:housenumber": "519",
                "addr:postcode": "32-002",
                "amenity": "pharmacy",
                "addr:place": "Kokotów",
                "dispensing": "yes"
            },
            "geometry": {
                "type": "Point",
                "coordinates": [
                    20.08480011257892,
                    50.01214918272781
                ]
            }
        },
        {
            "type": "Feature",
            "properties": {
                "ref:csioz": 1219897,
                "name": "Apteka Zdrowie",
                "addr:housenumber": "730",
                "addr:postcode": "32-003",
                "amenity": "pharmacy",
                "addr:place": "Podłęże",
                "dispensing": "yes"
            },
            "geometry": {
                "type": "Point",
                "coordinates": [
                    20.176130183073685,
                    50.01620161886803
                ]
            }
        },
        {
            "type": "Feature",
            "properties": {
                "ref:csioz": 1226006,
                "addr:housenumber": "79",
                "addr:postcode": "32-014",
                "amenity": "pharmacy",
                "addr:place": "Brzezie",
                "dispensing": "yes"
            },
            "geometry": {
                "type": "Point",
                "coordinates": [
                    20.233285670718775,
                    49.983341169272485
                ]
            }
        },
        {
            "type": "Feature",
            "properties": {
                "ref:csioz": 1214547,
                "name": "\"Apteka \"\"Niebieska\"\" Mikołaj Front, Paulina Front, Spółka Jawna\"",
                "addr:housenumber": "580",
                "addr:postcode": "32-005",
                "amenity": "pharmacy",
                "addr:place": "Staniątki",
                "dispensing": "yes"
            },
            "geometry": {
                "type": "Point",
                "coordinates": [
                    20.194028910716423,
                    50.01112242272186
                ]
            }
        }
    ]
}