{
    "type": "FeatureCollection",
    "name": "JPT_KOD_JE_2816",
    "features": [
        {
            "type": "Feature",
            "properties": {
                "ref:csioz": 1016395,
                "addr:street": "Henryka Sienkiewicza",
                "addr:housenumber": "18",
                "addr:city": "Drygały",
                "addr:postcode": "12-230",
                "amenity": "pharmacy"
            },
            "geometry": {
                "type": "Point",
                "coordinates": [
                    22.103754334910736,
                    53.68204085819294
                ]
            }
        },
        {
            "type": "Feature",
            "properties": {
                "ref:csioz": 1041403,
                "name": "Doz Apteka. Dbam O Zdrowie. Gala",
                "addr:street": "Plac Adama Mickiewicza",
                "addr:housenumber": "18",
                "addr:flats": "10",
                "addr:city": "Biała Piska",
                "addr:postcode": "12-230",
                "amenity": "pharmacy"
            },
            "geometry": {
                "type": "Point",
                "coordinates": [
                    22.060142676211395,
                    53.60986505341052
                ]
            }
        },
        {
            "type": "Feature",
            "properties": {
                "ref:csioz": 1041416,
                "name": "Zdrowie",
                "addr:street": "Słowackiego",
                "addr:housenumber": "1",
                "addr:city": "Biała Piska",
                "addr:postcode": "12-230",
                "amenity": "pharmacy"
            },
            "geometry": {
                "type": "Point",
                "coordinates": [
                    22.062366972348947,
                    53.610331843871585
                ]
            }
        },
        {
            "type": "Feature",
            "properties": {
                "ref:csioz": 1041760,
                "addr:street": "Henryka Sienkiewicza",
                "addr:housenumber": "4",
                "addr:flats": "1",
                "addr:city": "Pisz",
                "addr:postcode": "12-200",
                "amenity": "pharmacy"
            },
            "geometry": {
                "type": "Point",
                "coordinates": [
                    21.79828190726912,
                    53.62623757278449
                ]
            }
        },
        {
            "type": "Feature",
            "properties": {
                "ref:csioz": 1214153,
                "name": "Apteka Dyżurna",
                "addr:street": "Ignacego Daszyńskiego",
                "addr:housenumber": "12",
                "addr:flats": "2",
                "addr:city": "Pisz",
                "addr:postcode": "12-200",
                "amenity": "pharmacy"
            },
            "geometry": {
                "type": "Point",
                "coordinates": [
                    21.807529587480136,
                    53.628792843896285
                ]
            }
        },
        {
            "type": "Feature",
            "properties": {
                "ref:csioz": 1041680,
                "name": "Apteka Św. Brunona",
                "addr:street": "Ogrodowa",
                "addr:housenumber": "6",
                "addr:city": "Orzysz",
                "addr:postcode": "12-250",
                "amenity": "pharmacy"
            },
            "geometry": {
                "type": "Point",
                "coordinates": [
                    21.947609517768157,
                    53.80839045517252
                ]
            }
        },
        {
            "type": "Feature",
            "properties": {
                "ref:csioz": 1041695,
                "addr:street": "Ogrodowa",
                "addr:housenumber": "1",
                "addr:city": "Orzysz",
                "addr:postcode": "12-250",
                "amenity": "pharmacy"
            },
            "geometry": {
                "type": "Point",
                "coordinates": [
                    21.94676587930778,
                    53.80867646980391
                ]
            }
        },
        {
            "type": "Feature",
            "properties": {
                "ref:csioz": 1041752,
                "addr:street": "Matejki",
                "addr:housenumber": "2D",
                "addr:city": "Pisz",
                "addr:postcode": "12-200",
                "amenity": "pharmacy"
            },
            "geometry": {
                "type": "Point",
                "coordinates": [
                    21.801381558314766,
                    53.62658739209275
                ]
            }
        },
        {
            "type": "Feature",
            "properties": {
                "ref:csioz": 1041783,
                "name": "\"Apteka Cef@Rm 36,6\"",
                "addr:street": "Wojska Polskiego",
                "addr:housenumber": "2",
                "addr:city": "Pisz",
                "addr:postcode": "12-200",
                "amenity": "pharmacy"
            },
            "geometry": {
                "type": "Point",
                "coordinates": [
                    21.808800585457067,
                    53.62910650009362
                ]
            }
        },
        {
            "type": "Feature",
            "properties": {
                "ref:csioz": 1041811,
                "name": "Doz Apteka. Dbam O Zdrowie. Apteka Kaja",
                "addr:street": "Gałczyńskiego",
                "addr:housenumber": "14A",
                "addr:city": "Ruciane-Nida",
                "addr:postcode": "12-221",
                "amenity": "pharmacy"
            },
            "geometry": {
                "type": "Point",
                "coordinates": [
                    21.534698021257597,
                    53.64091032269459
                ]
            }
        },
        {
            "type": "Feature",
            "properties": {
                "ref:csioz": 1041822,
                "name": "Doz Apteka. Dbam O Zdrowie. Apteka Medica",
                "addr:street": "Harcerska",
                "addr:housenumber": "1",
                "addr:city": "Ruciane-Nida",
                "addr:postcode": "12-221",
                "amenity": "pharmacy"
            },
            "geometry": {
                "type": "Point",
                "coordinates": [
                    21.532607430380942,
                    53.63946246526887
                ]
            }
        },
        {
            "type": "Feature",
            "properties": {
                "ref:csioz": 1138077,
                "addr:street": "dr. Władysława Klementowskiego",
                "addr:housenumber": "8",
                "addr:city": "Pisz",
                "addr:postcode": "12-200",
                "amenity": "pharmacy"
            },
            "geometry": {
                "type": "Point",
                "coordinates": [
                    21.800456975672603,
                    53.626489867576744
                ]
            }
        },
        {
            "type": "Feature",
            "properties": {
                "ref:csioz": 1204618,
                "name": "Apteka Gemini",
                "addr:street": "Rybacka",
                "addr:housenumber": "2",
                "addr:flats": "3",
                "addr:city": "Pisz",
                "addr:postcode": "12-200",
                "amenity": "pharmacy"
            },
            "geometry": {
                "type": "Point",
                "coordinates": [
                    21.807200616846764,
                    53.6280522328145
                ]
            }
        },
        {
            "type": "Feature",
            "properties": {
                "ref:csioz": 1214685,
                "name": "Apteka Św. Brunona",
                "addr:street": "Gałczyńskiego",
                "addr:housenumber": "16",
                "addr:city": "Ruciane-Nida",
                "addr:postcode": "12-220",
                "amenity": "pharmacy"
            },
            "geometry": {
                "type": "Point",
                "coordinates": [
                    21.53388095030995,
                    53.64039713735024
                ]
            }
        }
    ]
}