{
    "type": "FeatureCollection",
    "name": "JPT_KOD_JE_0207",
    "features": [
        {
            "type": "Feature",
            "properties": {
                "ref:csioz": 1130960,
                "name": "-",
                "addr:street": "Wolności",
                "addr:housenumber": "5",
                "addr:city": "Kamienna Góra",
                "addr:postcode": "58-400",
                "amenity": "pharmacy"
            },
            "geometry": {
                "type": "Point",
                "coordinates": [
                    16.033093516346383,
                    50.783584110010985
                ]
            }
        },
        {
            "type": "Feature",
            "properties": {
                "ref:csioz": 1130971,
                "name": "-",
                "addr:street": "Papieża Jana Pawła II",
                "addr:housenumber": "6",
                "addr:city": "Kamienna Góra",
                "addr:postcode": "58-400",
                "amenity": "pharmacy"
            },
            "geometry": {
                "type": "Point",
                "coordinates": [
                    16.02695595673495,
                    50.78321053446597
                ]
            }
        },
        {
            "type": "Feature",
            "properties": {
                "ref:csioz": 1131793,
                "name": "Echinacea",
                "addr:street": "Bohaterów Getta",
                "addr:housenumber": "8",
                "addr:city": "Kamienna Góra",
                "addr:postcode": "58-400",
                "amenity": "pharmacy"
            },
            "geometry": {
                "type": "Point",
                "coordinates": [
                    16.024778179918098,
                    50.785724300806095
                ]
            }
        },
        {
            "type": "Feature",
            "properties": {
                "ref:csioz": 1135397,
                "addr:street": "Główna",
                "addr:housenumber": "41",
                "addr:city": "Marciszów",
                "addr:postcode": "58-410",
                "amenity": "pharmacy"
            },
            "geometry": {
                "type": "Point",
                "coordinates": [
                    16.004945445389698,
                    50.85348516557888
                ]
            }
        },
        {
            "type": "Feature",
            "properties": {
                "ref:csioz": 1135491,
                "name": "\"Punkt Apteczny \"\"Medicum\"\"\"",
                "addr:street": "Brokoffa",
                "addr:housenumber": "8",
                "addr:city": "Krzeszów",
                "addr:postcode": "58-405",
                "amenity": "pharmacy"
            },
            "geometry": {
                "type": "Point",
                "coordinates": [
                    16.065748614035325,
                    50.733028184695954
                ]
            }
        },
        {
            "type": "Feature",
            "properties": {
                "ref:csioz": 1130952,
                "name": "\"\"\"Paprotka\"\"\"",
                "addr:street": "Grunwaldzki",
                "addr:housenumber": "2",
                "addr:city": "Kamienna Góra",
                "addr:postcode": "58-400",
                "amenity": "pharmacy"
            },
            "geometry": {
                "type": "Point",
                "coordinates": [
                    16.03089076892612,
                    50.78258435814784
                ]
            }
        },
        {
            "type": "Feature",
            "properties": {
                "ref:csioz": 1131315,
                "name": "Apteka Panaceum",
                "addr:street": "Kościelny",
                "addr:housenumber": "4",
                "addr:city": "Kamienna Góra",
                "addr:postcode": "58-400",
                "amenity": "pharmacy"
            },
            "geometry": {
                "type": "Point",
                "coordinates": [
                    16.03268242409227,
                    50.78055534514283
                ]
            }
        },
        {
            "type": "Feature",
            "properties": {
                "ref:csioz": 1131520,
                "name": "Remedium",
                "addr:street": "Władysława Broniewskiego",
                "addr:housenumber": "24",
                "addr:city": "Kamienna Góra",
                "addr:postcode": "58-400",
                "amenity": "pharmacy"
            },
            "geometry": {
                "type": "Point",
                "coordinates": [
                    16.02932106136959,
                    50.782634659128526
                ]
            }
        },
        {
            "type": "Feature",
            "properties": {
                "ref:csioz": 1137243,
                "name": "Apsik",
                "addr:housenumber": "96",
                "addr:postcode": "58-420",
                "amenity": "pharmacy",
                "addr:place": "Miszkowice"
            },
            "geometry": {
                "type": "Point",
                "coordinates": [
                    15.931023533380067,
                    50.7143277808179
                ]
            }
        },
        {
            "type": "Feature",
            "properties": {
                "ref:csioz": 1161200,
                "name": "Dolnośląskie Centrum Rehabilitacji Spółka Z Ograniczoną Odpowiedzialnością-Szpital",
                "addr:street": "Korczaka",
                "addr:housenumber": "1",
                "addr:city": "Kamienna Góra",
                "addr:postcode": "58-400",
                "amenity": "pharmacy"
            },
            "geometry": {
                "type": "Point",
                "coordinates": [
                    16.056015111831396,
                    50.77780993608541
                ]
            }
        },
        {
            "type": "Feature",
            "properties": {
                "ref:csioz": 1161213,
                "name": "Szpital Powiatowy W Kamiennej Górze",
                "addr:street": "Bohaterów Getta",
                "addr:housenumber": "10",
                "addr:city": "Kamienna Góra",
                "addr:postcode": "58-400",
                "amenity": "pharmacy"
            },
            "geometry": {
                "type": "Point",
                "coordinates": [
                    16.027028971757048,
                    50.78649438519506
                ]
            }
        },
        {
            "type": "Feature",
            "properties": {
                "ref:csioz": 1172633,
                "name": "Centrum Zdrowia",
                "addr:street": "Papieża Jana Pawła II",
                "addr:housenumber": "8",
                "addr:city": "Kamienna Góra",
                "addr:postcode": "58-400",
                "amenity": "pharmacy"
            },
            "geometry": {
                "type": "Point",
                "coordinates": [
                    16.026791485490342,
                    50.78339965458562
                ]
            }
        },
        {
            "type": "Feature",
            "properties": {
                "ref:csioz": 1201298,
                "name": "Ziko Apteka",
                "addr:street": "Papieża Jana Pawła II",
                "addr:housenumber": "10",
                "addr:city": "Kamienna Góra",
                "addr:postcode": "58-400",
                "amenity": "pharmacy"
            },
            "geometry": {
                "type": "Point",
                "coordinates": [
                    16.02664593360626,
                    50.78449113346233
                ]
            }
        },
        {
            "type": "Feature",
            "properties": {
                "ref:csioz": 1134803,
                "name": "\"Punkt Apteczny \"\"Vitafarm\"\"\"",
                "addr:street": "Lubawska",
                "addr:housenumber": "2",
                "addr:city": "Chełmsko Śląskie",
                "addr:postcode": "58-407",
                "amenity": "pharmacy"
            },
            "geometry": {
                "type": "Point",
                "coordinates": [
                    16.06821568777329,
                    50.667079285782215
                ]
            }
        },
        {
            "type": "Feature",
            "properties": {
                "ref:csioz": 1230808,
                "name": "Dr. Pharm",
                "addr:street": "Wojska Polskiego",
                "addr:housenumber": "16",
                "addr:city": "Lubawka",
                "addr:postcode": "58-420",
                "amenity": "pharmacy"
            },
            "geometry": {
                "type": "Point",
                "coordinates": [
                    16.000169600696818,
                    50.70352128443596
                ]
            }
        }
    ]
}