{
    "type": "FeatureCollection",
    "name": "JPT_KOD_JE_1414",
    "features": [
        {
            "type": "Feature",
            "properties": {
                "ref:csioz": 1090591,
                "addr:housenumber": "98",
                "addr:postcode": "05-152",
                "amenity": "pharmacy",
                "addr:place": "Sowia Wola",
                "dispensing": "yes"
            },
            "geometry": {
                "type": "Point",
                "coordinates": [
                    20.642719802361917,
                    52.361055446811754
                ]
            }
        },
        {
            "type": "Feature",
            "properties": {
                "ref:csioz": 1088041,
                "addr:street": "Warszawska",
                "addr:housenumber": "39",
                "addr:city": "Czosnów",
                "addr:postcode": "05-152",
                "amenity": "pharmacy",
                "dispensing": "yes"
            },
            "geometry": {
                "type": "Point",
                "coordinates": [
                    20.73260537624477,
                    52.39010741511509
                ]
            }
        },
        {
            "type": "Feature",
            "properties": {
                "ref:csioz": 1088064,
                "name": "\"Cef@Rm 36,6\"",
                "addr:street": "Bohaterów Modlina",
                "addr:housenumber": "28",
                "addr:city": "Nowy Dwór Mazowiecki",
                "addr:postcode": "05-100",
                "amenity": "pharmacy",
                "dispensing": "yes"
            },
            "geometry": {
                "type": "Point",
                "coordinates": [
                    20.72019581392506,
                    52.43096681461646
                ]
            }
        },
        {
            "type": "Feature",
            "properties": {
                "ref:csioz": 1088078,
                "addr:street": "Stefana Czarnieckiego",
                "addr:housenumber": "4",
                "addr:city": "Nowy Dwór Mazowiecki",
                "addr:postcode": "05-102",
                "amenity": "pharmacy",
                "dispensing": "yes"
            },
            "geometry": {
                "type": "Point",
                "coordinates": [
                    20.708277123701016,
                    52.44929240701071
                ]
            }
        },
        {
            "type": "Feature",
            "properties": {
                "ref:csioz": 1089603,
                "name": "Dbam O Zdrowie",
                "addr:street": "Spacerowa",
                "addr:housenumber": "2",
                "addr:city": "Nowy Dwór Mazowiecki",
                "addr:postcode": "05-100",
                "amenity": "pharmacy",
                "dispensing": "yes"
            },
            "geometry": {
                "type": "Point",
                "coordinates": [
                    20.722991516050463,
                    52.43192603563323
                ]
            }
        },
        {
            "type": "Feature",
            "properties": {
                "ref:csioz": 1089819,
                "name": "Apteka Od Serca",
                "addr:street": "Modlińska",
                "addr:housenumber": "18",
                "addr:city": "Brody",
                "addr:postcode": "05-180",
                "amenity": "pharmacy",
                "dispensing": "yes"
            },
            "geometry": {
                "type": "Point",
                "coordinates": [
                    20.743419000001666,
                    52.47391400001622
                ]
            }
        },
        {
            "type": "Feature",
            "properties": {
                "ref:csioz": 1090441,
                "name": "Hebeapteka",
                "addr:street": "Harcerska",
                "addr:housenumber": "2",
                "addr:city": "Nowy Dwór Mazowiecki",
                "addr:postcode": "05-100",
                "amenity": "pharmacy",
                "dispensing": "yes"
            },
            "geometry": {
                "type": "Point",
                "coordinates": [
                    20.719388904439853,
                    52.42699451570195
                ]
            }
        },
        {
            "type": "Feature",
            "properties": {
                "ref:csioz": 1116138,
                "name": "Herba",
                "addr:street": "gen. Władysława Sikorskiego",
                "addr:housenumber": "5/18",
                "addr:city": "Stare Pieścirogi",
                "addr:postcode": "05-191",
                "amenity": "pharmacy",
                "dispensing": "yes"
            },
            "geometry": {
                "type": "Point",
                "coordinates": [
                    20.775026000001773,
                    52.57892800001637
                ]
            }
        },
        {
            "type": "Feature",
            "properties": {
                "ref:csioz": 1223941,
                "addr:street": "marsz. Józefa Piłsudskiego",
                "addr:housenumber": "6",
                "addr:city": "Cieksyn",
                "addr:postcode": "05-192",
                "amenity": "pharmacy",
                "dispensing": "yes"
            },
            "geometry": {
                "type": "Point",
                "coordinates": [
                    20.667379000001432,
                    52.571524000016375
                ]
            }
        },
        {
            "type": "Feature",
            "properties": {
                "ref:csioz": 1226717,
                "name": "Młodzieżowy Ośrodek Rehabilitacyjny Warszawskiego Towarzystwa Dobroczynności",
                "addr:street": "Działkowa",
                "addr:housenumber": "13",
                "addr:city": "Kazuń-Bielany",
                "addr:postcode": "05-152",
                "amenity": "pharmacy",
                "dispensing": "yes"
            },
            "geometry": {
                "type": "Point",
                "coordinates": [
                    20.68000822441182,
                    52.3912335839137
                ]
            }
        },
        {
            "type": "Feature",
            "properties": {
                "ref:csioz": 1088086,
                "addr:street": "Tadeusza Kościuszki",
                "addr:housenumber": "5",
                "addr:city": "Nowy Dwór Mazowiecki",
                "addr:postcode": "05-100",
                "amenity": "pharmacy",
                "dispensing": "yes"
            },
            "geometry": {
                "type": "Point",
                "coordinates": [
                    20.714439509293175,
                    52.431473728490595
                ]
            }
        },
        {
            "type": "Feature",
            "properties": {
                "ref:csioz": 1088093,
                "name": "Dbam O Zdrowie",
                "addr:street": "gen. Jerzego Przemysława Morawicza",
                "addr:housenumber": "2A",
                "addr:city": "Nowy Dwór Mazowiecki",
                "addr:postcode": "05-100",
                "amenity": "pharmacy",
                "dispensing": "yes"
            },
            "geometry": {
                "type": "Point",
                "coordinates": [
                    20.72796310285009,
                    52.42379004603928
                ]
            }
        },
        {
            "type": "Feature",
            "properties": {
                "ref:csioz": 1088108,
                "name": "Alma",
                "addr:street": "gen. Leopolda Okulickiego",
                "addr:housenumber": "5",
                "addr:city": "Nowy Dwór Mazowiecki",
                "addr:postcode": "05-101",
                "amenity": "pharmacy",
                "dispensing": "yes"
            },
            "geometry": {
                "type": "Point",
                "coordinates": [
                    20.729949792380417,
                    52.41780491058849
                ]
            }
        },
        {
            "type": "Feature",
            "properties": {
                "ref:csioz": 1088124,
                "name": "Apteka Zdrowie Mgr. Farm. Anna Łukasza-Bicka Spółka Jawna",
                "addr:street": "Wojska Polskiego",
                "addr:housenumber": "35",
                "addr:city": "Nowy Dwór Mazowiecki",
                "addr:postcode": "05-101",
                "amenity": "pharmacy",
                "dispensing": "yes"
            },
            "geometry": {
                "type": "Point",
                "coordinates": [
                    20.73725368407719,
                    52.41822205542981
                ]
            }
        },
        {
            "type": "Feature",
            "properties": {
                "ref:csioz": 1088135,
                "name": "\"Cef@Rm 36,6\"",
                "addr:street": "Szkolna",
                "addr:housenumber": "1",
                "addr:city": "Pomiechówek",
                "addr:postcode": "05-180",
                "amenity": "pharmacy",
                "dispensing": "yes"
            },
            "geometry": {
                "type": "Point",
                "coordinates": [
                    20.742413033267354,
                    52.47455092436444
                ]
            }
        },
        {
            "type": "Feature",
            "properties": {
                "ref:csioz": 1088143,
                "addr:street": "Ojca Honorata Koźmińskiego",
                "addr:housenumber": "33A",
                "addr:city": "Zakroczym",
                "addr:postcode": "05-170",
                "amenity": "pharmacy",
                "dispensing": "yes"
            },
            "geometry": {
                "type": "Point",
                "coordinates": [
                    20.61139988986794,
                    52.43404385305409
                ]
            }
        },
        {
            "type": "Feature",
            "properties": {
                "ref:csioz": 1111545,
                "addr:street": "Warszawska",
                "addr:housenumber": "15",
                "addr:city": "Nowy Dwór Mazowiecki",
                "addr:postcode": "05-100",
                "amenity": "pharmacy",
                "dispensing": "yes"
            },
            "geometry": {
                "type": "Point",
                "coordinates": [
                    20.712050832805552,
                    52.43022329505532
                ]
            }
        },
        {
            "type": "Feature",
            "properties": {
                "ref:csioz": 1112507,
                "name": "Syrenka Tanie Leki",
                "addr:street": "Ignacego Paderewskiego",
                "addr:housenumber": "7",
                "addr:city": "Nowy Dwór Mazowiecki",
                "addr:postcode": "05-100",
                "amenity": "pharmacy",
                "dispensing": "yes"
            },
            "geometry": {
                "type": "Point",
                "coordinates": [
                    20.718744425744752,
                    52.427993789723864
                ]
            }
        },
        {
            "type": "Feature",
            "properties": {
                "ref:csioz": 1174809,
                "name": "Z Uśmiechem",
                "addr:street": "Wojska Polskiego",
                "addr:housenumber": "20",
                "addr:city": "Nowy Dwór Mazowiecki",
                "addr:postcode": "05-101",
                "amenity": "pharmacy",
                "dispensing": "yes"
            },
            "geometry": {
                "type": "Point",
                "coordinates": [
                    20.736809473007007,
                    52.41912773900492
                ]
            }
        },
        {
            "type": "Feature",
            "properties": {
                "ref:csioz": 1186870,
                "name": "Syrenka",
                "addr:street": "Mazowiecka",
                "addr:housenumber": "11",
                "addr:city": "Nowy Dwór Mazowiecki",
                "addr:postcode": "05-100",
                "amenity": "pharmacy",
                "dispensing": "yes"
            },
            "geometry": {
                "type": "Point",
                "coordinates": [
                    20.708646433241782,
                    52.429560700657156
                ]
            }
        },
        {
            "type": "Feature",
            "properties": {
                "ref:csioz": 1190380,
                "name": "Nowodworskie Centrum Medyczne W Nowym Dworze Mazowieckim",
                "addr:street": "Miodowa",
                "addr:housenumber": "2",
                "addr:city": "Nowy Dwór Mazowiecki",
                "addr:postcode": "05-100",
                "amenity": "pharmacy",
                "dispensing": "yes"
            },
            "geometry": {
                "type": "Point",
                "coordinates": [
                    20.72521008608139,
                    52.42006323565697
                ]
            }
        },
        {
            "type": "Feature",
            "properties": {
                "ref:csioz": 1202436,
                "name": "Syrenka",
                "addr:street": "29 Listopada",
                "addr:housenumber": "376",
                "addr:city": "Nowy Dwór Mazowiecki",
                "addr:postcode": "05-160",
                "amenity": "pharmacy",
                "dispensing": "yes"
            },
            "geometry": {
                "type": "Point",
                "coordinates": [
                    20.666644011416608,
                    52.436112939339196
                ]
            }
        },
        {
            "type": "Feature",
            "properties": {
                "ref:csioz": 1210152,
                "name": "Apteki Centrum - Mazowieckie Centrum Leków",
                "addr:street": "Warszawska",
                "addr:housenumber": "36",
                "addr:city": "Nowy Dwór Mazowiecki",
                "addr:postcode": "05-100",
                "amenity": "pharmacy",
                "dispensing": "yes"
            },
            "geometry": {
                "type": "Point",
                "coordinates": [
                    20.697834697231578,
                    52.434407076959396
                ]
            }
        },
        {
            "type": "Feature",
            "properties": {
                "ref:csioz": 1218567,
                "name": "Alma",
                "addr:street": "Romana Kobendzy",
                "addr:housenumber": "4",
                "addr:city": "Leoncin",
                "addr:postcode": "05-155",
                "amenity": "pharmacy",
                "dispensing": "yes"
            },
            "geometry": {
                "type": "Point",
                "coordinates": [
                    20.53872335148432,
                    52.394801875160525
                ]
            }
        },
        {
            "type": "Feature",
            "properties": {
                "ref:csioz": 1229350,
                "name": "\"Nzoz Zakład Opiekuńczo - Leczniczy \"\"Dom Rodzinny\"\"\"",
                "addr:street": "Przytorowa",
                "addr:housenumber": "1",
                "addr:city": "Nowy Dwór Mazowiecki",
                "addr:postcode": "05-100",
                "amenity": "pharmacy",
                "dispensing": "yes"
            },
            "geometry": {
                "type": "Point",
                "coordinates": [
                    20.721479005797512,
                    52.42473819414533
                ]
            }
        },
        {
            "type": "Feature",
            "properties": {
                "ref:csioz": 1089691,
                "name": "Arnica",
                "addr:street": "Rynek",
                "addr:housenumber": "21",
                "addr:city": "Nasielsk",
                "addr:postcode": "05-190",
                "amenity": "pharmacy",
                "dispensing": "yes"
            },
            "geometry": {
                "type": "Point",
                "coordinates": [
                    20.808271740960425,
                    52.589916695421415
                ]
            }
        },
        {
            "type": "Feature",
            "properties": {
                "ref:csioz": 1090266,
                "name": "Rodzinna",
                "addr:street": "Płońska",
                "addr:housenumber": "4A",
                "addr:city": "Nasielsk",
                "addr:postcode": "05-190",
                "amenity": "pharmacy",
                "dispensing": "yes"
            },
            "geometry": {
                "type": "Point",
                "coordinates": [
                    20.79886522120619,
                    52.59318693034058
                ]
            }
        },
        {
            "type": "Feature",
            "properties": {
                "ref:csioz": 1119833,
                "addr:street": "Młynarska",
                "addr:housenumber": "3",
                "addr:city": "Nasielsk",
                "addr:postcode": "05-190",
                "amenity": "pharmacy",
                "dispensing": "yes"
            },
            "geometry": {
                "type": "Point",
                "coordinates": [
                    20.805665406115494,
                    52.590284082768775
                ]
            }
        }
    ]
}