{
    "type": "FeatureCollection",
    "name": "JPT_KOD_JE_1211",
    "features": [
        {
            "type": "Feature",
            "properties": {
                "ref:csioz": 1075698,
                "addr:housenumber": "551",
                "addr:postcode": "34-483",
                "amenity": "pharmacy",
                "addr:place": "Lipnica Wielka",
                "dispensing": "yes"
            },
            "geometry": {
                "type": "Point",
                "coordinates": [
                    19.615242026787538,
                    49.4977069926142
                ]
            }
        },
        {
            "type": "Feature",
            "properties": {
                "ref:csioz": 1077104,
                "name": "Apteka Maria",
                "addr:street": "Sobieskiego",
                "addr:housenumber": "20",
                "addr:city": "Jabłonka",
                "addr:postcode": "34-480",
                "amenity": "pharmacy",
                "dispensing": "yes"
            },
            "geometry": {
                "type": "Point",
                "coordinates": [
                    19.692937981528683,
                    49.477165474730285
                ]
            }
        },
        {
            "type": "Feature",
            "properties": {
                "ref:csioz": 1077543,
                "name": "\"Apteka \"\"Maria\"\"\"",
                "addr:housenumber": "499",
                "addr:postcode": "34-484",
                "amenity": "pharmacy",
                "addr:place": "Zubrzyca Górna",
                "dispensing": "yes"
            },
            "geometry": {
                "type": "Point",
                "coordinates": [
                    19.651130237031754,
                    49.560026611724
                ]
            }
        },
        {
            "type": "Feature",
            "properties": {
                "ref:csioz": 1209195,
                "name": "Arnika",
                "addr:housenumber": "301B",
                "addr:postcode": "34-482",
                "amenity": "pharmacy",
                "addr:place": "Lipnica Mała",
                "dispensing": "yes"
            },
            "geometry": {
                "type": "Point",
                "coordinates": [
                    19.63197794911505,
                    49.52074846631345
                ]
            }
        },
        {
            "type": "Feature",
            "properties": {
                "ref:csioz": 1122977,
                "name": "Niezapominajka Dla Całej Rodziny",
                "addr:street": "3 Maja",
                "addr:housenumber": "9",
                "addr:city": "Jabłonka",
                "addr:postcode": "34-480",
                "amenity": "pharmacy",
                "dispensing": "yes"
            },
            "geometry": {
                "type": "Point",
                "coordinates": [
                    19.697308518785007,
                    49.478135421410265
                ]
            }
        },
        {
            "type": "Feature",
            "properties": {
                "ref:csioz": 1197948,
                "name": "Niezapominajka Dla Całej Rodziny",
                "addr:street": "Sobieskiego",
                "addr:housenumber": "6",
                "addr:city": "Jabłonka",
                "addr:postcode": "34-480",
                "amenity": "pharmacy",
                "dispensing": "yes"
            },
            "geometry": {
                "type": "Point",
                "coordinates": [
                    19.69343765760854,
                    49.47883523901144
                ]
            }
        },
        {
            "type": "Feature",
            "properties": {
                "ref:csioz": 1035211,
                "name": "Apteka Arnika",
                "addr:street": "Wojska Polskiego",
                "addr:housenumber": "14",
                "addr:city": "Nowy Targ",
                "addr:postcode": "34-400",
                "amenity": "pharmacy",
                "dispensing": "yes"
            },
            "geometry": {
                "type": "Point",
                "coordinates": [
                    20.02429548091908,
                    49.474098302391965
                ]
            }
        },
        {
            "type": "Feature",
            "properties": {
                "ref:csioz": 1036751,
                "name": "Apteka Prywatna Jolanta Chyła",
                "addr:housenumber": "639",
                "addr:postcode": "34-713",
                "amenity": "pharmacy",
                "addr:place": "Skawa",
                "dispensing": "yes"
            },
            "geometry": {
                "type": "Point",
                "coordinates": [
                    19.915483253848517,
                    49.59894436029934
                ]
            }
        },
        {
            "type": "Feature",
            "properties": {
                "ref:csioz": 1036361,
                "name": "Punkt Apteczny Jolanta Chyła",
                "addr:housenumber": "26",
                "addr:postcode": "34-745",
                "amenity": "pharmacy",
                "addr:place": "Spytkowice",
                "dispensing": "yes"
            },
            "geometry": {
                "type": "Point",
                "coordinates": [
                    19.820650859623182,
                    49.57654529111173
                ]
            }
        },
        {
            "type": "Feature",
            "properties": {
                "ref:csioz": 1037170,
                "name": "Vita-Minka",
                "addr:street": "Jana III Sobieskiego",
                "addr:housenumber": "8",
                "addr:city": "Nowy Targ",
                "addr:postcode": "34-400",
                "amenity": "pharmacy",
                "dispensing": "yes"
            },
            "geometry": {
                "type": "Point",
                "coordinates": [
                    20.033193545181366,
                    49.4823916097237
                ]
            }
        },
        {
            "type": "Feature",
            "properties": {
                "ref:csioz": 1037269,
                "name": "Apteka Vita",
                "addr:street": "Mikołaja Kopernika",
                "addr:housenumber": "12",
                "addr:city": "Nowy Targ",
                "addr:postcode": "34-400",
                "amenity": "pharmacy",
                "dispensing": "yes"
            },
            "geometry": {
                "type": "Point",
                "coordinates": [
                    20.027417212065227,
                    49.47323341956419
                ]
            }
        },
        {
            "type": "Feature",
            "properties": {
                "ref:csioz": 1038559,
                "name": "Apteka Rodzinna",
                "addr:housenumber": "40a",
                "addr:postcode": "34-404",
                "amenity": "pharmacy",
                "addr:place": "Klikuszowa",
                "dispensing": "yes"
            },
            "geometry": {
                "type": "Point",
                "coordinates": [
                    19.98601150302338,
                    49.51963974745896
                ]
            }
        },
        {
            "type": "Feature",
            "properties": {
                "ref:csioz": 1038568,
                "name": "Apteka Rodzinna",
                "addr:street": "Szaflarska",
                "addr:housenumber": "136",
                "addr:city": "Nowy Targ",
                "addr:postcode": "34-400",
                "amenity": "pharmacy",
                "dispensing": "yes"
            },
            "geometry": {
                "type": "Point",
                "coordinates": [
                    20.028458129162818,
                    49.47056981413827
                ]
            }
        },
        {
            "type": "Feature",
            "properties": {
                "ref:csioz": 1038576,
                "name": "Apteka Rodzinna",
                "addr:street": "Długa",
                "addr:housenumber": "96",
                "addr:city": "Nowy Targ",
                "addr:postcode": "34-400",
                "amenity": "pharmacy",
                "dispensing": "yes"
            },
            "geometry": {
                "type": "Point",
                "coordinates": [
                    20.032430719035357,
                    49.4808555576605
                ]
            }
        },
        {
            "type": "Feature",
            "properties": {
                "ref:csioz": 1042209,
                "name": "Szarotka",
                "addr:street": "Rynek",
                "addr:housenumber": "30",
                "addr:city": "Krościenko nad Dunajcem",
                "addr:postcode": "34-450",
                "amenity": "pharmacy",
                "dispensing": "yes"
            },
            "geometry": {
                "type": "Point",
                "coordinates": [
                    20.429101085240962,
                    49.440240004282835
                ]
            }
        },
        {
            "type": "Feature",
            "properties": {
                "ref:csioz": 1056479,
                "name": "Apteka Pod Gwiazdą",
                "addr:street": "Orkana",
                "addr:housenumber": "29",
                "addr:city": "Rabka-Zdrój",
                "addr:postcode": "34-700",
                "amenity": "pharmacy",
                "dispensing": "yes"
            },
            "geometry": {
                "type": "Point",
                "coordinates": [
                    19.952934722803978,
                    49.60970066357514
                ]
            }
        },
        {
            "type": "Feature",
            "properties": {
                "ref:csioz": 1074585,
                "name": "Remedium",
                "addr:street": "Władysława Orkana",
                "addr:housenumber": "37D",
                "addr:city": "Szaflary",
                "addr:postcode": "34-424",
                "amenity": "pharmacy",
                "dispensing": "yes"
            },
            "geometry": {
                "type": "Point",
                "coordinates": [
                    20.014888604187004,
                    49.423506766566746
                ]
            }
        },
        {
            "type": "Feature",
            "properties": {
                "ref:csioz": 1075407,
                "addr:street": "Długa",
                "addr:housenumber": "55",
                "addr:city": "Nowy Targ",
                "addr:postcode": "34-400",
                "amenity": "pharmacy",
                "dispensing": "yes"
            },
            "geometry": {
                "type": "Point",
                "coordinates": [
                    20.0295990760399,
                    49.48087906875109
                ]
            }
        },
        {
            "type": "Feature",
            "properties": {
                "ref:csioz": 1076190,
                "addr:street": "Główna",
                "addr:housenumber": "8",
                "addr:city": "Szczawnica",
                "addr:postcode": "34-460",
                "amenity": "pharmacy",
                "dispensing": "yes"
            },
            "geometry": {
                "type": "Point",
                "coordinates": [
                    20.481467687459556,
                    49.425732789851274
                ]
            }
        },
        {
            "type": "Feature",
            "properties": {
                "ref:csioz": 1077006,
                "addr:street": "Długa",
                "addr:housenumber": "169A",
                "addr:city": "Łapsze Niżne",
                "addr:postcode": "34-442",
                "amenity": "pharmacy",
                "dispensing": "yes"
            },
            "geometry": {
                "type": "Point",
                "coordinates": [
                    20.24506284015765,
                    49.398261788161896
                ]
            }
        },
        {
            "type": "Feature",
            "properties": {
                "ref:csioz": 1077112,
                "addr:street": "Rynek",
                "addr:housenumber": "33",
                "addr:city": "Czarny Dunajec",
                "addr:postcode": "34-470",
                "amenity": "pharmacy",
                "dispensing": "yes"
            },
            "geometry": {
                "type": "Point",
                "coordinates": [
                    19.85261244446789,
                    49.43986528508154
                ]
            }
        },
        {
            "type": "Feature",
            "properties": {
                "ref:csioz": 1077339,
                "addr:street": "Gorczańska",
                "addr:housenumber": "6",
                "addr:city": "Maniowy",
                "addr:postcode": "34-436",
                "amenity": "pharmacy",
                "dispensing": "yes"
            },
            "geometry": {
                "type": "Point",
                "coordinates": [
                    20.26568200000058,
                    49.460900000011776
                ]
            }
        },
        {
            "type": "Feature",
            "properties": {
                "ref:csioz": 1077678,
                "addr:street": "Mickiewicza",
                "addr:housenumber": "4",
                "addr:city": "Krościenko nad Dunajcem",
                "addr:postcode": "34-450",
                "amenity": "pharmacy",
                "dispensing": "yes"
            },
            "geometry": {
                "type": "Point",
                "coordinates": [
                    20.42744754238267,
                    49.440679418518734
                ]
            }
        },
        {
            "type": "Feature",
            "properties": {
                "ref:csioz": 1113665,
                "name": "\"Niepubliczny Zakład Opieki Zdrowotnej \"\"Oko-Test\"\" Diagnostyka I Chirurgia Oka Chirurgia Jednego Dnia\"",
                "addr:street": "Szpitalna",
                "addr:housenumber": "14",
                "addr:city": "Nowy Targ",
                "addr:postcode": "34-400",
                "amenity": "pharmacy",
                "dispensing": "yes"
            },
            "geometry": {
                "type": "Point",
                "coordinates": [
                    20.02737132981259,
                    49.48976211937792
                ]
            }
        },
        {
            "type": "Feature",
            "properties": {
                "ref:csioz": 1169433,
                "name": "Apteka Rodzinna",
                "addr:street": "Gorczańska",
                "addr:housenumber": "4",
                "addr:city": "Maniowy",
                "addr:postcode": "34-436",
                "amenity": "pharmacy",
                "dispensing": "yes"
            },
            "geometry": {
                "type": "Point",
                "coordinates": [
                    20.265682874659216,
                    49.46100062475533
                ]
            }
        },
        {
            "type": "Feature",
            "properties": {
                "ref:csioz": 1172679,
                "name": "Punkt Apteczny Adrian Chyła",
                "addr:housenumber": "2",
                "addr:postcode": "34-723",
                "amenity": "pharmacy",
                "addr:place": "Sieniawa",
                "dispensing": "yes"
            },
            "geometry": {
                "type": "Point",
                "coordinates": [
                    19.901074917305166,
                    49.53993598669067
                ]
            }
        },
        {
            "type": "Feature",
            "properties": {
                "ref:csioz": 1177520,
                "name": "Apteka Rodzinna",
                "addr:street": "Rynek",
                "addr:housenumber": "25",
                "addr:city": "Czarny Dunajec",
                "addr:postcode": "34-470",
                "amenity": "pharmacy",
                "dispensing": "yes"
            },
            "geometry": {
                "type": "Point",
                "coordinates": [
                    19.853361804016213,
                    49.44063460168446
                ]
            }
        },
        {
            "type": "Feature",
            "properties": {
                "ref:csioz": 1179276,
                "name": "Apteka U Farmaceutów",
                "addr:street": "Rynek",
                "addr:housenumber": "8A",
                "addr:city": "Rabka-Zdrój",
                "addr:postcode": "34-700",
                "amenity": "pharmacy",
                "dispensing": "yes"
            },
            "geometry": {
                "type": "Point",
                "coordinates": [
                    19.94654050523075,
                    49.60933631920031
                ]
            }
        },
        {
            "type": "Feature",
            "properties": {
                "ref:csioz": 1193340,
                "name": "Zespół Opieki Szpitalnej",
                "addr:street": "Szpitalna",
                "addr:housenumber": "14",
                "addr:city": "Nowy Targ",
                "addr:postcode": "34-400",
                "amenity": "pharmacy",
                "dispensing": "yes"
            },
            "geometry": {
                "type": "Point",
                "coordinates": [
                    20.02737132981259,
                    49.48973211937792
                ]
            }
        },
        {
            "type": "Feature",
            "properties": {
                "ref:csioz": 1194798,
                "addr:housenumber": "140A",
                "addr:postcode": "34-408",
                "amenity": "pharmacy",
                "addr:place": "Pieniążkowice",
                "dispensing": "yes"
            },
            "geometry": {
                "type": "Point",
                "coordinates": [
                    19.879188638172458,
                    49.49612554786787
                ]
            }
        },
        {
            "type": "Feature",
            "properties": {
                "ref:csioz": 1195497,
                "name": "Apteka Rodzinna",
                "addr:housenumber": "719",
                "addr:postcode": "34-745",
                "amenity": "pharmacy",
                "addr:place": "Spytkowice",
                "dispensing": "yes"
            },
            "geometry": {
                "type": "Point",
                "coordinates": [
                    19.833206878289484,
                    49.57734596622988
                ]
            }
        },
        {
            "type": "Feature",
            "properties": {
                "ref:csioz": 1208519,
                "name": "Apteka Im. Jana Pawła Ii",
                "addr:housenumber": "64",
                "addr:postcode": "34-721",
                "amenity": "pharmacy",
                "addr:place": "Raba Wyżna",
                "dispensing": "yes"
            },
            "geometry": {
                "type": "Point",
                "coordinates": [
                    19.875800652112513,
                    49.56518991570315
                ]
            }
        },
        {
            "type": "Feature",
            "properties": {
                "ref:csioz": 1229177,
                "name": "Apteka W Ochotnicy",
                "addr:street": "Centrum",
                "addr:housenumber": "103A",
                "addr:city": "Ochotnica Dolna",
                "addr:postcode": "34-452",
                "amenity": "pharmacy",
                "dispensing": "yes"
            },
            "geometry": {
                "type": "Point",
                "coordinates": [
                    20.33194196552563,
                    49.52639415663624
                ]
            }
        },
        {
            "type": "Feature",
            "properties": {
                "ref:csioz": 1036043,
                "name": "Dr. Max",
                "addr:street": "Sądecka",
                "addr:housenumber": "1B",
                "addr:city": "Rabka-Zdrój",
                "addr:postcode": "34-700",
                "amenity": "pharmacy",
                "dispensing": "yes"
            },
            "geometry": {
                "type": "Point",
                "coordinates": [
                    19.947050011794623,
                    49.610184711671955
                ]
            }
        },
        {
            "type": "Feature",
            "properties": {
                "ref:csioz": 1036611,
                "addr:street": "Kościelna",
                "addr:housenumber": "2",
                "addr:city": "Nowy Targ",
                "addr:postcode": "34-400",
                "amenity": "pharmacy",
                "dispensing": "yes"
            },
            "geometry": {
                "type": "Point",
                "coordinates": [
                    20.029135075599626,
                    49.4829007890183
                ]
            }
        },
        {
            "type": "Feature",
            "properties": {
                "ref:csioz": 1038473,
                "name": "Apteka Dbam O Zdrowie",
                "addr:street": "Jana Wiktora",
                "addr:housenumber": "17A",
                "addr:city": "Szczawnica",
                "addr:postcode": "34-460",
                "amenity": "pharmacy",
                "dispensing": "yes"
            },
            "geometry": {
                "type": "Point",
                "coordinates": [
                    20.48547167388814,
                    49.42581925093049
                ]
            }
        },
        {
            "type": "Feature",
            "properties": {
                "ref:csioz": 1042280,
                "name": "Apteka Rodzinna",
                "addr:street": "Poniatowskiego",
                "addr:housenumber": "10",
                "addr:city": "Rabka-Zdrój",
                "addr:postcode": "34-700",
                "amenity": "pharmacy",
                "dispensing": "yes"
            },
            "geometry": {
                "type": "Point",
                "coordinates": [
                    19.968988311717197,
                    49.60831580578627
                ]
            }
        },
        {
            "type": "Feature",
            "properties": {
                "ref:csioz": 1056422,
                "name": "Apteka Centrum",
                "addr:street": "Składowa",
                "addr:housenumber": "2",
                "addr:city": "Nowy Targ",
                "addr:postcode": "34-400",
                "amenity": "pharmacy",
                "dispensing": "yes"
            },
            "geometry": {
                "type": "Point",
                "coordinates": [
                    20.01270919118431,
                    49.47339721355569
                ]
            }
        },
        {
            "type": "Feature",
            "properties": {
                "ref:csioz": 1056596,
                "addr:street": "Chopina",
                "addr:housenumber": "16",
                "addr:city": "Rabka-Zdrój",
                "addr:postcode": "34-700",
                "amenity": "pharmacy",
                "dispensing": "yes"
            },
            "geometry": {
                "type": "Point",
                "coordinates": [
                    19.96473466576382,
                    49.609429965459796
                ]
            }
        },
        {
            "type": "Feature",
            "properties": {
                "ref:csioz": 1075818,
                "addr:street": "Zakopiańska",
                "addr:housenumber": "6a",
                "addr:city": "Rabka-Zdrój",
                "addr:postcode": "34-700",
                "amenity": "pharmacy",
                "dispensing": "yes"
            },
            "geometry": {
                "type": "Point",
                "coordinates": [
                    19.9518703313562,
                    49.60771058556929
                ]
            }
        },
        {
            "type": "Feature",
            "properties": {
                "ref:csioz": 1076463,
                "addr:street": "Rynek",
                "addr:housenumber": "25",
                "addr:city": "Nowy Targ",
                "addr:postcode": "34-400",
                "amenity": "pharmacy",
                "dispensing": "yes"
            },
            "geometry": {
                "type": "Point",
                "coordinates": [
                    20.029926622089874,
                    49.48181914065661
                ]
            }
        },
        {
            "type": "Feature",
            "properties": {
                "ref:csioz": 1076661,
                "addr:street": "Rynek",
                "addr:housenumber": "19",
                "addr:city": "Czarny Dunajec",
                "addr:postcode": "34-470",
                "amenity": "pharmacy",
                "dispensing": "yes"
            },
            "geometry": {
                "type": "Point",
                "coordinates": [
                    19.853656754635303,
                    49.44079969353599
                ]
            }
        },
        {
            "type": "Feature",
            "properties": {
                "ref:csioz": 1120600,
                "name": "Zakład Opiekuńczo Leczniczy Im. Św. Siostry Faustyny Kowalskiej",
                "addr:housenumber": "435a",
                "addr:postcode": "34-721",
                "amenity": "pharmacy",
                "addr:place": "Raba Wyżna",
                "dispensing": "yes"
            },
            "geometry": {
                "type": "Point",
                "coordinates": [
                    19.900733473276464,
                    49.56744604970471
                ]
            }
        },
        {
            "type": "Feature",
            "properties": {
                "ref:csioz": 1123143,
                "name": "Apteka Rodzinna",
                "addr:housenumber": "38 a",
                "addr:postcode": "32-721",
                "amenity": "pharmacy",
                "addr:place": "Raba Wyżna",
                "dispensing": "yes"
            },
            "geometry": {
                "type": "Point",
                "coordinates": [
                    19.878772569678596,
                    49.564393727591955
                ]
            }
        },
        {
            "type": "Feature",
            "properties": {
                "ref:csioz": 1170000,
                "name": "Ziko Apteka",
                "addr:street": "Jana Kilińskiego",
                "addr:housenumber": "20",
                "addr:city": "Nowy Targ",
                "addr:postcode": "34-400",
                "amenity": "pharmacy",
                "dispensing": "yes"
            },
            "geometry": {
                "type": "Point",
                "coordinates": [
                    20.023869883239286,
                    49.477764495813034
                ]
            }
        },
        {
            "type": "Feature",
            "properties": {
                "ref:csioz": 1170783,
                "name": "Apteka Słoneczna",
                "addr:street": "Kolejowa",
                "addr:housenumber": "19",
                "addr:city": "Nowy Targ",
                "addr:postcode": "34-400",
                "amenity": "pharmacy",
                "dispensing": "yes"
            },
            "geometry": {
                "type": "Point",
                "coordinates": [
                    20.0283120918181,
                    49.48142103711837
                ]
            }
        },
        {
            "type": "Feature",
            "properties": {
                "ref:csioz": 1174001,
                "name": "Niezapominajka Dla Całej Rodziny",
                "addr:street": "Rynek",
                "addr:housenumber": "19",
                "addr:city": "Nowy Targ",
                "addr:postcode": "34-400",
                "amenity": "pharmacy",
                "dispensing": "yes"
            },
            "geometry": {
                "type": "Point",
                "coordinates": [
                    20.029864974838063,
                    49.48235217590949
                ]
            }
        },
        {
            "type": "Feature",
            "properties": {
                "ref:csioz": 1174734,
                "name": "Apteka Słoneczna",
                "addr:street": "Kowaniec",
                "addr:housenumber": "2",
                "addr:city": "Nowy Targ",
                "addr:postcode": "34-400",
                "amenity": "pharmacy",
                "dispensing": "yes"
            },
            "geometry": {
                "type": "Point",
                "coordinates": [
                    20.034065421391432,
                    49.485921267352076
                ]
            }
        },
        {
            "type": "Feature",
            "properties": {
                "ref:csioz": 1176372,
                "name": "Niepubliczny Zakład Opieki Zdrowotnej Spec Med - Chirurgia Jednego Dnia",
                "addr:street": "Orkana",
                "addr:housenumber": "20B",
                "addr:city": "Rabka-Zdrój",
                "addr:postcode": "34-700",
                "amenity": "pharmacy",
                "dispensing": "yes"
            },
            "geometry": {
                "type": "Point",
                "coordinates": [
                    19.956201060353273,
                    49.60916578153025
                ]
            }
        },
        {
            "type": "Feature",
            "properties": {
                "ref:csioz": 1182639,
                "name": "\"Apteka Cef@Rm 36,6\"",
                "addr:street": "Szalaya",
                "addr:housenumber": "2",
                "addr:city": "Szczawnica",
                "addr:postcode": "34-460",
                "amenity": "pharmacy",
                "dispensing": "yes"
            },
            "geometry": {
                "type": "Point",
                "coordinates": [
                    20.482970129923277,
                    49.42483242163486
                ]
            }
        },
        {
            "type": "Feature",
            "properties": {
                "ref:csioz": 1183891,
                "name": "Apteka Rodzinna",
                "addr:housenumber": "16A",
                "addr:postcode": "34-407",
                "amenity": "pharmacy",
                "addr:place": "Ciche",
                "dispensing": "yes"
            },
            "geometry": {
                "type": "Point",
                "coordinates": [
                    19.877133260644147,
                    49.39714786829031
                ]
            }
        },
        {
            "type": "Feature",
            "properties": {
                "ref:csioz": 1191223,
                "addr:street": "Bielskie",
                "addr:housenumber": "101C",
                "addr:city": "Ochotnica Górna",
                "addr:postcode": "34-453",
                "amenity": "pharmacy",
                "dispensing": "yes"
            },
            "geometry": {
                "type": "Point",
                "coordinates": [
                    20.256486780375297,
                    49.51625939339573
                ]
            }
        },
        {
            "type": "Feature",
            "properties": {
                "ref:csioz": 1191525,
                "addr:street": "Jana Pawła II",
                "addr:housenumber": "95",
                "addr:city": "Ludźmierz",
                "addr:postcode": "34-471",
                "amenity": "pharmacy",
                "dispensing": "yes"
            },
            "geometry": {
                "type": "Point",
                "coordinates": [
                    19.979823000000312,
                    49.463602000011775
                ]
            }
        },
        {
            "type": "Feature",
            "properties": {
                "ref:csioz": 1196237,
                "addr:housenumber": "127",
                "addr:postcode": "34-472",
                "amenity": "pharmacy",
                "addr:place": "Piekielnik",
                "dispensing": "yes"
            },
            "geometry": {
                "type": "Point",
                "coordinates": [
                    19.76686757381418,
                    49.47640500464751
                ]
            }
        },
        {
            "type": "Feature",
            "properties": {
                "ref:csioz": 1193602,
                "addr:housenumber": "303",
                "addr:postcode": "34-422",
                "amenity": "pharmacy",
                "addr:place": "Podwilk",
                "dispensing": "yes"
            },
            "geometry": {
                "type": "Point",
                "coordinates": [
                    19.742997927925114,
                    49.5485135005098
                ]
            }
        },
        {
            "type": "Feature",
            "properties": {
                "ref:csioz": 1193932,
                "name": "Instytut Gruźlicy I Chorób Płuc - Szpital W Rabce - Zdrój",
                "addr:street": "prof. Rudnika",
                "addr:housenumber": "3B",
                "addr:city": "Rabka-Zdrój",
                "addr:postcode": "34-700",
                "amenity": "pharmacy",
                "dispensing": "yes"
            },
            "geometry": {
                "type": "Point",
                "coordinates": [
                    19.967591975661605,
                    49.60416405618524
                ]
            }
        },
        {
            "type": "Feature",
            "properties": {
                "ref:csioz": 1194885,
                "name": "Vita-Minka",
                "addr:street": "Za Potokiem",
                "addr:housenumber": "2",
                "addr:city": "Ostrowsko",
                "addr:postcode": "34-431",
                "amenity": "pharmacy",
                "dispensing": "yes"
            },
            "geometry": {
                "type": "Point",
                "coordinates": [
                    20.0987738491961,
                    49.47691441031095
                ]
            }
        },
        {
            "type": "Feature",
            "properties": {
                "ref:csioz": 1196928,
                "name": "Szpital Miejski",
                "addr:street": "Słoneczna",
                "addr:housenumber": "3",
                "addr:city": "Rabka-Zdrój",
                "addr:postcode": "34-700",
                "amenity": "pharmacy",
                "dispensing": "yes"
            },
            "geometry": {
                "type": "Point",
                "coordinates": [
                    19.970952554535298,
                    49.60863236197782
                ]
            }
        },
        {
            "type": "Feature",
            "properties": {
                "ref:csioz": 1197416,
                "name": "Uzdrowisko Rabka - Szpital",
                "addr:street": "Słowackiego",
                "addr:housenumber": "8",
                "addr:city": "Rabka-Zdrój",
                "addr:postcode": "34-700",
                "amenity": "pharmacy",
                "dispensing": "yes"
            },
            "geometry": {
                "type": "Point",
                "coordinates": [
                    19.97104975163812,
                    49.61068488439637
                ]
            }
        },
        {
            "type": "Feature",
            "properties": {
                "ref:csioz": 1199768,
                "name": "Medical Clinic Podhale- Szpital",
                "addr:street": "Nowotarska",
                "addr:housenumber": "294",
                "addr:city": "Waksmund",
                "addr:postcode": "34-431",
                "amenity": "pharmacy",
                "dispensing": "yes"
            },
            "geometry": {
                "type": "Point",
                "coordinates": [
                    20.085876904014835,
                    49.47873502344625
                ]
            }
        },
        {
            "type": "Feature",
            "properties": {
                "ref:csioz": 1204440,
                "name": "Apteka Hipokrates-Anna Przygodzka-Szczepaniak",
                "addr:street": "Nowotarska",
                "addr:housenumber": "294",
                "addr:city": "Waksmund",
                "addr:postcode": "34-431",
                "amenity": "pharmacy",
                "dispensing": "yes"
            },
            "geometry": {
                "type": "Point",
                "coordinates": [
                    20.085876904014835,
                    49.478705023446246
                ]
            }
        },
        {
            "type": "Feature",
            "properties": {
                "ref:csioz": 1205309,
                "name": "Szpital Uzdrowiskowy",
                "addr:street": "Dietla",
                "addr:housenumber": "5",
                "addr:city": "Rabka-Zdrój",
                "addr:postcode": "34-700",
                "amenity": "pharmacy",
                "dispensing": "yes"
            },
            "geometry": {
                "type": "Point",
                "coordinates": [
                    19.970015348559134,
                    49.602161046758816
                ]
            }
        },
        {
            "type": "Feature",
            "properties": {
                "ref:csioz": 1210851,
                "name": "Dr. Max",
                "addr:street": "Królowej Jadwigi",
                "addr:housenumber": "17",
                "addr:city": "Nowy Targ",
                "addr:postcode": "34-400",
                "amenity": "pharmacy",
                "dispensing": "yes"
            },
            "geometry": {
                "type": "Point",
                "coordinates": [
                    20.026543969675764,
                    49.47875558617576
                ]
            }
        },
        {
            "type": "Feature",
            "properties": {
                "ref:csioz": 1213433,
                "addr:housenumber": "557a",
                "addr:postcode": "34-721",
                "amenity": "pharmacy",
                "addr:place": "Raba Wyżna",
                "dispensing": "yes"
            },
            "geometry": {
                "type": "Point",
                "coordinates": [
                    19.880556836317353,
                    49.56577252530379
                ]
            }
        },
        {
            "type": "Feature",
            "properties": {
                "ref:csioz": 1213454,
                "name": "„Pod Trzema Koronami”",
                "addr:street": "Szkolna",
                "addr:housenumber": "16",
                "addr:city": "Sromowce Niżne",
                "addr:postcode": "34-443",
                "amenity": "pharmacy",
                "dispensing": "yes"
            },
            "geometry": {
                "type": "Point",
                "coordinates": [
                    20.407673180435594,
                    49.394409688540506
                ]
            }
        },
        {
            "type": "Feature",
            "properties": {
                "ref:csioz": 1214768,
                "name": "Apteka Słoneczna",
                "addr:street": "Szpitalna",
                "addr:housenumber": "14",
                "addr:city": "Nowy Targ",
                "addr:postcode": "34-400",
                "amenity": "pharmacy",
                "dispensing": "yes"
            },
            "geometry": {
                "type": "Point",
                "coordinates": [
                    20.02737132981259,
                    49.48970211937792
                ]
            }
        },
        {
            "type": "Feature",
            "properties": {
                "ref:csioz": 1226834,
                "name": "Zdrowie",
                "addr:street": "Tysiąclecia",
                "addr:housenumber": "111",
                "addr:city": "Nowy Targ",
                "addr:postcode": "34-400",
                "amenity": "pharmacy",
                "dispensing": "yes"
            },
            "geometry": {
                "type": "Point",
                "coordinates": [
                    20.05154333532368,
                    49.477220041298736
                ]
            }
        },
        {
            "type": "Feature",
            "properties": {
                "ref:csioz": 1227059,
                "name": "Apteka Malina",
                "addr:street": "Bliszcze",
                "addr:housenumber": "223",
                "addr:city": "Tylmanowa",
                "addr:postcode": "34-451",
                "amenity": "pharmacy",
                "dispensing": "yes"
            },
            "geometry": {
                "type": "Point",
                "coordinates": [
                    20.4121001088607,
                    49.483604467731524
                ]
            }
        },
        {
            "type": "Feature",
            "properties": {
                "ref:csioz": 1227149,
                "name": "Allmedica-Oddział Chirurgii Jedngo Dnia",
                "addr:street": "Tysiąclecia",
                "addr:housenumber": "111",
                "addr:city": "Nowy Targ",
                "addr:postcode": "34-400",
                "amenity": "pharmacy",
                "dispensing": "yes"
            },
            "geometry": {
                "type": "Point",
                "coordinates": [
                    20.05154333532368,
                    49.47719004129873
                ]
            }
        },
        {
            "type": "Feature",
            "properties": {
                "ref:csioz": 1228493,
                "name": "Zdrowie",
                "addr:street": "Kolejowa",
                "addr:housenumber": "31",
                "addr:city": "Nowy Targ",
                "addr:postcode": "34-400",
                "amenity": "pharmacy",
                "dispensing": "yes"
            },
            "geometry": {
                "type": "Point",
                "coordinates": [
                    20.027195196258493,
                    49.48163569602292
                ]
            }
        },
        {
            "type": "Feature",
            "properties": {
                "ref:csioz": 1074830,
                "name": "\"Apteka \"\"Pod Różą\"\"\"",
                "addr:housenumber": "180",
                "addr:postcode": "34-452",
                "amenity": "pharmacy",
                "addr:place": "Ochotnica Dolna",
                "dispensing": "yes"
            },
            "geometry": {
                "type": "Point",
                "coordinates": [
                    20.31449540499172,
                    49.52441884370693
                ]
            }
        },
        {
            "type": "Feature",
            "properties": {
                "ref:csioz": 1037162,
                "name": "Vita-Minka",
                "addr:street": "Waksmundzka",
                "addr:housenumber": "79",
                "addr:city": "Nowy Targ",
                "addr:postcode": "34-400",
                "amenity": "pharmacy",
                "dispensing": "yes"
            },
            "geometry": {
                "type": "Point",
                "coordinates": [
                    20.038883716554572,
                    49.48177313729084
                ]
            }
        },
        {
            "type": "Feature",
            "properties": {
                "ref:csioz": 1056223,
                "name": "\"Apteka \"\"Antiqua\"\"\"",
                "addr:street": "Topolowe",
                "addr:housenumber": "8",
                "addr:city": "Nowy Targ",
                "addr:postcode": "34-400",
                "amenity": "pharmacy",
                "dispensing": "yes"
            },
            "geometry": {
                "type": "Point",
                "coordinates": [
                    20.02800015656915,
                    49.47880600296407
                ]
            }
        },
        {
            "type": "Feature",
            "properties": {
                "ref:csioz": 1056558,
                "name": "\"Apteka \"\"Medicina\"\" E. Głuc Spółka Jawna\"",
                "addr:street": "Świętej Kingi",
                "addr:housenumber": "5",
                "addr:city": "Krościenko nad Dunajcem",
                "addr:postcode": "34-450",
                "amenity": "pharmacy",
                "dispensing": "yes"
            },
            "geometry": {
                "type": "Point",
                "coordinates": [
                    20.428372666907464,
                    49.43941185047259
                ]
            }
        }
    ]
}