{
    "type": "FeatureCollection",
    "name": "JPT_KOD_JE_0463",
    "features": [
        {
            "type": "Feature",
            "properties": {
                "ref:csioz": 1101330,
                "name": "Św. Faustyny",
                "addr:street": "Św. Faustyny",
                "addr:housenumber": "14",
                "addr:city": "Toruń",
                "addr:postcode": "87-100",
                "amenity": "pharmacy"
            },
            "geometry": {
                "type": "Point",
                "coordinates": [
                    18.604403999999835,
                    53.03123400001711
                ]
            }
        },
        {
            "type": "Feature",
            "properties": {
                "ref:csioz": 1103031,
                "name": "Herba Na Skarpie",
                "addr:street": "Kardynała Stefana Wyszyńskiego",
                "addr:housenumber": "6",
                "addr:city": "Toruń",
                "addr:postcode": "87-100",
                "amenity": "pharmacy"
            },
            "geometry": {
                "type": "Point",
                "coordinates": [
                    18.681461999999872,
                    53.02421900001711
                ]
            }
        },
        {
            "type": "Feature",
            "properties": {
                "ref:csioz": 1103044,
                "name": "Herba",
                "addr:street": "Storczykowa",
                "addr:housenumber": "8",
                "addr:city": "Toruń",
                "addr:postcode": "87-100",
                "amenity": "pharmacy"
            },
            "geometry": {
                "type": "Point",
                "coordinates": [
                    18.584170366661873,
                    53.04132554157927
                ]
            }
        },
        {
            "type": "Feature",
            "properties": {
                "ref:csioz": 1103106,
                "name": "Cito",
                "addr:street": "Marii Skłodowskiej-Curie",
                "addr:housenumber": "73",
                "addr:city": "Toruń",
                "addr:postcode": "87-100",
                "amenity": "pharmacy"
            },
            "geometry": {
                "type": "Point",
                "coordinates": [
                    18.65889189985758,
                    53.03770087211014
                ]
            }
        },
        {
            "type": "Feature",
            "properties": {
                "ref:csioz": 1103111,
                "name": "Apteka Osiedlowa Nowa Farmacja",
                "addr:street": "Bartosza Głowackiego",
                "addr:housenumber": "2",
                "addr:city": "Toruń",
                "addr:postcode": "87-100",
                "amenity": "pharmacy"
            },
            "geometry": {
                "type": "Point",
                "coordinates": [
                    18.60520470839287,
                    53.02086306247046
                ]
            }
        },
        {
            "type": "Feature",
            "properties": {
                "ref:csioz": 1103122,
                "name": "Apteka Prima",
                "addr:street": "Bażyńskich",
                "addr:housenumber": "40a",
                "addr:city": "Toruń",
                "addr:postcode": "87-100",
                "amenity": "pharmacy"
            },
            "geometry": {
                "type": "Point",
                "coordinates": [
                    18.62130304568213,
                    53.02166829456388
                ]
            }
        },
        {
            "type": "Feature",
            "properties": {
                "ref:csioz": 1103133,
                "name": "Apteka Pod Łabędziem",
                "addr:street": "Tadeusza Kościuszki",
                "addr:housenumber": "43",
                "addr:city": "Toruń",
                "addr:postcode": "87-100",
                "amenity": "pharmacy"
            },
            "geometry": {
                "type": "Point",
                "coordinates": [
                    18.619135875579964,
                    53.02419305911783
                ]
            }
        },
        {
            "type": "Feature",
            "properties": {
                "ref:csioz": 1103230,
                "name": "Dr.Max",
                "addr:street": "Grudziądzka",
                "addr:housenumber": "162",
                "addr:city": "Toruń",
                "addr:postcode": "87-100",
                "amenity": "pharmacy"
            },
            "geometry": {
                "type": "Point",
                "coordinates": [
                    18.61455699999984,
                    53.03497000001714
                ]
            }
        },
        {
            "type": "Feature",
            "properties": {
                "ref:csioz": 1103249,
                "name": "Pod Słońcem",
                "addr:street": "Powstańców Śląskich",
                "addr:housenumber": "5",
                "addr:city": "Toruń",
                "addr:postcode": "87-100",
                "amenity": "pharmacy"
            },
            "geometry": {
                "type": "Point",
                "coordinates": [
                    18.617787499605964,
                    52.99434977000492
                ]
            }
        },
        {
            "type": "Feature",
            "properties": {
                "ref:csioz": 1103258,
                "name": "Super-Pharm",
                "addr:street": "Czerwona Droga",
                "addr:housenumber": "1",
                "addr:city": "Toruń",
                "addr:postcode": "87-100",
                "amenity": "pharmacy"
            },
            "geometry": {
                "type": "Point",
                "coordinates": [
                    18.600392999999844,
                    53.015006000017095
                ]
            }
        },
        {
            "type": "Feature",
            "properties": {
                "ref:csioz": 1103274,
                "name": "Apteka Podgórna",
                "addr:street": "Podgórna",
                "addr:housenumber": "13d",
                "addr:city": "Toruń",
                "addr:postcode": "87-100",
                "amenity": "pharmacy"
            },
            "geometry": {
                "type": "Point",
                "coordinates": [
                    18.599064999999847,
                    53.02263000001711
                ]
            }
        },
        {
            "type": "Feature",
            "properties": {
                "ref:csioz": 1103564,
                "name": "Różana",
                "addr:street": "Olsztyńska",
                "addr:housenumber": "50",
                "addr:city": "Toruń",
                "addr:postcode": "87-100",
                "amenity": "pharmacy"
            },
            "geometry": {
                "type": "Point",
                "coordinates": [
                    18.69729141137575,
                    53.04018874671683
                ]
            }
        },
        {
            "type": "Feature",
            "properties": {
                "ref:csioz": 1103586,
                "name": "Kosmy I Damiana",
                "addr:street": "Leona Szumana",
                "addr:housenumber": "2",
                "addr:city": "Toruń",
                "addr:postcode": "87-100",
                "amenity": "pharmacy"
            },
            "geometry": {
                "type": "Point",
                "coordinates": [
                    18.61184334255697,
                    53.01313163001718
                ]
            }
        },
        {
            "type": "Feature",
            "properties": {
                "ref:csioz": 1103799,
                "name": "Toruńska",
                "addr:street": "Szosa Chełmińska",
                "addr:housenumber": "84/86",
                "addr:city": "Toruń",
                "addr:postcode": "87-100",
                "amenity": "pharmacy"
            },
            "geometry": {
                "type": "Point",
                "coordinates": [
                    18.59572799999984,
                    53.02245400001712
                ]
            }
        },
        {
            "type": "Feature",
            "properties": {
                "ref:csioz": 1105633,
                "name": "Dział Farmacji Szpitalnej Prywatnego Centrum Chirurgii Jacek Winczakiewicz Marek Borkiewicz",
                "addr:street": "Hugona Kołłątaja",
                "addr:housenumber": "10a",
                "addr:city": "Toruń",
                "addr:postcode": "87-100",
                "amenity": "pharmacy"
            },
            "geometry": {
                "type": "Point",
                "coordinates": [
                    18.599257968859146,
                    53.023354170774354
                ]
            }
        },
        {
            "type": "Feature",
            "properties": {
                "ref:csioz": 1105640,
                "name": "Dział Farmacji Szpitalnej Szpitala Specjalistycznego Matopat Niepublicznego Zakładu Opieki Zdrowotnej W Toruniu",
                "addr:street": "Storczykowa",
                "addr:housenumber": "8/10",
                "addr:city": "Toruń",
                "addr:postcode": "87-100",
                "amenity": "pharmacy"
            },
            "geometry": {
                "type": "Point",
                "coordinates": [
                    18.584170366661873,
                    53.04132554157927
                ]
            }
        },
        {
            "type": "Feature",
            "properties": {
                "ref:csioz": 1105654,
                "name": "Wojewódzki Szpital Zespolony Im. Ludwika Rydygiera W Toruniu",
                "addr:street": "Marii Skłodowskiej-Curie",
                "addr:housenumber": "27",
                "addr:city": "Toruń",
                "addr:postcode": "87-100",
                "amenity": "pharmacy"
            },
            "geometry": {
                "type": "Point",
                "coordinates": [
                    18.638263595126055,
                    53.02777666175873
                ]
            }
        },
        {
            "type": "Feature",
            "properties": {
                "ref:csioz": 1110423,
                "name": "Prywatna Specjalistyczna Przychodnia Lekarska Nowak & Nowak -Sp. Z O.O.",
                "addr:street": "Jana Dekerta",
                "addr:housenumber": "1",
                "addr:city": "Toruń",
                "addr:postcode": "87-100",
                "amenity": "pharmacy"
            },
            "geometry": {
                "type": "Point",
                "coordinates": [
                    18.60094065588325,
                    53.01975820668892
                ]
            }
        },
        {
            "type": "Feature",
            "properties": {
                "ref:csioz": 1153406,
                "name": "Apteka Szpitalna I Wojewódzkiego Szpitala Zespolonego Im. Ludwika Rydygiera W Toruniu",
                "addr:street": "św. Józefa",
                "addr:housenumber": "53",
                "addr:city": "Toruń",
                "addr:postcode": "87-100",
                "amenity": "pharmacy"
            },
            "geometry": {
                "type": "Point",
                "coordinates": [
                    18.58305499999983,
                    53.02679500001711
                ]
            }
        },
        {
            "type": "Feature",
            "properties": {
                "ref:csioz": 1170130,
                "name": "Wojewódzki Ośrodek Terapii Uzależnień I Współuzależnienia W Toruniu",
                "addr:street": "Włocławska",
                "addr:housenumber": "233",
                "addr:city": "Toruń",
                "addr:postcode": "87-100",
                "amenity": "pharmacy"
            },
            "geometry": {
                "type": "Point",
                "coordinates": [
                    18.686943250229074,
                    52.98242194020109
                ]
            }
        },
        {
            "type": "Feature",
            "properties": {
                "ref:csioz": 1172168,
                "name": "Zakład Pielęgnacyjno-Opiekuńczy Im. Ks. Jerzego Popiełuszki W Toruniu",
                "addr:street": "Ligi Polskiej",
                "addr:housenumber": "8",
                "addr:city": "Toruń",
                "addr:postcode": "87-100",
                "amenity": "pharmacy"
            },
            "geometry": {
                "type": "Point",
                "coordinates": [
                    18.687060778577166,
                    53.024894567817995
                ]
            }
        },
        {
            "type": "Feature",
            "properties": {
                "ref:csioz": 1179161,
                "name": "Doz Apteka Dbam O Zdrowie",
                "addr:street": "Bolesława Chrobrego",
                "addr:housenumber": "1",
                "addr:city": "Toruń",
                "addr:postcode": "87-100",
                "amenity": "pharmacy"
            },
            "geometry": {
                "type": "Point",
                "coordinates": [
                    18.617743210656325,
                    53.01636187185198
                ]
            }
        },
        {
            "type": "Feature",
            "properties": {
                "ref:csioz": 1195389,
                "name": "Arnica",
                "addr:street": "Tadeusza Kościuszki",
                "addr:housenumber": "71",
                "addr:city": "Toruń",
                "addr:postcode": "87-100",
                "amenity": "pharmacy"
            },
            "geometry": {
                "type": "Point",
                "coordinates": [
                    18.624947999999854,
                    53.02506400001712
                ]
            }
        },
        {
            "type": "Feature",
            "properties": {
                "ref:csioz": 1205510,
                "name": "Apteka Bliska Tobie",
                "addr:street": "Kwiatowa",
                "addr:housenumber": "1",
                "addr:city": "Toruń",
                "addr:postcode": "87-100",
                "amenity": "pharmacy"
            },
            "geometry": {
                "type": "Point",
                "coordinates": [
                    18.580719640264256,
                    53.04276521152195
                ]
            }
        },
        {
            "type": "Feature",
            "properties": {
                "ref:csioz": 1209536,
                "name": "Apteka Gemini",
                "addr:street": "Władysława Dziewulskiego",
                "addr:housenumber": "8",
                "addr:city": "Toruń",
                "addr:postcode": "87-100",
                "amenity": "pharmacy"
            },
            "geometry": {
                "type": "Point",
                "coordinates": [
                    18.6714633138676,
                    53.02825855042765
                ]
            }
        },
        {
            "type": "Feature",
            "properties": {
                "ref:csioz": 1099091,
                "name": "Apteka Dbam O Zdrowie",
                "addr:street": "Adama Mickiewicza",
                "addr:housenumber": "98",
                "addr:city": "Toruń",
                "addr:postcode": "87-100",
                "amenity": "pharmacy"
            },
            "geometry": {
                "type": "Point",
                "coordinates": [
                    18.57962942024903,
                    53.01198372075334
                ]
            }
        },
        {
            "type": "Feature",
            "properties": {
                "ref:csioz": 1101005,
                "name": "Apteka Z Uśmiechem",
                "addr:street": "Mikołaja Reja",
                "addr:housenumber": "15",
                "addr:city": "Toruń",
                "addr:postcode": "87-100",
                "amenity": "pharmacy"
            },
            "geometry": {
                "type": "Point",
                "coordinates": [
                    18.57084336686483,
                    53.01305181494303
                ]
            }
        },
        {
            "type": "Feature",
            "properties": {
                "ref:csioz": 1101047,
                "name": "Apteka Dbam O Zdrowie",
                "addr:street": "Rynek Nowomiejski",
                "addr:housenumber": "13",
                "addr:city": "Toruń",
                "addr:postcode": "87-100",
                "amenity": "pharmacy"
            },
            "geometry": {
                "type": "Point",
                "coordinates": [
                    18.610346265378542,
                    53.01149605342749
                ]
            }
        },
        {
            "type": "Feature",
            "properties": {
                "ref:csioz": 1101083,
                "name": "Euro-Apteka Centrum Farmaceutyczne",
                "addr:street": "Olsztyńska",
                "addr:housenumber": "12",
                "addr:city": "Toruń",
                "addr:postcode": "87-100",
                "amenity": "pharmacy"
            },
            "geometry": {
                "type": "Point",
                "coordinates": [
                    18.696125275700393,
                    53.0226627853249
                ]
            }
        },
        {
            "type": "Feature",
            "properties": {
                "ref:csioz": 1101094,
                "addr:street": "św. Józefa",
                "addr:housenumber": "53",
                "addr:city": "Toruń",
                "addr:postcode": "87-100",
                "amenity": "pharmacy"
            },
            "geometry": {
                "type": "Point",
                "coordinates": [
                    18.58305499999983,
                    53.02679500001711
                ]
            }
        },
        {
            "type": "Feature",
            "properties": {
                "ref:csioz": 1101107,
                "name": "Euro Apteka",
                "addr:street": "Plac 18 Stycznia",
                "addr:housenumber": "4",
                "addr:city": "Toruń",
                "addr:postcode": "87-100",
                "amenity": "pharmacy"
            },
            "geometry": {
                "type": "Point",
                "coordinates": [
                    18.619670070145737,
                    53.01188346632074
                ]
            }
        },
        {
            "type": "Feature",
            "properties": {
                "ref:csioz": 1101413,
                "name": "Apteka Dbam O Zdrowie",
                "addr:street": "Władysława Dziewulskiego",
                "addr:housenumber": "12",
                "addr:city": "Toruń",
                "addr:postcode": "87-100",
                "amenity": "pharmacy"
            },
            "geometry": {
                "type": "Point",
                "coordinates": [
                    18.67253032124385,
                    53.02813271639234
                ]
            }
        },
        {
            "type": "Feature",
            "properties": {
                "ref:csioz": 1101421,
                "name": "Apteka Dbam O Zdrowie",
                "addr:street": "Joachima Lelewela",
                "addr:housenumber": "29-43",
                "addr:city": "Toruń",
                "addr:postcode": "87-100",
                "amenity": "pharmacy"
            },
            "geometry": {
                "type": "Point",
                "coordinates": [
                    18.610345328203607,
                    53.024045529318364
                ]
            }
        },
        {
            "type": "Feature",
            "properties": {
                "ref:csioz": 1102722,
                "name": "Mediq Apteka Corda",
                "addr:street": "Ignacego Łyskowskiego",
                "addr:housenumber": "8",
                "addr:city": "Toruń",
                "addr:postcode": "87-100",
                "amenity": "pharmacy"
            },
            "geometry": {
                "type": "Point",
                "coordinates": [
                    18.6643648377328,
                    53.025645483643046
                ]
            }
        },
        {
            "type": "Feature",
            "properties": {
                "ref:csioz": 1102733,
                "name": "Dr. Max",
                "addr:street": "Ludwika Ślaskiego",
                "addr:housenumber": "7",
                "addr:city": "Toruń",
                "addr:postcode": "87-100",
                "amenity": "pharmacy"
            },
            "geometry": {
                "type": "Point",
                "coordinates": [
                    18.67518099999987,
                    53.02403800001709
                ]
            }
        },
        {
            "type": "Feature",
            "properties": {
                "ref:csioz": 1102740,
                "name": "Mediq Apteka Corda",
                "addr:street": "Adama Mickiewicza",
                "addr:housenumber": "79",
                "addr:city": "Toruń",
                "addr:postcode": "87-100",
                "amenity": "pharmacy"
            },
            "geometry": {
                "type": "Point",
                "coordinates": [
                    18.5785046786075,
                    53.01178757083418
                ]
            }
        },
        {
            "type": "Feature",
            "properties": {
                "ref:csioz": 1102885,
                "name": "Na Koniuchach",
                "addr:street": "Legionów",
                "addr:housenumber": "216e",
                "addr:city": "Toruń",
                "addr:postcode": "87-100",
                "amenity": "pharmacy"
            },
            "geometry": {
                "type": "Point",
                "coordinates": [
                    18.601964116547872,
                    53.03234300179527
                ]
            }
        },
        {
            "type": "Feature",
            "properties": {
                "ref:csioz": 1102947,
                "name": "Konwalia",
                "addr:street": "Migdałowa",
                "addr:housenumber": "15",
                "addr:city": "Toruń",
                "addr:postcode": "87-100",
                "amenity": "pharmacy"
            },
            "geometry": {
                "type": "Point",
                "coordinates": [
                    18.580146686280024,
                    53.043114385790126
                ]
            }
        },
        {
            "type": "Feature",
            "properties": {
                "ref:csioz": 1102994,
                "name": "Im. J. Korczaka",
                "addr:street": "Ignacego Łyskowskiego",
                "addr:housenumber": "29",
                "addr:city": "Toruń",
                "addr:postcode": "87-100",
                "amenity": "pharmacy"
            },
            "geometry": {
                "type": "Point",
                "coordinates": [
                    18.657501999999866,
                    53.02797000001712
                ]
            }
        },
        {
            "type": "Feature",
            "properties": {
                "ref:csioz": 1103002,
                "name": "\"Apteka 'Nova' S.C.\"",
                "addr:street": "Józefa Wybickiego",
                "addr:housenumber": "47",
                "addr:city": "Toruń",
                "addr:postcode": "87-100",
                "amenity": "pharmacy"
            },
            "geometry": {
                "type": "Point",
                "coordinates": [
                    18.600885012876866,
                    53.02596530431625
                ]
            }
        },
        {
            "type": "Feature",
            "properties": {
                "ref:csioz": 1103028,
                "name": "Herba",
                "addr:street": "Józefa Ignacego Kraszewskiego",
                "addr:housenumber": "32",
                "addr:city": "Toruń",
                "addr:postcode": "87-100",
                "amenity": "pharmacy"
            },
            "geometry": {
                "type": "Point",
                "coordinates": [
                    18.592370087998813,
                    53.01435479510517
                ]
            }
        },
        {
            "type": "Feature",
            "properties": {
                "ref:csioz": 1103140,
                "name": "Eskulap",
                "addr:street": "Adama Mickiewicza",
                "addr:housenumber": "55",
                "addr:city": "Toruń",
                "addr:postcode": "87-100",
                "amenity": "pharmacy"
            },
            "geometry": {
                "type": "Point",
                "coordinates": [
                    18.58332299999983,
                    53.011758000017096
                ]
            }
        },
        {
            "type": "Feature",
            "properties": {
                "ref:csioz": 1103154,
                "name": "Panaceum",
                "addr:street": "Odrodzenia",
                "addr:housenumber": "1",
                "addr:city": "Toruń",
                "addr:postcode": "87-100",
                "amenity": "pharmacy"
            },
            "geometry": {
                "type": "Point",
                "coordinates": [
                    18.602476999999844,
                    53.01558100001709
                ]
            }
        },
        {
            "type": "Feature",
            "properties": {
                "ref:csioz": 1103165,
                "name": "Adoloran",
                "addr:street": "Konstytucji 3 Maja",
                "addr:housenumber": "31",
                "addr:city": "Toruń",
                "addr:postcode": "87-100",
                "amenity": "pharmacy"
            },
            "geometry": {
                "type": "Point",
                "coordinates": [
                    18.689974586987727,
                    53.0232986244761
                ]
            }
        },
        {
            "type": "Feature",
            "properties": {
                "ref:csioz": 1103187,
                "name": "Apteka Akademicka Nowa Farmacja",
                "addr:street": "Jurija Gagarina",
                "addr:housenumber": "212-216",
                "addr:city": "Toruń",
                "addr:postcode": "87-100",
                "amenity": "pharmacy"
            },
            "geometry": {
                "type": "Point",
                "coordinates": [
                    18.58003820734541,
                    53.017988367280985
                ]
            }
        },
        {
            "type": "Feature",
            "properties": {
                "ref:csioz": 1103201,
                "name": "Farma-Vita",
                "addr:street": "Adama Mickiewicza",
                "addr:housenumber": "80",
                "addr:city": "Toruń",
                "addr:postcode": "87-100",
                "amenity": "pharmacy"
            },
            "geometry": {
                "type": "Point",
                "coordinates": [
                    18.58242117864305,
                    53.0120046159963
                ]
            }
        },
        {
            "type": "Feature",
            "properties": {
                "ref:csioz": 1103217,
                "name": "Centralna",
                "addr:street": "Szeroka",
                "addr:housenumber": "30",
                "addr:city": "Toruń",
                "addr:postcode": "87-100",
                "amenity": "pharmacy"
            },
            "geometry": {
                "type": "Point",
                "coordinates": [
                    18.606240425916663,
                    53.01047285731959
                ]
            }
        },
        {
            "type": "Feature",
            "properties": {
                "ref:csioz": 1103418,
                "name": "Dr.Max",
                "addr:street": "Kosynierów Kościuszkowskich",
                "addr:housenumber": "13",
                "addr:city": "Toruń",
                "addr:postcode": "87-100",
                "amenity": "pharmacy"
            },
            "geometry": {
                "type": "Point",
                "coordinates": [
                    18.694942569253282,
                    53.025006125554604
                ]
            }
        },
        {
            "type": "Feature",
            "properties": {
                "ref:csioz": 1103670,
                "name": "Dr. Max",
                "addr:street": "Bażyńskich",
                "addr:housenumber": "16-20",
                "addr:city": "Toruń",
                "addr:postcode": "87-100",
                "amenity": "pharmacy"
            },
            "geometry": {
                "type": "Point",
                "coordinates": [
                    18.6156759129932,
                    53.020941392305694
                ]
            }
        },
        {
            "type": "Feature",
            "properties": {
                "ref:csioz": 1103681,
                "name": "Dr. Max",
                "addr:street": "Kosynierów Kościuszkowskich",
                "addr:housenumber": "4",
                "addr:city": "Toruń",
                "addr:postcode": "87-100",
                "amenity": "pharmacy"
            },
            "geometry": {
                "type": "Point",
                "coordinates": [
                    18.69271667180718,
                    53.02776911622062
                ]
            }
        },
        {
            "type": "Feature",
            "properties": {
                "ref:csioz": 1103748,
                "name": "Apteka Rudak",
                "addr:street": "Podgórska",
                "addr:housenumber": "24a",
                "addr:city": "Toruń",
                "addr:postcode": "87-100",
                "amenity": "pharmacy"
            },
            "geometry": {
                "type": "Point",
                "coordinates": [
                    18.642000647243506,
                    53.00120038092752
                ]
            }
        },
        {
            "type": "Feature",
            "properties": {
                "ref:csioz": 1118188,
                "name": "\"Zakład Opiekuńczo-Leczniczy Fundacji \"\"Światło\"\"\"",
                "addr:street": "Grunwaldzka",
                "addr:housenumber": "64",
                "addr:city": "Toruń",
                "addr:postcode": "87-100",
                "amenity": "pharmacy"
            },
            "geometry": {
                "type": "Point",
                "coordinates": [
                    18.576659778721908,
                    53.02725767995122
                ]
            }
        },
        {
            "type": "Feature",
            "properties": {
                "ref:csioz": 1153411,
                "name": "Apteka Szpitalna Ii Wojewódzkiego Szpitala Zespolonego Im. Ludwika Rydygiera W Toruniu",
                "addr:street": "Konstytucji 3 Maja",
                "addr:housenumber": "42",
                "addr:city": "Toruń",
                "addr:postcode": "87-100",
                "amenity": "pharmacy"
            },
            "geometry": {
                "type": "Point",
                "coordinates": [
                    18.691829063510877,
                    53.02246159498415
                ]
            }
        },
        {
            "type": "Feature",
            "properties": {
                "ref:csioz": 1153422,
                "name": "Apteka Szpitalna Iii Wojewódzkiego Szpitala Zespolonego Im. Ludwika Rydygiera W Toruniu",
                "addr:street": "Zygmunta Krasińskiego",
                "addr:housenumber": "4",
                "addr:city": "Toruń",
                "addr:postcode": "87-100",
                "amenity": "pharmacy"
            },
            "geometry": {
                "type": "Point",
                "coordinates": [
                    18.594822567251743,
                    53.01077035309996
                ]
            }
        },
        {
            "type": "Feature",
            "properties": {
                "ref:csioz": 1153433,
                "name": "Apteka Szpitalna Specjalistycznego Szpitala Miejskiego Im. M. Kopernika W Toruniu",
                "addr:street": "Stefana Batorego",
                "addr:housenumber": "17",
                "addr:city": "Toruń",
                "addr:postcode": "87-100",
                "amenity": "pharmacy"
            },
            "geometry": {
                "type": "Point",
                "coordinates": [
                    18.622500999999847,
                    53.02242600001712
                ]
            }
        },
        {
            "type": "Feature",
            "properties": {
                "ref:csioz": 1164031,
                "name": "Przychodnie Lekarskie Hipokrates - Spółka Z Ograniczoną Odpowiedzialnością",
                "addr:street": "Jana Dekerta",
                "addr:housenumber": "1",
                "addr:city": "Toruń",
                "addr:postcode": "87-100",
                "amenity": "pharmacy"
            },
            "geometry": {
                "type": "Point",
                "coordinates": [
                    18.60094065588325,
                    53.01975820668892
                ]
            }
        },
        {
            "type": "Feature",
            "properties": {
                "ref:csioz": 1167918,
                "name": "Bliska",
                "addr:street": "Juliana Fałata",
                "addr:housenumber": "35",
                "addr:city": "Toruń",
                "addr:postcode": "87-100",
                "amenity": "pharmacy"
            },
            "geometry": {
                "type": "Point",
                "coordinates": [
                    18.570057999999822,
                    53.0149340000171
                ]
            }
        },
        {
            "type": "Feature",
            "properties": {
                "ref:csioz": 1170045,
                "name": "Lecznice Citomed Sp. Z O.O.",
                "addr:street": "Marii Skłodowskiej-Curie",
                "addr:housenumber": "73",
                "addr:city": "Toruń",
                "addr:postcode": "87-100",
                "amenity": "pharmacy"
            },
            "geometry": {
                "type": "Point",
                "coordinates": [
                    18.65889189985758,
                    53.03770087211014
                ]
            }
        },
        {
            "type": "Feature",
            "properties": {
                "ref:csioz": 1173919,
                "name": "\"'Medapteka'\"",
                "addr:street": "Królowej Jadwigi",
                "addr:housenumber": "26",
                "addr:city": "Toruń",
                "addr:postcode": "87-100",
                "amenity": "pharmacy"
            },
            "geometry": {
                "type": "Point",
                "coordinates": [
                    18.608968426790323,
                    53.010840217064946
                ]
            }
        },
        {
            "type": "Feature",
            "properties": {
                "ref:csioz": 1174500,
                "name": "\"'Medapteka'\"",
                "addr:street": "Władysława Dziewulskiego",
                "addr:housenumber": "21",
                "addr:city": "Toruń",
                "addr:postcode": "87-100",
                "amenity": "pharmacy"
            },
            "geometry": {
                "type": "Point",
                "coordinates": [
                    18.67408099090948,
                    53.02863412827483
                ]
            }
        },
        {
            "type": "Feature",
            "properties": {
                "ref:csioz": 1175440,
                "name": "Apteka Pogodna",
                "addr:street": "Poznańska",
                "addr:housenumber": "25-29",
                "addr:city": "Toruń",
                "addr:postcode": "87-100",
                "amenity": "pharmacy"
            },
            "geometry": {
                "type": "Point",
                "coordinates": [
                    18.601246144774063,
                    52.99519287210113
                ]
            }
        },
        {
            "type": "Feature",
            "properties": {
                "ref:csioz": 1176608,
                "name": "Hebeapteka",
                "addr:street": "Władysława Dziewulskiego",
                "addr:housenumber": "10",
                "addr:city": "Toruń",
                "addr:postcode": "87-100",
                "amenity": "pharmacy"
            },
            "geometry": {
                "type": "Point",
                "coordinates": [
                    18.672164574591392,
                    53.02828607498425
                ]
            }
        },
        {
            "type": "Feature",
            "properties": {
                "ref:csioz": 1178634,
                "name": "Doz Apteka Dbam O Zdrowie",
                "addr:street": "Konstytucji 3 Maja",
                "addr:housenumber": "10",
                "addr:city": "Toruń",
                "addr:postcode": "87-100",
                "amenity": "pharmacy"
            },
            "geometry": {
                "type": "Point",
                "coordinates": [
                    18.67706210156829,
                    53.02308208742339
                ]
            }
        },
        {
            "type": "Feature",
            "properties": {
                "ref:csioz": 1180458,
                "name": "Euro-Apteka",
                "addr:street": "Żółkiewskiego",
                "addr:housenumber": "15",
                "addr:city": "Toruń",
                "addr:postcode": "87-100",
                "amenity": "pharmacy"
            },
            "geometry": {
                "type": "Point",
                "coordinates": [
                    18.63746199999986,
                    53.02480800001711
                ]
            }
        },
        {
            "type": "Feature",
            "properties": {
                "ref:csioz": 1187586,
                "name": "Medapteka",
                "addr:street": "Adama Mickiewicza",
                "addr:housenumber": "116",
                "addr:city": "Toruń",
                "addr:postcode": "87-100",
                "amenity": "pharmacy"
            },
            "geometry": {
                "type": "Point",
                "coordinates": [
                    18.57651099379765,
                    53.01196857515775
                ]
            }
        },
        {
            "type": "Feature",
            "properties": {
                "ref:csioz": 1188830,
                "name": "Apteka Zdrufko",
                "addr:street": "Leszczynowa",
                "addr:housenumber": "3",
                "addr:city": "Toruń",
                "addr:postcode": "87-100",
                "amenity": "pharmacy"
            },
            "geometry": {
                "type": "Point",
                "coordinates": [
                    18.65233528579102,
                    53.02671842469605
                ]
            }
        },
        {
            "type": "Feature",
            "properties": {
                "ref:csioz": 1195271,
                "name": "Apteka Bliska Tobie",
                "addr:street": "Poznańska",
                "addr:housenumber": "73",
                "addr:city": "Toruń",
                "addr:postcode": "87-100",
                "amenity": "pharmacy"
            },
            "geometry": {
                "type": "Point",
                "coordinates": [
                    18.593520853457434,
                    52.9936937574927
                ]
            }
        },
        {
            "type": "Feature",
            "properties": {
                "ref:csioz": 1193017,
                "name": "Gemini",
                "addr:street": "Królowej Jadwigi",
                "addr:housenumber": "9",
                "addr:city": "Toruń",
                "addr:postcode": "87-100",
                "amenity": "pharmacy"
            },
            "geometry": {
                "type": "Point",
                "coordinates": [
                    18.609693192639842,
                    53.011138277931686
                ]
            }
        },
        {
            "type": "Feature",
            "properties": {
                "ref:csioz": 1197822,
                "name": "Apteka Zdrufko",
                "addr:street": "Władysława Dziewulskiego",
                "addr:housenumber": "23",
                "addr:city": "Toruń",
                "addr:postcode": "87-100",
                "amenity": "pharmacy"
            },
            "geometry": {
                "type": "Point",
                "coordinates": [
                    18.67454473342076,
                    53.02827357642638
                ]
            }
        },
        {
            "type": "Feature",
            "properties": {
                "ref:csioz": 1197667,
                "name": "\"Zespół Opieki Paliatywnej Im. Jana Pawła Ii Hospicjum \"\"Światło\"\" Oddział Opieki Stacjonarnej\"",
                "addr:street": "Grunwaldzka",
                "addr:housenumber": "64",
                "addr:city": "Toruń",
                "addr:postcode": "87-100",
                "amenity": "pharmacy"
            },
            "geometry": {
                "type": "Point",
                "coordinates": [
                    18.576659778721908,
                    53.02725767995122
                ]
            }
        },
        {
            "type": "Feature",
            "properties": {
                "ref:csioz": 1197961,
                "name": "Dr.Max",
                "addr:street": "gen. Józefa Bema",
                "addr:housenumber": "44-58",
                "addr:city": "Toruń",
                "addr:postcode": "87-100",
                "amenity": "pharmacy"
            },
            "geometry": {
                "type": "Point",
                "coordinates": [
                    18.589504403123932,
                    53.01685464530568
                ]
            }
        },
        {
            "type": "Feature",
            "properties": {
                "ref:csioz": 1203416,
                "name": "Apteka Puls 10",
                "addr:street": "Juliana Fałata",
                "addr:housenumber": "34/46",
                "addr:city": "Toruń",
                "addr:postcode": "87-100",
                "amenity": "pharmacy"
            },
            "geometry": {
                "type": "Point",
                "coordinates": [
                    18.570308999999835,
                    53.01550800001709
                ]
            }
        },
        {
            "type": "Feature",
            "properties": {
                "ref:csioz": 1204719,
                "name": "Apteka Bliska Tobie",
                "addr:street": "Wojska Polskiego",
                "addr:housenumber": "43",
                "addr:city": "Toruń",
                "addr:postcode": "87-100",
                "amenity": "pharmacy"
            },
            "geometry": {
                "type": "Point",
                "coordinates": [
                    18.617869999999854,
                    53.01968400001711
                ]
            }
        },
        {
            "type": "Feature",
            "properties": {
                "ref:csioz": 1204992,
                "name": "\"'Pharmaland'\"",
                "addr:street": "Władysława Broniewskiego",
                "addr:housenumber": "90",
                "addr:city": "Toruń",
                "addr:postcode": "87-100",
                "amenity": "pharmacy"
            },
            "geometry": {
                "type": "Point",
                "coordinates": [
                    18.561195324561357,
                    53.0144309581247
                ]
            }
        },
        {
            "type": "Feature",
            "properties": {
                "ref:csioz": 1206135,
                "name": "Apteka Gemini",
                "addr:street": "Konstytucji 3 Maja",
                "addr:housenumber": "10",
                "addr:city": "Toruń",
                "addr:postcode": "87-100",
                "amenity": "pharmacy"
            },
            "geometry": {
                "type": "Point",
                "coordinates": [
                    18.67706210156829,
                    53.02308208742339
                ]
            }
        },
        {
            "type": "Feature",
            "properties": {
                "ref:csioz": 1206291,
                "name": "Apteka Zdrufko",
                "addr:street": "Ligi Polskiej",
                "addr:housenumber": "12",
                "addr:city": "Toruń",
                "addr:postcode": "87-100",
                "amenity": "pharmacy"
            },
            "geometry": {
                "type": "Point",
                "coordinates": [
                    18.687339495713992,
                    53.02410920140707
                ]
            }
        },
        {
            "type": "Feature",
            "properties": {
                "ref:csioz": 1208173,
                "name": "Apteka Puls",
                "addr:street": "Ludwika Rydygiera",
                "addr:housenumber": "26B",
                "addr:city": "Toruń",
                "addr:postcode": "87-100",
                "amenity": "pharmacy"
            },
            "geometry": {
                "type": "Point",
                "coordinates": [
                    18.65341296781602,
                    53.02956108338523
                ]
            }
        },
        {
            "type": "Feature",
            "properties": {
                "ref:csioz": 1210074,
                "name": "Medapteka",
                "addr:street": "Kardynała Stefana Wyszyńskiego",
                "addr:housenumber": "6",
                "addr:city": "Toruń",
                "addr:postcode": "87-100",
                "amenity": "pharmacy"
            },
            "geometry": {
                "type": "Point",
                "coordinates": [
                    18.681461999999872,
                    53.02421900001711
                ]
            }
        },
        {
            "type": "Feature",
            "properties": {
                "ref:csioz": 1215237,
                "name": "Apteka Puls",
                "addr:street": "Szosa Chełmińska",
                "addr:housenumber": "254/258",
                "addr:city": "Toruń",
                "addr:postcode": "87-100",
                "amenity": "pharmacy"
            },
            "geometry": {
                "type": "Point",
                "coordinates": [
                    18.577747999999826,
                    53.04686100001714
                ]
            }
        },
        {
            "type": "Feature",
            "properties": {
                "ref:csioz": 1221671,
                "name": "Viola",
                "addr:street": "Franciszka Tadeusza Rakowicza",
                "addr:housenumber": "4",
                "addr:city": "Toruń",
                "addr:postcode": "87-100",
                "amenity": "pharmacy"
            },
            "geometry": {
                "type": "Point",
                "coordinates": [
                    18.661853889011812,
                    53.03069824321137
                ]
            }
        },
        {
            "type": "Feature",
            "properties": {
                "ref:csioz": 1222511,
                "name": "Mika",
                "addr:street": "Łukasza Watzenrodego",
                "addr:housenumber": "2",
                "addr:city": "Toruń",
                "addr:postcode": "87-100",
                "amenity": "pharmacy"
            },
            "geometry": {
                "type": "Point",
                "coordinates": [
                    18.59959492531098,
                    53.04082782179075
                ]
            }
        },
        {
            "type": "Feature",
            "properties": {
                "ref:csioz": 1223365,
                "name": "Z Uśmiechem",
                "addr:street": "Kardynała Stefana Wyszyńskiego",
                "addr:housenumber": "19",
                "addr:city": "Toruń",
                "addr:postcode": "87-100",
                "amenity": "pharmacy"
            },
            "geometry": {
                "type": "Point",
                "coordinates": [
                    18.680030361579497,
                    53.01888125018731
                ]
            }
        },
        {
            "type": "Feature",
            "properties": {
                "ref:csioz": 1223379,
                "name": "Z Uśmiechem",
                "addr:street": "Szosa Chełmińska",
                "addr:housenumber": "176",
                "addr:city": "Toruń",
                "addr:postcode": "87-100",
                "amenity": "pharmacy"
            },
            "geometry": {
                "type": "Point",
                "coordinates": [
                    18.587847285568085,
                    53.03326140382503
                ]
            }
        },
        {
            "type": "Feature",
            "properties": {
                "ref:csioz": 1223387,
                "name": "Dr.Max",
                "addr:street": "Szosa Bydgoska",
                "addr:housenumber": "26",
                "addr:city": "Toruń",
                "addr:postcode": "87-100",
                "amenity": "pharmacy"
            },
            "geometry": {
                "type": "Point",
                "coordinates": [
                    18.563959013540078,
                    53.012325275460434
                ]
            }
        },
        {
            "type": "Feature",
            "properties": {
                "ref:csioz": 1224345,
                "name": "Lubicka",
                "addr:street": "Lubicka",
                "addr:housenumber": "53",
                "addr:city": "Toruń",
                "addr:postcode": "87-100",
                "amenity": "pharmacy"
            },
            "geometry": {
                "type": "Point",
                "coordinates": [
                    18.63499102414303,
                    53.016916688264885
                ]
            }
        },
        {
            "type": "Feature",
            "properties": {
                "ref:csioz": 1229144,
                "name": "Zakład Opiekuńczo-Leczniczy Prowadzony Przez Ss. Serafitki",
                "addr:street": "Ignacego Paderewskiego",
                "addr:housenumber": "2",
                "addr:city": "Toruń",
                "addr:postcode": "87-100",
                "amenity": "pharmacy"
            },
            "geometry": {
                "type": "Point",
                "coordinates": [
                    18.591571949248802,
                    52.99050765763448
                ]
            }
        },
        {
            "type": "Feature",
            "properties": {
                "ref:csioz": 1170207,
                "name": "\"Niepubliczny Zakład Opieki Zdrowotnej Zakładu Opieki Paliatywno-Hospicyjnej Dla Dzieci \"\"Nadzieja\"\" W Toruniu\"",
                "addr:street": "Włocławska",
                "addr:housenumber": "169B",
                "addr:city": "Toruń",
                "addr:postcode": "87-100",
                "amenity": "pharmacy"
            },
            "geometry": {
                "type": "Point",
                "coordinates": [
                    18.66917911172469,
                    52.99093544921966
                ]
            }
        },
        {
            "type": "Feature",
            "properties": {
                "ref:csioz": 1102960,
                "name": "Puls Świętopełka",
                "addr:street": "Świętopełka",
                "addr:housenumber": "26",
                "addr:city": "Toruń",
                "addr:postcode": "87-100",
                "amenity": "pharmacy"
            },
            "geometry": {
                "type": "Point",
                "coordinates": [
                    18.61745741948031,
                    53.026349138362306
                ]
            }
        },
        {
            "type": "Feature",
            "properties": {
                "ref:csioz": 1103179,
                "name": "Puls Uniwersytecka",
                "addr:street": "Uniwersytecka",
                "addr:housenumber": "17",
                "addr:city": "Toruń",
                "addr:postcode": "87-100",
                "amenity": "pharmacy"
            },
            "geometry": {
                "type": "Point",
                "coordinates": [
                    18.605465975339687,
                    53.01540311328646
                ]
            }
        }
    ]
}