{
    "type": "FeatureCollection",
    "name": "JPT_KOD_JE_3011",
    "features": [
        {
            "type": "Feature",
            "properties": {
                "ref:csioz": 1043827,
                "name": "Remedium",
                "addr:housenumber": "117",
                "addr:postcode": "64-010",
                "amenity": "pharmacy",
                "addr:place": "Bieżyń"
            },
            "geometry": {
                "type": "Point",
                "coordinates": [
                    16.93841210626549,
                    51.97768024013969
                ]
            }
        },
        {
            "type": "Feature",
            "properties": {
                "ref:csioz": 1054543,
                "name": "Targowa",
                "addr:street": "SKARŻYNSKIEGO",
                "addr:housenumber": "8",
                "addr:city": "ŚMIGIEL",
                "addr:postcode": "64-030",
                "amenity": "pharmacy"
            },
            "geometry": {
                "type": "Point",
                "coordinates": [
                    16.521219243016162,
                    52.01431124363944
                ]
            }
        },
        {
            "type": "Feature",
            "properties": {
                "ref:csioz": 1222421,
                "name": "Bratek",
                "addr:street": "Kościańska",
                "addr:housenumber": "5",
                "addr:city": "Jerka",
                "addr:postcode": "64-010",
                "amenity": "pharmacy"
            },
            "geometry": {
                "type": "Point",
                "coordinates": [
                    16.848890579868783,
                    52.000372370773015
                ]
            }
        },
        {
            "type": "Feature",
            "properties": {
                "ref:csioz": 1054213,
                "name": "Śmigielska",
                "addr:street": "Doktora Skarzyńskiego",
                "addr:housenumber": "5A",
                "addr:city": "Śmigiel",
                "addr:postcode": "64-030",
                "amenity": "pharmacy"
            },
            "geometry": {
                "type": "Point",
                "coordinates": [
                    16.521854182371815,
                    52.014720060824274
                ]
            }
        },
        {
            "type": "Feature",
            "properties": {
                "ref:csioz": 1054394,
                "name": "Pod Wagami",
                "addr:street": "ROZSTRZELANYCH",
                "addr:housenumber": "15",
                "addr:city": "ŚMIGIEL",
                "addr:postcode": "64-030",
                "amenity": "pharmacy"
            },
            "geometry": {
                "type": "Point",
                "coordinates": [
                    16.526070834052422,
                    52.01283946556819
                ]
            }
        },
        {
            "type": "Feature",
            "properties": {
                "ref:csioz": 1054423,
                "name": "Melisa",
                "addr:street": "GŁÓWNA",
                "addr:housenumber": "37",
                "addr:city": "STARE BOJANOWO",
                "addr:postcode": "64-030",
                "amenity": "pharmacy"
            },
            "geometry": {
                "type": "Point",
                "coordinates": [
                    16.58338565565041,
                    51.99657003138449
                ]
            }
        },
        {
            "type": "Feature",
            "properties": {
                "ref:csioz": 1124528,
                "name": "Centrum Zdrowia",
                "addr:street": "Plac Rozstrzelanych",
                "addr:housenumber": "18",
                "addr:city": "Śmigiel",
                "addr:postcode": "64-030",
                "amenity": "pharmacy"
            },
            "geometry": {
                "type": "Point",
                "coordinates": [
                    16.526340906981584,
                    52.013105171453915
                ]
            }
        },
        {
            "type": "Feature",
            "properties": {
                "ref:csioz": 1224402,
                "name": "Krzywińska",
                "addr:street": "Generała Chłapowskiego",
                "addr:housenumber": "25A",
                "addr:city": "Krzywiń",
                "addr:postcode": "64-010",
                "amenity": "pharmacy"
            },
            "geometry": {
                "type": "Point",
                "coordinates": [
                    16.82394158056918,
                    51.960629246225274
                ]
            }
        },
        {
            "type": "Feature",
            "properties": {
                "ref:csioz": 1226305,
                "addr:housenumber": "44",
                "addr:postcode": "64-030",
                "amenity": "pharmacy",
                "addr:place": "Wonieść"
            },
            "geometry": {
                "type": "Point",
                "coordinates": [
                    16.688779706646667,
                    52.00325807078159
                ]
            }
        },
        {
            "type": "Feature",
            "properties": {
                "ref:csioz": 1043655,
                "name": "Św. Katarzyny",
                "addr:street": "im. Kazimierza Dobruckiego",
                "addr:housenumber": "4",
                "addr:city": "Głuchowo",
                "addr:postcode": "64-020",
                "amenity": "pharmacy"
            },
            "geometry": {
                "type": "Point",
                "coordinates": [
                    16.711508628160505,
                    52.177176007680714
                ]
            }
        },
        {
            "type": "Feature",
            "properties": {
                "ref:csioz": 1050078,
                "name": "Aspirynka",
                "addr:street": "Rynek",
                "addr:housenumber": "9",
                "addr:city": "Czempiń",
                "addr:postcode": "64-020",
                "amenity": "pharmacy"
            },
            "geometry": {
                "type": "Point",
                "coordinates": [
                    16.76187524750367,
                    52.14283802595801
                ]
            }
        },
        {
            "type": "Feature",
            "properties": {
                "ref:csioz": 1050086,
                "name": "Pod Wagą",
                "addr:street": "Rynek",
                "addr:housenumber": "26",
                "addr:city": "Czempiń",
                "addr:postcode": "64-020",
                "amenity": "pharmacy"
            },
            "geometry": {
                "type": "Point",
                "coordinates": [
                    16.761572263844574,
                    52.14352711196287
                ]
            }
        },
        {
            "type": "Feature",
            "properties": {
                "ref:csioz": 1054519,
                "name": "Arnica",
                "addr:street": "JAGIELLOŃSKIE",
                "addr:housenumber": "82C",
                "addr:city": "KOŚCIAN",
                "addr:postcode": "64-000",
                "amenity": "pharmacy"
            },
            "geometry": {
                "type": "Point",
                "coordinates": [
                    16.627089764339626,
                    52.07793760249015
                ]
            }
        },
        {
            "type": "Feature",
            "properties": {
                "ref:csioz": 1054524,
                "name": "Pod Złotym Moździerzem",
                "addr:street": "KOŚCIUSZKI",
                "addr:housenumber": "6",
                "addr:city": "KOŚCIAN",
                "addr:postcode": "64-100",
                "amenity": "pharmacy"
            },
            "geometry": {
                "type": "Point",
                "coordinates": [
                    16.642463529145232,
                    52.08404996175948
                ]
            }
        },
        {
            "type": "Feature",
            "properties": {
                "ref:csioz": 1054758,
                "name": "Apteka Dbam O Zdrowie",
                "addr:street": "ŚMIGIELSKA",
                "addr:housenumber": "53A",
                "addr:city": "KOŚCIAN",
                "addr:postcode": "64-100",
                "amenity": "pharmacy"
            },
            "geometry": {
                "type": "Point",
                "coordinates": [
                    16.624306083324342,
                    52.0755281016536
                ]
            }
        },
        {
            "type": "Feature",
            "properties": {
                "ref:csioz": 1054763,
                "name": "Apteka Dbam O Zdrowie",
                "addr:street": "KOŚCIUSZKI",
                "addr:housenumber": "9",
                "addr:city": "KOŚCIAN",
                "addr:postcode": "64-000",
                "amenity": "pharmacy"
            },
            "geometry": {
                "type": "Point",
                "coordinates": [
                    16.64448794354829,
                    52.08260498379742
                ]
            }
        },
        {
            "type": "Feature",
            "properties": {
                "ref:csioz": 1056061,
                "addr:street": "SZPITALNA",
                "addr:housenumber": "7",
                "addr:city": "KOŚCIAN",
                "addr:postcode": "64-000",
                "amenity": "pharmacy"
            },
            "geometry": {
                "type": "Point",
                "coordinates": [
                    16.647393611719014,
                    52.08489684156866
                ]
            }
        },
        {
            "type": "Feature",
            "properties": {
                "ref:csioz": 1124566,
                "name": "Z Misiem",
                "addr:street": "ŚMIGIELSKA",
                "addr:housenumber": "12 E",
                "addr:city": "KOŚCIAN",
                "addr:postcode": "64-000",
                "amenity": "pharmacy"
            },
            "geometry": {
                "type": "Point",
                "coordinates": [
                    16.629967063024925,
                    52.079401651068814
                ]
            }
        },
        {
            "type": "Feature",
            "properties": {
                "ref:csioz": 1191724,
                "name": "Doz Apteka Dbam O Zdrowie",
                "addr:street": "Wrocławska",
                "addr:housenumber": "22",
                "addr:city": "Kościan",
                "addr:postcode": "64-000",
                "amenity": "pharmacy"
            },
            "geometry": {
                "type": "Point",
                "coordinates": [
                    16.64375291660468,
                    52.085512900901854
                ]
            }
        },
        {
            "type": "Feature",
            "properties": {
                "ref:csioz": 1202118,
                "name": "Amfora W Czempiniu",
                "addr:street": "Kościańskie Przedmieście",
                "addr:housenumber": "2B",
                "addr:city": "Czempiń",
                "addr:postcode": "64-020",
                "amenity": "pharmacy"
            },
            "geometry": {
                "type": "Point",
                "coordinates": [
                    16.754846360550125,
                    52.142567582976056
                ]
            }
        },
        {
            "type": "Feature",
            "properties": {
                "ref:csioz": 1045281,
                "name": "Moderna 8",
                "addr:street": "RYNEK",
                "addr:housenumber": "24",
                "addr:city": "CZEMPIŃ",
                "addr:postcode": "64-020",
                "amenity": "pharmacy"
            },
            "geometry": {
                "type": "Point",
                "coordinates": [
                    16.761186867921218,
                    52.143525063854504
                ]
            }
        },
        {
            "type": "Feature",
            "properties": {
                "ref:csioz": 1054173,
                "name": "Grodzka",
                "addr:street": "JAGIELLOŃSKIE",
                "addr:housenumber": "51A",
                "addr:city": "KOŚCIAN",
                "addr:postcode": "64-000",
                "amenity": "pharmacy"
            },
            "geometry": {
                "type": "Point",
                "coordinates": [
                    16.629786719483313,
                    52.07607119495832
                ]
            }
        },
        {
            "type": "Feature",
            "properties": {
                "ref:csioz": 1054185,
                "addr:street": "PIASTOWSKIE",
                "addr:housenumber": "74",
                "addr:city": "KOŚCIAN",
                "addr:postcode": "64-000",
                "amenity": "pharmacy"
            },
            "geometry": {
                "type": "Point",
                "coordinates": [
                    16.635404715648427,
                    52.082952006491915
                ]
            }
        },
        {
            "type": "Feature",
            "properties": {
                "ref:csioz": 1054199,
                "name": "Św.Łukasza",
                "addr:street": "SZKOLNA",
                "addr:housenumber": "54",
                "addr:city": "KOŚCIAN",
                "addr:postcode": "64-000",
                "amenity": "pharmacy"
            },
            "geometry": {
                "type": "Point",
                "coordinates": [
                    16.654689585746297,
                    52.09068569795194
                ]
            }
        },
        {
            "type": "Feature",
            "properties": {
                "ref:csioz": 1054472,
                "name": "Apteka Śródmiejska",
                "addr:street": "KRUSZEWSKIEGO",
                "addr:housenumber": "11",
                "addr:city": "KOŚCIAN",
                "addr:postcode": "64-000",
                "amenity": "pharmacy"
            },
            "geometry": {
                "type": "Point",
                "coordinates": [
                    16.648796967671288,
                    52.086741358702355
                ]
            }
        },
        {
            "type": "Feature",
            "properties": {
                "ref:csioz": 1056073,
                "addr:street": "PADEREWSKIEGO",
                "addr:housenumber": "1A",
                "addr:city": "KOŚCIAN",
                "addr:postcode": "64-000",
                "amenity": "pharmacy"
            },
            "geometry": {
                "type": "Point",
                "coordinates": [
                    16.63657001459761,
                    52.08469664585203
                ]
            }
        },
        {
            "type": "Feature",
            "properties": {
                "ref:csioz": 1124488,
                "name": "Centralna",
                "addr:street": "RYNEK",
                "addr:housenumber": "19",
                "addr:city": "KOŚCIAN",
                "addr:postcode": "64-000",
                "amenity": "pharmacy"
            },
            "geometry": {
                "type": "Point",
                "coordinates": [
                    16.645049286877743,
                    52.08591479106447
                ]
            }
        },
        {
            "type": "Feature",
            "properties": {
                "ref:csioz": 1177003,
                "name": "Z Plusem",
                "addr:street": "Stanisława Szczepanowskiego",
                "addr:housenumber": "11",
                "addr:city": "Kościan",
                "addr:postcode": "64-000",
                "amenity": "pharmacy"
            },
            "geometry": {
                "type": "Point",
                "coordinates": [
                    16.645426921600496,
                    52.08713237181828
                ]
            }
        },
        {
            "type": "Feature",
            "properties": {
                "ref:csioz": 1177027,
                "name": "Doz Apteka Dbam O Zdrowie",
                "addr:street": "Nacławska",
                "addr:housenumber": "10",
                "addr:flats": "1",
                "addr:city": "Kościan",
                "addr:postcode": "64-000",
                "amenity": "pharmacy"
            },
            "geometry": {
                "type": "Point",
                "coordinates": [
                    16.639375957661144,
                    52.080370409403194
                ]
            }
        },
        {
            "type": "Feature",
            "properties": {
                "ref:csioz": 1209470,
                "name": "Grodzka",
                "addr:street": "Rynek",
                "addr:housenumber": "28",
                "addr:city": "Kościan",
                "addr:postcode": "64-000",
                "amenity": "pharmacy"
            },
            "geometry": {
                "type": "Point",
                "coordinates": [
                    16.644725264390036,
                    52.0864353878953
                ]
            }
        },
        {
            "type": "Feature",
            "properties": {
                "ref:csioz": 1209481,
                "name": "Grodzka",
                "addr:street": "Księdza Piotra  Bączkowskiego",
                "addr:housenumber": "3",
                "addr:city": "Kościan",
                "addr:postcode": "64-000",
                "amenity": "pharmacy"
            },
            "geometry": {
                "type": "Point",
                "coordinates": [
                    16.64237420770103,
                    52.088315465934784
                ]
            }
        },
        {
            "type": "Feature",
            "properties": {
                "ref:csioz": 1221735,
                "name": "Medica",
                "addr:street": "Gostyńska",
                "addr:housenumber": "100",
                "addr:city": "Kurza Góra",
                "addr:postcode": "64-000",
                "amenity": "pharmacy"
            },
            "geometry": {
                "type": "Point",
                "coordinates": [
                    16.666998487278118,
                    52.07581259979081
                ]
            }
        },
        {
            "type": "Feature",
            "properties": {
                "ref:csioz": 1227936,
                "addr:street": "Osiedle 2000",
                "addr:housenumber": "10",
                "addr:city": "Racot",
                "addr:postcode": "64-000",
                "amenity": "pharmacy"
            },
            "geometry": {
                "type": "Point",
                "coordinates": [
                    16.70625298591813,
                    52.05458383549446
                ]
            }
        }
    ]
}