{
    "type": "FeatureCollection",
    "name": "JPT_KOD_JE_0612",
    "features": [
        {
            "type": "Feature",
            "properties": {
                "ref:csioz": 1162879,
                "name": "Apteka Capsula",
                "addr:street": "Plac Wolności",
                "addr:housenumber": "28",
                "addr:city": "Józefów n/Wisłą",
                "addr:postcode": "24-340",
                "amenity": "pharmacy"
            },
            "geometry": {
                "type": "Point",
                "coordinates": [
                    21.8287718603081,
                    51.04101954786786
                ]
            }
        },
        {
            "type": "Feature",
            "properties": {
                "ref:csioz": 1162999,
                "addr:housenumber": "28",
                "addr:postcode": "24-313",
                "amenity": "pharmacy",
                "addr:place": "Zagłoba"
            },
            "geometry": {
                "type": "Point",
                "coordinates": [
                    21.860469936182366,
                    51.22196574025165
                ]
            }
        },
        {
            "type": "Feature",
            "properties": {
                "ref:csioz": 1185775,
                "name": "Apteka Melisa Przy Targu",
                "addr:street": "Opolska",
                "addr:housenumber": "13",
                "addr:city": "Józefów nad Wisłą",
                "addr:postcode": "23-340",
                "amenity": "pharmacy"
            },
            "geometry": {
                "type": "Point",
                "coordinates": [
                    21.830456110700844,
                    51.042123358771406
                ]
            }
        },
        {
            "type": "Feature",
            "properties": {
                "ref:csioz": 1106189,
                "name": "Punkt Apteczny - Maria Janczarek",
                "addr:housenumber": "214",
                "addr:postcode": "24-350",
                "amenity": "pharmacy",
                "addr:place": "Ratoszyn Drugi"
            },
            "geometry": {
                "type": "Point",
                "coordinates": [
                    22.17480756823246,
                    51.07308713575283
                ]
            }
        },
        {
            "type": "Feature",
            "properties": {
                "ref:csioz": 1106265,
                "addr:housenumber": "74",
                "addr:postcode": "24-320",
                "amenity": "pharmacy",
                "addr:place": "Niezabitów"
            },
            "geometry": {
                "type": "Point",
                "coordinates": [
                    22.120993399182893,
                    51.253012128636826
                ]
            }
        },
        {
            "type": "Feature",
            "properties": {
                "ref:csioz": 1157826,
                "addr:street": "1 Maja",
                "addr:housenumber": "8",
                "addr:city": "Poniatowa",
                "addr:postcode": "24-320",
                "amenity": "pharmacy"
            },
            "geometry": {
                "type": "Point",
                "coordinates": [
                    22.069055555627582,
                    51.19229514552842
                ]
            }
        },
        {
            "type": "Feature",
            "properties": {
                "ref:csioz": 1158733,
                "addr:street": "Lubelska",
                "addr:housenumber": "3",
                "addr:city": "Poniatowa",
                "addr:postcode": "24-320",
                "amenity": "pharmacy"
            },
            "geometry": {
                "type": "Point",
                "coordinates": [
                    22.070851581980715,
                    51.18268606364773
                ]
            }
        },
        {
            "type": "Feature",
            "properties": {
                "ref:csioz": 1159129,
                "addr:street": "Modrzewiowa",
                "addr:housenumber": "1",
                "addr:city": "Poniatowa",
                "addr:postcode": "24-320",
                "amenity": "pharmacy"
            },
            "geometry": {
                "type": "Point",
                "coordinates": [
                    22.070113227144777,
                    51.187064203561846
                ]
            }
        },
        {
            "type": "Feature",
            "properties": {
                "ref:csioz": 1162130,
                "addr:housenumber": "300",
                "addr:postcode": "24-310",
                "amenity": "pharmacy",
                "addr:place": "Karczmiska Drugie"
            },
            "geometry": {
                "type": "Point",
                "coordinates": [
                    22.020860000167527,
                    51.2421536749331
                ]
            }
        },
        {
            "type": "Feature",
            "properties": {
                "ref:csioz": 1162210,
                "addr:street": "Partyzantów",
                "addr:housenumber": "18",
                "addr:city": "Chodel",
                "addr:postcode": "24-210",
                "amenity": "pharmacy"
            },
            "geometry": {
                "type": "Point",
                "coordinates": [
                    22.1346533455593,
                    51.111882346084826
                ]
            }
        },
        {
            "type": "Feature",
            "properties": {
                "ref:csioz": 1162324,
                "addr:street": "Brzozowa",
                "addr:housenumber": "3",
                "addr:city": "Poniatowa",
                "addr:postcode": "24-320",
                "amenity": "pharmacy"
            },
            "geometry": {
                "type": "Point",
                "coordinates": [
                    22.067494000021586,
                    51.189167000014415
                ]
            }
        },
        {
            "type": "Feature",
            "properties": {
                "ref:csioz": 1163226,
                "name": "Nasze Apteki",
                "addr:street": "Przemysłowa",
                "addr:housenumber": "1",
                "addr:city": "Opole Lubelskie",
                "addr:postcode": "24-300",
                "amenity": "pharmacy"
            },
            "geometry": {
                "type": "Point",
                "coordinates": [
                    21.97710265745115,
                    51.145760646197616
                ]
            }
        },
        {
            "type": "Feature",
            "properties": {
                "ref:csioz": 1192468,
                "name": "Doz Apteka Dbam O Zdrowie",
                "addr:street": "Strażacka",
                "addr:housenumber": "2",
                "addr:city": "Opole Lubelskie",
                "addr:postcode": "24-300",
                "amenity": "pharmacy"
            },
            "geometry": {
                "type": "Point",
                "coordinates": [
                    21.96773504870308,
                    51.147479418785615
                ]
            }
        },
        {
            "type": "Feature",
            "properties": {
                "ref:csioz": 1106334,
                "addr:street": "Kościelna",
                "addr:housenumber": "1",
                "addr:city": "Wrzelowiec",
                "addr:postcode": "24-300",
                "amenity": "pharmacy"
            },
            "geometry": {
                "type": "Point",
                "coordinates": [
                    21.92526237295718,
                    51.091229045487665
                ]
            }
        },
        {
            "type": "Feature",
            "properties": {
                "ref:csioz": 1157982,
                "addr:street": "Fabryczna",
                "addr:housenumber": "13",
                "addr:city": "Opole Lubelskie",
                "addr:postcode": "24-300",
                "amenity": "pharmacy"
            },
            "geometry": {
                "type": "Point",
                "coordinates": [
                    21.97238862189556,
                    51.14734801538258
                ]
            }
        },
        {
            "type": "Feature",
            "properties": {
                "ref:csioz": 1161931,
                "addr:street": "Piłsudskiego",
                "addr:housenumber": "1",
                "addr:city": "Opole Lubelskie",
                "addr:postcode": "24-300",
                "amenity": "pharmacy"
            },
            "geometry": {
                "type": "Point",
                "coordinates": [
                    21.969994321867123,
                    51.148128585929165
                ]
            }
        },
        {
            "type": "Feature",
            "properties": {
                "ref:csioz": 1163123,
                "addr:street": "Puławska",
                "addr:housenumber": "2",
                "addr:city": "Opole Lubelskie",
                "addr:postcode": "24-300",
                "amenity": "pharmacy"
            },
            "geometry": {
                "type": "Point",
                "coordinates": [
                    21.97072433464212,
                    51.150938972536444
                ]
            }
        },
        {
            "type": "Feature",
            "properties": {
                "ref:csioz": 1163456,
                "addr:street": "1-go Maja",
                "addr:housenumber": "4",
                "addr:city": "Poniatowa",
                "addr:postcode": "24-320",
                "amenity": "pharmacy"
            },
            "geometry": {
                "type": "Point",
                "coordinates": [
                    22.067553000021583,
                    51.191690000014404
                ]
            }
        },
        {
            "type": "Feature",
            "properties": {
                "ref:csioz": 1187681,
                "name": "Apteka Rodzinna",
                "addr:street": "Nadrzeczna",
                "addr:housenumber": "4",
                "addr:city": "Chodel",
                "addr:postcode": "24-350",
                "amenity": "pharmacy"
            },
            "geometry": {
                "type": "Point",
                "coordinates": [
                    22.131380919079792,
                    51.10911186096088
                ]
            }
        },
        {
            "type": "Feature",
            "properties": {
                "ref:csioz": 1194108,
                "name": "Apteka Melisa Na Rogu",
                "addr:street": "Nałęczowska",
                "addr:housenumber": "13a",
                "addr:city": "Poniatowa",
                "addr:postcode": "24-320",
                "amenity": "pharmacy"
            },
            "geometry": {
                "type": "Point",
                "coordinates": [
                    22.066279903623858,
                    51.19103967684154
                ]
            }
        },
        {
            "type": "Feature",
            "properties": {
                "ref:csioz": 1190089,
                "name": "Dział Farmacji Szpitalnej",
                "addr:street": "Fabryczna",
                "addr:housenumber": "6",
                "addr:city": "Poniatowa",
                "addr:postcode": "24-320",
                "amenity": "pharmacy"
            },
            "geometry": {
                "type": "Point",
                "coordinates": [
                    22.070055937809318,
                    51.18544251848873
                ]
            }
        },
        {
            "type": "Feature",
            "properties": {
                "ref:csioz": 1208079,
                "name": "Apteka Rodzinna",
                "addr:street": "Lubelska",
                "addr:housenumber": "13",
                "addr:city": "Opole Lubelskie",
                "addr:postcode": "24-300",
                "amenity": "pharmacy"
            },
            "geometry": {
                "type": "Point",
                "coordinates": [
                    21.970118049030358,
                    51.14928458478375
                ]
            }
        },
        {
            "type": "Feature",
            "properties": {
                "ref:csioz": 1217399,
                "name": "Rodzinna",
                "addr:street": "Tadeusza Kościuszki",
                "addr:housenumber": "5",
                "addr:city": "Opole Lubelskie",
                "addr:postcode": "24-300",
                "amenity": "pharmacy"
            },
            "geometry": {
                "type": "Point",
                "coordinates": [
                    21.970559224634037,
                    51.14721743882923
                ]
            }
        },
        {
            "type": "Feature",
            "properties": {
                "ref:csioz": 1222094,
                "name": "Apteka Szpitalna",
                "addr:street": "Szpitalna",
                "addr:housenumber": "9",
                "addr:city": "Opole Lubelskie",
                "addr:postcode": "24-300",
                "amenity": "pharmacy"
            },
            "geometry": {
                "type": "Point",
                "coordinates": [
                    21.97561072639486,
                    51.15154364856361
                ]
            }
        },
        {
            "type": "Feature",
            "properties": {
                "ref:csioz": 1230793,
                "name": "Punkt Apteczny Edyta Górniak",
                "addr:housenumber": "74",
                "addr:postcode": "24-320",
                "amenity": "pharmacy",
                "addr:place": "Niezabitów"
            },
            "geometry": {
                "type": "Point",
                "coordinates": [
                    22.120993399182893,
                    51.253012128636826
                ]
            }
        },
        {
            "type": "Feature",
            "properties": {
                "ref:csioz": 1161678,
                "addr:housenumber": "30",
                "addr:postcode": "24-300",
                "amenity": "pharmacy",
                "addr:place": "Boiska Stare"
            },
            "geometry": {
                "type": "Point",
                "coordinates": [
                    21.96668496551787,
                    50.994089493887664
                ]
            }
        }
    ]
}