{
    "type": "FeatureCollection",
    "name": "JPT_KOD_JE_2409",
    "features": [
        {
            "type": "Feature",
            "properties": {
                "ref:csioz": 1065052,
                "name": "Brak Nazwy",
                "addr:street": "Moniuszki",
                "addr:housenumber": "2",
                "addr:city": "Koziegłowy",
                "addr:postcode": "42-350",
                "amenity": "pharmacy",
                "dispensing": "yes"
            },
            "geometry": {
                "type": "Point",
                "coordinates": [
                    19.162484800115923,
                    50.597815213572794
                ]
            }
        },
        {
            "type": "Feature",
            "properties": {
                "ref:csioz": 1066814,
                "name": "Orzeł",
                "addr:street": "GÓRNICZA",
                "addr:housenumber": "14",
                "addr:city": "PORAJ",
                "addr:postcode": "42-360",
                "amenity": "pharmacy",
                "dispensing": "yes"
            },
            "geometry": {
                "type": "Point",
                "coordinates": [
                    19.21207587249015,
                    50.6767458611928
                ]
            }
        },
        {
            "type": "Feature",
            "properties": {
                "ref:csioz": 1066823,
                "name": "Brak Nazwy",
                "addr:street": "Górnicza",
                "addr:housenumber": "3",
                "addr:city": "Poraj",
                "addr:postcode": "42-360",
                "amenity": "pharmacy",
                "dispensing": "yes"
            },
            "geometry": {
                "type": "Point",
                "coordinates": [
                    19.21308070757097,
                    50.67696308325792
                ]
            }
        },
        {
            "type": "Feature",
            "properties": {
                "ref:csioz": 1066838,
                "name": "Brak Nazwy",
                "addr:street": "PIŁSUDSKIEGO",
                "addr:housenumber": "5",
                "addr:city": "PORAJ",
                "addr:postcode": "42-297",
                "amenity": "pharmacy",
                "dispensing": "yes"
            },
            "geometry": {
                "type": "Point",
                "coordinates": [
                    19.213574552716636,
                    50.67826289731553
                ]
            }
        },
        {
            "type": "Feature",
            "properties": {
                "ref:csioz": 1219257,
                "name": "Apteka Isofarm",
                "addr:street": "Armii Krajowej",
                "addr:housenumber": "43",
                "addr:city": "Poraj",
                "addr:postcode": "42-360",
                "amenity": "pharmacy",
                "dispensing": "yes"
            },
            "geometry": {
                "type": "Point",
                "coordinates": [
                    19.217951413202147,
                    50.67520639292086
                ]
            }
        },
        {
            "type": "Feature",
            "properties": {
                "ref:csioz": 1065047,
                "name": "Agavit",
                "addr:street": "Moniuszki",
                "addr:housenumber": "18",
                "addr:city": "Koziegłowy",
                "addr:postcode": "42-350",
                "amenity": "pharmacy",
                "dispensing": "yes"
            },
            "geometry": {
                "type": "Point",
                "coordinates": [
                    19.160913180054596,
                    50.59795356216438
                ]
            }
        },
        {
            "type": "Feature",
            "properties": {
                "ref:csioz": 1066118,
                "name": "Światowit",
                "addr:street": "1 Maja",
                "addr:housenumber": "130",
                "addr:city": "Myszków",
                "addr:postcode": "42-300",
                "amenity": "pharmacy",
                "dispensing": "yes"
            },
            "geometry": {
                "type": "Point",
                "coordinates": [
                    19.360877438656885,
                    50.569907369219166
                ]
            }
        },
        {
            "type": "Feature",
            "properties": {
                "ref:csioz": 1066152,
                "name": "Brak Nazwy",
                "addr:street": "KOŚCIUSZKI",
                "addr:housenumber": "93",
                "addr:city": "MYSZKÓW",
                "addr:postcode": "42-300",
                "amenity": "pharmacy",
                "dispensing": "yes"
            },
            "geometry": {
                "type": "Point",
                "coordinates": [
                    19.331206855292166,
                    50.57764828732945
                ]
            }
        },
        {
            "type": "Feature",
            "properties": {
                "ref:csioz": 1066208,
                "name": "Na Placu Dworcowym",
                "addr:street": "Plac Dworcowy",
                "addr:housenumber": "5/3",
                "addr:city": "Myszków",
                "addr:postcode": "42-300",
                "amenity": "pharmacy",
                "dispensing": "yes"
            },
            "geometry": {
                "type": "Point",
                "coordinates": [
                    19.3283830000001,
                    50.57511200001333
                ]
            }
        },
        {
            "type": "Feature",
            "properties": {
                "ref:csioz": 1066219,
                "name": "Aloes",
                "addr:street": "Sikorskiego",
                "addr:housenumber": "53 C",
                "addr:city": "Myszków",
                "addr:postcode": "42-300",
                "amenity": "pharmacy",
                "dispensing": "yes"
            },
            "geometry": {
                "type": "Point",
                "coordinates": [
                    19.341545215211358,
                    50.577327028125666
                ]
            }
        },
        {
            "type": "Feature",
            "properties": {
                "ref:csioz": 1072086,
                "name": "Brak Nazwy",
                "addr:street": "S. RACZYŃSKIEJ",
                "addr:housenumber": "3",
                "addr:city": "ŻARKI LETNISKO",
                "addr:postcode": "42-311",
                "amenity": "pharmacy",
                "dispensing": "yes"
            },
            "geometry": {
                "type": "Point",
                "coordinates": [
                    19.27614200000008,
                    50.623215000013396
                ]
            }
        },
        {
            "type": "Feature",
            "properties": {
                "ref:csioz": 1111631,
                "name": "Na Skłodowskiej",
                "addr:street": "Skłodowskiej",
                "addr:housenumber": "7",
                "addr:city": "Myszków",
                "addr:postcode": "42-300",
                "amenity": "pharmacy",
                "dispensing": "yes"
            },
            "geometry": {
                "type": "Point",
                "coordinates": [
                    19.3363655631621,
                    50.57811254437256
                ]
            }
        },
        {
            "type": "Feature",
            "properties": {
                "ref:csioz": 1111814,
                "name": "Apteka Tanich Leków",
                "addr:street": "Kościuszki",
                "addr:housenumber": "1",
                "addr:city": "Żarki",
                "addr:postcode": "42-310",
                "amenity": "pharmacy",
                "dispensing": "yes"
            },
            "geometry": {
                "type": "Point",
                "coordinates": [
                    19.364537003899688,
                    50.62440123937902
                ]
            }
        },
        {
            "type": "Feature",
            "properties": {
                "ref:csioz": 1065039,
                "name": "3 Maja",
                "addr:street": "3 Maja",
                "addr:housenumber": "27A",
                "addr:city": "Koziegłowy",
                "addr:postcode": "42-350",
                "amenity": "pharmacy",
                "dispensing": "yes"
            },
            "geometry": {
                "type": "Point",
                "coordinates": [
                    19.157042871151894,
                    50.60051945216808
                ]
            }
        },
        {
            "type": "Feature",
            "properties": {
                "ref:csioz": 1072078,
                "name": "Centrum",
                "addr:street": "Grunwaldzka",
                "addr:housenumber": "8",
                "addr:city": "Żarki-Letnisko",
                "addr:postcode": "42-311",
                "amenity": "pharmacy",
                "dispensing": "yes"
            },
            "geometry": {
                "type": "Point",
                "coordinates": [
                    19.274660638398267,
                    50.62375815764039
                ]
            }
        },
        {
            "type": "Feature",
            "properties": {
                "ref:csioz": 1074315,
                "name": "Samodzielny Publiczny Zespół Opieki Zdrowotnej W Myszkowie",
                "addr:street": "Aleja Wolności",
                "addr:housenumber": "29",
                "addr:city": "Myszków",
                "addr:postcode": "42-300",
                "amenity": "pharmacy",
                "dispensing": "yes"
            },
            "geometry": {
                "type": "Point",
                "coordinates": [
                    19.306890792043745,
                    50.57261242569656
                ]
            }
        },
        {
            "type": "Feature",
            "properties": {
                "ref:csioz": 1112975,
                "name": "\"Niepubliczny Zakład Opieki Zdrowotnej \"\"Święta Monika\"\"\"",
                "addr:street": "Aleja Wolności",
                "addr:housenumber": "20",
                "addr:city": "Myszków",
                "addr:postcode": "42-300",
                "amenity": "pharmacy",
                "dispensing": "yes"
            },
            "geometry": {
                "type": "Point",
                "coordinates": [
                    19.305235021222995,
                    50.573715570072366
                ]
            }
        },
        {
            "type": "Feature",
            "properties": {
                "ref:csioz": 1116195,
                "name": "Mrzygłodzka",
                "addr:street": "Traugutta",
                "addr:housenumber": "41",
                "addr:city": "Myszków",
                "addr:postcode": "42-300",
                "amenity": "pharmacy",
                "dispensing": "yes"
            },
            "geometry": {
                "type": "Point",
                "coordinates": [
                    19.367435159807584,
                    50.541184433337854
                ]
            }
        },
        {
            "type": "Feature",
            "properties": {
                "ref:csioz": 1119442,
                "name": "Doz Apteka Dbam O Zdrowie",
                "addr:street": "Kościuszki",
                "addr:housenumber": "24",
                "addr:city": "Myszków",
                "addr:postcode": "42-300",
                "amenity": "pharmacy",
                "dispensing": "yes"
            },
            "geometry": {
                "type": "Point",
                "coordinates": [
                    19.329009505719686,
                    50.576077545095806
                ]
            }
        },
        {
            "type": "Feature",
            "properties": {
                "ref:csioz": 1119936,
                "name": "Dr Olender Prywatny Szpital Chirurgii Plastycznej",
                "addr:street": "Brzozowa",
                "addr:housenumber": "2",
                "addr:city": "Żarki",
                "addr:postcode": "42-311",
                "amenity": "pharmacy",
                "dispensing": "yes"
            },
            "geometry": {
                "type": "Point",
                "coordinates": [
                    19.269733000000066,
                    50.621987000013384
                ]
            }
        },
        {
            "type": "Feature",
            "properties": {
                "ref:csioz": 1120536,
                "name": "Dobra Apteka",
                "addr:street": "Marszałka Piłsudskiego",
                "addr:housenumber": "66",
                "addr:city": "Myszków",
                "addr:postcode": "42-300",
                "amenity": "pharmacy",
                "dispensing": "yes"
            },
            "geometry": {
                "type": "Point",
                "coordinates": [
                    19.307953155338918,
                    50.572802169726366
                ]
            }
        },
        {
            "type": "Feature",
            "properties": {
                "ref:csioz": 1173878,
                "name": "Apteka Krokus",
                "addr:street": "Kościuszki",
                "addr:housenumber": "12",
                "addr:city": "Myszków",
                "addr:postcode": "42-300",
                "amenity": "pharmacy",
                "dispensing": "yes"
            },
            "geometry": {
                "type": "Point",
                "coordinates": [
                    19.32606632656708,
                    50.57432442667134
                ]
            }
        },
        {
            "type": "Feature",
            "properties": {
                "ref:csioz": 1181651,
                "name": "Niezapominajka Dla Całej Rodziny",
                "addr:street": "Sikorskiego",
                "addr:housenumber": "16",
                "addr:city": "Myszków",
                "addr:postcode": "42-300",
                "amenity": "pharmacy",
                "dispensing": "yes"
            },
            "geometry": {
                "type": "Point",
                "coordinates": [
                    19.33998428839059,
                    50.57784279483136
                ]
            }
        },
        {
            "type": "Feature",
            "properties": {
                "ref:csioz": 1182246,
                "name": "Dobra Apteka",
                "addr:street": "Pułaskiego",
                "addr:housenumber": "6B",
                "addr:city": "Myszków",
                "addr:postcode": "42-300",
                "amenity": "pharmacy",
                "dispensing": "yes"
            },
            "geometry": {
                "type": "Point",
                "coordinates": [
                    19.32005775081933,
                    50.57412121759502
                ]
            }
        },
        {
            "type": "Feature",
            "properties": {
                "ref:csioz": 1206007,
                "name": "Farmacja 24",
                "addr:street": "3 Maja",
                "addr:housenumber": "12",
                "addr:city": "Myszków",
                "addr:postcode": "42-300",
                "amenity": "pharmacy",
                "dispensing": "yes"
            },
            "geometry": {
                "type": "Point",
                "coordinates": [
                    19.33194200000009,
                    50.575716000013344
                ]
            }
        },
        {
            "type": "Feature",
            "properties": {
                "ref:csioz": 1217588,
                "name": "Apteka Dobrych Rad",
                "addr:street": "ul. Stanisława Moniuszki",
                "addr:housenumber": "21",
                "addr:city": "Żarki",
                "addr:postcode": "42-310",
                "amenity": "pharmacy",
                "dispensing": "yes"
            },
            "geometry": {
                "type": "Point",
                "coordinates": [
                    19.363860096849898,
                    50.628892167381885
                ]
            }
        },
        {
            "type": "Feature",
            "properties": {
                "ref:csioz": 1221329,
                "name": "Ziko Apteka",
                "addr:street": "Pułaskiego",
                "addr:housenumber": "6a",
                "addr:city": "Myszków",
                "addr:postcode": "42-300",
                "amenity": "pharmacy",
                "dispensing": "yes"
            },
            "geometry": {
                "type": "Point",
                "coordinates": [
                    19.31822322250477,
                    50.573358846832804
                ]
            }
        },
        {
            "type": "Feature",
            "properties": {
                "ref:csioz": 1230787,
                "addr:street": "Zawiercka",
                "addr:housenumber": "18",
                "addr:city": "Myszków",
                "addr:postcode": "42-300",
                "amenity": "pharmacy",
                "dispensing": "yes"
            },
            "geometry": {
                "type": "Point",
                "coordinates": [
                    19.374541229958773,
                    50.5229463330534
                ]
            }
        },
        {
            "type": "Feature",
            "properties": {
                "ref:csioz": 1223499,
                "name": "Apteka W Niegowie",
                "addr:street": "Sobieskiego",
                "addr:housenumber": "20",
                "addr:city": "Niegowa",
                "addr:postcode": "42-320",
                "amenity": "pharmacy",
                "dispensing": "yes"
            },
            "geometry": {
                "type": "Point",
                "coordinates": [
                    19.48272464381803,
                    50.64141377029258
                ]
            }
        },
        {
            "type": "Feature",
            "properties": {
                "ref:csioz": 1230294,
                "name": "Punkt Apteczny W Sokolnikach",
                "addr:housenumber": "78 A",
                "addr:postcode": "42-320",
                "amenity": "pharmacy",
                "addr:place": "Sokolniki",
                "dispensing": "yes"
            },
            "geometry": {
                "type": "Point",
                "coordinates": [
                    19.59728265073701,
                    50.639688068127626
                ]
            }
        }
    ]
}