{
    "type": "FeatureCollection",
    "name": "JPT_KOD_JE_3215",
    "features": [
        {
            "type": "Feature",
            "properties": {
                "ref:csioz": 1147777,
                "name": "Apteka Słoneczna Mgr Farm. Małgorzata Leśna-Siembab",
                "addr:street": "Orła Białego",
                "addr:housenumber": "5a",
                "addr:city": "Borne Sulinowo",
                "addr:postcode": "78-449",
                "amenity": "pharmacy",
                "dispensing": "yes"
            },
            "geometry": {
                "type": "Point",
                "coordinates": [
                    16.534620415680525,
                    53.584145191408545
                ]
            }
        },
        {
            "type": "Feature",
            "properties": {
                "ref:csioz": 1180759,
                "addr:street": "Kościuszki",
                "addr:housenumber": "26",
                "addr:city": "Łubowo",
                "addr:postcode": "78-445",
                "amenity": "pharmacy",
                "dispensing": "yes"
            },
            "geometry": {
                "type": "Point",
                "coordinates": [
                    16.392384095313588,
                    53.58687698955979
                ]
            }
        },
        {
            "type": "Feature",
            "properties": {
                "ref:csioz": 1209344,
                "name": "Przyjazna",
                "addr:street": "Aleja Niepodległości",
                "addr:housenumber": "12",
                "addr:city": "Borne Sulinowo",
                "addr:postcode": "78-449",
                "amenity": "pharmacy",
                "dispensing": "yes"
            },
            "geometry": {
                "type": "Point",
                "coordinates": [
                    16.540399795820687,
                    53.58459794694455
                ]
            }
        },
        {
            "type": "Feature",
            "properties": {
                "ref:csioz": 1126082,
                "addr:street": "Kościuszki",
                "addr:housenumber": "38c",
                "addr:city": "Szczecinek",
                "addr:postcode": "78-400",
                "amenity": "pharmacy",
                "dispensing": "yes"
            },
            "geometry": {
                "type": "Point",
                "coordinates": [
                    16.6796513064828,
                    53.7125226394013
                ]
            }
        },
        {
            "type": "Feature",
            "properties": {
                "ref:csioz": 1135752,
                "name": "Medapteka",
                "addr:street": "Wyszyńskiego",
                "addr:housenumber": "47-49B",
                "addr:city": "Szczecinek",
                "addr:postcode": "75-400",
                "amenity": "pharmacy",
                "dispensing": "yes"
            },
            "geometry": {
                "type": "Point",
                "coordinates": [
                    16.698654447249645,
                    53.70627920979555
                ]
            }
        },
        {
            "type": "Feature",
            "properties": {
                "ref:csioz": 1147459,
                "name": "Przy Szpitalu",
                "addr:street": "Kościuszki",
                "addr:housenumber": "36",
                "addr:city": "Szczecinek",
                "addr:postcode": "78-400",
                "amenity": "pharmacy",
                "dispensing": "yes"
            },
            "geometry": {
                "type": "Point",
                "coordinates": [
                    16.679598683278687,
                    53.712861654714196
                ]
            }
        },
        {
            "type": "Feature",
            "properties": {
                "ref:csioz": 1147587,
                "name": "Arnika",
                "addr:street": "Koszalińska",
                "addr:housenumber": "64",
                "addr:city": "Szczecinek",
                "addr:postcode": "78-400",
                "amenity": "pharmacy",
                "dispensing": "yes"
            },
            "geometry": {
                "type": "Point",
                "coordinates": [
                    16.680635999995328,
                    53.71934000001829
                ]
            }
        },
        {
            "type": "Feature",
            "properties": {
                "ref:csioz": 1147627,
                "name": "Wracam Do Zdrowia",
                "addr:street": "Wyszyńskiego",
                "addr:housenumber": "73",
                "addr:city": "Szczecinek",
                "addr:postcode": "78-400",
                "amenity": "pharmacy",
                "dispensing": "yes"
            },
            "geometry": {
                "type": "Point",
                "coordinates": [
                    16.69798199999546,
                    53.703114000018275
                ]
            }
        },
        {
            "type": "Feature",
            "properties": {
                "ref:csioz": 1147951,
                "name": "Pod Złotym Moździerzem",
                "addr:street": "Warcisława IV",
                "addr:housenumber": "60",
                "addr:city": "Szczecinek",
                "addr:postcode": "78-400",
                "amenity": "pharmacy",
                "dispensing": "yes"
            },
            "geometry": {
                "type": "Point",
                "coordinates": [
                    16.702839996627212,
                    53.69498729232466
                ]
            }
        },
        {
            "type": "Feature",
            "properties": {
                "ref:csioz": 1147967,
                "name": "Nova Centrum",
                "addr:street": "Bohaterów Warszawy",
                "addr:housenumber": "43",
                "addr:city": "Szczecinek",
                "addr:postcode": "78-400",
                "amenity": "pharmacy",
                "dispensing": "yes"
            },
            "geometry": {
                "type": "Point",
                "coordinates": [
                    16.68850299999538,
                    53.71011400001827
                ]
            }
        },
        {
            "type": "Feature",
            "properties": {
                "ref:csioz": 1152548,
                "name": "Apteka Dbam O Zdrowie",
                "addr:street": "Karlińska",
                "addr:housenumber": "15",
                "addr:city": "Szczecinek",
                "addr:postcode": "78-400",
                "amenity": "pharmacy",
                "dispensing": "yes"
            },
            "geometry": {
                "type": "Point",
                "coordinates": [
                    16.66111091645716,
                    53.71778690163134
                ]
            }
        },
        {
            "type": "Feature",
            "properties": {
                "ref:csioz": 1152557,
                "name": "Doz.Apteka Dbam O Zdrowie",
                "addr:street": "Warcisława IV",
                "addr:housenumber": "3",
                "addr:city": "Szczecinek",
                "addr:postcode": "78-400",
                "amenity": "pharmacy",
                "dispensing": "yes"
            },
            "geometry": {
                "type": "Point",
                "coordinates": [
                    16.69960565773727,
                    53.701234849897745
                ]
            }
        },
        {
            "type": "Feature",
            "properties": {
                "ref:csioz": 1164619,
                "addr:street": "Plac Wolności",
                "addr:housenumber": "1",
                "addr:city": "Barwice",
                "addr:postcode": "78-460",
                "amenity": "pharmacy",
                "dispensing": "yes"
            },
            "geometry": {
                "type": "Point",
                "coordinates": [
                    16.355523836599666,
                    53.74382784885003
                ]
            }
        },
        {
            "type": "Feature",
            "properties": {
                "ref:csioz": 1166361,
                "name": "Doz Apteka. Dbam O Zdrowie",
                "addr:street": "Kościuszki",
                "addr:housenumber": "38b",
                "addr:city": "Szczecinek",
                "addr:postcode": "78-400",
                "amenity": "pharmacy",
                "dispensing": "yes"
            },
            "geometry": {
                "type": "Point",
                "coordinates": [
                    16.678589711781864,
                    53.7129182678789
                ]
            }
        },
        {
            "type": "Feature",
            "properties": {
                "ref:csioz": 1183472,
                "name": "Doz Apteka. Dbam O Zdrowie",
                "addr:street": "Spółdzielcza",
                "addr:housenumber": "6",
                "addr:city": "Szczecinek",
                "addr:postcode": "78-400",
                "amenity": "pharmacy",
                "dispensing": "yes"
            },
            "geometry": {
                "type": "Point",
                "coordinates": [
                    16.704169999995504,
                    53.70528600001826
                ]
            }
        },
        {
            "type": "Feature",
            "properties": {
                "ref:csioz": 1125107,
                "name": "Apteka Nova",
                "addr:street": "Nadrzeczna",
                "addr:housenumber": "2a",
                "addr:city": "Biały Bór",
                "addr:postcode": "78-425",
                "amenity": "pharmacy",
                "dispensing": "yes"
            },
            "geometry": {
                "type": "Point",
                "coordinates": [
                    16.836321687893772,
                    53.89717550781777
                ]
            }
        },
        {
            "type": "Feature",
            "properties": {
                "ref:csioz": 1138452,
                "name": "Arnika",
                "addr:housenumber": "65",
                "addr:postcode": "78-411",
                "amenity": "pharmacy",
                "addr:place": "Wierzchowo",
                "dispensing": "yes"
            },
            "geometry": {
                "type": "Point",
                "coordinates": [
                    16.609377580957997,
                    53.85950229611624
                ]
            }
        },
        {
            "type": "Feature",
            "properties": {
                "ref:csioz": 1138460,
                "name": "Przy Ratuszu",
                "addr:street": "Wolności",
                "addr:housenumber": "18d",
                "addr:city": "Szczecinek",
                "addr:postcode": "78-400",
                "amenity": "pharmacy",
                "dispensing": "yes"
            },
            "geometry": {
                "type": "Point",
                "coordinates": [
                    16.693682411361046,
                    53.709316620369854
                ]
            }
        },
        {
            "type": "Feature",
            "properties": {
                "ref:csioz": 1148022,
                "addr:street": "Kościuszki",
                "addr:housenumber": "38",
                "addr:city": "Szczecinek",
                "addr:postcode": "78-400",
                "amenity": "pharmacy",
                "dispensing": "yes"
            },
            "geometry": {
                "type": "Point",
                "coordinates": [
                    16.678675906680095,
                    53.7126799078064
                ]
            }
        },
        {
            "type": "Feature",
            "properties": {
                "ref:csioz": 1151405,
                "addr:street": "Kościuszki",
                "addr:housenumber": "38b",
                "addr:city": "Szczecinek",
                "addr:postcode": "78-400",
                "amenity": "pharmacy",
                "dispensing": "yes"
            },
            "geometry": {
                "type": "Point",
                "coordinates": [
                    16.678589711781864,
                    53.712888267878895
                ]
            }
        },
        {
            "type": "Feature",
            "properties": {
                "ref:csioz": 1151418,
                "addr:street": "Kilińskiego",
                "addr:housenumber": "7",
                "addr:city": "Szczecinek",
                "addr:postcode": "78-400",
                "amenity": "pharmacy",
                "dispensing": "yes"
            },
            "geometry": {
                "type": "Point",
                "coordinates": [
                    16.677879423568537,
                    53.71287200174497
                ]
            }
        },
        {
            "type": "Feature",
            "properties": {
                "ref:csioz": 1175127,
                "addr:street": "Lelewela",
                "addr:housenumber": "15",
                "addr:city": "Szczecinek",
                "addr:postcode": "78-400",
                "amenity": "pharmacy",
                "dispensing": "yes"
            },
            "geometry": {
                "type": "Point",
                "coordinates": [
                    16.67859912114415,
                    53.711087147046754
                ]
            }
        },
        {
            "type": "Feature",
            "properties": {
                "ref:csioz": 1176564,
                "name": "Hebeapteka",
                "addr:street": "Przemysłowa",
                "addr:housenumber": "4",
                "addr:city": "Szczecinek",
                "addr:postcode": "78-400",
                "amenity": "pharmacy",
                "dispensing": "yes"
            },
            "geometry": {
                "type": "Point",
                "coordinates": [
                    16.7039179999955,
                    53.698420000018245
                ]
            }
        },
        {
            "type": "Feature",
            "properties": {
                "ref:csioz": 1182921,
                "name": "W Przychodni Na Polnej Nowa Farmacja",
                "addr:street": "Polna",
                "addr:housenumber": "24",
                "addr:city": "Szczecinek",
                "addr:postcode": "78-400",
                "amenity": "pharmacy",
                "dispensing": "yes"
            },
            "geometry": {
                "type": "Point",
                "coordinates": [
                    16.678533234091766,
                    53.71610663239761
                ]
            }
        },
        {
            "type": "Feature",
            "properties": {
                "ref:csioz": 1197957,
                "addr:street": "Kościuszki",
                "addr:housenumber": "38",
                "addr:city": "Szczecinek",
                "addr:postcode": "78-400",
                "amenity": "pharmacy",
                "dispensing": "yes"
            },
            "geometry": {
                "type": "Point",
                "coordinates": [
                    16.678675906680095,
                    53.712649907806394
                ]
            }
        },
        {
            "type": "Feature",
            "properties": {
                "ref:csioz": 1198527,
                "name": "Gemini",
                "addr:street": "Kardynała Stefana Wyszyńskiego",
                "addr:housenumber": "39",
                "addr:city": "Szczecinek",
                "addr:postcode": "78-400",
                "amenity": "pharmacy",
                "dispensing": "yes"
            },
            "geometry": {
                "type": "Point",
                "coordinates": [
                    16.698550255412837,
                    53.706777807197085
                ]
            }
        },
        {
            "type": "Feature",
            "properties": {
                "ref:csioz": 1217035,
                "name": "\"Apteka 'Centrum Zdrowia'\"",
                "addr:street": "Boh. Warszawy",
                "addr:housenumber": "6",
                "addr:city": "Szczecinek",
                "addr:postcode": "78-400",
                "amenity": "pharmacy",
                "dispensing": "yes"
            },
            "geometry": {
                "type": "Point",
                "coordinates": [
                    16.692039371166985,
                    53.70936914293739
                ]
            }
        },
        {
            "type": "Feature",
            "properties": {
                "ref:csioz": 1217290,
                "name": "Apteka Centrum Zdrowia",
                "addr:street": "Warcisława IV",
                "addr:housenumber": "3",
                "addr:city": "Szczecinek",
                "addr:postcode": "78-400",
                "amenity": "pharmacy",
                "dispensing": "yes"
            },
            "geometry": {
                "type": "Point",
                "coordinates": [
                    16.69960565773727,
                    53.70120484989774
                ]
            }
        },
        {
            "type": "Feature",
            "properties": {
                "ref:csioz": 1217883,
                "name": "Apteka Centrum Zdrowia",
                "addr:street": "Cypriana Kamila Norwida",
                "addr:housenumber": "5",
                "addr:city": "Biały Bór",
                "addr:postcode": "78-425",
                "amenity": "pharmacy",
                "dispensing": "yes"
            },
            "geometry": {
                "type": "Point",
                "coordinates": [
                    16.838867893192848,
                    53.89823606120165
                ]
            }
        },
        {
            "type": "Feature",
            "properties": {
                "ref:csioz": 1222220,
                "name": "Apteka Centralna",
                "addr:street": "Bobolicka",
                "addr:housenumber": "11A",
                "addr:city": "Grzmiąca",
                "addr:postcode": "78-450",
                "amenity": "pharmacy",
                "dispensing": "yes"
            },
            "geometry": {
                "type": "Point",
                "coordinates": [
                    16.436383065875685,
                    53.83791268338161
                ]
            }
        },
        {
            "type": "Feature",
            "properties": {
                "ref:csioz": 1223297,
                "name": "\"Apteka \"\"Natura\"\" Cef@Rm 36,6\"",
                "addr:street": "Kościuszki",
                "addr:housenumber": "3",
                "addr:city": "Barwice",
                "addr:postcode": "78-460",
                "amenity": "pharmacy",
                "dispensing": "yes"
            },
            "geometry": {
                "type": "Point",
                "coordinates": [
                    16.355228629834137,
                    53.746457346144695
                ]
            }
        },
        {
            "type": "Feature",
            "properties": {
                "ref:csioz": 1224055,
                "name": "Apteka Rodzinna",
                "addr:street": "Bolesława Chrobrego",
                "addr:housenumber": "14",
                "addr:city": "Barwice",
                "addr:postcode": "78-460",
                "amenity": "pharmacy",
                "dispensing": "yes"
            },
            "geometry": {
                "type": "Point",
                "coordinates": [
                    16.355121815086438,
                    53.74207681721606
                ]
            }
        },
        {
            "type": "Feature",
            "properties": {
                "ref:csioz": 1226112,
                "addr:street": "Bukowa",
                "addr:housenumber": "85A",
                "addr:city": "Szczecinek",
                "addr:postcode": "78-400",
                "amenity": "pharmacy",
                "dispensing": "yes"
            },
            "geometry": {
                "type": "Point",
                "coordinates": [
                    16.719297306414475,
                    53.68092993796672
                ]
            }
        }
    ]
}