{
    "type": "FeatureCollection",
    "name": "JPT_KOD_JE_1008",
    "features": [
        {
            "type": "Feature",
            "properties": {
                "ref:csioz": 1009604,
                "name": "Jemioła",
                "addr:street": "Smugowa",
                "addr:housenumber": "8A",
                "addr:city": "Pabianice",
                "addr:postcode": "95-200",
                "amenity": "pharmacy",
                "dispensing": "yes"
            },
            "geometry": {
                "type": "Point",
                "coordinates": [
                    19.380974990539706,
                    51.65319509440262
                ]
            }
        },
        {
            "type": "Feature",
            "properties": {
                "ref:csioz": 1011754,
                "name": "Vita-Lek",
                "addr:street": "Nawrockiego",
                "addr:housenumber": "17A",
                "addr:city": "Pabianice",
                "addr:postcode": "95-200",
                "amenity": "pharmacy",
                "dispensing": "yes"
            },
            "geometry": {
                "type": "Point",
                "coordinates": [
                    19.37385112625527,
                    51.65458888800282
                ]
            }
        },
        {
            "type": "Feature",
            "properties": {
                "ref:csioz": 1015945,
                "name": "Twoja Apteka",
                "addr:street": "Podleśna",
                "addr:housenumber": "4",
                "addr:city": "Pabianice",
                "addr:postcode": "95-200",
                "amenity": "pharmacy",
                "dispensing": "yes"
            },
            "geometry": {
                "type": "Point",
                "coordinates": [
                    19.383210896260408,
                    51.655307941463484
                ]
            }
        },
        {
            "type": "Feature",
            "properties": {
                "ref:csioz": 1016681,
                "name": "Apteka Dbam O Zdrowie",
                "addr:street": "Popławska",
                "addr:housenumber": "4",
                "addr:city": "Pabianice",
                "addr:postcode": "95-200",
                "amenity": "pharmacy",
                "dispensing": "yes"
            },
            "geometry": {
                "type": "Point",
                "coordinates": [
                    19.372574000000128,
                    51.649901000014935
                ]
            }
        },
        {
            "type": "Feature",
            "properties": {
                "ref:csioz": 1017896,
                "name": "Doz Apteka Dbam O Zdrowie",
                "addr:street": "Pocztowa",
                "addr:housenumber": "1A",
                "addr:city": "Ksawerów",
                "addr:postcode": "95-054",
                "amenity": "pharmacy",
                "dispensing": "yes"
            },
            "geometry": {
                "type": "Point",
                "coordinates": [
                    19.403964154821047,
                    51.68267048439934
                ]
            }
        },
        {
            "type": "Feature",
            "properties": {
                "ref:csioz": 1023883,
                "name": "\"Apteka \"\"Rodzinna\"\"\"",
                "addr:street": "Pabianicka",
                "addr:housenumber": "6",
                "addr:city": "Dłutów",
                "addr:postcode": "95-081",
                "amenity": "pharmacy",
                "dispensing": "yes"
            },
            "geometry": {
                "type": "Point",
                "coordinates": [
                    19.392040967212004,
                    51.55763781178594
                ]
            }
        },
        {
            "type": "Feature",
            "properties": {
                "ref:csioz": 1024938,
                "name": "Medicor",
                "addr:street": "Polna",
                "addr:housenumber": "4",
                "addr:city": "Dłutów",
                "addr:postcode": "95-081",
                "amenity": "pharmacy",
                "dispensing": "yes"
            },
            "geometry": {
                "type": "Point",
                "coordinates": [
                    19.393585394973904,
                    51.55952760884691
                ]
            }
        },
        {
            "type": "Feature",
            "properties": {
                "ref:csioz": 1177585,
                "name": "Herba",
                "addr:street": "Nawrockiego",
                "addr:housenumber": "24A",
                "addr:city": "Pabianice",
                "addr:postcode": "95-200",
                "amenity": "pharmacy",
                "dispensing": "yes"
            },
            "geometry": {
                "type": "Point",
                "coordinates": [
                    19.37617478429925,
                    51.65994436769351
                ]
            }
        },
        {
            "type": "Feature",
            "properties": {
                "ref:csioz": 1177692,
                "name": "Hebeapteka",
                "addr:street": "\"gen. Stefana \"\"Grota\"\" Roweckiego\"",
                "addr:housenumber": "18A",
                "addr:city": "Pabianice",
                "addr:postcode": "95-200",
                "amenity": "pharmacy",
                "dispensing": "yes"
            },
            "geometry": {
                "type": "Point",
                "coordinates": [
                    19.370342800571244,
                    51.65687095624314
                ]
            }
        },
        {
            "type": "Feature",
            "properties": {
                "ref:csioz": 1021631,
                "name": "Twoje Zdrowie",
                "addr:street": "20 Stycznia",
                "addr:housenumber": "70",
                "addr:city": "Pabianice",
                "addr:postcode": "95-200",
                "amenity": "pharmacy",
                "dispensing": "yes"
            },
            "geometry": {
                "type": "Point",
                "coordinates": [
                    19.384948386516307,
                    51.65381767100744
                ]
            }
        },
        {
            "type": "Feature",
            "properties": {
                "ref:csioz": 1185224,
                "name": "Apteka Wspólna",
                "addr:street": "Pocztowa",
                "addr:housenumber": "2",
                "addr:city": "Ksawerów",
                "addr:postcode": "95-054",
                "amenity": "pharmacy",
                "dispensing": "yes"
            },
            "geometry": {
                "type": "Point",
                "coordinates": [
                    19.40333519151673,
                    51.682534651173455
                ]
            }
        },
        {
            "type": "Feature",
            "properties": {
                "ref:csioz": 1186808,
                "name": "Twoja Apteka",
                "addr:street": "20 Stycznia",
                "addr:housenumber": "20/22",
                "addr:city": "Pabianice",
                "addr:postcode": "95-200",
                "amenity": "pharmacy",
                "dispensing": "yes"
            },
            "geometry": {
                "type": "Point",
                "coordinates": [
                    19.374126805913658,
                    51.659954146953666
                ]
            }
        },
        {
            "type": "Feature",
            "properties": {
                "ref:csioz": 1182048,
                "name": "Apteka - Apteki Dar Zdrowia",
                "addr:street": "Smugowa",
                "addr:housenumber": "27",
                "addr:city": "Pabianice",
                "addr:postcode": "95-200",
                "amenity": "pharmacy",
                "dispensing": "yes"
            },
            "geometry": {
                "type": "Point",
                "coordinates": [
                    19.37994642237163,
                    51.65266866583741
                ]
            }
        },
        {
            "type": "Feature",
            "properties": {
                "ref:csioz": 1009832,
                "name": "Apteka Medicor",
                "addr:street": "Jana Kilińskiego",
                "addr:housenumber": "10/12",
                "addr:city": "Pabianice",
                "addr:postcode": "95-200",
                "amenity": "pharmacy",
                "dispensing": "yes"
            },
            "geometry": {
                "type": "Point",
                "coordinates": [
                    19.35495342640666,
                    51.66003074446548
                ]
            }
        },
        {
            "type": "Feature",
            "properties": {
                "ref:csioz": 1012917,
                "name": "Apteka Dbam O Zdrowie",
                "addr:street": "Orla",
                "addr:housenumber": "45/47",
                "addr:city": "Pabianice",
                "addr:postcode": "95-200",
                "amenity": "pharmacy",
                "dispensing": "yes"
            },
            "geometry": {
                "type": "Point",
                "coordinates": [
                    19.341939646724548,
                    51.658741535707115
                ]
            }
        },
        {
            "type": "Feature",
            "properties": {
                "ref:csioz": 1012996,
                "name": "Apteka Dbam O Zdrowie",
                "addr:street": "Stanisława Wyspiańskiego",
                "addr:housenumber": "1",
                "addr:city": "Pabianice",
                "addr:postcode": "95-200",
                "amenity": "pharmacy",
                "dispensing": "yes"
            },
            "geometry": {
                "type": "Point",
                "coordinates": [
                    19.34406348207364,
                    51.6641528192649
                ]
            }
        },
        {
            "type": "Feature",
            "properties": {
                "ref:csioz": 1014838,
                "name": "Na Zatorzu",
                "addr:street": "Torowa",
                "addr:housenumber": "23",
                "addr:city": "Pabianice",
                "addr:postcode": "95-200",
                "amenity": "pharmacy",
                "dispensing": "yes"
            },
            "geometry": {
                "type": "Point",
                "coordinates": [
                    19.321501000000108,
                    51.66214100001495
                ]
            }
        },
        {
            "type": "Feature",
            "properties": {
                "ref:csioz": 1016309,
                "name": "Doz Apteka Dbam O Zdrowie",
                "addr:street": "Łaska",
                "addr:housenumber": "50/54",
                "addr:city": "Pabianice",
                "addr:postcode": "95-200",
                "amenity": "pharmacy",
                "dispensing": "yes"
            },
            "geometry": {
                "type": "Point",
                "coordinates": [
                    19.3302320000001,
                    51.66148900001495
                ]
            }
        },
        {
            "type": "Feature",
            "properties": {
                "ref:csioz": 1017252,
                "name": "Apteka Bursztynowa",
                "addr:street": "mjr. Henryka Sucharskiego",
                "addr:housenumber": "1/3",
                "addr:city": "Konstantynów Łódzki",
                "addr:postcode": "95-050",
                "amenity": "pharmacy",
                "dispensing": "yes"
            },
            "geometry": {
                "type": "Point",
                "coordinates": [
                    19.32164400000011,
                    51.75144700001509
                ]
            }
        },
        {
            "type": "Feature",
            "properties": {
                "ref:csioz": 1022314,
                "addr:street": "Sienkiewicza",
                "addr:housenumber": "54",
                "addr:city": "Dobroń",
                "addr:postcode": "95-082",
                "amenity": "pharmacy",
                "dispensing": "yes"
            },
            "geometry": {
                "type": "Point",
                "coordinates": [
                    19.24532800569343,
                    51.63490663250782
                ]
            }
        },
        {
            "type": "Feature",
            "properties": {
                "ref:csioz": 1017911,
                "name": "Euro-Apteka",
                "addr:street": "Jana Kilińskiego",
                "addr:housenumber": "3/5",
                "addr:city": "Pabianice",
                "addr:postcode": "95-200",
                "amenity": "pharmacy",
                "dispensing": "yes"
            },
            "geometry": {
                "type": "Point",
                "coordinates": [
                    19.35434800000012,
                    51.66384400001496
                ]
            }
        },
        {
            "type": "Feature",
            "properties": {
                "ref:csioz": 1018301,
                "name": "Apteka Dbam O Zdrowie",
                "addr:street": "Grobelna",
                "addr:housenumber": "9",
                "addr:city": "Pabianice",
                "addr:postcode": "95-200",
                "amenity": "pharmacy",
                "dispensing": "yes"
            },
            "geometry": {
                "type": "Point",
                "coordinates": [
                    19.35589394414993,
                    51.66244023773924
                ]
            }
        },
        {
            "type": "Feature",
            "properties": {
                "ref:csioz": 1018400,
                "name": "Karolewska",
                "addr:street": "Jana Pawła II",
                "addr:housenumber": "36/40",
                "addr:city": "Pabianice",
                "addr:postcode": "95-200",
                "amenity": "pharmacy",
                "dispensing": "yes"
            },
            "geometry": {
                "type": "Point",
                "coordinates": [
                    19.340283533867336,
                    51.65651973621817
                ]
            }
        },
        {
            "type": "Feature",
            "properties": {
                "ref:csioz": 1018506,
                "name": "Doz Apteka Dbam O Zdrowie",
                "addr:street": "Łaska",
                "addr:housenumber": "76",
                "addr:city": "Pabianice",
                "addr:postcode": "95-200",
                "amenity": "pharmacy",
                "dispensing": "yes"
            },
            "geometry": {
                "type": "Point",
                "coordinates": [
                    19.326672663971436,
                    51.659995611691386
                ]
            }
        },
        {
            "type": "Feature",
            "properties": {
                "ref:csioz": 1018938,
                "name": "Osiedlowa",
                "addr:street": "Wileńska",
                "addr:housenumber": "45A",
                "addr:city": "Pabianice",
                "addr:postcode": "95-200",
                "amenity": "pharmacy",
                "dispensing": "yes"
            },
            "geometry": {
                "type": "Point",
                "coordinates": [
                    19.33161746265436,
                    51.655943710410526
                ]
            }
        },
        {
            "type": "Feature",
            "properties": {
                "ref:csioz": 1020834,
                "name": "Olmed",
                "addr:street": "marsz. Józefa Piłsudskiego",
                "addr:housenumber": "1",
                "addr:city": "Konstantynów Łódzki",
                "addr:postcode": "95-050",
                "amenity": "pharmacy",
                "dispensing": "yes"
            },
            "geometry": {
                "type": "Point",
                "coordinates": [
                    19.33020984880929,
                    51.74698140192224
                ]
            }
        },
        {
            "type": "Feature",
            "properties": {
                "ref:csioz": 1023019,
                "name": "Olmed",
                "addr:street": "Grobelna",
                "addr:housenumber": "8",
                "addr:city": "Pabianice",
                "addr:postcode": "95-200",
                "amenity": "pharmacy",
                "dispensing": "yes"
            },
            "geometry": {
                "type": "Point",
                "coordinates": [
                    19.35698731734869,
                    51.66211060950077
                ]
            }
        },
        {
            "type": "Feature",
            "properties": {
                "ref:csioz": 1024554,
                "name": "Apteka Dom Zdrowia",
                "addr:street": "Targowa",
                "addr:housenumber": "19",
                "addr:city": "Pabianice",
                "addr:postcode": "95-200",
                "amenity": "pharmacy",
                "dispensing": "yes"
            },
            "geometry": {
                "type": "Point",
                "coordinates": [
                    19.346762735898,
                    51.65856720810785
                ]
            }
        },
        {
            "type": "Feature",
            "properties": {
                "ref:csioz": 1025538,
                "name": "\"Apteka \"\"Kwiaty Polskie\"\"\"",
                "addr:street": "Zamkowa",
                "addr:housenumber": "54",
                "addr:city": "Pabianice",
                "addr:postcode": "95-200",
                "amenity": "pharmacy",
                "dispensing": "yes"
            },
            "geometry": {
                "type": "Point",
                "coordinates": [
                    19.34085300000012,
                    51.66477600001495
                ]
            }
        },
        {
            "type": "Feature",
            "properties": {
                "ref:csioz": 1025765,
                "name": "Medest X",
                "addr:street": "Jana Pawła II",
                "addr:housenumber": "11/13",
                "addr:city": "Konstantynów Łódzki",
                "addr:postcode": "95-050",
                "amenity": "pharmacy",
                "dispensing": "yes"
            },
            "geometry": {
                "type": "Point",
                "coordinates": [
                    19.322999000000113,
                    51.749519000015084
                ]
            }
        },
        {
            "type": "Feature",
            "properties": {
                "ref:csioz": 1025798,
                "name": "Medilek",
                "addr:housenumber": "21",
                "addr:postcode": "95-200",
                "amenity": "pharmacy",
                "addr:place": "Petrykozy",
                "dispensing": "yes"
            },
            "geometry": {
                "type": "Point",
                "coordinates": [
                    19.317780775890196,
                    51.68443405832009
                ]
            }
        },
        {
            "type": "Feature",
            "properties": {
                "ref:csioz": 1119783,
                "addr:housenumber": "7",
                "addr:postcode": "95-200",
                "amenity": "pharmacy",
                "addr:place": "Pawlikowice",
                "dispensing": "yes"
            },
            "geometry": {
                "type": "Point",
                "coordinates": [
                    19.358680840775634,
                    51.614044527688584
                ]
            }
        },
        {
            "type": "Feature",
            "properties": {
                "ref:csioz": 1185993,
                "name": "Olmed",
                "addr:street": "Mikołaja Kopernika",
                "addr:housenumber": "23",
                "addr:city": "Konstantynów Łódzki",
                "addr:postcode": "95-050",
                "amenity": "pharmacy",
                "dispensing": "yes"
            },
            "geometry": {
                "type": "Point",
                "coordinates": [
                    19.324563215575854,
                    51.75097904144302
                ]
            }
        },
        {
            "type": "Feature",
            "properties": {
                "ref:csioz": 1194181,
                "name": "Olmed",
                "addr:street": "Warszawska",
                "addr:housenumber": "8",
                "addr:city": "Pabianice",
                "addr:postcode": "95-200",
                "amenity": "pharmacy",
                "dispensing": "yes"
            },
            "geometry": {
                "type": "Point",
                "coordinates": [
                    19.36513374230767,
                    51.66404594692036
                ]
            }
        },
        {
            "type": "Feature",
            "properties": {
                "ref:csioz": 1009463,
                "name": "Medicor",
                "addr:street": "Warszawska",
                "addr:housenumber": "6",
                "addr:city": "Pabianice",
                "addr:postcode": "95-200",
                "amenity": "pharmacy",
                "dispensing": "yes"
            },
            "geometry": {
                "type": "Point",
                "coordinates": [
                    19.364854213070895,
                    51.66403287451172
                ]
            }
        },
        {
            "type": "Feature",
            "properties": {
                "ref:csioz": 1010397,
                "addr:street": "Jana Pawła II",
                "addr:housenumber": "68",
                "addr:city": "Pabianice",
                "addr:postcode": "95-200",
                "amenity": "pharmacy",
                "dispensing": "yes"
            },
            "geometry": {
                "type": "Point",
                "coordinates": [
                    19.330768888564037,
                    51.65279956407703
                ]
            }
        },
        {
            "type": "Feature",
            "properties": {
                "ref:csioz": 1012455,
                "name": "Apteka Dbam O Zdrowie",
                "addr:street": "Sadowa",
                "addr:housenumber": "10",
                "addr:city": "Konstantynów Łódzki",
                "addr:postcode": "95-050",
                "amenity": "pharmacy",
                "dispensing": "yes"
            },
            "geometry": {
                "type": "Point",
                "coordinates": [
                    19.321550132246248,
                    51.75053498362752
                ]
            }
        },
        {
            "type": "Feature",
            "properties": {
                "ref:csioz": 1012901,
                "name": "Apteka Dbam O Zdrowie",
                "addr:street": "Stanisława Moniuszki",
                "addr:housenumber": "139",
                "addr:city": "Pabianice",
                "addr:postcode": "95-200",
                "amenity": "pharmacy",
                "dispensing": "yes"
            },
            "geometry": {
                "type": "Point",
                "coordinates": [
                    19.328970670866333,
                    51.657086674047235
                ]
            }
        },
        {
            "type": "Feature",
            "properties": {
                "ref:csioz": 1013391,
                "name": "Apteka Dbam O Zdrowie",
                "addr:street": "Tadeusza Kościuszki",
                "addr:housenumber": "17",
                "addr:city": "Lutomiersk",
                "addr:postcode": "95-083",
                "amenity": "pharmacy",
                "dispensing": "yes"
            },
            "geometry": {
                "type": "Point",
                "coordinates": [
                    19.20975700000007,
                    51.752909000015094
                ]
            }
        },
        {
            "type": "Feature",
            "properties": {
                "ref:csioz": 1017283,
                "name": "Przy Rynku",
                "addr:street": "Targowa",
                "addr:housenumber": "2",
                "addr:city": "Lutomiersk",
                "addr:postcode": "95-083",
                "amenity": "pharmacy",
                "dispensing": "yes"
            },
            "geometry": {
                "type": "Point",
                "coordinates": [
                    19.21224358709784,
                    51.75449536663583
                ]
            }
        },
        {
            "type": "Feature",
            "properties": {
                "ref:csioz": 1022916,
                "name": "Apteka - Ewa Kaszuba",
                "addr:street": "Stanisława Wyspiańskiego",
                "addr:housenumber": "4",
                "addr:city": "Pabianice",
                "addr:postcode": "95-200",
                "amenity": "pharmacy",
                "dispensing": "yes"
            },
            "geometry": {
                "type": "Point",
                "coordinates": [
                    19.344550323774754,
                    51.66331618962377
                ]
            }
        },
        {
            "type": "Feature",
            "properties": {
                "ref:csioz": 1118992,
                "addr:street": "Tadeusza Kościuszki",
                "addr:housenumber": "1",
                "addr:city": "Kazimierz",
                "addr:postcode": "95-083",
                "amenity": "pharmacy",
                "dispensing": "yes"
            },
            "geometry": {
                "type": "Point",
                "coordinates": [
                    19.205311000000066,
                    51.7687670000151
                ]
            }
        },
        {
            "type": "Feature",
            "properties": {
                "ref:csioz": 1171836,
                "name": "Apteka Słoneczna Centrum Farmaceutyczne",
                "addr:street": "Zamkowa",
                "addr:housenumber": "18",
                "addr:city": "Pabianice",
                "addr:postcode": "95-200",
                "amenity": "pharmacy",
                "dispensing": "yes"
            },
            "geometry": {
                "type": "Point",
                "coordinates": [
                    19.35244929848769,
                    51.66417607472058
                ]
            }
        },
        {
            "type": "Feature",
            "properties": {
                "ref:csioz": 1171873,
                "name": "Apteka Pabianka Małgorzata Romanowska",
                "addr:street": "Partyzancka",
                "addr:housenumber": "48C",
                "addr:city": "Pabianice",
                "addr:postcode": "95-200",
                "amenity": "pharmacy",
                "dispensing": "yes"
            },
            "geometry": {
                "type": "Point",
                "coordinates": [
                    19.351613589585224,
                    51.66998191265711
                ]
            }
        },
        {
            "type": "Feature",
            "properties": {
                "ref:csioz": 1186819,
                "name": "Apteka Pod Bocianem",
                "addr:street": "Stanisława Moniuszki",
                "addr:housenumber": "90",
                "addr:city": "Pabianice",
                "addr:postcode": "95-200",
                "amenity": "pharmacy",
                "dispensing": "yes"
            },
            "geometry": {
                "type": "Point",
                "coordinates": [
                    19.33662641148803,
                    51.660201894903665
                ]
            }
        },
        {
            "type": "Feature",
            "properties": {
                "ref:csioz": 1189754,
                "addr:street": "Jana Pawła II",
                "addr:housenumber": "68",
                "addr:city": "Pabianice",
                "addr:postcode": "95-200",
                "amenity": "pharmacy",
                "dispensing": "yes"
            },
            "geometry": {
                "type": "Point",
                "coordinates": [
                    19.330768888564037,
                    51.65279956407703
                ]
            }
        },
        {
            "type": "Feature",
            "properties": {
                "ref:csioz": 1210666,
                "name": "Apteka Popularna",
                "addr:street": "Warszawska",
                "addr:housenumber": "3/5",
                "addr:city": "Pabianice",
                "addr:postcode": "95-200",
                "amenity": "pharmacy",
                "dispensing": "yes"
            },
            "geometry": {
                "type": "Point",
                "coordinates": [
                    19.364798000000118,
                    51.66406900001495
                ]
            }
        },
        {
            "type": "Feature",
            "properties": {
                "ref:csioz": 1223867,
                "name": "Dobra Apteka",
                "addr:street": "Jutrzkowicka",
                "addr:housenumber": "72",
                "addr:city": "Pabianice",
                "addr:postcode": "95-200",
                "amenity": "pharmacy",
                "dispensing": "yes"
            },
            "geometry": {
                "type": "Point",
                "coordinates": [
                    19.361048029381113,
                    51.64729405501105
                ]
            }
        }
    ]
}