{
    "type": "FeatureCollection",
    "name": "JPT_KOD_JE_0811",
    "features": [
        {
            "type": "Feature",
            "properties": {
                "ref:csioz": 1148318,
                "name": "Na Bohaterów",
                "addr:street": "Bohaterów",
                "addr:housenumber": "3",
                "addr:city": "Lubsko",
                "addr:postcode": "68-300",
                "amenity": "pharmacy",
                "dispensing": "yes"
            },
            "geometry": {
                "type": "Point",
                "coordinates": [
                    14.975881358781148,
                    51.786303941450996
                ]
            }
        },
        {
            "type": "Feature",
            "properties": {
                "ref:csioz": 1148326,
                "addr:street": "Krakowskie Przedmieście",
                "addr:housenumber": "31",
                "addr:city": "Lubsko",
                "addr:postcode": "68-300",
                "amenity": "pharmacy",
                "dispensing": "yes"
            },
            "geometry": {
                "type": "Point",
                "coordinates": [
                    14.973181105661938,
                    51.78979545031697
                ]
            }
        },
        {
            "type": "Feature",
            "properties": {
                "ref:csioz": 1148339,
                "name": "Na Dobre I Na Złe",
                "addr:street": "Śródmiejska",
                "addr:housenumber": "1",
                "addr:city": "Lubsko",
                "addr:postcode": "68-300",
                "amenity": "pharmacy",
                "dispensing": "yes"
            },
            "geometry": {
                "type": "Point",
                "coordinates": [
                    14.97147631181016,
                    51.78761856099556
                ]
            }
        },
        {
            "type": "Feature",
            "properties": {
                "ref:csioz": 1148990,
                "addr:street": "9 Maja",
                "addr:housenumber": "5A",
                "addr:city": "Tuplice",
                "addr:postcode": "68-330",
                "amenity": "pharmacy",
                "dispensing": "yes"
            },
            "geometry": {
                "type": "Point",
                "coordinates": [
                    14.828142343126146,
                    51.67166598766845
                ]
            }
        },
        {
            "type": "Feature",
            "properties": {
                "ref:csioz": 1149252,
                "name": "W Rynku",
                "addr:street": "Rynek",
                "addr:housenumber": "8",
                "addr:city": "Żary",
                "addr:postcode": "68-200",
                "amenity": "pharmacy",
                "dispensing": "yes"
            },
            "geometry": {
                "type": "Point",
                "coordinates": [
                    15.143622371501642,
                    51.63882147501922
                ]
            }
        },
        {
            "type": "Feature",
            "properties": {
                "ref:csioz": 1149283,
                "name": "Apteka Medikal",
                "addr:street": "Szarych Szeregów",
                "addr:housenumber": "35",
                "addr:city": "Żary",
                "addr:postcode": "68-200",
                "amenity": "pharmacy",
                "dispensing": "yes"
            },
            "geometry": {
                "type": "Point",
                "coordinates": [
                    15.12054596366235,
                    51.63250766617783
                ]
            }
        },
        {
            "type": "Feature",
            "properties": {
                "ref:csioz": 1149315,
                "name": "Pod Topolami",
                "addr:street": "Henryka Wieniawskiego",
                "addr:housenumber": "3B",
                "addr:city": "Żary",
                "addr:postcode": "68-200",
                "amenity": "pharmacy",
                "dispensing": "yes"
            },
            "geometry": {
                "type": "Point",
                "coordinates": [
                    15.12717100522152,
                    51.64092333530062
                ]
            }
        },
        {
            "type": "Feature",
            "properties": {
                "ref:csioz": 1149331,
                "name": "Melisa",
                "addr:street": "Zwycięzców",
                "addr:housenumber": "2B",
                "addr:city": "Żary",
                "addr:postcode": "68-200",
                "amenity": "pharmacy",
                "dispensing": "yes"
            },
            "geometry": {
                "type": "Point",
                "coordinates": [
                    15.127511920984768,
                    51.63548524335674
                ]
            }
        },
        {
            "type": "Feature",
            "properties": {
                "ref:csioz": 1150576,
                "name": "Rodzinna",
                "addr:street": "Okrzei",
                "addr:housenumber": "22",
                "addr:city": "Żary",
                "addr:postcode": "68-200",
                "amenity": "pharmacy",
                "dispensing": "yes"
            },
            "geometry": {
                "type": "Point",
                "coordinates": [
                    15.131541454430165,
                    51.63242297844514
                ]
            }
        },
        {
            "type": "Feature",
            "properties": {
                "ref:csioz": 1150584,
                "name": "Wega",
                "addr:street": "Okrzei",
                "addr:housenumber": "9",
                "addr:city": "Żary",
                "addr:postcode": "68-200",
                "amenity": "pharmacy",
                "dispensing": "yes"
            },
            "geometry": {
                "type": "Point",
                "coordinates": [
                    15.133933022176365,
                    51.63379018280374
                ]
            }
        },
        {
            "type": "Feature",
            "properties": {
                "ref:csioz": 1164154,
                "name": "Kunicka",
                "addr:street": "Grunwaldzka",
                "addr:housenumber": "17A",
                "addr:city": "Żary",
                "addr:postcode": "68-200",
                "amenity": "pharmacy",
                "dispensing": "yes"
            },
            "geometry": {
                "type": "Point",
                "coordinates": [
                    15.16869612760637,
                    51.602841181445456
                ]
            }
        },
        {
            "type": "Feature",
            "properties": {
                "ref:csioz": 1166780,
                "name": "Arnika",
                "addr:street": "Wolności",
                "addr:housenumber": "11",
                "addr:city": "Brody",
                "addr:postcode": "68-343",
                "amenity": "pharmacy",
                "dispensing": "yes"
            },
            "geometry": {
                "type": "Point",
                "coordinates": [
                    14.773592548237906,
                    51.78481295819397
                ]
            }
        },
        {
            "type": "Feature",
            "properties": {
                "ref:csioz": 1166847,
                "addr:street": "Żarska",
                "addr:housenumber": "4",
                "addr:city": "Lipinki Łużyckie",
                "addr:postcode": "68-213",
                "amenity": "pharmacy",
                "dispensing": "yes"
            },
            "geometry": {
                "type": "Point",
                "coordinates": [
                    14.998156913316818,
                    51.63910448561571
                ]
            }
        },
        {
            "type": "Feature",
            "properties": {
                "ref:csioz": 1166996,
                "name": "Yaro",
                "addr:street": "Rynek",
                "addr:housenumber": "2",
                "addr:city": "Trzebiel",
                "addr:postcode": "68-212",
                "amenity": "pharmacy",
                "dispensing": "yes"
            },
            "geometry": {
                "type": "Point",
                "coordinates": [
                    14.819682470465851,
                    51.63433092245727
                ]
            }
        },
        {
            "type": "Feature",
            "properties": {
                "ref:csioz": 1167007,
                "name": "Cardio",
                "addr:street": "Żarska",
                "addr:housenumber": "2",
                "addr:city": "Trzebiel",
                "addr:postcode": "68-212",
                "amenity": "pharmacy",
                "dispensing": "yes"
            },
            "geometry": {
                "type": "Point",
                "coordinates": [
                    14.817627608409158,
                    51.63434956519402
                ]
            }
        },
        {
            "type": "Feature",
            "properties": {
                "ref:csioz": 1174993,
                "name": "Centrum Zdrowia",
                "addr:street": "Podchorążych",
                "addr:housenumber": "41",
                "addr:city": "Żary",
                "addr:postcode": "68-200",
                "amenity": "pharmacy",
                "dispensing": "yes"
            },
            "geometry": {
                "type": "Point",
                "coordinates": [
                    15.137301483587349,
                    51.63835835783536
                ]
            }
        },
        {
            "type": "Feature",
            "properties": {
                "ref:csioz": 1176309,
                "name": "Łużycka",
                "addr:street": "Strzelców",
                "addr:housenumber": "10",
                "addr:city": "Żary",
                "addr:postcode": "68-200",
                "amenity": "pharmacy",
                "dispensing": "yes"
            },
            "geometry": {
                "type": "Point",
                "coordinates": [
                    15.130102459872848,
                    51.64160202367556
                ]
            }
        },
        {
            "type": "Feature",
            "properties": {
                "ref:csioz": 1206444,
                "name": "105 Kresowy Szpital Wojskowy Z Przychodnią Sp Zoz W Żarach",
                "addr:street": "Domańskiego",
                "addr:housenumber": "2",
                "addr:city": "Żary",
                "addr:postcode": "68-200",
                "amenity": "pharmacy",
                "dispensing": "yes"
            },
            "geometry": {
                "type": "Point",
                "coordinates": [
                    15.148224788599466,
                    51.64086491437447
                ]
            }
        },
        {
            "type": "Feature",
            "properties": {
                "ref:csioz": 1214131,
                "name": "\"Punkt Apteczny 'Flos' Katarzyna Podolska\"",
                "addr:street": "Plac Kościelny",
                "addr:housenumber": "19",
                "addr:city": "Mirostowice Dolne",
                "addr:postcode": "68-206",
                "amenity": "pharmacy",
                "dispensing": "yes"
            },
            "geometry": {
                "type": "Point",
                "coordinates": [
                    15.14279823711444,
                    51.56810206784365
                ]
            }
        },
        {
            "type": "Feature",
            "properties": {
                "ref:csioz": 1148655,
                "addr:street": "Wojska Polskiego",
                "addr:housenumber": "13",
                "addr:city": "Przewóz",
                "addr:postcode": "68-132",
                "amenity": "pharmacy",
                "dispensing": "yes"
            },
            "geometry": {
                "type": "Point",
                "coordinates": [
                    14.949463144474038,
                    51.47649835933648
                ]
            }
        },
        {
            "type": "Feature",
            "properties": {
                "ref:csioz": 1111387,
                "name": "Rumianek",
                "addr:street": "Kościuszki",
                "addr:housenumber": "18",
                "addr:city": "Bronowice",
                "addr:postcode": "68-210",
                "amenity": "pharmacy",
                "dispensing": "yes"
            },
            "geometry": {
                "type": "Point",
                "coordinates": [
                    14.764933829413698,
                    51.557583910670296
                ]
            }
        },
        {
            "type": "Feature",
            "properties": {
                "ref:csioz": 1148161,
                "addr:street": "Powstańców Warszawskich",
                "addr:housenumber": "2",
                "addr:city": "Jasień",
                "addr:postcode": "68-320",
                "amenity": "pharmacy",
                "dispensing": "yes"
            },
            "geometry": {
                "type": "Point",
                "coordinates": [
                    15.016098870404866,
                    51.75167308298933
                ]
            }
        },
        {
            "type": "Feature",
            "properties": {
                "ref:csioz": 1148173,
                "name": "Nowa",
                "addr:street": "XX-lecia",
                "addr:housenumber": "20A",
                "addr:city": "Jasień",
                "addr:postcode": "68-320",
                "amenity": "pharmacy",
                "dispensing": "yes"
            },
            "geometry": {
                "type": "Point",
                "coordinates": [
                    15.011468046878413,
                    51.75340406381638
                ]
            }
        },
        {
            "type": "Feature",
            "properties": {
                "ref:csioz": 1148347,
                "name": "Na Dobre I Na Złe",
                "addr:street": "Przemysłowa",
                "addr:housenumber": "31e",
                "addr:city": "Lubsko",
                "addr:postcode": "68-300",
                "amenity": "pharmacy",
                "dispensing": "yes"
            },
            "geometry": {
                "type": "Point",
                "coordinates": [
                    14.95690690526912,
                    51.78738500207814
                ]
            }
        },
        {
            "type": "Feature",
            "properties": {
                "ref:csioz": 1148352,
                "addr:street": "Reja",
                "addr:housenumber": "17-19",
                "addr:city": "Lubsko",
                "addr:postcode": "68-300",
                "amenity": "pharmacy",
                "dispensing": "yes"
            },
            "geometry": {
                "type": "Point",
                "coordinates": [
                    14.968815415018176,
                    51.78590864973679
                ]
            }
        },
        {
            "type": "Feature",
            "properties": {
                "ref:csioz": 1148360,
                "addr:street": "Wrocławska",
                "addr:housenumber": "87",
                "addr:city": "Lubsko",
                "addr:postcode": "68-300",
                "amenity": "pharmacy",
                "dispensing": "yes"
            },
            "geometry": {
                "type": "Point",
                "coordinates": [
                    14.982802999923797,
                    51.78020100001655
                ]
            }
        },
        {
            "type": "Feature",
            "properties": {
                "ref:csioz": 1149302,
                "name": "Farmed",
                "addr:street": "Henryka Wieniawskiego",
                "addr:housenumber": "16",
                "addr:city": "Żary",
                "addr:postcode": "68-200",
                "amenity": "pharmacy",
                "dispensing": "yes"
            },
            "geometry": {
                "type": "Point",
                "coordinates": [
                    15.12229666365625,
                    51.641866896744716
                ]
            }
        },
        {
            "type": "Feature",
            "properties": {
                "ref:csioz": 1148383,
                "name": "Apteka Vitamina",
                "addr:street": "1 Maja",
                "addr:housenumber": "4",
                "addr:city": "Łęknica",
                "addr:postcode": "68-208",
                "amenity": "pharmacy",
                "dispensing": "yes"
            },
            "geometry": {
                "type": "Point",
                "coordinates": [
                    14.736085683346161,
                    51.541170207207564
                ]
            }
        },
        {
            "type": "Feature",
            "properties": {
                "ref:csioz": 1148394,
                "name": "Vitamina",
                "addr:street": "Wojska Polskiego",
                "addr:housenumber": "1A",
                "addr:city": "Łęknica",
                "addr:postcode": "68-208",
                "amenity": "pharmacy",
                "dispensing": "yes"
            },
            "geometry": {
                "type": "Point",
                "coordinates": [
                    14.737610871321099,
                    51.537008001573746
                ]
            }
        },
        {
            "type": "Feature",
            "properties": {
                "ref:csioz": 1149075,
                "name": "Arnika",
                "addr:housenumber": "75",
                "addr:postcode": "68-343",
                "amenity": "pharmacy",
                "addr:place": "Zasieki",
                "dispensing": "yes"
            },
            "geometry": {
                "type": "Point",
                "coordinates": [
                    14.66853509827014,
                    51.752952446373676
                ]
            }
        },
        {
            "type": "Feature",
            "properties": {
                "ref:csioz": 1150500,
                "addr:street": "Śródmiejska",
                "addr:housenumber": "12",
                "addr:city": "Żary",
                "addr:postcode": "68-200",
                "amenity": "pharmacy",
                "dispensing": "yes"
            },
            "geometry": {
                "type": "Point",
                "coordinates": [
                    15.137346476783067,
                    51.63617735556823
                ]
            }
        },
        {
            "type": "Feature",
            "properties": {
                "ref:csioz": 1150513,
                "name": "Kosmy I Damiana",
                "addr:street": "Fryderyka Chopina",
                "addr:housenumber": "28b",
                "addr:city": "Żary",
                "addr:postcode": "68-200",
                "amenity": "pharmacy",
                "dispensing": "yes"
            },
            "geometry": {
                "type": "Point",
                "coordinates": [
                    15.128708767651737,
                    51.64116698772468
                ]
            }
        },
        {
            "type": "Feature",
            "properties": {
                "ref:csioz": 1150521,
                "addr:street": "Bolesława Chrobrego",
                "addr:housenumber": "15",
                "addr:city": "Żary",
                "addr:postcode": "68-200",
                "amenity": "pharmacy",
                "dispensing": "yes"
            },
            "geometry": {
                "type": "Point",
                "coordinates": [
                    15.140331887371017,
                    51.638182936393996
                ]
            }
        },
        {
            "type": "Feature",
            "properties": {
                "ref:csioz": 1150537,
                "name": "Apteka Dbam O Zdrowie",
                "addr:street": "Domańskiego",
                "addr:housenumber": "2",
                "addr:city": "Żary",
                "addr:postcode": "68-200",
                "amenity": "pharmacy",
                "dispensing": "yes"
            },
            "geometry": {
                "type": "Point",
                "coordinates": [
                    15.148224788599466,
                    51.640834914374466
                ]
            }
        },
        {
            "type": "Feature",
            "properties": {
                "ref:csioz": 1150545,
                "name": "Targowa",
                "addr:street": "Lotników",
                "addr:housenumber": "16",
                "addr:city": "Żary",
                "addr:postcode": "68-200",
                "amenity": "pharmacy",
                "dispensing": "yes"
            },
            "geometry": {
                "type": "Point",
                "coordinates": [
                    15.13157094055816,
                    51.639052653740045
                ]
            }
        },
        {
            "type": "Feature",
            "properties": {
                "ref:csioz": 1164249,
                "addr:street": "Tuplicka",
                "addr:housenumber": "2B",
                "addr:city": "Trzebiel",
                "addr:postcode": "68-212",
                "amenity": "pharmacy",
                "dispensing": "yes"
            },
            "geometry": {
                "type": "Point",
                "coordinates": [
                    14.82348737572424,
                    51.63567367480661
                ]
            }
        },
        {
            "type": "Feature",
            "properties": {
                "ref:csioz": 1177874,
                "name": "Apteka Z Misiem",
                "addr:street": "Śródmiejska",
                "addr:housenumber": "25",
                "addr:city": "Żary",
                "addr:postcode": "68-200",
                "amenity": "pharmacy",
                "dispensing": "yes"
            },
            "geometry": {
                "type": "Point",
                "coordinates": [
                    15.138198033444816,
                    51.637356633549196
                ]
            }
        },
        {
            "type": "Feature",
            "properties": {
                "ref:csioz": 1228751,
                "name": "W Pasażu",
                "addr:street": "Moniuszki",
                "addr:housenumber": "11 D",
                "addr:city": "Żary",
                "addr:postcode": "68-200",
                "amenity": "pharmacy",
                "dispensing": "yes"
            },
            "geometry": {
                "type": "Point",
                "coordinates": [
                    15.130414203631645,
                    51.640334642080795
                ]
            }
        },
        {
            "type": "Feature",
            "properties": {
                "ref:csioz": 1181469,
                "name": "Dział Farmacji Szpitalnej",
                "addr:street": "Pszenna",
                "addr:housenumber": "2",
                "addr:city": "Żary",
                "addr:postcode": "68-200",
                "amenity": "pharmacy",
                "dispensing": "yes"
            },
            "geometry": {
                "type": "Point",
                "coordinates": [
                    15.128569306352983,
                    51.626296855387864
                ]
            }
        },
        {
            "type": "Feature",
            "properties": {
                "ref:csioz": 1187066,
                "name": "Apteka Gemini",
                "addr:street": "Bolesława Chrobrego",
                "addr:housenumber": "18",
                "addr:city": "Żary",
                "addr:postcode": "68-200",
                "amenity": "pharmacy",
                "dispensing": "yes"
            },
            "geometry": {
                "type": "Point",
                "coordinates": [
                    15.14000669997655,
                    51.63817047432047
                ]
            }
        },
        {
            "type": "Feature",
            "properties": {
                "ref:csioz": 1201594,
                "addr:street": "Górna",
                "addr:housenumber": "2C",
                "addr:city": "Bieniów",
                "addr:postcode": "68-200",
                "amenity": "pharmacy",
                "dispensing": "yes"
            },
            "geometry": {
                "type": "Point",
                "coordinates": [
                    15.178373080106553,
                    51.718751036872526
                ]
            }
        },
        {
            "type": "Feature",
            "properties": {
                "ref:csioz": 1205564,
                "addr:street": "Graniczna",
                "addr:housenumber": "8",
                "addr:city": "Łęknica",
                "addr:postcode": "68-208",
                "amenity": "pharmacy",
                "dispensing": "yes"
            },
            "geometry": {
                "type": "Point",
                "coordinates": [
                    14.73597615537372,
                    51.539831561262275
                ]
            }
        },
        {
            "type": "Feature",
            "properties": {
                "ref:csioz": 1207382,
                "name": "Dr. Max",
                "addr:street": "Kazimierza Złotka",
                "addr:housenumber": "1",
                "addr:city": "Lubsko",
                "addr:postcode": "68-300",
                "amenity": "pharmacy",
                "dispensing": "yes"
            },
            "geometry": {
                "type": "Point",
                "coordinates": [
                    14.9823978093123,
                    51.77934019242795
                ]
            }
        },
        {
            "type": "Feature",
            "properties": {
                "ref:csioz": 1213280,
                "name": "Dr. Max",
                "addr:street": "Krakowskie Przedmieście",
                "addr:housenumber": "9",
                "addr:city": "Lubsko",
                "addr:postcode": "68-300",
                "amenity": "pharmacy",
                "dispensing": "yes"
            },
            "geometry": {
                "type": "Point",
                "coordinates": [
                    14.97275099992293,
                    51.78879500001659
                ]
            }
        },
        {
            "type": "Feature",
            "properties": {
                "ref:csioz": 1230315,
                "name": "Dział Farmacji Szpitalnej",
                "addr:street": "Pszenna",
                "addr:housenumber": "2",
                "addr:city": "Żary",
                "addr:postcode": "68-200",
                "amenity": "pharmacy",
                "dispensing": "yes"
            },
            "geometry": {
                "type": "Point",
                "coordinates": [
                    15.152536161296846,
                    51.644231955004976
                ]
            }
        },
        {
            "type": "Feature",
            "properties": {
                "ref:csioz": 1223788,
                "name": "\"Apteka \"\"Dr. Max\"\"\"",
                "addr:street": "Przeładunkowa",
                "addr:housenumber": "2",
                "addr:city": "Żary",
                "addr:postcode": "68-200",
                "amenity": "pharmacy",
                "dispensing": "yes"
            },
            "geometry": {
                "type": "Point",
                "coordinates": [
                    15.132711972877946,
                    51.63699720893993
                ]
            }
        }
    ]
}