{
    "type": "FeatureCollection",
    "name": "JPT_KOD_JE_1014",
    "features": [
        {
            "type": "Feature",
            "properties": {
                "ref:csioz": 1017497,
                "name": "Panaceum",
                "addr:street": "Rynek",
                "addr:housenumber": "7",
                "addr:city": "Burzenin",
                "addr:postcode": "98-260",
                "amenity": "pharmacy",
                "dispensing": "yes"
            },
            "geometry": {
                "type": "Point",
                "coordinates": [
                    18.832195497668955,
                    51.46083077727729
                ]
            }
        },
        {
            "type": "Feature",
            "properties": {
                "ref:csioz": 1164529,
                "name": "Apteka Na Wspólnej",
                "addr:street": "Wspólna",
                "addr:housenumber": "37",
                "addr:city": "Brzeźnio",
                "addr:postcode": "98-275",
                "amenity": "pharmacy",
                "dispensing": "yes"
            },
            "geometry": {
                "type": "Point",
                "coordinates": [
                    18.627696590956464,
                    51.49022432922061
                ]
            }
        },
        {
            "type": "Feature",
            "properties": {
                "ref:csioz": 1010196,
                "name": "Quercus",
                "addr:street": "Topolowa",
                "addr:housenumber": "11",
                "addr:city": "Brzeźnio",
                "addr:postcode": "98-275",
                "amenity": "pharmacy",
                "dispensing": "yes"
            },
            "geometry": {
                "type": "Point",
                "coordinates": [
                    18.62534858734316,
                    51.49420842389518
                ]
            }
        },
        {
            "type": "Feature",
            "properties": {
                "ref:csioz": 1010362,
                "name": "Apteka Mgr Farm. Marek Kijański",
                "addr:street": "Kościelna",
                "addr:housenumber": "21",
                "addr:city": "Złoczew",
                "addr:postcode": "98-270",
                "amenity": "pharmacy",
                "dispensing": "yes"
            },
            "geometry": {
                "type": "Point",
                "coordinates": [
                    18.604938812837524,
                    51.41652215576204
                ]
            }
        },
        {
            "type": "Feature",
            "properties": {
                "ref:csioz": 1013458,
                "name": "Apteka Dbam O Zdrowie",
                "addr:street": "Burzenińska",
                "addr:housenumber": "8/10",
                "addr:city": "Złoczew",
                "addr:postcode": "98-270",
                "amenity": "pharmacy",
                "dispensing": "yes"
            },
            "geometry": {
                "type": "Point",
                "coordinates": [
                    18.61143699999988,
                    51.41756500001458
                ]
            }
        },
        {
            "type": "Feature",
            "properties": {
                "ref:csioz": 1194514,
                "name": "Apteka Przyjazna",
                "addr:street": "Ogrodowa",
                "addr:housenumber": "17A",
                "addr:city": "Złoczew",
                "addr:postcode": "98-270",
                "amenity": "pharmacy",
                "dispensing": "yes"
            },
            "geometry": {
                "type": "Point",
                "coordinates": [
                    18.604700020044316,
                    51.41401207350509
                ]
            }
        },
        {
            "type": "Feature",
            "properties": {
                "ref:csioz": 1203232,
                "name": "Apteka Magnolia",
                "addr:street": "Kościelna",
                "addr:housenumber": "1",
                "addr:city": "Złoczew",
                "addr:postcode": "98-270",
                "amenity": "pharmacy",
                "dispensing": "yes"
            },
            "geometry": {
                "type": "Point",
                "coordinates": [
                    18.603915102167583,
                    51.41664343103553
                ]
            }
        },
        {
            "type": "Feature",
            "properties": {
                "ref:csioz": 1209123,
                "name": "\"'Zdrówko'\"",
                "addr:street": "Burzenińska",
                "addr:housenumber": "13A",
                "addr:city": "Złoczew",
                "addr:postcode": "98-270",
                "amenity": "pharmacy",
                "dispensing": "yes"
            },
            "geometry": {
                "type": "Point",
                "coordinates": [
                    18.610247120145768,
                    51.41835721779441
                ]
            }
        },
        {
            "type": "Feature",
            "properties": {
                "ref:csioz": 1009673,
                "addr:street": "Sieradzka",
                "addr:housenumber": "4",
                "addr:city": "Błaszki",
                "addr:postcode": "98-235",
                "amenity": "pharmacy",
                "dispensing": "yes"
            },
            "geometry": {
                "type": "Point",
                "coordinates": [
                    18.435328366721652,
                    51.65142426227277
                ]
            }
        },
        {
            "type": "Feature",
            "properties": {
                "ref:csioz": 1010811,
                "addr:street": "Krakowskie Przedmieście",
                "addr:housenumber": "41",
                "addr:city": "Sieradz",
                "addr:postcode": "98-200",
                "amenity": "pharmacy",
                "dispensing": "yes"
            },
            "geometry": {
                "type": "Point",
                "coordinates": [
                    18.740503032392077,
                    51.58859728604196
                ]
            }
        },
        {
            "type": "Feature",
            "properties": {
                "ref:csioz": 1011288,
                "name": "Centrum",
                "addr:street": "Jana Pawła II",
                "addr:housenumber": "41",
                "addr:city": "Sieradz",
                "addr:postcode": "98-200",
                "amenity": "pharmacy",
                "dispensing": "yes"
            },
            "geometry": {
                "type": "Point",
                "coordinates": [
                    18.72589708249602,
                    51.59036286107563
                ]
            }
        },
        {
            "type": "Feature",
            "properties": {
                "ref:csioz": 1012738,
                "name": "Zielona",
                "addr:street": "Jana Pawła II",
                "addr:housenumber": "12",
                "addr:city": "Sieradz",
                "addr:postcode": "98-200",
                "amenity": "pharmacy",
                "dispensing": "yes"
            },
            "geometry": {
                "type": "Point",
                "coordinates": [
                    18.728015999999908,
                    51.593455000014835
                ]
            }
        },
        {
            "type": "Feature",
            "properties": {
                "ref:csioz": 1013807,
                "name": "Arnika",
                "addr:street": "Niepodległości",
                "addr:housenumber": "5",
                "addr:city": "Błaszki",
                "addr:postcode": "98-235",
                "amenity": "pharmacy",
                "dispensing": "yes"
            },
            "geometry": {
                "type": "Point",
                "coordinates": [
                    18.434490162815116,
                    51.65071660546259
                ]
            }
        },
        {
            "type": "Feature",
            "properties": {
                "ref:csioz": 1016066,
                "name": "Corda",
                "addr:street": "Armii Krajowej",
                "addr:housenumber": "24A",
                "addr:city": "Sieradz",
                "addr:postcode": "98-200",
                "amenity": "pharmacy",
                "dispensing": "yes"
            },
            "geometry": {
                "type": "Point",
                "coordinates": [
                    18.70938197944646,
                    51.58349132025987
                ]
            }
        },
        {
            "type": "Feature",
            "properties": {
                "ref:csioz": 1016089,
                "name": "Nova",
                "addr:street": "Sieradzka",
                "addr:housenumber": "59",
                "addr:city": "Błaszki",
                "addr:postcode": "98-235",
                "amenity": "pharmacy",
                "dispensing": "yes"
            },
            "geometry": {
                "type": "Point",
                "coordinates": [
                    18.44391523817247,
                    51.65128696771281
                ]
            }
        },
        {
            "type": "Feature",
            "properties": {
                "ref:csioz": 1018702,
                "name": "Alfa",
                "addr:street": "Krakowskie Przedmieście",
                "addr:housenumber": "10",
                "addr:city": "Sieradz",
                "addr:postcode": "98-200",
                "amenity": "pharmacy",
                "dispensing": "yes"
            },
            "geometry": {
                "type": "Point",
                "coordinates": [
                    18.73896734503755,
                    51.59103430723206
                ]
            }
        },
        {
            "type": "Feature",
            "properties": {
                "ref:csioz": 1020173,
                "name": "Apteka Dbam O Zdrowie",
                "addr:street": "Polskiej Organizacji Wojskowej",
                "addr:housenumber": "80",
                "addr:city": "Sieradz",
                "addr:postcode": "98-200",
                "amenity": "pharmacy",
                "dispensing": "yes"
            },
            "geometry": {
                "type": "Point",
                "coordinates": [
                    18.713386698191105,
                    51.59591377091323
                ]
            }
        },
        {
            "type": "Feature",
            "properties": {
                "ref:csioz": 1118517,
                "name": "Apteka Prima",
                "addr:street": "marsz. Józefa Piłsudskiego",
                "addr:housenumber": "12",
                "addr:city": "Sieradz",
                "addr:postcode": "98-200",
                "amenity": "pharmacy",
                "dispensing": "yes"
            },
            "geometry": {
                "type": "Point",
                "coordinates": [
                    18.729862292599336,
                    51.592168486489996
                ]
            }
        },
        {
            "type": "Feature",
            "properties": {
                "ref:csioz": 1120470,
                "name": "Apteka Słoneczna Centrum Farmaceutyczne",
                "addr:street": "Wincentego Wnuka",
                "addr:housenumber": "4",
                "addr:city": "Sieradz",
                "addr:postcode": "98-200",
                "amenity": "pharmacy",
                "dispensing": "yes"
            },
            "geometry": {
                "type": "Point",
                "coordinates": [
                    18.72004609190116,
                    51.58751305553168
                ]
            }
        },
        {
            "type": "Feature",
            "properties": {
                "ref:csioz": 1177573,
                "name": "\"Apteka \"\"Pod Fontanną\"\"\"",
                "addr:housenumber": "109A",
                "addr:postcode": "98-235",
                "amenity": "pharmacy",
                "addr:place": "Gruszczyce",
                "dispensing": "yes"
            },
            "geometry": {
                "type": "Point",
                "coordinates": [
                    18.470149217836962,
                    51.6146766610366
                ]
            }
        },
        {
            "type": "Feature",
            "properties": {
                "ref:csioz": 1177817,
                "name": "W Szpitalu",
                "addr:street": "Armii Krajowej",
                "addr:housenumber": "7",
                "addr:city": "Sieradz",
                "addr:postcode": "98-200",
                "amenity": "pharmacy",
                "dispensing": "yes"
            },
            "geometry": {
                "type": "Point",
                "coordinates": [
                    18.71008318061225,
                    51.58229213191666
                ]
            }
        },
        {
            "type": "Feature",
            "properties": {
                "ref:csioz": 1182307,
                "name": "Apteka Prima",
                "addr:street": "Władysława Łokietka",
                "addr:housenumber": "5",
                "addr:city": "Sieradz",
                "addr:postcode": "98-200",
                "amenity": "pharmacy",
                "dispensing": "yes"
            },
            "geometry": {
                "type": "Point",
                "coordinates": [
                    18.724597710491405,
                    51.59322180900023
                ]
            }
        },
        {
            "type": "Feature",
            "properties": {
                "ref:csioz": 1197059,
                "name": "Centrum Medyczne",
                "addr:street": "Kolegiacka",
                "addr:housenumber": "1",
                "addr:city": "Sieradz",
                "addr:postcode": "98-200",
                "amenity": "pharmacy",
                "dispensing": "yes"
            },
            "geometry": {
                "type": "Point",
                "coordinates": [
                    18.738307059240704,
                    51.5936152822973
                ]
            }
        },
        {
            "type": "Feature",
            "properties": {
                "ref:csioz": 1013298,
                "name": "Apteka Dbam O Zdrowie",
                "addr:street": "Aleja Pokoju",
                "addr:housenumber": "7",
                "addr:city": "Sieradz",
                "addr:postcode": "98-200",
                "amenity": "pharmacy",
                "dispensing": "yes"
            },
            "geometry": {
                "type": "Point",
                "coordinates": [
                    18.728633013074077,
                    51.58996231511763
                ]
            }
        },
        {
            "type": "Feature",
            "properties": {
                "ref:csioz": 1022395,
                "name": "Apteka Z Uśmiechem",
                "addr:street": "Aleja Grunwaldzka",
                "addr:housenumber": "1",
                "addr:city": "Sieradz",
                "addr:postcode": "98-200",
                "amenity": "pharmacy",
                "dispensing": "yes"
            },
            "geometry": {
                "type": "Point",
                "coordinates": [
                    18.74172434482113,
                    51.59456941107996
                ]
            }
        },
        {
            "type": "Feature",
            "properties": {
                "ref:csioz": 1025971,
                "addr:housenumber": "10C",
                "addr:postcode": "98-285",
                "amenity": "pharmacy",
                "addr:place": "Wróblew",
                "dispensing": "yes"
            },
            "geometry": {
                "type": "Point",
                "coordinates": [
                    18.618249878052527,
                    51.61000883863111
                ]
            }
        },
        {
            "type": "Feature",
            "properties": {
                "ref:csioz": 1180177,
                "name": "Apteka Dr.Optima",
                "addr:street": "Jana Pawła II",
                "addr:housenumber": "3",
                "addr:city": "Sieradz",
                "addr:postcode": "98-200",
                "amenity": "pharmacy",
                "dispensing": "yes"
            },
            "geometry": {
                "type": "Point",
                "coordinates": [
                    18.73040920986183,
                    51.59432747784033
                ]
            }
        },
        {
            "type": "Feature",
            "properties": {
                "ref:csioz": 1193270,
                "name": "Przedsiębiorstwo Nzoz Centrum Kardiologii Inwazyjnej I Angiologii W Sieradzu",
                "addr:street": "kraj",
                "addr:housenumber": "7",
                "addr:city": "Sieradz",
                "addr:postcode": "98-200",
                "amenity": "pharmacy",
                "dispensing": "yes"
            },
            "geometry": {
                "type": "Point",
                "coordinates": [
                    18.715968480073393,
                    51.57764880746577
                ]
            }
        },
        {
            "type": "Feature",
            "properties": {
                "ref:csioz": 1197149,
                "name": "Wojewódzki Szpital Im. Prymasa Kardynała Stefana Wyszyńskiego",
                "addr:street": "Armii Krajowej",
                "addr:housenumber": "7",
                "addr:city": "Sieradz",
                "addr:postcode": "98-200",
                "amenity": "pharmacy",
                "dispensing": "yes"
            },
            "geometry": {
                "type": "Point",
                "coordinates": [
                    18.71008318061225,
                    51.58229213191666
                ]
            }
        },
        {
            "type": "Feature",
            "properties": {
                "ref:csioz": 1200871,
                "name": "Nasza Hera",
                "addr:street": "Władysława Łokietka",
                "addr:housenumber": "3A",
                "addr:city": "Sieradz",
                "addr:postcode": "98-200",
                "amenity": "pharmacy",
                "dispensing": "yes"
            },
            "geometry": {
                "type": "Point",
                "coordinates": [
                    18.72473495521055,
                    51.593374695939055
                ]
            }
        },
        {
            "type": "Feature",
            "properties": {
                "ref:csioz": 1214067,
                "name": "Ziko Apteka",
                "addr:street": "Wojska Polskiego",
                "addr:housenumber": "11",
                "addr:city": "Sieradz",
                "addr:postcode": "98-200",
                "amenity": "pharmacy",
                "dispensing": "yes"
            },
            "geometry": {
                "type": "Point",
                "coordinates": [
                    18.72653409306923,
                    51.597539194384034
                ]
            }
        },
        {
            "type": "Feature",
            "properties": {
                "ref:csioz": 1215276,
                "name": "Apteka Społeczna Na Grunwaldzkiej Grupa Nowa Farmacja",
                "addr:street": "Aleja Grunwaldzka",
                "addr:housenumber": "1D",
                "addr:city": "Sieradz",
                "addr:postcode": "98-200",
                "amenity": "pharmacy",
                "dispensing": "yes"
            },
            "geometry": {
                "type": "Point",
                "coordinates": [
                    18.72033560352854,
                    51.587933510391125
                ]
            }
        },
        {
            "type": "Feature",
            "properties": {
                "ref:csioz": 1217176,
                "name": "Apteka Corax",
                "addr:street": "ks. Jerzego Popiełuszki",
                "addr:housenumber": "2",
                "addr:city": "Sieradz",
                "addr:postcode": "98-200",
                "amenity": "pharmacy",
                "dispensing": "yes"
            },
            "geometry": {
                "type": "Point",
                "coordinates": [
                    18.719084884275972,
                    51.58939075096152
                ]
            }
        },
        {
            "type": "Feature",
            "properties": {
                "ref:csioz": 1222862,
                "name": "Apteka Gemini",
                "addr:street": "Aleja Pokoju",
                "addr:housenumber": "5/7",
                "addr:city": "Sieradz",
                "addr:postcode": "98-200",
                "amenity": "pharmacy",
                "dispensing": "yes"
            },
            "geometry": {
                "type": "Point",
                "coordinates": [
                    18.729064967045048,
                    51.5898288479402
                ]
            }
        },
        {
            "type": "Feature",
            "properties": {
                "ref:csioz": 1221406,
                "name": "\" Apteka \"\"Zdrówko\"\"\"",
                "addr:street": "Sulwińskiego",
                "addr:housenumber": "19",
                "addr:city": "Błaszki",
                "addr:postcode": "98-235",
                "amenity": "pharmacy",
                "dispensing": "yes"
            },
            "geometry": {
                "type": "Point",
                "coordinates": [
                    18.433893395178277,
                    51.654655569013585
                ]
            }
        },
        {
            "type": "Feature",
            "properties": {
                "ref:csioz": 1193256,
                "name": "\"Dział Farmacji Szpitalnej Nzoz \"\"Clinica 'Gruszczyce\"",
                "addr:housenumber": "111",
                "addr:postcode": "98-235",
                "amenity": "pharmacy",
                "addr:place": "Gruszczyce",
                "dispensing": "yes"
            },
            "geometry": {
                "type": "Point",
                "coordinates": [
                    18.469748890486645,
                    51.61486193593394
                ]
            }
        },
        {
            "type": "Feature",
            "properties": {
                "ref:csioz": 1022876,
                "name": "\"Apteka \"\"Nowe Kwiaty Polskie\"\"\"",
                "addr:street": "Aleja Grunwaldzka",
                "addr:housenumber": "1B",
                "addr:city": "Sieradz",
                "addr:postcode": "98-200",
                "amenity": "pharmacy",
                "dispensing": "yes"
            },
            "geometry": {
                "type": "Point",
                "coordinates": [
                    18.719407351971252,
                    51.58793102534455
                ]
            }
        },
        {
            "type": "Feature",
            "properties": {
                "ref:csioz": 1013496,
                "name": "Apteka Dbam O Zdrowie",
                "addr:street": "Sieradzka",
                "addr:housenumber": "94",
                "addr:city": "Brąszewice",
                "addr:postcode": "98-277",
                "amenity": "pharmacy",
                "dispensing": "yes"
            },
            "geometry": {
                "type": "Point",
                "coordinates": [
                    18.445944493955242,
                    51.499898579876195
                ]
            }
        },
        {
            "type": "Feature",
            "properties": {
                "ref:csioz": 1024777,
                "addr:street": "Czajkowska",
                "addr:housenumber": "29A",
                "addr:city": "Klonowa",
                "addr:postcode": "98-273",
                "amenity": "pharmacy",
                "dispensing": "yes"
            },
            "geometry": {
                "type": "Point",
                "coordinates": [
                    18.40884039876832,
                    51.42157312883553
                ]
            }
        },
        {
            "type": "Feature",
            "properties": {
                "ref:csioz": 1010739,
                "name": "Balsam",
                "addr:street": "Przedwiośnie",
                "addr:housenumber": "38",
                "addr:city": "Warta",
                "addr:postcode": "98-290",
                "amenity": "pharmacy",
                "dispensing": "yes"
            },
            "geometry": {
                "type": "Point",
                "coordinates": [
                    18.621675074499375,
                    51.70428074346928
                ]
            }
        },
        {
            "type": "Feature",
            "properties": {
                "ref:csioz": 1022813,
                "name": "Retiro",
                "addr:housenumber": "107A",
                "addr:postcode": "98-235",
                "amenity": "pharmacy",
                "addr:place": "Kalinowa",
                "dispensing": "yes"
            },
            "geometry": {
                "type": "Point",
                "coordinates": [
                    18.482531389540288,
                    51.691071522121725
                ]
            }
        },
        {
            "type": "Feature",
            "properties": {
                "ref:csioz": 1026344,
                "name": "Apteka Arnika",
                "addr:street": "Koźmińska",
                "addr:housenumber": "9",
                "addr:city": "Warta",
                "addr:postcode": "98-290",
                "amenity": "pharmacy",
                "dispensing": "yes"
            },
            "geometry": {
                "type": "Point",
                "coordinates": [
                    18.61958398863631,
                    51.710592826207254
                ]
            }
        },
        {
            "type": "Feature",
            "properties": {
                "ref:csioz": 1010705,
                "name": "Pod Skrzydłami",
                "addr:street": "Skarżyńskiego",
                "addr:housenumber": "10",
                "addr:city": "Warta",
                "addr:postcode": "98-290",
                "amenity": "pharmacy",
                "dispensing": "yes"
            },
            "geometry": {
                "type": "Point",
                "coordinates": [
                    18.6249776862266,
                    51.706849412618524
                ]
            }
        },
        {
            "type": "Feature",
            "properties": {
                "ref:csioz": 1013303,
                "name": "Przy Rynku",
                "addr:street": "Błękitnej Armii",
                "addr:housenumber": "1",
                "addr:city": "Warta",
                "addr:postcode": "98-290",
                "amenity": "pharmacy",
                "dispensing": "yes"
            },
            "geometry": {
                "type": "Point",
                "coordinates": [
                    18.625019665178815,
                    51.70876954790761
                ]
            }
        },
        {
            "type": "Feature",
            "properties": {
                "ref:csioz": 1018273,
                "name": "Arnika",
                "addr:street": "Kaliska",
                "addr:housenumber": "2",
                "addr:city": "Goszczanów",
                "addr:postcode": "98-215",
                "amenity": "pharmacy",
                "dispensing": "yes"
            },
            "geometry": {
                "type": "Point",
                "coordinates": [
                    18.50421215524944,
                    51.78849034187751
                ]
            }
        },
        {
            "type": "Feature",
            "properties": {
                "ref:csioz": 1197130,
                "addr:street": "Sieradzka",
                "addr:housenumber": "3",
                "addr:city": "Warta",
                "addr:postcode": "98-290",
                "amenity": "pharmacy",
                "dispensing": "yes"
            },
            "geometry": {
                "type": "Point",
                "coordinates": [
                    18.62623813234852,
                    51.7046002537229
                ]
            }
        },
        {
            "type": "Feature",
            "properties": {
                "ref:csioz": 1214864,
                "name": "\"Punkt Apteczny 'Pod Skrzydłami'\"",
                "addr:street": "Warcka",
                "addr:housenumber": "9",
                "addr:city": "Rossoszyca",
                "addr:postcode": "98-290",
                "amenity": "pharmacy",
                "dispensing": "yes"
            },
            "geometry": {
                "type": "Point",
                "coordinates": [
                    18.789534089563148,
                    51.701287223950665
                ]
            }
        }
    ]
}