{
    "type": "FeatureCollection",
    "name": "JPT_KOD_JE_1816",
    "features": [
        {
            "type": "Feature",
            "properties": {
                "ref:csioz": 1081338,
                "addr:housenumber": "198",
                "addr:postcode": "38-324",
                "amenity": "pharmacy",
                "addr:place": "Siedliska",
                "dispensing": "yes"
            },
            "geometry": {
                "type": "Point",
                "coordinates": [
                    21.95170629889271,
                    49.95529325312481
                ]
            }
        },
        {
            "type": "Feature",
            "properties": {
                "ref:csioz": 1125728,
                "addr:street": "Przemysłowa",
                "addr:housenumber": "2B",
                "addr:city": "Boguchwała",
                "addr:postcode": "36-040",
                "amenity": "pharmacy",
                "dispensing": "yes"
            },
            "geometry": {
                "type": "Point",
                "coordinates": [
                    21.94343252943711,
                    49.985168776997135
                ]
            }
        },
        {
            "type": "Feature",
            "properties": {
                "ref:csioz": 1125753,
                "addr:housenumber": "88",
                "addr:postcode": "36-025",
                "amenity": "pharmacy",
                "addr:place": "Dylągówka",
                "dispensing": "yes"
            },
            "geometry": {
                "type": "Point",
                "coordinates": [
                    22.199290497840607,
                    49.90929630436041
                ]
            }
        },
        {
            "type": "Feature",
            "properties": {
                "ref:csioz": 1125789,
                "name": "Melisa",
                "addr:housenumber": "35",
                "addr:postcode": "35-106",
                "amenity": "pharmacy",
                "addr:place": "Kielanówka",
                "dispensing": "yes"
            },
            "geometry": {
                "type": "Point",
                "coordinates": [
                    21.940221040331256,
                    50.025240065281345
                ]
            }
        },
        {
            "type": "Feature",
            "properties": {
                "ref:csioz": 1125808,
                "addr:housenumber": "215",
                "addr:postcode": "36-053",
                "amenity": "pharmacy",
                "addr:place": "Łowisko",
                "dispensing": "yes"
            },
            "geometry": {
                "type": "Point",
                "coordinates": [
                    22.18465316120169,
                    50.30198718739429
                ]
            }
        },
        {
            "type": "Feature",
            "properties": {
                "ref:csioz": 1125856,
                "addr:housenumber": "302",
                "addr:postcode": "36-061",
                "amenity": "pharmacy",
                "addr:place": "Wysoka Głogowska",
                "dispensing": "yes"
            },
            "geometry": {
                "type": "Point",
                "coordinates": [
                    22.021605576701575,
                    50.15650813155412
                ]
            }
        },
        {
            "type": "Feature",
            "properties": {
                "ref:csioz": 1146143,
                "addr:housenumber": "170",
                "addr:postcode": "36-004",
                "amenity": "pharmacy",
                "addr:place": "Łąka",
                "dispensing": "yes"
            },
            "geometry": {
                "type": "Point",
                "coordinates": [
                    22.103852820655575,
                    50.08825612523857
                ]
            }
        },
        {
            "type": "Feature",
            "properties": {
                "ref:csioz": 1146156,
                "addr:housenumber": "695A",
                "addr:postcode": "36-052",
                "amenity": "pharmacy",
                "addr:place": "Nienadówka",
                "dispensing": "yes"
            },
            "geometry": {
                "type": "Point",
                "coordinates": [
                    22.107733477190397,
                    50.19420389500974
                ]
            }
        },
        {
            "type": "Feature",
            "properties": {
                "ref:csioz": 1146170,
                "addr:street": "Tysiąclecia",
                "addr:housenumber": "6",
                "addr:city": "Sokołów Małopolski",
                "addr:postcode": "36-050",
                "amenity": "pharmacy",
                "dispensing": "yes"
            },
            "geometry": {
                "type": "Point",
                "coordinates": [
                    22.12266400818773,
                    50.23337562044766
                ]
            }
        },
        {
            "type": "Feature",
            "properties": {
                "ref:csioz": 1146162,
                "name": "\"Apteka \"\"Panaceum\"\"\"",
                "addr:street": "Kazimierza Wielkiego",
                "addr:housenumber": "3",
                "addr:city": "Sokołów Małopolski",
                "addr:postcode": "36-050",
                "amenity": "pharmacy",
                "dispensing": "yes"
            },
            "geometry": {
                "type": "Point",
                "coordinates": [
                    22.11966379066392,
                    50.23098468855958
                ]
            }
        },
        {
            "type": "Feature",
            "properties": {
                "ref:csioz": 1164712,
                "name": "Pod Gwiazdą",
                "addr:street": "Przemysłowa",
                "addr:housenumber": "1",
                "addr:city": "Boguchwała",
                "addr:postcode": "36-040",
                "amenity": "pharmacy",
                "dispensing": "yes"
            },
            "geometry": {
                "type": "Point",
                "coordinates": [
                    21.94517549550477,
                    49.98525330438543
                ]
            }
        },
        {
            "type": "Feature",
            "properties": {
                "ref:csioz": 1166024,
                "name": "Różana",
                "addr:housenumber": "200",
                "addr:postcode": "36-007",
                "amenity": "pharmacy",
                "addr:place": "Malawa",
                "dispensing": "yes"
            },
            "geometry": {
                "type": "Point",
                "coordinates": [
                    22.10081370116192,
                    50.030574279877044
                ]
            }
        },
        {
            "type": "Feature",
            "properties": {
                "ref:csioz": 1183213,
                "name": "Apteka W Hyżnem",
                "addr:housenumber": "104",
                "addr:postcode": "36-024",
                "amenity": "pharmacy",
                "addr:place": "Hyżne",
                "dispensing": "yes"
            },
            "geometry": {
                "type": "Point",
                "coordinates": [
                    22.16347901634491,
                    49.92421047775552
                ]
            }
        },
        {
            "type": "Feature",
            "properties": {
                "ref:csioz": 1226803,
                "addr:housenumber": "972",
                "addr:postcode": "36-047",
                "amenity": "pharmacy",
                "addr:place": "Niechobrz",
                "dispensing": "yes"
            },
            "geometry": {
                "type": "Point",
                "coordinates": [
                    21.90145489316246,
                    50.00713792020758
                ]
            }
        },
        {
            "type": "Feature",
            "properties": {
                "ref:csioz": 1125819,
                "addr:housenumber": "426",
                "addr:postcode": "36-004",
                "amenity": "pharmacy",
                "addr:place": "Łukawiec",
                "dispensing": "yes"
            },
            "geometry": {
                "type": "Point",
                "coordinates": [
                    22.118624452523534,
                    50.10338214242924
                ]
            }
        },
        {
            "type": "Feature",
            "properties": {
                "ref:csioz": 1125257,
                "addr:housenumber": "600",
                "addr:postcode": "36-060",
                "amenity": "pharmacy",
                "addr:place": "Rudna Mała",
                "dispensing": "yes"
            },
            "geometry": {
                "type": "Point",
                "coordinates": [
                    21.978770586764902,
                    50.10482149985188
                ]
            }
        },
        {
            "type": "Feature",
            "properties": {
                "ref:csioz": 1125285,
                "addr:street": "Rzeszowska",
                "addr:housenumber": "5",
                "addr:city": "Górno",
                "addr:postcode": "36-051",
                "amenity": "pharmacy",
                "dispensing": "yes"
            },
            "geometry": {
                "type": "Point",
                "coordinates": [
                    22.134447670810605,
                    50.28463566223907
                ]
            }
        },
        {
            "type": "Feature",
            "properties": {
                "ref:csioz": 1136422,
                "addr:housenumber": "393",
                "addr:postcode": "36-002",
                "amenity": "pharmacy",
                "addr:place": "Stobierna",
                "dispensing": "yes"
            },
            "geometry": {
                "type": "Point",
                "coordinates": [
                    22.070246899583807,
                    50.1429458242867
                ]
            }
        },
        {
            "type": "Feature",
            "properties": {
                "ref:csioz": 1136596,
                "name": "Nzoz Leśniówka",
                "addr:housenumber": "242",
                "addr:postcode": "36-050",
                "amenity": "pharmacy",
                "addr:place": "Turza",
                "dispensing": "yes"
            },
            "geometry": {
                "type": "Point",
                "coordinates": [
                    22.10640449092551,
                    50.263326278388305
                ]
            }
        },
        {
            "type": "Feature",
            "properties": {
                "ref:csioz": 1136853,
                "addr:housenumber": "66A",
                "addr:postcode": "36-002",
                "amenity": "pharmacy",
                "addr:place": "Tajęcina",
                "dispensing": "yes"
            },
            "geometry": {
                "type": "Point",
                "coordinates": [
                    22.00683672202517,
                    50.12565040588501
                ]
            }
        },
        {
            "type": "Feature",
            "properties": {
                "ref:csioz": 1146029,
                "addr:street": "ks.Stanisława Żytkiewicza",
                "addr:housenumber": "2",
                "addr:city": "Boguchwała",
                "addr:postcode": "36-040",
                "amenity": "pharmacy",
                "dispensing": "yes"
            },
            "geometry": {
                "type": "Point",
                "coordinates": [
                    21.94552374200004,
                    49.98591527847072
                ]
            }
        },
        {
            "type": "Feature",
            "properties": {
                "ref:csioz": 1146041,
                "name": "„Apteka W Przychodni”",
                "addr:housenumber": "50A",
                "addr:postcode": "36-016",
                "amenity": "pharmacy",
                "addr:place": "Chmielnik",
                "dispensing": "yes"
            },
            "geometry": {
                "type": "Point",
                "coordinates": [
                    22.126228699835302,
                    49.98054778538749
                ]
            }
        },
        {
            "type": "Feature",
            "properties": {
                "ref:csioz": 1146078,
                "name": "Aqua",
                "addr:street": "Rynek",
                "addr:housenumber": "7",
                "addr:city": "Głogów Małopolski",
                "addr:postcode": "36-060",
                "amenity": "pharmacy",
                "dispensing": "yes"
            },
            "geometry": {
                "type": "Point",
                "coordinates": [
                    21.961319510337415,
                    50.151653144275585
                ]
            }
        },
        {
            "type": "Feature",
            "properties": {
                "ref:csioz": 1146086,
                "name": "Doz Apteka. Dbam O Zdrowie. Nova",
                "addr:street": "Rynek",
                "addr:housenumber": "31",
                "addr:city": "Głogów Małopolski",
                "addr:postcode": "36-060",
                "amenity": "pharmacy",
                "dispensing": "yes"
            },
            "geometry": {
                "type": "Point",
                "coordinates": [
                    21.963714474251848,
                    50.15158936711814
                ]
            }
        },
        {
            "type": "Feature",
            "properties": {
                "ref:csioz": 1146093,
                "addr:street": "Zagrodowa",
                "addr:housenumber": "23a",
                "addr:city": "Górno",
                "addr:postcode": "36-051",
                "amenity": "pharmacy",
                "dispensing": "yes"
            },
            "geometry": {
                "type": "Point",
                "coordinates": [
                    22.157890432104683,
                    50.27018326326853
                ]
            }
        },
        {
            "type": "Feature",
            "properties": {
                "ref:csioz": 1146064,
                "name": "Niva",
                "addr:street": "Ignacego Krasickiego",
                "addr:housenumber": "8",
                "addr:city": "Głogów Małopolski",
                "addr:postcode": "36-060",
                "amenity": "pharmacy",
                "dispensing": "yes"
            },
            "geometry": {
                "type": "Point",
                "coordinates": [
                    21.96877539974139,
                    50.14165365772431
                ]
            }
        },
        {
            "type": "Feature",
            "properties": {
                "ref:csioz": 1146197,
                "name": "Doz Apteka. Dbam O Zdrowie. Viola",
                "addr:housenumber": "866",
                "addr:postcode": "36-001",
                "amenity": "pharmacy",
                "addr:place": "Trzebownisko",
                "dispensing": "yes"
            },
            "geometry": {
                "type": "Point",
                "coordinates": [
                    22.03636009531778,
                    50.07803420320882
                ]
            }
        },
        {
            "type": "Feature",
            "properties": {
                "ref:csioz": 1146216,
                "name": "Apteka Farmnet",
                "addr:street": "Strażacka",
                "addr:housenumber": "1",
                "addr:city": "Tyczyn",
                "addr:postcode": "36-020",
                "amenity": "pharmacy",
                "dispensing": "yes"
            },
            "geometry": {
                "type": "Point",
                "coordinates": [
                    22.03371880311484,
                    49.962445240412805
                ]
            }
        },
        {
            "type": "Feature",
            "properties": {
                "ref:csioz": 1146227,
                "addr:housenumber": "246",
                "addr:postcode": "36-062",
                "amenity": "pharmacy",
                "addr:place": "Zaczernie",
                "dispensing": "yes"
            },
            "geometry": {
                "type": "Point",
                "coordinates": [
                    21.995808138643493,
                    50.09288652105112
                ]
            }
        },
        {
            "type": "Feature",
            "properties": {
                "ref:csioz": 1146242,
                "addr:housenumber": "583",
                "addr:postcode": "36-002",
                "amenity": "pharmacy",
                "addr:place": "Jasionka",
                "dispensing": "yes"
            },
            "geometry": {
                "type": "Point",
                "coordinates": [
                    22.058891225580762,
                    50.12035571500068
                ]
            }
        },
        {
            "type": "Feature",
            "properties": {
                "ref:csioz": 1172215,
                "addr:street": "Fabryczna",
                "addr:housenumber": "17",
                "addr:city": "Głogów Małopolski",
                "addr:postcode": "36-060",
                "amenity": "pharmacy",
                "dispensing": "yes"
            },
            "geometry": {
                "type": "Point",
                "coordinates": [
                    21.957579900536853,
                    50.1535363294198
                ]
            }
        },
        {
            "type": "Feature",
            "properties": {
                "ref:csioz": 1180279,
                "addr:housenumber": "33",
                "addr:postcode": "36-007",
                "amenity": "pharmacy",
                "addr:place": "Krasne",
                "dispensing": "yes"
            },
            "geometry": {
                "type": "Point",
                "coordinates": [
                    22.08226103803147,
                    50.04100702393998
                ]
            }
        },
        {
            "type": "Feature",
            "properties": {
                "ref:csioz": 1210809,
                "name": "Pharm-Sis",
                "addr:housenumber": "84",
                "addr:postcode": "36-020",
                "amenity": "pharmacy",
                "addr:place": "Borek Stary",
                "dispensing": "yes"
            },
            "geometry": {
                "type": "Point",
                "coordinates": [
                    22.099940299171433,
                    49.95327615376303
                ]
            }
        },
        {
            "type": "Feature",
            "properties": {
                "ref:csioz": 1192702,
                "name": "Vita",
                "addr:street": "Rynek",
                "addr:housenumber": "5",
                "addr:city": "Sokołów Małopolski",
                "addr:postcode": "36-050",
                "amenity": "pharmacy",
                "dispensing": "yes"
            },
            "geometry": {
                "type": "Point",
                "coordinates": [
                    22.117946972852817,
                    50.2302481964968
                ]
            }
        },
        {
            "type": "Feature",
            "properties": {
                "ref:csioz": 1195940,
                "name": "Apteka Difarm",
                "addr:housenumber": "67A",
                "addr:postcode": "36-046",
                "amenity": "pharmacy",
                "addr:place": "Zgłobień",
                "dispensing": "yes"
            },
            "geometry": {
                "type": "Point",
                "coordinates": [
                    21.859770622054565,
                    50.01219899807627
                ]
            }
        },
        {
            "type": "Feature",
            "properties": {
                "ref:csioz": 1195954,
                "name": "Punkt Apteczny Difarm",
                "addr:housenumber": "795",
                "addr:postcode": "36-047",
                "amenity": "pharmacy",
                "addr:place": "Niechobrz",
                "dispensing": "yes"
            },
            "geometry": {
                "type": "Point",
                "coordinates": [
                    21.874223394214635,
                    49.99633513073377
                ]
            }
        },
        {
            "type": "Feature",
            "properties": {
                "ref:csioz": 1214080,
                "name": "Apteka Animed",
                "addr:street": "Orkana",
                "addr:housenumber": "1",
                "addr:city": "Tyczyn",
                "addr:postcode": "36-020",
                "amenity": "pharmacy",
                "dispensing": "yes"
            },
            "geometry": {
                "type": "Point",
                "coordinates": [
                    22.027621107251942,
                    49.96684390616121
                ]
            }
        },
        {
            "type": "Feature",
            "properties": {
                "ref:csioz": 1215641,
                "name": "Zakład Pielęgnacyjno-Opiekuńczy Caritas Okręg Głogów Młp.",
                "addr:street": "Bolesława Prusa",
                "addr:housenumber": "29",
                "addr:city": "Głogów Małopolski",
                "addr:postcode": "36-060",
                "amenity": "pharmacy",
                "dispensing": "yes"
            },
            "geometry": {
                "type": "Point",
                "coordinates": [
                    21.966594882342914,
                    50.15369949016584
                ]
            }
        },
        {
            "type": "Feature",
            "properties": {
                "ref:csioz": 1221272,
                "name": "Rodzinna",
                "addr:housenumber": "817",
                "addr:postcode": "36-001",
                "amenity": "pharmacy",
                "addr:place": "Trzebownisko",
                "dispensing": "yes"
            },
            "geometry": {
                "type": "Point",
                "coordinates": [
                    22.03465195699318,
                    50.07832820414401
                ]
            }
        },
        {
            "type": "Feature",
            "properties": {
                "ref:csioz": 1225645,
                "name": "Medimo",
                "addr:street": "płk. Łukasza Cieplińskiego",
                "addr:housenumber": "28",
                "addr:city": "Sokołów Małopolski",
                "addr:postcode": "36-050",
                "amenity": "pharmacy",
                "dispensing": "yes"
            },
            "geometry": {
                "type": "Point",
                "coordinates": [
                    22.119366457561487,
                    50.23778202807428
                ]
            }
        },
        {
            "type": "Feature",
            "properties": {
                "ref:csioz": 1228008,
                "addr:housenumber": "33",
                "addr:postcode": "36-007",
                "amenity": "pharmacy",
                "addr:place": "Krasne",
                "dispensing": "yes"
            },
            "geometry": {
                "type": "Point",
                "coordinates": [
                    22.08226103803147,
                    50.04100702393998
                ]
            }
        },
        {
            "type": "Feature",
            "properties": {
                "ref:csioz": 1146135,
                "name": "\"Apteka \"\"U Galena\"\"\"",
                "addr:housenumber": "374",
                "addr:postcode": "36-042",
                "amenity": "pharmacy",
                "addr:place": "Lubenia",
                "dispensing": "yes"
            },
            "geometry": {
                "type": "Point",
                "coordinates": [
                    21.93650510614443,
                    49.924420064604305
                ]
            }
        },
        {
            "type": "Feature",
            "properties": {
                "ref:csioz": 1146124,
                "name": "Dr.Max",
                "addr:housenumber": "20B",
                "addr:postcode": "36-007",
                "amenity": "pharmacy",
                "addr:place": "Krasne",
                "dispensing": "yes"
            },
            "geometry": {
                "type": "Point",
                "coordinates": [
                    22.074476979329074,
                    50.03918915742544
                ]
            }
        },
        {
            "type": "Feature",
            "properties": {
                "ref:csioz": 1146032,
                "name": "Abira",
                "addr:housenumber": "13",
                "addr:postcode": "36-055",
                "amenity": "pharmacy",
                "addr:place": "Bratkowice",
                "dispensing": "yes"
            },
            "geometry": {
                "type": "Point",
                "coordinates": [
                    21.86783832402748,
                    50.120662096812666
                ]
            }
        },
        {
            "type": "Feature",
            "properties": {
                "ref:csioz": 1165265,
                "name": "Abira",
                "addr:housenumber": "164",
                "addr:postcode": "36-072",
                "amenity": "pharmacy",
                "addr:place": "Świlcza",
                "dispensing": "yes"
            },
            "geometry": {
                "type": "Point",
                "coordinates": [
                    21.898305542853553,
                    50.07154183997427
                ]
            }
        },
        {
            "type": "Feature",
            "properties": {
                "ref:csioz": 1146108,
                "name": "Apteka Centrum",
                "addr:housenumber": "313",
                "addr:postcode": "36-053",
                "amenity": "pharmacy",
                "addr:place": "Kamień",
                "dispensing": "yes"
            },
            "geometry": {
                "type": "Point",
                "coordinates": [
                    22.10384635417942,
                    50.300516699299074
                ]
            }
        },
        {
            "type": "Feature",
            "properties": {
                "ref:csioz": 1216680,
                "name": "Apteka Bliska Sercu",
                "addr:housenumber": "746A",
                "addr:postcode": "36-007",
                "amenity": "pharmacy",
                "addr:place": "Krasne",
                "dispensing": "yes"
            },
            "geometry": {
                "type": "Point",
                "coordinates": [
                    22.09132227267398,
                    50.04903500051697
                ]
            }
        },
        {
            "type": "Feature",
            "properties": {
                "ref:csioz": 1146203,
                "name": "Apteka W Rynku",
                "addr:street": "Rynek",
                "addr:housenumber": "13",
                "addr:city": "Tyczyn",
                "addr:postcode": "36-020",
                "amenity": "pharmacy",
                "dispensing": "yes"
            },
            "geometry": {
                "type": "Point",
                "coordinates": [
                    22.033619950290905,
                    49.96397079999671
                ]
            }
        },
        {
            "type": "Feature",
            "properties": {
                "ref:csioz": 1141474,
                "name": "Pod Zegarem",
                "addr:street": "Kazimierza Wielkiego",
                "addr:housenumber": "1",
                "addr:city": "Dynów",
                "addr:postcode": "37-760",
                "amenity": "pharmacy",
                "dispensing": "yes"
            },
            "geometry": {
                "type": "Point",
                "coordinates": [
                    22.234207193564572,
                    49.81426295125702
                ]
            }
        },
        {
            "type": "Feature",
            "properties": {
                "ref:csioz": 1145988,
                "name": "Apteka Lafarma",
                "addr:street": "Armii Krajowej",
                "addr:housenumber": "5",
                "addr:city": "Błażowa",
                "addr:postcode": "36-030",
                "amenity": "pharmacy",
                "dispensing": "yes"
            },
            "geometry": {
                "type": "Point",
                "coordinates": [
                    22.10012649856872,
                    49.88597438806637
                ]
            }
        },
        {
            "type": "Feature",
            "properties": {
                "ref:csioz": 1180526,
                "name": "Animed",
                "addr:street": "Mickiewicza",
                "addr:housenumber": "11",
                "addr:city": "Dynów",
                "addr:postcode": "36-065",
                "amenity": "pharmacy",
                "dispensing": "yes"
            },
            "geometry": {
                "type": "Point",
                "coordinates": [
                    22.231999968114074,
                    49.814497610023814
                ]
            }
        },
        {
            "type": "Feature",
            "properties": {
                "ref:csioz": 1146010,
                "name": "\"Apteka \"\"Melisa\"\" \"",
                "addr:street": "Jana Pawła II",
                "addr:housenumber": "6",
                "addr:city": "Błażowa",
                "addr:postcode": "36-030",
                "amenity": "pharmacy",
                "dispensing": "yes"
            },
            "geometry": {
                "type": "Point",
                "coordinates": [
                    22.100114524411687,
                    49.88452726242922
                ]
            }
        },
        {
            "type": "Feature",
            "properties": {
                "ref:csioz": 1196693,
                "name": "Apteka Lafarma",
                "addr:street": "Handlowa",
                "addr:housenumber": "4",
                "addr:city": "Dynów",
                "addr:postcode": "36-065",
                "amenity": "pharmacy",
                "dispensing": "yes"
            },
            "geometry": {
                "type": "Point",
                "coordinates": [
                    22.232931370644895,
                    49.814035979597634
                ]
            }
        },
        {
            "type": "Feature",
            "properties": {
                "ref:csioz": 1203726,
                "name": "Różana",
                "addr:street": "Rynek",
                "addr:housenumber": "6",
                "addr:city": "Dynów",
                "addr:postcode": "36-065",
                "amenity": "pharmacy",
                "dispensing": "yes"
            },
            "geometry": {
                "type": "Point",
                "coordinates": [
                    22.23412170768808,
                    49.81477032817404
                ]
            }
        },
        {
            "type": "Feature",
            "properties": {
                "ref:csioz": 1227973,
                "name": "Danfarm Punkt Apteczny Harta",
                "addr:housenumber": "320",
                "addr:postcode": "36-067",
                "amenity": "pharmacy",
                "addr:place": "Harta",
                "dispensing": "yes"
            },
            "geometry": {
                "type": "Point",
                "coordinates": [
                    22.1820733055393,
                    49.87073104309949
                ]
            }
        }
    ]
}