{
    "type": "FeatureCollection",
    "name": "JPT_KOD_JE_2606",
    "features": [
        {
            "type": "Feature",
            "properties": {
                "ref:csioz": 1003867,
                "name": "Apteka Dla Ciebie",
                "addr:housenumber": "85A",
                "addr:postcode": "27-552",
                "amenity": "pharmacy",
                "addr:place": "Baćkowice",
                "dispensing": "yes"
            },
            "geometry": {
                "type": "Point",
                "coordinates": [
                    21.232544538754915,
                    50.798164003359595
                ]
            }
        },
        {
            "type": "Feature",
            "properties": {
                "ref:csioz": 1004595,
                "name": "Melisa",
                "addr:street": "Opatowska",
                "addr:housenumber": "10",
                "addr:city": "Iwaniska",
                "addr:postcode": "27-570",
                "amenity": "pharmacy",
                "dispensing": "yes"
            },
            "geometry": {
                "type": "Point",
                "coordinates": [
                    21.281885907239204,
                    50.731847550104874
                ]
            }
        },
        {
            "type": "Feature",
            "properties": {
                "ref:csioz": 1112028,
                "name": "Apteka Zdrowie",
                "addr:street": "Kolejowa",
                "addr:housenumber": "1a",
                "addr:city": "Iwaniska",
                "addr:postcode": "27-570",
                "amenity": "pharmacy",
                "dispensing": "yes"
            },
            "geometry": {
                "type": "Point",
                "coordinates": [
                    21.286201226077495,
                    50.733763861082984
                ]
            }
        },
        {
            "type": "Feature",
            "properties": {
                "ref:csioz": 1001073,
                "addr:street": "Czekarzewska",
                "addr:housenumber": "7",
                "addr:city": "Tarłów",
                "addr:postcode": "27-515",
                "amenity": "pharmacy",
                "dispensing": "yes"
            },
            "geometry": {
                "type": "Point",
                "coordinates": [
                    21.713225905363313,
                    51.002912906611805
                ]
            }
        },
        {
            "type": "Feature",
            "properties": {
                "ref:csioz": 1002083,
                "addr:street": "Sandomierska",
                "addr:housenumber": "72",
                "addr:city": "Tarłów",
                "addr:postcode": "27-515",
                "amenity": "pharmacy",
                "dispensing": "yes"
            },
            "geometry": {
                "type": "Point",
                "coordinates": [
                    21.715848506901082,
                    50.994884874182645
                ]
            }
        },
        {
            "type": "Feature",
            "properties": {
                "ref:csioz": 1002856,
                "name": "Esculap",
                "addr:street": "Wysoka",
                "addr:housenumber": "13",
                "addr:city": "Ożarów",
                "addr:postcode": "27-530",
                "amenity": "pharmacy",
                "dispensing": "yes"
            },
            "geometry": {
                "type": "Point",
                "coordinates": [
                    21.664371966798072,
                    50.88626781980123
                ]
            }
        },
        {
            "type": "Feature",
            "properties": {
                "ref:csioz": 1004227,
                "name": "Apteki Polskie",
                "addr:street": "Wzgórze",
                "addr:housenumber": "54D",
                "addr:city": "Ożarów",
                "addr:postcode": "27-530",
                "amenity": "pharmacy",
                "dispensing": "yes"
            },
            "geometry": {
                "type": "Point",
                "coordinates": [
                    21.66249442570197,
                    50.88729108333849
                ]
            }
        },
        {
            "type": "Feature",
            "properties": {
                "ref:csioz": 1004812,
                "name": "Punkt Apteczny Medyk",
                "addr:housenumber": "255",
                "addr:postcode": "27-540",
                "amenity": "pharmacy",
                "addr:place": "Włostów",
                "dispensing": "yes"
            },
            "geometry": {
                "type": "Point",
                "coordinates": [
                    21.444401066990537,
                    50.74875804625285
                ]
            }
        },
        {
            "type": "Feature",
            "properties": {
                "ref:csioz": 1004873,
                "addr:housenumber": "2",
                "addr:postcode": "27-515",
                "amenity": "pharmacy",
                "addr:place": "Wólka Lipowa",
                "dispensing": "yes"
            },
            "geometry": {
                "type": "Point",
                "coordinates": [
                    21.70083810170386,
                    50.958124394040254
                ]
            }
        },
        {
            "type": "Feature",
            "properties": {
                "ref:csioz": 1001968,
                "name": "Apteki Polskie",
                "addr:street": "Szeroka",
                "addr:housenumber": "2",
                "addr:city": "OPATÓW",
                "addr:postcode": "27-500",
                "amenity": "pharmacy",
                "dispensing": "yes"
            },
            "geometry": {
                "type": "Point",
                "coordinates": [
                    21.425299951496434,
                    50.79968991425997
                ]
            }
        },
        {
            "type": "Feature",
            "properties": {
                "ref:csioz": 1002325,
                "addr:street": "Szeroka",
                "addr:housenumber": "2",
                "addr:city": "Opatów",
                "addr:postcode": "27-500",
                "amenity": "pharmacy",
                "dispensing": "yes"
            },
            "geometry": {
                "type": "Point",
                "coordinates": [
                    21.425299951496434,
                    50.79965991425997
                ]
            }
        },
        {
            "type": "Feature",
            "properties": {
                "ref:csioz": 1003537,
                "name": "Apteka Słoneczna",
                "addr:street": "Wysoka",
                "addr:housenumber": "35",
                "addr:city": "Ożarów",
                "addr:postcode": "27-530",
                "amenity": "pharmacy",
                "dispensing": "yes"
            },
            "geometry": {
                "type": "Point",
                "coordinates": [
                    21.664867925312123,
                    50.88750077434914
                ]
            }
        },
        {
            "type": "Feature",
            "properties": {
                "ref:csioz": 1003955,
                "name": "Apteka Słoneczna",
                "addr:street": "Mikołaja Kopernika",
                "addr:housenumber": "3C",
                "addr:city": "Opatów",
                "addr:postcode": "27-500",
                "amenity": "pharmacy",
                "dispensing": "yes"
            },
            "geometry": {
                "type": "Point",
                "coordinates": [
                    21.428530262575745,
                    50.79879419363879
                ]
            }
        },
        {
            "type": "Feature",
            "properties": {
                "ref:csioz": 1137910,
                "name": "Apteka Szpitalna",
                "addr:street": "Szpitalna",
                "addr:housenumber": "4",
                "addr:city": "Opatów",
                "addr:postcode": "27-500",
                "amenity": "pharmacy",
                "dispensing": "yes"
            },
            "geometry": {
                "type": "Point",
                "coordinates": [
                    21.424142744612475,
                    50.804901269574586
                ]
            }
        },
        {
            "type": "Feature",
            "properties": {
                "ref:csioz": 1003256,
                "name": "\"Apteka \"\"Medyk\"\"\"",
                "addr:street": "Szeroka",
                "addr:housenumber": "8",
                "addr:city": "Opatów",
                "addr:postcode": "27-500",
                "amenity": "pharmacy",
                "dispensing": "yes"
            },
            "geometry": {
                "type": "Point",
                "coordinates": [
                    21.42430538834452,
                    50.80004762998501
                ]
            }
        }
    ]
}