{
    "type": "FeatureCollection",
    "name": "JPT_KOD_JE_3021",
    "features": [
        {
            "type": "Feature",
            "properties": {
                "ref:csioz": 1045775,
                "name": "Parkowa",
                "addr:street": "Bydgoska",
                "addr:housenumber": "14",
                "addr:city": "Owińska",
                "addr:postcode": "62-005",
                "amenity": "pharmacy"
            },
            "geometry": {
                "type": "Point",
                "coordinates": [
                    16.975202025919568,
                    52.51861566870919
                ]
            }
        },
        {
            "type": "Feature",
            "properties": {
                "ref:csioz": 1047460,
                "name": "Pod Orłem",
                "addr:street": "Sportowa",
                "addr:housenumber": "1",
                "addr:city": "Tarnowo Podgórne",
                "addr:postcode": "62-080",
                "amenity": "pharmacy"
            },
            "geometry": {
                "type": "Point",
                "coordinates": [
                    16.66222247886613,
                    52.468487105029006
                ]
            }
        },
        {
            "type": "Feature",
            "properties": {
                "ref:csioz": 1050663,
                "name": "Szafirowa",
                "addr:street": "Bonawentury Graszyńskiego",
                "addr:housenumber": "1",
                "addr:city": "MUROWANA GOŚLINA",
                "addr:postcode": "62-095",
                "amenity": "pharmacy"
            },
            "geometry": {
                "type": "Point",
                "coordinates": [
                    17.014642859526546,
                    52.57476123882535
                ]
            }
        },
        {
            "type": "Feature",
            "properties": {
                "ref:csioz": 1050918,
                "name": "Dr. Max",
                "addr:street": "Długa",
                "addr:housenumber": "25",
                "addr:city": "Murowana Goślina",
                "addr:postcode": "62-095",
                "amenity": "pharmacy"
            },
            "geometry": {
                "type": "Point",
                "coordinates": [
                    16.995662603823888,
                    52.567095707689916
                ]
            }
        },
        {
            "type": "Feature",
            "properties": {
                "ref:csioz": 1051109,
                "name": "Sucholeska",
                "addr:street": "Nowy Rynek",
                "addr:housenumber": "6",
                "addr:city": "Suchy Las",
                "addr:postcode": "62-002",
                "amenity": "pharmacy"
            },
            "geometry": {
                "type": "Point",
                "coordinates": [
                    16.87950591094544,
                    52.47478986776997
                ]
            }
        },
        {
            "type": "Feature",
            "properties": {
                "ref:csioz": 1051645,
                "name": "Apteka Tarnowska",
                "addr:street": "Poznańska",
                "addr:housenumber": "82B",
                "addr:city": "Tarnowo Podgórne",
                "addr:postcode": "62-080",
                "amenity": "pharmacy"
            },
            "geometry": {
                "type": "Point",
                "coordinates": [
                    16.663591305220763,
                    52.464481511921996
                ]
            }
        },
        {
            "type": "Feature",
            "properties": {
                "ref:csioz": 1179581,
                "name": "Rodzinna",
                "addr:street": "Gdyńska",
                "addr:housenumber": "74",
                "addr:city": "Czerwonak",
                "addr:postcode": "62-004",
                "amenity": "pharmacy"
            },
            "geometry": {
                "type": "Point",
                "coordinates": [
                    16.979937721553753,
                    52.473180055338126
                ]
            }
        },
        {
            "type": "Feature",
            "properties": {
                "ref:csioz": 1045256,
                "name": "Eskulap",
                "addr:street": "Obornicka",
                "addr:housenumber": "85",
                "addr:city": "Suchy Las",
                "addr:postcode": "62-002",
                "amenity": "pharmacy"
            },
            "geometry": {
                "type": "Point",
                "coordinates": [
                    16.875546093428753,
                    52.473058205976656
                ]
            }
        },
        {
            "type": "Feature",
            "properties": {
                "ref:csioz": 1048003,
                "name": "Pod Lasem",
                "addr:street": "Grzybowy",
                "addr:housenumber": "7",
                "addr:city": "Złotniki",
                "addr:postcode": "62-002",
                "amenity": "pharmacy"
            },
            "geometry": {
                "type": "Point",
                "coordinates": [
                    16.855861520331626,
                    52.479410943729796
                ]
            }
        },
        {
            "type": "Feature",
            "properties": {
                "ref:csioz": 1048042,
                "name": "Kierska",
                "addr:street": "Kierska",
                "addr:housenumber": "2F",
                "addr:city": "Kiekrz",
                "addr:postcode": "62-090",
                "amenity": "pharmacy"
            },
            "geometry": {
                "type": "Point",
                "coordinates": [
                    16.77999899999574,
                    52.48407100001626
                ]
            }
        },
        {
            "type": "Feature",
            "properties": {
                "ref:csioz": 1048091,
                "name": "Witaminka",
                "addr:street": "Poznańska",
                "addr:housenumber": "10",
                "addr:city": "Chludowo",
                "addr:postcode": "62-001",
                "amenity": "pharmacy"
            },
            "geometry": {
                "type": "Point",
                "coordinates": [
                    16.843810290168946,
                    52.55642787690558
                ]
            }
        },
        {
            "type": "Feature",
            "properties": {
                "ref:csioz": 1050041,
                "name": "Rokietnicka",
                "addr:street": "Szamotulska",
                "addr:housenumber": "5B",
                "addr:city": "Rokietnica",
                "addr:postcode": "62-090",
                "amenity": "pharmacy"
            },
            "geometry": {
                "type": "Point",
                "coordinates": [
                    16.749487231002846,
                    52.51231870545954
                ]
            }
        },
        {
            "type": "Feature",
            "properties": {
                "ref:csioz": 1050227,
                "name": "Rodzinna",
                "addr:street": "POZNAŃSKA",
                "addr:housenumber": "39",
                "addr:city": "BIEDRUSKO",
                "addr:postcode": "62-003",
                "amenity": "pharmacy"
            },
            "geometry": {
                "type": "Point",
                "coordinates": [
                    16.944498690041357,
                    52.54088708438403
                ]
            }
        },
        {
            "type": "Feature",
            "properties": {
                "ref:csioz": 1051741,
                "name": "Doz Apteka.Dbam O Zdrowie",
                "addr:street": "Szamotulska",
                "addr:housenumber": "31",
                "addr:city": "Rokietnica",
                "addr:postcode": "62-090",
                "amenity": "pharmacy"
            },
            "geometry": {
                "type": "Point",
                "coordinates": [
                    16.740099696458138,
                    52.512460976863125
                ]
            }
        },
        {
            "type": "Feature",
            "properties": {
                "ref:csioz": 1055286,
                "name": "Pod Zegarem",
                "addr:street": "Poznańska",
                "addr:housenumber": "17",
                "addr:city": "Murowana Goślina",
                "addr:postcode": "62-095",
                "amenity": "pharmacy"
            },
            "geometry": {
                "type": "Point",
                "coordinates": [
                    17.00942421712689,
                    52.57392700967623
                ]
            }
        },
        {
            "type": "Feature",
            "properties": {
                "ref:csioz": 1055957,
                "name": "Awicenna",
                "addr:street": "Wojciecha Bogusławskiego",
                "addr:housenumber": "8",
                "addr:city": "Suchy Las",
                "addr:postcode": "62-002",
                "amenity": "pharmacy"
            },
            "geometry": {
                "type": "Point",
                "coordinates": [
                    16.878395583799122,
                    52.4733789532908
                ]
            }
        },
        {
            "type": "Feature",
            "properties": {
                "ref:csioz": 1055973,
                "name": "Apteka Cysterska",
                "addr:street": "Poprzeczna",
                "addr:housenumber": "4",
                "addr:city": "Owińska",
                "addr:postcode": "62-005",
                "amenity": "pharmacy"
            },
            "geometry": {
                "type": "Point",
                "coordinates": [
                    16.981207141801274,
                    52.51254753240646
                ]
            }
        },
        {
            "type": "Feature",
            "properties": {
                "ref:csioz": 1123359,
                "name": "Dr. Max",
                "addr:street": "Wojska Polskiego",
                "addr:housenumber": "1",
                "addr:city": "Murowana Goślina",
                "addr:postcode": "62-095",
                "amenity": "pharmacy"
            },
            "geometry": {
                "type": "Point",
                "coordinates": [
                    17.010595235647077,
                    52.57366387066618
                ]
            }
        },
        {
            "type": "Feature",
            "properties": {
                "ref:csioz": 1123836,
                "name": "Witamina",
                "addr:street": "Pocztowa",
                "addr:housenumber": "1",
                "addr:city": "Tarnowo Podgórne",
                "addr:postcode": "62-080",
                "amenity": "pharmacy"
            },
            "geometry": {
                "type": "Point",
                "coordinates": [
                    16.66274500283258,
                    52.463845320900965
                ]
            }
        },
        {
            "type": "Feature",
            "properties": {
                "ref:csioz": 1175660,
                "name": "Dr. Max",
                "addr:street": "Nowy Rynek",
                "addr:housenumber": "14",
                "addr:city": "Murowana Goślina",
                "addr:postcode": "62-095",
                "amenity": "pharmacy"
            },
            "geometry": {
                "type": "Point",
                "coordinates": [
                    16.993620985228674,
                    52.56838151282735
                ]
            }
        },
        {
            "type": "Feature",
            "properties": {
                "ref:csioz": 1179629,
                "name": "Rosa",
                "addr:street": "23 PAŹDZIERNIKA",
                "addr:housenumber": "32",
                "addr:city": "Tarnowo Podgórne",
                "addr:postcode": "62-080",
                "amenity": "pharmacy"
            },
            "geometry": {
                "type": "Point",
                "coordinates": [
                    16.66374269859736,
                    52.46940862565482
                ]
            }
        },
        {
            "type": "Feature",
            "properties": {
                "ref:csioz": 1198357,
                "name": "Vita Salus",
                "addr:street": "Pocztowa",
                "addr:housenumber": "2C",
                "addr:city": "Rokietnica",
                "addr:postcode": "62-090",
                "amenity": "pharmacy"
            },
            "geometry": {
                "type": "Point",
                "coordinates": [
                    16.75176468517313,
                    52.511963506627445
                ]
            }
        },
        {
            "type": "Feature",
            "properties": {
                "ref:csioz": 1202030,
                "addr:street": "Dworcowa",
                "addr:housenumber": "55",
                "addr:city": "Golęczewo",
                "addr:postcode": "62-001",
                "amenity": "pharmacy"
            },
            "geometry": {
                "type": "Point",
                "coordinates": [
                    16.819014504371886,
                    52.53491047426085
                ]
            }
        },
        {
            "type": "Feature",
            "properties": {
                "ref:csioz": 1227488,
                "addr:street": "Poziomkowa",
                "addr:housenumber": "64",
                "addr:city": "Suchy Las",
                "addr:postcode": "62-002",
                "amenity": "pharmacy"
            },
            "geometry": {
                "type": "Point",
                "coordinates": [
                    16.86531246952271,
                    52.46749468476664
                ]
            }
        },
        {
            "type": "Feature",
            "properties": {
                "ref:csioz": 1226065,
                "name": "\"Punkt Apteczny 36,6°C Cerekwica - Mrowino\"\"\"",
                "addr:street": "Szamotulska",
                "addr:housenumber": "7",
                "addr:city": "Cerekwica",
                "addr:postcode": "62-090",
                "amenity": "pharmacy"
            },
            "geometry": {
                "type": "Point",
                "coordinates": [
                    16.695629872395294,
                    52.51530269090605
                ]
            }
        },
        {
            "type": "Feature",
            "properties": {
                "ref:csioz": 1043842,
                "name": "Witaminka",
                "addr:street": "Plac Parkowy",
                "addr:housenumber": "7",
                "addr:city": "Jeziorki",
                "addr:postcode": "62-060",
                "amenity": "pharmacy"
            },
            "geometry": {
                "type": "Point",
                "coordinates": [
                    16.59205005677992,
                    52.311474793591934
                ]
            }
        },
        {
            "type": "Feature",
            "properties": {
                "ref:csioz": 1045727,
                "name": "U Złotego Źródła",
                "addr:street": "Wyzwolenia",
                "addr:housenumber": "16B",
                "addr:city": "Dopiewo",
                "addr:postcode": "62-070",
                "amenity": "pharmacy"
            },
            "geometry": {
                "type": "Point",
                "coordinates": [
                    16.67738547571721,
                    52.35556815628889
                ]
            }
        },
        {
            "type": "Feature",
            "properties": {
                "ref:csioz": 1046349,
                "name": "Stokrotka Ii",
                "addr:street": "Rynkowa",
                "addr:housenumber": "105",
                "addr:city": "Przeźmierowo",
                "addr:postcode": "62-081",
                "amenity": "pharmacy"
            },
            "geometry": {
                "type": "Point",
                "coordinates": [
                    16.787830362140213,
                    52.42138142843398
                ]
            }
        },
        {
            "type": "Feature",
            "properties": {
                "ref:csioz": 1046506,
                "name": "Apteka W Przychodni",
                "addr:street": "Grunwaldzka",
                "addr:housenumber": "508",
                "addr:city": "Plewiska",
                "addr:postcode": "62-052",
                "amenity": "pharmacy"
            },
            "geometry": {
                "type": "Point",
                "coordinates": [
                    16.816011313903395,
                    52.370837429720105
                ]
            }
        },
        {
            "type": "Feature",
            "properties": {
                "ref:csioz": 1046669,
                "name": "Cito",
                "addr:street": "Łąkowa",
                "addr:housenumber": "2",
                "addr:city": "Dopiewo",
                "addr:postcode": "62-070",
                "amenity": "pharmacy"
            },
            "geometry": {
                "type": "Point",
                "coordinates": [
                    16.683074058712155,
                    52.357620336388116
                ]
            }
        },
        {
            "type": "Feature",
            "properties": {
                "ref:csioz": 1049905,
                "name": "Apteka W Ośrodku Zdrowia",
                "addr:street": "Stawna",
                "addr:housenumber": "7",
                "addr:city": "Komorniki",
                "addr:postcode": "62-052",
                "amenity": "pharmacy"
            },
            "geometry": {
                "type": "Point",
                "coordinates": [
                    16.807212944080476,
                    52.33343502426832
                ]
            }
        },
        {
            "type": "Feature",
            "properties": {
                "ref:csioz": 1050108,
                "name": "Doz Apteka. Dbam O Zdrowie",
                "addr:street": "Parkowa",
                "addr:housenumber": "9",
                "addr:city": "Dąbrówka",
                "addr:postcode": "62-070",
                "amenity": "pharmacy"
            },
            "geometry": {
                "type": "Point",
                "coordinates": [
                    16.744539098074235,
                    52.38470296229217
                ]
            }
        },
        {
            "type": "Feature",
            "properties": {
                "ref:csioz": 1123431,
                "name": "Stokrotka",
                "addr:street": "Rynkowa",
                "addr:housenumber": "63",
                "addr:city": "Przeźmierowo",
                "addr:postcode": "62-081",
                "amenity": "pharmacy"
            },
            "geometry": {
                "type": "Point",
                "coordinates": [
                    16.784598711993485,
                    52.4282168263912
                ]
            }
        },
        {
            "type": "Feature",
            "properties": {
                "ref:csioz": 1175743,
                "name": "Centrum Zdrowia",
                "addr:street": "Dworcowa",
                "addr:housenumber": "2",
                "addr:city": "Buk",
                "addr:postcode": "64-320",
                "amenity": "pharmacy"
            },
            "geometry": {
                "type": "Point",
                "coordinates": [
                    16.51912891992951,
                    52.35723536531772
                ]
            }
        },
        {
            "type": "Feature",
            "properties": {
                "ref:csioz": 1175756,
                "name": "Apteka Pomocna",
                "addr:street": "Szamotulska",
                "addr:housenumber": "26J",
                "addr:city": "Baranowo",
                "addr:postcode": "62-081",
                "amenity": "pharmacy"
            },
            "geometry": {
                "type": "Point",
                "coordinates": [
                    16.78660998932833,
                    52.446188176339405
                ]
            }
        },
        {
            "type": "Feature",
            "properties": {
                "ref:csioz": 1207330,
                "name": "Prima",
                "addr:street": "Dworcowa",
                "addr:housenumber": "52",
                "addr:city": "Buk",
                "addr:postcode": "64-320",
                "amenity": "pharmacy"
            },
            "geometry": {
                "type": "Point",
                "coordinates": [
                    16.521495718370872,
                    52.351413866378394
                ]
            }
        },
        {
            "type": "Feature",
            "properties": {
                "ref:csioz": 1215693,
                "name": "Lekabel",
                "addr:street": "Mury",
                "addr:housenumber": "8",
                "addr:city": "Buk",
                "addr:postcode": "64-320",
                "amenity": "pharmacy"
            },
            "geometry": {
                "type": "Point",
                "coordinates": [
                    16.517225862194177,
                    52.35836841181264
                ]
            }
        },
        {
            "type": "Feature",
            "properties": {
                "ref:csioz": 1044008,
                "addr:street": "STAROWIEJSKA",
                "addr:housenumber": "16",
                "addr:city": "NIEPRUSZEWO",
                "addr:postcode": "64-320",
                "amenity": "pharmacy"
            },
            "geometry": {
                "type": "Point",
                "coordinates": [
                    16.60458112104763,
                    52.38463999155636
                ]
            }
        },
        {
            "type": "Feature",
            "properties": {
                "ref:csioz": 1046047,
                "name": "Pogodna",
                "addr:street": "POZNAŃSKA",
                "addr:housenumber": "4",
                "addr:city": "SKÓRZEWO",
                "addr:postcode": "60-185",
                "amenity": "pharmacy"
            },
            "geometry": {
                "type": "Point",
                "coordinates": [
                    16.782890557409363,
                    52.38846044885996
                ]
            }
        },
        {
            "type": "Feature",
            "properties": {
                "ref:csioz": 1046459,
                "name": "Przyjazna",
                "addr:street": "Grunwaldzka",
                "addr:housenumber": "517C",
                "addr:city": "Plewiska",
                "addr:postcode": "62-064",
                "amenity": "pharmacy"
            },
            "geometry": {
                "type": "Point",
                "coordinates": [
                    16.81183206120568,
                    52.368306487881036
                ]
            }
        },
        {
            "type": "Feature",
            "properties": {
                "ref:csioz": 1050029,
                "name": "Apteka Plus",
                "addr:street": "Pocztowa",
                "addr:housenumber": "6",
                "addr:city": "Komorniki",
                "addr:postcode": "62-052",
                "amenity": "pharmacy"
            },
            "geometry": {
                "type": "Point",
                "coordinates": [
                    16.806936894843677,
                    52.336417264213054
                ]
            }
        },
        {
            "type": "Feature",
            "properties": {
                "ref:csioz": 1051462,
                "name": "Apteka Nasza",
                "addr:street": "Kwiatowa",
                "addr:housenumber": "37",
                "addr:city": "Skórzewo",
                "addr:postcode": "60-185",
                "amenity": "pharmacy"
            },
            "geometry": {
                "type": "Point",
                "coordinates": [
                    16.783451286101947,
                    52.39107860986865
                ]
            }
        },
        {
            "type": "Feature",
            "properties": {
                "ref:csioz": 1051504,
                "name": "Apteka Fabianowska",
                "addr:street": "Miętowa",
                "addr:housenumber": "5",
                "addr:city": "Plewiska",
                "addr:postcode": "62-064",
                "amenity": "pharmacy"
            },
            "geometry": {
                "type": "Point",
                "coordinates": [
                    16.814383253641353,
                    52.37233695179436
                ]
            }
        },
        {
            "type": "Feature",
            "properties": {
                "ref:csioz": 1051707,
                "name": "Sagittarius",
                "addr:street": "św. Antoniego",
                "addr:housenumber": "2",
                "addr:city": "Swadzim",
                "addr:postcode": "62-080",
                "amenity": "pharmacy"
            },
            "geometry": {
                "type": "Point",
                "coordinates": [
                    16.76577303427121,
                    52.440279841406415
                ]
            }
        },
        {
            "type": "Feature",
            "properties": {
                "ref:csioz": 1055163,
                "name": "Pod Lwem",
                "addr:street": "Przemysława",
                "addr:housenumber": "10",
                "addr:city": "Buk",
                "addr:postcode": "64-320",
                "amenity": "pharmacy"
            },
            "geometry": {
                "type": "Point",
                "coordinates": [
                    16.516052582537565,
                    52.35741023900743
                ]
            }
        },
        {
            "type": "Feature",
            "properties": {
                "ref:csioz": 1055241,
                "name": "Pod Słońcem",
                "addr:street": "ks. Wawrzyńca Chybickiego",
                "addr:housenumber": "13",
                "addr:city": "Stęszew",
                "addr:postcode": "62-060",
                "amenity": "pharmacy"
            },
            "geometry": {
                "type": "Point",
                "coordinates": [
                    16.701898037483943,
                    52.28367331175684
                ]
            }
        },
        {
            "type": "Feature",
            "properties": {
                "ref:csioz": 1055278,
                "name": "Zdrowie",
                "addr:street": "Stanisława Reszki",
                "addr:housenumber": "2",
                "addr:city": "Buk",
                "addr:postcode": "64-320",
                "amenity": "pharmacy"
            },
            "geometry": {
                "type": "Point",
                "coordinates": [
                    16.519349285163695,
                    52.357541791732466
                ]
            }
        },
        {
            "type": "Feature",
            "properties": {
                "ref:csioz": 1055904,
                "name": "Centrum",
                "addr:street": "Tadeusza Kościuszki",
                "addr:housenumber": "46",
                "addr:city": "Buk",
                "addr:postcode": "64-320",
                "amenity": "pharmacy"
            },
            "geometry": {
                "type": "Point",
                "coordinates": [
                    16.519531999992996,
                    52.35304100001606
                ]
            }
        },
        {
            "type": "Feature",
            "properties": {
                "ref:csioz": 1055920,
                "name": "Źródło",
                "addr:street": "Poznańska",
                "addr:housenumber": "74",
                "addr:city": "Skórzewo",
                "addr:postcode": "60-185",
                "amenity": "pharmacy"
            },
            "geometry": {
                "type": "Point",
                "coordinates": [
                    16.795760168180998,
                    52.39340528158586
                ]
            }
        },
        {
            "type": "Feature",
            "properties": {
                "ref:csioz": 1055961,
                "name": "Apteka Pomocna",
                "addr:street": "Rynkowa",
                "addr:housenumber": "75C",
                "addr:city": "Przeźmierowo",
                "addr:postcode": "62-081",
                "amenity": "pharmacy"
            },
            "geometry": {
                "type": "Point",
                "coordinates": [
                    16.78576449739687,
                    52.42628123427258
                ]
            }
        },
        {
            "type": "Feature",
            "properties": {
                "ref:csioz": 1123595,
                "name": "U Złotego Źródła",
                "addr:street": "Lipowa",
                "addr:housenumber": "7",
                "addr:city": "Stęszew",
                "addr:postcode": "62-060",
                "amenity": "pharmacy"
            },
            "geometry": {
                "type": "Point",
                "coordinates": [
                    16.689715226304035,
                    52.27889247179574
                ]
            }
        },
        {
            "type": "Feature",
            "properties": {
                "ref:csioz": 1123918,
                "name": "Zdrowoteka",
                "addr:street": "ks. Malinowskiego",
                "addr:housenumber": "9",
                "addr:city": "Komorniki",
                "addr:postcode": "62-052",
                "amenity": "pharmacy"
            },
            "geometry": {
                "type": "Point",
                "coordinates": [
                    16.799930804863855,
                    52.34003442781908
                ]
            }
        },
        {
            "type": "Feature",
            "properties": {
                "ref:csioz": 1124646,
                "name": "Rodzinna",
                "addr:street": "KOŚCIAŃSKA",
                "addr:housenumber": "54A",
                "addr:city": "STĘSZEW",
                "addr:postcode": "62-060",
                "amenity": "pharmacy"
            },
            "geometry": {
                "type": "Point",
                "coordinates": [
                    16.690840868234286,
                    52.27737147535733
                ]
            }
        },
        {
            "type": "Feature",
            "properties": {
                "ref:csioz": 1139826,
                "name": "Apteka Leśna",
                "addr:housenumber": "19",
                "addr:postcode": "76-042",
                "amenity": "pharmacy",
                "addr:place": "Rosnowo"
            },
            "geometry": {
                "type": "Point",
                "coordinates": [
                    16.78096496559342,
                    52.33032604817365
                ]
            }
        },
        {
            "type": "Feature",
            "properties": {
                "ref:csioz": 1175844,
                "name": "Nasza",
                "addr:street": "Ogrodowa",
                "addr:housenumber": "14",
                "addr:city": "Przeźmierowo",
                "addr:postcode": "62-081",
                "amenity": "pharmacy"
            },
            "geometry": {
                "type": "Point",
                "coordinates": [
                    16.77607916719273,
                    52.43223846085905
                ]
            }
        },
        {
            "type": "Feature",
            "properties": {
                "ref:csioz": 1175992,
                "name": "U Złotego Źródła",
                "addr:street": "Poznańska",
                "addr:housenumber": "18",
                "addr:city": "Stęszew",
                "addr:postcode": "62-060",
                "amenity": "pharmacy"
            },
            "geometry": {
                "type": "Point",
                "coordinates": [
                    16.705503017477675,
                    52.281050761978136
                ]
            }
        },
        {
            "type": "Feature",
            "properties": {
                "ref:csioz": 1182890,
                "name": "Wielkopolska",
                "addr:street": "Malwowa",
                "addr:housenumber": "162",
                "addr:city": "Skórzewo",
                "addr:postcode": "60-185",
                "amenity": "pharmacy"
            },
            "geometry": {
                "type": "Point",
                "coordinates": [
                    16.80309590013113,
                    52.39633760949311
                ]
            }
        },
        {
            "type": "Feature",
            "properties": {
                "ref:csioz": 1189625,
                "name": "Consultorio Dąbrówka",
                "addr:street": "Poznańska",
                "addr:housenumber": "31",
                "addr:city": "Dąbrówka",
                "addr:postcode": "62-070",
                "amenity": "pharmacy"
            },
            "geometry": {
                "type": "Point",
                "coordinates": [
                    16.744897999558795,
                    52.38132458978733
                ]
            }
        },
        {
            "type": "Feature",
            "properties": {
                "ref:csioz": 1193584,
                "name": "\"36,6°C\"",
                "addr:street": "Kobylnicka",
                "addr:housenumber": "2A",
                "addr:city": "Sady",
                "addr:postcode": "62-080",
                "amenity": "pharmacy"
            },
            "geometry": {
                "type": "Point",
                "coordinates": [
                    16.725275180370605,
                    52.450108859204114
                ]
            }
        },
        {
            "type": "Feature",
            "properties": {
                "ref:csioz": 1194696,
                "name": "W Lusówku",
                "addr:street": "Albatrosa",
                "addr:housenumber": "2",
                "addr:city": "Lusówko",
                "addr:postcode": "62-080",
                "amenity": "pharmacy"
            },
            "geometry": {
                "type": "Point",
                "coordinates": [
                    16.645220048208557,
                    52.434300154230705
                ]
            }
        },
        {
            "type": "Feature",
            "properties": {
                "ref:csioz": 1214206,
                "name": "Apteka Morska",
                "addr:street": "ul. Tarnowska",
                "addr:housenumber": "33",
                "addr:city": "Lusówko",
                "addr:postcode": "62-080",
                "amenity": "pharmacy"
            },
            "geometry": {
                "type": "Point",
                "coordinates": [
                    16.644517626690963,
                    52.433058823080245
                ]
            }
        },
        {
            "type": "Feature",
            "properties": {
                "ref:csioz": 1216241,
                "addr:street": "Komornicka",
                "addr:housenumber": "57",
                "addr:city": "Komorniki",
                "addr:postcode": "62-052",
                "amenity": "pharmacy"
            },
            "geometry": {
                "type": "Point",
                "coordinates": [
                    16.824065771688772,
                    52.33614567854508
                ]
            }
        },
        {
            "type": "Feature",
            "properties": {
                "ref:csioz": 1227667,
                "name": "Nasza Iii",
                "addr:street": "Szafirowa",
                "addr:housenumber": "1A",
                "addr:city": "Dąbrowa",
                "addr:postcode": "62-069",
                "amenity": "pharmacy"
            },
            "geometry": {
                "type": "Point",
                "coordinates": [
                    16.757281549868743,
                    52.396396486415426
                ]
            }
        },
        {
            "type": "Feature",
            "properties": {
                "ref:csioz": 1045147,
                "name": "Alba Nr 2",
                "addr:street": "Leśne",
                "addr:housenumber": "21B",
                "addr:city": "Koziegłowy",
                "addr:postcode": "62-028",
                "amenity": "pharmacy"
            },
            "geometry": {
                "type": "Point",
                "coordinates": [
                    16.9940481578108,
                    52.4487278025847
                ]
            }
        },
        {
            "type": "Feature",
            "properties": {
                "ref:csioz": 1045183,
                "name": "Alba Nr 1",
                "addr:street": "Piaskowa",
                "addr:housenumber": "19",
                "addr:city": "Koziegłowy",
                "addr:postcode": "62-028",
                "amenity": "pharmacy"
            },
            "geometry": {
                "type": "Point",
                "coordinates": [
                    16.989648287532376,
                    52.44563552431365
                ]
            }
        },
        {
            "type": "Feature",
            "properties": {
                "ref:csioz": 1046129,
                "name": "Nasza",
                "addr:street": "Piaski",
                "addr:housenumber": "8",
                "addr:city": "Swarzędz",
                "addr:postcode": "62-020",
                "amenity": "pharmacy"
            },
            "geometry": {
                "type": "Point",
                "coordinates": [
                    17.075219695340166,
                    52.4095127495423
                ]
            }
        },
        {
            "type": "Feature",
            "properties": {
                "ref:csioz": 1050250,
                "name": "Z Sercem",
                "addr:street": "LEŚNE",
                "addr:housenumber": "16B",
                "addr:city": "KOZIEGŁOWY",
                "addr:postcode": "62-028",
                "amenity": "pharmacy"
            },
            "geometry": {
                "type": "Point",
                "coordinates": [
                    16.996814190798062,
                    52.44940459347022
                ]
            }
        },
        {
            "type": "Feature",
            "properties": {
                "ref:csioz": 1123384,
                "name": "A-2 Borówiecka",
                "addr:street": "Szkolna",
                "addr:housenumber": "1C",
                "addr:city": "Borówiec",
                "addr:postcode": "62-023",
                "amenity": "pharmacy"
            },
            "geometry": {
                "type": "Point",
                "coordinates": [
                    17.042774938488577,
                    52.279947285912286
                ]
            }
        },
        {
            "type": "Feature",
            "properties": {
                "ref:csioz": 1186540,
                "name": "Przyjazna",
                "addr:street": "Swarzędzka",
                "addr:housenumber": "23",
                "addr:city": "Gruszczyn",
                "addr:postcode": "62-006",
                "amenity": "pharmacy"
            },
            "geometry": {
                "type": "Point",
                "coordinates": [
                    17.075938347455395,
                    52.44127448683165
                ]
            }
        },
        {
            "type": "Feature",
            "properties": {
                "ref:csioz": 1175719,
                "name": "Centrum Leków",
                "addr:street": "Dąbrowszczaków",
                "addr:housenumber": "26",
                "addr:city": "Swarzędz",
                "addr:postcode": "62-020",
                "amenity": "pharmacy"
            },
            "geometry": {
                "type": "Point",
                "coordinates": [
                    17.085228403878467,
                    52.4150878832403
                ]
            }
        },
        {
            "type": "Feature",
            "properties": {
                "ref:csioz": 1187452,
                "name": "Nasza",
                "addr:street": "DWORCOWA",
                "addr:housenumber": "4",
                "addr:city": "Swarzędz",
                "addr:postcode": "62-020",
                "amenity": "pharmacy"
            },
            "geometry": {
                "type": "Point",
                "coordinates": [
                    17.046826991878948,
                    52.398170375069576
                ]
            }
        },
        {
            "type": "Feature",
            "properties": {
                "ref:csioz": 1190916,
                "name": "Dom Leków",
                "addr:street": "Kościuszkowców",
                "addr:housenumber": "34",
                "addr:city": "Swarzędz",
                "addr:postcode": "62-020",
                "amenity": "pharmacy"
            },
            "geometry": {
                "type": "Point",
                "coordinates": [
                    17.080663088291917,
                    52.42177033453641
                ]
            }
        },
        {
            "type": "Feature",
            "properties": {
                "ref:csioz": 1191549,
                "name": "Alba Nr 3",
                "addr:street": "Leśne",
                "addr:housenumber": "1A",
                "addr:city": "Koziegłowy",
                "addr:postcode": "62-028",
                "amenity": "pharmacy"
            },
            "geometry": {
                "type": "Point",
                "coordinates": [
                    16.993207929874327,
                    52.45334172208584
                ]
            }
        },
        {
            "type": "Feature",
            "properties": {
                "ref:csioz": 1207047,
                "name": "Skibowa",
                "addr:street": "Fiołkowa",
                "addr:housenumber": "1",
                "addr:city": "Tulce",
                "addr:postcode": "63-004",
                "amenity": "pharmacy"
            },
            "geometry": {
                "type": "Point",
                "coordinates": [
                    17.063695437059543,
                    52.34549515433216
                ]
            }
        },
        {
            "type": "Feature",
            "properties": {
                "ref:csioz": 1220426,
                "name": "\"Apteka \"\"W Pasażu\"\"\"",
                "addr:street": "Graniczna",
                "addr:housenumber": "63",
                "addr:city": "Swarzędz",
                "addr:postcode": "62-020",
                "amenity": "pharmacy"
            },
            "geometry": {
                "type": "Point",
                "coordinates": [
                    17.05732215625149,
                    52.40157418326633
                ]
            }
        },
        {
            "type": "Feature",
            "properties": {
                "ref:csioz": 1043966,
                "name": "Punkt Apteczny Tulce",
                "addr:street": "POZNAŃSKA",
                "addr:housenumber": "21",
                "addr:city": "TULCE",
                "addr:postcode": "63-004",
                "amenity": "pharmacy"
            },
            "geometry": {
                "type": "Point",
                "coordinates": [
                    17.076769722272193,
                    52.34290037076256
                ]
            }
        },
        {
            "type": "Feature",
            "properties": {
                "ref:csioz": 1045194,
                "name": "Sub Rosa",
                "addr:street": "Poznańska",
                "addr:housenumber": "28",
                "addr:city": "Koziegłowy",
                "addr:postcode": "62-028",
                "amenity": "pharmacy"
            },
            "geometry": {
                "type": "Point",
                "coordinates": [
                    16.991970547437187,
                    52.44465009958037
                ]
            }
        },
        {
            "type": "Feature",
            "properties": {
                "ref:csioz": 1046193,
                "name": "Przy Rondzie",
                "addr:street": "Tytusa  Działyńskiego",
                "addr:housenumber": "1J",
                "addr:city": "Swarzędz",
                "addr:postcode": "62-020",
                "amenity": "pharmacy"
            },
            "geometry": {
                "type": "Point",
                "coordinates": [
                    17.06508845586975,
                    52.399376929643864
                ]
            }
        },
        {
            "type": "Feature",
            "properties": {
                "ref:csioz": 1047510,
                "name": "Swarzędzka Pod Wezw. Św.Józefa",
                "addr:street": "RYNEK",
                "addr:housenumber": "16",
                "addr:city": "SWARZĘDZ",
                "addr:postcode": "62-020",
                "amenity": "pharmacy"
            },
            "geometry": {
                "type": "Point",
                "coordinates": [
                    17.076788527250425,
                    52.410015113535835
                ]
            }
        },
        {
            "type": "Feature",
            "properties": {
                "ref:csioz": 1047529,
                "name": "Pod Koroną",
                "addr:street": "Rynek",
                "addr:housenumber": "18",
                "addr:city": "Swarzędz",
                "addr:postcode": "62-020",
                "amenity": "pharmacy"
            },
            "geometry": {
                "type": "Point",
                "coordinates": [
                    17.07653777317461,
                    52.410232377948034
                ]
            }
        },
        {
            "type": "Feature",
            "properties": {
                "ref:csioz": 1048016,
                "name": "Optima",
                "addr:street": "Tytusa Działyńskiego",
                "addr:housenumber": "39",
                "addr:city": "Swarzędz",
                "addr:postcode": "62-020",
                "amenity": "pharmacy"
            },
            "geometry": {
                "type": "Point",
                "coordinates": [
                    17.06813058823655,
                    52.39892344294082
                ]
            }
        },
        {
            "type": "Feature",
            "properties": {
                "ref:csioz": 1050064,
                "name": "Przyjazna",
                "addr:street": "CIESZKOWSKIEGO",
                "addr:housenumber": "5",
                "addr:city": "SWARZĘDZ",
                "addr:postcode": "62-020",
                "amenity": "pharmacy"
            },
            "geometry": {
                "type": "Point",
                "coordinates": [
                    17.084305999997635,
                    52.41016600001612
                ]
            }
        },
        {
            "type": "Feature",
            "properties": {
                "ref:csioz": 1050197,
                "name": "Doz Apteka Dbam O Zdrowie",
                "addr:street": "A. CIESZKOWSKIEGO",
                "addr:housenumber": "39",
                "addr:city": "SWARZĘDZ",
                "addr:postcode": "62-020",
                "amenity": "pharmacy"
            },
            "geometry": {
                "type": "Point",
                "coordinates": [
                    17.083207343677845,
                    52.419974836987834
                ]
            }
        },
        {
            "type": "Feature",
            "properties": {
                "ref:csioz": 1051520,
                "name": "Zamkowa",
                "addr:street": "Zamkowa",
                "addr:housenumber": "17C",
                "addr:city": "Swarzędz",
                "addr:postcode": "62-020",
                "amenity": "pharmacy"
            },
            "geometry": {
                "type": "Point",
                "coordinates": [
                    17.07779268581617,
                    52.41300994511178
                ]
            }
        },
        {
            "type": "Feature",
            "properties": {
                "ref:csioz": 1051548,
                "name": "Peonia",
                "addr:street": "Poznańska",
                "addr:housenumber": "113",
                "addr:city": "Kobylnica",
                "addr:postcode": "62-006",
                "amenity": "pharmacy"
            },
            "geometry": {
                "type": "Point",
                "coordinates": [
                    17.079939280216347,
                    52.4471116537925
                ]
            }
        },
        {
            "type": "Feature",
            "properties": {
                "ref:csioz": 1123601,
                "name": "Leśna",
                "addr:street": "Leśne",
                "addr:housenumber": "16",
                "addr:city": "Koziegłowy",
                "addr:postcode": "62-028",
                "amenity": "pharmacy"
            },
            "geometry": {
                "type": "Point",
                "coordinates": [
                    16.99584611755617,
                    52.448815498497495
                ]
            }
        },
        {
            "type": "Feature",
            "properties": {
                "ref:csioz": 1123994,
                "name": "Przyjazna",
                "addr:street": "Augusta Cieszkowskiego",
                "addr:housenumber": "100/102",
                "addr:city": "Swarzędz",
                "addr:postcode": "62-020",
                "amenity": "pharmacy"
            },
            "geometry": {
                "type": "Point",
                "coordinates": [
                    17.083726999997634,
                    52.420648000016136
                ]
            }
        },
        {
            "type": "Feature",
            "properties": {
                "ref:csioz": 1124000,
                "name": "Alba Nr 4",
                "addr:street": "Leśna",
                "addr:housenumber": "1",
                "addr:city": "Czerwonak",
                "addr:postcode": "62-004",
                "amenity": "pharmacy"
            },
            "geometry": {
                "type": "Point",
                "coordinates": [
                    16.982314473542328,
                    52.46520643354287
                ]
            }
        },
        {
            "type": "Feature",
            "properties": {
                "ref:csioz": 1124076,
                "name": "Św. Kamila",
                "addr:street": "Zygmunta  Grudzińskiego",
                "addr:housenumber": "7",
                "addr:city": "Swarzędz",
                "addr:postcode": "62-020",
                "amenity": "pharmacy"
            },
            "geometry": {
                "type": "Point",
                "coordinates": [
                    17.080563999997622,
                    52.413437000016124
                ]
            }
        },
        {
            "type": "Feature",
            "properties": {
                "ref:csioz": 1190346,
                "name": "Rosa",
                "addr:street": "Kupiecka",
                "addr:housenumber": "15",
                "addr:city": "Swarzędz",
                "addr:postcode": "62-020",
                "amenity": "pharmacy"
            },
            "geometry": {
                "type": "Point",
                "coordinates": [
                    17.070614146830565,
                    52.39669991193364
                ]
            }
        },
        {
            "type": "Feature",
            "properties": {
                "ref:csioz": 1192382,
                "name": "Recepta Na Zdrowie",
                "addr:street": "Jeziorna",
                "addr:housenumber": "9",
                "addr:city": "Szczytniki",
                "addr:postcode": "62-023",
                "amenity": "pharmacy"
            },
            "geometry": {
                "type": "Point",
                "coordinates": [
                    17.01753276628747,
                    52.30210387626283
                ]
            }
        },
        {
            "type": "Feature",
            "properties": {
                "ref:csioz": 1192396,
                "name": "Nowa",
                "addr:street": "Graniczna",
                "addr:housenumber": "55",
                "addr:city": "Swarzędz",
                "addr:postcode": "62-020",
                "amenity": "pharmacy"
            },
            "geometry": {
                "type": "Point",
                "coordinates": [
                    17.06007402755318,
                    52.401400675587716
                ]
            }
        },
        {
            "type": "Feature",
            "properties": {
                "ref:csioz": 1205367,
                "name": "Przyjazna",
                "addr:street": "Hipolita Cegielskiego",
                "addr:housenumber": "32A",
                "addr:city": "Swarzędz",
                "addr:postcode": "62-020",
                "amenity": "pharmacy"
            },
            "geometry": {
                "type": "Point",
                "coordinates": [
                    17.064175999997545,
                    52.3999680000161
                ]
            }
        },
        {
            "type": "Feature",
            "properties": {
                "ref:csioz": 1208185,
                "name": "Witaminka",
                "addr:street": "Szkolna",
                "addr:housenumber": "18",
                "addr:city": "Robakowo",
                "addr:postcode": "62-023",
                "amenity": "pharmacy"
            },
            "geometry": {
                "type": "Point",
                "coordinates": [
                    17.05715765149161,
                    52.300839840131914
                ]
            }
        },
        {
            "type": "Feature",
            "properties": {
                "ref:csioz": 1214560,
                "name": "Amfora Przy Kościele",
                "addr:street": "ul. Mostowa",
                "addr:housenumber": "12",
                "addr:city": "Kamionki",
                "addr:postcode": "62-023",
                "amenity": "pharmacy"
            },
            "geometry": {
                "type": "Point",
                "coordinates": [
                    16.99885137422146,
                    52.28741155334015
                ]
            }
        },
        {
            "type": "Feature",
            "properties": {
                "ref:csioz": 1219753,
                "name": "\"Apteka \"\"Rodzinna\"\"\"",
                "addr:street": "Kupiecka",
                "addr:housenumber": "29",
                "addr:city": "Swarzędz",
                "addr:postcode": "62-020",
                "amenity": "pharmacy"
            },
            "geometry": {
                "type": "Point",
                "coordinates": [
                    17.06981331527642,
                    52.39552055272684
                ]
            }
        },
        {
            "type": "Feature",
            "properties": {
                "ref:csioz": 1227158,
                "name": "Vita-Pharm",
                "addr:street": "Poznańska",
                "addr:housenumber": "6",
                "addr:city": "Jasin",
                "addr:postcode": "62-020",
                "amenity": "pharmacy"
            },
            "geometry": {
                "type": "Point",
                "coordinates": [
                    17.09555544836473,
                    52.40470702952638
                ]
            }
        },
        {
            "type": "Feature",
            "properties": {
                "ref:csioz": 1045152,
                "name": "Obok Przychodni",
                "addr:street": "Poznańska",
                "addr:housenumber": "32",
                "addr:city": "Kórnik",
                "addr:postcode": "62-035",
                "amenity": "pharmacy"
            },
            "geometry": {
                "type": "Point",
                "coordinates": [
                    17.084605872396335,
                    52.25112450120345
                ]
            }
        },
        {
            "type": "Feature",
            "properties": {
                "ref:csioz": 1045716,
                "name": "Szłwia",
                "addr:street": "GŁÓWNA",
                "addr:housenumber": "2",
                "addr:city": "KROSNO",
                "addr:postcode": "62-050",
                "amenity": "pharmacy"
            },
            "geometry": {
                "type": "Point",
                "coordinates": [
                    16.835566765834542,
                    52.22810518643412
                ]
            }
        },
        {
            "type": "Feature",
            "properties": {
                "ref:csioz": 1050960,
                "name": "Niezapominajka",
                "addr:street": "Dworcowa",
                "addr:housenumber": "2",
                "addr:city": "Mosina",
                "addr:postcode": "62-050",
                "amenity": "pharmacy"
            },
            "geometry": {
                "type": "Point",
                "coordinates": [
                    16.851551999996218,
                    52.24203500001586
                ]
            }
        },
        {
            "type": "Feature",
            "properties": {
                "ref:csioz": 1055705,
                "name": "Macierzanka",
                "addr:street": "Mostowa",
                "addr:housenumber": "10",
                "addr:city": "Rogalinek",
                "addr:postcode": "62-050",
                "amenity": "pharmacy"
            },
            "geometry": {
                "type": "Point",
                "coordinates": [
                    16.895877582265697,
                    52.25102477575372
                ]
            }
        },
        {
            "type": "Feature",
            "properties": {
                "ref:csioz": 1191116,
                "name": "Pofarma Typu Drive",
                "addr:street": "Śremska",
                "addr:housenumber": "1",
                "addr:city": "Mosina",
                "addr:postcode": "62-050",
                "amenity": "pharmacy"
            },
            "geometry": {
                "type": "Point",
                "coordinates": [
                    16.847783277434974,
                    52.24147203031668
                ]
            }
        },
        {
            "type": "Feature",
            "properties": {
                "ref:csioz": 1191310,
                "name": "Parkowa",
                "addr:street": "Krotowskiego",
                "addr:housenumber": "16a",
                "addr:city": "Mosina",
                "addr:postcode": "62-050",
                "amenity": "pharmacy"
            },
            "geometry": {
                "type": "Point",
                "coordinates": [
                    16.843992402529,
                    52.24539020879078
                ]
            }
        },
        {
            "type": "Feature",
            "properties": {
                "ref:csioz": 1192273,
                "name": "Passiflora",
                "addr:street": "Bukowska",
                "addr:housenumber": "56",
                "addr:city": "Strykowo",
                "addr:postcode": "62-060",
                "amenity": "pharmacy"
            },
            "geometry": {
                "type": "Point",
                "coordinates": [
                    16.612741579667176,
                    52.252188438224266
                ]
            }
        },
        {
            "type": "Feature",
            "properties": {
                "ref:csioz": 1207909,
                "name": "Mosińskie Centrum Zdrowia",
                "addr:street": "Farbiarska",
                "addr:housenumber": "30",
                "addr:city": "Mosina",
                "addr:postcode": "62-050",
                "amenity": "pharmacy"
            },
            "geometry": {
                "type": "Point",
                "coordinates": [
                    16.854145072027436,
                    52.245361275482935
                ]
            }
        },
        {
            "type": "Feature",
            "properties": {
                "ref:csioz": 1045030,
                "name": "Rumiankowa",
                "addr:street": "ARMII KRAJOWEJ",
                "addr:housenumber": "1",
                "addr:city": "KÓRNIK",
                "addr:postcode": "62-035",
                "amenity": "pharmacy"
            },
            "geometry": {
                "type": "Point",
                "coordinates": [
                    17.09590381421119,
                    52.23194286895258
                ]
            }
        },
        {
            "type": "Feature",
            "properties": {
                "ref:csioz": 1047704,
                "name": "Natura",
                "addr:street": "20 Października",
                "addr:housenumber": "25",
                "addr:city": "Mosina",
                "addr:postcode": "62-050",
                "amenity": "pharmacy"
            },
            "geometry": {
                "type": "Point",
                "coordinates": [
                    16.849897880045535,
                    52.24574801610789
                ]
            }
        },
        {
            "type": "Feature",
            "properties": {
                "ref:csioz": 1047868,
                "addr:street": "Średzka",
                "addr:housenumber": "2",
                "addr:city": "Kórnik",
                "addr:postcode": "62-035",
                "amenity": "pharmacy"
            },
            "geometry": {
                "type": "Point",
                "coordinates": [
                    17.091872278524292,
                    52.246491044567
                ]
            }
        },
        {
            "type": "Feature",
            "properties": {
                "ref:csioz": 1050181,
                "name": "W Rynku",
                "addr:street": "Plac Niepodległości",
                "addr:housenumber": "40",
                "addr:city": "Kórnik",
                "addr:postcode": "62-035",
                "amenity": "pharmacy"
            },
            "geometry": {
                "type": "Point",
                "coordinates": [
                    17.089390754518718,
                    52.24771206108591
                ]
            }
        },
        {
            "type": "Feature",
            "properties": {
                "ref:csioz": 1050625,
                "name": "Eskulap",
                "addr:street": "Strażacka",
                "addr:housenumber": "1",
                "addr:city": "Pecna",
                "addr:postcode": "62-053",
                "amenity": "pharmacy"
            },
            "geometry": {
                "type": "Point",
                "coordinates": [
                    16.797225667638756,
                    52.18700365591823
                ]
            }
        },
        {
            "type": "Feature",
            "properties": {
                "ref:csioz": 1055158,
                "name": "Stara Apteka",
                "addr:street": "20 Października",
                "addr:housenumber": "3",
                "addr:city": "Mosina",
                "addr:postcode": "62-050",
                "amenity": "pharmacy"
            },
            "geometry": {
                "type": "Point",
                "coordinates": [
                    16.849030816621944,
                    52.24612654920591
                ]
            }
        },
        {
            "type": "Feature",
            "properties": {
                "ref:csioz": 1191061,
                "name": "Gencjana",
                "addr:street": "Nektarowa",
                "addr:housenumber": "1",
                "addr:city": "Krosno",
                "addr:postcode": "62-050",
                "amenity": "pharmacy"
            },
            "geometry": {
                "type": "Point",
                "coordinates": [
                    16.829638926193514,
                    52.22778445236591
                ]
            }
        },
        {
            "type": "Feature",
            "properties": {
                "ref:csioz": 1215678,
                "name": "Zamkowa",
                "addr:street": "Poznańska",
                "addr:housenumber": "16",
                "addr:city": "Kórnik",
                "addr:postcode": "62-035",
                "amenity": "pharmacy"
            },
            "geometry": {
                "type": "Point",
                "coordinates": [
                    17.08618462982529,
                    52.24980006135
                ]
            }
        },
        {
            "type": "Feature",
            "properties": {
                "ref:csioz": 1219129,
                "name": "Topfarm",
                "addr:street": "Woźniaka",
                "addr:housenumber": "3",
                "addr:city": "Kórnik",
                "addr:postcode": "62-035",
                "amenity": "pharmacy"
            },
            "geometry": {
                "type": "Point",
                "coordinates": [
                    17.07890260806675,
                    52.2537572187202
                ]
            }
        },
        {
            "type": "Feature",
            "properties": {
                "ref:csioz": 1224899,
                "name": "Quercus",
                "addr:street": "Kórnicka",
                "addr:housenumber": "8c",
                "addr:city": "Świątniki",
                "addr:postcode": "62-022",
                "amenity": "pharmacy"
            },
            "geometry": {
                "type": "Point",
                "coordinates": [
                    16.95146719725738,
                    52.23014116237092
                ]
            }
        },
        {
            "type": "Feature",
            "properties": {
                "ref:csioz": 1043875,
                "addr:street": "ZAPŁOCIE",
                "addr:housenumber": "6",
                "addr:city": "PACZKOWO",
                "addr:postcode": "62-021",
                "amenity": "pharmacy"
            },
            "geometry": {
                "type": "Point",
                "coordinates": [
                    17.159014844718445,
                    52.399432173299346
                ]
            }
        },
        {
            "type": "Feature",
            "properties": {
                "ref:csioz": 1045322,
                "name": "Doz Apteka. Dbam O Zdrowie. Lawendowa",
                "addr:street": "Kościelna",
                "addr:housenumber": "1",
                "addr:city": "Siekierki Wielkie",
                "addr:postcode": "62-025",
                "amenity": "pharmacy"
            },
            "geometry": {
                "type": "Point",
                "coordinates": [
                    17.163304438891196,
                    52.381147421560165
                ]
            }
        },
        {
            "type": "Feature",
            "properties": {
                "ref:csioz": 1046744,
                "name": "Apteka Kostrzyńska",
                "addr:street": "Dworcowa",
                "addr:housenumber": "16",
                "addr:city": "Kostrzyn",
                "addr:postcode": "62-025",
                "amenity": "pharmacy"
            },
            "geometry": {
                "type": "Point",
                "coordinates": [
                    17.226122935035097,
                    52.39554661789175
                ]
            }
        },
        {
            "type": "Feature",
            "properties": {
                "ref:csioz": 1050269,
                "name": "Remedium",
                "addr:street": "Kasztanowa",
                "addr:housenumber": "1",
                "addr:city": "Gułtowy",
                "addr:postcode": "62-025",
                "amenity": "pharmacy"
            },
            "geometry": {
                "type": "Point",
                "coordinates": [
                    17.329113302019582,
                    52.351417468773285
                ]
            }
        },
        {
            "type": "Feature",
            "properties": {
                "ref:csioz": 1175735,
                "name": "Doz Apteka Dbam O Zdrowie",
                "addr:street": "Piastowski",
                "addr:housenumber": "22",
                "addr:city": "Jerzykowo",
                "addr:postcode": "62-007",
                "amenity": "pharmacy"
            },
            "geometry": {
                "type": "Point",
                "coordinates": [
                    17.171737037730125,
                    52.46967563158918
                ]
            }
        },
        {
            "type": "Feature",
            "properties": {
                "ref:csioz": 1219484,
                "name": "Apteka Witaminka",
                "addr:street": "Siekierecka",
                "addr:housenumber": "24A",
                "addr:city": "Gowarzewo",
                "addr:postcode": "63-004",
                "amenity": "pharmacy"
            },
            "geometry": {
                "type": "Point",
                "coordinates": [
                    17.141942591975805,
                    52.36650546716129
                ]
            }
        },
        {
            "type": "Feature",
            "properties": {
                "ref:csioz": 1046862,
                "name": "Nagradowice",
                "addr:housenumber": "11",
                "addr:postcode": "63-006",
                "amenity": "pharmacy",
                "addr:place": "Nagradowice"
            },
            "geometry": {
                "type": "Point",
                "coordinates": [
                    17.146915348073954,
                    52.32121333513849
                ]
            }
        },
        {
            "type": "Feature",
            "properties": {
                "ref:csioz": 1047845,
                "name": "Doz Apteka. Dbam O Zdrowie Rodzinna",
                "addr:street": "Rynek",
                "addr:housenumber": "14",
                "addr:city": "Kostrzyn",
                "addr:postcode": "62-025",
                "amenity": "pharmacy"
            },
            "geometry": {
                "type": "Point",
                "coordinates": [
                    17.226832482674453,
                    52.39807978637575
                ]
            }
        },
        {
            "type": "Feature",
            "properties": {
                "ref:csioz": 1050234,
                "name": "Dr. Max",
                "addr:street": "KRÓLOWEJ JADWIGI",
                "addr:housenumber": "4",
                "addr:city": "POBIEDZISKA",
                "addr:postcode": "62-010",
                "amenity": "pharmacy"
            },
            "geometry": {
                "type": "Point",
                "coordinates": [
                    17.28190525399026,
                    52.475306174615945
                ]
            }
        },
        {
            "type": "Feature",
            "properties": {
                "ref:csioz": 1050649,
                "name": "Szmaragdowa",
                "addr:street": "Czerwonego Krzyża",
                "addr:housenumber": "2",
                "addr:city": "Kostrzyn",
                "addr:postcode": "62-025",
                "amenity": "pharmacy"
            },
            "geometry": {
                "type": "Point",
                "coordinates": [
                    17.225650629839638,
                    52.39987549259201
                ]
            }
        },
        {
            "type": "Feature",
            "properties": {
                "ref:csioz": 1051172,
                "name": "Apteka Jagielońska",
                "addr:street": "Władysława Jagiełły",
                "addr:housenumber": "46",
                "addr:city": "Pobiedziska",
                "addr:postcode": "62-010",
                "amenity": "pharmacy"
            },
            "geometry": {
                "type": "Point",
                "coordinates": [
                    17.282315211578034,
                    52.4765997424286
                ]
            }
        },
        {
            "type": "Feature",
            "properties": {
                "ref:csioz": 1055887,
                "name": "Przy Rynku",
                "addr:street": "Kostrzyńska",
                "addr:housenumber": "2",
                "addr:city": "Pobiedziska",
                "addr:postcode": "62-019",
                "amenity": "pharmacy"
            },
            "geometry": {
                "type": "Point",
                "coordinates": [
                    17.28746640441269,
                    52.47652548541007
                ]
            }
        },
        {
            "type": "Feature",
            "properties": {
                "ref:csioz": 1212456,
                "name": "Pod Wagą",
                "addr:street": "Kazimierza Odnowiciela",
                "addr:housenumber": "11",
                "addr:city": "Pobiedziska",
                "addr:postcode": "62-010",
                "amenity": "pharmacy"
            },
            "geometry": {
                "type": "Point",
                "coordinates": [
                    17.283774232184175,
                    52.47857105288989
                ]
            }
        },
        {
            "type": "Feature",
            "properties": {
                "ref:csioz": 1225786,
                "name": "Pod Złotym Rogiem",
                "addr:street": "Rynek",
                "addr:housenumber": "19",
                "addr:city": "Kostrzyn",
                "addr:postcode": "62-025",
                "amenity": "pharmacy"
            },
            "geometry": {
                "type": "Point",
                "coordinates": [
                    17.227801540018127,
                    52.39782416862143
                ]
            }
        },
        {
            "type": "Feature",
            "properties": {
                "ref:csioz": 1043931,
                "name": "Prababka",
                "addr:street": "BABKI",
                "addr:housenumber": "4C",
                "addr:city": "BABKI",
                "addr:postcode": "61-160",
                "amenity": "pharmacy"
            },
            "geometry": {
                "type": "Point",
                "coordinates": [
                    16.938250999996832,
                    52.312383000015956
                ]
            }
        },
        {
            "type": "Feature",
            "properties": {
                "ref:csioz": 1045584,
                "name": "Far-Mia",
                "addr:street": "11 Listopada",
                "addr:housenumber": "141",
                "addr:city": "Luboń",
                "addr:postcode": "62-030",
                "amenity": "pharmacy"
            },
            "geometry": {
                "type": "Point",
                "coordinates": [
                    16.849792233995398,
                    52.34443663368185
                ]
            }
        },
        {
            "type": "Feature",
            "properties": {
                "ref:csioz": 1046554,
                "name": "Jaśminowa",
                "addr:street": "Komornicka",
                "addr:housenumber": "192",
                "addr:city": "Wiry",
                "addr:postcode": "62-051",
                "amenity": "pharmacy"
            },
            "geometry": {
                "type": "Point",
                "coordinates": [
                    16.85428466593264,
                    52.31941495868413
                ]
            }
        },
        {
            "type": "Feature",
            "properties": {
                "ref:csioz": 1050873,
                "name": "Apteka Przy Krzyżu",
                "addr:street": "Poznańska",
                "addr:housenumber": "5A",
                "addr:city": "Daszewice",
                "addr:postcode": "61-160",
                "amenity": "pharmacy"
            },
            "geometry": {
                "type": "Point",
                "coordinates": [
                    16.955109536892692,
                    52.30416218080791
                ]
            }
        },
        {
            "type": "Feature",
            "properties": {
                "ref:csioz": 1055125,
                "name": "W Starym Domu",
                "addr:street": "Dworcowa",
                "addr:housenumber": "22",
                "addr:city": "Puszczykowo",
                "addr:postcode": "62-041",
                "amenity": "pharmacy"
            },
            "geometry": {
                "type": "Point",
                "coordinates": [
                    16.861254500273215,
                    52.27250231282446
                ]
            }
        },
        {
            "type": "Feature",
            "properties": {
                "ref:csioz": 1055293,
                "name": "Osiedlowa",
                "addr:street": "Żabikowska",
                "addr:housenumber": "62",
                "addr:city": "Luboń",
                "addr:postcode": "62-030",
                "amenity": "pharmacy"
            },
            "geometry": {
                "type": "Point",
                "coordinates": [
                    16.880623114733346,
                    52.34881683340934
                ]
            }
        },
        {
            "type": "Feature",
            "properties": {
                "ref:csioz": 1124174,
                "name": "\"'Amfora' W Kamionkach\"",
                "addr:street": "Poznańska",
                "addr:housenumber": "150",
                "addr:city": "Kamionki",
                "addr:postcode": "62-023",
                "amenity": "pharmacy"
            },
            "geometry": {
                "type": "Point",
                "coordinates": [
                    16.97936188308233,
                    52.28986900010732
                ]
            }
        },
        {
            "type": "Feature",
            "properties": {
                "ref:csioz": 1214518,
                "name": "Apteka Rodzinna",
                "addr:street": "ks. Streicha",
                "addr:housenumber": "27",
                "addr:city": "Luboń",
                "addr:postcode": "62-030",
                "amenity": "pharmacy"
            },
            "geometry": {
                "type": "Point",
                "coordinates": [
                    16.890934149288988,
                    52.34775651092235
                ]
            }
        },
        {
            "type": "Feature",
            "properties": {
                "ref:csioz": 1222363,
                "name": "Doz Apteka. Dbam O Zdrowie",
                "addr:street": "Jana III Sobieskiego",
                "addr:housenumber": "55A",
                "addr:city": "Luboń",
                "addr:postcode": "62-030",
                "amenity": "pharmacy"
            },
            "geometry": {
                "type": "Point",
                "coordinates": [
                    16.876069005951468,
                    52.3345559456304
                ]
            }
        },
        {
            "type": "Feature",
            "properties": {
                "ref:csioz": 1044839,
                "addr:street": "Kręta",
                "addr:housenumber": "9",
                "addr:city": "Luboń",
                "addr:postcode": "62-032",
                "amenity": "pharmacy"
            },
            "geometry": {
                "type": "Point",
                "coordinates": [
                    16.88105877129963,
                    52.32106427009563
                ]
            }
        },
        {
            "type": "Feature",
            "properties": {
                "ref:csioz": 1045235,
                "name": "Apteki Arnika",
                "addr:street": "EDMUNDA BOJANOWSKIEGO",
                "addr:housenumber": "3",
                "addr:city": "LUBOŃ",
                "addr:postcode": "62-030",
                "amenity": "pharmacy"
            },
            "geometry": {
                "type": "Point",
                "coordinates": [
                    16.860085878886576,
                    52.34986588231054
                ]
            }
        },
        {
            "type": "Feature",
            "properties": {
                "ref:csioz": 1045846,
                "name": "Przy Sikorskiego",
                "addr:street": "gen. Władysława Sikorskiego",
                "addr:housenumber": "44",
                "addr:city": "Luboń",
                "addr:postcode": "62-031",
                "amenity": "pharmacy"
            },
            "geometry": {
                "type": "Point",
                "coordinates": [
                    16.868494598291843,
                    52.35199085248405
                ]
            }
        },
        {
            "type": "Feature",
            "properties": {
                "ref:csioz": 1047249,
                "name": "W Przychodni",
                "addr:street": "Wschodnia",
                "addr:housenumber": "25",
                "addr:city": "Luboń",
                "addr:postcode": "62-031",
                "amenity": "pharmacy"
            },
            "geometry": {
                "type": "Point",
                "coordinates": [
                    16.883148795196636,
                    52.34326396879612
                ]
            }
        },
        {
            "type": "Feature",
            "properties": {
                "ref:csioz": 1046396,
                "name": "Dla Ciebie",
                "addr:street": "Józefa Poniatowskiego",
                "addr:housenumber": "24",
                "addr:city": "Luboń",
                "addr:postcode": "62-031",
                "amenity": "pharmacy"
            },
            "geometry": {
                "type": "Point",
                "coordinates": [
                    16.861249043423214,
                    52.349448000579585
                ]
            }
        },
        {
            "type": "Feature",
            "properties": {
                "ref:csioz": 1046753,
                "name": "Niezwykła",
                "addr:street": "Stefana Żeromskiego",
                "addr:housenumber": "1",
                "addr:city": "Luboń",
                "addr:postcode": "62-031",
                "amenity": "pharmacy"
            },
            "geometry": {
                "type": "Point",
                "coordinates": [
                    16.88234756950834,
                    52.34036240317172
                ]
            }
        },
        {
            "type": "Feature",
            "properties": {
                "ref:csioz": 1046995,
                "name": "Alchemia",
                "addr:street": "Kościelna",
                "addr:housenumber": "7",
                "addr:city": "Puszczykowo",
                "addr:postcode": "62-040",
                "amenity": "pharmacy"
            },
            "geometry": {
                "type": "Point",
                "coordinates": [
                    16.856568999996263,
                    52.28603500001592
                ]
            }
        },
        {
            "type": "Feature",
            "properties": {
                "ref:csioz": 1047916,
                "name": "Alga",
                "addr:street": "Żabikowska",
                "addr:housenumber": "66",
                "addr:city": "Luboń",
                "addr:postcode": "62-031",
                "amenity": "pharmacy"
            },
            "geometry": {
                "type": "Point",
                "coordinates": [
                    16.880945280096714,
                    52.34996802934473
                ]
            }
        },
        {
            "type": "Feature",
            "properties": {
                "ref:csioz": 1047950,
                "name": "Złoty Lek",
                "addr:street": "Żabikowska",
                "addr:housenumber": "16",
                "addr:city": "Luboń",
                "addr:postcode": "62-035",
                "amenity": "pharmacy"
            },
            "geometry": {
                "type": "Point",
                "coordinates": [
                    16.875322443839288,
                    52.34336241904982
                ]
            }
        },
        {
            "type": "Feature",
            "properties": {
                "ref:csioz": 1050007,
                "name": "Św. Kamila",
                "addr:street": "Poznańska",
                "addr:housenumber": "56",
                "addr:city": "Puszczykowo",
                "addr:postcode": "62-040",
                "amenity": "pharmacy"
            },
            "geometry": {
                "type": "Point",
                "coordinates": [
                    16.858236889071247,
                    52.28934811193148
                ]
            }
        },
        {
            "type": "Feature",
            "properties": {
                "ref:csioz": 1051366,
                "name": "Fama-Vit",
                "addr:street": "Tadeusza Kościuszki",
                "addr:housenumber": "51",
                "addr:city": "Luboń",
                "addr:postcode": "62-031",
                "amenity": "pharmacy"
            },
            "geometry": {
                "type": "Point",
                "coordinates": [
                    16.870324830668444,
                    52.35029344122855
                ]
            }
        },
        {
            "type": "Feature",
            "properties": {
                "ref:csioz": 1148054,
                "addr:street": "Józefa Ignacego Kraszewskiego",
                "addr:housenumber": "11",
                "addr:city": "Puszczykowo",
                "addr:postcode": "62-041",
                "amenity": "pharmacy"
            },
            "geometry": {
                "type": "Point",
                "coordinates": [
                    16.868115441342805,
                    52.26410146502773
                ]
            }
        },
        {
            "type": "Feature",
            "properties": {
                "ref:csioz": 1175781,
                "name": "U Złotego Źródła",
                "addr:street": "11 Listopada",
                "addr:housenumber": "28",
                "addr:city": "Luboń",
                "addr:postcode": "62-030",
                "amenity": "pharmacy"
            },
            "geometry": {
                "type": "Point",
                "coordinates": [
                    16.872369544146316,
                    52.345695949277044
                ]
            }
        },
        {
            "type": "Feature",
            "properties": {
                "ref:csioz": 1175831,
                "name": "Lubońskie Centrum Zdrowia",
                "addr:street": "Żabikowska",
                "addr:housenumber": "53B",
                "addr:city": "Luboń",
                "addr:postcode": "62-030",
                "amenity": "pharmacy"
            },
            "geometry": {
                "type": "Point",
                "coordinates": [
                    16.882210235901752,
                    52.3491090271976
                ]
            }
        },
        {
            "type": "Feature",
            "properties": {
                "ref:csioz": 1213251,
                "name": "Centralna",
                "addr:street": "Poznańska",
                "addr:housenumber": "75",
                "addr:city": "Puszczykowo",
                "addr:postcode": "62-040",
                "amenity": "pharmacy"
            },
            "geometry": {
                "type": "Point",
                "coordinates": [
                    16.856986908450196,
                    52.287289377081905
                ]
            }
        },
        {
            "type": "Feature",
            "properties": {
                "ref:csioz": 1213866,
                "name": "Kormed",
                "addr:street": "ul. Poznańska",
                "addr:housenumber": "76",
                "addr:city": "Czapury",
                "addr:postcode": "61-160",
                "amenity": "pharmacy"
            },
            "geometry": {
                "type": "Point",
                "coordinates": [
                    16.91163692121594,
                    52.31502080795273
                ]
            }
        },
        {
            "type": "Feature",
            "properties": {
                "ref:csioz": 1216403,
                "name": "Moderna 7",
                "addr:street": "ul. Wojska Polskiego",
                "addr:housenumber": "5A",
                "addr:city": "Luboń",
                "addr:postcode": "62-030",
                "amenity": "pharmacy"
            },
            "geometry": {
                "type": "Point",
                "coordinates": [
                    16.873030492669102,
                    52.342845150559434
                ]
            }
        },
        {
            "type": "Feature",
            "properties": {
                "ref:csioz": 1223025,
                "name": "Apteka Dla Ciebie",
                "addr:street": "Józefa Ignacego Kraszewskiego",
                "addr:housenumber": "11",
                "addr:city": "Puszczykowo",
                "addr:postcode": "62-040",
                "amenity": "pharmacy"
            },
            "geometry": {
                "type": "Point",
                "coordinates": [
                    16.868115441342805,
                    52.26410146502773
                ]
            }
        }
    ]
}