{
    "type": "FeatureCollection",
    "name": "JPT_KOD_JE_2601",
    "features": [
        {
            "type": "Feature",
            "properties": {
                "ref:csioz": 1000712,
                "addr:housenumber": "41",
                "addr:postcode": "28-142",
                "amenity": "pharmacy",
                "addr:place": "Tuczępy",
                "dispensing": "yes"
            },
            "geometry": {
                "type": "Point",
                "coordinates": [
                    20.993305405635013,
                    50.51746958551714
                ]
            }
        },
        {
            "type": "Feature",
            "properties": {
                "ref:csioz": 1000154,
                "addr:housenumber": "147",
                "addr:postcode": "28-114",
                "amenity": "pharmacy",
                "addr:place": "Gnojno",
                "dispensing": "yes"
            },
            "geometry": {
                "type": "Point",
                "coordinates": [
                    20.843770445209458,
                    50.60312468647047
                ]
            }
        },
        {
            "type": "Feature",
            "properties": {
                "ref:csioz": 1000122,
                "addr:housenumber": "133",
                "addr:postcode": "28-136",
                "amenity": "pharmacy",
                "addr:place": "Brzostków",
                "dispensing": "yes"
            },
            "geometry": {
                "type": "Point",
                "coordinates": [
                    20.913691256644935,
                    50.31450853742489
                ]
            }
        },
        {
            "type": "Feature",
            "properties": {
                "ref:csioz": 1000111,
                "name": "Apteka Nad Rzeką",
                "addr:street": "Krakowska",
                "addr:housenumber": "12",
                "addr:city": "Nowy Korczyn",
                "addr:postcode": "28-136",
                "amenity": "pharmacy",
                "dispensing": "yes"
            },
            "geometry": {
                "type": "Point",
                "coordinates": [
                    20.808911000002038,
                    50.29797500001293
                ]
            }
        },
        {
            "type": "Feature",
            "properties": {
                "ref:csioz": 1002766,
                "addr:street": "Rynek",
                "addr:housenumber": "3",
                "addr:city": "Nowy Korczyn",
                "addr:postcode": "28-136",
                "amenity": "pharmacy",
                "dispensing": "yes"
            },
            "geometry": {
                "type": "Point",
                "coordinates": [
                    20.80806565628037,
                    50.299372247496194
                ]
            }
        },
        {
            "type": "Feature",
            "properties": {
                "ref:csioz": 1000704,
                "addr:street": "Zwycięstwa",
                "addr:housenumber": "10",
                "addr:city": "Busko-Zdrój",
                "addr:postcode": "28-100",
                "amenity": "pharmacy",
                "dispensing": "yes"
            },
            "geometry": {
                "type": "Point",
                "coordinates": [
                    20.718246519492087,
                    50.46975404204435
                ]
            }
        },
        {
            "type": "Feature",
            "properties": {
                "ref:csioz": 1000975,
                "addr:street": "Bohaterów Warszawy",
                "addr:housenumber": "65a",
                "addr:city": "Busko-Zdrój",
                "addr:postcode": "28-100",
                "amenity": "pharmacy",
                "dispensing": "yes"
            },
            "geometry": {
                "type": "Point",
                "coordinates": [
                    20.706157660241644,
                    50.46890678740172
                ]
            }
        },
        {
            "type": "Feature",
            "properties": {
                "ref:csioz": 1001781,
                "addr:street": "Plac Józefa Piłsudskiego",
                "addr:housenumber": "4",
                "addr:city": "Stopnica",
                "addr:postcode": "28-130",
                "amenity": "pharmacy",
                "dispensing": "yes"
            },
            "geometry": {
                "type": "Point",
                "coordinates": [
                    20.938451682218084,
                    50.440477295450535
                ]
            }
        },
        {
            "type": "Feature",
            "properties": {
                "ref:csioz": 1001984,
                "addr:street": "Dr A. Gałązki",
                "addr:housenumber": "11",
                "addr:city": "PACANÓW",
                "addr:postcode": "28-133",
                "amenity": "pharmacy",
                "dispensing": "yes"
            },
            "geometry": {
                "type": "Point",
                "coordinates": [
                    21.038610000003377,
                    50.401763000013084
                ]
            }
        },
        {
            "type": "Feature",
            "properties": {
                "ref:csioz": 1002248,
                "name": "Vita",
                "addr:street": "1-go Maja",
                "addr:housenumber": "17",
                "addr:city": "BUSKO-ZDRÓJ",
                "addr:postcode": "28-100",
                "amenity": "pharmacy",
                "dispensing": "yes"
            },
            "geometry": {
                "type": "Point",
                "coordinates": [
                    20.72208000000167,
                    50.45939400001316
                ]
            }
        },
        {
            "type": "Feature",
            "properties": {
                "ref:csioz": 1002273,
                "addr:street": "Jana Kilińskiego",
                "addr:housenumber": "16",
                "addr:city": "Busko-Zdrój",
                "addr:postcode": "28-100",
                "amenity": "pharmacy",
                "dispensing": "yes"
            },
            "geometry": {
                "type": "Point",
                "coordinates": [
                    20.715980364397698,
                    50.47005546718301
                ]
            }
        },
        {
            "type": "Feature",
            "properties": {
                "ref:csioz": 1002862,
                "name": "Zdrój",
                "addr:street": "1 Maja",
                "addr:housenumber": "4",
                "addr:city": "Solec-Zdrój",
                "addr:postcode": "28-131",
                "amenity": "pharmacy",
                "dispensing": "yes"
            },
            "geometry": {
                "type": "Point",
                "coordinates": [
                    20.887487431647823,
                    50.36730615780503
                ]
            }
        },
        {
            "type": "Feature",
            "properties": {
                "ref:csioz": 1003074,
                "name": "\"Apteka \"\"Na Targowej\"\"\"",
                "addr:street": "Targowa",
                "addr:housenumber": "4",
                "addr:city": "Busko-Zdrój",
                "addr:postcode": "28-100",
                "amenity": "pharmacy",
                "dispensing": "yes"
            },
            "geometry": {
                "type": "Point",
                "coordinates": [
                    20.72148833940597,
                    50.46990617942119
                ]
            }
        },
        {
            "type": "Feature",
            "properties": {
                "ref:csioz": 1003499,
                "name": "Apteka Z Plusem",
                "addr:street": "Bohaterów Warszawy",
                "addr:housenumber": "31",
                "addr:city": "Busko-Zdrój",
                "addr:postcode": "28-100",
                "amenity": "pharmacy",
                "dispensing": "yes"
            },
            "geometry": {
                "type": "Point",
                "coordinates": [
                    20.714920997203095,
                    50.47111009555232
                ]
            }
        },
        {
            "type": "Feature",
            "properties": {
                "ref:csioz": 1003644,
                "name": "Twoja Apteka",
                "addr:street": "Rynek",
                "addr:housenumber": "11",
                "addr:city": "Pacanów",
                "addr:postcode": "28-133",
                "amenity": "pharmacy",
                "dispensing": "yes"
            },
            "geometry": {
                "type": "Point",
                "coordinates": [
                    21.041244222677886,
                    50.39968270996723
                ]
            }
        },
        {
            "type": "Feature",
            "properties": {
                "ref:csioz": 1003742,
                "name": "Słoneczna",
                "addr:street": "Wojska Polskiego",
                "addr:housenumber": "14",
                "addr:city": "Busko-Zdrój",
                "addr:postcode": "28-100",
                "amenity": "pharmacy",
                "dispensing": "yes"
            },
            "geometry": {
                "type": "Point",
                "coordinates": [
                    20.71932844072623,
                    50.47274430862414
                ]
            }
        },
        {
            "type": "Feature",
            "properties": {
                "ref:csioz": 1004197,
                "name": "Wiślicka",
                "addr:street": "Rynek",
                "addr:housenumber": "4",
                "addr:city": "Wiślica",
                "addr:postcode": "28-160",
                "amenity": "pharmacy",
                "dispensing": "yes"
            },
            "geometry": {
                "type": "Point",
                "coordinates": [
                    20.672963111050866,
                    50.349017669290106
                ]
            }
        },
        {
            "type": "Feature",
            "properties": {
                "ref:csioz": 1112031,
                "name": "Słoneczna",
                "addr:street": "Batorego",
                "addr:housenumber": "11a",
                "addr:city": "Busko-Zdrój",
                "addr:postcode": "28-100",
                "amenity": "pharmacy",
                "dispensing": "yes"
            },
            "geometry": {
                "type": "Point",
                "coordinates": [
                    20.722878147557555,
                    50.46899596092494
                ]
            }
        },
        {
            "type": "Feature",
            "properties": {
                "ref:csioz": 1112044,
                "name": "Apteka Plus",
                "addr:street": "Bohaterów Warszawy",
                "addr:housenumber": "67D",
                "addr:city": "Busko-Zdrój",
                "addr:postcode": "28-100",
                "amenity": "pharmacy",
                "dispensing": "yes"
            },
            "geometry": {
                "type": "Point",
                "coordinates": [
                    20.705196123017597,
                    50.46857012314463
                ]
            }
        },
        {
            "type": "Feature",
            "properties": {
                "ref:csioz": 1137838,
                "name": "Apteka Szpitalna",
                "addr:street": "Gen. Rzewuskiego",
                "addr:housenumber": "1",
                "addr:city": "Busko-Zdrój",
                "addr:postcode": "28-100",
                "amenity": "pharmacy",
                "dispensing": "yes"
            },
            "geometry": {
                "type": "Point",
                "coordinates": [
                    20.72181900000167,
                    50.45641100001316
                ]
            }
        },
        {
            "type": "Feature",
            "properties": {
                "ref:csioz": 1191913,
                "addr:street": "Rokosza",
                "addr:housenumber": "1",
                "addr:city": "Busko-Zdrój",
                "addr:postcode": "28-100",
                "amenity": "pharmacy",
                "dispensing": "yes"
            },
            "geometry": {
                "type": "Point",
                "coordinates": [
                    20.716728299380204,
                    50.45653786035829
                ]
            }
        },
        {
            "type": "Feature",
            "properties": {
                "ref:csioz": 1199334,
                "name": "\"Apteka \"\"Rodzinna\"\"\"",
                "addr:street": "Bohaterów Warszawy",
                "addr:housenumber": "106",
                "addr:city": "Busko-Zdrój",
                "addr:postcode": "28-100",
                "amenity": "pharmacy",
                "dispensing": "yes"
            },
            "geometry": {
                "type": "Point",
                "coordinates": [
                    20.70388223460104,
                    50.468947386987814
                ]
            }
        },
        {
            "type": "Feature",
            "properties": {
                "ref:csioz": 1000934,
                "name": "\"Apteka Cef@Rm 36,6\"",
                "addr:street": "Plac Solny",
                "addr:housenumber": "42",
                "addr:city": "Wiślica",
                "addr:postcode": "28-160",
                "amenity": "pharmacy",
                "dispensing": "yes"
            },
            "geometry": {
                "type": "Point",
                "coordinates": [
                    20.675137000001506,
                    50.348614000013
                ]
            }
        },
        {
            "type": "Feature",
            "properties": {
                "ref:csioz": 1001945,
                "addr:street": "gen. Władysława Sikorskiego",
                "addr:housenumber": "26",
                "addr:city": "Busko-Zdrój",
                "addr:postcode": "28-100",
                "amenity": "pharmacy",
                "dispensing": "yes"
            },
            "geometry": {
                "type": "Point",
                "coordinates": [
                    20.728395657569447,
                    50.467528826431625
                ]
            }
        },
        {
            "type": "Feature",
            "properties": {
                "ref:csioz": 1002702,
                "name": "Apteka Premium-Lek",
                "addr:street": "Rzewuskiego",
                "addr:housenumber": "4",
                "addr:city": "Busko-Zdrój",
                "addr:postcode": "28-100",
                "amenity": "pharmacy",
                "dispensing": "yes"
            },
            "geometry": {
                "type": "Point",
                "coordinates": [
                    20.721193369721412,
                    50.45520285404584
                ]
            }
        },
        {
            "type": "Feature",
            "properties": {
                "ref:csioz": 1004124,
                "name": "Apteka Centrum Zdrowia",
                "addr:street": "1 Maja",
                "addr:housenumber": "14A",
                "addr:city": "Solec-Zdrój",
                "addr:postcode": "28-131",
                "amenity": "pharmacy",
                "dispensing": "yes"
            },
            "geometry": {
                "type": "Point",
                "coordinates": [
                    20.88889054024625,
                    50.3697769001987
                ]
            }
        },
        {
            "type": "Feature",
            "properties": {
                "ref:csioz": 1004170,
                "name": "\"Apteka \"\"Codzienna\"\"\"",
                "addr:street": "Jana Kilińskiego",
                "addr:housenumber": "15",
                "addr:city": "Busko-Zdrój",
                "addr:postcode": "28-100",
                "amenity": "pharmacy",
                "dispensing": "yes"
            },
            "geometry": {
                "type": "Point",
                "coordinates": [
                    20.716928507750502,
                    50.469779660039045
                ]
            }
        },
        {
            "type": "Feature",
            "properties": {
                "ref:csioz": 1137846,
                "name": "Apteka Szpitalna",
                "addr:street": "Bohaterów Warszawy",
                "addr:housenumber": "67",
                "addr:city": "Busko-Zdrój",
                "addr:postcode": "28-100",
                "amenity": "pharmacy",
                "dispensing": "yes"
            },
            "geometry": {
                "type": "Point",
                "coordinates": [
                    20.704594055576365,
                    50.46807044142113
                ]
            }
        },
        {
            "type": "Feature",
            "properties": {
                "ref:csioz": 1179632,
                "name": "Apteka Centrum Zdrowia",
                "addr:street": "Podgrodzie",
                "addr:housenumber": "5",
                "addr:city": "Wiślica",
                "addr:postcode": "28-160",
                "amenity": "pharmacy",
                "dispensing": "yes"
            },
            "geometry": {
                "type": "Point",
                "coordinates": [
                    20.67662542382448,
                    50.347071746582465
                ]
            }
        },
        {
            "type": "Feature",
            "properties": {
                "ref:csioz": 1188933,
                "name": "Apteka Mojej Mamy",
                "addr:street": "Sądowa",
                "addr:housenumber": "11",
                "addr:city": "Busko-Zdrój",
                "addr:postcode": "28-100",
                "amenity": "pharmacy",
                "dispensing": "yes"
            },
            "geometry": {
                "type": "Point",
                "coordinates": [
                    20.716804735521766,
                    50.47305202114743
                ]
            }
        },
        {
            "type": "Feature",
            "properties": {
                "ref:csioz": 1191652,
                "name": "Dział Farmacji Szpitalnej",
                "addr:street": "Bohaterów Warszawy",
                "addr:housenumber": "115",
                "addr:city": "Busko-Zdrój",
                "addr:postcode": "28-100",
                "amenity": "pharmacy",
                "dispensing": "yes"
            },
            "geometry": {
                "type": "Point",
                "coordinates": [
                    20.691705476974658,
                    50.470678442250616
                ]
            }
        },
        {
            "type": "Feature",
            "properties": {
                "ref:csioz": 1207071,
                "name": "21 Wojskowy Szpital Uzdrowiskowo-Rehabilitacyjny W Busku -Zdroju Samodzielny Publiczny Zakład Opieki Zdrowotnej -Sp Zoz",
                "addr:street": "Rzewuskiego",
                "addr:housenumber": "8",
                "addr:city": "Busko-Zdrój",
                "addr:postcode": "28-100",
                "amenity": "pharmacy",
                "dispensing": "yes"
            },
            "geometry": {
                "type": "Point",
                "coordinates": [
                    20.721136921954216,
                    50.454405924817415
                ]
            }
        },
        {
            "type": "Feature",
            "properties": {
                "ref:csioz": 1222212,
                "name": "Apteka Dr. Optima",
                "addr:street": "Stefana Batorego",
                "addr:housenumber": "3",
                "addr:city": "Busko-Zdrój",
                "addr:postcode": "28-100",
                "amenity": "pharmacy",
                "dispensing": "yes"
            },
            "geometry": {
                "type": "Point",
                "coordinates": [
                    20.722021034560292,
                    50.46914037160581
                ]
            }
        },
        {
            "type": "Feature",
            "properties": {
                "ref:csioz": 1224428,
                "name": "Hospicjum W Busku-Zdroju",
                "addr:street": "Bohaterów Warszawy",
                "addr:housenumber": "67",
                "addr:city": "Busko-Zdrój",
                "addr:postcode": "28-100",
                "amenity": "pharmacy",
                "dispensing": "yes"
            },
            "geometry": {
                "type": "Point",
                "coordinates": [
                    20.704594055576365,
                    50.46807044142113
                ]
            }
        },
        {
            "type": "Feature",
            "properties": {
                "ref:csioz": 1002972,
                "name": "\"Apteka \"\"Nova\"\"\"",
                "addr:street": "Plac Józefa Piłsudskiego",
                "addr:housenumber": "31",
                "addr:city": "Stopnica",
                "addr:postcode": "28-130",
                "amenity": "pharmacy",
                "dispensing": "yes"
            },
            "geometry": {
                "type": "Point",
                "coordinates": [
                    20.93900167294974,
                    50.43978237503854
                ]
            }
        },
        {
            "type": "Feature",
            "properties": {
                "ref:csioz": 1000380,
                "name": "\"Apteka \"\"Farmavit\"\"\"",
                "addr:street": "Stanisława Staszica",
                "addr:housenumber": "2a",
                "addr:city": "Busko-Zdrój",
                "addr:postcode": "28-100",
                "amenity": "pharmacy",
                "dispensing": "yes"
            },
            "geometry": {
                "type": "Point",
                "coordinates": [
                    20.717760884245962,
                    50.471288963542705
                ]
            }
        }
    ]
}