{
    "type": "FeatureCollection",
    "name": "JPT_KOD_JE_2410",
    "features": [
        {
            "type": "Feature",
            "properties": {
                "ref:csioz": 1072994,
                "name": "Bemvita",
                "addr:street": "PLAC JANA KUPCA",
                "addr:housenumber": "2",
                "addr:city": "ŁĄKA",
                "addr:postcode": "43-241",
                "amenity": "pharmacy"
            },
            "geometry": {
                "type": "Point",
                "coordinates": [
                    18.9049150024998,
                    49.956691953483215
                ]
            }
        },
        {
            "type": "Feature",
            "properties": {
                "ref:csioz": 1062495,
                "name": "Pod Eskulapem",
                "addr:street": "Boczna",
                "addr:housenumber": "2 D",
                "addr:city": "Goczałkowice-Zdrój",
                "addr:postcode": "43-230",
                "amenity": "pharmacy"
            },
            "geometry": {
                "type": "Point",
                "coordinates": [
                    18.974231067704455,
                    49.94345784758283
                ]
            }
        },
        {
            "type": "Feature",
            "properties": {
                "ref:csioz": 1067004,
                "name": "Apteka Dbam O Zdrowie",
                "addr:street": "BRONIEWSKIEGO",
                "addr:housenumber": "1 A",
                "addr:city": "PSZCZYNA",
                "addr:postcode": "43-200",
                "amenity": "pharmacy"
            },
            "geometry": {
                "type": "Point",
                "coordinates": [
                    18.957315651499197,
                    49.97497066634307
                ]
            }
        },
        {
            "type": "Feature",
            "properties": {
                "ref:csioz": 1067012,
                "name": "Hipokrates Iii",
                "addr:street": "DOBRAWY",
                "addr:housenumber": "7",
                "addr:city": "PSZCZYNA",
                "addr:postcode": "43-200",
                "amenity": "pharmacy"
            },
            "geometry": {
                "type": "Point",
                "coordinates": [
                    18.944208235847324,
                    49.969191676507606
                ]
            }
        },
        {
            "type": "Feature",
            "properties": {
                "ref:csioz": 1067036,
                "name": "Apteka Słoneczna",
                "addr:street": "DWORCOWA",
                "addr:housenumber": "36",
                "addr:city": "PSZCZYNA",
                "addr:postcode": "43-200",
                "amenity": "pharmacy"
            },
            "geometry": {
                "type": "Point",
                "coordinates": [
                    18.951616246455764,
                    49.97713268552913
                ]
            }
        },
        {
            "type": "Feature",
            "properties": {
                "ref:csioz": 1067057,
                "name": "Apteka Słoneczna",
                "addr:street": "Piastowska",
                "addr:housenumber": "6",
                "addr:city": "Pszczyna",
                "addr:postcode": "43-200",
                "amenity": "pharmacy"
            },
            "geometry": {
                "type": "Point",
                "coordinates": [
                    18.94367327577395,
                    49.978106900557435
                ]
            }
        },
        {
            "type": "Feature",
            "properties": {
                "ref:csioz": 1067061,
                "name": "Pod Baranem",
                "addr:street": "PIWOWARSKA",
                "addr:housenumber": "6",
                "addr:city": "PSZCZYNA",
                "addr:postcode": "43-200",
                "amenity": "pharmacy"
            },
            "geometry": {
                "type": "Point",
                "coordinates": [
                    18.944753004664346,
                    49.97870823727424
                ]
            }
        },
        {
            "type": "Feature",
            "properties": {
                "ref:csioz": 1067073,
                "name": "Pod Baranem 2",
                "addr:street": "SŁONECZNA",
                "addr:housenumber": "4",
                "addr:city": "PSZCZYNA",
                "addr:postcode": "43-200",
                "amenity": "pharmacy"
            },
            "geometry": {
                "type": "Point",
                "coordinates": [
                    18.93914481769536,
                    49.96858717576158
                ]
            }
        },
        {
            "type": "Feature",
            "properties": {
                "ref:csioz": 1071155,
                "name": "Melisa",
                "addr:street": "Poprzeczna",
                "addr:housenumber": "1",
                "addr:city": "Wola",
                "addr:postcode": "43-225",
                "amenity": "pharmacy"
            },
            "geometry": {
                "type": "Point",
                "coordinates": [
                    19.105560882933364,
                    50.01608769267135
                ]
            }
        },
        {
            "type": "Feature",
            "properties": {
                "ref:csioz": 1072595,
                "name": "Arkadia",
                "addr:street": "POWSTAŃCÓW ŚLĄSKICH",
                "addr:housenumber": "23",
                "addr:city": "CZARKÓW",
                "addr:postcode": "43-211",
                "amenity": "pharmacy"
            },
            "geometry": {
                "type": "Point",
                "coordinates": [
                    18.90939116125175,
                    50.01047067650238
                ]
            }
        },
        {
            "type": "Feature",
            "properties": {
                "ref:csioz": 1072722,
                "name": "Evita",
                "addr:street": "KOŚCIELNA",
                "addr:housenumber": "29",
                "addr:city": "GÓRA",
                "addr:postcode": "43-227",
                "amenity": "pharmacy"
            },
            "geometry": {
                "type": "Point",
                "coordinates": [
                    19.10496638668187,
                    49.97611357090301
                ]
            }
        },
        {
            "type": "Feature",
            "properties": {
                "ref:csioz": 1110915,
                "addr:street": "Pszczyńska",
                "addr:housenumber": "29",
                "addr:city": "Grzawa",
                "addr:postcode": "43-227",
                "amenity": "pharmacy"
            },
            "geometry": {
                "type": "Point",
                "coordinates": [
                    19.05257855131076,
                    49.96889352658049
                ]
            }
        },
        {
            "type": "Feature",
            "properties": {
                "ref:csioz": 1111628,
                "name": "Apteka Vita",
                "addr:street": "Kobiórska",
                "addr:housenumber": "1a",
                "addr:city": "Kobiór",
                "addr:postcode": "43-210",
                "amenity": "pharmacy"
            },
            "geometry": {
                "type": "Point",
                "coordinates": [
                    18.933748157057327,
                    50.05984208338812
                ]
            }
        },
        {
            "type": "Feature",
            "properties": {
                "ref:csioz": 1112785,
                "name": "Polski Związek Niewidomych Centrum Edukacyjno-Leczniczo-Rehabilitacyjne Dla Dzieci I Młodzieży",
                "addr:street": "Aleksandra Zawadzkiego",
                "addr:housenumber": "128",
                "addr:city": "Rudołtowice",
                "addr:postcode": "43-229",
                "amenity": "pharmacy"
            },
            "geometry": {
                "type": "Point",
                "coordinates": [
                    19.00560332216373,
                    49.95328019469252
                ]
            }
        },
        {
            "type": "Feature",
            "properties": {
                "ref:csioz": 1112773,
                "name": "\"Niepubliczny Zakład Opieki Zdrowotnej \"\"Silesia-Med\"\" S.A. - Szpital\"",
                "addr:street": "Zielonkówka",
                "addr:housenumber": "3",
                "addr:city": "Grzawa",
                "addr:postcode": "43-227",
                "amenity": "pharmacy"
            },
            "geometry": {
                "type": "Point",
                "coordinates": [
                    19.045845848021745,
                    49.96745925290482
                ]
            }
        },
        {
            "type": "Feature",
            "properties": {
                "ref:csioz": 1115041,
                "name": "Na Hallera",
                "addr:street": "Gen. Hallera",
                "addr:housenumber": "13",
                "addr:city": "Pszczyna",
                "addr:postcode": "43-200",
                "amenity": "pharmacy"
            },
            "geometry": {
                "type": "Point",
                "coordinates": [
                    18.954254659014268,
                    49.980305348012834
                ]
            }
        },
        {
            "type": "Feature",
            "properties": {
                "ref:csioz": 1120109,
                "name": "Apteka Św. Stanisława 3",
                "addr:street": "Szkolna",
                "addr:housenumber": "72",
                "addr:city": "Goczałkowice-Zdrój",
                "addr:postcode": "43-230",
                "amenity": "pharmacy"
            },
            "geometry": {
                "type": "Point",
                "coordinates": [
                    18.95898633527299,
                    49.94453067203887
                ]
            }
        },
        {
            "type": "Feature",
            "properties": {
                "ref:csioz": 1016813,
                "name": "Szpital Specjalistyczny",
                "addr:street": "Uzdrowiskowa",
                "addr:housenumber": "54",
                "addr:city": "Goczałkowice-Zdrój",
                "addr:postcode": "43-230",
                "amenity": "pharmacy"
            },
            "geometry": {
                "type": "Point",
                "coordinates": [
                    18.97987687288622,
                    49.93723917997314
                ]
            }
        },
        {
            "type": "Feature",
            "properties": {
                "ref:csioz": 1062641,
                "name": "Brak Nazwy",
                "addr:street": "Kasztanowa",
                "addr:housenumber": "4",
                "addr:city": "Jankowice",
                "addr:postcode": "43-215",
                "amenity": "pharmacy"
            },
            "geometry": {
                "type": "Point",
                "coordinates": [
                    18.989156010760702,
                    50.00164491103115
                ]
            }
        },
        {
            "type": "Feature",
            "properties": {
                "ref:csioz": 1066500,
                "name": "Arkadia",
                "addr:street": "KATOWICKA",
                "addr:housenumber": "23 A",
                "addr:city": "PIASEK",
                "addr:postcode": "43-211",
                "amenity": "pharmacy"
            },
            "geometry": {
                "type": "Point",
                "coordinates": [
                    18.948567282682326,
                    50.00483307530116
                ]
            }
        },
        {
            "type": "Feature",
            "properties": {
                "ref:csioz": 1066978,
                "name": "Lerchówka",
                "addr:street": "Stefana Batorego",
                "addr:housenumber": "27",
                "addr:city": "Pszczyna",
                "addr:postcode": "43-200",
                "amenity": "pharmacy"
            },
            "geometry": {
                "type": "Point",
                "coordinates": [
                    18.94837387751453,
                    49.97465074994264
                ]
            }
        },
        {
            "type": "Feature",
            "properties": {
                "ref:csioz": 1066986,
                "name": "Na Bielskiej",
                "addr:street": "Bielska",
                "addr:housenumber": "2",
                "addr:city": "Pszczyna",
                "addr:postcode": "43-200",
                "amenity": "pharmacy"
            },
            "geometry": {
                "type": "Point",
                "coordinates": [
                    18.93732678131476,
                    49.97367945129111
                ]
            }
        },
        {
            "type": "Feature",
            "properties": {
                "ref:csioz": 1195849,
                "name": "Apteka Nova Morkisz",
                "addr:street": "Kopalniana",
                "addr:housenumber": "4",
                "addr:city": "Wola",
                "addr:postcode": "43-225",
                "amenity": "pharmacy"
            },
            "geometry": {
                "type": "Point",
                "coordinates": [
                    19.107676372188813,
                    50.01537292450677
                ]
            }
        },
        {
            "type": "Feature",
            "properties": {
                "ref:csioz": 1200687,
                "name": "Apteka Świat Leków Marta Piskorz",
                "addr:street": "Lipowa",
                "addr:housenumber": "10",
                "addr:city": "Wola",
                "addr:postcode": "43-225",
                "amenity": "pharmacy"
            },
            "geometry": {
                "type": "Point",
                "coordinates": [
                    19.10181234325506,
                    50.016119785579704
                ]
            }
        },
        {
            "type": "Feature",
            "properties": {
                "ref:csioz": 1206926,
                "name": "Apteka Świat Leków Marta Piskorz",
                "addr:street": "ul. M. Kopernika",
                "addr:housenumber": "20",
                "addr:city": "Pszczyna",
                "addr:postcode": "43-200",
                "amenity": "pharmacy"
            },
            "geometry": {
                "type": "Point",
                "coordinates": [
                    18.94582153107131,
                    49.97648330239907
                ]
            }
        },
        {
            "type": "Feature",
            "properties": {
                "ref:csioz": 1208112,
                "name": "Apteka Pod Baranem 3",
                "addr:street": "ul. Dobrawy",
                "addr:housenumber": "34",
                "addr:city": "Pszczyna",
                "addr:postcode": "43-200",
                "amenity": "pharmacy"
            },
            "geometry": {
                "type": "Point",
                "coordinates": [
                    18.944595848061,
                    49.96879548785056
                ]
            }
        },
        {
            "type": "Feature",
            "properties": {
                "ref:csioz": 1213517,
                "name": "Punkt Apteczny Św. Stanisława",
                "addr:street": "Aleksandra Zawadzkiego",
                "addr:housenumber": "6",
                "addr:city": "Ćwiklice",
                "addr:postcode": "43-229",
                "amenity": "pharmacy"
            },
            "geometry": {
                "type": "Point",
                "coordinates": [
                    18.984252106088668,
                    49.97130968863456
                ]
            }
        },
        {
            "type": "Feature",
            "properties": {
                "ref:csioz": 1219744,
                "name": "Maria-Pharm",
                "addr:street": "Karola Szymanowskiego",
                "addr:housenumber": "23",
                "addr:flats": "-",
                "addr:city": "Pszczyna",
                "addr:postcode": "43-200",
                "amenity": "pharmacy"
            },
            "geometry": {
                "type": "Point",
                "coordinates": [
                    18.932761058931593,
                    49.98324976939839
                ]
            }
        },
        {
            "type": "Feature",
            "properties": {
                "ref:csioz": 1227163,
                "addr:street": "dr. Witolda Antesa",
                "addr:housenumber": "11",
                "addr:city": "Pszczyna",
                "addr:postcode": "32-200",
                "amenity": "pharmacy"
            },
            "geometry": {
                "type": "Point",
                "coordinates": [
                    18.939693285568342,
                    49.97327332217931
                ]
            }
        },
        {
            "type": "Feature",
            "properties": {
                "ref:csioz": 1057082,
                "name": "\"Zespół Sanatoryjno-Szpitalny Rehabilitacji Narządu Ruchu \"\"Gwarek\"\"\"",
                "addr:street": "Uzdrowiskowa",
                "addr:housenumber": "51",
                "addr:city": "Goczałkowice-Zdrój",
                "addr:postcode": "43-230",
                "amenity": "pharmacy"
            },
            "geometry": {
                "type": "Point",
                "coordinates": [
                    18.979560423481388,
                    49.938725225296515
                ]
            }
        },
        {
            "type": "Feature",
            "properties": {
                "ref:csioz": 1066448,
                "name": "Pniówek",
                "addr:street": "Krucza",
                "addr:housenumber": "12",
                "addr:city": "Pniówek",
                "addr:postcode": "43-250",
                "amenity": "pharmacy"
            },
            "geometry": {
                "type": "Point",
                "coordinates": [
                    18.691848232330972,
                    49.96387906958869
                ]
            }
        },
        {
            "type": "Feature",
            "properties": {
                "ref:csioz": 1069761,
                "name": "Apteka Św. Stanisława",
                "addr:street": "Bukowa",
                "addr:housenumber": "1",
                "addr:city": "Suszec",
                "addr:postcode": "43-267",
                "amenity": "pharmacy"
            },
            "geometry": {
                "type": "Point",
                "coordinates": [
                    18.792108117941204,
                    50.02770888004218
                ]
            }
        },
        {
            "type": "Feature",
            "properties": {
                "ref:csioz": 1072546,
                "name": "Punkt Apteczny Św. Stanisława",
                "addr:street": "OFIAR FASZYZMU",
                "addr:housenumber": "7",
                "addr:city": "BRZEŹCE",
                "addr:postcode": "43-200",
                "amenity": "pharmacy"
            },
            "geometry": {
                "type": "Point",
                "coordinates": [
                    18.83500832123785,
                    49.98512270028036
                ]
            }
        },
        {
            "type": "Feature",
            "properties": {
                "ref:csioz": 1072696,
                "name": "Bemvita",
                "addr:street": "Korczaka",
                "addr:housenumber": "6 A",
                "addr:city": "Golasowice",
                "addr:postcode": "43-252",
                "amenity": "pharmacy"
            },
            "geometry": {
                "type": "Point",
                "coordinates": [
                    18.67858725974581,
                    49.913862213150715
                ]
            }
        },
        {
            "type": "Feature",
            "properties": {
                "ref:csioz": 1073111,
                "name": "Delfin",
                "addr:street": "ZJEDNOCZENIA",
                "addr:housenumber": "72 A",
                "addr:city": "PAWŁOWICE",
                "addr:postcode": "43-250",
                "amenity": "pharmacy"
            },
            "geometry": {
                "type": "Point",
                "coordinates": [
                    18.718407036355977,
                    49.96449063939079
                ]
            }
        },
        {
            "type": "Feature",
            "properties": {
                "ref:csioz": 1073529,
                "name": "Delfin",
                "addr:street": "PSZCZYŃSKA",
                "addr:housenumber": "5",
                "addr:city": "WARSZOWICE",
                "addr:postcode": "43-254",
                "amenity": "pharmacy"
            },
            "geometry": {
                "type": "Point",
                "coordinates": [
                    18.714453104202157,
                    49.99233899934379
                ]
            }
        },
        {
            "type": "Feature",
            "properties": {
                "ref:csioz": 1111457,
                "name": "Pharmacon",
                "addr:street": "Powstańców Śląskich",
                "addr:housenumber": "4",
                "addr:city": "Studzionka",
                "addr:postcode": "43-245",
                "amenity": "pharmacy"
            },
            "geometry": {
                "type": "Point",
                "coordinates": [
                    18.77452985314131,
                    49.961186458466344
                ]
            }
        },
        {
            "type": "Feature",
            "properties": {
                "ref:csioz": 1115032,
                "name": "Maria",
                "addr:street": "Golasowicka",
                "addr:housenumber": "4",
                "addr:city": "Pielgrzymowice",
                "addr:postcode": "43-252",
                "amenity": "pharmacy"
            },
            "geometry": {
                "type": "Point",
                "coordinates": [
                    18.66262406038394,
                    49.90583668471457
                ]
            }
        },
        {
            "type": "Feature",
            "properties": {
                "ref:csioz": 1173776,
                "addr:street": "Cieszyńska",
                "addr:housenumber": "27",
                "addr:city": "Wisła Wielka",
                "addr:postcode": "43-243",
                "amenity": "pharmacy"
            },
            "geometry": {
                "type": "Point",
                "coordinates": [
                    18.847286898234074,
                    49.94736195568203
                ]
            }
        },
        {
            "type": "Feature",
            "properties": {
                "ref:csioz": 1193499,
                "name": "Apteka Pod Baranem",
                "addr:street": "Ludowego Wojska Polskiego",
                "addr:housenumber": "22",
                "addr:city": "Pawłowice",
                "addr:postcode": "43-251",
                "amenity": "pharmacy"
            },
            "geometry": {
                "type": "Point",
                "coordinates": [
                    18.696326999999922,
                    49.96228500001246
                ]
            }
        },
        {
            "type": "Feature",
            "properties": {
                "ref:csioz": 1066461,
                "name": "Brak Nazwy",
                "addr:street": "Zjednoczenia",
                "addr:housenumber": "62A",
                "addr:city": "Pawłowice",
                "addr:postcode": "43-250",
                "amenity": "pharmacy"
            },
            "geometry": {
                "type": "Point",
                "coordinates": [
                    18.719263089834545,
                    49.96262322077291
                ]
            }
        },
        {
            "type": "Feature",
            "properties": {
                "ref:csioz": 1166231,
                "name": "Verbena",
                "addr:street": "Wodzisławska",
                "addr:housenumber": "59A",
                "addr:city": "Pawłowice",
                "addr:postcode": "43-250",
                "amenity": "pharmacy"
            },
            "geometry": {
                "type": "Point",
                "coordinates": [
                    18.702628614582245,
                    49.958577212194456
                ]
            }
        },
        {
            "type": "Feature",
            "properties": {
                "ref:csioz": 1177933,
                "name": "Apteka Pawłowicka",
                "addr:street": "Wojska Polskiego",
                "addr:housenumber": "16",
                "addr:city": "Pawłowice",
                "addr:postcode": "43-251",
                "amenity": "pharmacy"
            },
            "geometry": {
                "type": "Point",
                "coordinates": [
                    18.697646450055295,
                    49.96164062054726
                ]
            }
        },
        {
            "type": "Feature",
            "properties": {
                "ref:csioz": 1178317,
                "name": "Św. Stanisława 2",
                "addr:street": "Rolna",
                "addr:housenumber": "4",
                "addr:city": "Kobielice",
                "addr:postcode": "43-262",
                "amenity": "pharmacy"
            },
            "geometry": {
                "type": "Point",
                "coordinates": [
                    18.867918203570312,
                    50.006742598146054
                ]
            }
        }
    ]
}