{
    "type": "FeatureCollection",
    "name": "JPT_KOD_JE_3017",
    "features": [
        {
            "type": "Feature",
            "properties": {
                "ref:csioz": 1053301,
                "addr:street": "OSTROWSKA",
                "addr:housenumber": "34B",
                "addr:city": "SIEROSZEWICE",
                "addr:postcode": "63-405",
                "amenity": "pharmacy",
                "dispensing": "yes"
            },
            "geometry": {
                "type": "Point",
                "coordinates": [
                    17.95969248867513,
                    51.63445304511816
                ]
            }
        },
        {
            "type": "Feature",
            "properties": {
                "ref:csioz": 1052886,
                "addr:street": "SŁONECZNA",
                "addr:housenumber": "5",
                "addr:city": "WIELOWIEŚ",
                "addr:postcode": "63-405",
                "amenity": "pharmacy",
                "dispensing": "yes"
            },
            "geometry": {
                "type": "Point",
                "coordinates": [
                    18.08687887003107,
                    51.59788356137566
                ]
            }
        },
        {
            "type": "Feature",
            "properties": {
                "ref:csioz": 1178642,
                "name": "Doz Punkt Apteczny. Dbam O Zdrowie W Parczewie",
                "addr:housenumber": "113",
                "addr:postcode": "63-405",
                "amenity": "pharmacy",
                "addr:place": "Parczew",
                "dispensing": "yes"
            },
            "geometry": {
                "type": "Point",
                "coordinates": [
                    17.918214184951577,
                    51.63808200519903
                ]
            }
        },
        {
            "type": "Feature",
            "properties": {
                "ref:csioz": 1222715,
                "name": "Optima",
                "addr:street": "Kolonia",
                "addr:housenumber": "72",
                "addr:city": "Strzyżew",
                "addr:postcode": "63-405",
                "amenity": "pharmacy",
                "dispensing": "yes"
            },
            "geometry": {
                "type": "Point",
                "coordinates": [
                    17.96899494970207,
                    51.577588500117415
                ]
            }
        },
        {
            "type": "Feature",
            "properties": {
                "ref:csioz": 1053587,
                "name": "Vademecum",
                "addr:street": "PODKOCKA",
                "addr:housenumber": "15A",
                "addr:city": "NOWE SKALMIERZYCE",
                "addr:postcode": "63-460",
                "amenity": "pharmacy",
                "dispensing": "yes"
            },
            "geometry": {
                "type": "Point",
                "coordinates": [
                    17.98951316571476,
                    51.70580094358053
                ]
            }
        },
        {
            "type": "Feature",
            "properties": {
                "ref:csioz": 1209557,
                "name": "Stylowa",
                "addr:street": "Wolności",
                "addr:housenumber": "1/A",
                "addr:city": "Nowe Skalmierzyce",
                "addr:postcode": "63-460",
                "amenity": "pharmacy",
                "dispensing": "yes"
            },
            "geometry": {
                "type": "Point",
                "coordinates": [
                    17.994435999999602,
                    51.71164900001503
                ]
            }
        },
        {
            "type": "Feature",
            "properties": {
                "ref:csioz": 1118831,
                "name": "Stylowy",
                "addr:street": "SZKOLNA",
                "addr:housenumber": "4",
                "addr:city": "LEWKÓW",
                "addr:postcode": "63-410",
                "amenity": "pharmacy",
                "dispensing": "yes"
            },
            "geometry": {
                "type": "Point",
                "coordinates": [
                    17.863507893631898,
                    51.69232902627849
                ]
            }
        },
        {
            "type": "Feature",
            "properties": {
                "ref:csioz": 1206733,
                "name": "Kaliniec",
                "addr:street": "kard. Stefana Wyszyńskiego",
                "addr:housenumber": "8",
                "addr:city": "Nowe Skalmierzyce",
                "addr:postcode": "63-460",
                "amenity": "pharmacy",
                "dispensing": "yes"
            },
            "geometry": {
                "type": "Point",
                "coordinates": [
                    17.993331581536502,
                    51.709947144482335
                ]
            }
        },
        {
            "type": "Feature",
            "properties": {
                "ref:csioz": 1053669,
                "name": "Arnika",
                "addr:housenumber": "25A",
                "addr:postcode": "63-421",
                "amenity": "pharmacy",
                "addr:place": "CZARNYLAS",
                "dispensing": "yes"
            },
            "geometry": {
                "type": "Point",
                "coordinates": [
                    17.7722245914142,
                    51.50283003918922
                ]
            }
        },
        {
            "type": "Feature",
            "properties": {
                "ref:csioz": 1053938,
                "addr:street": "JANUSZA KORCZAKA",
                "addr:housenumber": "7",
                "addr:city": "SOŚNIE",
                "addr:postcode": "63-435",
                "amenity": "pharmacy",
                "dispensing": "yes"
            },
            "geometry": {
                "type": "Point",
                "coordinates": [
                    17.634160063684302,
                    51.47080234931051
                ]
            }
        },
        {
            "type": "Feature",
            "properties": {
                "ref:csioz": 1228277,
                "name": "Doz Punkt Apteczny. Dbam O Zdrowie W Ligocie",
                "addr:street": "Ostrowska",
                "addr:housenumber": "15",
                "addr:city": "Ligota",
                "addr:postcode": "63-441",
                "amenity": "pharmacy",
                "dispensing": "yes"
            },
            "geometry": {
                "type": "Point",
                "coordinates": [
                    17.69648990181318,
                    51.78840738279261
                ]
            }
        },
        {
            "type": "Feature",
            "properties": {
                "ref:csioz": 1027051,
                "name": "Rodzinna",
                "addr:street": "KOŹMIŃSKA",
                "addr:housenumber": "20",
                "addr:city": "RASZKÓW",
                "addr:postcode": "63-440",
                "amenity": "pharmacy",
                "dispensing": "yes"
            },
            "geometry": {
                "type": "Point",
                "coordinates": [
                    17.733532322137787,
                    51.72020146058179
                ]
            }
        },
        {
            "type": "Feature",
            "properties": {
                "ref:csioz": 1051849,
                "name": "Zębcowska",
                "addr:street": "Zębcowska",
                "addr:housenumber": "33",
                "addr:city": "Ostrów Wielkopolski",
                "addr:postcode": "63-400",
                "amenity": "pharmacy",
                "dispensing": "yes"
            },
            "geometry": {
                "type": "Point",
                "coordinates": [
                    17.801403386500215,
                    51.63534066465063
                ]
            }
        },
        {
            "type": "Feature",
            "properties": {
                "ref:csioz": 1051863,
                "name": "Benefactor",
                "addr:street": "Kaliska",
                "addr:housenumber": "120",
                "addr:city": "Ostrów Wielkopolski",
                "addr:postcode": "63-400",
                "amenity": "pharmacy",
                "dispensing": "yes"
            },
            "geometry": {
                "type": "Point",
                "coordinates": [
                    17.84639061626157,
                    51.656831352023524
                ]
            }
        },
        {
            "type": "Feature",
            "properties": {
                "ref:csioz": 1051896,
                "name": "Przy Wolności",
                "addr:street": "Wolności",
                "addr:housenumber": "26",
                "addr:city": "Ostrów Wielkopolski",
                "addr:postcode": "63-400",
                "amenity": "pharmacy",
                "dispensing": "yes"
            },
            "geometry": {
                "type": "Point",
                "coordinates": [
                    17.81079171678019,
                    51.64902157989917
                ]
            }
        },
        {
            "type": "Feature",
            "properties": {
                "ref:csioz": 1052023,
                "name": "Na Dobre I Na Złe",
                "addr:street": "Dembińskiego",
                "addr:housenumber": "20",
                "addr:city": "Ostrów Wielkopolski",
                "addr:postcode": "63-400",
                "amenity": "pharmacy",
                "dispensing": "yes"
            },
            "geometry": {
                "type": "Point",
                "coordinates": [
                    17.80322172925345,
                    51.656672246629284
                ]
            }
        },
        {
            "type": "Feature",
            "properties": {
                "ref:csioz": 1052072,
                "name": "Retiro",
                "addr:street": "JAROCIŃSKA",
                "addr:housenumber": "3",
                "addr:city": "RASZKÓW",
                "addr:postcode": "63-440",
                "amenity": "pharmacy",
                "dispensing": "yes"
            },
            "geometry": {
                "type": "Point",
                "coordinates": [
                    17.72719034862431,
                    51.71909619041749
                ]
            }
        },
        {
            "type": "Feature",
            "properties": {
                "ref:csioz": 1052463,
                "name": "Optima Iii",
                "addr:street": "Asnyka",
                "addr:housenumber": "2A",
                "addr:city": "Ostrów Wielkopolski",
                "addr:postcode": "63-400",
                "amenity": "pharmacy",
                "dispensing": "yes"
            },
            "geometry": {
                "type": "Point",
                "coordinates": [
                    17.82886260217457,
                    51.64032911979974
                ]
            }
        },
        {
            "type": "Feature",
            "properties": {
                "ref:csioz": 1052864,
                "name": "Paracelsus",
                "addr:street": "RYNEK",
                "addr:housenumber": "11",
                "addr:city": "RASZKÓW",
                "addr:postcode": "63-440",
                "amenity": "pharmacy",
                "dispensing": "yes"
            },
            "geometry": {
                "type": "Point",
                "coordinates": [
                    17.727714948833643,
                    51.7176934089735
                ]
            }
        },
        {
            "type": "Feature",
            "properties": {
                "ref:csioz": 1053511,
                "addr:housenumber": "127",
                "addr:postcode": "63-410",
                "amenity": "pharmacy",
                "addr:place": "Daniszyn",
                "dispensing": "yes"
            },
            "geometry": {
                "type": "Point",
                "coordinates": [
                    17.640929941428357,
                    51.65584318156816
                ]
            }
        },
        {
            "type": "Feature",
            "properties": {
                "ref:csioz": 1053598,
                "name": "Melisa",
                "addr:street": "Jana Mertki",
                "addr:housenumber": "13",
                "addr:city": "Ostrów Wielkopolski",
                "addr:postcode": "63-400",
                "amenity": "pharmacy",
                "dispensing": "yes"
            },
            "geometry": {
                "type": "Point",
                "coordinates": [
                    17.830786025835152,
                    51.63939793885622
                ]
            }
        },
        {
            "type": "Feature",
            "properties": {
                "ref:csioz": 1118708,
                "addr:street": "Brzozowa",
                "addr:housenumber": "7",
                "addr:city": "Ostrów Wielkopolski",
                "addr:postcode": "63-400",
                "amenity": "pharmacy",
                "dispensing": "yes"
            },
            "geometry": {
                "type": "Point",
                "coordinates": [
                    17.805517832488917,
                    51.627561152748996
                ]
            }
        },
        {
            "type": "Feature",
            "properties": {
                "ref:csioz": 1119264,
                "name": "Stylowa 5",
                "addr:street": "Armii Krajowej",
                "addr:housenumber": "13A",
                "addr:city": "Ostrów Wielkopolski",
                "addr:postcode": "63-400",
                "amenity": "pharmacy",
                "dispensing": "yes"
            },
            "geometry": {
                "type": "Point",
                "coordinates": [
                    17.812624921229318,
                    51.63995259451251
                ]
            }
        },
        {
            "type": "Feature",
            "properties": {
                "ref:csioz": 1119589,
                "name": "Viva",
                "addr:street": "KROTOSZYŃSKA",
                "addr:housenumber": "50",
                "addr:city": "ODOLANÓW",
                "addr:postcode": "63-430",
                "amenity": "pharmacy",
                "dispensing": "yes"
            },
            "geometry": {
                "type": "Point",
                "coordinates": [
                    17.66880281506628,
                    51.58001805049832
                ]
            }
        },
        {
            "type": "Feature",
            "properties": {
                "ref:csioz": 1195512,
                "name": "Stylowa 2",
                "addr:street": "ks. kard. Edmunda Dalbora",
                "addr:housenumber": "36",
                "addr:city": "Ostrów Wielkopolski",
                "addr:postcode": "63-400",
                "amenity": "pharmacy",
                "dispensing": "yes"
            },
            "geometry": {
                "type": "Point",
                "coordinates": [
                    17.82908899999946,
                    51.64378100001491
                ]
            }
        },
        {
            "type": "Feature",
            "properties": {
                "ref:csioz": 1201721,
                "name": "Apteka Szpitalna",
                "addr:street": "Bolesława Limanowskiego",
                "addr:housenumber": "20",
                "addr:city": "Ostrów Wielkopolski",
                "addr:postcode": "63-400",
                "amenity": "pharmacy",
                "dispensing": "yes"
            },
            "geometry": {
                "type": "Point",
                "coordinates": [
                    17.82663699999946,
                    51.65429200001493
                ]
            }
        },
        {
            "type": "Feature",
            "properties": {
                "ref:csioz": 1222533,
                "name": "Apteka Społeczna Na Konopnickiej Grupa Nowa Farmacja",
                "addr:street": "Konopnickiej",
                "addr:housenumber": "2B",
                "addr:city": "Ostrów Wielkopolski",
                "addr:postcode": "63-400",
                "amenity": "pharmacy",
                "dispensing": "yes"
            },
            "geometry": {
                "type": "Point",
                "coordinates": [
                    17.814616470264042,
                    51.65233008880518
                ]
            }
        },
        {
            "type": "Feature",
            "properties": {
                "ref:csioz": 1051922,
                "name": "Doz Apteka. Dbam O Zdrowie Multi - Vit 1",
                "addr:street": "Klonowicza",
                "addr:housenumber": "14",
                "addr:city": "Ostrów Wielkopolski",
                "addr:postcode": "63-400",
                "amenity": "pharmacy",
                "dispensing": "yes"
            },
            "geometry": {
                "type": "Point",
                "coordinates": [
                    17.81776631157143,
                    51.642803318133105
                ]
            }
        },
        {
            "type": "Feature",
            "properties": {
                "ref:csioz": 1051965,
                "name": "Kwiaty Polskie",
                "addr:street": "Wrocławska",
                "addr:housenumber": "81",
                "addr:city": "Ostrów Wielkopolski",
                "addr:postcode": "63-400",
                "amenity": "pharmacy",
                "dispensing": "yes"
            },
            "geometry": {
                "type": "Point",
                "coordinates": [
                    17.815540672644904,
                    51.63956514039872
                ]
            }
        },
        {
            "type": "Feature",
            "properties": {
                "ref:csioz": 1052265,
                "name": "Parkowa",
                "addr:street": "Kościuszki",
                "addr:housenumber": "31",
                "addr:city": "Ostrów Wielkopolski",
                "addr:postcode": "63-400",
                "amenity": "pharmacy",
                "dispensing": "yes"
            },
            "geometry": {
                "type": "Point",
                "coordinates": [
                    17.809263102577585,
                    51.639568733901214
                ]
            }
        },
        {
            "type": "Feature",
            "properties": {
                "ref:csioz": 1052279,
                "name": "Dbam O Zdrowie",
                "addr:street": "Głogowska",
                "addr:housenumber": "12",
                "addr:city": "Ostrów Wielkopolski",
                "addr:postcode": "63-400",
                "amenity": "pharmacy",
                "dispensing": "yes"
            },
            "geometry": {
                "type": "Point",
                "coordinates": [
                    17.81077512997271,
                    51.64520395805184
                ]
            }
        },
        {
            "type": "Feature",
            "properties": {
                "ref:csioz": 1052287,
                "name": "Św.Barbary",
                "addr:street": "ŚW. BARBARY",
                "addr:housenumber": "1",
                "addr:city": "ODOLANÓW",
                "addr:postcode": "63-430",
                "amenity": "pharmacy",
                "dispensing": "yes"
            },
            "geometry": {
                "type": "Point",
                "coordinates": [
                    17.687555886215534,
                    51.5715931998598
                ]
            }
        },
        {
            "type": "Feature",
            "properties": {
                "ref:csioz": 1052327,
                "name": "Królowej Jadwigi",
                "addr:street": "Królowej Jadwigi",
                "addr:housenumber": "50",
                "addr:city": "Ostrów Wielkopolski",
                "addr:postcode": "63-400",
                "amenity": "pharmacy",
                "dispensing": "yes"
            },
            "geometry": {
                "type": "Point",
                "coordinates": [
                    17.819728310788417,
                    51.65733559071702
                ]
            }
        },
        {
            "type": "Feature",
            "properties": {
                "ref:csioz": 1052391,
                "addr:street": "Bolesława Limanowskiego",
                "addr:housenumber": "24",
                "addr:city": "Ostrów Wielkopolski",
                "addr:postcode": "63-400",
                "amenity": "pharmacy",
                "dispensing": "yes"
            },
            "geometry": {
                "type": "Point",
                "coordinates": [
                    17.82422896822649,
                    51.65455981674462
                ]
            }
        },
        {
            "type": "Feature",
            "properties": {
                "ref:csioz": 1052482,
                "name": "Optima Ii",
                "addr:street": "Raszkowska",
                "addr:housenumber": "32",
                "addr:city": "Ostrów Wielkopolski",
                "addr:postcode": "63-400",
                "amenity": "pharmacy",
                "dispensing": "yes"
            },
            "geometry": {
                "type": "Point",
                "coordinates": [
                    17.813442745402448,
                    51.651752058660314
                ]
            }
        },
        {
            "type": "Feature",
            "properties": {
                "ref:csioz": 1052594,
                "name": "Kaliniec",
                "addr:street": "Kaliska",
                "addr:housenumber": "10",
                "addr:city": "Ostrów Wielkopolski",
                "addr:postcode": "63-400",
                "amenity": "pharmacy",
                "dispensing": "yes"
            },
            "geometry": {
                "type": "Point",
                "coordinates": [
                    17.81917038046281,
                    51.64956904035488
                ]
            }
        },
        {
            "type": "Feature",
            "properties": {
                "ref:csioz": 1052737,
                "name": "Arnica",
                "addr:street": "ks. Walentego Śmigielskiego",
                "addr:housenumber": "20",
                "addr:city": "Ostrów Wielkopolski",
                "addr:postcode": "63-400",
                "amenity": "pharmacy",
                "dispensing": "yes"
            },
            "geometry": {
                "type": "Point",
                "coordinates": [
                    17.83212377869626,
                    51.643814412812574
                ]
            }
        },
        {
            "type": "Feature",
            "properties": {
                "ref:csioz": 1052935,
                "addr:street": "KROTOSZYŃSKA",
                "addr:housenumber": "4",
                "addr:city": "ODOLANÓW",
                "addr:postcode": "63-430",
                "amenity": "pharmacy",
                "dispensing": "yes"
            },
            "geometry": {
                "type": "Point",
                "coordinates": [
                    17.67342119731453,
                    51.57477325673522
                ]
            }
        },
        {
            "type": "Feature",
            "properties": {
                "ref:csioz": 1053349,
                "name": "Św. Tomasza",
                "addr:street": "KASZTANOWA",
                "addr:housenumber": "5",
                "addr:city": "PRZYGODZICE",
                "addr:postcode": "63-421",
                "amenity": "pharmacy",
                "dispensing": "yes"
            },
            "geometry": {
                "type": "Point",
                "coordinates": [
                    17.826609790508034,
                    51.589470971269286
                ]
            }
        },
        {
            "type": "Feature",
            "properties": {
                "ref:csioz": 1053363,
                "name": "Gimnazjalna",
                "addr:street": "GIMNAZJALNA",
                "addr:housenumber": "8",
                "addr:city": "ODOLANÓW",
                "addr:postcode": "63-430",
                "amenity": "pharmacy",
                "dispensing": "yes"
            },
            "geometry": {
                "type": "Point",
                "coordinates": [
                    17.659992999999268,
                    51.57878500001482
                ]
            }
        },
        {
            "type": "Feature",
            "properties": {
                "ref:csioz": 1116863,
                "name": "Stylowa 4",
                "addr:street": "Kolejowa",
                "addr:housenumber": "5",
                "addr:city": "Ostrów Wielkopolski",
                "addr:postcode": "63-400",
                "amenity": "pharmacy",
                "dispensing": "yes"
            },
            "geometry": {
                "type": "Point",
                "coordinates": [
                    17.81376836292784,
                    51.6485961357408
                ]
            }
        },
        {
            "type": "Feature",
            "properties": {
                "ref:csioz": 1171601,
                "name": "W Kauflandzie",
                "addr:street": "DWORCOWA",
                "addr:housenumber": "4",
                "addr:city": "Ostrów Wielkopolski",
                "addr:postcode": "63-400",
                "amenity": "pharmacy",
                "dispensing": "yes"
            },
            "geometry": {
                "type": "Point",
                "coordinates": [
                    17.80925535113679,
                    51.64509215355953
                ]
            }
        },
        {
            "type": "Feature",
            "properties": {
                "ref:csioz": 1188389,
                "name": "Twoja Apteka",
                "addr:street": "Głowackiego",
                "addr:housenumber": "71",
                "addr:city": "Ostrów Wielkopolski",
                "addr:postcode": "63-400",
                "amenity": "pharmacy",
                "dispensing": "yes"
            },
            "geometry": {
                "type": "Point",
                "coordinates": [
                    17.782666373334077,
                    51.65639333135627
                ]
            }
        },
        {
            "type": "Feature",
            "properties": {
                "ref:csioz": 1189546,
                "name": "Stylowa",
                "addr:street": "Wrocławska",
                "addr:housenumber": "28",
                "addr:city": "Ostrów Wielkopolski",
                "addr:postcode": "63-400",
                "amenity": "pharmacy",
                "dispensing": "yes"
            },
            "geometry": {
                "type": "Point",
                "coordinates": [
                    17.814804469576085,
                    51.64717241771142
                ]
            }
        },
        {
            "type": "Feature",
            "properties": {
                "ref:csioz": 1191411,
                "name": "Orchidea",
                "addr:housenumber": "155",
                "addr:postcode": "63-400",
                "amenity": "pharmacy",
                "addr:place": "Lamki",
                "dispensing": "yes"
            },
            "geometry": {
                "type": "Point",
                "coordinates": [
                    17.717509051763734,
                    51.65880916062741
                ]
            }
        },
        {
            "type": "Feature",
            "properties": {
                "ref:csioz": 1203125,
                "name": "Stylowa 3",
                "addr:street": "60 Pułku Piechoty",
                "addr:housenumber": "16",
                "addr:city": "Ostrów Wielkopolski",
                "addr:postcode": "63-400",
                "amenity": "pharmacy",
                "dispensing": "yes"
            },
            "geometry": {
                "type": "Point",
                "coordinates": [
                    17.816524465010854,
                    51.65248937607309
                ]
            }
        },
        {
            "type": "Feature",
            "properties": {
                "ref:csioz": 1207522,
                "name": "Stylowa 6",
                "addr:street": "Raszkowska",
                "addr:housenumber": "58",
                "addr:city": "Ostrów Wielkopolski",
                "addr:postcode": "63-400",
                "amenity": "pharmacy",
                "dispensing": "yes"
            },
            "geometry": {
                "type": "Point",
                "coordinates": [
                    17.811151139056776,
                    51.65298584635611
                ]
            }
        },
        {
            "type": "Feature",
            "properties": {
                "ref:csioz": 1208098,
                "name": "Drofarm",
                "addr:street": "Bema",
                "addr:housenumber": "29",
                "addr:city": "Ostrów Wielkopolski",
                "addr:postcode": "63-400",
                "amenity": "pharmacy",
                "dispensing": "yes"
            },
            "geometry": {
                "type": "Point",
                "coordinates": [
                    17.78487709165228,
                    51.646021862977435
                ]
            }
        },
        {
            "type": "Feature",
            "properties": {
                "ref:csioz": 1208104,
                "name": "Apteka Gemini",
                "addr:street": "Wrocławska",
                "addr:housenumber": "13-15",
                "addr:city": "Ostrów Wielkopolski",
                "addr:postcode": "63-400",
                "amenity": "pharmacy",
                "dispensing": "yes"
            },
            "geometry": {
                "type": "Point",
                "coordinates": [
                    17.815313973580352,
                    51.64783019762962
                ]
            }
        },
        {
            "type": "Feature",
            "properties": {
                "ref:csioz": 1208749,
                "name": "Nova",
                "addr:street": "Konopnickiej",
                "addr:housenumber": "1",
                "addr:city": "Ostrów Wielkopolski",
                "addr:postcode": "63-400",
                "amenity": "pharmacy",
                "dispensing": "yes"
            },
            "geometry": {
                "type": "Point",
                "coordinates": [
                    17.814992283333734,
                    51.651889420954625
                ]
            }
        },
        {
            "type": "Feature",
            "properties": {
                "ref:csioz": 1209226,
                "name": "\"'Doz Apteka. Dbam O Zdrowie Multi-Vit 3'\"",
                "addr:street": "prof. Kaliny",
                "addr:housenumber": "150 B",
                "addr:city": "Ostrów Wielkopolski",
                "addr:postcode": "63-400",
                "amenity": "pharmacy",
                "dispensing": "yes"
            },
            "geometry": {
                "type": "Point",
                "coordinates": [
                    17.848239999999482,
                    51.647699000014924
                ]
            }
        },
        {
            "type": "Feature",
            "properties": {
                "ref:csioz": 1211122,
                "name": "Nova",
                "addr:street": "ks. kard. Edmunda Dalbora",
                "addr:housenumber": "32",
                "addr:city": "Ostrów Wielkopolski",
                "addr:postcode": "63-400",
                "amenity": "pharmacy",
                "dispensing": "yes"
            },
            "geometry": {
                "type": "Point",
                "coordinates": [
                    17.829308999999462,
                    51.64416700001491
                ]
            }
        },
        {
            "type": "Feature",
            "properties": {
                "ref:csioz": 1224376,
                "name": "Nova",
                "addr:street": "Bolesława Limanowskiego",
                "addr:housenumber": "12",
                "addr:city": "Ostrów Wielkopolski",
                "addr:postcode": "63-400",
                "amenity": "pharmacy",
                "dispensing": "yes"
            },
            "geometry": {
                "type": "Point",
                "coordinates": [
                    17.82405238171148,
                    51.65363487003988
                ]
            }
        },
        {
            "type": "Feature",
            "properties": {
                "ref:csioz": 1225933,
                "name": "Gorzycka",
                "addr:street": "Ostrowska",
                "addr:housenumber": "95B",
                "addr:city": "Gorzyce Wielkie",
                "addr:postcode": "63-410",
                "amenity": "pharmacy",
                "dispensing": "yes"
            },
            "geometry": {
                "type": "Point",
                "coordinates": [
                    17.75466180585885,
                    51.63938487667263
                ]
            }
        }
    ]
}