{
    "type": "FeatureCollection",
    "name": "JPT_KOD_JE_0418",
    "features": [
        {
            "type": "Feature",
            "properties": {
                "ref:csioz": 1104003,
                "name": "Witaminka",
                "addr:street": "Wiejska",
                "addr:housenumber": "3B",
                "addr:city": "Czerniewice",
                "addr:postcode": "87-830",
                "amenity": "pharmacy"
            },
            "geometry": {
                "type": "Point",
                "coordinates": [
                    19.08769596824311,
                    52.508399668760426
                ]
            }
        },
        {
            "type": "Feature",
            "properties": {
                "ref:csioz": 1104504,
                "name": "Im. J. Śniadeckiego",
                "addr:street": "1 Maja",
                "addr:housenumber": "44 A",
                "addr:city": "Lubień Kujawski",
                "addr:postcode": "87-840",
                "amenity": "pharmacy"
            },
            "geometry": {
                "type": "Point",
                "coordinates": [
                    19.168606144784718,
                    52.40257100655983
                ]
            }
        },
        {
            "type": "Feature",
            "properties": {
                "ref:csioz": 1104613,
                "name": "Zdrowie",
                "addr:street": "Piwna",
                "addr:housenumber": "29",
                "addr:city": "Kowal",
                "addr:postcode": "87-820",
                "amenity": "pharmacy"
            },
            "geometry": {
                "type": "Point",
                "coordinates": [
                    19.155451154148228,
                    52.53247045742291
                ]
            }
        },
        {
            "type": "Feature",
            "properties": {
                "ref:csioz": 1105569,
                "name": "Verbena",
                "addr:housenumber": "87",
                "addr:postcode": "87-821",
                "amenity": "pharmacy",
                "addr:place": "Kłotno"
            },
            "geometry": {
                "type": "Point",
                "coordinates": [
                    19.262528756498323,
                    52.494246508831196
                ]
            }
        },
        {
            "type": "Feature",
            "properties": {
                "ref:csioz": 1104239,
                "addr:street": "1 Maja",
                "addr:housenumber": "46",
                "addr:city": "Lubień Kujawski",
                "addr:postcode": "87-840",
                "amenity": "pharmacy"
            },
            "geometry": {
                "type": "Point",
                "coordinates": [
                    19.169938000000066,
                    52.40162700001611
                ]
            }
        },
        {
            "type": "Feature",
            "properties": {
                "ref:csioz": 1104114,
                "name": "Królewska",
                "addr:street": "Matejki",
                "addr:housenumber": "6",
                "addr:city": "Kowal",
                "addr:postcode": "87-820",
                "amenity": "pharmacy"
            },
            "geometry": {
                "type": "Point",
                "coordinates": [
                    19.14983740134725,
                    52.52951072333758
                ]
            }
        },
        {
            "type": "Feature",
            "properties": {
                "ref:csioz": 1104123,
                "addr:street": "Kopernika",
                "addr:housenumber": "3",
                "addr:city": "Kowal",
                "addr:postcode": "87-820",
                "amenity": "pharmacy"
            },
            "geometry": {
                "type": "Point",
                "coordinates": [
                    19.14921540901999,
                    52.530090370948905
                ]
            }
        },
        {
            "type": "Feature",
            "properties": {
                "ref:csioz": 1197638,
                "name": "Vigor 1",
                "addr:street": "Plac Rejtana",
                "addr:housenumber": "2",
                "addr:city": "Kowal",
                "addr:postcode": "87-820",
                "amenity": "pharmacy"
            },
            "geometry": {
                "type": "Point",
                "coordinates": [
                    19.14244165181265,
                    52.52808159170369
                ]
            }
        },
        {
            "type": "Feature",
            "properties": {
                "ref:csioz": 1202194,
                "name": "Punkt Apteczny Vigor 3",
                "addr:housenumber": "32B",
                "addr:postcode": "87-840",
                "amenity": "pharmacy",
                "addr:place": "Kłóbka"
            },
            "geometry": {
                "type": "Point",
                "coordinates": [
                    19.13146200000005,
                    52.4639140000162
                ]
            }
        },
        {
            "type": "Feature",
            "properties": {
                "ref:csioz": 1228070,
                "name": "Zdrowie I Uroda",
                "addr:housenumber": "44",
                "addr:postcode": "87-821",
                "amenity": "pharmacy",
                "addr:place": "Baruchowo"
            },
            "geometry": {
                "type": "Point",
                "coordinates": [
                    19.238683258324826,
                    52.490395205062185
                ]
            }
        },
        {
            "type": "Feature",
            "properties": {
                "ref:csioz": 1103916,
                "name": "Apteka Pod Kasztanem",
                "addr:street": "Sikorskiego",
                "addr:housenumber": "11",
                "addr:city": "Choceń",
                "addr:postcode": "87-850",
                "amenity": "pharmacy"
            },
            "geometry": {
                "type": "Point",
                "coordinates": [
                    19.018723871370348,
                    52.48828857454659
                ]
            }
        },
        {
            "type": "Feature",
            "properties": {
                "ref:csioz": 1103927,
                "addr:street": "Kościelna",
                "addr:housenumber": "3",
                "addr:city": "Chodecz",
                "addr:postcode": "87-860",
                "amenity": "pharmacy"
            },
            "geometry": {
                "type": "Point",
                "coordinates": [
                    19.028819621674337,
                    52.40432454069675
                ]
            }
        },
        {
            "type": "Feature",
            "properties": {
                "ref:csioz": 1104585,
                "name": "Plusfarm",
                "addr:street": "Sikorskiego",
                "addr:housenumber": "15",
                "addr:city": "Choceń",
                "addr:postcode": "87-850",
                "amenity": "pharmacy"
            },
            "geometry": {
                "type": "Point",
                "coordinates": [
                    19.020549175162046,
                    52.48711730475474
                ]
            }
        },
        {
            "type": "Feature",
            "properties": {
                "ref:csioz": 1105606,
                "addr:street": "Szkolna",
                "addr:housenumber": "32 A",
                "addr:city": "Boniewo",
                "addr:postcode": "87-851",
                "amenity": "pharmacy"
            },
            "geometry": {
                "type": "Point",
                "coordinates": [
                    18.88238684885591,
                    52.465662658671754
                ]
            }
        },
        {
            "type": "Feature",
            "properties": {
                "ref:csioz": 1104050,
                "name": "Parkowa",
                "addr:street": "Narutowicza",
                "addr:housenumber": "34",
                "addr:city": "Izbica Kujawska",
                "addr:postcode": "87-865",
                "amenity": "pharmacy"
            },
            "geometry": {
                "type": "Point",
                "coordinates": [
                    18.756743547292693,
                    52.42182832850485
                ]
            }
        },
        {
            "type": "Feature",
            "properties": {
                "ref:csioz": 1104069,
                "name": "Zielona",
                "addr:street": "Pl.Wolności",
                "addr:housenumber": "19",
                "addr:city": "Izbica Kujawska",
                "addr:postcode": "87-865",
                "amenity": "pharmacy"
            },
            "geometry": {
                "type": "Point",
                "coordinates": [
                    18.762822303182425,
                    52.42105528233252
                ]
            }
        },
        {
            "type": "Feature",
            "properties": {
                "ref:csioz": 1110607,
                "name": "Apteka Im. Pf. F. Adamanisa",
                "addr:street": "Waryńskiego",
                "addr:housenumber": "6",
                "addr:city": "Chodecz",
                "addr:postcode": "87-860",
                "amenity": "pharmacy"
            },
            "geometry": {
                "type": "Point",
                "coordinates": [
                    19.02635962463227,
                    52.40644162588264
                ]
            }
        },
        {
            "type": "Feature",
            "properties": {
                "ref:csioz": 1199496,
                "name": "Aspirynka Centrum Leków",
                "addr:street": "Garbarska",
                "addr:housenumber": "19",
                "addr:city": "Izbica Kujawska",
                "addr:postcode": "87-865",
                "amenity": "pharmacy"
            },
            "geometry": {
                "type": "Point",
                "coordinates": [
                    18.76382334389385,
                    52.41937523081226
                ]
            }
        },
        {
            "type": "Feature",
            "properties": {
                "ref:csioz": 1209849,
                "name": "Apteka Pigułka Centrum Leków",
                "addr:street": "dr. Mariana Szulca",
                "addr:housenumber": "2a",
                "addr:city": "Lubraniec",
                "addr:postcode": "87-890",
                "amenity": "pharmacy"
            },
            "geometry": {
                "type": "Point",
                "coordinates": [
                    18.832843503282593,
                    52.539935024459716
                ]
            }
        },
        {
            "type": "Feature",
            "properties": {
                "ref:csioz": 1221150,
                "name": "Apteka Puls Lubraniec",
                "addr:street": "Brzeska",
                "addr:housenumber": "24",
                "addr:city": "Lubraniec",
                "addr:postcode": "87-890",
                "amenity": "pharmacy"
            },
            "geometry": {
                "type": "Point",
                "coordinates": [
                    18.834952829709778,
                    52.54268805423435
                ]
            }
        },
        {
            "type": "Feature",
            "properties": {
                "ref:csioz": 1176773,
                "name": "Dla Ciebie",
                "addr:housenumber": "10",
                "addr:postcode": "87-890",
                "amenity": "pharmacy",
                "addr:place": "Zgłowiączka"
            },
            "geometry": {
                "type": "Point",
                "coordinates": [
                    18.787706485335775,
                    52.510673042660464
                ]
            }
        },
        {
            "type": "Feature",
            "properties": {
                "ref:csioz": 1203117,
                "name": "\"Apteka\"\"Twoje Leki\"\"\"",
                "addr:street": "Narutowicza",
                "addr:housenumber": "18",
                "addr:city": "Izbica Kujawska",
                "addr:postcode": "87-865",
                "amenity": "pharmacy"
            },
            "geometry": {
                "type": "Point",
                "coordinates": [
                    18.75981913505893,
                    52.421550069571516
                ]
            }
        },
        {
            "type": "Feature",
            "properties": {
                "ref:csioz": 1104226,
                "name": "Pod Chabrami",
                "addr:housenumber": "28",
                "addr:postcode": "87-732",
                "amenity": "pharmacy",
                "addr:place": "Lubanie"
            },
            "geometry": {
                "type": "Point",
                "coordinates": [
                    18.919511754668353,
                    52.746467078128546
                ]
            }
        },
        {
            "type": "Feature",
            "properties": {
                "ref:csioz": 1104896,
                "name": "Bliska",
                "addr:street": "Włocławska",
                "addr:housenumber": "44",
                "addr:city": "Szpetal Górny",
                "addr:postcode": "87-811",
                "amenity": "pharmacy"
            },
            "geometry": {
                "type": "Point",
                "coordinates": [
                    19.100510254604703,
                    52.68409590357707
                ]
            }
        },
        {
            "type": "Feature",
            "properties": {
                "ref:csioz": 1104922,
                "name": "Nova",
                "addr:street": "Królewska",
                "addr:housenumber": "10A",
                "addr:city": "Brześć Kujawski",
                "addr:postcode": "87-880",
                "amenity": "pharmacy"
            },
            "geometry": {
                "type": "Point",
                "coordinates": [
                    18.907137366596256,
                    52.60858281869804
                ]
            }
        },
        {
            "type": "Feature",
            "properties": {
                "ref:csioz": 1105687,
                "name": "Uzdrowisko Wieniec Sp. Z O.O.",
                "addr:street": "Brzozowa",
                "addr:housenumber": "1",
                "addr:city": "Wieniec-Zdrój",
                "addr:postcode": "87-800",
                "amenity": "pharmacy"
            },
            "geometry": {
                "type": "Point",
                "coordinates": [
                    18.98990951876073,
                    52.65673148080119
                ]
            }
        },
        {
            "type": "Feature",
            "properties": {
                "ref:csioz": 1099075,
                "name": "Doz Apteka Dbam O Zdrowie",
                "addr:street": "Królewska",
                "addr:housenumber": "7",
                "addr:city": "Brześć Kujawski",
                "addr:postcode": "87-880",
                "amenity": "pharmacy"
            },
            "geometry": {
                "type": "Point",
                "coordinates": [
                    18.904434214321423,
                    52.60798476022224
                ]
            }
        },
        {
            "type": "Feature",
            "properties": {
                "ref:csioz": 1104042,
                "name": "Eliksir",
                "addr:housenumber": "3",
                "addr:postcode": "87-811",
                "amenity": "pharmacy",
                "addr:place": "Fabianki"
            },
            "geometry": {
                "type": "Point",
                "coordinates": [
                    19.105748954065113,
                    52.71361215577258
                ]
            }
        },
        {
            "type": "Feature",
            "properties": {
                "ref:csioz": 1206551,
                "name": "Martynka",
                "addr:housenumber": "16",
                "addr:postcode": "87-815",
                "amenity": "pharmacy",
                "addr:place": "Smólnik"
            },
            "geometry": {
                "type": "Point",
                "coordinates": [
                    19.25130521842043,
                    52.6036275785541
                ]
            }
        },
        {
            "type": "Feature",
            "properties": {
                "ref:csioz": 1207881,
                "name": "Apteka Zdrowie I Uroda",
                "addr:street": "ul. Kolejowa",
                "addr:housenumber": "6A",
                "addr:flats": "1",
                "addr:city": "Brześć Kujawski",
                "addr:postcode": "87-880",
                "amenity": "pharmacy"
            },
            "geometry": {
                "type": "Point",
                "coordinates": [
                    18.90190838391109,
                    52.60670762349283
                ]
            }
        },
        {
            "type": "Feature",
            "properties": {
                "ref:csioz": 1216623,
                "name": "Zdrowie I Uroda",
                "addr:street": "ul. Brzozowa",
                "addr:housenumber": "1",
                "addr:city": "Wieniec-Zdrój",
                "addr:postcode": "87-800",
                "amenity": "pharmacy"
            },
            "geometry": {
                "type": "Point",
                "coordinates": [
                    18.98990951876073,
                    52.65673148080119
                ]
            }
        },
        {
            "type": "Feature",
            "properties": {
                "ref:csioz": 1226944,
                "name": "Apteka Klonowa",
                "addr:street": "Klonowa",
                "addr:housenumber": "2a",
                "addr:city": "Wieniec",
                "addr:postcode": "87-880",
                "amenity": "pharmacy"
            },
            "geometry": {
                "type": "Point",
                "coordinates": [
                    18.930019305337726,
                    52.649680324386836
                ]
            }
        }
    ]
}