{
    "type": "FeatureCollection",
    "name": "JPT_KOD_JE_2207",
    "features": [
        {
            "type": "Feature",
            "properties": {
                "ref:csioz": 1028272,
                "addr:street": "Grunwaldzka",
                "addr:housenumber": "71",
                "addr:city": "Ryjewo",
                "addr:postcode": "82-420",
                "amenity": "pharmacy",
                "dispensing": "yes"
            },
            "geometry": {
                "type": "Point",
                "coordinates": [
                    18.959786216997983,
                    53.84290399741933
                ]
            }
        },
        {
            "type": "Feature",
            "properties": {
                "ref:csioz": 1028280,
                "addr:street": "Kwidzyńska",
                "addr:housenumber": "20",
                "addr:city": "Sadlinki",
                "addr:postcode": "82-552",
                "amenity": "pharmacy",
                "dispensing": "yes"
            },
            "geometry": {
                "type": "Point",
                "coordinates": [
                    18.88004489921147,
                    53.66801275594026
                ]
            }
        },
        {
            "type": "Feature",
            "properties": {
                "ref:csioz": 1030083,
                "name": "Apteka Mgr Farm. Piotr Perfikowski",
                "addr:street": "Parkowa",
                "addr:housenumber": "1",
                "addr:city": "Rakowiec",
                "addr:postcode": "82-500",
                "amenity": "pharmacy",
                "dispensing": "yes"
            },
            "geometry": {
                "type": "Point",
                "coordinates": [
                    19.022359286719222,
                    53.727541343331374
                ]
            }
        },
        {
            "type": "Feature",
            "properties": {
                "ref:csioz": 1030715,
                "name": "Mandragora",
                "addr:street": "Łąkowa",
                "addr:housenumber": "33",
                "addr:city": "Prabuty",
                "addr:postcode": "82-550",
                "amenity": "pharmacy",
                "dispensing": "yes"
            },
            "geometry": {
                "type": "Point",
                "coordinates": [
                    19.202544097621388,
                    53.75526131677341
                ]
            }
        },
        {
            "type": "Feature",
            "properties": {
                "ref:csioz": 1032174,
                "name": "Wracam Do Zdrowia",
                "addr:street": "Łąkowa",
                "addr:housenumber": "27",
                "addr:city": "Prabuty",
                "addr:postcode": "82-550",
                "amenity": "pharmacy",
                "dispensing": "yes"
            },
            "geometry": {
                "type": "Point",
                "coordinates": [
                    19.203217812419837,
                    53.754870332130025
                ]
            }
        },
        {
            "type": "Feature",
            "properties": {
                "ref:csioz": 1032210,
                "name": "Gemini",
                "addr:street": "Chopina",
                "addr:housenumber": "27",
                "addr:city": "Kwidzyn",
                "addr:postcode": "82-500",
                "amenity": "pharmacy",
                "dispensing": "yes"
            },
            "geometry": {
                "type": "Point",
                "coordinates": [
                    18.931655408531842,
                    53.732059917966225
                ]
            }
        },
        {
            "type": "Feature",
            "properties": {
                "ref:csioz": 1032403,
                "name": "Staromiejska",
                "addr:street": "Targowa",
                "addr:housenumber": "15",
                "addr:city": "Kwidzyn",
                "addr:postcode": "82-500",
                "amenity": "pharmacy",
                "dispensing": "yes"
            },
            "geometry": {
                "type": "Point",
                "coordinates": [
                    18.923922729036576,
                    53.733952983114804
                ]
            }
        },
        {
            "type": "Feature",
            "properties": {
                "ref:csioz": 1032416,
                "name": "Medapteka",
                "addr:street": "Józefa Piłsudskiego",
                "addr:housenumber": "22",
                "addr:city": "Kwidzyn",
                "addr:postcode": "82-500",
                "amenity": "pharmacy",
                "dispensing": "yes"
            },
            "geometry": {
                "type": "Point",
                "coordinates": [
                    18.927504513588957,
                    53.733384978392415
                ]
            }
        },
        {
            "type": "Feature",
            "properties": {
                "ref:csioz": 1033504,
                "name": "Apteka Medfarm",
                "addr:street": "Grunwaldzka",
                "addr:housenumber": "76",
                "addr:city": "Ryjewo",
                "addr:postcode": "82-420",
                "amenity": "pharmacy",
                "dispensing": "yes"
            },
            "geometry": {
                "type": "Point",
                "coordinates": [
                    18.96148992323848,
                    53.8455703129849
                ]
            }
        },
        {
            "type": "Feature",
            "properties": {
                "ref:csioz": 1034372,
                "name": "\"Dział Farmacji Szpitalnej W \"\"Przychodnia Lekarska \"\"Jasień\"\" Zakład Opiekuńczo-Leczniczy W Prabutach\"\"\"",
                "addr:street": "Kuracyjna",
                "addr:housenumber": "37",
                "addr:city": "Prabuty",
                "addr:postcode": "82-550",
                "amenity": "pharmacy",
                "dispensing": "yes"
            },
            "geometry": {
                "type": "Point",
                "coordinates": [
                    19.206266951866013,
                    53.7371383340748
                ]
            }
        },
        {
            "type": "Feature",
            "properties": {
                "ref:csioz": 1139569,
                "name": "Apteka Szpitalna W Szpitalu Specjalistycznym",
                "addr:street": "Kuracyjna",
                "addr:housenumber": "30",
                "addr:city": "Prabuty",
                "addr:postcode": "82-550",
                "amenity": "pharmacy",
                "dispensing": "yes"
            },
            "geometry": {
                "type": "Point",
                "coordinates": [
                    19.208066079709855,
                    53.738025008843856
                ]
            }
        },
        {
            "type": "Feature",
            "properties": {
                "ref:csioz": 1139493,
                "name": "\"Apteka Szpitalna W Nzoz \"\"Zdrowie\"\"\"",
                "addr:street": "Józefa Hallera",
                "addr:housenumber": "31",
                "addr:city": "Kwidzyn",
                "addr:postcode": "82-500",
                "amenity": "pharmacy",
                "dispensing": "yes"
            },
            "geometry": {
                "type": "Point",
                "coordinates": [
                    18.920478143843777,
                    53.72698738108327
                ]
            }
        },
        {
            "type": "Feature",
            "properties": {
                "ref:csioz": 1179352,
                "name": "\"Apteka \"\"Św. Franciszka\"\"\"",
                "addr:street": "Kwidzyńska",
                "addr:housenumber": "7",
                "addr:city": "Gardeja",
                "addr:postcode": "82-520",
                "amenity": "pharmacy",
                "dispensing": "yes"
            },
            "geometry": {
                "type": "Point",
                "coordinates": [
                    18.943354104384735,
                    53.60988457908095
                ]
            }
        },
        {
            "type": "Feature",
            "properties": {
                "ref:csioz": 1203822,
                "name": "Wracam Do Zdrowia",
                "addr:street": "Kopernika",
                "addr:housenumber": "25 a",
                "addr:city": "Kwidzyn",
                "addr:postcode": "82-500",
                "amenity": "pharmacy",
                "dispensing": "yes"
            },
            "geometry": {
                "type": "Point",
                "coordinates": [
                    18.929856332178648,
                    53.731473178490425
                ]
            }
        },
        {
            "type": "Feature",
            "properties": {
                "ref:csioz": 1029092,
                "name": "Jabłońskich",
                "addr:street": "Daszyńskiego",
                "addr:housenumber": "1A",
                "addr:city": "Prabuty",
                "addr:postcode": "82-550",
                "amenity": "pharmacy",
                "dispensing": "yes"
            },
            "geometry": {
                "type": "Point",
                "coordinates": [
                    19.204700707276512,
                    53.756521031212465
                ]
            }
        },
        {
            "type": "Feature",
            "properties": {
                "ref:csioz": 1031221,
                "name": "Apteka Dbam O Zdrowie",
                "addr:street": "3 Maja",
                "addr:housenumber": "26",
                "addr:city": "Kwidzyn",
                "addr:postcode": "82-500",
                "amenity": "pharmacy",
                "dispensing": "yes"
            },
            "geometry": {
                "type": "Point",
                "coordinates": [
                    18.93314979132677,
                    53.734922161300574
                ]
            }
        },
        {
            "type": "Feature",
            "properties": {
                "ref:csioz": 1032566,
                "name": "Apteka Alba",
                "addr:street": "Janusza Korczaka",
                "addr:housenumber": "10B",
                "addr:city": "Kwidzyn",
                "addr:postcode": "82-500",
                "amenity": "pharmacy",
                "dispensing": "yes"
            },
            "geometry": {
                "type": "Point",
                "coordinates": [
                    18.938022575399266,
                    53.7239264199886
                ]
            }
        },
        {
            "type": "Feature",
            "properties": {
                "ref:csioz": 1034309,
                "name": "Dział Farmacji Szpitalnej W Niepublicznym Zakładzie Opieki Zdrowotnej Szpital Centrum Psychiatrii",
                "addr:street": "Kuracyjna",
                "addr:housenumber": "30",
                "addr:city": "Prabuty",
                "addr:postcode": "82-550",
                "amenity": "pharmacy",
                "dispensing": "yes"
            },
            "geometry": {
                "type": "Point",
                "coordinates": [
                    19.208066079709855,
                    53.738025008843856
                ]
            }
        },
        {
            "type": "Feature",
            "properties": {
                "ref:csioz": 1034367,
                "name": "Dział Farmacji Szpitalnej W Hospicjum Kwidzyńskim Im.Św.Wojciecha",
                "addr:street": "Malborska",
                "addr:housenumber": "18A",
                "addr:city": "Kwidzyn",
                "addr:postcode": "82-500",
                "amenity": "pharmacy",
                "dispensing": "yes"
            },
            "geometry": {
                "type": "Point",
                "coordinates": [
                    18.92883903700113,
                    53.740632923645435
                ]
            }
        },
        {
            "type": "Feature",
            "properties": {
                "ref:csioz": 1120252,
                "name": "Hebeapteka",
                "addr:street": "Słowackiego",
                "addr:housenumber": "4",
                "addr:city": "Kwidzyn",
                "addr:postcode": "82-500",
                "amenity": "pharmacy",
                "dispensing": "yes"
            },
            "geometry": {
                "type": "Point",
                "coordinates": [
                    18.936206034742117,
                    53.729956732736575
                ]
            }
        },
        {
            "type": "Feature",
            "properties": {
                "ref:csioz": 1186363,
                "name": "Euro Apteka",
                "addr:street": "Krótka",
                "addr:housenumber": "4",
                "addr:city": "Kwidzyn",
                "addr:postcode": "82-500",
                "amenity": "pharmacy",
                "dispensing": "yes"
            },
            "geometry": {
                "type": "Point",
                "coordinates": [
                    18.939261497720672,
                    53.73930770895682
                ]
            }
        },
        {
            "type": "Feature",
            "properties": {
                "ref:csioz": 1199841,
                "name": "Farmacja24",
                "addr:street": "Braterstwa Narodów",
                "addr:housenumber": "52",
                "addr:city": "Kwidzyn",
                "addr:postcode": "82-500",
                "amenity": "pharmacy",
                "dispensing": "yes"
            },
            "geometry": {
                "type": "Point",
                "coordinates": [
                    18.92843499057903,
                    53.736441598734885
                ]
            }
        },
        {
            "type": "Feature",
            "properties": {
                "ref:csioz": 1219731,
                "name": "Apteka Społeczna Na Kopernika Grupa Nowa Farmacja",
                "addr:street": "Kopernika",
                "addr:housenumber": "12",
                "addr:city": "Kwidzyn",
                "addr:postcode": "82-500",
                "amenity": "pharmacy",
                "dispensing": "yes"
            },
            "geometry": {
                "type": "Point",
                "coordinates": [
                    18.930520934352195,
                    53.73328218150302
                ]
            }
        }
    ]
}