{
    "type": "FeatureCollection",
    "name": "JPT_KOD_JE_2607",
    "features": [
        {
            "type": "Feature",
            "properties": {
                "ref:csioz": 1000106,
                "addr:housenumber": "107",
                "addr:postcode": "27-425",
                "amenity": "pharmacy",
                "addr:place": "GARBACZ"
            },
            "geometry": {
                "type": "Point",
                "coordinates": [
                    21.254314901627772,
                    50.867343832995964
                ]
            }
        },
        {
            "type": "Feature",
            "properties": {
                "ref:csioz": 1000140,
                "addr:street": "Warszawska",
                "addr:housenumber": "46",
                "addr:city": "Kunów",
                "addr:postcode": "27-415",
                "amenity": "pharmacy"
            },
            "geometry": {
                "type": "Point",
                "coordinates": [
                    21.27981024428993,
                    50.958024237329305
                ]
            }
        },
        {
            "type": "Feature",
            "properties": {
                "ref:csioz": 1003354,
                "name": "Zdrowie",
                "addr:street": "Rynek",
                "addr:housenumber": "17",
                "addr:city": "Waśniów",
                "addr:postcode": "27-425",
                "amenity": "pharmacy"
            },
            "geometry": {
                "type": "Point",
                "coordinates": [
                    21.222918520378474,
                    50.898860436347846
                ]
            }
        },
        {
            "type": "Feature",
            "properties": {
                "ref:csioz": 1000662,
                "addr:street": "Grabowiecka",
                "addr:housenumber": "3A",
                "addr:city": "Ostrowiec Świętokrzyski",
                "addr:postcode": "27-400",
                "amenity": "pharmacy"
            },
            "geometry": {
                "type": "Point",
                "coordinates": [
                    21.367808493456984,
                    50.9536939039576
                ]
            }
        },
        {
            "type": "Feature",
            "properties": {
                "ref:csioz": 1000736,
                "addr:street": "Rynek Denkowski",
                "addr:housenumber": "10a",
                "addr:city": "Ostrowiec Świętokrzyski",
                "addr:postcode": "27-400",
                "amenity": "pharmacy"
            },
            "geometry": {
                "type": "Point",
                "coordinates": [
                    21.42084494505509,
                    50.930426356218256
                ]
            }
        },
        {
            "type": "Feature",
            "properties": {
                "ref:csioz": 1000813,
                "name": "\"Apteka Cef@Rm 36,6\"",
                "addr:street": "Henryka Sienkiewicza",
                "addr:housenumber": "59c",
                "addr:city": "Ostrowiec Świętokrzyski",
                "addr:postcode": "27-400",
                "amenity": "pharmacy"
            },
            "geometry": {
                "type": "Point",
                "coordinates": [
                    21.377146329677206,
                    50.94436082580626
                ]
            }
        },
        {
            "type": "Feature",
            "properties": {
                "ref:csioz": 1000859,
                "name": "\" Apteka Cef@Rm 36,6\"",
                "addr:street": "Słoneczne",
                "addr:housenumber": "14",
                "addr:city": "Ostrowiec Świętokrzyski",
                "addr:postcode": "27-400",
                "amenity": "pharmacy"
            },
            "geometry": {
                "type": "Point",
                "coordinates": [
                    21.389480348961396,
                    50.947777613717854
                ]
            }
        },
        {
            "type": "Feature",
            "properties": {
                "ref:csioz": 1001639,
                "name": "Apteka Dbam O Zdrowie",
                "addr:street": "11 Listopada",
                "addr:housenumber": "6",
                "addr:city": "Ostrowiec Świętokrzyski",
                "addr:postcode": "27-400",
                "amenity": "pharmacy"
            },
            "geometry": {
                "type": "Point",
                "coordinates": [
                    21.40759024023385,
                    50.946427646036724
                ]
            }
        },
        {
            "type": "Feature",
            "properties": {
                "ref:csioz": 1001735,
                "addr:street": "Aleja Jana Pawła II",
                "addr:housenumber": "7B",
                "addr:city": "Ostrowiec Świętokrzyski",
                "addr:postcode": "27-400",
                "amenity": "pharmacy"
            },
            "geometry": {
                "type": "Point",
                "coordinates": [
                    21.388490771910416,
                    50.948667618540256
                ]
            }
        },
        {
            "type": "Feature",
            "properties": {
                "ref:csioz": 1001815,
                "name": "Apteka Gemini",
                "addr:street": "Rosochy",
                "addr:housenumber": "47",
                "addr:city": "Ostrowiec Świętokrzyski",
                "addr:postcode": "27-400",
                "amenity": "pharmacy"
            },
            "geometry": {
                "type": "Point",
                "coordinates": [
                    21.4072916422258,
                    50.94405273479663
                ]
            }
        },
        {
            "type": "Feature",
            "properties": {
                "ref:csioz": 1003017,
                "name": "Apteka Dbam O Zdrowie",
                "addr:street": "Ogrody",
                "addr:housenumber": "37",
                "addr:city": "Ostrowiec Świętokrzyski",
                "addr:postcode": "27-400",
                "amenity": "pharmacy"
            },
            "geometry": {
                "type": "Point",
                "coordinates": [
                    21.395324592702057,
                    50.94466930734368
                ]
            }
        },
        {
            "type": "Feature",
            "properties": {
                "ref:csioz": 1004041,
                "name": "\"Apteka \"\"Codzienna\"\"\"",
                "addr:street": "Ogrody",
                "addr:housenumber": "5A",
                "addr:city": "Ostrowiec Świętokrzyski",
                "addr:postcode": "27-400",
                "amenity": "pharmacy"
            },
            "geometry": {
                "type": "Point",
                "coordinates": [
                    21.40243162854237,
                    50.946687732096535
                ]
            }
        },
        {
            "type": "Feature",
            "properties": {
                "ref:csioz": 1111791,
                "name": "Punkt Apteczny Bodzechów",
                "addr:street": "Szkolna",
                "addr:housenumber": "7",
                "addr:city": "Bodzechów",
                "addr:postcode": "27-400",
                "amenity": "pharmacy"
            },
            "geometry": {
                "type": "Point",
                "coordinates": [
                    21.438994705417194,
                    50.91019755083756
                ]
            }
        },
        {
            "type": "Feature",
            "properties": {
                "ref:csioz": 1112225,
                "name": "Apteka Nova",
                "addr:street": "Stawki",
                "addr:housenumber": "44",
                "addr:city": "Ostrowiec Świętokrzyski",
                "addr:postcode": "27-400",
                "amenity": "pharmacy"
            },
            "geometry": {
                "type": "Point",
                "coordinates": [
                    21.40427260580565,
                    50.94722329392633
                ]
            }
        },
        {
            "type": "Feature",
            "properties": {
                "ref:csioz": 1117449,
                "name": "Apteka Nowa Farmacja Na Siennieńskiej 4",
                "addr:street": "Siennieńska",
                "addr:housenumber": "4",
                "addr:city": "Ostrowiec Świętokrzyski",
                "addr:postcode": "27-400",
                "amenity": "pharmacy"
            },
            "geometry": {
                "type": "Point",
                "coordinates": [
                    21.388688951619127,
                    50.939673061292794
                ]
            }
        },
        {
            "type": "Feature",
            "properties": {
                "ref:csioz": 1173768,
                "addr:street": "Mikołaja Kopernika",
                "addr:housenumber": "14",
                "addr:city": "Ostrowiec Świętokrzyski",
                "addr:postcode": "27-400",
                "amenity": "pharmacy"
            },
            "geometry": {
                "type": "Point",
                "coordinates": [
                    21.37950323765261,
                    50.94784111486816
                ]
            }
        },
        {
            "type": "Feature",
            "properties": {
                "ref:csioz": 1180713,
                "name": "Dr. Max",
                "addr:street": "Słoneczne",
                "addr:housenumber": "14",
                "addr:city": "Ostrowiec Świętokrzyski",
                "addr:postcode": "27-400",
                "amenity": "pharmacy"
            },
            "geometry": {
                "type": "Point",
                "coordinates": [
                    21.389480348961396,
                    50.947777613717854
                ]
            }
        },
        {
            "type": "Feature",
            "properties": {
                "ref:csioz": 1207349,
                "name": "Apteka Jurajska",
                "addr:housenumber": "32 A",
                "addr:postcode": "27-423",
                "amenity": "pharmacy",
                "addr:place": "Bałtów"
            },
            "geometry": {
                "type": "Point",
                "coordinates": [
                    21.538712929954347,
                    51.01861341034348
                ]
            }
        },
        {
            "type": "Feature",
            "properties": {
                "ref:csioz": 1001355,
                "addr:street": "Ostrowiecka",
                "addr:housenumber": "38",
                "addr:city": "Ćmielów",
                "addr:postcode": "27-440",
                "amenity": "pharmacy"
            },
            "geometry": {
                "type": "Point",
                "coordinates": [
                    21.502814341248403,
                    50.89234888126303
                ]
            }
        },
        {
            "type": "Feature",
            "properties": {
                "ref:csioz": 1002587,
                "name": "Apteka Dbam O Zdrowie",
                "addr:street": "Adama Mickiewicza",
                "addr:housenumber": "30",
                "addr:city": "Ostrowiec Świętokrzyski",
                "addr:postcode": "27-400",
                "amenity": "pharmacy"
            },
            "geometry": {
                "type": "Point",
                "coordinates": [
                    21.376046618818677,
                    50.94014040893372
                ]
            }
        },
        {
            "type": "Feature",
            "properties": {
                "ref:csioz": 1003584,
                "name": "Nowa Farmacja",
                "addr:street": "Iłżecka",
                "addr:housenumber": "22",
                "addr:city": "Ostrowiec Świętokrzyski",
                "addr:postcode": "27-400",
                "amenity": "pharmacy"
            },
            "geometry": {
                "type": "Point",
                "coordinates": [
                    21.387642055512167,
                    50.94224826288322
                ]
            }
        },
        {
            "type": "Feature",
            "properties": {
                "ref:csioz": 1113244,
                "name": "Apteka Nova",
                "addr:street": "Krucza",
                "addr:housenumber": "2",
                "addr:city": "Ostrowiec Świętokrzyski",
                "addr:postcode": "27-400",
                "amenity": "pharmacy"
            },
            "geometry": {
                "type": "Point",
                "coordinates": [
                    21.3970096045583,
                    50.94270109262757
                ]
            }
        },
        {
            "type": "Feature",
            "properties": {
                "ref:csioz": 1116315,
                "name": "Apteka Cosmofarm",
                "addr:street": "Sandomierska",
                "addr:housenumber": "6",
                "addr:city": "Ostrowiec Świętokrzyski",
                "addr:postcode": "27-400",
                "amenity": "pharmacy"
            },
            "geometry": {
                "type": "Point",
                "coordinates": [
                    21.386876856323106,
                    50.92826245221086
                ]
            }
        },
        {
            "type": "Feature",
            "properties": {
                "ref:csioz": 1119434,
                "name": "\"Arnika, Nowa Farmacja\"",
                "addr:street": "Plac Księdza Marcina Popiela",
                "addr:housenumber": "3",
                "addr:city": "Szewna",
                "addr:postcode": "27-400",
                "amenity": "pharmacy"
            },
            "geometry": {
                "type": "Point",
                "coordinates": [
                    21.36466593417128,
                    50.915842921628816
                ]
            }
        },
        {
            "type": "Feature",
            "properties": {
                "ref:csioz": 1134782,
                "name": "\"Punkt Apteczny 'Miłków'\"",
                "addr:housenumber": "74",
                "addr:postcode": "58-535",
                "amenity": "pharmacy",
                "addr:place": "Miłków"
            },
            "geometry": {
                "type": "Point",
                "coordinates": [
                    21.378812906831673,
                    50.897873600230334
                ]
            }
        },
        {
            "type": "Feature",
            "properties": {
                "ref:csioz": 1137993,
                "name": "Apteka Szpitalna",
                "addr:street": "K. Szymanowskiego",
                "addr:housenumber": "11",
                "addr:city": "Ostrowiec Świętokrzyski",
                "addr:postcode": "27-400",
                "amenity": "pharmacy"
            },
            "geometry": {
                "type": "Point",
                "coordinates": [
                    21.361354000006312,
                    50.9525100000139
                ]
            }
        },
        {
            "type": "Feature",
            "properties": {
                "ref:csioz": 1191639,
                "addr:street": "Karola Szymanowskiego",
                "addr:housenumber": "13",
                "addr:city": "Ostrowiec Świętokrzyski",
                "addr:postcode": "27-400",
                "amenity": "pharmacy"
            },
            "geometry": {
                "type": "Point",
                "coordinates": [
                    21.360537323383095,
                    50.95268105015489
                ]
            }
        },
        {
            "type": "Feature",
            "properties": {
                "ref:csioz": 1191708,
                "name": "Dział Farmacji Szpitalnej",
                "addr:street": "Ferdynanda Focha",
                "addr:housenumber": "5",
                "addr:city": "Ostrowiec Świętokrzyski",
                "addr:postcode": "27-400",
                "amenity": "pharmacy"
            },
            "geometry": {
                "type": "Point",
                "coordinates": [
                    21.388901809440583,
                    50.93232211990266
                ]
            }
        },
        {
            "type": "Feature",
            "properties": {
                "ref:csioz": 1195353,
                "name": "Apteka Codzienna",
                "addr:street": "Ludwika Waryńskiego",
                "addr:housenumber": "32",
                "addr:city": "Ostrowiec Świętokrzyski",
                "addr:postcode": "27-400",
                "amenity": "pharmacy"
            },
            "geometry": {
                "type": "Point",
                "coordinates": [
                    21.38066955478125,
                    50.948760818679915
                ]
            }
        },
        {
            "type": "Feature",
            "properties": {
                "ref:csioz": 1198192,
                "name": "Apteka Plus",
                "addr:street": "Sandomierska",
                "addr:housenumber": "2",
                "addr:city": "Ćmielów",
                "addr:postcode": "27-440",
                "amenity": "pharmacy"
            },
            "geometry": {
                "type": "Point",
                "coordinates": [
                    21.51031104164189,
                    50.8909545238639
                ]
            }
        },
        {
            "type": "Feature",
            "properties": {
                "ref:csioz": 1209260,
                "name": "\"'Nowoczesna'\"",
                "addr:street": "Adama Mickiewicza",
                "addr:housenumber": "24",
                "addr:city": "Ostrowiec Świętokrzyski",
                "addr:postcode": "27-400",
                "amenity": "pharmacy"
            },
            "geometry": {
                "type": "Point",
                "coordinates": [
                    21.37947803796608,
                    50.94179196778142
                ]
            }
        },
        {
            "type": "Feature",
            "properties": {
                "ref:csioz": 1221116,
                "name": "Apteka Słoneczna",
                "addr:street": "Ogrody",
                "addr:housenumber": "10a",
                "addr:flats": "4U",
                "addr:city": "Ostrowiec Świętokrzyski",
                "addr:postcode": "27-400",
                "amenity": "pharmacy"
            },
            "geometry": {
                "type": "Point",
                "coordinates": [
                    21.40323066168975,
                    50.946165213740024
                ]
            }
        },
        {
            "type": "Feature",
            "properties": {
                "ref:csioz": 1002914,
                "name": "Apteki Polskie",
                "addr:street": "Piaski",
                "addr:housenumber": "28",
                "addr:city": "Ostrowiec Świętokrzyski",
                "addr:postcode": "27-400",
                "amenity": "pharmacy"
            },
            "geometry": {
                "type": "Point",
                "coordinates": [
                    21.368075349289683,
                    50.95238074592034
                ]
            }
        },
        {
            "type": "Feature",
            "properties": {
                "ref:csioz": 1002728,
                "name": "\"Aptekapod Hutą\"\"\"",
                "addr:street": "Świętokrzyska",
                "addr:housenumber": "1",
                "addr:city": "Ostrowiec Świętokrzyski",
                "addr:postcode": "27-400",
                "amenity": "pharmacy"
            },
            "geometry": {
                "type": "Point",
                "coordinates": [
                    21.381252392592447,
                    50.925993017969844
                ]
            }
        }
    ]
}