{
    "type": "FeatureCollection",
    "name": "JPT_KOD_JE_2417",
    "features": [
        {
            "type": "Feature",
            "properties": {
                "ref:csioz": 1061818,
                "name": "Apteka - Michalscy Spółka Jawna",
                "addr:street": "Krakowska",
                "addr:housenumber": "69",
                "addr:city": "Gilowice",
                "addr:postcode": "34-322",
                "amenity": "pharmacy",
                "dispensing": "yes"
            },
            "geometry": {
                "type": "Point",
                "coordinates": [
                    19.29697133698986,
                    49.713764990801145
                ]
            }
        },
        {
            "type": "Feature",
            "properties": {
                "ref:csioz": 1063368,
                "name": "Apteka Pod Grapą",
                "addr:street": "Żywiecka",
                "addr:housenumber": "11A",
                "addr:city": "Jeleśnia",
                "addr:postcode": "34-340",
                "amenity": "pharmacy",
                "dispensing": "yes"
            },
            "geometry": {
                "type": "Point",
                "coordinates": [
                    19.31378005845727,
                    49.657106433023074
                ]
            }
        },
        {
            "type": "Feature",
            "properties": {
                "ref:csioz": 1063345,
                "name": "\"Apteka Morkisz-Śmigielska, Morkisz Spółka Jawna\"",
                "addr:street": "Jana Kazimierza",
                "addr:housenumber": "248",
                "addr:city": "Jeleśnia",
                "addr:postcode": "34-340",
                "amenity": "pharmacy",
                "dispensing": "yes"
            },
            "geometry": {
                "type": "Point",
                "coordinates": [
                    19.333187741124803,
                    49.631537658220395
                ]
            }
        },
        {
            "type": "Feature",
            "properties": {
                "ref:csioz": 1064999,
                "name": "Brak",
                "addr:housenumber": "142",
                "addr:postcode": "34-332",
                "amenity": "pharmacy",
                "addr:place": "Koszarawa",
                "dispensing": "yes"
            },
            "geometry": {
                "type": "Point",
                "coordinates": [
                    19.40057418849467,
                    49.64335085927233
                ]
            }
        },
        {
            "type": "Feature",
            "properties": {
                "ref:csioz": 1118214,
                "name": "Apteka W Ślemieniu",
                "addr:street": "Żywiecka",
                "addr:housenumber": "4",
                "addr:city": "Ślemień",
                "addr:postcode": "34-323",
                "amenity": "pharmacy",
                "dispensing": "yes"
            },
            "geometry": {
                "type": "Point",
                "coordinates": [
                    19.377837156816163,
                    49.72217928284427
                ]
            }
        },
        {
            "type": "Feature",
            "properties": {
                "ref:csioz": 1122326,
                "name": "Apteka Gilowicka",
                "addr:street": "Krakowska",
                "addr:housenumber": "38",
                "addr:city": "Gilowice",
                "addr:postcode": "34-322",
                "amenity": "pharmacy",
                "dispensing": "yes"
            },
            "geometry": {
                "type": "Point",
                "coordinates": [
                    19.30865102812217,
                    49.71210564365765
                ]
            }
        },
        {
            "type": "Feature",
            "properties": {
                "ref:csioz": 1219808,
                "name": "Apteka Przy Skarbówce Marta Piskorz",
                "addr:street": "Plebańska",
                "addr:housenumber": "4",
                "addr:city": "Jeleśnia",
                "addr:postcode": "34-340",
                "amenity": "pharmacy",
                "dispensing": "yes"
            },
            "geometry": {
                "type": "Point",
                "coordinates": [
                    19.330405771951323,
                    49.62898425585394
                ]
            }
        },
        {
            "type": "Feature",
            "properties": {
                "ref:csioz": 1222060,
                "name": "Apteka Prima",
                "addr:street": "Jana Kazimierza",
                "addr:housenumber": "6",
                "addr:city": "Jeleśnia",
                "addr:postcode": "34-340",
                "amenity": "pharmacy",
                "dispensing": "yes"
            },
            "geometry": {
                "type": "Point",
                "coordinates": [
                    19.318264398343604,
                    49.65119462941143
                ]
            }
        },
        {
            "type": "Feature",
            "properties": {
                "ref:csioz": 1065691,
                "name": "Aloes",
                "addr:street": "Plac św. Ambrożego",
                "addr:housenumber": "9",
                "addr:city": "Międzybrodzie Bialskie",
                "addr:postcode": "34-312",
                "amenity": "pharmacy",
                "dispensing": "yes"
            },
            "geometry": {
                "type": "Point",
                "coordinates": [
                    19.193884720876607,
                    49.786320257660144
                ]
            }
        },
        {
            "type": "Feature",
            "properties": {
                "ref:csioz": 1057118,
                "name": "Beskidzkie Centrum Zdrowia Psychicznego",
                "addr:street": "Graniczna",
                "addr:housenumber": "7",
                "addr:city": "Międzybrodzie Bialskie",
                "addr:postcode": "34-312",
                "amenity": "pharmacy",
                "dispensing": "yes"
            },
            "geometry": {
                "type": "Point",
                "coordinates": [
                    19.214883099238396,
                    49.77671500413415
                ]
            }
        },
        {
            "type": "Feature",
            "properties": {
                "ref:csioz": 1065579,
                "name": "Nostra",
                "addr:street": "Żywiecka",
                "addr:housenumber": "58B",
                "addr:city": "Łękawica",
                "addr:postcode": "34-321",
                "amenity": "pharmacy",
                "dispensing": "yes"
            },
            "geometry": {
                "type": "Point",
                "coordinates": [
                    19.267421654905938,
                    49.72952891401791
                ]
            }
        },
        {
            "type": "Feature",
            "properties": {
                "ref:csioz": 1065587,
                "name": "Parkowa",
                "addr:street": "Królowej Jadwigi",
                "addr:housenumber": "5",
                "addr:city": "Łodygowice",
                "addr:postcode": "34-325",
                "amenity": "pharmacy",
                "dispensing": "yes"
            },
            "geometry": {
                "type": "Point",
                "coordinates": [
                    19.149659066082954,
                    49.721590285826494
                ]
            }
        },
        {
            "type": "Feature",
            "properties": {
                "ref:csioz": 1065598,
                "name": "Pod Grapą",
                "addr:street": "Żywiecka",
                "addr:housenumber": "76",
                "addr:city": "Łodygowice",
                "addr:postcode": "34-325",
                "amenity": "pharmacy",
                "dispensing": "yes"
            },
            "geometry": {
                "type": "Point",
                "coordinates": [
                    19.13590214999216,
                    49.72560502355742
                ]
            }
        },
        {
            "type": "Feature",
            "properties": {
                "ref:csioz": 1185734,
                "name": "\"Niepubliczny Zakład Opiekuńczo-Leczniczy O Profilu Psychogeriatrycznym \"\"Inter-Med\"\" Filia W Czernichowie\"",
                "addr:street": "Strażacka",
                "addr:housenumber": "4",
                "addr:city": "Czernichów",
                "addr:postcode": "34-311",
                "amenity": "pharmacy",
                "dispensing": "yes"
            },
            "geometry": {
                "type": "Point",
                "coordinates": [
                    19.2085626277852,
                    49.753478652541226
                ]
            }
        },
        {
            "type": "Feature",
            "properties": {
                "ref:csioz": 1058643,
                "name": "Brak",
                "addr:housenumber": "227",
                "addr:postcode": "34-382",
                "amenity": "pharmacy",
                "addr:place": "Brzuśnik",
                "dispensing": "yes"
            },
            "geometry": {
                "type": "Point",
                "coordinates": [
                    19.168044556808443,
                    49.626122816367364
                ]
            }
        },
        {
            "type": "Feature",
            "properties": {
                "ref:csioz": 1065325,
                "name": "Św. Bartłomieja",
                "addr:street": "Brzeziny",
                "addr:housenumber": "147",
                "addr:city": "Lipowa",
                "addr:postcode": "34-324",
                "amenity": "pharmacy",
                "dispensing": "yes"
            },
            "geometry": {
                "type": "Point",
                "coordinates": [
                    19.10287596387187,
                    49.66694644583796
                ]
            }
        },
        {
            "type": "Feature",
            "properties": {
                "ref:csioz": 1067433,
                "name": "Św. Marcina",
                "addr:street": "św. Marcina",
                "addr:housenumber": "83",
                "addr:city": "Radziechowy",
                "addr:postcode": "34-381",
                "amenity": "pharmacy",
                "dispensing": "yes"
            },
            "geometry": {
                "type": "Point",
                "coordinates": [
                    19.11344812929347,
                    49.64575676937016
                ]
            }
        },
        {
            "type": "Feature",
            "properties": {
                "ref:csioz": 1067501,
                "name": "Przy Górskiej",
                "addr:street": "Górska",
                "addr:housenumber": "6",
                "addr:city": "Rajcza",
                "addr:postcode": "34-370",
                "amenity": "pharmacy",
                "dispensing": "yes"
            },
            "geometry": {
                "type": "Point",
                "coordinates": [
                    19.100641379846117,
                    49.503174583887066
                ]
            }
        },
        {
            "type": "Feature",
            "properties": {
                "ref:csioz": 1067517,
                "name": "Pod Jesionem",
                "addr:street": "Rynek",
                "addr:housenumber": "3",
                "addr:city": "Rajcza",
                "addr:postcode": "34-370",
                "amenity": "pharmacy",
                "dispensing": "yes"
            },
            "geometry": {
                "type": "Point",
                "coordinates": [
                    19.103146518320408,
                    49.5042577299992
                ]
            }
        },
        {
            "type": "Feature",
            "properties": {
                "ref:csioz": 1070815,
                "name": "Pod Kopułą",
                "addr:street": "Kościuszki",
                "addr:housenumber": "12",
                "addr:city": "Węgierska Górka",
                "addr:postcode": "34-350",
                "amenity": "pharmacy",
                "dispensing": "yes"
            },
            "geometry": {
                "type": "Point",
                "coordinates": [
                    19.12241023502586,
                    49.60766397707716
                ]
            }
        },
        {
            "type": "Feature",
            "properties": {
                "ref:csioz": 1070719,
                "name": "Brak",
                "addr:street": "Bystra",
                "addr:housenumber": "8",
                "addr:city": "Ujsoły",
                "addr:postcode": "34-371",
                "amenity": "pharmacy",
                "dispensing": "yes"
            },
            "geometry": {
                "type": "Point",
                "coordinates": [
                    19.14364182180413,
                    49.47986871524717
                ]
            }
        },
        {
            "type": "Feature",
            "properties": {
                "ref:csioz": 1070828,
                "name": "Apteka Przy Skarbówce",
                "addr:street": "Osiedle XX-lecia II RP",
                "addr:housenumber": "1",
                "addr:city": "Węgierska Górka",
                "addr:postcode": "34-350",
                "amenity": "pharmacy",
                "dispensing": "yes"
            },
            "geometry": {
                "type": "Point",
                "coordinates": [
                    19.11352523673094,
                    49.60333771864541
                ]
            }
        },
        {
            "type": "Feature",
            "properties": {
                "ref:csioz": 1070831,
                "name": "Vertigo",
                "addr:street": "Wyzwolenia",
                "addr:housenumber": "2",
                "addr:city": "Węgierska Górka",
                "addr:postcode": "34-350",
                "amenity": "pharmacy",
                "dispensing": "yes"
            },
            "geometry": {
                "type": "Point",
                "coordinates": [
                    19.126702183568543,
                    49.60949513708033
                ]
            }
        },
        {
            "type": "Feature",
            "properties": {
                "ref:csioz": 1070844,
                "name": "Zdrowie",
                "addr:street": "Żywiecka",
                "addr:housenumber": "15",
                "addr:city": "Wieprz",
                "addr:postcode": "34-381",
                "amenity": "pharmacy",
                "dispensing": "yes"
            },
            "geometry": {
                "type": "Point",
                "coordinates": [
                    19.165081567903048,
                    49.64814475132583
                ]
            }
        },
        {
            "type": "Feature",
            "properties": {
                "ref:csioz": 1072300,
                "name": "Żywiecka",
                "addr:street": "1 Maja",
                "addr:housenumber": "1",
                "addr:city": "Żywiec",
                "addr:postcode": "34-300",
                "amenity": "pharmacy",
                "dispensing": "yes"
            },
            "geometry": {
                "type": "Point",
                "coordinates": [
                    19.18871766424911,
                    49.680362959941
                ]
            }
        },
        {
            "type": "Feature",
            "properties": {
                "ref:csioz": 1072313,
                "name": "Im.Galena",
                "addr:street": "Aleja Piłsudskiego",
                "addr:housenumber": "78",
                "addr:city": "Żywiec",
                "addr:postcode": "34-300",
                "amenity": "pharmacy",
                "dispensing": "yes"
            },
            "geometry": {
                "type": "Point",
                "coordinates": [
                    19.20850103984438,
                    49.6822402582492
                ]
            }
        },
        {
            "type": "Feature",
            "properties": {
                "ref:csioz": 1072345,
                "name": "Żywiecka",
                "addr:street": "Dworcowa",
                "addr:housenumber": "22",
                "addr:city": "Żywiec",
                "addr:postcode": "34-300",
                "amenity": "pharmacy",
                "dispensing": "yes"
            },
            "geometry": {
                "type": "Point",
                "coordinates": [
                    19.18954277840216,
                    49.682903657784074
                ]
            }
        },
        {
            "type": "Feature",
            "properties": {
                "ref:csioz": 1072368,
                "name": "Jagiellońska",
                "addr:street": "Jagiellońska",
                "addr:housenumber": "21",
                "addr:city": "Żywiec",
                "addr:postcode": "34-300",
                "amenity": "pharmacy",
                "dispensing": "yes"
            },
            "geometry": {
                "type": "Point",
                "coordinates": [
                    19.202512398849144,
                    49.690679315739644
                ]
            }
        },
        {
            "type": "Feature",
            "properties": {
                "ref:csioz": 1072392,
                "name": "Św. Franciszka",
                "addr:street": "Kościuszki",
                "addr:housenumber": "42",
                "addr:city": "Żywiec",
                "addr:postcode": "34-300",
                "amenity": "pharmacy",
                "dispensing": "yes"
            },
            "geometry": {
                "type": "Point",
                "coordinates": [
                    19.197439893680283,
                    49.688116436032146
                ]
            }
        },
        {
            "type": "Feature",
            "properties": {
                "ref:csioz": 1072428,
                "name": "Apteka Słoneczna",
                "addr:street": "Osiedle 700-lecia",
                "addr:housenumber": "9",
                "addr:city": "Żywiec",
                "addr:postcode": "34-300",
                "amenity": "pharmacy",
                "dispensing": "yes"
            },
            "geometry": {
                "type": "Point",
                "coordinates": [
                    19.20926544020081,
                    49.68425986605008
                ]
            }
        },
        {
            "type": "Feature",
            "properties": {
                "ref:csioz": 1072444,
                "name": "Brak",
                "addr:street": "Osiedle Młodych",
                "addr:housenumber": "1",
                "addr:city": "Żywiec",
                "addr:postcode": "34-300",
                "amenity": "pharmacy",
                "dispensing": "yes"
            },
            "geometry": {
                "type": "Point",
                "coordinates": [
                    19.208657740373173,
                    49.68749999547262
                ]
            }
        },
        {
            "type": "Feature",
            "properties": {
                "ref:csioz": 1072466,
                "name": "Apteka Przy Skarbówce Centrum Tanich Leków",
                "addr:street": "POWSTAŃCÓW ŚLĄSKICH",
                "addr:housenumber": "2A",
                "addr:city": "ŻYWIEC",
                "addr:postcode": "34-300",
                "amenity": "pharmacy",
                "dispensing": "yes"
            },
            "geometry": {
                "type": "Point",
                "coordinates": [
                    19.205703188292027,
                    49.68617374833784
                ]
            }
        },
        {
            "type": "Feature",
            "properties": {
                "ref:csioz": 1072477,
                "name": "Apteka Dbam O Zdrowie",
                "addr:street": "Rynek",
                "addr:housenumber": "10",
                "addr:city": "Żywiec",
                "addr:postcode": "34-300",
                "amenity": "pharmacy",
                "dispensing": "yes"
            },
            "geometry": {
                "type": "Point",
                "coordinates": [
                    19.202959040905963,
                    49.68945434606345
                ]
            }
        },
        {
            "type": "Feature",
            "properties": {
                "ref:csioz": 1111311,
                "name": "Żywiecka",
                "addr:street": "ks. Prałata Stanisława Słonki",
                "addr:housenumber": "24",
                "addr:city": "Żywiec",
                "addr:postcode": "34-300",
                "amenity": "pharmacy",
                "dispensing": "yes"
            },
            "geometry": {
                "type": "Point",
                "coordinates": [
                    19.192899828474665,
                    49.67830481695576
                ]
            }
        },
        {
            "type": "Feature",
            "properties": {
                "ref:csioz": 1120344,
                "name": "Zakład Pielęgnacyjno-Opiekuńczy Medicus",
                "addr:housenumber": "251A",
                "addr:postcode": "34-371",
                "amenity": "pharmacy",
                "addr:place": "Złatna",
                "dispensing": "yes"
            },
            "geometry": {
                "type": "Point",
                "coordinates": [
                    19.200778974891822,
                    49.50401332665793
                ]
            }
        },
        {
            "type": "Feature",
            "properties": {
                "ref:csioz": 1173369,
                "name": "Apteka Dbam O Zdrowie",
                "addr:street": "Zamkowa",
                "addr:housenumber": "14",
                "addr:city": "Żywiec",
                "addr:postcode": "34-300",
                "amenity": "pharmacy",
                "dispensing": "yes"
            },
            "geometry": {
                "type": "Point",
                "coordinates": [
                    19.202824801837227,
                    49.68785635496945
                ]
            }
        },
        {
            "type": "Feature",
            "properties": {
                "ref:csioz": 1181752,
                "name": "Apteka Przy Skarbówce Marta Piskorz",
                "addr:street": "Grunwaldzka",
                "addr:housenumber": "12",
                "addr:city": "Milówka",
                "addr:postcode": "34-360",
                "amenity": "pharmacy",
                "dispensing": "yes"
            },
            "geometry": {
                "type": "Point",
                "coordinates": [
                    19.08528931483812,
                    49.55963763696233
                ]
            }
        },
        {
            "type": "Feature",
            "properties": {
                "ref:csioz": 1065835,
                "name": "Św. Antoniego",
                "addr:street": "Dworcowa",
                "addr:housenumber": "31",
                "addr:city": "Milówka",
                "addr:postcode": "34-360",
                "amenity": "pharmacy",
                "dispensing": "yes"
            },
            "geometry": {
                "type": "Point",
                "coordinates": [
                    19.093489531919094,
                    49.5563069575575
                ]
            }
        },
        {
            "type": "Feature",
            "properties": {
                "ref:csioz": 1065843,
                "name": "Za Kościołem",
                "addr:street": "Nowa",
                "addr:housenumber": "14",
                "addr:city": "Milówka",
                "addr:postcode": "34-360",
                "amenity": "pharmacy",
                "dispensing": "yes"
            },
            "geometry": {
                "type": "Point",
                "coordinates": [
                    19.09164607095025,
                    49.557296710807826
                ]
            }
        },
        {
            "type": "Feature",
            "properties": {
                "ref:csioz": 1066499,
                "name": "Alfa",
                "addr:street": "Żywiecka",
                "addr:housenumber": "28",
                "addr:city": "Pewel Mała",
                "addr:postcode": "34-331",
                "amenity": "pharmacy",
                "dispensing": "yes"
            },
            "geometry": {
                "type": "Point",
                "coordinates": [
                    19.266245078509456,
                    49.66344382956351
                ]
            }
        },
        {
            "type": "Feature",
            "properties": {
                "ref:csioz": 1074462,
                "name": "Zespół Zakładów Opieki Zdrowotnej",
                "addr:street": "Sienkiewicza",
                "addr:housenumber": "52",
                "addr:city": "Żywiec",
                "addr:postcode": "34-300",
                "amenity": "pharmacy",
                "dispensing": "yes"
            },
            "geometry": {
                "type": "Point",
                "coordinates": [
                    19.203403443700935,
                    49.692963084181265
                ]
            }
        },
        {
            "type": "Feature",
            "properties": {
                "ref:csioz": 1111734,
                "name": "4 Pory Roku",
                "addr:street": "Aleja Jana Pawła II",
                "addr:housenumber": "7",
                "addr:city": "Żywiec",
                "addr:postcode": "34-300",
                "amenity": "pharmacy",
                "dispensing": "yes"
            },
            "geometry": {
                "type": "Point",
                "coordinates": [
                    19.190243413042403,
                    49.6907971513095
                ]
            }
        },
        {
            "type": "Feature",
            "properties": {
                "ref:csioz": 1113176,
                "name": "Medicus Szpital",
                "addr:street": "Dworcowa",
                "addr:housenumber": "22",
                "addr:city": "Żywiec",
                "addr:postcode": "34-300",
                "amenity": "pharmacy",
                "dispensing": "yes"
            },
            "geometry": {
                "type": "Point",
                "coordinates": [
                    19.18954277840216,
                    49.68287365778407
                ]
            }
        },
        {
            "type": "Feature",
            "properties": {
                "ref:csioz": 1117620,
                "name": "Samodzielny Publiczny Zakład Opiekuńczo-Leczniczy W Rajczy",
                "addr:street": "Ujsolska",
                "addr:housenumber": "35",
                "addr:city": "Rajcza",
                "addr:postcode": "34-370",
                "amenity": "pharmacy",
                "dispensing": "yes"
            },
            "geometry": {
                "type": "Point",
                "coordinates": [
                    19.101305035866666,
                    49.50049792561223
                ]
            }
        },
        {
            "type": "Feature",
            "properties": {
                "ref:csioz": 1120497,
                "name": "Apteka Pietrzykowice",
                "addr:street": "Jana Pawła II",
                "addr:housenumber": "60",
                "addr:city": "Pietrzykowice",
                "addr:postcode": "34-326",
                "amenity": "pharmacy",
                "dispensing": "yes"
            },
            "geometry": {
                "type": "Point",
                "coordinates": [
                    19.167322813515934,
                    49.69831484160148
                ]
            }
        },
        {
            "type": "Feature",
            "properties": {
                "ref:csioz": 1123812,
                "name": "Apteka Dbam O Zdrowie",
                "addr:street": "Żeromskiego",
                "addr:housenumber": "1",
                "addr:city": "Żywiec",
                "addr:postcode": "34-300",
                "amenity": "pharmacy",
                "dispensing": "yes"
            },
            "geometry": {
                "type": "Point",
                "coordinates": [
                    19.202221697481487,
                    49.69183172829676
                ]
            }
        },
        {
            "type": "Feature",
            "properties": {
                "ref:csioz": 1170125,
                "name": "Euro Apteka",
                "addr:street": "Legionów",
                "addr:housenumber": "45",
                "addr:city": "Żywiec",
                "addr:postcode": "34-300",
                "amenity": "pharmacy",
                "dispensing": "yes"
            },
            "geometry": {
                "type": "Point",
                "coordinates": [
                    19.192443700598076,
                    49.68880005940452
                ]
            }
        },
        {
            "type": "Feature",
            "properties": {
                "ref:csioz": 1174788,
                "name": "Galenus",
                "addr:street": "Wyspiańskiego",
                "addr:housenumber": "8",
                "addr:city": "Węgierska Górka",
                "addr:postcode": "34-350",
                "amenity": "pharmacy",
                "dispensing": "yes"
            },
            "geometry": {
                "type": "Point",
                "coordinates": [
                    19.11848500000002,
                    49.60767000001198
                ]
            }
        },
        {
            "type": "Feature",
            "properties": {
                "ref:csioz": 1176217,
                "name": "Ziko Apteka",
                "addr:street": "Zielona",
                "addr:housenumber": "3",
                "addr:city": "Żywiec",
                "addr:postcode": "34-300",
                "amenity": "pharmacy",
                "dispensing": "yes"
            },
            "geometry": {
                "type": "Point",
                "coordinates": [
                    19.200654991323496,
                    49.69074648152669
                ]
            }
        },
        {
            "type": "Feature",
            "properties": {
                "ref:csioz": 1179011,
                "name": "Apteka Słoneczna",
                "addr:street": "Parkowe",
                "addr:housenumber": "9",
                "addr:city": "Żywiec",
                "addr:postcode": "34-300",
                "amenity": "pharmacy",
                "dispensing": "yes"
            },
            "geometry": {
                "type": "Point",
                "coordinates": [
                    19.207145706326717,
                    49.6824961254656
                ]
            }
        },
        {
            "type": "Feature",
            "properties": {
                "ref:csioz": 1202219,
                "name": "Ziko Apteka",
                "addr:street": "1 Maja",
                "addr:housenumber": "2",
                "addr:city": "Żywiec",
                "addr:postcode": "34-300",
                "amenity": "pharmacy",
                "dispensing": "yes"
            },
            "geometry": {
                "type": "Point",
                "coordinates": [
                    19.18871213855197,
                    49.68018276973403
                ]
            }
        },
        {
            "type": "Feature",
            "properties": {
                "ref:csioz": 1215875,
                "addr:street": "Jana Pawła II",
                "addr:housenumber": "31",
                "addr:city": "Pewel Mała",
                "addr:postcode": "34-331",
                "amenity": "pharmacy",
                "dispensing": "yes"
            },
            "geometry": {
                "type": "Point",
                "coordinates": [
                    19.281090689137244,
                    49.66922321864005
                ]
            }
        },
        {
            "type": "Feature",
            "properties": {
                "ref:csioz": 1226383,
                "name": "Centrum Dla Zdrowia",
                "addr:street": "Wiejska",
                "addr:housenumber": "50",
                "addr:city": "Lipowa",
                "addr:postcode": "34-324",
                "amenity": "pharmacy",
                "dispensing": "yes"
            },
            "geometry": {
                "type": "Point",
                "coordinates": [
                    19.09549801176994,
                    49.6745676528109
                ]
            }
        }
    ]
}