{
    "type": "FeatureCollection",
    "name": "JPT_KOD_JE_1434",
    "features": [
        {
            "type": "Feature",
            "properties": {
                "ref:csioz": 1089212,
                "name": "Aralia",
                "addr:street": "Warszawska",
                "addr:housenumber": "10",
                "addr:city": "Kobyłka",
                "addr:postcode": "05-230",
                "amenity": "pharmacy",
                "dispensing": "yes"
            },
            "geometry": {
                "type": "Point",
                "coordinates": [
                    21.21529684441171,
                    52.336192150179436
                ]
            }
        },
        {
            "type": "Feature",
            "properties": {
                "ref:csioz": 1089220,
                "name": "\"Cef@Rm 36,6\"",
                "addr:street": "gen. Franciszka Żymirskiego",
                "addr:housenumber": "2",
                "addr:city": "Kobyłka",
                "addr:postcode": "05-230",
                "amenity": "pharmacy",
                "dispensing": "yes"
            },
            "geometry": {
                "type": "Point",
                "coordinates": [
                    21.199050756040805,
                    52.338530435924056
                ]
            }
        },
        {
            "type": "Feature",
            "properties": {
                "ref:csioz": 1119531,
                "name": "Amica",
                "addr:street": "Fieldorfa",
                "addr:housenumber": "24",
                "addr:city": "Wołomin",
                "addr:postcode": "05-200",
                "amenity": "pharmacy",
                "dispensing": "yes"
            },
            "geometry": {
                "type": "Point",
                "coordinates": [
                    21.234389181115812,
                    52.33973286564867
                ]
            }
        },
        {
            "type": "Feature",
            "properties": {
                "ref:csioz": 1124442,
                "name": "Centrum Multi-Medica Szpital",
                "addr:street": "Józefa Poniatowskiego",
                "addr:housenumber": "97",
                "addr:city": "Zielonka",
                "addr:postcode": "05-220",
                "amenity": "pharmacy",
                "dispensing": "yes"
            },
            "geometry": {
                "type": "Point",
                "coordinates": [
                    21.184047000004036,
                    52.31315300001597
                ]
            }
        },
        {
            "type": "Feature",
            "properties": {
                "ref:csioz": 1181232,
                "name": "Aralia",
                "addr:street": "Nadarzyńska",
                "addr:housenumber": "67",
                "addr:city": "Kobyłka",
                "addr:postcode": "05-230",
                "amenity": "pharmacy",
                "dispensing": "yes"
            },
            "geometry": {
                "type": "Point",
                "coordinates": [
                    21.212116494002885,
                    52.326413887342405
                ]
            }
        },
        {
            "type": "Feature",
            "properties": {
                "ref:csioz": 1081593,
                "name": "Novum",
                "addr:street": "Lipowa",
                "addr:housenumber": "2A",
                "addr:city": "Zielonka",
                "addr:postcode": "05-220",
                "amenity": "pharmacy",
                "dispensing": "yes"
            },
            "geometry": {
                "type": "Point",
                "coordinates": [
                    21.155968325237705,
                    52.314388815070025
                ]
            }
        },
        {
            "type": "Feature",
            "properties": {
                "ref:csioz": 1089492,
                "name": "Amica",
                "addr:street": "Kolejowa",
                "addr:housenumber": "9",
                "addr:city": "Zielonka",
                "addr:postcode": "05-220",
                "amenity": "pharmacy",
                "dispensing": "yes"
            },
            "geometry": {
                "type": "Point",
                "coordinates": [
                    21.154024740235737,
                    52.30949917862802
                ]
            }
        },
        {
            "type": "Feature",
            "properties": {
                "ref:csioz": 1090024,
                "name": "Pl",
                "addr:street": "Powstańców",
                "addr:housenumber": "29A",
                "addr:city": "Ząbki",
                "addr:postcode": "05-091",
                "amenity": "pharmacy",
                "dispensing": "yes"
            },
            "geometry": {
                "type": "Point",
                "coordinates": [
                    21.13240879158295,
                    52.28015067291442
                ]
            }
        },
        {
            "type": "Feature",
            "properties": {
                "ref:csioz": 1114691,
                "name": "Amica",
                "addr:street": "Powstańców",
                "addr:housenumber": "33",
                "addr:city": "Ząbki",
                "addr:postcode": "05-091",
                "amenity": "pharmacy",
                "dispensing": "yes"
            },
            "geometry": {
                "type": "Point",
                "coordinates": [
                    21.134845420501257,
                    52.28039556097291
                ]
            }
        },
        {
            "type": "Feature",
            "properties": {
                "ref:csioz": 1089325,
                "name": "Z Uśmiechem",
                "addr:street": "Aleja Niepodległości",
                "addr:housenumber": "17",
                "addr:city": "Wołomin",
                "addr:postcode": "05-200",
                "amenity": "pharmacy",
                "dispensing": "yes"
            },
            "geometry": {
                "type": "Point",
                "coordinates": [
                    21.260217822098053,
                    52.352881514030905
                ]
            }
        },
        {
            "type": "Feature",
            "properties": {
                "ref:csioz": 1089330,
                "name": "Dr. Max",
                "addr:street": "Gdyńska",
                "addr:housenumber": "1/3",
                "addr:city": "Wołomin",
                "addr:postcode": "05-200",
                "amenity": "pharmacy",
                "dispensing": "yes"
            },
            "geometry": {
                "type": "Point",
                "coordinates": [
                    21.221051251475895,
                    52.34601373073633
                ]
            }
        },
        {
            "type": "Feature",
            "properties": {
                "ref:csioz": 1089349,
                "name": "Aralia",
                "addr:street": "Kobyłkowska",
                "addr:housenumber": "15",
                "addr:city": "Wołomin",
                "addr:postcode": "05-200",
                "amenity": "pharmacy",
                "dispensing": "yes"
            },
            "geometry": {
                "type": "Point",
                "coordinates": [
                    21.231582093061885,
                    52.34558360775854
                ]
            }
        },
        {
            "type": "Feature",
            "properties": {
                "ref:csioz": 1089363,
                "name": "Dr Porada",
                "addr:street": "Mickiewicza",
                "addr:housenumber": "12A",
                "addr:city": "Wołomin",
                "addr:postcode": "05-200",
                "amenity": "pharmacy",
                "dispensing": "yes"
            },
            "geometry": {
                "type": "Point",
                "coordinates": [
                    21.245147621995738,
                    52.345231110259924
                ]
            }
        },
        {
            "type": "Feature",
            "properties": {
                "ref:csioz": 1089374,
                "name": "\"Cef@Rm 36,6\"",
                "addr:street": "Mieszka I",
                "addr:housenumber": "8",
                "addr:city": "Wołomin",
                "addr:postcode": "05-200",
                "amenity": "pharmacy",
                "dispensing": "yes"
            },
            "geometry": {
                "type": "Point",
                "coordinates": [
                    21.259720443360877,
                    52.34748241284389
                ]
            }
        },
        {
            "type": "Feature",
            "properties": {
                "ref:csioz": 1089506,
                "name": "\"Cef@Rm 36,6\"",
                "addr:street": "Adama Mickiewicza",
                "addr:housenumber": "18",
                "addr:city": "Zielonka",
                "addr:postcode": "05-220",
                "amenity": "pharmacy",
                "dispensing": "yes"
            },
            "geometry": {
                "type": "Point",
                "coordinates": [
                    21.15851561326479,
                    52.307101976358425
                ]
            }
        },
        {
            "type": "Feature",
            "properties": {
                "ref:csioz": 1089881,
                "name": "Mgr Farm. Katarzyna Ołówek",
                "addr:street": "ks. Antoniego Zagańczyka",
                "addr:housenumber": "3A",
                "addr:city": "Kobyłka",
                "addr:postcode": "05-230",
                "amenity": "pharmacy",
                "dispensing": "yes"
            },
            "geometry": {
                "type": "Point",
                "coordinates": [
                    21.193632110187163,
                    52.339159562471075
                ]
            }
        },
        {
            "type": "Feature",
            "properties": {
                "ref:csioz": 1090056,
                "name": "Amica",
                "addr:street": "Aleja Niepodległości",
                "addr:housenumber": "2",
                "addr:city": "Wołomin",
                "addr:postcode": "05-200",
                "amenity": "pharmacy",
                "dispensing": "yes"
            },
            "geometry": {
                "type": "Point",
                "coordinates": [
                    21.257890973839217,
                    52.354063981981795
                ]
            }
        },
        {
            "type": "Feature",
            "properties": {
                "ref:csioz": 1090455,
                "name": "Amica",
                "addr:street": "Aleja Armii Krajowej",
                "addr:housenumber": "38A",
                "addr:city": "Wołomin",
                "addr:postcode": "05-200",
                "amenity": "pharmacy",
                "dispensing": "yes"
            },
            "geometry": {
                "type": "Point",
                "coordinates": [
                    21.234343710223737,
                    52.34765152705676
                ]
            }
        },
        {
            "type": "Feature",
            "properties": {
                "ref:csioz": 1115580,
                "name": "Z Uśmiechem",
                "addr:street": "Aleja Armii Krajowej",
                "addr:housenumber": "64",
                "addr:city": "Wołomin",
                "addr:postcode": "05-200",
                "amenity": "pharmacy",
                "dispensing": "yes"
            },
            "geometry": {
                "type": "Point",
                "coordinates": [
                    21.246284051094737,
                    52.34093835999512
                ]
            }
        },
        {
            "type": "Feature",
            "properties": {
                "ref:csioz": 1117956,
                "name": "Amica",
                "addr:street": "Kolejowa",
                "addr:housenumber": "5B",
                "addr:city": "Zielonka",
                "addr:postcode": "05-220",
                "amenity": "pharmacy",
                "dispensing": "yes"
            },
            "geometry": {
                "type": "Point",
                "coordinates": [
                    21.15318672086769,
                    52.31064924285075
                ]
            }
        },
        {
            "type": "Feature",
            "properties": {
                "ref:csioz": 1120462,
                "name": "Herba",
                "addr:street": "Napoleona",
                "addr:housenumber": "7",
                "addr:city": "Kobyłka",
                "addr:postcode": "05-230",
                "amenity": "pharmacy",
                "dispensing": "yes"
            },
            "geometry": {
                "type": "Point",
                "coordinates": [
                    21.19171261573504,
                    52.32794624121998
                ]
            }
        },
        {
            "type": "Feature",
            "properties": {
                "ref:csioz": 1121373,
                "name": "Aralia",
                "addr:street": "Kościelna",
                "addr:housenumber": "69",
                "addr:city": "Wołomin",
                "addr:postcode": "05-200",
                "amenity": "pharmacy",
                "dispensing": "yes"
            },
            "geometry": {
                "type": "Point",
                "coordinates": [
                    21.259223773006738,
                    52.34855170456894
                ]
            }
        },
        {
            "type": "Feature",
            "properties": {
                "ref:csioz": 1202545,
                "name": "Antidotum",
                "addr:street": "Aleja Niepodległości",
                "addr:housenumber": "54H",
                "addr:city": "Wołomin",
                "addr:postcode": "05-200",
                "amenity": "pharmacy",
                "dispensing": "yes"
            },
            "geometry": {
                "type": "Point",
                "coordinates": [
                    21.268136178799676,
                    52.338347995629675
                ]
            }
        },
        {
            "type": "Feature",
            "properties": {
                "ref:csioz": 1216515,
                "addr:street": "Geodetów",
                "addr:housenumber": "2",
                "addr:city": "Wołomin",
                "addr:postcode": "05-200",
                "amenity": "pharmacy",
                "dispensing": "yes"
            },
            "geometry": {
                "type": "Point",
                "coordinates": [
                    21.25682767231958,
                    52.35599006768293
                ]
            }
        },
        {
            "type": "Feature",
            "properties": {
                "ref:csioz": 1089248,
                "addr:street": "Klonowa",
                "addr:housenumber": "6A",
                "addr:city": "Marki",
                "addr:postcode": "05-261",
                "amenity": "pharmacy",
                "dispensing": "yes"
            },
            "geometry": {
                "type": "Point",
                "coordinates": [
                    21.13534136200068,
                    52.362491446946684
                ]
            }
        },
        {
            "type": "Feature",
            "properties": {
                "ref:csioz": 1089382,
                "name": "\"Cef@Rm 36,6\"",
                "addr:street": "Prądzyńskiego",
                "addr:housenumber": "9",
                "addr:city": "Wołomin",
                "addr:postcode": "05-200",
                "amenity": "pharmacy",
                "dispensing": "yes"
            },
            "geometry": {
                "type": "Point",
                "coordinates": [
                    21.23856063888512,
                    52.343074905133854
                ]
            }
        },
        {
            "type": "Feature",
            "properties": {
                "ref:csioz": 1089421,
                "name": "Aralia",
                "addr:street": "Kolejowa",
                "addr:housenumber": "1B",
                "addr:city": "Lipinki",
                "addr:postcode": "05-200",
                "amenity": "pharmacy",
                "dispensing": "yes"
            },
            "geometry": {
                "type": "Point",
                "coordinates": [
                    21.279675000004822,
                    52.36493000001607
                ]
            }
        },
        {
            "type": "Feature",
            "properties": {
                "ref:csioz": 1090168,
                "name": "Aralia",
                "addr:street": "Legionowa",
                "addr:housenumber": "1",
                "addr:city": "Marki",
                "addr:postcode": "05-270",
                "amenity": "pharmacy",
                "dispensing": "yes"
            },
            "geometry": {
                "type": "Point",
                "coordinates": [
                    21.133561714222527,
                    52.3588556793765
                ]
            }
        },
        {
            "type": "Feature",
            "properties": {
                "ref:csioz": 1090348,
                "name": "Hibiskus",
                "addr:street": "Legionów",
                "addr:housenumber": "10",
                "addr:city": "Wołomin",
                "addr:postcode": "05-200",
                "amenity": "pharmacy",
                "dispensing": "yes"
            },
            "geometry": {
                "type": "Point",
                "coordinates": [
                    21.240527394931295,
                    52.346029789095944
                ]
            }
        },
        {
            "type": "Feature",
            "properties": {
                "ref:csioz": 1124427,
                "name": "Hospicjum Opatrzności Bożej Księża Orioniści",
                "addr:street": "Piłsudskiego",
                "addr:housenumber": "44",
                "addr:city": "Wołomin",
                "addr:postcode": "05-200",
                "amenity": "pharmacy",
                "dispensing": "yes"
            },
            "geometry": {
                "type": "Point",
                "coordinates": [
                    21.23069003979303,
                    52.350722923616566
                ]
            }
        },
        {
            "type": "Feature",
            "properties": {
                "ref:csioz": 1153191,
                "name": "Apteka Szpitalna",
                "addr:street": "Gdyńska",
                "addr:housenumber": "1/3",
                "addr:city": "Wołomin",
                "addr:postcode": "05-200",
                "amenity": "pharmacy",
                "dispensing": "yes"
            },
            "geometry": {
                "type": "Point",
                "coordinates": [
                    21.221051251475895,
                    52.34601373073633
                ]
            }
        },
        {
            "type": "Feature",
            "properties": {
                "ref:csioz": 1170920,
                "name": "Hibiskus",
                "addr:street": "Prymasa Stefana Wyszyńskiego",
                "addr:housenumber": "28",
                "addr:city": "Zielonka",
                "addr:postcode": "05-220",
                "amenity": "pharmacy",
                "dispensing": "yes"
            },
            "geometry": {
                "type": "Point",
                "coordinates": [
                    21.161172085342162,
                    52.30392240948238
                ]
            }
        },
        {
            "type": "Feature",
            "properties": {
                "ref:csioz": 1211460,
                "name": "Z Uśmiechem",
                "addr:street": "Wileńska",
                "addr:housenumber": "40",
                "addr:city": "Wołomin",
                "addr:postcode": "05-200",
                "amenity": "pharmacy",
                "dispensing": "yes"
            },
            "geometry": {
                "type": "Point",
                "coordinates": [
                    21.244289572724647,
                    52.346992725941426
                ]
            }
        },
        {
            "type": "Feature",
            "properties": {
                "ref:csioz": 1222193,
                "name": "Z Uśmiechem",
                "addr:street": "Prądzyńskiego",
                "addr:housenumber": "37",
                "addr:city": "Wołomin",
                "addr:postcode": "05-200",
                "amenity": "pharmacy",
                "dispensing": "yes"
            },
            "geometry": {
                "type": "Point",
                "coordinates": [
                    21.238600662698754,
                    52.3406904627703
                ]
            }
        },
        {
            "type": "Feature",
            "properties": {
                "ref:csioz": 1222675,
                "name": "Z Uśmiechem",
                "addr:street": "Warszawska",
                "addr:housenumber": "\"15 A,C\"",
                "addr:city": "Wołomin",
                "addr:postcode": "05-200",
                "amenity": "pharmacy",
                "dispensing": "yes"
            },
            "geometry": {
                "type": "Point",
                "coordinates": [
                    21.237950053227237,
                    52.345552594538134
                ]
            }
        },
        {
            "type": "Feature",
            "properties": {
                "ref:csioz": 1182169,
                "name": "Mkj",
                "addr:street": "Lipińska",
                "addr:housenumber": "99",
                "addr:city": "Wołomin",
                "addr:postcode": "05-200",
                "amenity": "pharmacy",
                "dispensing": "yes"
            },
            "geometry": {
                "type": "Point",
                "coordinates": [
                    21.263232188222013,
                    52.34697924529272
                ]
            }
        },
        {
            "type": "Feature",
            "properties": {
                "ref:csioz": 1089533,
                "name": "Bajkowa",
                "addr:street": "gen. Władysława Sikorskiego",
                "addr:housenumber": "33A",
                "addr:city": "Ząbki",
                "addr:postcode": "05-091",
                "amenity": "pharmacy",
                "dispensing": "yes"
            },
            "geometry": {
                "type": "Point",
                "coordinates": [
                    21.121041000003572,
                    52.28748700001593
                ]
            }
        },
        {
            "type": "Feature",
            "properties": {
                "ref:csioz": 1122632,
                "name": "Amica",
                "addr:street": "Wiosenna",
                "addr:housenumber": "14",
                "addr:city": "Ząbki",
                "addr:postcode": "05-091",
                "amenity": "pharmacy",
                "dispensing": "yes"
            },
            "geometry": {
                "type": "Point",
                "coordinates": [
                    21.114720448844455,
                    52.2908824245826
                ]
            }
        },
        {
            "type": "Feature",
            "properties": {
                "ref:csioz": 1089257,
                "name": "Dr Zdrowie",
                "addr:street": "marsz. Józefa Piłsudskiego",
                "addr:housenumber": "1",
                "addr:city": "Marki",
                "addr:postcode": "05-270",
                "amenity": "pharmacy",
                "dispensing": "yes"
            },
            "geometry": {
                "type": "Point",
                "coordinates": [
                    21.086836833539238,
                    52.30581040061152
                ]
            }
        },
        {
            "type": "Feature",
            "properties": {
                "ref:csioz": 1089459,
                "addr:street": "Józefa Piłsudskiego",
                "addr:housenumber": "20",
                "addr:city": "Ząbki",
                "addr:postcode": "05-091",
                "amenity": "pharmacy",
                "dispensing": "yes"
            },
            "geometry": {
                "type": "Point",
                "coordinates": [
                    21.109939935796913,
                    52.28994327161717
                ]
            }
        },
        {
            "type": "Feature",
            "properties": {
                "ref:csioz": 1115546,
                "name": "Apteka Pod Eskulapem",
                "addr:street": "Fabryczna",
                "addr:housenumber": "1",
                "addr:city": "Marki",
                "addr:postcode": "05-270",
                "amenity": "pharmacy",
                "dispensing": "yes"
            },
            "geometry": {
                "type": "Point",
                "coordinates": [
                    21.104648925429608,
                    52.32106311390908
                ]
            }
        },
        {
            "type": "Feature",
            "properties": {
                "ref:csioz": 1215409,
                "name": "Dbaj O Siebie",
                "addr:street": "Tadeusza Kościuszki",
                "addr:housenumber": "26",
                "addr:city": "Marki",
                "addr:postcode": "05-270",
                "amenity": "pharmacy",
                "dispensing": "yes"
            },
            "geometry": {
                "type": "Point",
                "coordinates": [
                    21.096830808831815,
                    52.32078217906909
                ]
            }
        },
        {
            "type": "Feature",
            "properties": {
                "ref:csioz": 1220529,
                "name": "Z Uśmiechem",
                "addr:street": "Fabryczna",
                "addr:housenumber": "14",
                "addr:city": "Marki",
                "addr:postcode": "05-270",
                "amenity": "pharmacy",
                "dispensing": "yes"
            },
            "geometry": {
                "type": "Point",
                "coordinates": [
                    21.10661200882875,
                    52.32010867710637
                ]
            }
        },
        {
            "type": "Feature",
            "properties": {
                "ref:csioz": 1090385,
                "name": "Cosmedica",
                "addr:street": "Władysława Stanisława Reymonta",
                "addr:housenumber": "30",
                "addr:city": "Ząbki",
                "addr:postcode": "05-091",
                "amenity": "pharmacy",
                "dispensing": "yes"
            },
            "geometry": {
                "type": "Point",
                "coordinates": [
                    21.117889000003558,
                    52.27884900001591
                ]
            }
        },
        {
            "type": "Feature",
            "properties": {
                "ref:csioz": 1089193,
                "name": "Dąbrówka",
                "addr:street": "Tadeusza Kościuszki",
                "addr:housenumber": "15",
                "addr:city": "Dąbrówka",
                "addr:postcode": "05-252",
                "amenity": "pharmacy",
                "dispensing": "yes"
            },
            "geometry": {
                "type": "Point",
                "coordinates": [
                    21.298124997450763,
                    52.485357992878214
                ]
            }
        },
        {
            "type": "Feature",
            "properties": {
                "ref:csioz": 1089204,
                "addr:street": "Gustawa Dreszera",
                "addr:housenumber": "16A",
                "addr:city": "Jadów",
                "addr:postcode": "05-280",
                "amenity": "pharmacy",
                "dispensing": "yes"
            },
            "geometry": {
                "type": "Point",
                "coordinates": [
                    21.636232466635626,
                    52.47707853842311
                ]
            }
        },
        {
            "type": "Feature",
            "properties": {
                "ref:csioz": 1089317,
                "addr:street": "Warszawska",
                "addr:housenumber": "25",
                "addr:city": "Tłuszcz",
                "addr:postcode": "05-240",
                "amenity": "pharmacy",
                "dispensing": "yes"
            },
            "geometry": {
                "type": "Point",
                "coordinates": [
                    21.437864902756797,
                    52.4302969180864
                ]
            }
        },
        {
            "type": "Feature",
            "properties": {
                "ref:csioz": 1089579,
                "name": "Amica",
                "addr:street": "Jana Pawła II",
                "addr:housenumber": "1A",
                "addr:city": "Radzymin",
                "addr:postcode": "05-250",
                "amenity": "pharmacy",
                "dispensing": "yes"
            },
            "geometry": {
                "type": "Point",
                "coordinates": [
                    21.18013358255562,
                    52.41695863563391
                ]
            }
        },
        {
            "type": "Feature",
            "properties": {
                "ref:csioz": 1090137,
                "name": "Z Uśmiechem",
                "addr:street": "Konstytucji 3 Maja",
                "addr:housenumber": "10",
                "addr:city": "Radzymin",
                "addr:postcode": "05-250",
                "amenity": "pharmacy",
                "dispensing": "yes"
            },
            "geometry": {
                "type": "Point",
                "coordinates": [
                    21.183365170739446,
                    52.4164413850967
                ]
            }
        },
        {
            "type": "Feature",
            "properties": {
                "ref:csioz": 1090679,
                "name": "Punkt Apteczny Arnika",
                "addr:street": "Stanisława Augusta Poniatowskiego",
                "addr:housenumber": "2",
                "addr:city": "Urle",
                "addr:postcode": "05-281",
                "amenity": "pharmacy",
                "dispensing": "yes"
            },
            "geometry": {
                "type": "Point",
                "coordinates": [
                    21.63216677256177,
                    52.51243776897687
                ]
            }
        },
        {
            "type": "Feature",
            "properties": {
                "ref:csioz": 1090723,
                "addr:street": "Warszawska",
                "addr:housenumber": "5A",
                "addr:city": "Kuligów",
                "addr:postcode": "05-254",
                "amenity": "pharmacy",
                "dispensing": "yes"
            },
            "geometry": {
                "type": "Point",
                "coordinates": [
                    21.17728047621764,
                    52.509741990530756
                ]
            }
        },
        {
            "type": "Feature",
            "properties": {
                "ref:csioz": 1118355,
                "name": "Amica",
                "addr:street": "Jana Pawła II",
                "addr:housenumber": "64",
                "addr:city": "Słupno",
                "addr:postcode": "05-250",
                "amenity": "pharmacy",
                "dispensing": "yes"
            },
            "geometry": {
                "type": "Point",
                "coordinates": [
                    21.157755542325372,
                    52.38575496335071
                ]
            }
        },
        {
            "type": "Feature",
            "properties": {
                "ref:csioz": 1090176,
                "name": "Rodzinna",
                "addr:street": "Warszawska",
                "addr:housenumber": "11",
                "addr:city": "Tłuszcz",
                "addr:postcode": "05-240",
                "amenity": "pharmacy",
                "dispensing": "yes"
            },
            "geometry": {
                "type": "Point",
                "coordinates": [
                    21.433419220960374,
                    52.429265906885455
                ]
            }
        },
        {
            "type": "Feature",
            "properties": {
                "ref:csioz": 1090336,
                "name": "Amica",
                "addr:street": "Marii Rodziewiczówny",
                "addr:housenumber": "15",
                "addr:city": "Tłuszcz",
                "addr:postcode": "05-240",
                "amenity": "pharmacy",
                "dispensing": "yes"
            },
            "geometry": {
                "type": "Point",
                "coordinates": [
                    21.43819762328589,
                    52.42755156039858
                ]
            }
        },
        {
            "type": "Feature",
            "properties": {
                "ref:csioz": 1116114,
                "name": "Antidotum",
                "addr:street": "gen. Franciszka Żymirskiego",
                "addr:housenumber": "48",
                "addr:city": "Klembów",
                "addr:postcode": "05-205",
                "amenity": "pharmacy",
                "dispensing": "yes"
            },
            "geometry": {
                "type": "Point",
                "coordinates": [
                    21.331573498314626,
                    52.40593809409854
                ]
            }
        },
        {
            "type": "Feature",
            "properties": {
                "ref:csioz": 1117864,
                "name": "Medivital",
                "addr:street": "Powstańców",
                "addr:housenumber": "20A",
                "addr:city": "Tłuszcz",
                "addr:postcode": "05-240",
                "amenity": "pharmacy",
                "dispensing": "yes"
            },
            "geometry": {
                "type": "Point",
                "coordinates": [
                    21.439042361455158,
                    52.4295250839321
                ]
            }
        },
        {
            "type": "Feature",
            "properties": {
                "ref:csioz": 1170718,
                "name": "Amica",
                "addr:street": "Stary Rynek",
                "addr:housenumber": "30",
                "addr:city": "Radzymin",
                "addr:postcode": "05-250",
                "amenity": "pharmacy",
                "dispensing": "yes"
            },
            "geometry": {
                "type": "Point",
                "coordinates": [
                    21.181376532894905,
                    52.418969918985724
                ]
            }
        },
        {
            "type": "Feature",
            "properties": {
                "ref:csioz": 1171489,
                "name": "Od Serca",
                "addr:street": "Stary Rynek",
                "addr:housenumber": "9",
                "addr:city": "Radzymin",
                "addr:postcode": "05-250",
                "amenity": "pharmacy",
                "dispensing": "yes"
            },
            "geometry": {
                "type": "Point",
                "coordinates": [
                    21.180477412900007,
                    52.418369137708645
                ]
            }
        },
        {
            "type": "Feature",
            "properties": {
                "ref:csioz": 1183011,
                "name": "Szpital W Radzyminie",
                "addr:street": "Konstytucji 3 Maja",
                "addr:housenumber": "17",
                "addr:city": "Radzymin",
                "addr:postcode": "05-250",
                "amenity": "pharmacy",
                "dispensing": "yes"
            },
            "geometry": {
                "type": "Point",
                "coordinates": [
                    21.18891253406491,
                    52.41440149389504
                ]
            }
        },
        {
            "type": "Feature",
            "properties": {
                "ref:csioz": 1192777,
                "name": "Punkt Apteczny Centrum",
                "addr:street": "Cypriana Kamila Norwida",
                "addr:housenumber": "6",
                "addr:city": "Strachówka",
                "addr:postcode": "05-282",
                "amenity": "pharmacy",
                "dispensing": "yes"
            },
            "geometry": {
                "type": "Point",
                "coordinates": [
                    21.633863720339622,
                    52.427242776946755
                ]
            }
        },
        {
            "type": "Feature",
            "properties": {
                "ref:csioz": 1214526,
                "name": "\"Antidotum Mgr Farm. A. Łuszcz, Mgr Farm. M. Poźniak S.C.\"",
                "addr:housenumber": "22",
                "addr:postcode": "05-205",
                "amenity": "pharmacy",
                "addr:place": "Lipka",
                "dispensing": "yes"
            },
            "geometry": {
                "type": "Point",
                "coordinates": [
                    21.37038117447727,
                    52.38083374206212
                ]
            }
        },
        {
            "type": "Feature",
            "properties": {
                "ref:csioz": 1218007,
                "name": "Pod Ratuszem",
                "addr:street": "Ratuszowa",
                "addr:housenumber": "4",
                "addr:city": "Tłuszcz",
                "addr:postcode": "05-240",
                "amenity": "pharmacy",
                "dispensing": "yes"
            },
            "geometry": {
                "type": "Point",
                "coordinates": [
                    21.441655675674347,
                    52.430999516672294
                ]
            }
        },
        {
            "type": "Feature",
            "properties": {
                "ref:csioz": 1220813,
                "name": "Z Uśmiechem",
                "addr:street": "Konstytucji 3 Maja",
                "addr:housenumber": "30",
                "addr:city": "Radzymin",
                "addr:postcode": "05-250",
                "amenity": "pharmacy",
                "dispensing": "yes"
            },
            "geometry": {
                "type": "Point",
                "coordinates": [
                    21.18852637850489,
                    52.414184188854115
                ]
            }
        },
        {
            "type": "Feature",
            "properties": {
                "ref:csioz": 1225764,
                "name": "Antidotum",
                "addr:street": "Koczorowskiej",
                "addr:housenumber": "1",
                "addr:city": "Ostrówek",
                "addr:postcode": "05-205",
                "amenity": "pharmacy",
                "dispensing": "yes"
            },
            "geometry": {
                "type": "Point",
                "coordinates": [
                    21.365557064069964,
                    52.390278754830156
                ]
            }
        },
        {
            "type": "Feature",
            "properties": {
                "ref:csioz": 1230807,
                "name": "Apteka Herba",
                "addr:street": "Falandysza Lecha",
                "addr:housenumber": "11",
                "addr:city": "Radzymin",
                "addr:postcode": "05-250",
                "amenity": "pharmacy",
                "dispensing": "yes"
            },
            "geometry": {
                "type": "Point",
                "coordinates": [
                    21.176282029497955,
                    52.41648648123715
                ]
            }
        },
        {
            "type": "Feature",
            "properties": {
                "ref:csioz": 1113738,
                "addr:street": "Drewnicka",
                "addr:housenumber": "3",
                "addr:city": "Ząbki",
                "addr:postcode": "05-091",
                "amenity": "pharmacy",
                "dispensing": "yes"
            },
            "geometry": {
                "type": "Point",
                "coordinates": [
                    21.0972356736673,
                    52.30474800708048
                ]
            }
        },
        {
            "type": "Feature",
            "properties": {
                "ref:csioz": 1115181,
                "name": "Apteka Batorego",
                "addr:street": "Stefana Batorego",
                "addr:housenumber": "66",
                "addr:city": "Ząbki",
                "addr:postcode": "05-091",
                "amenity": "pharmacy",
                "dispensing": "yes"
            },
            "geometry": {
                "type": "Point",
                "coordinates": [
                    21.089768621342998,
                    52.29537086652848
                ]
            }
        },
        {
            "type": "Feature",
            "properties": {
                "ref:csioz": 1184008,
                "name": "Dr Zdrowie",
                "addr:street": "marsz. Józefa Piłsudskiego",
                "addr:housenumber": "200",
                "addr:city": "Marki",
                "addr:postcode": "05-270",
                "amenity": "pharmacy",
                "dispensing": "yes"
            },
            "geometry": {
                "type": "Point",
                "coordinates": [
                    21.12511639070809,
                    52.34466911950419
                ]
            }
        },
        {
            "type": "Feature",
            "properties": {
                "ref:csioz": 1089273,
                "name": "Doz Apteka. Dbam O Zdrowie",
                "addr:street": "marsz. Józefa Piłsudskiego",
                "addr:housenumber": "176",
                "addr:city": "Marki",
                "addr:postcode": "05-270",
                "amenity": "pharmacy",
                "dispensing": "yes"
            },
            "geometry": {
                "type": "Point",
                "coordinates": [
                    21.118908207818976,
                    52.33858433973285
                ]
            }
        },
        {
            "type": "Feature",
            "properties": {
                "ref:csioz": 1089285,
                "addr:street": "Sportowa",
                "addr:housenumber": "3",
                "addr:city": "Marki",
                "addr:postcode": "05-270",
                "amenity": "pharmacy",
                "dispensing": "yes"
            },
            "geometry": {
                "type": "Point",
                "coordinates": [
                    21.10876592066406,
                    52.3252386120486
                ]
            }
        },
        {
            "type": "Feature",
            "properties": {
                "ref:csioz": 1089437,
                "name": "Nasza Apteka",
                "addr:street": "3 Maja",
                "addr:housenumber": "14",
                "addr:city": "Ząbki",
                "addr:postcode": "05-091",
                "amenity": "pharmacy",
                "dispensing": "yes"
            },
            "geometry": {
                "type": "Point",
                "coordinates": [
                    21.114783234579015,
                    52.29249114594917
                ]
            }
        },
        {
            "type": "Feature",
            "properties": {
                "ref:csioz": 1089468,
                "name": "Doz Apteka. Dbam O Zdrowie. Południe",
                "addr:street": "Powstańców",
                "addr:housenumber": "2",
                "addr:city": "Ząbki",
                "addr:postcode": "05-091",
                "amenity": "pharmacy",
                "dispensing": "yes"
            },
            "geometry": {
                "type": "Point",
                "coordinates": [
                    21.117984413000315,
                    52.278134759983054
                ]
            }
        },
        {
            "type": "Feature",
            "properties": {
                "ref:csioz": 1090361,
                "name": "Nasza Apteka",
                "addr:street": "Adama Leszyckiego",
                "addr:housenumber": "1",
                "addr:city": "Ząbki",
                "addr:postcode": "05-091",
                "amenity": "pharmacy",
                "dispensing": "yes"
            },
            "geometry": {
                "type": "Point",
                "coordinates": [
                    21.1097077754088,
                    52.2942487897848
                ]
            }
        },
        {
            "type": "Feature",
            "properties": {
                "ref:csioz": 1113852,
                "addr:street": "ks. Ignacego Skorupki",
                "addr:housenumber": "71",
                "addr:city": "Ząbki",
                "addr:postcode": "05-091",
                "amenity": "pharmacy",
                "dispensing": "yes"
            },
            "geometry": {
                "type": "Point",
                "coordinates": [
                    21.126314705753142,
                    52.29107730910144
                ]
            }
        },
        {
            "type": "Feature",
            "properties": {
                "ref:csioz": 1193118,
                "name": "Amica",
                "addr:street": "Leopolda Lisa-Kuli",
                "addr:housenumber": "5A",
                "addr:city": "Marki",
                "addr:postcode": "05-270",
                "amenity": "pharmacy",
                "dispensing": "yes"
            },
            "geometry": {
                "type": "Point",
                "coordinates": [
                    21.108187221831777,
                    52.324113105945024
                ]
            }
        },
        {
            "type": "Feature",
            "properties": {
                "ref:csioz": 1209462,
                "name": "Amica",
                "addr:street": "Fabryczna",
                "addr:housenumber": "4",
                "addr:city": "Marki",
                "addr:postcode": "05-270",
                "amenity": "pharmacy",
                "dispensing": "yes"
            },
            "geometry": {
                "type": "Point",
                "coordinates": [
                    21.10545962317693,
                    52.32042207088808
                ]
            }
        },
        {
            "type": "Feature",
            "properties": {
                "ref:csioz": 1227840,
                "name": "Dział Farmacji Szpitalnej",
                "addr:street": "Karola Rychlińskiego",
                "addr:housenumber": "1",
                "addr:city": "Ząbki",
                "addr:postcode": "05-091",
                "amenity": "pharmacy",
                "dispensing": "yes"
            },
            "geometry": {
                "type": "Point",
                "coordinates": [
                    21.111679732453005,
                    52.298774349638364
                ]
            }
        },
        {
            "type": "Feature",
            "properties": {
                "ref:csioz": 1089261,
                "addr:street": "marsz. Józefa Piłsudskiego",
                "addr:housenumber": "116",
                "addr:city": "Marki",
                "addr:postcode": "05-270",
                "amenity": "pharmacy",
                "dispensing": "yes"
            },
            "geometry": {
                "type": "Point",
                "coordinates": [
                    21.11287622954484,
                    52.331957976953255
                ]
            }
        }
    ]
}