{
    "type": "FeatureCollection",
    "name": "JPT_KOD_JE_3206",
    "features": [
        {
            "type": "Feature",
            "properties": {
                "ref:csioz": 1126126,
                "name": "Lavenda",
                "addr:street": "Willowa",
                "addr:housenumber": "2b",
                "addr:city": "Mieszkowice",
                "addr:postcode": "74-505",
                "amenity": "pharmacy"
            },
            "geometry": {
                "type": "Point",
                "coordinates": [
                    14.489227162735382,
                    52.78738690069373
                ]
            }
        },
        {
            "type": "Feature",
            "properties": {
                "ref:csioz": 1136563,
                "name": "Doz Apteka Dbam O Zdrowie Millennium",
                "addr:street": "Kościuszki",
                "addr:housenumber": "13",
                "addr:city": "Trzcińsko-Zdrój",
                "addr:postcode": "74-510",
                "amenity": "pharmacy"
            },
            "geometry": {
                "type": "Point",
                "coordinates": [
                    14.60694272511494,
                    52.9656578571924
                ]
            }
        },
        {
            "type": "Feature",
            "properties": {
                "ref:csioz": 1166043,
                "name": "Apotheke Punkt Eskulap",
                "addr:housenumber": "50",
                "addr:postcode": "74-520",
                "amenity": "pharmacy",
                "addr:place": "Osinów Dolny"
            },
            "geometry": {
                "type": "Point",
                "coordinates": [
                    14.128517891069938,
                    52.84373906222418
                ]
            }
        },
        {
            "type": "Feature",
            "properties": {
                "ref:csioz": 1168082,
                "name": "Przyjazna",
                "addr:street": "Tadeusza Kościuszki",
                "addr:housenumber": "4",
                "addr:city": "Cedynia",
                "addr:postcode": "74-520",
                "amenity": "pharmacy"
            },
            "geometry": {
                "type": "Point",
                "coordinates": [
                    14.203060156086842,
                    52.876966026990075
                ]
            }
        },
        {
            "type": "Feature",
            "properties": {
                "ref:csioz": 1168404,
                "name": "Bławatek",
                "addr:street": "Kamienna",
                "addr:housenumber": "2",
                "addr:city": "Mieszkowice",
                "addr:postcode": "74-505",
                "amenity": "pharmacy"
            },
            "geometry": {
                "type": "Point",
                "coordinates": [
                    14.493541526628295,
                    52.78390062602942
                ]
            }
        },
        {
            "type": "Feature",
            "properties": {
                "ref:csioz": 1168485,
                "name": "Doz Apteka. Dbam O Zdrowie. Pod Miłorzębem",
                "addr:street": "Staromiejska",
                "addr:housenumber": "14A",
                "addr:city": "Cedynia",
                "addr:postcode": "74-520",
                "amenity": "pharmacy"
            },
            "geometry": {
                "type": "Point",
                "coordinates": [
                    14.203735570136928,
                    52.87903877339622
                ]
            }
        },
        {
            "type": "Feature",
            "properties": {
                "ref:csioz": 1179774,
                "name": "Apotheke Corax",
                "addr:housenumber": "36A",
                "addr:postcode": "74-520",
                "amenity": "pharmacy",
                "addr:place": "Osinów Dolny"
            },
            "geometry": {
                "type": "Point",
                "coordinates": [
                    14.141761651862941,
                    52.84992347579092
                ]
            }
        },
        {
            "type": "Feature",
            "properties": {
                "ref:csioz": 1202838,
                "name": "Lavenda",
                "addr:street": "Tadeusza Kościuszki",
                "addr:housenumber": "15",
                "addr:city": "Moryń",
                "addr:postcode": "74-503",
                "amenity": "pharmacy"
            },
            "geometry": {
                "type": "Point",
                "coordinates": [
                    14.397672239798892,
                    52.856515218923874
                ]
            }
        },
        {
            "type": "Feature",
            "properties": {
                "ref:csioz": 1212801,
                "name": "Weronika",
                "addr:housenumber": "43a",
                "addr:postcode": "74-506",
                "amenity": "pharmacy",
                "addr:place": "Krajnik Dolny"
            },
            "geometry": {
                "type": "Point",
                "coordinates": [
                    14.315829763234118,
                    53.03178724714206
                ]
            }
        },
        {
            "type": "Feature",
            "properties": {
                "ref:csioz": 1219400,
                "name": "Apotheke Ginko",
                "addr:housenumber": "4D",
                "addr:postcode": "74-520",
                "amenity": "pharmacy",
                "addr:place": "Osinów Dolny"
            },
            "geometry": {
                "type": "Point",
                "coordinates": [
                    14.145489692357476,
                    52.85208427139125
                ]
            }
        },
        {
            "type": "Feature",
            "properties": {
                "ref:csioz": 1151593,
                "name": "\"Apteka Cef@Rm 36,6 \"",
                "addr:street": "Chojnicka",
                "addr:housenumber": "1",
                "addr:city": "Trzcińsko-Zdrój",
                "addr:postcode": "74-225",
                "amenity": "pharmacy"
            },
            "geometry": {
                "type": "Point",
                "coordinates": [
                    14.607035726294203,
                    52.96465121671272
                ]
            }
        },
        {
            "type": "Feature",
            "properties": {
                "ref:csioz": 1166228,
                "name": "Nova",
                "addr:street": "Księcia Józefa Poniatowskiego",
                "addr:housenumber": "9a",
                "addr:city": "Mieszkowice",
                "addr:postcode": "74-505",
                "amenity": "pharmacy"
            },
            "geometry": {
                "type": "Point",
                "coordinates": [
                    14.490816290512848,
                    52.78743890465086
                ]
            }
        },
        {
            "type": "Feature",
            "properties": {
                "ref:csioz": 1166654,
                "name": "Rodzinna",
                "addr:street": "Piastów",
                "addr:housenumber": "8",
                "addr:city": "Chojna",
                "addr:postcode": "74-500",
                "amenity": "pharmacy"
            },
            "geometry": {
                "type": "Point",
                "coordinates": [
                    14.436802220136453,
                    52.95987433027766
                ]
            }
        },
        {
            "type": "Feature",
            "properties": {
                "ref:csioz": 1168537,
                "name": "Weronika I",
                "addr:street": "Klasztorna",
                "addr:housenumber": "21",
                "addr:city": "Chojna",
                "addr:postcode": "74-500",
                "amenity": "pharmacy"
            },
            "geometry": {
                "type": "Point",
                "coordinates": [
                    14.433596693386074,
                    52.963579281602215
                ]
            }
        },
        {
            "type": "Feature",
            "properties": {
                "ref:csioz": 1168568,
                "name": "Corax",
                "addr:street": "Władysława Jagiełły",
                "addr:housenumber": "22",
                "addr:city": "Chojna",
                "addr:postcode": "74-500",
                "amenity": "pharmacy"
            },
            "geometry": {
                "type": "Point",
                "coordinates": [
                    14.428837167909672,
                    52.96375582233353
                ]
            }
        },
        {
            "type": "Feature",
            "properties": {
                "ref:csioz": 1169246,
                "name": "Stodoła",
                "addr:street": "Grunwaldzka",
                "addr:housenumber": "15",
                "addr:city": "Widuchowa",
                "addr:postcode": "74-120",
                "amenity": "pharmacy"
            },
            "geometry": {
                "type": "Point",
                "coordinates": [
                    14.39148869947162,
                    53.12668796131068
                ]
            }
        },
        {
            "type": "Feature",
            "properties": {
                "ref:csioz": 1191660,
                "name": "Doz Apteka.Dbam O Zdrowie.Medica",
                "addr:street": "Grunwaldzka",
                "addr:housenumber": "1",
                "addr:city": "Banie",
                "addr:postcode": "74-110",
                "amenity": "pharmacy"
            },
            "geometry": {
                "type": "Point",
                "coordinates": [
                    14.663306028696889,
                    53.10054756923913
                ]
            }
        },
        {
            "type": "Feature",
            "properties": {
                "ref:csioz": 1200184,
                "name": "Apteka Puls",
                "addr:street": "Klasztorna",
                "addr:housenumber": "1",
                "addr:city": "Chojna",
                "addr:postcode": "74-500",
                "amenity": "pharmacy"
            },
            "geometry": {
                "type": "Point",
                "coordinates": [
                    14.43085746298576,
                    52.96299233481156
                ]
            }
        },
        {
            "type": "Feature",
            "properties": {
                "ref:csioz": 1212520,
                "name": "Weronika",
                "addr:street": "Kościuszki",
                "addr:housenumber": "10",
                "addr:city": "Chojna",
                "addr:postcode": "74-500",
                "amenity": "pharmacy"
            },
            "geometry": {
                "type": "Point",
                "coordinates": [
                    14.435963177710118,
                    52.95953413314912
                ]
            }
        },
        {
            "type": "Feature",
            "properties": {
                "ref:csioz": 1222688,
                "name": "Przy Moście",
                "addr:housenumber": "50",
                "addr:postcode": "74-500",
                "amenity": "pharmacy",
                "addr:place": "Osinów Dolny"
            },
            "geometry": {
                "type": "Point",
                "coordinates": [
                    14.128517891069938,
                    52.84373906222418
                ]
            }
        },
        {
            "type": "Feature",
            "properties": {
                "ref:csioz": 1228714,
                "name": "\"Punkt Apteczny \"\"Nad Odrą\"\" Aleksandra Zawada\"",
                "addr:housenumber": "49a",
                "addr:postcode": "74-500",
                "amenity": "pharmacy",
                "addr:place": "Krajnik Dolny"
            },
            "geometry": {
                "type": "Point",
                "coordinates": [
                    14.316291798895216,
                    53.03204094605786
                ]
            }
        },
        {
            "type": "Feature",
            "properties": {
                "ref:csioz": 1126171,
                "name": "Apteka Puls W Galerii",
                "addr:street": "Flisacza",
                "addr:housenumber": "63",
                "addr:city": "Gryfino",
                "addr:postcode": "74-100",
                "amenity": "pharmacy"
            },
            "geometry": {
                "type": "Point",
                "coordinates": [
                    14.489613830558127,
                    53.26188029927373
                ]
            }
        },
        {
            "type": "Feature",
            "properties": {
                "ref:csioz": 1126306,
                "name": "Apteka Hipokrates",
                "addr:street": "Zygmunta Krasińskiego",
                "addr:housenumber": "89",
                "addr:city": "Gryfino",
                "addr:postcode": "74-100",
                "amenity": "pharmacy"
            },
            "geometry": {
                "type": "Point",
                "coordinates": [
                    14.4977858998258,
                    53.25443832962591
                ]
            }
        },
        {
            "type": "Feature",
            "properties": {
                "ref:csioz": 1152050,
                "name": "Dbam O Zdrowie",
                "addr:street": "11 Listopada",
                "addr:housenumber": "66-68",
                "addr:city": "Gryfino",
                "addr:postcode": "74-100",
                "amenity": "pharmacy"
            },
            "geometry": {
                "type": "Point",
                "coordinates": [
                    14.496566148184387,
                    53.25433230126182
                ]
            }
        },
        {
            "type": "Feature",
            "properties": {
                "ref:csioz": 1166723,
                "name": "Apteka Puls Muszkieter",
                "addr:street": "9 Maja",
                "addr:housenumber": "14",
                "addr:city": "Gryfino",
                "addr:postcode": "74-100",
                "amenity": "pharmacy"
            },
            "geometry": {
                "type": "Point",
                "coordinates": [
                    14.494808288792475,
                    53.252932081608186
                ]
            }
        },
        {
            "type": "Feature",
            "properties": {
                "ref:csioz": 1168322,
                "name": "Centrum Zdrowia",
                "addr:street": "Niepodległości",
                "addr:housenumber": "28",
                "addr:city": "Gryfino",
                "addr:postcode": "74-100",
                "amenity": "pharmacy"
            },
            "geometry": {
                "type": "Point",
                "coordinates": [
                    14.490054193539894,
                    53.25470726284483
                ]
            }
        },
        {
            "type": "Feature",
            "properties": {
                "ref:csioz": 1174703,
                "name": "Doz Apteka. Dbam O Zdrowie. Apteka Gryfińska",
                "addr:street": "Piastów",
                "addr:housenumber": "10a",
                "addr:city": "Gryfino",
                "addr:postcode": "74-100",
                "amenity": "pharmacy"
            },
            "geometry": {
                "type": "Point",
                "coordinates": [
                    14.486341651073595,
                    53.25230053313592
                ]
            }
        },
        {
            "type": "Feature",
            "properties": {
                "ref:csioz": 1138975,
                "addr:street": "Parkowa",
                "addr:housenumber": "5",
                "addr:city": "Gryfino",
                "addr:postcode": "74-100",
                "amenity": "pharmacy"
            },
            "geometry": {
                "type": "Point",
                "coordinates": [
                    14.491049510465091,
                    53.25491372886893
                ]
            }
        },
        {
            "type": "Feature",
            "properties": {
                "ref:csioz": 1151532,
                "name": "\"Apteka Cef@Rm 36,6\"",
                "addr:street": "Grunwaldzka",
                "addr:housenumber": "6",
                "addr:city": "Gryfino",
                "addr:postcode": "74-100",
                "amenity": "pharmacy"
            },
            "geometry": {
                "type": "Point",
                "coordinates": [
                    14.490448467193657,
                    53.25662096974276
                ]
            }
        },
        {
            "type": "Feature",
            "properties": {
                "ref:csioz": 1151916,
                "name": "Mediq Apteka Centrum",
                "addr:street": "Bolesława Chrobrego",
                "addr:housenumber": "30",
                "addr:city": "Gryfino",
                "addr:postcode": "74-100",
                "amenity": "pharmacy"
            },
            "geometry": {
                "type": "Point",
                "coordinates": [
                    14.488679153105215,
                    53.25328461694321
                ]
            }
        },
        {
            "type": "Feature",
            "properties": {
                "ref:csioz": 1167415,
                "name": "Dbam O Zdrowie",
                "addr:street": "11 Listopada",
                "addr:housenumber": "16f",
                "addr:city": "Gryfino",
                "addr:postcode": "74-100",
                "amenity": "pharmacy"
            },
            "geometry": {
                "type": "Point",
                "coordinates": [
                    14.495569025599503,
                    53.25438015651659
                ]
            }
        },
        {
            "type": "Feature",
            "properties": {
                "ref:csioz": 1169307,
                "name": "Karotka",
                "addr:street": "Szarych Mnichów",
                "addr:housenumber": "7",
                "addr:city": "Kołbacz",
                "addr:postcode": "74-106",
                "amenity": "pharmacy"
            },
            "geometry": {
                "type": "Point",
                "coordinates": [
                    14.817547300075276,
                    53.30050275981709
                ]
            }
        },
        {
            "type": "Feature",
            "properties": {
                "ref:csioz": 1223895,
                "name": "Khallomed Apteka Bazz Khallo",
                "addr:housenumber": "74",
                "addr:postcode": "74-105",
                "amenity": "pharmacy",
                "addr:place": "Nowe Czarnowo"
            },
            "geometry": {
                "type": "Point",
                "coordinates": [
                    14.470451959562078,
                    53.208745694734965
                ]
            }
        }
    ]
}