{
    "type": "FeatureCollection",
    "name": "JPT_KOD_JE_1864",
    "features": [
        {
            "type": "Feature",
            "properties": {
                "ref:csioz": 1137568,
                "addr:street": "Dekutowskiego",
                "addr:housenumber": "20",
                "addr:city": "Tarnobrzeg",
                "addr:postcode": "39-400",
                "amenity": "pharmacy",
                "dispensing": "yes"
            },
            "geometry": {
                "type": "Point",
                "coordinates": [
                    21.676919720206236,
                    50.57182957126538
                ]
            }
        },
        {
            "type": "Feature",
            "properties": {
                "ref:csioz": 1144085,
                "name": "Na Sokolej",
                "addr:street": "1 Maja",
                "addr:housenumber": "1",
                "addr:city": "Tarnobrzeg",
                "addr:postcode": "39-400",
                "amenity": "pharmacy",
                "dispensing": "yes"
            },
            "geometry": {
                "type": "Point",
                "coordinates": [
                    21.666048583819272,
                    50.57178777002188
                ]
            }
        },
        {
            "type": "Feature",
            "properties": {
                "ref:csioz": 1144099,
                "name": "Na Serbinowie",
                "addr:street": "M. Dąbrowskiej",
                "addr:housenumber": "23",
                "addr:city": "Tarnobrzeg",
                "addr:postcode": "39-400",
                "amenity": "pharmacy",
                "dispensing": "yes"
            },
            "geometry": {
                "type": "Point",
                "coordinates": [
                    21.68581136476449,
                    50.574671468181535
                ]
            }
        },
        {
            "type": "Feature",
            "properties": {
                "ref:csioz": 1144103,
                "name": "Nova",
                "addr:street": "Adama Mickiewicza",
                "addr:housenumber": "4",
                "addr:city": "Tarnobrzeg",
                "addr:postcode": "39-400",
                "amenity": "pharmacy",
                "dispensing": "yes"
            },
            "geometry": {
                "type": "Point",
                "coordinates": [
                    21.67102895316365,
                    50.572311739147224
                ]
            }
        },
        {
            "type": "Feature",
            "properties": {
                "ref:csioz": 1144116,
                "name": "Pod Aniołem",
                "addr:street": "Adama Mickiewicza",
                "addr:housenumber": "34D",
                "addr:city": "Tarnobrzeg",
                "addr:postcode": "39-400",
                "amenity": "pharmacy",
                "dispensing": "yes"
            },
            "geometry": {
                "type": "Point",
                "coordinates": [
                    21.669453753566614,
                    50.567939971707276
                ]
            }
        },
        {
            "type": "Feature",
            "properties": {
                "ref:csioz": 1144127,
                "name": "Familijna",
                "addr:street": "Adama Mickiewicza",
                "addr:housenumber": "34e",
                "addr:city": "Tarnobrzeg",
                "addr:postcode": "39-400",
                "amenity": "pharmacy",
                "dispensing": "yes"
            },
            "geometry": {
                "type": "Point",
                "coordinates": [
                    21.66942100052242,
                    50.567880014186905
                ]
            }
        },
        {
            "type": "Feature",
            "properties": {
                "ref:csioz": 1144150,
                "name": "\"Apteka Cef@Rm 36,6\"",
                "addr:street": "Henryka Sienkiewicza",
                "addr:housenumber": "38",
                "addr:city": "Tarnobrzeg",
                "addr:postcode": "39-400",
                "amenity": "pharmacy",
                "dispensing": "yes"
            },
            "geometry": {
                "type": "Point",
                "coordinates": [
                    21.682448981679592,
                    50.57220798603188
                ]
            }
        },
        {
            "type": "Feature",
            "properties": {
                "ref:csioz": 1144169,
                "name": "Dbam O Zdrowie",
                "addr:street": "Henryka Sienkiewicza",
                "addr:housenumber": "48",
                "addr:city": "Tarnobrzeg",
                "addr:postcode": "39-400",
                "amenity": "pharmacy",
                "dispensing": "yes"
            },
            "geometry": {
                "type": "Point",
                "coordinates": [
                    21.686470692996345,
                    50.57063135285787
                ]
            }
        },
        {
            "type": "Feature",
            "properties": {
                "ref:csioz": 1144175,
                "addr:street": "Henryka Sienkiewicza",
                "addr:housenumber": "67",
                "addr:city": "Tarnobrzeg",
                "addr:postcode": "39-400",
                "amenity": "pharmacy",
                "dispensing": "yes"
            },
            "geometry": {
                "type": "Point",
                "coordinates": [
                    21.684639698624512,
                    50.57228485257569
                ]
            }
        },
        {
            "type": "Feature",
            "properties": {
                "ref:csioz": 1144188,
                "addr:street": "Targowa",
                "addr:housenumber": "6B",
                "addr:city": "Tarnobrzeg",
                "addr:postcode": "39-400",
                "amenity": "pharmacy",
                "dispensing": "yes"
            },
            "geometry": {
                "type": "Point",
                "coordinates": [
                    21.67296765642807,
                    50.57113989642492
                ]
            }
        },
        {
            "type": "Feature",
            "properties": {
                "ref:csioz": 1144191,
                "name": "Nova",
                "addr:street": "Aleja Warszawska",
                "addr:housenumber": "378",
                "addr:city": "Tarnobrzeg",
                "addr:postcode": "39-400",
                "amenity": "pharmacy",
                "dispensing": "yes"
            },
            "geometry": {
                "type": "Point",
                "coordinates": [
                    21.759200940829167,
                    50.64512291571749
                ]
            }
        },
        {
            "type": "Feature",
            "properties": {
                "ref:csioz": 1144223,
                "name": "Apteka Codzienna",
                "addr:street": "Zwierzyniecka",
                "addr:housenumber": "18",
                "addr:city": "Tarnobrzeg",
                "addr:postcode": "39-400",
                "amenity": "pharmacy",
                "dispensing": "yes"
            },
            "geometry": {
                "type": "Point",
                "coordinates": [
                    21.690500881024978,
                    50.57734015565449
                ]
            }
        },
        {
            "type": "Feature",
            "properties": {
                "ref:csioz": 1144209,
                "name": "Dr.Max",
                "addr:street": "Stanisława Wyspiańskiego",
                "addr:housenumber": "25",
                "addr:city": "Tarnobrzeg",
                "addr:postcode": "39-400",
                "amenity": "pharmacy",
                "dispensing": "yes"
            },
            "geometry": {
                "type": "Point",
                "coordinates": [
                    21.67696836400104,
                    50.5694611323772
                ]
            }
        },
        {
            "type": "Feature",
            "properties": {
                "ref:csioz": 1166336,
                "name": "Słoneczna",
                "addr:street": "Stanisława Moniuszki",
                "addr:housenumber": "1",
                "addr:city": "Tarnobrzeg",
                "addr:postcode": "39-400",
                "amenity": "pharmacy",
                "dispensing": "yes"
            },
            "geometry": {
                "type": "Point",
                "coordinates": [
                    21.670053881786835,
                    50.57007362431067
                ]
            }
        },
        {
            "type": "Feature",
            "properties": {
                "ref:csioz": 1175558,
                "name": "Apteka Rodzinna",
                "addr:street": "Strefowa",
                "addr:housenumber": "2",
                "addr:city": "Tarnobrzeg",
                "addr:postcode": "39-400",
                "amenity": "pharmacy",
                "dispensing": "yes"
            },
            "geometry": {
                "type": "Point",
                "coordinates": [
                    21.623443816779517,
                    50.52245111608242
                ]
            }
        },
        {
            "type": "Feature",
            "properties": {
                "ref:csioz": 1211418,
                "name": "Hebeapteka",
                "addr:street": "Eugeniusza Kwiatkowskiego",
                "addr:housenumber": "8",
                "addr:city": "Tarnobrzeg",
                "addr:postcode": "39-400",
                "amenity": "pharmacy",
                "dispensing": "yes"
            },
            "geometry": {
                "type": "Point",
                "coordinates": [
                    21.692365440751814,
                    50.57343228101973
                ]
            }
        },
        {
            "type": "Feature",
            "properties": {
                "ref:csioz": 1136618,
                "addr:street": "Borek",
                "addr:housenumber": "13",
                "addr:city": "Tarnobrzeg",
                "addr:postcode": "39-400",
                "amenity": "pharmacy",
                "dispensing": "yes"
            },
            "geometry": {
                "type": "Point",
                "coordinates": [
                    21.669297995332418,
                    50.56537519139724
                ]
            }
        },
        {
            "type": "Feature",
            "properties": {
                "ref:csioz": 1136639,
                "addr:street": "Sienkiewicza",
                "addr:housenumber": "64",
                "addr:city": "Tarnobrzeg",
                "addr:postcode": "39-400",
                "amenity": "pharmacy",
                "dispensing": "yes"
            },
            "geometry": {
                "type": "Point",
                "coordinates": [
                    21.689281710604526,
                    50.57118581695928
                ]
            }
        },
        {
            "type": "Feature",
            "properties": {
                "ref:csioz": 1136647,
                "addr:street": "Sienkiewicza",
                "addr:housenumber": "64",
                "addr:city": "Tarnobrzeg",
                "addr:postcode": "39-400",
                "amenity": "pharmacy",
                "dispensing": "yes"
            },
            "geometry": {
                "type": "Point",
                "coordinates": [
                    21.689281710604526,
                    50.571155816959276
                ]
            }
        },
        {
            "type": "Feature",
            "properties": {
                "ref:csioz": 1136844,
                "addr:street": "Konstytucji 3 Maja",
                "addr:housenumber": "11",
                "addr:city": "Tarnobrzeg",
                "addr:postcode": "39-400",
                "amenity": "pharmacy",
                "dispensing": "yes"
            },
            "geometry": {
                "type": "Point",
                "coordinates": [
                    21.68464811229905,
                    50.57893300676147
                ]
            }
        },
        {
            "type": "Feature",
            "properties": {
                "ref:csioz": 1138346,
                "name": "Apteka Szpitalna",
                "addr:street": "Szpitalna",
                "addr:housenumber": "1",
                "addr:city": "Tarnobrzeg",
                "addr:postcode": "39-400",
                "amenity": "pharmacy",
                "dispensing": "yes"
            },
            "geometry": {
                "type": "Point",
                "coordinates": [
                    21.670499285546022,
                    50.56687255279425
                ]
            }
        },
        {
            "type": "Feature",
            "properties": {
                "ref:csioz": 1169913,
                "name": "Hebeapteka",
                "addr:street": "Mikołaja Kopernika",
                "addr:housenumber": "15",
                "addr:city": "Tarnobrzeg",
                "addr:postcode": "39-400",
                "amenity": "pharmacy",
                "dispensing": "yes"
            },
            "geometry": {
                "type": "Point",
                "coordinates": [
                    21.68578261502128,
                    50.56876288873054
                ]
            }
        },
        {
            "type": "Feature",
            "properties": {
                "ref:csioz": 1182386,
                "name": "Apteka Pod Tapimą",
                "addr:street": "Ludwika Waryńskiego",
                "addr:housenumber": "1",
                "addr:city": "Tarnobrzeg",
                "addr:postcode": "39-400",
                "amenity": "pharmacy",
                "dispensing": "yes"
            },
            "geometry": {
                "type": "Point",
                "coordinates": [
                    21.664851000011577,
                    50.56966900001337
                ]
            }
        },
        {
            "type": "Feature",
            "properties": {
                "ref:csioz": 1202001,
                "name": "Apteka Nova",
                "addr:street": "Henryka Sienkiewicza",
                "addr:housenumber": "4",
                "addr:city": "Tarnobrzeg",
                "addr:postcode": "39-400",
                "amenity": "pharmacy",
                "dispensing": "yes"
            },
            "geometry": {
                "type": "Point",
                "coordinates": [
                    21.67417582779122,
                    50.57431748075602
                ]
            }
        },
        {
            "type": "Feature",
            "properties": {
                "ref:csioz": 1210160,
                "name": "Apteka Gemini",
                "addr:street": "Targowa",
                "addr:housenumber": "2",
                "addr:city": "Tarnobrzeg",
                "addr:postcode": "39-400",
                "amenity": "pharmacy",
                "dispensing": "yes"
            },
            "geometry": {
                "type": "Point",
                "coordinates": [
                    21.67312757257916,
                    50.572445544196874
                ]
            }
        },
        {
            "type": "Feature",
            "properties": {
                "ref:csioz": 1218093,
                "name": "Apteka Nova",
                "addr:street": "Aleja Warszawska",
                "addr:housenumber": "5",
                "addr:city": "Tarnobrzeg",
                "addr:postcode": "39-400",
                "amenity": "pharmacy",
                "dispensing": "yes"
            },
            "geometry": {
                "type": "Point",
                "coordinates": [
                    21.691619995177348,
                    50.58889302925036
                ]
            }
        },
        {
            "type": "Feature",
            "properties": {
                "ref:csioz": 1202809,
                "name": "Apteka Gemini",
                "addr:street": "Adama Mickiewicza",
                "addr:housenumber": "40",
                "addr:city": "Tarnobrzeg",
                "addr:postcode": "39-400",
                "amenity": "pharmacy",
                "dispensing": "yes"
            },
            "geometry": {
                "type": "Point",
                "coordinates": [
                    21.667279814533547,
                    50.565575364845955
                ]
            }
        }
    ]
}