{
    "type": "FeatureCollection",
    "name": "JPT_KOD_JE_0462",
    "features": [
        {
            "type": "Feature",
            "properties": {
                "ref:csioz": 1102649,
                "name": "Słoneczna",
                "addr:street": "Legionów",
                "addr:housenumber": "81",
                "addr:city": "Grudziądz",
                "addr:postcode": "86-300",
                "amenity": "pharmacy"
            },
            "geometry": {
                "type": "Point",
                "coordinates": [
                    18.7752299999999,
                    53.5012620000179
                ]
            }
        },
        {
            "type": "Feature",
            "properties": {
                "ref:csioz": 1102658,
                "addr:street": "Sportowców",
                "addr:housenumber": "1",
                "addr:city": "Grudziądz",
                "addr:postcode": "86-300",
                "amenity": "pharmacy"
            },
            "geometry": {
                "type": "Point",
                "coordinates": [
                    18.727274999999885,
                    53.43107000001779
                ]
            }
        },
        {
            "type": "Feature",
            "properties": {
                "ref:csioz": 1102674,
                "name": "\"'Na Lotnisku'\"",
                "addr:street": "Ikara",
                "addr:housenumber": "4",
                "addr:city": "Grudziądz",
                "addr:postcode": "86-300",
                "amenity": "pharmacy"
            },
            "geometry": {
                "type": "Point",
                "coordinates": [
                    18.76968011569302,
                    53.464638951963586
                ]
            }
        },
        {
            "type": "Feature",
            "properties": {
                "ref:csioz": 1102696,
                "addr:street": "Kosynierów Gdyńskich",
                "addr:housenumber": "3",
                "addr:city": "Grudziądz",
                "addr:postcode": "86-300",
                "amenity": "pharmacy"
            },
            "geometry": {
                "type": "Point",
                "coordinates": [
                    18.751544046968796,
                    53.49417490925238
                ]
            }
        },
        {
            "type": "Feature",
            "properties": {
                "ref:csioz": 1102706,
                "name": "Cito",
                "addr:street": "gen. Sikorskiego",
                "addr:housenumber": "18",
                "addr:city": "Grudziądz",
                "addr:postcode": "86-300",
                "amenity": "pharmacy"
            },
            "geometry": {
                "type": "Point",
                "coordinates": [
                    18.75575646269834,
                    53.494625506427546
                ]
            }
        },
        {
            "type": "Feature",
            "properties": {
                "ref:csioz": 1102711,
                "name": "Mediq Apteka Corda",
                "addr:street": "Józefa Włodka",
                "addr:housenumber": "11",
                "addr:city": "Grudziądz",
                "addr:postcode": "86-300",
                "amenity": "pharmacy"
            },
            "geometry": {
                "type": "Point",
                "coordinates": [
                    18.75147681074883,
                    53.484959191273425
                ]
            }
        },
        {
            "type": "Feature",
            "properties": {
                "ref:csioz": 1120764,
                "name": "Dr Zdrowie",
                "addr:street": "Chełmińska",
                "addr:housenumber": "4",
                "addr:city": "Grudziądz",
                "addr:postcode": "86-300",
                "amenity": "pharmacy"
            },
            "geometry": {
                "type": "Point",
                "coordinates": [
                    18.74820480996065,
                    53.48463250026092
                ]
            }
        },
        {
            "type": "Feature",
            "properties": {
                "ref:csioz": 1169959,
                "name": "\" Niepubliczny Specjalistyczny Zakład Opieki Zdrowotnej \"\"Oko-Med\"\" M.T.\"",
                "addr:street": "Mickiewicza",
                "addr:housenumber": "47",
                "addr:city": "Grudziądz",
                "addr:postcode": "86-300",
                "amenity": "pharmacy"
            },
            "geometry": {
                "type": "Point",
                "coordinates": [
                    18.756551253930674,
                    53.49026783552676
                ]
            }
        },
        {
            "type": "Feature",
            "properties": {
                "ref:csioz": 1186382,
                "name": "Centrum",
                "addr:street": "Toruńska",
                "addr:housenumber": "2/4",
                "addr:city": "Grudziądz",
                "addr:postcode": "86-300",
                "amenity": "pharmacy"
            },
            "geometry": {
                "type": "Point",
                "coordinates": [
                    18.7508039999999,
                    53.488593000017886
                ]
            }
        },
        {
            "type": "Feature",
            "properties": {
                "ref:csioz": 1193398,
                "name": "Dom Leków",
                "addr:street": "marsz. Józefa Piłsudskiego",
                "addr:housenumber": "10",
                "addr:city": "Grudziądz",
                "addr:postcode": "86-300",
                "amenity": "pharmacy"
            },
            "geometry": {
                "type": "Point",
                "coordinates": [
                    18.757263651666555,
                    53.488872200055845
                ]
            }
        },
        {
            "type": "Feature",
            "properties": {
                "ref:csioz": 1200070,
                "name": "Farmacja24",
                "addr:street": "Poniatowskiego",
                "addr:housenumber": "15",
                "addr:city": "Grudziądz",
                "addr:postcode": "86-300",
                "amenity": "pharmacy"
            },
            "geometry": {
                "type": "Point",
                "coordinates": [
                    18.775357857556436,
                    53.50223359274483
                ]
            }
        },
        {
            "type": "Feature",
            "properties": {
                "ref:csioz": 1215339,
                "name": "\"Apteka 'Rodzinna Na Drodze Pomorskiej'\"",
                "addr:street": "Pomorska",
                "addr:housenumber": "18",
                "addr:city": "Grudziądz",
                "addr:postcode": "86-300",
                "amenity": "pharmacy"
            },
            "geometry": {
                "type": "Point",
                "coordinates": [
                    18.72559643140411,
                    53.430282427916126
                ]
            }
        },
        {
            "type": "Feature",
            "properties": {
                "ref:csioz": 1099088,
                "name": "Apteka Dbam O Zdrowie",
                "addr:street": "J. Wybickiego",
                "addr:housenumber": "30",
                "addr:city": "Grudziądz",
                "addr:postcode": "86-300",
                "amenity": "pharmacy"
            },
            "geometry": {
                "type": "Point",
                "coordinates": [
                    18.754041939587843,
                    53.49563045570231
                ]
            }
        },
        {
            "type": "Feature",
            "properties": {
                "ref:csioz": 1100487,
                "name": "Alba",
                "addr:street": "Legionów",
                "addr:housenumber": "37",
                "addr:city": "Grudziądz",
                "addr:postcode": "86-300",
                "amenity": "pharmacy"
            },
            "geometry": {
                "type": "Point",
                "coordinates": [
                    18.763260766233202,
                    53.49827601351147
                ]
            }
        },
        {
            "type": "Feature",
            "properties": {
                "ref:csioz": 1102580,
                "name": "Dr.Max",
                "addr:street": "Południowa",
                "addr:housenumber": "8",
                "addr:city": "Grudziądz",
                "addr:postcode": "86-300",
                "amenity": "pharmacy"
            },
            "geometry": {
                "type": "Point",
                "coordinates": [
                    18.730322113142545,
                    53.45341144278183
                ]
            }
        },
        {
            "type": "Feature",
            "properties": {
                "ref:csioz": 1102601,
                "name": "Victoria",
                "addr:street": "Czarnieckiego",
                "addr:housenumber": "15",
                "addr:city": "Grudziądz",
                "addr:postcode": "86-300",
                "amenity": "pharmacy"
            },
            "geometry": {
                "type": "Point",
                "coordinates": [
                    18.752325999999893,
                    53.47684300001787
                ]
            }
        },
        {
            "type": "Feature",
            "properties": {
                "ref:csioz": 1102765,
                "name": "Herba Nowa",
                "addr:street": "Ludwika Waryńskiego",
                "addr:housenumber": "6",
                "addr:city": "Grudziądz",
                "addr:postcode": "86-300",
                "amenity": "pharmacy"
            },
            "geometry": {
                "type": "Point",
                "coordinates": [
                    18.76482219329758,
                    53.48923023880009
                ]
            }
        },
        {
            "type": "Feature",
            "properties": {
                "ref:csioz": 1102787,
                "name": "Rodzinna",
                "addr:street": "Śniadeckich",
                "addr:housenumber": "26",
                "addr:city": "Grudziądz",
                "addr:postcode": "86-300",
                "amenity": "pharmacy"
            },
            "geometry": {
                "type": "Point",
                "coordinates": [
                    18.727694561035133,
                    53.46057479452143
                ]
            }
        },
        {
            "type": "Feature",
            "properties": {
                "ref:csioz": 1102804,
                "name": "Apteka Rodzinna Na Mastalerza",
                "addr:street": "Kazimierza Mastalerza",
                "addr:housenumber": "5",
                "addr:city": "Grudziądz",
                "addr:postcode": "86-300",
                "amenity": "pharmacy"
            },
            "geometry": {
                "type": "Point",
                "coordinates": [
                    18.720580999999882,
                    53.45301000001783
                ]
            }
        },
        {
            "type": "Feature",
            "properties": {
                "ref:csioz": 1103405,
                "name": "Dr.Max",
                "addr:street": "Konarskiego",
                "addr:housenumber": "45",
                "addr:city": "Grudziądz",
                "addr:postcode": "86-300",
                "amenity": "pharmacy"
            },
            "geometry": {
                "type": "Point",
                "coordinates": [
                    18.75574241688355,
                    53.46957588837126
                ]
            }
        },
        {
            "type": "Feature",
            "properties": {
                "ref:csioz": 1103426,
                "name": "Dr. Max",
                "addr:street": "Mickiewicza",
                "addr:housenumber": "47",
                "addr:city": "Grudziądz",
                "addr:postcode": "86-300",
                "amenity": "pharmacy"
            },
            "geometry": {
                "type": "Point",
                "coordinates": [
                    18.756551253930674,
                    53.49026783552676
                ]
            }
        },
        {
            "type": "Feature",
            "properties": {
                "ref:csioz": 1103736,
                "name": "Klasztorna",
                "addr:street": "Szkolna",
                "addr:housenumber": "6",
                "addr:city": "Grudziądz",
                "addr:postcode": "86-300",
                "amenity": "pharmacy"
            },
            "geometry": {
                "type": "Point",
                "coordinates": [
                    18.748291135708374,
                    53.490967007343386
                ]
            }
        },
        {
            "type": "Feature",
            "properties": {
                "ref:csioz": 1115696,
                "name": "Herba",
                "addr:street": "Rapackiego",
                "addr:housenumber": "19",
                "addr:city": "Grudziądz",
                "addr:postcode": "86-300",
                "amenity": "pharmacy"
            },
            "geometry": {
                "type": "Point",
                "coordinates": [
                    18.760881374591108,
                    53.48599885866258
                ]
            }
        },
        {
            "type": "Feature",
            "properties": {
                "ref:csioz": 1153465,
                "name": "Apteka Szpitalna Regionalnego Szpitala Specjalistycznego Im. Dr Władysława Biegańskiego W Grudziądzu",
                "addr:street": "dr. Ludwika Rydygiera",
                "addr:housenumber": "15",
                "addr:city": "Grudziądz",
                "addr:postcode": "86-300",
                "amenity": "pharmacy"
            },
            "geometry": {
                "type": "Point",
                "coordinates": [
                    18.785754999999913,
                    53.45299500001782
                ]
            }
        },
        {
            "type": "Feature",
            "properties": {
                "ref:csioz": 1173935,
                "name": "\"'Centrum Zdrowia'\"",
                "addr:street": "gen. Józefa Kustronia",
                "addr:housenumber": "20",
                "addr:city": "Grudziądz",
                "addr:postcode": "86-311",
                "amenity": "pharmacy"
            },
            "geometry": {
                "type": "Point",
                "coordinates": [
                    18.77575084073274,
                    53.464961921754366
                ]
            }
        },
        {
            "type": "Feature",
            "properties": {
                "ref:csioz": 1183678,
                "name": "\"'Rodzinna Na Łęgi'\"",
                "addr:street": "ks. dr. Władysława Łęgi",
                "addr:housenumber": "12",
                "addr:city": "Grudziądz",
                "addr:postcode": "86-300",
                "amenity": "pharmacy"
            },
            "geometry": {
                "type": "Point",
                "coordinates": [
                    18.716064984089652,
                    53.45506562654393
                ]
            }
        },
        {
            "type": "Feature",
            "properties": {
                "ref:csioz": 1194983,
                "name": "Apteka Społeczna Na Marcinkowskiego Grupa Nowa Farmacja",
                "addr:street": "Marcinkowskiego",
                "addr:housenumber": "2",
                "addr:city": "Grudziądz",
                "addr:postcode": "86-300",
                "amenity": "pharmacy"
            },
            "geometry": {
                "type": "Point",
                "coordinates": [
                    18.749314783144886,
                    53.486629427386056
                ]
            }
        },
        {
            "type": "Feature",
            "properties": {
                "ref:csioz": 1195659,
                "name": "Apteka Pharma-Land",
                "addr:street": "J. Wybickiego",
                "addr:housenumber": "24/26",
                "addr:city": "Grudziądz",
                "addr:postcode": "86-300",
                "amenity": "pharmacy"
            },
            "geometry": {
                "type": "Point",
                "coordinates": [
                    18.753441999999893,
                    53.49537400001789
                ]
            }
        },
        {
            "type": "Feature",
            "properties": {
                "ref:csioz": 1199685,
                "name": "Dom Leków",
                "addr:street": "Legionów",
                "addr:housenumber": "57",
                "addr:city": "Grudziądz",
                "addr:postcode": "86-300",
                "amenity": "pharmacy"
            },
            "geometry": {
                "type": "Point",
                "coordinates": [
                    18.767668999999902,
                    53.49951800001789
                ]
            }
        },
        {
            "type": "Feature",
            "properties": {
                "ref:csioz": 1200024,
                "name": "Farmacja 24",
                "addr:street": "Roty Grudziądzkiej",
                "addr:housenumber": "6",
                "addr:city": "Grudziądz",
                "addr:postcode": "86-300",
                "amenity": "pharmacy"
            },
            "geometry": {
                "type": "Point",
                "coordinates": [
                    18.764709335544637,
                    53.500428158194204
                ]
            }
        },
        {
            "type": "Feature",
            "properties": {
                "ref:csioz": 1200035,
                "name": "Farmacja24",
                "addr:street": "Legionów",
                "addr:housenumber": "21",
                "addr:city": "Grudziądz",
                "addr:postcode": "86-300",
                "amenity": "pharmacy"
            },
            "geometry": {
                "type": "Point",
                "coordinates": [
                    18.7598329999999,
                    53.49751800001789
                ]
            }
        },
        {
            "type": "Feature",
            "properties": {
                "ref:csioz": 1200056,
                "name": "Farmacja24",
                "addr:street": "Chełmińska",
                "addr:housenumber": "68",
                "addr:city": "Grudziądz",
                "addr:postcode": "86-300",
                "amenity": "pharmacy"
            },
            "geometry": {
                "type": "Point",
                "coordinates": [
                    18.74628417861196,
                    53.47794183747251
                ]
            }
        },
        {
            "type": "Feature",
            "properties": {
                "ref:csioz": 1201893,
                "name": "Miła",
                "addr:street": "Kalinkowa",
                "addr:housenumber": "82",
                "addr:city": "Grudziądz",
                "addr:postcode": "86-300",
                "amenity": "pharmacy"
            },
            "geometry": {
                "type": "Point",
                "coordinates": [
                    18.739016507525594,
                    53.47395659035739
                ]
            }
        },
        {
            "type": "Feature",
            "properties": {
                "ref:csioz": 1215079,
                "name": "\"Apteka 'Rodzinna Na Lotnisku'\"",
                "addr:street": "Dywizjonu 303",
                "addr:housenumber": "5",
                "addr:city": "Grudziądz",
                "addr:postcode": "86-300",
                "amenity": "pharmacy"
            },
            "geometry": {
                "type": "Point",
                "coordinates": [
                    18.77681517813981,
                    53.46221461726374
                ]
            }
        },
        {
            "type": "Feature",
            "properties": {
                "ref:csioz": 1218538,
                "name": "\"Apteka \"\"Rodzinna Na Poniatowskiego\"\"\"",
                "addr:street": "Poniatowskiego",
                "addr:housenumber": "30",
                "addr:city": "Grudziądz",
                "addr:postcode": "86-300",
                "amenity": "pharmacy"
            },
            "geometry": {
                "type": "Point",
                "coordinates": [
                    18.77578967066267,
                    53.502464876924904
                ]
            }
        },
        {
            "type": "Feature",
            "properties": {
                "ref:csioz": 1204329,
                "name": "\"Apteka \"\"Rodzinna W Przychodni Na Strzemięcinie\"\"\"",
                "addr:street": "Janusza Korczaka",
                "addr:housenumber": "25",
                "addr:city": "Grudziądz",
                "addr:postcode": "86-300",
                "amenity": "pharmacy"
            },
            "geometry": {
                "type": "Point",
                "coordinates": [
                    18.73042329982615,
                    53.463440147256314
                ]
            }
        }
    ]
}