{
    "type": "FeatureCollection",
    "name": "JPT_KOD_JE_1210",
    "features": [
        {
            "type": "Feature",
            "properties": {
                "ref:csioz": 1080147,
                "name": "Aspirynka",
                "addr:street": "św. Floriana",
                "addr:housenumber": "6",
                "addr:city": "Tęgoborze",
                "addr:postcode": "33-312",
                "amenity": "pharmacy",
                "dispensing": "yes"
            },
            "geometry": {
                "type": "Point",
                "coordinates": [
                    20.642816231455154,
                    49.70953762966434
                ]
            }
        },
        {
            "type": "Feature",
            "properties": {
                "ref:csioz": 1080152,
                "name": "Apteka Nowa",
                "addr:housenumber": "377",
                "addr:postcode": "33-314",
                "amenity": "pharmacy",
                "addr:place": "Łososina Dolna",
                "dispensing": "yes"
            },
            "geometry": {
                "type": "Point",
                "coordinates": [
                    20.624151739854305,
                    49.742484355604184
                ]
            }
        },
        {
            "type": "Feature",
            "properties": {
                "ref:csioz": 1080208,
                "addr:housenumber": "406",
                "addr:postcode": "33-316",
                "amenity": "pharmacy",
                "addr:place": "Rożnów",
                "dispensing": "yes"
            },
            "geometry": {
                "type": "Point",
                "coordinates": [
                    20.694937127363602,
                    49.7705050360546
                ]
            }
        },
        {
            "type": "Feature",
            "properties": {
                "ref:csioz": 1192492,
                "name": "Apteka Gródek",
                "addr:housenumber": "54",
                "addr:postcode": "33-318",
                "amenity": "pharmacy",
                "addr:place": "Gródek nad Dunajcem",
                "dispensing": "yes"
            },
            "geometry": {
                "type": "Point",
                "coordinates": [
                    20.733296000001754,
                    49.74825700001216
                ]
            }
        },
        {
            "type": "Feature",
            "properties": {
                "ref:csioz": 1080219,
                "name": "Paracelsus",
                "addr:housenumber": "338",
                "addr:postcode": "33-322",
                "amenity": "pharmacy",
                "addr:place": "Korzenna",
                "dispensing": "yes"
            },
            "geometry": {
                "type": "Point",
                "coordinates": [
                    20.844154130953363,
                    49.67930687880468
                ]
            }
        },
        {
            "type": "Feature",
            "properties": {
                "ref:csioz": 1080224,
                "name": "Apteka Bena-Cor",
                "addr:housenumber": "425",
                "addr:postcode": "33-322",
                "amenity": "pharmacy",
                "addr:place": "Korzenna",
                "dispensing": "yes"
            },
            "geometry": {
                "type": "Point",
                "coordinates": [
                    20.841536651323935,
                    49.683770537728506
                ]
            }
        },
        {
            "type": "Feature",
            "properties": {
                "ref:csioz": 1080235,
                "name": "Pod Justem",
                "addr:street": "Sądecka",
                "addr:housenumber": "154",
                "addr:city": "Tęgoborze",
                "addr:postcode": "33-312",
                "amenity": "pharmacy",
                "dispensing": "yes"
            },
            "geometry": {
                "type": "Point",
                "coordinates": [
                    20.64413464800381,
                    49.70933786417846
                ]
            }
        },
        {
            "type": "Feature",
            "properties": {
                "ref:csioz": 1080628,
                "addr:housenumber": "585",
                "addr:postcode": "33-331",
                "amenity": "pharmacy",
                "addr:place": "Stróże",
                "dispensing": "yes"
            },
            "geometry": {
                "type": "Point",
                "coordinates": [
                    20.96267221471166,
                    49.671987099787565
                ]
            }
        },
        {
            "type": "Feature",
            "properties": {
                "ref:csioz": 1114533,
                "name": "Dział Farmacji Szpitalnej",
                "addr:housenumber": "622",
                "addr:postcode": "33-331",
                "amenity": "pharmacy",
                "addr:place": "Stróże",
                "dispensing": "yes"
            },
            "geometry": {
                "type": "Point",
                "coordinates": [
                    20.980147746857373,
                    49.65329075993467
                ]
            }
        },
        {
            "type": "Feature",
            "properties": {
                "ref:csioz": 1176619,
                "addr:street": "Rynek",
                "addr:housenumber": "7",
                "addr:city": "Grybów",
                "addr:postcode": "33-330",
                "amenity": "pharmacy",
                "dispensing": "yes"
            },
            "geometry": {
                "type": "Point",
                "coordinates": [
                    20.940730118337576,
                    49.627309087502965
                ]
            }
        },
        {
            "type": "Feature",
            "properties": {
                "ref:csioz": 1181515,
                "name": "Apteka Paszyńska Mgr Farm. Lucyna Baranowska",
                "addr:housenumber": "527",
                "addr:postcode": "33-326",
                "amenity": "pharmacy",
                "addr:place": "Paszyn",
                "dispensing": "yes"
            },
            "geometry": {
                "type": "Point",
                "coordinates": [
                    20.781214674211718,
                    49.620848453528204
                ]
            }
        },
        {
            "type": "Feature",
            "properties": {
                "ref:csioz": 1183292,
                "name": "Nova-Pharm Punkt Apteczny",
                "addr:housenumber": "45",
                "addr:postcode": "33-311",
                "amenity": "pharmacy",
                "addr:place": "Wielogłowy",
                "dispensing": "yes"
            },
            "geometry": {
                "type": "Point",
                "coordinates": [
                    20.6906369614173,
                    49.671955052415306
                ]
            }
        },
        {
            "type": "Feature",
            "properties": {
                "ref:csioz": 1206010,
                "name": "Apteka Pod Justem",
                "addr:housenumber": "377",
                "addr:postcode": "33-314",
                "amenity": "pharmacy",
                "addr:place": "Łososina Dolna",
                "dispensing": "yes"
            },
            "geometry": {
                "type": "Point",
                "coordinates": [
                    20.624151739854305,
                    49.742484355604184
                ]
            }
        },
        {
            "type": "Feature",
            "properties": {
                "ref:csioz": 1208796,
                "name": "Arnika",
                "addr:housenumber": "228",
                "addr:postcode": "33-322",
                "amenity": "pharmacy",
                "addr:place": "Siedlce",
                "dispensing": "yes"
            },
            "geometry": {
                "type": "Point",
                "coordinates": [
                    20.774968620562184,
                    49.68675804742204
                ]
            }
        },
        {
            "type": "Feature",
            "properties": {
                "ref:csioz": 1227502,
                "name": "Punkt Apteczny Adma",
                "addr:housenumber": "181",
                "addr:postcode": "33-325",
                "amenity": "pharmacy",
                "addr:place": "Krużlowa Wyżna",
                "dispensing": "yes"
            },
            "geometry": {
                "type": "Point",
                "coordinates": [
                    20.88341175725125,
                    49.65050135964487
                ]
            }
        },
        {
            "type": "Feature",
            "properties": {
                "ref:csioz": 1227920,
                "name": "Dział Farmacji Szpitalnej",
                "addr:street": "Rynek",
                "addr:housenumber": "10",
                "addr:city": "Grybów",
                "addr:postcode": "33-330",
                "amenity": "pharmacy",
                "dispensing": "yes"
            },
            "geometry": {
                "type": "Point",
                "coordinates": [
                    20.945910166745293,
                    49.6250572491767
                ]
            }
        },
        {
            "type": "Feature",
            "properties": {
                "ref:csioz": 1080365,
                "name": "Apteka Łabowska",
                "addr:housenumber": "253",
                "addr:postcode": "33-336",
                "amenity": "pharmacy",
                "addr:place": "Łabowa",
                "dispensing": "yes"
            },
            "geometry": {
                "type": "Point",
                "coordinates": [
                    20.856556439413044,
                    49.52664717789504
                ]
            }
        },
        {
            "type": "Feature",
            "properties": {
                "ref:csioz": 1080096,
                "addr:housenumber": "265",
                "addr:postcode": "33-343",
                "amenity": "pharmacy",
                "addr:place": "Rytro",
                "dispensing": "yes"
            },
            "geometry": {
                "type": "Point",
                "coordinates": [
                    20.678435279506402,
                    49.49004278183773
                ]
            }
        },
        {
            "type": "Feature",
            "properties": {
                "ref:csioz": 1080404,
                "addr:street": "Marszałka Józefa Piłsudskiego",
                "addr:housenumber": "7",
                "addr:city": "Krynica-Zdrój",
                "addr:postcode": "33-380",
                "amenity": "pharmacy",
                "dispensing": "yes"
            },
            "geometry": {
                "type": "Point",
                "coordinates": [
                    20.95815517903241,
                    49.42232269112431
                ]
            }
        },
        {
            "type": "Feature",
            "properties": {
                "ref:csioz": 1080448,
                "addr:housenumber": "258",
                "addr:postcode": "33-389",
                "amenity": "pharmacy",
                "addr:place": "Jazowsko",
                "dispensing": "yes"
            },
            "geometry": {
                "type": "Point",
                "coordinates": [
                    20.515457967807844,
                    49.529083288350975
                ]
            }
        },
        {
            "type": "Feature",
            "properties": {
                "ref:csioz": 1080436,
                "name": "\"Apteka \"\"Pilula\"\" S.C.\"",
                "addr:housenumber": "426",
                "addr:postcode": "33-386",
                "amenity": "pharmacy",
                "addr:place": "Podegrodzie",
                "dispensing": "yes"
            },
            "geometry": {
                "type": "Point",
                "coordinates": [
                    20.591159463843717,
                    49.57551206779871
                ]
            }
        },
        {
            "type": "Feature",
            "properties": {
                "ref:csioz": 1080615,
                "name": "\"Apteka Cef@Rm 36,6\"",
                "addr:street": "Rynek",
                "addr:housenumber": "15",
                "addr:city": "Stary Sącz",
                "addr:postcode": "33-340",
                "amenity": "pharmacy",
                "dispensing": "yes"
            },
            "geometry": {
                "type": "Point",
                "coordinates": [
                    20.634949386741788,
                    49.56374516409996
                ]
            }
        },
        {
            "type": "Feature",
            "properties": {
                "ref:csioz": 1110717,
                "name": "Dr. Max",
                "addr:street": "Grunwaldzka",
                "addr:housenumber": "7",
                "addr:city": "Grybów",
                "addr:postcode": "33-330",
                "amenity": "pharmacy",
                "dispensing": "yes"
            },
            "geometry": {
                "type": "Point",
                "coordinates": [
                    20.950253512340336,
                    49.624721010771026
                ]
            }
        },
        {
            "type": "Feature",
            "properties": {
                "ref:csioz": 1117430,
                "name": "Apteka W Chełmcu",
                "addr:street": "Limanowska",
                "addr:housenumber": "35",
                "addr:city": "Chełmiec",
                "addr:postcode": "33-395",
                "amenity": "pharmacy",
                "dispensing": "yes"
            },
            "geometry": {
                "type": "Point",
                "coordinates": [
                    20.65870193802915,
                    49.63020710579144
                ]
            }
        },
        {
            "type": "Feature",
            "properties": {
                "ref:csioz": 1149954,
                "name": "Apteka Szpitalna",
                "addr:street": "Józefa Ignacego Kraszewskiego",
                "addr:housenumber": "142",
                "addr:city": "Krynica-Zdrój",
                "addr:postcode": "33-380",
                "amenity": "pharmacy",
                "dispensing": "yes"
            },
            "geometry": {
                "type": "Point",
                "coordinates": [
                    20.9544351980872,
                    49.40087581250461
                ]
            }
        },
        {
            "type": "Feature",
            "properties": {
                "ref:csioz": 1180721,
                "name": "\"'Punkt Apteczny W Tyliczu'\"",
                "addr:street": "Rynek",
                "addr:housenumber": "16",
                "addr:city": "Tylicz",
                "addr:postcode": "33-383",
                "amenity": "pharmacy",
                "dispensing": "yes"
            },
            "geometry": {
                "type": "Point",
                "coordinates": [
                    21.023516475486048,
                    49.397798222014984
                ]
            }
        },
        {
            "type": "Feature",
            "properties": {
                "ref:csioz": 1200432,
                "name": "Apteka Nova-Pharm",
                "addr:street": "Podegrodzka",
                "addr:housenumber": "4",
                "addr:city": "Stary Sącz",
                "addr:postcode": "33-340",
                "amenity": "pharmacy",
                "dispensing": "yes"
            },
            "geometry": {
                "type": "Point",
                "coordinates": [
                    20.626717277089416,
                    49.567236616604525
                ]
            }
        },
        {
            "type": "Feature",
            "properties": {
                "ref:csioz": 1204393,
                "addr:street": "Rynek",
                "addr:housenumber": "6",
                "addr:city": "Muszyna",
                "addr:postcode": "33-370",
                "amenity": "pharmacy",
                "dispensing": "yes"
            },
            "geometry": {
                "type": "Point",
                "coordinates": [
                    20.897128000002613,
                    49.355857000011625
                ]
            }
        },
        {
            "type": "Feature",
            "properties": {
                "ref:csioz": 1210644,
                "name": "Dział Farmacji Szpitalnej",
                "addr:street": "Piękna",
                "addr:housenumber": "17",
                "addr:city": "Krynica-Zdrój",
                "addr:postcode": "33-380",
                "amenity": "pharmacy",
                "dispensing": "yes"
            },
            "geometry": {
                "type": "Point",
                "coordinates": [
                    20.95696414608428,
                    49.421962269624665
                ]
            }
        },
        {
            "type": "Feature",
            "properties": {
                "ref:csioz": 1080742,
                "addr:housenumber": "396",
                "addr:postcode": "33-386",
                "amenity": "pharmacy",
                "addr:place": "Brzezna",
                "dispensing": "yes"
            },
            "geometry": {
                "type": "Point",
                "coordinates": [
                    20.615615229202817,
                    49.602253125613714
                ]
            }
        },
        {
            "type": "Feature",
            "properties": {
                "ref:csioz": 1080105,
                "name": "Zdrojowa",
                "addr:street": "Ludwika Rzeszutka",
                "addr:housenumber": "6",
                "addr:city": "Piwniczna-Zdrój",
                "addr:postcode": "33-350",
                "amenity": "pharmacy",
                "dispensing": "yes"
            },
            "geometry": {
                "type": "Point",
                "coordinates": [
                    20.71528622009045,
                    49.44154368893486
                ]
            }
        },
        {
            "type": "Feature",
            "properties": {
                "ref:csioz": 1080270,
                "addr:street": "Grunwaldzka",
                "addr:housenumber": "6",
                "addr:city": "Grybów",
                "addr:postcode": "33-330",
                "amenity": "pharmacy",
                "dispensing": "yes"
            },
            "geometry": {
                "type": "Point",
                "coordinates": [
                    20.94925337552676,
                    49.62433540303542
                ]
            }
        },
        {
            "type": "Feature",
            "properties": {
                "ref:csioz": 1080311,
                "name": "Dr. Max",
                "addr:housenumber": "270",
                "addr:postcode": "38-330",
                "amenity": "pharmacy",
                "addr:place": "Stróże",
                "dispensing": "yes"
            },
            "geometry": {
                "type": "Point",
                "coordinates": [
                    20.9759545783085,
                    49.65364834939672
                ]
            }
        },
        {
            "type": "Feature",
            "properties": {
                "ref:csioz": 1080322,
                "name": "Dr. Max",
                "addr:housenumber": "633",
                "addr:postcode": "33-333",
                "amenity": "pharmacy",
                "addr:place": "Ptaszkowa",
                "dispensing": "yes"
            },
            "geometry": {
                "type": "Point",
                "coordinates": [
                    20.87700830310498,
                    49.60305353445917
                ]
            }
        },
        {
            "type": "Feature",
            "properties": {
                "ref:csioz": 1080333,
                "addr:housenumber": "254",
                "addr:postcode": "33-332",
                "amenity": "pharmacy",
                "addr:place": "Florynka",
                "dispensing": "yes"
            },
            "geometry": {
                "type": "Point",
                "coordinates": [
                    20.984605593650386,
                    49.553423754725614
                ]
            }
        },
        {
            "type": "Feature",
            "properties": {
                "ref:csioz": 1080354,
                "addr:street": "Krynicka",
                "addr:housenumber": "1",
                "addr:city": "Nawojowa",
                "addr:postcode": "33-335",
                "amenity": "pharmacy",
                "dispensing": "yes"
            },
            "geometry": {
                "type": "Point",
                "coordinates": [
                    20.74512457479084,
                    49.56052226566908
                ]
            }
        },
        {
            "type": "Feature",
            "properties": {
                "ref:csioz": 1080281,
                "name": "Prima",
                "addr:street": "Grunwaldzka",
                "addr:housenumber": "36",
                "addr:city": "Grybów",
                "addr:postcode": "33-330",
                "amenity": "pharmacy",
                "dispensing": "yes"
            },
            "geometry": {
                "type": "Point",
                "coordinates": [
                    20.95296479688283,
                    49.62520779788997
                ]
            }
        },
        {
            "type": "Feature",
            "properties": {
                "ref:csioz": 1080653,
                "name": "Apteka Dbam O Zdrowie",
                "addr:street": "Królowej Jadwigi",
                "addr:housenumber": "1",
                "addr:city": "Stary Sącz",
                "addr:postcode": "33-340",
                "amenity": "pharmacy",
                "dispensing": "yes"
            },
            "geometry": {
                "type": "Point",
                "coordinates": [
                    20.63467623306573,
                    49.56316832368484
                ]
            }
        },
        {
            "type": "Feature",
            "properties": {
                "ref:csioz": 1080703,
                "name": "\"Apteka Św. Jana S.C. D.Jabłońska, M.Gębka\"",
                "addr:street": "Zefirka",
                "addr:housenumber": "4",
                "addr:city": "Muszyna",
                "addr:postcode": "33-370",
                "amenity": "pharmacy",
                "dispensing": "yes"
            },
            "geometry": {
                "type": "Point",
                "coordinates": [
                    20.89550139704144,
                    49.35328596131199
                ]
            }
        },
        {
            "type": "Feature",
            "properties": {
                "ref:csioz": 1080716,
                "name": "\"Apteka Św. Jana S.C. D.Jabłońska, M.Gębka\"",
                "addr:street": "Czarny Potok",
                "addr:housenumber": "8A",
                "addr:city": "Krynica-Zdrój",
                "addr:postcode": "33-380",
                "amenity": "pharmacy",
                "dispensing": "yes"
            },
            "geometry": {
                "type": "Point",
                "coordinates": [
                    20.950405588067003,
                    49.4008718747978
                ]
            }
        },
        {
            "type": "Feature",
            "properties": {
                "ref:csioz": 1080727,
                "name": "Apteka Krynicka",
                "addr:street": "Józefa Ignacego Kraszewskiego",
                "addr:housenumber": "1",
                "addr:city": "Krynica-Zdrój",
                "addr:postcode": "33-380",
                "amenity": "pharmacy",
                "dispensing": "yes"
            },
            "geometry": {
                "type": "Point",
                "coordinates": [
                    20.956419378286647,
                    49.41438755493943
                ]
            }
        },
        {
            "type": "Feature",
            "properties": {
                "ref:csioz": 1080734,
                "name": "Apteka Dbam O Zdrowie",
                "addr:street": "Aleja inż. Nowotarskiego",
                "addr:housenumber": "7",
                "addr:city": "Krynica-Zdrój",
                "addr:postcode": "33-380",
                "amenity": "pharmacy",
                "dispensing": "yes"
            },
            "geometry": {
                "type": "Point",
                "coordinates": [
                    20.95783130975623,
                    49.41881043300253
                ]
            }
        },
        {
            "type": "Feature",
            "properties": {
                "ref:csioz": 1081372,
                "name": "Dział Farmacji Szpitalnej",
                "addr:street": "Romana Nitribitta",
                "addr:housenumber": "4",
                "addr:city": "Krynica-Zdrój",
                "addr:postcode": "33-380",
                "amenity": "pharmacy",
                "dispensing": "yes"
            },
            "geometry": {
                "type": "Point",
                "coordinates": [
                    20.95931335592801,
                    49.4242555599046
                ]
            }
        },
        {
            "type": "Feature",
            "properties": {
                "ref:csioz": 1081426,
                "addr:housenumber": "422",
                "addr:postcode": "33-342",
                "amenity": "pharmacy",
                "addr:place": "Barcice",
                "dispensing": "yes"
            },
            "geometry": {
                "type": "Point",
                "coordinates": [
                    20.65304483649476,
                    49.52427702912637
                ]
            }
        },
        {
            "type": "Feature",
            "properties": {
                "ref:csioz": 1113277,
                "name": "Zdrowe Ceny",
                "addr:street": "Grunwaldzka",
                "addr:housenumber": "9",
                "addr:city": "Grybów",
                "addr:postcode": "33-330",
                "amenity": "pharmacy",
                "dispensing": "yes"
            },
            "geometry": {
                "type": "Point",
                "coordinates": [
                    20.950509327535663,
                    49.62475887844437
                ]
            }
        },
        {
            "type": "Feature",
            "properties": {
                "ref:csioz": 1114506,
                "name": "Dział Farmacji Szpitalnej",
                "addr:street": "Marszałka Józefa Piłsudskiego",
                "addr:housenumber": "2",
                "addr:city": "Krynica-Zdrój",
                "addr:postcode": "33-380",
                "amenity": "pharmacy",
                "dispensing": "yes"
            },
            "geometry": {
                "type": "Point",
                "coordinates": [
                    20.96045372243517,
                    49.42194176399041
                ]
            }
        },
        {
            "type": "Feature",
            "properties": {
                "ref:csioz": 1119427,
                "addr:housenumber": "1",
                "addr:postcode": "33-390",
                "amenity": "pharmacy",
                "addr:place": "Łącko",
                "dispensing": "yes"
            },
            "geometry": {
                "type": "Point",
                "coordinates": [
                    20.4371056519269,
                    49.55631103682971
                ]
            }
        },
        {
            "type": "Feature",
            "properties": {
                "ref:csioz": 1117700,
                "name": "Pro Vitae",
                "addr:housenumber": "10",
                "addr:postcode": "33-394",
                "amenity": "pharmacy",
                "addr:place": "Chomranice",
                "dispensing": "yes"
            },
            "geometry": {
                "type": "Point",
                "coordinates": [
                    20.591979026418002,
                    49.67655528437264
                ]
            }
        },
        {
            "type": "Feature",
            "properties": {
                "ref:csioz": 1122339,
                "name": "Ew-Ko Ewa Buchalska-Konior Apteka Ryterska",
                "addr:housenumber": "541",
                "addr:postcode": "33-343",
                "amenity": "pharmacy",
                "addr:place": "Rytro",
                "dispensing": "yes"
            },
            "geometry": {
                "type": "Point",
                "coordinates": [
                    20.681753249351704,
                    49.48760674374942
                ]
            }
        },
        {
            "type": "Feature",
            "properties": {
                "ref:csioz": 1123124,
                "name": "Apteka Nova-Pharm",
                "addr:housenumber": "512",
                "addr:postcode": "33-334",
                "amenity": "pharmacy",
                "addr:place": "Kamionka Wielka",
                "dispensing": "yes"
            },
            "geometry": {
                "type": "Point",
                "coordinates": [
                    20.783207416318525,
                    49.57729536339649
                ]
            }
        },
        {
            "type": "Feature",
            "properties": {
                "ref:csioz": 1173131,
                "addr:housenumber": "140",
                "addr:postcode": "33-390",
                "amenity": "pharmacy",
                "addr:place": "Czarny Potok",
                "dispensing": "yes"
            },
            "geometry": {
                "type": "Point",
                "coordinates": [
                    20.482117945419105,
                    49.580595195819086
                ]
            }
        },
        {
            "type": "Feature",
            "properties": {
                "ref:csioz": 1173924,
                "name": "Dr. Max",
                "addr:street": "Józefa Ignacego Kraszewskiego",
                "addr:housenumber": "83",
                "addr:city": "Krynica-Zdrój",
                "addr:postcode": "33-380",
                "amenity": "pharmacy",
                "dispensing": "yes"
            },
            "geometry": {
                "type": "Point",
                "coordinates": [
                    20.953396349961736,
                    49.40542128278447
                ]
            }
        },
        {
            "type": "Feature",
            "properties": {
                "ref:csioz": 1185152,
                "name": "Apteka Nawojowska",
                "addr:street": "Ogrodowa",
                "addr:housenumber": "9",
                "addr:city": "Nawojowa",
                "addr:postcode": "33-335",
                "amenity": "pharmacy",
                "dispensing": "yes"
            },
            "geometry": {
                "type": "Point",
                "coordinates": [
                    20.745769691127865,
                    49.56187560614826
                ]
            }
        },
        {
            "type": "Feature",
            "properties": {
                "ref:csioz": 1187564,
                "name": "Ms Pharm Apteka Krynicka",
                "addr:street": "Józefa Ignacego Kraszewskiego",
                "addr:housenumber": "139",
                "addr:city": "Krynica-Zdrój",
                "addr:postcode": "33-380",
                "amenity": "pharmacy",
                "dispensing": "yes"
            },
            "geometry": {
                "type": "Point",
                "coordinates": [
                    20.953963731877938,
                    49.401640962002304
                ]
            }
        },
        {
            "type": "Feature",
            "properties": {
                "ref:csioz": 1189601,
                "name": "Apteka Kinga",
                "addr:street": "Kazimierza Wielkiego",
                "addr:housenumber": "1",
                "addr:city": "Stary Sącz",
                "addr:postcode": "33-340",
                "amenity": "pharmacy",
                "dispensing": "yes"
            },
            "geometry": {
                "type": "Point",
                "coordinates": [
                    20.63508278474696,
                    49.56304255706734
                ]
            }
        },
        {
            "type": "Feature",
            "properties": {
                "ref:csioz": 1192220,
                "name": "Dział Farmacji Szpitalnej",
                "addr:housenumber": "284",
                "addr:postcode": "33-335",
                "amenity": "pharmacy",
                "addr:place": "Łabowa",
                "dispensing": "yes"
            },
            "geometry": {
                "type": "Point",
                "coordinates": [
                    20.852697609514834,
                    49.52708548885062
                ]
            }
        },
        {
            "type": "Feature",
            "properties": {
                "ref:csioz": 1206490,
                "name": "20 Wojskowy Szpital Uzdrowiskowo-Rehabilitacyjny",
                "addr:street": "prof. Henryka Świdzińskiego",
                "addr:housenumber": "4",
                "addr:city": "Krynica-Zdrój",
                "addr:postcode": "33-380",
                "amenity": "pharmacy",
                "dispensing": "yes"
            },
            "geometry": {
                "type": "Point",
                "coordinates": [
                    20.96418398069431,
                    49.42317767065325
                ]
            }
        },
        {
            "type": "Feature",
            "properties": {
                "ref:csioz": 1209520,
                "name": "Nowa",
                "addr:housenumber": "210",
                "addr:postcode": "33-386",
                "amenity": "pharmacy",
                "addr:place": "Podegrodzie",
                "dispensing": "yes"
            },
            "geometry": {
                "type": "Point",
                "coordinates": [
                    20.59456698622686,
                    49.577887335525396
                ]
            }
        },
        {
            "type": "Feature",
            "properties": {
                "ref:csioz": 1213386,
                "name": "Apteka Galicja",
                "addr:street": "Rynek",
                "addr:housenumber": "20",
                "addr:city": "Stary Sącz",
                "addr:postcode": "33-340",
                "amenity": "pharmacy",
                "dispensing": "yes"
            },
            "geometry": {
                "type": "Point",
                "coordinates": [
                    20.635448964615243,
                    49.56422985415987
                ]
            }
        },
        {
            "type": "Feature",
            "properties": {
                "ref:csioz": 1214886,
                "addr:street": "Rynek",
                "addr:housenumber": "2",
                "addr:city": "Piwniczna-Zdrój",
                "addr:postcode": "33-350",
                "amenity": "pharmacy",
                "dispensing": "yes"
            },
            "geometry": {
                "type": "Point",
                "coordinates": [
                    20.7141625744183,
                    49.44016908459271
                ]
            }
        },
        {
            "type": "Feature",
            "properties": {
                "ref:csioz": 1217336,
                "name": "Dział Farmacji Szpitalnej",
                "addr:housenumber": "850",
                "addr:postcode": "33-333",
                "amenity": "pharmacy",
                "addr:place": "Ptaszkowa",
                "dispensing": "yes"
            },
            "geometry": {
                "type": "Point",
                "coordinates": [
                    20.869158563753384,
                    49.60178168184437
                ]
            }
        },
        {
            "type": "Feature",
            "properties": {
                "ref:csioz": 1219094,
                "name": "Apteka Krokus",
                "addr:housenumber": "843",
                "addr:postcode": "33-390",
                "amenity": "pharmacy",
                "addr:place": "Łącko",
                "dispensing": "yes"
            },
            "geometry": {
                "type": "Point",
                "coordinates": [
                    20.436863056494758,
                    49.55828452588229
                ]
            }
        },
        {
            "type": "Feature",
            "properties": {
                "ref:csioz": 1221004,
                "name": "Apteka Mojej Mamy",
                "addr:housenumber": "963",
                "addr:postcode": "33-390",
                "amenity": "pharmacy",
                "addr:place": "Łącko",
                "dispensing": "yes"
            },
            "geometry": {
                "type": "Point",
                "coordinates": [
                    20.452769184034363,
                    49.55208801642634
                ]
            }
        },
        {
            "type": "Feature",
            "properties": {
                "ref:csioz": 1223412,
                "name": "Dział Farmacji Szpitalnej",
                "addr:street": "Romana Nitribitta",
                "addr:housenumber": "4",
                "addr:city": "Krynica-Zdrój",
                "addr:postcode": "33-380",
                "amenity": "pharmacy",
                "dispensing": "yes"
            },
            "geometry": {
                "type": "Point",
                "coordinates": [
                    20.95931335592801,
                    49.4242555599046
                ]
            }
        },
        {
            "type": "Feature",
            "properties": {
                "ref:csioz": 1228958,
                "name": "Dział Farmacji Szpitalnej",
                "addr:street": "Władysława Reymonta",
                "addr:housenumber": "21",
                "addr:city": "Krynica-Zdrój",
                "addr:postcode": "33-380",
                "amenity": "pharmacy",
                "dispensing": "yes"
            },
            "geometry": {
                "type": "Point",
                "coordinates": [
                    20.95455121648346,
                    49.39704110451424
                ]
            }
        },
        {
            "type": "Feature",
            "properties": {
                "ref:csioz": 1229547,
                "name": "Punkt Apteczny Kinga",
                "addr:housenumber": "24",
                "addr:postcode": "33-388",
                "amenity": "pharmacy",
                "addr:place": "Gołkowice Dolne",
                "dispensing": "yes"
            },
            "geometry": {
                "type": "Point",
                "coordinates": [
                    20.579939523505786,
                    49.5450676707211
                ]
            }
        },
        {
            "type": "Feature",
            "properties": {
                "ref:csioz": 1230789,
                "name": "Łukasz Korpak „Apteka Sądecka”",
                "addr:housenumber": "645",
                "addr:postcode": "33-386",
                "amenity": "pharmacy",
                "addr:place": "Brzezna",
                "dispensing": "yes"
            },
            "geometry": {
                "type": "Point",
                "coordinates": [
                    20.629876652604704,
                    49.592053541985756
                ]
            }
        }
    ]
}