{
    "type": "FeatureCollection",
    "name": "JPT_KOD_JE_1804",
    "features": [
        {
            "type": "Feature",
            "properties": {
                "ref:csioz": 1151154,
                "addr:street": "Legionów",
                "addr:housenumber": "4a",
                "addr:city": "Radymno",
                "addr:postcode": "37-550",
                "amenity": "pharmacy",
                "dispensing": "yes"
            },
            "geometry": {
                "type": "Point",
                "coordinates": [
                    22.81951257640187,
                    49.95060957251829
                ]
            }
        },
        {
            "type": "Feature",
            "properties": {
                "ref:csioz": 1166357,
                "name": "Medika",
                "addr:street": "Legionów",
                "addr:housenumber": "1",
                "addr:city": "Radymno",
                "addr:postcode": "37-550",
                "amenity": "pharmacy",
                "dispensing": "yes"
            },
            "geometry": {
                "type": "Point",
                "coordinates": [
                    22.81966468276075,
                    49.95035576122375
                ]
            }
        },
        {
            "type": "Feature",
            "properties": {
                "ref:csioz": 1175596,
                "name": "Różana",
                "addr:street": "Rynek",
                "addr:housenumber": "11",
                "addr:city": "Radymno",
                "addr:postcode": "37-550",
                "amenity": "pharmacy",
                "dispensing": "yes"
            },
            "geometry": {
                "type": "Point",
                "coordinates": [
                    22.819210000075735,
                    49.951990000013296
                ]
            }
        },
        {
            "type": "Feature",
            "properties": {
                "ref:csioz": 1151165,
                "name": "Apteka Rodzinna",
                "addr:street": "Rynek",
                "addr:housenumber": "23",
                "addr:city": "Radymno",
                "addr:postcode": "37-550",
                "amenity": "pharmacy",
                "dispensing": "yes"
            },
            "geometry": {
                "type": "Point",
                "coordinates": [
                    22.8179826511522,
                    49.95125053290265
                ]
            }
        },
        {
            "type": "Feature",
            "properties": {
                "ref:csioz": 1165240,
                "addr:housenumber": "141",
                "addr:postcode": "37-544",
                "amenity": "pharmacy",
                "addr:place": "Zapałów",
                "dispensing": "yes"
            },
            "geometry": {
                "type": "Point",
                "coordinates": [
                    22.87991935406025,
                    50.09033019360145
                ]
            }
        },
        {
            "type": "Feature",
            "properties": {
                "ref:csioz": 1195195,
                "name": "Melisa",
                "addr:housenumber": "35A",
                "addr:postcode": "37-543",
                "amenity": "pharmacy",
                "addr:place": "Laszki",
                "dispensing": "yes"
            },
            "geometry": {
                "type": "Point",
                "coordinates": [
                    22.889565124099526,
                    50.02050296005101
                ]
            }
        },
        {
            "type": "Feature",
            "properties": {
                "ref:csioz": 1218857,
                "name": "Nasza Apteka",
                "addr:street": "Lwowska",
                "addr:housenumber": "9",
                "addr:city": "Radymno",
                "addr:postcode": "37-550",
                "amenity": "pharmacy",
                "dispensing": "yes"
            },
            "geometry": {
                "type": "Point",
                "coordinates": [
                    22.822889967090124,
                    49.94916459093057
                ]
            }
        },
        {
            "type": "Feature",
            "properties": {
                "ref:csioz": 1138314,
                "name": "\"Apteka Szpitalna \"\"Centrum Opieki Medycznej\"\"\"",
                "addr:street": "3-go Maja",
                "addr:housenumber": "70",
                "addr:city": "Jarosław",
                "addr:postcode": "37-500",
                "amenity": "pharmacy",
                "dispensing": "yes"
            },
            "geometry": {
                "type": "Point",
                "coordinates": [
                    22.693425716319606,
                    50.013555389137615
                ]
            }
        },
        {
            "type": "Feature",
            "properties": {
                "ref:csioz": 1143589,
                "name": "Remedium",
                "addr:street": "Ignacego Kraszewskiego",
                "addr:housenumber": "9",
                "addr:city": "Jarosław",
                "addr:postcode": "37-500",
                "amenity": "pharmacy",
                "dispensing": "yes"
            },
            "geometry": {
                "type": "Point",
                "coordinates": [
                    22.677092313339173,
                    50.01777542943213
                ]
            }
        },
        {
            "type": "Feature",
            "properties": {
                "ref:csioz": 1143609,
                "name": "Medex",
                "addr:street": "Ignacego Kraszewskiego",
                "addr:housenumber": "24a",
                "addr:city": "Jarosław",
                "addr:postcode": "37-500",
                "amenity": "pharmacy",
                "dispensing": "yes"
            },
            "geometry": {
                "type": "Point",
                "coordinates": [
                    22.67687749430248,
                    50.01964343569951
                ]
            }
        },
        {
            "type": "Feature",
            "properties": {
                "ref:csioz": 1151031,
                "name": "Optical",
                "addr:street": "Juliusza Słowackiego",
                "addr:housenumber": "17",
                "addr:city": "Jarosław",
                "addr:postcode": "37-500",
                "amenity": "pharmacy",
                "dispensing": "yes"
            },
            "geometry": {
                "type": "Point",
                "coordinates": [
                    22.67833187294267,
                    50.014386118760825
                ]
            }
        },
        {
            "type": "Feature",
            "properties": {
                "ref:csioz": 1151044,
                "addr:street": "Słowackiego",
                "addr:housenumber": "38",
                "addr:city": "Jarosław",
                "addr:postcode": "37-500",
                "amenity": "pharmacy",
                "dispensing": "yes"
            },
            "geometry": {
                "type": "Point",
                "coordinates": [
                    22.681203856044135,
                    50.01026474421909
                ]
            }
        },
        {
            "type": "Feature",
            "properties": {
                "ref:csioz": 1151053,
                "name": "Medex",
                "addr:street": "Romualda Traugutta",
                "addr:housenumber": "13",
                "addr:city": "Jarosław",
                "addr:postcode": "37-500",
                "amenity": "pharmacy",
                "dispensing": "yes"
            },
            "geometry": {
                "type": "Point",
                "coordinates": [
                    22.674361905644155,
                    50.007754598107454
                ]
            }
        },
        {
            "type": "Feature",
            "properties": {
                "ref:csioz": 1151089,
                "name": "Nova",
                "addr:street": "3 Maja",
                "addr:housenumber": "65",
                "addr:city": "Jarosław",
                "addr:postcode": "37-500",
                "amenity": "pharmacy",
                "dispensing": "yes"
            },
            "geometry": {
                "type": "Point",
                "coordinates": [
                    22.700389122534265,
                    50.00975234285847
                ]
            }
        },
        {
            "type": "Feature",
            "properties": {
                "ref:csioz": 1151090,
                "name": "\"'Dr.Max'\"",
                "addr:street": "Osiedle im. Wincentego Witosa",
                "addr:housenumber": "2",
                "addr:city": "Jarosław",
                "addr:postcode": "37-500",
                "amenity": "pharmacy",
                "dispensing": "yes"
            },
            "geometry": {
                "type": "Point",
                "coordinates": [
                    22.6666743956533,
                    50.02016808980867
                ]
            }
        },
        {
            "type": "Feature",
            "properties": {
                "ref:csioz": 1151106,
                "addr:housenumber": "235",
                "addr:postcode": "37-561",
                "amenity": "pharmacy",
                "addr:place": "Chłopice",
                "dispensing": "yes"
            },
            "geometry": {
                "type": "Point",
                "coordinates": [
                    22.674425215313903,
                    49.94796071716419
                ]
            }
        },
        {
            "type": "Feature",
            "properties": {
                "ref:csioz": 1151133,
                "addr:street": "Jana Pawła II",
                "addr:housenumber": "3",
                "addr:city": "Pruchnik",
                "addr:postcode": "37-560",
                "amenity": "pharmacy",
                "dispensing": "yes"
            },
            "geometry": {
                "type": "Point",
                "coordinates": [
                    22.51697016054248,
                    49.906801628592504
                ]
            }
        },
        {
            "type": "Feature",
            "properties": {
                "ref:csioz": 1151179,
                "addr:housenumber": "645",
                "addr:postcode": "37-562",
                "amenity": "pharmacy",
                "addr:place": "Rokietnica",
                "dispensing": "yes"
            },
            "geometry": {
                "type": "Point",
                "coordinates": [
                    22.640836744276218,
                    49.90108177478302
                ]
            }
        },
        {
            "type": "Feature",
            "properties": {
                "ref:csioz": 1165222,
                "name": "Danfarm",
                "addr:street": "Sportowa",
                "addr:housenumber": "7",
                "addr:city": "Szówsko",
                "addr:postcode": "37-522",
                "amenity": "pharmacy",
                "dispensing": "yes"
            },
            "geometry": {
                "type": "Point",
                "coordinates": [
                    22.707370844080657,
                    50.0450920966421
                ]
            }
        },
        {
            "type": "Feature",
            "properties": {
                "ref:csioz": 1183259,
                "name": "Apteka Lafarma",
                "addr:street": "Jaśminowa",
                "addr:housenumber": "2",
                "addr:city": "Wiązownica",
                "addr:postcode": "37-522",
                "amenity": "pharmacy",
                "dispensing": "yes"
            },
            "geometry": {
                "type": "Point",
                "coordinates": [
                    22.71552522570903,
                    50.077880225964
                ]
            }
        },
        {
            "type": "Feature",
            "properties": {
                "ref:csioz": 1211813,
                "name": "Medex",
                "addr:street": "3 Maja",
                "addr:housenumber": "64",
                "addr:city": "Jarosław",
                "addr:postcode": "37-500",
                "amenity": "pharmacy",
                "dispensing": "yes"
            },
            "geometry": {
                "type": "Point",
                "coordinates": [
                    22.69299426086516,
                    50.0137203419607
                ]
            }
        },
        {
            "type": "Feature",
            "properties": {
                "ref:csioz": 1143577,
                "name": "Dr.Max",
                "addr:street": "Ignacego Kraszewskiego",
                "addr:housenumber": "5",
                "addr:city": "Jarosław",
                "addr:postcode": "37-500",
                "amenity": "pharmacy",
                "dispensing": "yes"
            },
            "geometry": {
                "type": "Point",
                "coordinates": [
                    22.677203889461946,
                    50.01744429077108
                ]
            }
        },
        {
            "type": "Feature",
            "properties": {
                "ref:csioz": 1143491,
                "name": "Medex",
                "addr:street": "Grodzka",
                "addr:housenumber": "3",
                "addr:city": "Jarosław",
                "addr:postcode": "37-500",
                "amenity": "pharmacy",
                "dispensing": "yes"
            },
            "geometry": {
                "type": "Point",
                "coordinates": [
                    22.682928093592984,
                    50.017707479516815
                ]
            }
        },
        {
            "type": "Feature",
            "properties": {
                "ref:csioz": 1143502,
                "name": "Apteka Vademecum Blisko I Tanio!",
                "addr:street": "Grunwaldzka",
                "addr:housenumber": "1",
                "addr:city": "Jarosław",
                "addr:postcode": "37-500",
                "amenity": "pharmacy",
                "dispensing": "yes"
            },
            "geometry": {
                "type": "Point",
                "coordinates": [
                    22.680736220939576,
                    50.01673585208694
                ]
            }
        },
        {
            "type": "Feature",
            "properties": {
                "ref:csioz": 1143515,
                "addr:street": "Grunwaldzka",
                "addr:housenumber": "26",
                "addr:city": "Jarosław",
                "addr:postcode": "37-500",
                "amenity": "pharmacy",
                "dispensing": "yes"
            },
            "geometry": {
                "type": "Point",
                "coordinates": [
                    22.677941343534748,
                    50.016279189240706
                ]
            }
        },
        {
            "type": "Feature",
            "properties": {
                "ref:csioz": 1143531,
                "addr:street": "Osiedle Kombatantów",
                "addr:housenumber": "20",
                "addr:city": "Jarosław",
                "addr:postcode": "37-500",
                "amenity": "pharmacy",
                "dispensing": "yes"
            },
            "geometry": {
                "type": "Point",
                "coordinates": [
                    22.698578708836518,
                    50.01031657881528
                ]
            }
        },
        {
            "type": "Feature",
            "properties": {
                "ref:csioz": 1143553,
                "addr:street": "Tadeusza Kościuszki",
                "addr:housenumber": "25",
                "addr:city": "Jarosław",
                "addr:postcode": "37-500",
                "amenity": "pharmacy",
                "dispensing": "yes"
            },
            "geometry": {
                "type": "Point",
                "coordinates": [
                    22.672951654993298,
                    50.01846421219354
                ]
            }
        },
        {
            "type": "Feature",
            "properties": {
                "ref:csioz": 1143566,
                "name": "Medex",
                "addr:street": "Tadeusza Kościuszki",
                "addr:housenumber": "29a",
                "addr:city": "Jarosław",
                "addr:postcode": "37-500",
                "amenity": "pharmacy",
                "dispensing": "yes"
            },
            "geometry": {
                "type": "Point",
                "coordinates": [
                    22.66784691681483,
                    50.017536893371116
                ]
            }
        },
        {
            "type": "Feature",
            "properties": {
                "ref:csioz": 1150964,
                "addr:street": "Księdza Mieczysława Lisińskiego",
                "addr:housenumber": "10",
                "addr:city": "Jarosław",
                "addr:postcode": "37-500",
                "amenity": "pharmacy",
                "dispensing": "yes"
            },
            "geometry": {
                "type": "Point",
                "coordinates": [
                    22.683959000062366,
                    50.01556100001316
                ]
            }
        },
        {
            "type": "Feature",
            "properties": {
                "ref:csioz": 1150978,
                "name": "\"'Dr.Max'\"",
                "addr:street": "Osiedle 1000-lecia",
                "addr:housenumber": "12",
                "addr:city": "Jarosław",
                "addr:postcode": "37-500",
                "amenity": "pharmacy",
                "dispensing": "yes"
            },
            "geometry": {
                "type": "Point",
                "coordinates": [
                    22.695140404679947,
                    50.013371258174
                ]
            }
        },
        {
            "type": "Feature",
            "properties": {
                "ref:csioz": 1151015,
                "name": "Alexmed",
                "addr:street": "Lucjana Siemieńskiego",
                "addr:housenumber": "7",
                "addr:city": "Jarosław",
                "addr:postcode": "37-500",
                "amenity": "pharmacy",
                "dispensing": "yes"
            },
            "geometry": {
                "type": "Point",
                "coordinates": [
                    22.67277269824427,
                    50.009201279074674
                ]
            }
        },
        {
            "type": "Feature",
            "properties": {
                "ref:csioz": 1151187,
                "name": "Lawenda",
                "addr:housenumber": "201",
                "addr:postcode": "37-565",
                "amenity": "pharmacy",
                "addr:place": "Roźwienica",
                "dispensing": "yes"
            },
            "geometry": {
                "type": "Point",
                "coordinates": [
                    22.600351309456872,
                    49.95208980053695
                ]
            }
        },
        {
            "type": "Feature",
            "properties": {
                "ref:csioz": 1151198,
                "addr:street": "Św. Jana",
                "addr:housenumber": "20",
                "addr:city": "Wiązownica",
                "addr:postcode": "37-522",
                "amenity": "pharmacy",
                "dispensing": "yes"
            },
            "geometry": {
                "type": "Point",
                "coordinates": [
                    22.71368751439314,
                    50.078130932061924
                ]
            }
        },
        {
            "type": "Feature",
            "properties": {
                "ref:csioz": 1173908,
                "name": "Apteka Słoneczna",
                "addr:street": "Grunwaldzka",
                "addr:housenumber": "11",
                "addr:city": "Jarosław",
                "addr:postcode": "37-500",
                "amenity": "pharmacy",
                "dispensing": "yes"
            },
            "geometry": {
                "type": "Point",
                "coordinates": [
                    22.678470062252917,
                    50.01606980896153
                ]
            }
        },
        {
            "type": "Feature",
            "properties": {
                "ref:csioz": 1180449,
                "name": "Medex",
                "addr:street": "Słoneczna",
                "addr:housenumber": "2",
                "addr:city": "Pruchnik",
                "addr:postcode": "37-560",
                "amenity": "pharmacy",
                "dispensing": "yes"
            },
            "geometry": {
                "type": "Point",
                "coordinates": [
                    22.51163400004938,
                    49.907239000012815
                ]
            }
        },
        {
            "type": "Feature",
            "properties": {
                "ref:csioz": 1180981,
                "name": "Apteka Rodzinna",
                "addr:street": "Józefa Poniatowskiego",
                "addr:housenumber": "53",
                "addr:city": "Jarosław",
                "addr:postcode": "37-500",
                "amenity": "pharmacy",
                "dispensing": "yes"
            },
            "geometry": {
                "type": "Point",
                "coordinates": [
                    22.68016523473646,
                    50.01171596646734
                ]
            }
        },
        {
            "type": "Feature",
            "properties": {
                "ref:csioz": 1189291,
                "name": "Medex",
                "addr:street": "Pruchnicka",
                "addr:housenumber": "6A",
                "addr:city": "Jarosław",
                "addr:postcode": "37-500",
                "amenity": "pharmacy",
                "dispensing": "yes"
            },
            "geometry": {
                "type": "Point",
                "coordinates": [
                    22.675465697105448,
                    50.00891330117924
                ]
            }
        },
        {
            "type": "Feature",
            "properties": {
                "ref:csioz": 1194086,
                "name": "Specjalistyczny Psychiatryczny Zespół Opieki Zdrowotnej Im. Prof. Antoniego Kępińskiego W Jarosławiu",
                "addr:street": "Tadeusza Kościuszki",
                "addr:housenumber": "18",
                "addr:city": "Jarosław",
                "addr:postcode": "37-500",
                "amenity": "pharmacy",
                "dispensing": "yes"
            },
            "geometry": {
                "type": "Point",
                "coordinates": [
                    22.67329352959775,
                    50.018775349633465
                ]
            }
        },
        {
            "type": "Feature",
            "properties": {
                "ref:csioz": 1197794,
                "name": "Apteka Galicja",
                "addr:street": "Osiedle im. Waleriana Kalinki",
                "addr:housenumber": "2",
                "addr:city": "Jarosław",
                "addr:postcode": "37-500",
                "amenity": "pharmacy",
                "dispensing": "yes"
            },
            "geometry": {
                "type": "Point",
                "coordinates": [
                    22.689259588472243,
                    50.014598124259756
                ]
            }
        },
        {
            "type": "Feature",
            "properties": {
                "ref:csioz": 1207141,
                "addr:street": "Juliusza Słowackiego",
                "addr:housenumber": "29",
                "addr:city": "Jarosław",
                "addr:postcode": "37-500",
                "amenity": "pharmacy",
                "dispensing": "yes"
            },
            "geometry": {
                "type": "Point",
                "coordinates": [
                    22.677937181689884,
                    50.01232865500985
                ]
            }
        },
        {
            "type": "Feature",
            "properties": {
                "ref:csioz": 1216936,
                "name": "Nova",
                "addr:street": "3 Maja",
                "addr:housenumber": "47B",
                "addr:city": "Jarosław",
                "addr:postcode": "37-500",
                "amenity": "pharmacy",
                "dispensing": "yes"
            },
            "geometry": {
                "type": "Point",
                "coordinates": [
                    22.694110065811827,
                    50.013593538259975
                ]
            }
        },
        {
            "type": "Feature",
            "properties": {
                "ref:csioz": 1218275,
                "name": "Punkt Apteczny Medika",
                "addr:housenumber": "147",
                "addr:postcode": "37-554",
                "amenity": "pharmacy",
                "addr:place": "Łowce",
                "dispensing": "yes"
            },
            "geometry": {
                "type": "Point",
                "coordinates": [
                    22.73119003639591,
                    49.93980381138155
                ]
            }
        },
        {
            "type": "Feature",
            "properties": {
                "ref:csioz": 1220044,
                "name": "Apteka Lafarma",
                "addr:street": "Księdza Bronisława Markiewicza",
                "addr:housenumber": "11a",
                "addr:city": "Pruchnik",
                "addr:postcode": "37-560",
                "amenity": "pharmacy",
                "dispensing": "yes"
            },
            "geometry": {
                "type": "Point",
                "coordinates": [
                    22.512355554683836,
                    49.90481457666032
                ]
            }
        },
        {
            "type": "Feature",
            "properties": {
                "ref:csioz": 1228429,
                "name": "Kraina Leków",
                "addr:housenumber": "128C",
                "addr:postcode": "37-511",
                "amenity": "pharmacy",
                "addr:place": "Wólka Pełkińska",
                "dispensing": "yes"
            },
            "geometry": {
                "type": "Point",
                "coordinates": [
                    22.607570435830308,
                    50.09213233571544
                ]
            }
        },
        {
            "type": "Feature",
            "properties": {
                "ref:csioz": 1224971,
                "name": "\"Dział Farmacji Szpitalnej Nzoz \"\"Kolgmed\"\" Zakład Pielęgnacyjno-Opiekuńczy\"",
                "addr:street": "Sanowa",
                "addr:housenumber": "11",
                "addr:city": "Jarosław",
                "addr:postcode": "37-500",
                "amenity": "pharmacy",
                "dispensing": "yes"
            },
            "geometry": {
                "type": "Point",
                "coordinates": [
                    22.700775100419044,
                    50.02080597392719
                ]
            }
        },
        {
            "type": "Feature",
            "properties": {
                "ref:csioz": 1151002,
                "name": "Dr.Max",
                "addr:street": "Rynek",
                "addr:housenumber": "11",
                "addr:city": "Jarosław",
                "addr:postcode": "37-500",
                "amenity": "pharmacy",
                "dispensing": "yes"
            },
            "geometry": {
                "type": "Point",
                "coordinates": [
                    22.684669219647827,
                    50.018948992970024
                ]
            }
        }
    ]
}