{
    "type": "FeatureCollection",
    "name": "JPT_KOD_JE_1021",
    "features": [
        {
            "type": "Feature",
            "properties": {
                "ref:csioz": 1011733,
                "name": "Św. Antoniego",
                "addr:street": "Dworcowa",
                "addr:housenumber": "2A",
                "addr:city": "Rogów",
                "addr:postcode": "95-063",
                "amenity": "pharmacy",
                "dispensing": "yes"
            },
            "geometry": {
                "type": "Point",
                "coordinates": [
                    19.88525116647159,
                    51.81703885958917
                ]
            }
        },
        {
            "type": "Feature",
            "properties": {
                "ref:csioz": 1011804,
                "name": "Vitaminka",
                "addr:street": "Łowicka",
                "addr:housenumber": "17",
                "addr:city": "Jeżów",
                "addr:postcode": "95-047",
                "amenity": "pharmacy",
                "dispensing": "yes"
            },
            "geometry": {
                "type": "Point",
                "coordinates": [
                    19.96911487088658,
                    51.81452469667503
                ]
            }
        },
        {
            "type": "Feature",
            "properties": {
                "ref:csioz": 1013144,
                "name": "Melissa",
                "addr:street": "Wojska Polskiego",
                "addr:housenumber": "15",
                "addr:city": "Rogów",
                "addr:postcode": "95-063",
                "amenity": "pharmacy",
                "dispensing": "yes"
            },
            "geometry": {
                "type": "Point",
                "coordinates": [
                    19.89075743638594,
                    51.81612667372269
                ]
            }
        },
        {
            "type": "Feature",
            "properties": {
                "ref:csioz": 1025415,
                "name": "Apteka Św. Stanisława - Jeżów",
                "addr:street": "Piotrkowska",
                "addr:housenumber": "15",
                "addr:city": "Jeżów",
                "addr:postcode": "95-047",
                "amenity": "pharmacy",
                "dispensing": "yes"
            },
            "geometry": {
                "type": "Point",
                "coordinates": [
                    19.968925024607085,
                    51.81221445819024
                ]
            }
        },
        {
            "type": "Feature",
            "properties": {
                "ref:csioz": 1220460,
                "name": "Słoneczny Punkt Apteczny",
                "addr:housenumber": "14B",
                "addr:postcode": "95-061",
                "amenity": "pharmacy",
                "addr:place": "Kołacin",
                "dispensing": "yes"
            },
            "geometry": {
                "type": "Point",
                "coordinates": [
                    19.817118251190603,
                    51.860697343556566
                ]
            }
        },
        {
            "type": "Feature",
            "properties": {
                "ref:csioz": 1012429,
                "name": "Punkt Apteczny Jakub Nowak I S-Pka",
                "addr:housenumber": "16",
                "addr:postcode": "95-061",
                "amenity": "pharmacy",
                "addr:place": "Nagawki",
                "dispensing": "yes"
            },
            "geometry": {
                "type": "Point",
                "coordinates": [
                    19.77797011377233,
                    51.90474704810455
                ]
            }
        },
        {
            "type": "Feature",
            "properties": {
                "ref:csioz": 1014993,
                "addr:street": "Jana Pawła II",
                "addr:housenumber": "2",
                "addr:city": "Brzeziny",
                "addr:postcode": "95-060",
                "amenity": "pharmacy",
                "dispensing": "yes"
            },
            "geometry": {
                "type": "Point",
                "coordinates": [
                    19.75111909236888,
                    51.80031544274558
                ]
            }
        },
        {
            "type": "Feature",
            "properties": {
                "ref:csioz": 1195050,
                "name": "Niepubliczny Zakład Opieki Zdrowotnej Szpital Powiatowy W Brzezinach",
                "addr:street": "Marii Skłodowskiej-Curie",
                "addr:housenumber": "6",
                "addr:city": "Brzeziny",
                "addr:postcode": "95-060",
                "amenity": "pharmacy",
                "dispensing": "yes"
            },
            "geometry": {
                "type": "Point",
                "coordinates": [
                    19.754086668833637,
                    51.80568502019644
                ]
            }
        },
        {
            "type": "Feature",
            "properties": {
                "ref:csioz": 1210049,
                "addr:street": "Przedwiośnie",
                "addr:housenumber": "2D",
                "addr:city": "Brzeziny",
                "addr:postcode": "95-060",
                "amenity": "pharmacy",
                "dispensing": "yes"
            },
            "geometry": {
                "type": "Point",
                "coordinates": [
                    19.76315341305898,
                    51.80149902468157
                ]
            }
        },
        {
            "type": "Feature",
            "properties": {
                "ref:csioz": 1217569,
                "addr:street": "Brzezińska",
                "addr:housenumber": "30A",
                "addr:city": "Jeżów",
                "addr:postcode": "95-047",
                "amenity": "pharmacy",
                "dispensing": "yes"
            },
            "geometry": {
                "type": "Point",
                "coordinates": [
                    19.965495427815537,
                    51.814235712619094
                ]
            }
        },
        {
            "type": "Feature",
            "properties": {
                "ref:csioz": 1164380,
                "name": "Dr. Max",
                "addr:street": "Frycza Modrzewskiego",
                "addr:housenumber": "5A",
                "addr:city": "Brzeziny",
                "addr:postcode": "95-060",
                "amenity": "pharmacy",
                "dispensing": "yes"
            },
            "geometry": {
                "type": "Point",
                "coordinates": [
                    19.755654457878578,
                    51.80154637461353
                ]
            }
        },
        {
            "type": "Feature",
            "properties": {
                "ref:csioz": 1011313,
                "name": "Centuria",
                "addr:street": "Romualda Traugutta",
                "addr:housenumber": "11A",
                "addr:city": "Brzeziny",
                "addr:postcode": "95-060",
                "amenity": "pharmacy",
                "dispensing": "yes"
            },
            "geometry": {
                "type": "Point",
                "coordinates": [
                    19.753233681817115,
                    51.80117380881614
                ]
            }
        },
        {
            "type": "Feature",
            "properties": {
                "ref:csioz": 1011947,
                "name": "Apteka Dbam O Zdrowie",
                "addr:street": "św. Anny",
                "addr:housenumber": "16",
                "addr:city": "Brzeziny",
                "addr:postcode": "95-060",
                "amenity": "pharmacy",
                "dispensing": "yes"
            },
            "geometry": {
                "type": "Point",
                "coordinates": [
                    19.751778197028084,
                    51.798976049591985
                ]
            }
        },
        {
            "type": "Feature",
            "properties": {
                "ref:csioz": 1012860,
                "name": "Apteka Dbam O Zdrowie",
                "addr:street": "Konstytucji 3 Maja",
                "addr:housenumber": "4",
                "addr:city": "Brzeziny",
                "addr:postcode": "95-060",
                "amenity": "pharmacy",
                "dispensing": "yes"
            },
            "geometry": {
                "type": "Point",
                "coordinates": [
                    19.758242363689682,
                    51.801449937543616
                ]
            }
        },
        {
            "type": "Feature",
            "properties": {
                "ref:csioz": 1022635,
                "name": "\"Apteka \"\"Kwiaty Polskie\"\"\"",
                "addr:street": "Bohaterów Warszawy",
                "addr:housenumber": "1",
                "addr:city": "Brzeziny",
                "addr:postcode": "95-060",
                "amenity": "pharmacy",
                "dispensing": "yes"
            },
            "geometry": {
                "type": "Point",
                "coordinates": [
                    19.758654279069066,
                    51.80042491584049
                ]
            }
        },
        {
            "type": "Feature",
            "properties": {
                "ref:csioz": 1213762,
                "name": "Apteka Wrzosowa",
                "addr:street": "Frycza Modrzewskiego",
                "addr:housenumber": "1",
                "addr:city": "Brzeziny",
                "addr:postcode": "95-060",
                "amenity": "pharmacy",
                "dispensing": "yes"
            },
            "geometry": {
                "type": "Point",
                "coordinates": [
                    19.755617000000278,
                    51.80061600001515
                ]
            }
        },
        {
            "type": "Feature",
            "properties": {
                "ref:csioz": 1229265,
                "addr:housenumber": "12",
                "addr:postcode": "95-061",
                "amenity": "pharmacy",
                "addr:place": "Dmosin",
                "dispensing": "yes"
            },
            "geometry": {
                "type": "Point",
                "coordinates": [
                    19.75354490567552,
                    51.92750844793699
                ]
            }
        }
    ]
}