{
    "type": "FeatureCollection",
    "name": "JPT_KOD_JE_1429",
    "features": [
        {
            "type": "Feature",
            "properties": {
                "ref:csioz": 1097744,
                "name": "Dbam O Zdrowie",
                "addr:street": "Skłodowskiej-Curie",
                "addr:housenumber": "14",
                "addr:city": "Sokołów Podlaski",
                "addr:postcode": "08-300",
                "amenity": "pharmacy"
            },
            "geometry": {
                "type": "Point",
                "coordinates": [
                    22.23931232674787,
                    52.40787618053992
                ]
            }
        },
        {
            "type": "Feature",
            "properties": {
                "ref:csioz": 1124783,
                "name": "Zakład Leczenia Jednego Dnia Starówka W Sokołowie Podlaskim",
                "addr:street": "Lipowa",
                "addr:housenumber": "5",
                "addr:city": "Sokołów Podlaski",
                "addr:postcode": "08-300",
                "amenity": "pharmacy"
            },
            "geometry": {
                "type": "Point",
                "coordinates": [
                    22.24838434789019,
                    52.4080839691527
                ]
            }
        },
        {
            "type": "Feature",
            "properties": {
                "ref:csioz": 1153355,
                "name": "Apteka Szpitalna",
                "addr:street": "ks. Bosko",
                "addr:housenumber": "5",
                "addr:city": "Sokołów Podlaski",
                "addr:postcode": "08-300",
                "amenity": "pharmacy"
            },
            "geometry": {
                "type": "Point",
                "coordinates": [
                    22.253375017489255,
                    52.40932293810471
                ]
            }
        },
        {
            "type": "Feature",
            "properties": {
                "ref:csioz": 1211198,
                "name": "Punkt Apteczny Centrum",
                "addr:street": "Szkolna",
                "addr:housenumber": "2",
                "addr:city": "Repki",
                "addr:postcode": "08-307",
                "amenity": "pharmacy"
            },
            "geometry": {
                "type": "Point",
                "coordinates": [
                    22.390420870395374,
                    52.38480593053497
                ]
            }
        },
        {
            "type": "Feature",
            "properties": {
                "ref:csioz": 1097753,
                "name": "Farmacja Choma Ceny Hurtowe",
                "addr:street": "Piłsudskiego",
                "addr:housenumber": "12",
                "addr:city": "Sokołów Podlaski",
                "addr:postcode": "08-300",
                "amenity": "pharmacy"
            },
            "geometry": {
                "type": "Point",
                "coordinates": [
                    22.23943890639936,
                    52.40326019744604
                ]
            }
        },
        {
            "type": "Feature",
            "properties": {
                "ref:csioz": 1097766,
                "name": "Apteka Alfa",
                "addr:street": "Węgrowska",
                "addr:housenumber": "5A",
                "addr:city": "Sokołów Podlaski",
                "addr:postcode": "08-300",
                "amenity": "pharmacy"
            },
            "geometry": {
                "type": "Point",
                "coordinates": [
                    22.216955311213187,
                    52.4070307956085
                ]
            }
        },
        {
            "type": "Feature",
            "properties": {
                "ref:csioz": 1097777,
                "name": "Farmacja Choma Ceny Hurtowe",
                "addr:street": "Wilczyńskiego",
                "addr:housenumber": "1",
                "addr:city": "Sokołów Podlaski",
                "addr:postcode": "08-300",
                "amenity": "pharmacy"
            },
            "geometry": {
                "type": "Point",
                "coordinates": [
                    22.253998564095994,
                    52.406646424399526
                ]
            }
        },
        {
            "type": "Feature",
            "properties": {
                "ref:csioz": 1097789,
                "name": "Farmacja Choma Ceny Hurtowe",
                "addr:street": "Wolności",
                "addr:housenumber": "52",
                "addr:flats": "5",
                "addr:city": "Sokołów Podlaski",
                "addr:postcode": "08-300",
                "amenity": "pharmacy"
            },
            "geometry": {
                "type": "Point",
                "coordinates": [
                    22.23702022575466,
                    52.40743904369441
                ]
            }
        },
        {
            "type": "Feature",
            "properties": {
                "ref:csioz": 1114967,
                "name": "Dr. Optima",
                "addr:street": "gen. Władysława Andersa",
                "addr:housenumber": "1A",
                "addr:city": "Sokołów Podlaski",
                "addr:postcode": "08-300",
                "amenity": "pharmacy"
            },
            "geometry": {
                "type": "Point",
                "coordinates": [
                    22.242289097810158,
                    52.4050385441798
                ]
            }
        },
        {
            "type": "Feature",
            "properties": {
                "ref:csioz": 1120548,
                "name": "Mgr Farm. Jacek Jezierski",
                "addr:street": "Sienkiewicza",
                "addr:housenumber": "5",
                "addr:city": "Jabłonna Lacka",
                "addr:postcode": "08-304",
                "amenity": "pharmacy"
            },
            "geometry": {
                "type": "Point",
                "coordinates": [
                    22.441024327093675,
                    52.476209055415076
                ]
            }
        },
        {
            "type": "Feature",
            "properties": {
                "ref:csioz": 1125052,
                "name": "Centrum Rehabilitacji Leczniczej",
                "addr:housenumber": "19",
                "addr:postcode": "08-307",
                "amenity": "pharmacy",
                "addr:place": "Sawice Wieś"
            },
            "geometry": {
                "type": "Point",
                "coordinates": [
                    22.486943000035005,
                    52.34100200001652
                ]
            }
        },
        {
            "type": "Feature",
            "properties": {
                "ref:csioz": 1203255,
                "name": "Pogodna",
                "addr:street": "Magistracka",
                "addr:housenumber": "1",
                "addr:city": "Sokołów Podlaski",
                "addr:postcode": "08-300",
                "amenity": "pharmacy"
            },
            "geometry": {
                "type": "Point",
                "coordinates": [
                    22.253037421346647,
                    52.40545035580196
                ]
            }
        },
        {
            "type": "Feature",
            "properties": {
                "ref:csioz": 1203397,
                "name": "Społeczna",
                "addr:street": "Wolności",
                "addr:housenumber": "29",
                "addr:city": "Sokołów Podlaski",
                "addr:postcode": "08-300",
                "amenity": "pharmacy"
            },
            "geometry": {
                "type": "Point",
                "coordinates": [
                    22.24025020367801,
                    52.406841805704914
                ]
            }
        },
        {
            "type": "Feature",
            "properties": {
                "ref:csioz": 1217159,
                "name": "Prima",
                "addr:street": "Węgrowska",
                "addr:housenumber": "3",
                "addr:flats": "7",
                "addr:city": "Sokołów Podlaski",
                "addr:postcode": "08-300",
                "amenity": "pharmacy"
            },
            "geometry": {
                "type": "Point",
                "coordinates": [
                    22.222679907869736,
                    52.40692886384417
                ]
            }
        },
        {
            "type": "Feature",
            "properties": {
                "ref:csioz": 1097728,
                "name": "Farmacja Choma",
                "addr:street": "Wolności",
                "addr:housenumber": "45",
                "addr:city": "Kosów Lacki",
                "addr:postcode": "08-330",
                "amenity": "pharmacy"
            },
            "geometry": {
                "type": "Point",
                "coordinates": [
                    22.146855486815657,
                    52.59560286148441
                ]
            }
        },
        {
            "type": "Feature",
            "properties": {
                "ref:csioz": 1117560,
                "name": "Apteka Pigułka",
                "addr:street": "Słoneczna",
                "addr:housenumber": "8",
                "addr:flats": "2",
                "addr:city": "Kosów Lacki",
                "addr:postcode": "08-330",
                "amenity": "pharmacy"
            },
            "geometry": {
                "type": "Point",
                "coordinates": [
                    22.14860445667913,
                    52.5940689124932
                ]
            }
        },
        {
            "type": "Feature",
            "properties": {
                "ref:csioz": 1197920,
                "name": "Punkt Apteczny Centrum",
                "addr:housenumber": "25",
                "addr:postcode": "08-322",
                "amenity": "pharmacy",
                "addr:place": "Ceranów"
            },
            "geometry": {
                "type": "Point",
                "coordinates": [
                    22.22300637606421,
                    52.628043844023
                ]
            }
        },
        {
            "type": "Feature",
            "properties": {
                "ref:csioz": 1226054,
                "addr:street": "Tadeusza Kościuszki",
                "addr:housenumber": "9A",
                "addr:city": "Sterdyń",
                "addr:postcode": "08-320",
                "amenity": "pharmacy"
            },
            "geometry": {
                "type": "Point",
                "coordinates": [
                    22.292586794207637,
                    52.5794449125676
                ]
            }
        },
        {
            "type": "Feature",
            "properties": {
                "ref:csioz": 1226610,
                "addr:street": "Główna",
                "addr:housenumber": "75",
                "addr:city": "Sabnie",
                "addr:postcode": "08-331",
                "amenity": "pharmacy"
            },
            "geometry": {
                "type": "Point",
                "coordinates": [
                    22.30861886127191,
                    52.497651486730156
                ]
            }
        }
    ]
}