{
    "type": "FeatureCollection",
    "name": "JPT_KOD_JE_0614",
    "features": [
        {
            "type": "Feature",
            "properties": {
                "ref:csioz": 1158551,
                "addr:street": "Rynek",
                "addr:housenumber": "8",
                "addr:city": "Baranów",
                "addr:postcode": "24-105",
                "amenity": "pharmacy"
            },
            "geometry": {
                "type": "Point",
                "coordinates": [
                    22.136781132963854,
                    51.557747736930125
                ]
            }
        },
        {
            "type": "Feature",
            "properties": {
                "ref:csioz": 1162623,
                "addr:street": "Buźniczna",
                "addr:housenumber": "4",
                "addr:city": "Baranów",
                "addr:postcode": "24-105",
                "amenity": "pharmacy"
            },
            "geometry": {
                "type": "Point",
                "coordinates": [
                    22.13547265462516,
                    51.55690247006237
                ]
            }
        },
        {
            "type": "Feature",
            "properties": {
                "ref:csioz": 1157795,
                "name": "Przy Szpitalu",
                "addr:street": "Józefa Bema",
                "addr:housenumber": "1",
                "addr:city": "Puławy",
                "addr:postcode": "24-100",
                "amenity": "pharmacy"
            },
            "geometry": {
                "type": "Point",
                "coordinates": [
                    21.975057944996113,
                    51.421901051273466
                ]
            }
        },
        {
            "type": "Feature",
            "properties": {
                "ref:csioz": 1158032,
                "name": "Apeka W Rynku",
                "addr:street": "Rynek",
                "addr:housenumber": "26",
                "addr:city": "Wąwolnica",
                "addr:postcode": "24-160",
                "amenity": "pharmacy"
            },
            "geometry": {
                "type": "Point",
                "coordinates": [
                    22.14677914737543,
                    51.29425111607194
                ]
            }
        },
        {
            "type": "Feature",
            "properties": {
                "ref:csioz": 1159005,
                "addr:street": "Lubelska",
                "addr:housenumber": "2H",
                "addr:city": "Puławy",
                "addr:postcode": "24-100",
                "amenity": "pharmacy"
            },
            "geometry": {
                "type": "Point",
                "coordinates": [
                    21.97296313578826,
                    51.415445141894054
                ]
            }
        },
        {
            "type": "Feature",
            "properties": {
                "ref:csioz": 1162068,
                "addr:street": "Lubelska",
                "addr:housenumber": "8",
                "addr:city": "Kurów",
                "addr:postcode": "24-170",
                "amenity": "pharmacy"
            },
            "geometry": {
                "type": "Point",
                "coordinates": [
                    22.18977485797363,
                    51.38894222719012
                ]
            }
        },
        {
            "type": "Feature",
            "properties": {
                "ref:csioz": 1162705,
                "addr:street": "Rynek",
                "addr:housenumber": "4",
                "addr:city": "Końskowola",
                "addr:postcode": "24-130",
                "amenity": "pharmacy"
            },
            "geometry": {
                "type": "Point",
                "coordinates": [
                    22.05167144675808,
                    51.40969377431827
                ]
            }
        },
        {
            "type": "Feature",
            "properties": {
                "ref:csioz": 1163684,
                "addr:street": "Norwida",
                "addr:housenumber": "22",
                "addr:city": "Puławy",
                "addr:postcode": "24-100",
                "amenity": "pharmacy"
            },
            "geometry": {
                "type": "Point",
                "coordinates": [
                    21.980410799629677,
                    51.41777301527045
                ]
            }
        },
        {
            "type": "Feature",
            "properties": {
                "ref:csioz": 1163692,
                "name": "Apteka Słoneczna",
                "addr:street": "Norwida",
                "addr:housenumber": "9",
                "addr:city": "Puławy",
                "addr:postcode": "24-100",
                "amenity": "pharmacy"
            },
            "geometry": {
                "type": "Point",
                "coordinates": [
                    21.97897494558175,
                    51.41959142454158
                ]
            }
        },
        {
            "type": "Feature",
            "properties": {
                "ref:csioz": 1163874,
                "addr:street": "Piłsudskiego",
                "addr:housenumber": "52",
                "addr:city": "Puławy",
                "addr:postcode": "24-100",
                "amenity": "pharmacy"
            },
            "geometry": {
                "type": "Point",
                "coordinates": [
                    21.964516000017806,
                    51.41673500001471
                ]
            }
        },
        {
            "type": "Feature",
            "properties": {
                "ref:csioz": 1170174,
                "name": "Apteka Fragal",
                "addr:street": "Zygmunta Wróblewskiego",
                "addr:housenumber": "3",
                "addr:flats": "\"2, 6, 7\"",
                "addr:city": "Puławy",
                "addr:postcode": "24-100",
                "amenity": "pharmacy"
            },
            "geometry": {
                "type": "Point",
                "coordinates": [
                    21.97023070057046,
                    51.420869510543646
                ]
            }
        },
        {
            "type": "Feature",
            "properties": {
                "ref:csioz": 1171918,
                "name": "Apteka Nova Pręzyna I Wspólnicy Społka Jawna",
                "addr:street": "Powstania Styczniowego",
                "addr:housenumber": "9",
                "addr:city": "Żyrzyn",
                "addr:postcode": "24-103",
                "amenity": "pharmacy"
            },
            "geometry": {
                "type": "Point",
                "coordinates": [
                    22.07258978964548,
                    51.49944350833019
                ]
            }
        },
        {
            "type": "Feature",
            "properties": {
                "ref:csioz": 1190187,
                "name": "Dział Farmacjiszpitalnej",
                "addr:housenumber": "68",
                "addr:postcode": "24-120",
                "amenity": "pharmacy",
                "addr:place": "Celejów"
            },
            "geometry": {
                "type": "Point",
                "coordinates": [
                    22.07109179315243,
                    51.331062951783075
                ]
            }
        },
        {
            "type": "Feature",
            "properties": {
                "ref:csioz": 1198081,
                "name": "-",
                "addr:street": "Lubelska",
                "addr:housenumber": "70",
                "addr:city": "Markuszów",
                "addr:postcode": "24-173",
                "amenity": "pharmacy"
            },
            "geometry": {
                "type": "Point",
                "coordinates": [
                    22.260478410713443,
                    51.374442763592356
                ]
            }
        },
        {
            "type": "Feature",
            "properties": {
                "ref:csioz": 1115143,
                "name": "Vital Centrum",
                "addr:street": "Kolejowa",
                "addr:housenumber": "7",
                "addr:city": "Nałęczów",
                "addr:postcode": "24-150",
                "amenity": "pharmacy"
            },
            "geometry": {
                "type": "Point",
                "coordinates": [
                    22.212960596881235,
                    51.28964725625624
                ]
            }
        },
        {
            "type": "Feature",
            "properties": {
                "ref:csioz": 1157516,
                "addr:street": "Lipowa",
                "addr:housenumber": "3",
                "addr:city": "Nałęczów",
                "addr:postcode": "24-140",
                "amenity": "pharmacy"
            },
            "geometry": {
                "type": "Point",
                "coordinates": [
                    22.213840533879388,
                    51.28579957707696
                ]
            }
        },
        {
            "type": "Feature",
            "properties": {
                "ref:csioz": 1157441,
                "name": "Apteka Dr Zdrowie",
                "addr:street": "Dęblińska",
                "addr:housenumber": "18D",
                "addr:flats": "7",
                "addr:city": "Puławy",
                "addr:postcode": "24-100",
                "amenity": "pharmacy"
            },
            "geometry": {
                "type": "Point",
                "coordinates": [
                    21.949720491226653,
                    51.43348790076956
                ]
            }
        },
        {
            "type": "Feature",
            "properties": {
                "ref:csioz": 1157963,
                "addr:housenumber": "314",
                "addr:postcode": "24-170",
                "amenity": "pharmacy",
                "addr:place": "Klementowice"
            },
            "geometry": {
                "type": "Point",
                "coordinates": [
                    22.11840640569919,
                    51.36039193153786
                ]
            }
        },
        {
            "type": "Feature",
            "properties": {
                "ref:csioz": 1158848,
                "addr:street": "Wróblewskiego",
                "addr:housenumber": "16D",
                "addr:city": "Puławy",
                "addr:postcode": "24-100",
                "amenity": "pharmacy"
            },
            "geometry": {
                "type": "Point",
                "coordinates": [
                    21.96605616869475,
                    51.42209380820053
                ]
            }
        },
        {
            "type": "Feature",
            "properties": {
                "ref:csioz": 1161581,
                "addr:street": "Gościńczyk",
                "addr:housenumber": "2",
                "addr:flats": "13",
                "addr:city": "Puławy",
                "addr:postcode": "24-100",
                "amenity": "pharmacy"
            },
            "geometry": {
                "type": "Point",
                "coordinates": [
                    21.976184204422054,
                    51.41487158487995
                ]
            }
        },
        {
            "type": "Feature",
            "properties": {
                "ref:csioz": 1161816,
                "name": "Apteka Fragal",
                "addr:street": "Centralna",
                "addr:housenumber": "1",
                "addr:city": "Puławy",
                "addr:postcode": "24-100",
                "amenity": "pharmacy"
            },
            "geometry": {
                "type": "Point",
                "coordinates": [
                    21.967705361006615,
                    51.41736771522967
                ]
            }
        },
        {
            "type": "Feature",
            "properties": {
                "ref:csioz": 1162590,
                "addr:street": "Chopina",
                "addr:housenumber": "4",
                "addr:city": "Markuszów",
                "addr:postcode": "24-173",
                "amenity": "pharmacy"
            },
            "geometry": {
                "type": "Point",
                "coordinates": [
                    22.26267432043767,
                    51.375056771737874
                ]
            }
        },
        {
            "type": "Feature",
            "properties": {
                "ref:csioz": 1163027,
                "addr:street": "Nowickiego",
                "addr:housenumber": "2",
                "addr:flats": "56",
                "addr:city": "Nałęczów",
                "addr:postcode": "24-150",
                "amenity": "pharmacy"
            },
            "geometry": {
                "type": "Point",
                "coordinates": [
                    22.21479257019213,
                    51.29068309771584
                ]
            }
        },
        {
            "type": "Feature",
            "properties": {
                "ref:csioz": 1163075,
                "addr:street": "Piłsudskiego",
                "addr:housenumber": "25",
                "addr:city": "Puławy",
                "addr:postcode": "24-100",
                "amenity": "pharmacy"
            },
            "geometry": {
                "type": "Point",
                "coordinates": [
                    21.956818647646937,
                    51.416652409217576
                ]
            }
        },
        {
            "type": "Feature",
            "properties": {
                "ref:csioz": 1163443,
                "addr:street": "1-go Maja",
                "addr:housenumber": "17",
                "addr:city": "Nałęczów",
                "addr:postcode": "24-140",
                "amenity": "pharmacy"
            },
            "geometry": {
                "type": "Point",
                "coordinates": [
                    22.215558182591565,
                    51.28463241677316
                ]
            }
        },
        {
            "type": "Feature",
            "properties": {
                "ref:csioz": 1163462,
                "name": "Apteka Dbam O Zdrowie",
                "addr:street": "M. Curie-Skłodowskiej",
                "addr:housenumber": "2",
                "addr:city": "Puławy",
                "addr:postcode": "24-100",
                "amenity": "pharmacy"
            },
            "geometry": {
                "type": "Point",
                "coordinates": [
                    21.964585000017806,
                    51.41830900001471
                ]
            }
        },
        {
            "type": "Feature",
            "properties": {
                "ref:csioz": 1163557,
                "addr:street": "Józefa Bema",
                "addr:housenumber": "2",
                "addr:city": "Puławy",
                "addr:postcode": "24-100",
                "amenity": "pharmacy"
            },
            "geometry": {
                "type": "Point",
                "coordinates": [
                    21.97648816375357,
                    51.42163158463387
                ]
            }
        },
        {
            "type": "Feature",
            "properties": {
                "ref:csioz": 1163561,
                "name": "Apteka „Puławska I”",
                "addr:street": "Teofila Cichockiego",
                "addr:housenumber": "13",
                "addr:city": "Puławy",
                "addr:postcode": "24-100",
                "amenity": "pharmacy"
            },
            "geometry": {
                "type": "Point",
                "coordinates": [
                    21.968432444691206,
                    51.41450482544546
                ]
            }
        },
        {
            "type": "Feature",
            "properties": {
                "ref:csioz": 1163954,
                "addr:street": "Grabskiego",
                "addr:housenumber": "5",
                "addr:city": "Puławy",
                "addr:postcode": "24-100",
                "amenity": "pharmacy"
            },
            "geometry": {
                "type": "Point",
                "coordinates": [
                    21.97183445359367,
                    51.41392297601208
                ]
            }
        },
        {
            "type": "Feature",
            "properties": {
                "ref:csioz": 1163987,
                "addr:street": "Bełżycka",
                "addr:housenumber": "5",
                "addr:city": "Wąwolnica",
                "addr:postcode": "24-160",
                "amenity": "pharmacy"
            },
            "geometry": {
                "type": "Point",
                "coordinates": [
                    22.149357232331056,
                    51.29273545359875
                ]
            }
        },
        {
            "type": "Feature",
            "properties": {
                "ref:csioz": 1170343,
                "name": "Apteka Słoneczna",
                "addr:street": "Powstania Styczniowego",
                "addr:housenumber": "13",
                "addr:city": "Żyrzyn",
                "addr:postcode": "24-103",
                "amenity": "pharmacy"
            },
            "geometry": {
                "type": "Point",
                "coordinates": [
                    22.071984401610003,
                    51.498511760845304
                ]
            }
        },
        {
            "type": "Feature",
            "properties": {
                "ref:csioz": 1178261,
                "name": "Apteka Pomocna Na Kołłątaja",
                "addr:street": "Hugona Kołłątaja",
                "addr:housenumber": "22",
                "addr:city": "Puławy",
                "addr:postcode": "24-100",
                "amenity": "pharmacy"
            },
            "geometry": {
                "type": "Point",
                "coordinates": [
                    21.9529846104968,
                    51.4199994400534
                ]
            }
        },
        {
            "type": "Feature",
            "properties": {
                "ref:csioz": 1184606,
                "name": "Apteka Słoneczna",
                "addr:street": "Lubelska",
                "addr:housenumber": "73",
                "addr:city": "Końskowola",
                "addr:postcode": "24-130",
                "amenity": "pharmacy"
            },
            "geometry": {
                "type": "Point",
                "coordinates": [
                    22.05421077330894,
                    51.408702747424925
                ]
            }
        },
        {
            "type": "Feature",
            "properties": {
                "ref:csioz": 1189899,
                "name": "Apteka Szpitalna",
                "addr:street": "Józefa Bema",
                "addr:housenumber": "1",
                "addr:city": "Puławy",
                "addr:postcode": "24-100",
                "amenity": "pharmacy"
            },
            "geometry": {
                "type": "Point",
                "coordinates": [
                    21.975057944996113,
                    51.421901051273466
                ]
            }
        },
        {
            "type": "Feature",
            "properties": {
                "ref:csioz": 1190106,
                "name": "Dział Farmacji Szpitalnej",
                "addr:street": "Juliana Ursyna Niemcewicza",
                "addr:housenumber": "2A",
                "addr:city": "Puławy",
                "addr:postcode": "24-100",
                "amenity": "pharmacy"
            },
            "geometry": {
                "type": "Point",
                "coordinates": [
                    21.96242725379852,
                    51.42252304937057
                ]
            }
        },
        {
            "type": "Feature",
            "properties": {
                "ref:csioz": 1190225,
                "name": "Dział Farmacji Szpitalnej",
                "addr:street": "Kasztanowa",
                "addr:housenumber": "6",
                "addr:city": "Nałęczów",
                "amenity": "pharmacy"
            },
            "geometry": {
                "type": "Point",
                "coordinates": [
                    22.208522726460235,
                    51.28735814943467
                ]
            }
        },
        {
            "type": "Feature",
            "properties": {
                "ref:csioz": 1196915,
                "name": "Dfs",
                "addr:street": "Kasztanowa",
                "addr:housenumber": "6",
                "addr:city": "Nałęczów",
                "amenity": "pharmacy"
            },
            "geometry": {
                "type": "Point",
                "coordinates": [
                    22.208522726460235,
                    51.28735814943467
                ]
            }
        },
        {
            "type": "Feature",
            "properties": {
                "ref:csioz": 1199864,
                "name": "Mediki Pharma",
                "addr:street": "gen. Stefana Grota-Roweckiego",
                "addr:housenumber": "2",
                "addr:city": "Puławy",
                "addr:postcode": "24-100",
                "amenity": "pharmacy"
            },
            "geometry": {
                "type": "Point",
                "coordinates": [
                    21.980283389327898,
                    51.414990439044516
                ]
            }
        },
        {
            "type": "Feature",
            "properties": {
                "ref:csioz": 1199878,
                "name": "Mediki Pharma",
                "addr:street": "Lubelska",
                "addr:housenumber": "32",
                "addr:flats": "34",
                "addr:city": "Kazimierz Dolny",
                "addr:postcode": "24-120",
                "amenity": "pharmacy"
            },
            "geometry": {
                "type": "Point",
                "coordinates": [
                    21.952007000017623,
                    51.32053000001454
                ]
            }
        },
        {
            "type": "Feature",
            "properties": {
                "ref:csioz": 1217949,
                "addr:street": "Radomska",
                "addr:housenumber": "21",
                "addr:city": "Góra Puławska",
                "addr:postcode": "24-100",
                "amenity": "pharmacy"
            },
            "geometry": {
                "type": "Point",
                "coordinates": [
                    21.933077858263967,
                    51.40981975733236
                ]
            }
        },
        {
            "type": "Feature",
            "properties": {
                "ref:csioz": 1222071,
                "name": "Dział Farmacji Szpitalnej",
                "addr:street": "Michała Górskiego",
                "addr:housenumber": "9",
                "addr:city": "Nałęczów",
                "addr:postcode": "24-140",
                "amenity": "pharmacy"
            },
            "geometry": {
                "type": "Point",
                "coordinates": [
                    22.209223063059422,
                    51.284446755560836
                ]
            }
        },
        {
            "type": "Feature",
            "properties": {
                "ref:csioz": 1227553,
                "name": "Dział Farmacji Szpitalnej",
                "addr:street": "Aleja Stanisława Małachowskiego",
                "addr:housenumber": "5",
                "addr:city": "Nałęczów",
                "addr:postcode": "24-140",
                "amenity": "pharmacy"
            },
            "geometry": {
                "type": "Point",
                "coordinates": [
                    22.210593085615635,
                    51.2853763533594
                ]
            }
        },
        {
            "type": "Feature",
            "properties": {
                "ref:csioz": 1174955,
                "name": "Apteka Pomocna",
                "addr:street": "\"gen. Fieldorfa \"\"Nila\"\"\"",
                "addr:housenumber": "18",
                "addr:flats": "U-2",
                "addr:city": "Puławy",
                "addr:postcode": "24-100",
                "amenity": "pharmacy"
            },
            "geometry": {
                "type": "Point",
                "coordinates": [
                    21.97457929402381,
                    51.41406067278866
                ]
            }
        },
        {
            "type": "Feature",
            "properties": {
                "ref:csioz": 1171625,
                "name": "Apteka Puławska Iiapteka Sda",
                "addr:street": "\"gen. Fieldorfa \"\"Nila\"\"\"",
                "addr:housenumber": "16",
                "addr:city": "Puławy",
                "addr:postcode": "24-100",
                "amenity": "pharmacy"
            },
            "geometry": {
                "type": "Point",
                "coordinates": [
                    21.973866083257697,
                    51.414156106310344
                ]
            }
        },
        {
            "type": "Feature",
            "properties": {
                "ref:csioz": 1226519,
                "name": "Punkt Apteczny Esculap",
                "addr:street": "Puławska",
                "addr:housenumber": "11A",
                "addr:city": "Gołąb",
                "addr:postcode": "24-100",
                "amenity": "pharmacy"
            },
            "geometry": {
                "type": "Point",
                "coordinates": [
                    21.87545332528569,
                    51.487330938012065
                ]
            }
        }
    ]
}