{
    "type": "FeatureCollection",
    "name": "JPT_KOD_JE_2406",
    "features": [
        {
            "type": "Feature",
            "properties": {
                "ref:csioz": 1056844,
                "name": "Zespół Opieki Zdrowotnej W Kłobucku",
                "addr:street": "11 Listopada",
                "addr:housenumber": "5c",
                "addr:city": "Kłobuck",
                "addr:postcode": "42-100",
                "amenity": "pharmacy"
            },
            "geometry": {
                "type": "Point",
                "coordinates": [
                    18.937588370449078,
                    50.90660688312898
                ]
            }
        },
        {
            "type": "Feature",
            "properties": {
                "ref:csioz": 1063444,
                "name": "Nr 1",
                "addr:street": "Plac Wincentego Witosa",
                "addr:housenumber": "9",
                "addr:city": "Kamyk",
                "addr:postcode": "42-125",
                "amenity": "pharmacy"
            },
            "geometry": {
                "type": "Point",
                "coordinates": [
                    19.027804752209523,
                    50.89965084470561
                ]
            }
        },
        {
            "type": "Feature",
            "properties": {
                "ref:csioz": 1063453,
                "name": "Lindorm 4",
                "addr:street": "Szkolna",
                "addr:housenumber": "1",
                "addr:city": "Kamyk",
                "addr:postcode": "42-125",
                "amenity": "pharmacy"
            },
            "geometry": {
                "type": "Point",
                "coordinates": [
                    19.028990946398583,
                    50.89845153903104
                ]
            }
        },
        {
            "type": "Feature",
            "properties": {
                "ref:csioz": 1064638,
                "name": "Brak Nazwy",
                "addr:street": "11 Listopada",
                "addr:housenumber": "16",
                "addr:city": "Kłobuck",
                "addr:postcode": "42-100",
                "amenity": "pharmacy"
            },
            "geometry": {
                "type": "Point",
                "coordinates": [
                    18.939005959844827,
                    50.909102077956824
                ]
            }
        },
        {
            "type": "Feature",
            "properties": {
                "ref:csioz": 1064646,
                "name": "Brak Nazwy",
                "addr:street": "11 Listopada",
                "addr:housenumber": "44",
                "addr:city": "Kłobuck",
                "addr:postcode": "42-100",
                "amenity": "pharmacy"
            },
            "geometry": {
                "type": "Point",
                "coordinates": [
                    18.943568685843225,
                    50.91385227627201
                ]
            }
        },
        {
            "type": "Feature",
            "properties": {
                "ref:csioz": 1064651,
                "name": "Doz Apteka. Dbam O Zdrowie. Veris Kłobuck",
                "addr:street": "11 Listopada",
                "addr:housenumber": "5 B",
                "addr:city": "Kłobuck",
                "addr:postcode": "42-100",
                "amenity": "pharmacy"
            },
            "geometry": {
                "type": "Point",
                "coordinates": [
                    18.93801641363283,
                    50.906638595758714
                ]
            }
        },
        {
            "type": "Feature",
            "properties": {
                "ref:csioz": 1064667,
                "name": "Pod Czerwonym Kłobukiem",
                "addr:street": "Częstochowska",
                "addr:housenumber": "1F",
                "addr:city": "Kłobuck",
                "addr:postcode": "42-100",
                "amenity": "pharmacy"
            },
            "geometry": {
                "type": "Point",
                "coordinates": [
                    18.937670920288735,
                    50.90058094924955
                ]
            }
        },
        {
            "type": "Feature",
            "properties": {
                "ref:csioz": 1064680,
                "name": "Brak Nazwy",
                "addr:street": "Rynek im. Jana Pawła II",
                "addr:housenumber": "21",
                "addr:city": "Kłobuck",
                "addr:postcode": "42-100",
                "amenity": "pharmacy"
            },
            "geometry": {
                "type": "Point",
                "coordinates": [
                    18.937359206786095,
                    50.90454857818147
                ]
            }
        },
        {
            "type": "Feature",
            "properties": {
                "ref:csioz": 1065317,
                "name": "Brak Nazwy",
                "addr:housenumber": "21",
                "addr:postcode": "42-165",
                "amenity": "pharmacy",
                "addr:place": "Lipie"
            },
            "geometry": {
                "type": "Point",
                "coordinates": [
                    18.788033300857105,
                    51.00841349211255
                ]
            }
        },
        {
            "type": "Feature",
            "properties": {
                "ref:csioz": 1066398,
                "name": "Brak Nazwy",
                "addr:street": "KOŚCIUSZKI",
                "addr:housenumber": "35",
                "addr:city": "OSTROWY NAD OKSZĄ",
                "addr:postcode": "42-122",
                "amenity": "pharmacy"
            },
            "geometry": {
                "type": "Point",
                "coordinates": [
                    19.05331832280851,
                    50.97564382148644
                ]
            }
        },
        {
            "type": "Feature",
            "properties": {
                "ref:csioz": 1066412,
                "name": "Apteka Galen Mgr Farm. Jolanta Talik",
                "addr:street": "1 MAJA",
                "addr:housenumber": "10",
                "addr:city": "PANKI",
                "addr:postcode": "42-140",
                "amenity": "pharmacy"
            },
            "geometry": {
                "type": "Point",
                "coordinates": [
                    18.74707115184139,
                    50.88077120394217
                ]
            }
        },
        {
            "type": "Feature",
            "properties": {
                "ref:csioz": 1066420,
                "name": "Dbam O Zdrowie",
                "addr:street": "TYSIĄCLECIA",
                "addr:housenumber": "3",
                "addr:city": "PANKI",
                "addr:postcode": "42-140",
                "amenity": "pharmacy"
            },
            "geometry": {
                "type": "Point",
                "coordinates": [
                    18.74789773092315,
                    50.882739111295635
                ]
            }
        },
        {
            "type": "Feature",
            "properties": {
                "ref:csioz": 1066436,
                "name": "Doz Apteka. Dbam O Zdrowie. Veris Parzymiechy",
                "addr:street": "Częstochowska",
                "addr:housenumber": "5",
                "addr:city": "Parzymiechy",
                "addr:postcode": "42-164",
                "amenity": "pharmacy"
            },
            "geometry": {
                "type": "Point",
                "coordinates": [
                    18.738920107170078,
                    51.04009712979017
                ]
            }
        },
        {
            "type": "Feature",
            "properties": {
                "ref:csioz": 1070802,
                "name": "Brak Nazwy",
                "addr:street": "Jana Zamojskiego",
                "addr:housenumber": "73",
                "addr:city": "Wąsosz Górny",
                "addr:postcode": "42-110",
                "amenity": "pharmacy"
            },
            "geometry": {
                "type": "Point",
                "coordinates": [
                    19.00068209373262,
                    51.065091373510015
                ]
            }
        },
        {
            "type": "Feature",
            "properties": {
                "ref:csioz": 1071204,
                "name": "Apteka Pod Złotym Dębem",
                "addr:street": "3 Maja",
                "addr:housenumber": "2",
                "addr:city": "Wręczyca Wielka",
                "addr:postcode": "42-130",
                "amenity": "pharmacy"
            },
            "geometry": {
                "type": "Point",
                "coordinates": [
                    18.92013449566834,
                    50.846206402921865
                ]
            }
        },
        {
            "type": "Feature",
            "properties": {
                "ref:csioz": 1071220,
                "name": "Brak Nazwy",
                "addr:street": "Szkolna",
                "addr:housenumber": "3",
                "addr:city": "Wręczyca Wielka",
                "addr:postcode": "42-130",
                "amenity": "pharmacy"
            },
            "geometry": {
                "type": "Point",
                "coordinates": [
                    18.917774934984312,
                    50.84359700728889
                ]
            }
        },
        {
            "type": "Feature",
            "properties": {
                "ref:csioz": 1072960,
                "name": "Twoje Zdrowie",
                "addr:street": "LINDÓW",
                "addr:housenumber": "12",
                "addr:city": "LINDÓW",
                "addr:postcode": "42-166",
                "amenity": "pharmacy"
            },
            "geometry": {
                "type": "Point",
                "coordinates": [
                    18.858966999999964,
                    51.043758000014016
                ]
            }
        },
        {
            "type": "Feature",
            "properties": {
                "ref:csioz": 1073002,
                "name": "Brak Nazwy",
                "addr:street": "CZĘSTOCHOWSKA",
                "addr:housenumber": "18",
                "addr:city": "MIEDŹNO",
                "addr:postcode": "42-120",
                "amenity": "pharmacy"
            },
            "geometry": {
                "type": "Point",
                "coordinates": [
                    18.982707477742046,
                    50.96435064404299
                ]
            }
        },
        {
            "type": "Feature",
            "properties": {
                "ref:csioz": 1073090,
                "name": "Brak Nazwy",
                "addr:street": "KOŚCIUSZKI",
                "addr:housenumber": "10",
                "addr:city": "OPATÓW",
                "addr:postcode": "42-152",
                "amenity": "pharmacy"
            },
            "geometry": {
                "type": "Point",
                "coordinates": [
                    18.81793099999994,
                    50.952746000013875
                ]
            }
        },
        {
            "type": "Feature",
            "properties": {
                "ref:csioz": 1073483,
                "name": "Brak Nazwy",
                "addr:street": "CMENTARNA",
                "addr:housenumber": "20",
                "addr:city": "TRUSKOLASY",
                "addr:postcode": "42-134",
                "amenity": "pharmacy"
            },
            "geometry": {
                "type": "Point",
                "coordinates": [
                    18.84178184449083,
                    50.867577590047276
                ]
            }
        },
        {
            "type": "Feature",
            "properties": {
                "ref:csioz": 1073608,
                "name": "Brak Nazwy",
                "addr:street": "NOWA WIEŚ",
                "addr:housenumber": "19",
                "addr:city": "ZAJĄCZKI DRUGIE",
                "addr:postcode": "42-160",
                "amenity": "pharmacy"
            },
            "geometry": {
                "type": "Point",
                "coordinates": [
                    18.702935999999912,
                    50.992554000013946
                ]
            }
        },
        {
            "type": "Feature",
            "properties": {
                "ref:csioz": 1073635,
                "name": "Brak Nazwy",
                "addr:street": "CZĘSTOCHOWSKA",
                "addr:housenumber": "12",
                "addr:city": "ZAWADY",
                "addr:postcode": "42-110",
                "amenity": "pharmacy"
            },
            "geometry": {
                "type": "Point",
                "coordinates": [
                    18.929059722903652,
                    51.027658839955606
                ]
            }
        },
        {
            "type": "Feature",
            "properties": {
                "ref:csioz": 1171275,
                "name": "Plus Dla Zdrowia",
                "addr:street": "Opolska",
                "addr:housenumber": "9",
                "addr:city": "Truskolasy",
                "addr:postcode": "42-134",
                "amenity": "pharmacy"
            },
            "geometry": {
                "type": "Point",
                "coordinates": [
                    18.824166186007144,
                    50.868074774526974
                ]
            }
        },
        {
            "type": "Feature",
            "properties": {
                "ref:csioz": 1193030,
                "addr:street": "Wesoła",
                "addr:housenumber": "3",
                "addr:city": "Złochowice",
                "addr:postcode": "42-152",
                "amenity": "pharmacy"
            },
            "geometry": {
                "type": "Point",
                "coordinates": [
                    18.831750372098806,
                    50.92040990928084
                ]
            }
        },
        {
            "type": "Feature",
            "properties": {
                "ref:csioz": 1201547,
                "addr:street": "9 Maja",
                "addr:housenumber": "25",
                "addr:city": "Kłobuck",
                "addr:postcode": "42-100",
                "amenity": "pharmacy"
            },
            "geometry": {
                "type": "Point",
                "coordinates": [
                    18.940507665023954,
                    50.908968040482854
                ]
            }
        },
        {
            "type": "Feature",
            "properties": {
                "ref:csioz": 1059930,
                "name": "Brak Nazwy",
                "addr:street": "Szkolna",
                "addr:housenumber": "91",
                "addr:city": "Czarna Wieś",
                "addr:postcode": "42-133",
                "amenity": "pharmacy"
            },
            "geometry": {
                "type": "Point",
                "coordinates": [
                    18.846532910228703,
                    50.80854399731827
                ]
            }
        },
        {
            "type": "Feature",
            "properties": {
                "ref:csioz": 1064695,
                "name": "Brak Nazwy",
                "addr:street": "Stanisława Staszica",
                "addr:housenumber": "21",
                "addr:city": "Kłobuck",
                "addr:postcode": "42-100",
                "amenity": "pharmacy"
            },
            "geometry": {
                "type": "Point",
                "coordinates": [
                    18.936304654150778,
                    50.89911117305654
                ]
            }
        },
        {
            "type": "Feature",
            "properties": {
                "ref:csioz": 1064705,
                "name": "Lekfarm",
                "addr:street": "Szkolna",
                "addr:housenumber": "16",
                "addr:city": "Kłobuck",
                "addr:postcode": "42-100",
                "amenity": "pharmacy"
            },
            "geometry": {
                "type": "Point",
                "coordinates": [
                    18.938559389709656,
                    50.903278629061134
                ]
            }
        },
        {
            "type": "Feature",
            "properties": {
                "ref:csioz": 1065164,
                "name": "Brak Nazwy",
                "addr:street": "Częstochowska",
                "addr:housenumber": "11",
                "addr:city": "Krzepice",
                "addr:postcode": "42-160",
                "amenity": "pharmacy"
            },
            "geometry": {
                "type": "Point",
                "coordinates": [
                    18.728171999999926,
                    50.96995900001391
                ]
            }
        },
        {
            "type": "Feature",
            "properties": {
                "ref:csioz": 1065178,
                "name": "Apfarm",
                "addr:street": "Częstochowska",
                "addr:housenumber": "8",
                "addr:city": "Krzepice",
                "addr:postcode": "42-160",
                "amenity": "pharmacy"
            },
            "geometry": {
                "type": "Point",
                "coordinates": [
                    18.72729499999992,
                    50.9697810000139
                ]
            }
        },
        {
            "type": "Feature",
            "properties": {
                "ref:csioz": 1065186,
                "name": "Brak Nazwy",
                "addr:street": "Dzielna",
                "addr:housenumber": "7",
                "addr:city": "Krzepice",
                "addr:postcode": "42-160",
                "amenity": "pharmacy"
            },
            "geometry": {
                "type": "Point",
                "coordinates": [
                    18.727586999999914,
                    50.97050400001391
                ]
            }
        },
        {
            "type": "Feature",
            "properties": {
                "ref:csioz": 1065669,
                "name": "Doz Apteka. Dbam O Zdrowie. Veris Miedźno",
                "addr:street": "CZĘSTOCHOWSKA",
                "addr:housenumber": "18A",
                "addr:city": "MIEDŹNO",
                "addr:postcode": "42-120",
                "amenity": "pharmacy"
            },
            "geometry": {
                "type": "Point",
                "coordinates": [
                    18.982607977227328,
                    50.96480322461843
                ]
            }
        },
        {
            "type": "Feature",
            "properties": {
                "ref:csioz": 1066907,
                "name": "Apteka Prywatna Mgr Farm.Ewa Spytkowska",
                "addr:street": "Nowa",
                "addr:housenumber": "9",
                "addr:city": "Przystajń",
                "addr:postcode": "42-141",
                "amenity": "pharmacy"
            },
            "geometry": {
                "type": "Point",
                "coordinates": [
                    18.690989087329754,
                    50.88361422990194
                ]
            }
        },
        {
            "type": "Feature",
            "properties": {
                "ref:csioz": 1066910,
                "name": "Brak",
                "addr:street": "POWSTAŃCÓW ŚLĄSKICH",
                "addr:housenumber": "10A",
                "addr:city": "PRZYSTAJŃ",
                "addr:postcode": "42-141",
                "amenity": "pharmacy"
            },
            "geometry": {
                "type": "Point",
                "coordinates": [
                    18.687783360247,
                    50.88330045895404
                ]
            }
        },
        {
            "type": "Feature",
            "properties": {
                "ref:csioz": 1070251,
                "name": "Brak Nazwy",
                "addr:street": "Rynek",
                "addr:housenumber": "4",
                "addr:city": "Truskolasy",
                "addr:postcode": "42-134",
                "amenity": "pharmacy"
            },
            "geometry": {
                "type": "Point",
                "coordinates": [
                    18.826587317550548,
                    50.866229268714974
                ]
            }
        },
        {
            "type": "Feature",
            "properties": {
                "ref:csioz": 1113100,
                "name": "Niepubliczny Zakład Opieki Zdrowotnej Ośrodek Terapii Uzależnień",
                "addr:street": "Częstochowska",
                "addr:housenumber": "1",
                "addr:city": "Parzymiechy",
                "addr:postcode": "42-164",
                "amenity": "pharmacy"
            },
            "geometry": {
                "type": "Point",
                "coordinates": [
                    18.736905040204583,
                    51.04065847840538
                ]
            }
        },
        {
            "type": "Feature",
            "properties": {
                "ref:csioz": 1170609,
                "addr:street": "Poprzeczna",
                "addr:housenumber": "1A",
                "addr:city": "Kłobuck",
                "addr:postcode": "42-100",
                "amenity": "pharmacy"
            },
            "geometry": {
                "type": "Point",
                "coordinates": [
                    18.939424477253798,
                    50.91467606685227
                ]
            }
        },
        {
            "type": "Feature",
            "properties": {
                "ref:csioz": 1173505,
                "name": "Doz Apteka. Dbam O Zdrowie. Veris Popów",
                "addr:street": "Pajęczańska",
                "addr:housenumber": "1",
                "addr:city": "Popów",
                "addr:postcode": "42-110",
                "amenity": "pharmacy"
            },
            "geometry": {
                "type": "Point",
                "coordinates": [
                    18.926315286472622,
                    51.03473968159506
                ]
            }
        },
        {
            "type": "Feature",
            "properties": {
                "ref:csioz": 1179185,
                "name": "Veris",
                "addr:street": "Kościelna",
                "addr:housenumber": "9a",
                "addr:city": "Ługi-Radły",
                "addr:postcode": "42-142",
                "amenity": "pharmacy"
            },
            "geometry": {
                "type": "Point",
                "coordinates": [
                    18.67534119845998,
                    50.835068102953656
                ]
            }
        },
        {
            "type": "Feature",
            "properties": {
                "ref:csioz": 1179200,
                "name": "Lekfarm",
                "addr:street": "Główna",
                "addr:housenumber": "34",
                "addr:city": "Rębielice Królewskie",
                "addr:postcode": "42-110",
                "amenity": "pharmacy"
            },
            "geometry": {
                "type": "Point",
                "coordinates": [
                    18.863071783811407,
                    50.99849936292918
                ]
            }
        },
        {
            "type": "Feature",
            "properties": {
                "ref:csioz": 1228839,
                "addr:street": "Piaskowa",
                "addr:housenumber": "4",
                "addr:city": "Starokrzepice",
                "addr:postcode": "42-161",
                "amenity": "pharmacy"
            },
            "geometry": {
                "type": "Point",
                "coordinates": [
                    18.655217999999902,
                    50.94760500001388
                ]
            }
        },
        {
            "type": "Feature",
            "properties": {
                "ref:csioz": 1186856,
                "name": "Apfarm",
                "addr:street": "Oleska",
                "addr:housenumber": "209",
                "addr:city": "Starokrzepice",
                "addr:postcode": "42-161",
                "amenity": "pharmacy"
            },
            "geometry": {
                "type": "Point",
                "coordinates": [
                    18.656246999999897,
                    50.94883200001388
                ]
            }
        },
        {
            "type": "Feature",
            "properties": {
                "ref:csioz": 1188091,
                "name": "Apteka Pod Złotymi Sukiennicami",
                "addr:street": "Rynek",
                "addr:housenumber": "7",
                "addr:city": "Przystajń",
                "addr:postcode": "42-141",
                "amenity": "pharmacy"
            },
            "geometry": {
                "type": "Point",
                "coordinates": [
                    18.691638375148585,
                    50.88477898979403
                ]
            }
        },
        {
            "type": "Feature",
            "properties": {
                "ref:csioz": 1190555,
                "name": "Apteka Centrum Zdrowia Lekfarm",
                "addr:street": "Szkolna",
                "addr:housenumber": "5",
                "addr:city": "Krzepice",
                "addr:postcode": "42-160",
                "amenity": "pharmacy"
            },
            "geometry": {
                "type": "Point",
                "coordinates": [
                    18.728700999999923,
                    50.97089200001389
                ]
            }
        },
        {
            "type": "Feature",
            "properties": {
                "ref:csioz": 1191626,
                "name": "Apteka Nr 1",
                "addr:street": "Rynek Powstańców 1863",
                "addr:housenumber": "20",
                "addr:city": "Krzepice",
                "addr:postcode": "42-160",
                "amenity": "pharmacy"
            },
            "geometry": {
                "type": "Point",
                "coordinates": [
                    18.72512899999991,
                    50.970263000013915
                ]
            }
        },
        {
            "type": "Feature",
            "properties": {
                "ref:csioz": 1195585,
                "name": "Plus Dla Zdrowia-Twoja Apteka Internetowa",
                "addr:street": "11 Listopada",
                "addr:housenumber": "14",
                "addr:city": "Kłobuck",
                "addr:postcode": "42-100",
                "amenity": "pharmacy"
            },
            "geometry": {
                "type": "Point",
                "coordinates": [
                    18.93887300193536,
                    50.90852212459129
                ]
            }
        },
        {
            "type": "Feature",
            "properties": {
                "ref:csioz": 1201829,
                "addr:street": "Dzielna",
                "addr:housenumber": "12",
                "addr:city": "Krzepice",
                "addr:postcode": "42-160",
                "amenity": "pharmacy"
            },
            "geometry": {
                "type": "Point",
                "coordinates": [
                    18.727497999999912,
                    50.9708820000139
                ]
            }
        },
        {
            "type": "Feature",
            "properties": {
                "ref:csioz": 1211089,
                "name": "Punkt Apteczny Veris Kalej",
                "addr:street": "Główna",
                "addr:housenumber": "55",
                "addr:city": "Kalej",
                "addr:postcode": "42-130",
                "amenity": "pharmacy"
            },
            "geometry": {
                "type": "Point",
                "coordinates": [
                    18.98958180720816,
                    50.837195266977844
                ]
            }
        },
        {
            "type": "Feature",
            "properties": {
                "ref:csioz": 1219824,
                "name": "Apteka Artfarm",
                "addr:street": "Wieluńska",
                "addr:housenumber": "31B",
                "addr:city": "Kłobuck",
                "addr:postcode": "42-100",
                "amenity": "pharmacy"
            },
            "geometry": {
                "type": "Point",
                "coordinates": [
                    18.931224235841647,
                    50.902710047948524
                ]
            }
        },
        {
            "type": "Feature",
            "properties": {
                "ref:csioz": 1226033,
                "addr:housenumber": "32",
                "addr:postcode": "42-133",
                "amenity": "pharmacy",
                "addr:place": "Puszczew"
            },
            "geometry": {
                "type": "Point",
                "coordinates": [
                    18.850241289969773,
                    50.805428214316414
                ]
            }
        },
        {
            "type": "Feature",
            "properties": {
                "ref:csioz": 1229594,
                "name": "Apfarm",
                "addr:housenumber": "44",
                "addr:postcode": "42-160",
                "amenity": "pharmacy",
                "addr:place": "Zajączki Pierwsze"
            },
            "geometry": {
                "type": "Point",
                "coordinates": [
                    18.707693977241433,
                    50.997304931283836
                ]
            }
        },
        {
            "type": "Feature",
            "properties": {
                "ref:csioz": 1230599,
                "name": "Plus Dla Zdrowia",
                "addr:street": "Główna",
                "addr:housenumber": "24C",
                "addr:city": "Kalej",
                "addr:postcode": "42-130",
                "amenity": "pharmacy"
            },
            "geometry": {
                "type": "Point",
                "coordinates": [
                    18.997062150819854,
                    50.838237057058066
                ]
            }
        }
    ]
}