{
    "type": "FeatureCollection",
    "name": "JPT_KOD_JE_3031",
    "features": [
        {
            "type": "Feature",
            "properties": {
                "ref:csioz": 1042660,
                "addr:street": "Kościuszki",
                "addr:housenumber": "24",
                "addr:city": "Lipka",
                "addr:postcode": "79-420",
                "amenity": "pharmacy",
                "dispensing": "yes"
            },
            "geometry": {
                "type": "Point",
                "coordinates": [
                    17.249311866766355,
                    53.49533920828377
                ]
            }
        },
        {
            "type": "Feature",
            "properties": {
                "ref:csioz": 1042831,
                "name": "Remedium",
                "addr:street": "Edmunda Jana Osmańczyka",
                "addr:housenumber": "7",
                "addr:city": "Zakrzewo",
                "addr:postcode": "77-424",
                "amenity": "pharmacy",
                "dispensing": "yes"
            },
            "geometry": {
                "type": "Point",
                "coordinates": [
                    17.151705814350883,
                    53.41116915631214
                ]
            }
        },
        {
            "type": "Feature",
            "properties": {
                "ref:csioz": 1123905,
                "name": "Nowa 1",
                "addr:street": "IV Dywizji Piechoty",
                "addr:housenumber": "6C",
                "addr:city": "Lipka",
                "addr:postcode": "77-420",
                "amenity": "pharmacy",
                "dispensing": "yes"
            },
            "geometry": {
                "type": "Point",
                "coordinates": [
                    17.25167753842408,
                    53.49739971622352
                ]
            }
        },
        {
            "type": "Feature",
            "properties": {
                "ref:csioz": 1042802,
                "name": "Św.Kosmy I Damiana",
                "addr:street": "BOHATERÓW WESTERPLATTE",
                "addr:housenumber": "7B",
                "addr:city": "ZŁOTÓW",
                "addr:postcode": "77-400",
                "amenity": "pharmacy",
                "dispensing": "yes"
            },
            "geometry": {
                "type": "Point",
                "coordinates": [
                    17.04265640816086,
                    53.360823351696155
                ]
            }
        },
        {
            "type": "Feature",
            "properties": {
                "ref:csioz": 1043850,
                "name": "Tarnówka",
                "addr:street": "Niepodległości",
                "addr:housenumber": "22A",
                "addr:city": "Tarnówka",
                "addr:postcode": "77-416",
                "amenity": "pharmacy",
                "dispensing": "yes"
            },
            "geometry": {
                "type": "Point",
                "coordinates": [
                    16.85178097457404,
                    53.33902148054122
                ]
            }
        },
        {
            "type": "Feature",
            "properties": {
                "ref:csioz": 1043597,
                "addr:street": "Szczecińska",
                "addr:housenumber": "4",
                "addr:city": "Okonek",
                "addr:postcode": "64-965",
                "amenity": "pharmacy",
                "dispensing": "yes"
            },
            "geometry": {
                "type": "Point",
                "coordinates": [
                    16.850454740645397,
                    53.53720369672002
                ]
            }
        },
        {
            "type": "Feature",
            "properties": {
                "ref:csioz": 1043610,
                "name": "Doz Apteka. Dbam O Zdrowie. Pod Wagą",
                "addr:street": "Gdańska",
                "addr:housenumber": "14",
                "addr:city": "Jastrowie",
                "addr:postcode": "64-915",
                "amenity": "pharmacy",
                "dispensing": "yes"
            },
            "geometry": {
                "type": "Point",
                "coordinates": [
                    16.818261999996274,
                    53.421851000017774
                ]
            }
        },
        {
            "type": "Feature",
            "properties": {
                "ref:csioz": 1044575,
                "addr:street": "SZPITALNA",
                "addr:housenumber": "28",
                "addr:city": "ZŁOTÓW",
                "addr:postcode": "77-400",
                "amenity": "pharmacy",
                "dispensing": "yes"
            },
            "geometry": {
                "type": "Point",
                "coordinates": [
                    17.04493430264016,
                    53.35545517175757
                ]
            }
        },
        {
            "type": "Feature",
            "properties": {
                "ref:csioz": 1042815,
                "name": "Malwa",
                "addr:street": "Spichrzowa",
                "addr:housenumber": "42",
                "addr:city": "Złotów",
                "addr:postcode": "77-400",
                "amenity": "pharmacy",
                "dispensing": "yes"
            },
            "geometry": {
                "type": "Point",
                "coordinates": [
                    17.035303790210545,
                    53.360109902227734
                ]
            }
        },
        {
            "type": "Feature",
            "properties": {
                "ref:csioz": 1042828,
                "name": "Centrum Zdrowia",
                "addr:street": "Nieznanego Żołnierza",
                "addr:housenumber": "39",
                "addr:city": "Złotów",
                "addr:postcode": "77-400",
                "amenity": "pharmacy",
                "dispensing": "yes"
            },
            "geometry": {
                "type": "Point",
                "coordinates": [
                    17.0458130279051,
                    53.356259070492534
                ]
            }
        },
        {
            "type": "Feature",
            "properties": {
                "ref:csioz": 1042877,
                "name": "Alcea",
                "addr:street": "Niepodległości",
                "addr:housenumber": "34A",
                "addr:city": "Okonek",
                "addr:postcode": "64-965",
                "amenity": "pharmacy",
                "dispensing": "yes"
            },
            "geometry": {
                "type": "Point",
                "coordinates": [
                    16.849911296112232,
                    53.53449361601958
                ]
            }
        },
        {
            "type": "Feature",
            "properties": {
                "ref:csioz": 1042913,
                "name": "Verbena",
                "addr:street": "Młyńska",
                "addr:housenumber": "5",
                "addr:city": "Krajenka",
                "addr:postcode": "77-430",
                "amenity": "pharmacy",
                "dispensing": "yes"
            },
            "geometry": {
                "type": "Point",
                "coordinates": [
                    16.988319085085728,
                    53.294978652589435
                ]
            }
        },
        {
            "type": "Feature",
            "properties": {
                "ref:csioz": 1043120,
                "name": "Apteka Hipokrates",
                "addr:street": "Konopnickiej",
                "addr:housenumber": "71",
                "addr:city": "Jastrowie",
                "addr:postcode": "64-915",
                "amenity": "pharmacy",
                "dispensing": "yes"
            },
            "geometry": {
                "type": "Point",
                "coordinates": [
                    16.817434277016208,
                    53.41951819890582
                ]
            }
        },
        {
            "type": "Feature",
            "properties": {
                "ref:csioz": 1043148,
                "name": "Rodzinna",
                "addr:street": "Norwida",
                "addr:housenumber": "8",
                "addr:city": "Złotów",
                "addr:postcode": "77-400",
                "amenity": "pharmacy",
                "dispensing": "yes"
            },
            "geometry": {
                "type": "Point",
                "coordinates": [
                    17.044353022527456,
                    53.358928411430924
                ]
            }
        },
        {
            "type": "Feature",
            "properties": {
                "ref:csioz": 1043245,
                "name": "Leśna",
                "addr:street": "Wielatowska",
                "addr:housenumber": "10",
                "addr:city": "Złotów",
                "addr:postcode": "77-400",
                "amenity": "pharmacy",
                "dispensing": "yes"
            },
            "geometry": {
                "type": "Point",
                "coordinates": [
                    17.01959994398613,
                    53.37160135941293
                ]
            }
        },
        {
            "type": "Feature",
            "properties": {
                "ref:csioz": 1043371,
                "addr:street": "Bohaterów Westerplatte",
                "addr:housenumber": "12",
                "addr:city": "Złotów",
                "addr:postcode": "77-400",
                "amenity": "pharmacy",
                "dispensing": "yes"
            },
            "geometry": {
                "type": "Point",
                "coordinates": [
                    17.043901171606652,
                    53.360142052345864
                ]
            }
        },
        {
            "type": "Feature",
            "properties": {
                "ref:csioz": 1123300,
                "name": "Dr. Max",
                "addr:street": "Norwida",
                "addr:housenumber": "9",
                "addr:city": "Złotów",
                "addr:postcode": "77-400",
                "amenity": "pharmacy",
                "dispensing": "yes"
            },
            "geometry": {
                "type": "Point",
                "coordinates": [
                    17.04485048692904,
                    53.35857492552449
                ]
            }
        },
        {
            "type": "Feature",
            "properties": {
                "ref:csioz": 1124117,
                "name": "Nowa",
                "addr:street": "Rynek",
                "addr:housenumber": "5",
                "addr:city": "Krajenka",
                "addr:postcode": "77-430",
                "amenity": "pharmacy",
                "dispensing": "yes"
            },
            "geometry": {
                "type": "Point",
                "coordinates": [
                    16.99187329572447,
                    53.29765033609019
                ]
            }
        },
        {
            "type": "Feature",
            "properties": {
                "ref:csioz": 1184847,
                "name": "Asklepios",
                "addr:street": "Wojska Polskiego",
                "addr:housenumber": "17",
                "addr:city": "Jastrowie",
                "addr:postcode": "64-915",
                "amenity": "pharmacy",
                "dispensing": "yes"
            },
            "geometry": {
                "type": "Point",
                "coordinates": [
                    16.820050490451617,
                    53.418974706009195
                ]
            }
        },
        {
            "type": "Feature",
            "properties": {
                "ref:csioz": 1205111,
                "addr:street": "Szczecinecka",
                "addr:housenumber": "27",
                "addr:city": "Lotyń",
                "addr:postcode": "64-918",
                "amenity": "pharmacy",
                "dispensing": "yes"
            },
            "geometry": {
                "type": "Point",
                "coordinates": [
                    16.801441012862586,
                    53.605231185441966
                ]
            }
        },
        {
            "type": "Feature",
            "properties": {
                "ref:csioz": 1210964,
                "name": "Apteka Społeczna Na Bohaterów Westerplatte Grupa Nowa Farmacja",
                "addr:street": "Bohaterów Westerplatte",
                "addr:housenumber": "11C",
                "addr:city": "Złotów",
                "addr:postcode": "77-400",
                "amenity": "pharmacy",
                "dispensing": "yes"
            },
            "geometry": {
                "type": "Point",
                "coordinates": [
                    17.04466165867777,
                    53.36041243414595
                ]
            }
        },
        {
            "type": "Feature",
            "properties": {
                "ref:csioz": 1214657,
                "name": "Aurum",
                "addr:street": "Młyńska",
                "addr:housenumber": "14",
                "addr:city": "Radawnica",
                "addr:postcode": "77-400",
                "amenity": "pharmacy",
                "dispensing": "yes"
            },
            "geometry": {
                "type": "Point",
                "coordinates": [
                    16.983484149603555,
                    53.44522385640625
                ]
            }
        },
        {
            "type": "Feature",
            "properties": {
                "ref:csioz": 1230123,
                "name": "Hygea",
                "addr:street": "Mickiewicza",
                "addr:housenumber": "43",
                "addr:city": "Sypniewo",
                "addr:postcode": "64-962",
                "amenity": "pharmacy",
                "dispensing": "yes"
            },
            "geometry": {
                "type": "Point",
                "coordinates": [
                    16.60657368866765,
                    53.46747966165555
                ]
            }
        }
    ]
}