{
    "type": "FeatureCollection",
    "name": "JPT_KOD_JE_0408",
    "features": [
        {
            "type": "Feature",
            "properties": {
                "ref:csioz": 1104205,
                "name": "Pod Dębami",
                "addr:street": "Dębowa",
                "addr:housenumber": "21",
                "addr:city": "Lipno",
                "addr:postcode": "87-600",
                "amenity": "pharmacy",
                "dispensing": "yes"
            },
            "geometry": {
                "type": "Point",
                "coordinates": [
                    19.184550229997406,
                    52.836785313969706
                ]
            }
        },
        {
            "type": "Feature",
            "properties": {
                "ref:csioz": 1104218,
                "addr:street": "Sierakowskiego",
                "addr:housenumber": "6A",
                "addr:city": "Lipno",
                "addr:postcode": "87-600",
                "amenity": "pharmacy",
                "dispensing": "yes"
            },
            "geometry": {
                "type": "Point",
                "coordinates": [
                    19.17356060792625,
                    52.84025412166064
                ]
            }
        },
        {
            "type": "Feature",
            "properties": {
                "ref:csioz": 1104645,
                "name": "Apteka Centralna",
                "addr:street": "Tadeusza Kościuszki",
                "addr:housenumber": "2",
                "addr:city": "Lipno",
                "addr:postcode": "87-600",
                "amenity": "pharmacy",
                "dispensing": "yes"
            },
            "geometry": {
                "type": "Point",
                "coordinates": [
                    19.178649532446347,
                    52.84402688597676
                ]
            }
        },
        {
            "type": "Feature",
            "properties": {
                "ref:csioz": 1105410,
                "addr:housenumber": "15",
                "addr:postcode": "87-603",
                "amenity": "pharmacy",
                "addr:place": "Czarne",
                "dispensing": "yes"
            },
            "geometry": {
                "type": "Point",
                "coordinates": [
                    19.259257278435147,
                    52.784980485793575
                ]
            }
        },
        {
            "type": "Feature",
            "properties": {
                "ref:csioz": 1105478,
                "addr:housenumber": "1",
                "addr:postcode": "87-603",
                "amenity": "pharmacy",
                "addr:place": "Zaduszniki",
                "dispensing": "yes"
            },
            "geometry": {
                "type": "Point",
                "coordinates": [
                    19.192379544505535,
                    52.715790053377795
                ]
            }
        },
        {
            "type": "Feature",
            "properties": {
                "ref:csioz": 1105516,
                "name": "Punkt Apteczny W Łochocinie",
                "addr:housenumber": "5",
                "addr:postcode": "87-600",
                "amenity": "pharmacy",
                "addr:place": "Łochocin",
                "dispensing": "yes"
            },
            "geometry": {
                "type": "Point",
                "coordinates": [
                    19.107438480195796,
                    52.755015702416685
                ]
            }
        },
        {
            "type": "Feature",
            "properties": {
                "ref:csioz": 1110693,
                "name": "Apteka Victoria Iii",
                "addr:street": "Starowiejska",
                "addr:housenumber": "9A",
                "addr:city": "Wielgie",
                "addr:postcode": "87-603",
                "amenity": "pharmacy",
                "dispensing": "yes"
            },
            "geometry": {
                "type": "Point",
                "coordinates": [
                    19.271157000000102,
                    52.73905100001665
                ]
            }
        },
        {
            "type": "Feature",
            "properties": {
                "ref:csioz": 1111297,
                "name": "Złota",
                "addr:street": "Złota Górka",
                "addr:housenumber": "12",
                "addr:city": "Kikół",
                "addr:postcode": "87-620",
                "amenity": "pharmacy",
                "dispensing": "yes"
            },
            "geometry": {
                "type": "Point",
                "coordinates": [
                    19.11987996341922,
                    52.9154238246134
                ]
            }
        },
        {
            "type": "Feature",
            "properties": {
                "ref:csioz": 1104172,
                "name": "Nowa",
                "addr:street": "Adama Mickiewicza",
                "addr:housenumber": "20",
                "addr:city": "Lipno",
                "addr:postcode": "87-600",
                "amenity": "pharmacy",
                "dispensing": "yes"
            },
            "geometry": {
                "type": "Point",
                "coordinates": [
                    19.178701000000075,
                    52.845256000016825
                ]
            }
        },
        {
            "type": "Feature",
            "properties": {
                "ref:csioz": 1104180,
                "name": "Rodzinna",
                "addr:street": "Tadeusza Kościuszki",
                "addr:housenumber": "5",
                "addr:city": "Lipno",
                "addr:postcode": "87-600",
                "amenity": "pharmacy",
                "dispensing": "yes"
            },
            "geometry": {
                "type": "Point",
                "coordinates": [
                    19.17984787590514,
                    52.844107624200994
                ]
            }
        },
        {
            "type": "Feature",
            "properties": {
                "ref:csioz": 1104151,
                "name": "Na Rogu",
                "addr:street": "Adama Mickiewicza",
                "addr:housenumber": "1",
                "addr:city": "Lipno",
                "addr:postcode": "87-600",
                "amenity": "pharmacy",
                "dispensing": "yes"
            },
            "geometry": {
                "type": "Point",
                "coordinates": [
                    19.179675000000074,
                    52.846146000016816
                ]
            }
        },
        {
            "type": "Feature",
            "properties": {
                "ref:csioz": 1104167,
                "name": "Pod Lipami",
                "addr:street": "Plac 11 Listopada",
                "addr:housenumber": "11",
                "addr:city": "Lipno",
                "addr:postcode": "87-600",
                "amenity": "pharmacy",
                "dispensing": "yes"
            },
            "geometry": {
                "type": "Point",
                "coordinates": [
                    19.176743051266904,
                    52.84035726439906
                ]
            }
        },
        {
            "type": "Feature",
            "properties": {
                "ref:csioz": 1104034,
                "name": "Victoria",
                "addr:street": "Służba Polsce",
                "addr:housenumber": "3",
                "addr:city": "Dobrzyń nad Wisłą",
                "addr:postcode": "87-610",
                "amenity": "pharmacy",
                "dispensing": "yes"
            },
            "geometry": {
                "type": "Point",
                "coordinates": [
                    19.31240083783372,
                    52.63900560624983
                ]
            }
        },
        {
            "type": "Feature",
            "properties": {
                "ref:csioz": 1104091,
                "addr:street": "Stary Rynek",
                "addr:housenumber": "11",
                "addr:city": "Kikół",
                "addr:postcode": "87-620",
                "amenity": "pharmacy",
                "dispensing": "yes"
            },
            "geometry": {
                "type": "Point",
                "coordinates": [
                    19.11854788027531,
                    52.91267445064464
                ]
            }
        },
        {
            "type": "Feature",
            "properties": {
                "ref:csioz": 1104138,
                "name": "Medicus",
                "addr:street": "Tadeusza Kościuszki",
                "addr:housenumber": "11",
                "addr:city": "Lipno",
                "addr:postcode": "87-600",
                "amenity": "pharmacy",
                "dispensing": "yes"
            },
            "geometry": {
                "type": "Point",
                "coordinates": [
                    19.180983461486136,
                    52.843744095712566
                ]
            }
        },
        {
            "type": "Feature",
            "properties": {
                "ref:csioz": 1153498,
                "name": "Apteka Szpitalna Szpitala W Lipnie",
                "addr:street": "Nieszawska",
                "addr:housenumber": "6",
                "addr:city": "Lipno",
                "addr:postcode": "87-600",
                "amenity": "pharmacy",
                "dispensing": "yes"
            },
            "geometry": {
                "type": "Point",
                "coordinates": [
                    19.157549974644873,
                    52.84206919651219
                ]
            }
        },
        {
            "type": "Feature",
            "properties": {
                "ref:csioz": 1169386,
                "name": "W Szpitalu",
                "addr:street": "Nieszawska",
                "addr:housenumber": "6",
                "addr:city": "Lipno",
                "addr:postcode": "87-600",
                "amenity": "pharmacy",
                "dispensing": "yes"
            },
            "geometry": {
                "type": "Point",
                "coordinates": [
                    19.157549974644873,
                    52.84206919651219
                ]
            }
        },
        {
            "type": "Feature",
            "properties": {
                "ref:csioz": 1170904,
                "addr:housenumber": "4",
                "addr:postcode": "87-610",
                "amenity": "pharmacy",
                "addr:place": "Grochowalsk",
                "dispensing": "yes"
            },
            "geometry": {
                "type": "Point",
                "coordinates": [
                    19.230139882905736,
                    52.68147787930624
                ]
            }
        },
        {
            "type": "Feature",
            "properties": {
                "ref:csioz": 1213406,
                "name": "Apteka Pod Jemiołą",
                "addr:street": "ul. Starowiejska",
                "addr:housenumber": "82",
                "addr:city": "Wielgie",
                "addr:postcode": "87-603",
                "amenity": "pharmacy",
                "dispensing": "yes"
            },
            "geometry": {
                "type": "Point",
                "coordinates": [
                    19.261987285186954,
                    52.74319622040274
                ]
            }
        },
        {
            "type": "Feature",
            "properties": {
                "ref:csioz": 1221364,
                "name": "Apteka Św. Jakuba",
                "addr:housenumber": "48",
                "addr:postcode": "87-602",
                "amenity": "pharmacy",
                "addr:place": "Janiszewo",
                "dispensing": "yes"
            },
            "geometry": {
                "type": "Point",
                "coordinates": [
                    19.251719709759413,
                    52.936454477056444
                ]
            }
        },
        {
            "type": "Feature",
            "properties": {
                "ref:csioz": 1104637,
                "name": "Esculap",
                "addr:street": "Dworcowa",
                "addr:housenumber": "3",
                "addr:city": "Skępe",
                "addr:postcode": "87-630",
                "amenity": "pharmacy",
                "dispensing": "yes"
            },
            "geometry": {
                "type": "Point",
                "coordinates": [
                    19.34139281707216,
                    52.868450596999324
                ]
            }
        },
        {
            "type": "Feature",
            "properties": {
                "ref:csioz": 1104858,
                "name": "Victoria Ii",
                "addr:street": "Szkolna",
                "addr:housenumber": "4",
                "addr:city": "Tłuchowo",
                "addr:postcode": "87-605",
                "amenity": "pharmacy",
                "dispensing": "yes"
            },
            "geometry": {
                "type": "Point",
                "coordinates": [
                    19.470965086067945,
                    52.74727159300565
                ]
            }
        },
        {
            "type": "Feature",
            "properties": {
                "ref:csioz": 1105493,
                "name": "Jedynka",
                "addr:street": "3 Maja",
                "addr:housenumber": "6",
                "addr:city": "Tłuchowo",
                "addr:postcode": "87-605",
                "amenity": "pharmacy",
                "dispensing": "yes"
            },
            "geometry": {
                "type": "Point",
                "coordinates": [
                    19.465751580387213,
                    52.74745260531596
                ]
            }
        },
        {
            "type": "Feature",
            "properties": {
                "ref:csioz": 1104146,
                "name": "Medicus Plus",
                "addr:street": "Rynek",
                "addr:housenumber": "3",
                "addr:city": "Skępe",
                "addr:postcode": "87-630",
                "amenity": "pharmacy",
                "dispensing": "yes"
            },
            "geometry": {
                "type": "Point",
                "coordinates": [
                    19.35731813802115,
                    52.86589438445192
                ]
            }
        },
        {
            "type": "Feature",
            "properties": {
                "ref:csioz": 1104408,
                "name": "Malva",
                "addr:street": "Rynek",
                "addr:housenumber": "20",
                "addr:city": "Skępe",
                "addr:postcode": "87-630",
                "amenity": "pharmacy",
                "dispensing": "yes"
            },
            "geometry": {
                "type": "Point",
                "coordinates": [
                    19.358056415307438,
                    52.865677010926994
                ]
            }
        },
        {
            "type": "Feature",
            "properties": {
                "ref:csioz": 1104419,
                "name": "Przy Szkole",
                "addr:street": "1 Maja",
                "addr:housenumber": "81",
                "addr:city": "Skępe",
                "addr:postcode": "87-630",
                "amenity": "pharmacy",
                "dispensing": "yes"
            },
            "geometry": {
                "type": "Point",
                "coordinates": [
                    19.347897430468613,
                    52.86685475288621
                ]
            }
        }
    ]
}