{
    "type": "FeatureCollection",
    "name": "JPT_KOD_JE_0212",
    "features": [
        {
            "type": "Feature",
            "properties": {
                "ref:csioz": 1132095,
                "name": "Pod Słońcem",
                "addr:street": "kpt. Stanisława Betleja",
                "addr:housenumber": "24",
                "addr:city": "Mirsk",
                "addr:postcode": "59-630",
                "amenity": "pharmacy"
            },
            "geometry": {
                "type": "Point",
                "coordinates": [
                    15.383805387316912,
                    50.971966009909664
                ]
            }
        },
        {
            "type": "Feature",
            "properties": {
                "ref:csioz": 1132153,
                "name": "\"Apteka \"\"Pod Św. Nepomucenem\"\"\"",
                "addr:street": "Kościelna",
                "addr:housenumber": "23",
                "addr:city": "Lwówek Śląski",
                "addr:postcode": "59-600",
                "amenity": "pharmacy"
            },
            "geometry": {
                "type": "Point",
                "coordinates": [
                    15.583258931393788,
                    51.11118078916454
                ]
            }
        },
        {
            "type": "Feature",
            "properties": {
                "ref:csioz": 1135381,
                "addr:housenumber": "70",
                "addr:postcode": "58-537",
                "amenity": "pharmacy",
                "addr:place": "Rębiszów"
            },
            "geometry": {
                "type": "Point",
                "coordinates": [
                    15.459871875136441,
                    50.95063531254252
                ]
            }
        },
        {
            "type": "Feature",
            "properties": {
                "ref:csioz": 1136061,
                "name": "Przyjazna",
                "addr:street": "Gryfiogórska",
                "addr:housenumber": "6",
                "addr:city": "Lubomierz",
                "addr:postcode": "59-623",
                "amenity": "pharmacy"
            },
            "geometry": {
                "type": "Point",
                "coordinates": [
                    15.501720221335422,
                    51.014889218831236
                ]
            }
        },
        {
            "type": "Feature",
            "properties": {
                "ref:csioz": 1137457,
                "name": "\"Dział Farmacji Szpitalnej \"\"Pj-Med\"\" Szpital Rehabilitacyjny\"\"\"",
                "addr:housenumber": "1",
                "addr:postcode": "59-623",
                "amenity": "pharmacy",
                "addr:place": "Popielówek"
            },
            "geometry": {
                "type": "Point",
                "coordinates": [
                    15.524577616056183,
                    50.974506776009996
                ]
            }
        },
        {
            "type": "Feature",
            "properties": {
                "ref:csioz": 1178445,
                "name": "Medicus",
                "addr:street": "Oświęcimska",
                "addr:housenumber": "3",
                "addr:city": "Lwówek Śląski",
                "addr:postcode": "59-600",
                "amenity": "pharmacy"
            },
            "geometry": {
                "type": "Point",
                "coordinates": [
                    15.5760739586027,
                    51.1107977709769
                ]
            }
        },
        {
            "type": "Feature",
            "properties": {
                "ref:csioz": 1196098,
                "name": "Apteka Centrum",
                "addr:street": "Zamkowa",
                "addr:housenumber": "3",
                "addr:city": "Lwówek Śląski",
                "addr:postcode": "59-600",
                "amenity": "pharmacy"
            },
            "geometry": {
                "type": "Point",
                "coordinates": [
                    15.585020999962913,
                    51.10925000001452
                ]
            }
        },
        {
            "type": "Feature",
            "properties": {
                "ref:csioz": 1131123,
                "name": "-",
                "addr:street": "Wolności",
                "addr:housenumber": "35-36",
                "addr:city": "Mirsk",
                "addr:postcode": "59-870",
                "amenity": "pharmacy"
            },
            "geometry": {
                "type": "Point",
                "coordinates": [
                    15.38338099994964,
                    50.96939700001451
                ]
            }
        },
        {
            "type": "Feature",
            "properties": {
                "ref:csioz": 1131109,
                "name": "\"Apteka \"\"Ław Chlebowych\"\"\"",
                "addr:street": "Wolności",
                "addr:housenumber": "21",
                "addr:city": "Lwówek Śląski",
                "addr:postcode": "59-600",
                "amenity": "pharmacy"
            },
            "geometry": {
                "type": "Point",
                "coordinates": [
                    15.58622999865759,
                    51.110845091606514
                ]
            }
        },
        {
            "type": "Feature",
            "properties": {
                "ref:csioz": 1131114,
                "name": "-",
                "addr:street": "Wolności",
                "addr:housenumber": "19",
                "addr:city": "Lwówek Śląski",
                "addr:postcode": "59-600",
                "amenity": "pharmacy"
            },
            "geometry": {
                "type": "Point",
                "coordinates": [
                    15.584779724072222,
                    51.111197061535684
                ]
            }
        },
        {
            "type": "Feature",
            "properties": {
                "ref:csioz": 1131353,
                "name": "Primula",
                "addr:street": "Rynek",
                "addr:housenumber": "3",
                "addr:city": "Gryfów Śląski",
                "addr:postcode": "59-860",
                "amenity": "pharmacy"
            },
            "geometry": {
                "type": "Point",
                "coordinates": [
                    15.41459013513802,
                    51.02757675750918
                ]
            }
        },
        {
            "type": "Feature",
            "properties": {
                "ref:csioz": 1131684,
                "name": "Pod Gryfem",
                "addr:street": "Kolejowa",
                "addr:housenumber": "19c",
                "addr:city": "Gryfów Śląski",
                "addr:postcode": "59-860",
                "amenity": "pharmacy"
            },
            "geometry": {
                "type": "Point",
                "coordinates": [
                    15.420025586503737,
                    51.03221357122907
                ]
            }
        },
        {
            "type": "Feature",
            "properties": {
                "ref:csioz": 1132102,
                "name": "Apteka Pod Białym Krukiem",
                "addr:street": "Słowackiego",
                "addr:housenumber": "1",
                "addr:city": "Lwówek Śląski",
                "addr:postcode": "59-600",
                "amenity": "pharmacy"
            },
            "geometry": {
                "type": "Point",
                "coordinates": [
                    15.584450099919904,
                    51.11085689951837
                ]
            }
        },
        {
            "type": "Feature",
            "properties": {
                "ref:csioz": 1131965,
                "name": "\"\"\"Apteka Busola\"\"\"",
                "addr:street": "Akacjowa",
                "addr:housenumber": "23",
                "addr:city": "Gryfów Śląski",
                "addr:postcode": "59-620",
                "amenity": "pharmacy"
            },
            "geometry": {
                "type": "Point",
                "coordinates": [
                    15.41842466469538,
                    51.033060072522936
                ]
            }
        },
        {
            "type": "Feature",
            "properties": {
                "ref:csioz": 1136142,
                "name": "Remedium",
                "addr:street": "Malownicza",
                "addr:housenumber": "1",
                "addr:city": "Gryfów Śląski",
                "addr:postcode": "59-620",
                "amenity": "pharmacy"
            },
            "geometry": {
                "type": "Point",
                "coordinates": [
                    15.412456931315626,
                    51.03100822171389
                ]
            }
        },
        {
            "type": "Feature",
            "properties": {
                "ref:csioz": 1137126,
                "name": "Dział Farmacji Szpitalnej W Ośrodek Rehabilitacyjny I Opiekuńczy Zgromadzenia Sióstr Św. Elżbiety",
                "addr:street": "Jana Kazimierza",
                "addr:housenumber": "1",
                "addr:city": "Wleń",
                "addr:postcode": "59-610",
                "amenity": "pharmacy"
            },
            "geometry": {
                "type": "Point",
                "coordinates": [
                    15.675424361810176,
                    51.01409590932739
                ]
            }
        },
        {
            "type": "Feature",
            "properties": {
                "ref:csioz": 1184818,
                "name": "Powiatowe Centrum Zdrowia Sp. Z O.O. Szpital Powiatowy",
                "addr:street": "Kościelna",
                "addr:housenumber": "21",
                "addr:city": "Lwówek Śląski",
                "addr:postcode": "59-600",
                "amenity": "pharmacy"
            },
            "geometry": {
                "type": "Point",
                "coordinates": [
                    15.58403138094781,
                    51.111289117274374
                ]
            }
        },
        {
            "type": "Feature",
            "properties": {
                "ref:csioz": 1203961,
                "name": "Zabobrze - Wleń",
                "addr:street": "Bohaterów Nysy",
                "addr:housenumber": "23/24",
                "addr:city": "Wleń",
                "addr:postcode": "59-610",
                "amenity": "pharmacy"
            },
            "geometry": {
                "type": "Point",
                "coordinates": [
                    15.674915337653445,
                    51.01700379062661
                ]
            }
        },
        {
            "type": "Feature",
            "properties": {
                "ref:csioz": 1206275,
                "name": "W Przychodni",
                "addr:street": "Gustawa Morcinka",
                "addr:housenumber": "7",
                "addr:city": "Lwówek Śląski",
                "addr:postcode": "59-600",
                "amenity": "pharmacy"
            },
            "geometry": {
                "type": "Point",
                "coordinates": [
                    15.585826496635669,
                    51.11187671602006
                ]
            }
        },
        {
            "type": "Feature",
            "properties": {
                "ref:csioz": 1219363,
                "name": "Nowa Apteka Pod Gryfem",
                "addr:street": "Jeleniogórska",
                "addr:housenumber": "5",
                "addr:city": "Gryfów Śląski",
                "addr:postcode": "59-620",
                "amenity": "pharmacy"
            },
            "geometry": {
                "type": "Point",
                "coordinates": [
                    15.42122276282603,
                    51.031805769897815
                ]
            }
        }
    ]
}