{
    "type": "FeatureCollection",
    "name": "JPT_KOD_JE_2415",
    "features": [
        {
            "type": "Feature",
            "properties": {
                "ref:csioz": 1056853,
                "name": "Wojewódzki Szpital Chorób Płuc Im. Dr Alojzego Pawelca",
                "addr:street": "Bracka",
                "addr:housenumber": "13",
                "addr:city": "Wodzisław Śląski",
                "addr:postcode": "44-300",
                "amenity": "pharmacy"
            },
            "geometry": {
                "type": "Point",
                "coordinates": [
                    18.48843333547165,
                    49.99793712211153
                ]
            }
        },
        {
            "type": "Feature",
            "properties": {
                "ref:csioz": 1062524,
                "name": "Brak Nazwy",
                "addr:street": "Raciborska",
                "addr:housenumber": "48",
                "addr:city": "Gorzyce",
                "addr:postcode": "44-350",
                "amenity": "pharmacy"
            },
            "geometry": {
                "type": "Point",
                "coordinates": [
                    18.391838622675742,
                    49.96045051197754
                ]
            }
        },
        {
            "type": "Feature",
            "properties": {
                "ref:csioz": 1067085,
                "name": "Apteka Sw. Anny",
                "addr:street": "ANDERSA",
                "addr:housenumber": "22",
                "addr:city": "PSZÓW",
                "addr:postcode": "44-370",
                "amenity": "pharmacy"
            },
            "geometry": {
                "type": "Point",
                "coordinates": [
                    18.385185594075026,
                    50.04884169557508
                ]
            }
        },
        {
            "type": "Feature",
            "properties": {
                "ref:csioz": 1067127,
                "name": "Apteka Blisko Ciebie",
                "addr:street": "Romualda Traugutta",
                "addr:housenumber": "9",
                "addr:city": "Pszów",
                "addr:postcode": "44-370",
                "amenity": "pharmacy"
            },
            "geometry": {
                "type": "Point",
                "coordinates": [
                    18.395951008681262,
                    50.04047361774371
                ]
            }
        },
        {
            "type": "Feature",
            "properties": {
                "ref:csioz": 1067422,
                "name": "Doz Apteka Dbam O Zdrowie Pod Jaskółką",
                "addr:street": "Władysława Orkana",
                "addr:housenumber": "6",
                "addr:city": "Radlin",
                "addr:postcode": "44-310",
                "amenity": "pharmacy"
            },
            "geometry": {
                "type": "Point",
                "coordinates": [
                    18.485026400483363,
                    50.046634886902844
                ]
            }
        },
        {
            "type": "Feature",
            "properties": {
                "ref:csioz": 1068350,
                "name": "Na Bema",
                "addr:street": "gen. Józefa Bema",
                "addr:housenumber": "52",
                "addr:city": "Rydułtowy",
                "addr:postcode": "44-280",
                "amenity": "pharmacy"
            },
            "geometry": {
                "type": "Point",
                "coordinates": [
                    18.415018648709637,
                    50.06248242179108
                ]
            }
        },
        {
            "type": "Feature",
            "properties": {
                "ref:csioz": 1068391,
                "name": "Apteka Orłowiec",
                "addr:street": "Osiedle Orłowiec",
                "addr:housenumber": "20 A",
                "addr:city": "Rydułtowy",
                "addr:postcode": "44-280",
                "amenity": "pharmacy"
            },
            "geometry": {
                "type": "Point",
                "coordinates": [
                    18.423560379605096,
                    50.074532962777
                ]
            }
        },
        {
            "type": "Feature",
            "properties": {
                "ref:csioz": 1068401,
                "name": "Doz Apteka Dbam O Zdrowie Pod Jaskółką",
                "addr:street": "Plebiscytowa",
                "addr:housenumber": "48",
                "addr:city": "Rydułtowy",
                "addr:postcode": "44-200",
                "amenity": "pharmacy"
            },
            "geometry": {
                "type": "Point",
                "coordinates": [
                    18.42377374606939,
                    50.05992156787362
                ]
            }
        },
        {
            "type": "Feature",
            "properties": {
                "ref:csioz": 1068425,
                "name": "Gemini",
                "addr:street": "Strzelców Bytomskich",
                "addr:housenumber": "11",
                "addr:city": "Rydułtowy",
                "addr:postcode": "42-280",
                "amenity": "pharmacy"
            },
            "geometry": {
                "type": "Point",
                "coordinates": [
                    18.418636191690776,
                    50.06614508335214
                ]
            }
        },
        {
            "type": "Feature",
            "properties": {
                "ref:csioz": 1069773,
                "name": "Brak Nazwy",
                "addr:street": "Krzyżowa",
                "addr:housenumber": "9",
                "addr:city": "Syrynia",
                "addr:postcode": "44-361",
                "amenity": "pharmacy"
            },
            "geometry": {
                "type": "Point",
                "coordinates": [
                    18.329031282093087,
                    50.0244635868378
                ]
            }
        },
        {
            "type": "Feature",
            "properties": {
                "ref:csioz": 1071039,
                "name": "Brak Nazwy",
                "addr:street": "Księżnej Konstancji",
                "addr:housenumber": "4",
                "addr:city": "Wodzisław Śląski",
                "addr:postcode": "44-300",
                "amenity": "pharmacy"
            },
            "geometry": {
                "type": "Point",
                "coordinates": [
                    18.46190162660183,
                    50.002206937959556
                ]
            }
        },
        {
            "type": "Feature",
            "properties": {
                "ref:csioz": 1071071,
                "name": "Eskulap",
                "addr:street": "Osiedle XXX Lecia",
                "addr:housenumber": "62A",
                "addr:city": "Wodzisław Śląski",
                "addr:postcode": "44-286",
                "amenity": "pharmacy"
            },
            "geometry": {
                "type": "Point",
                "coordinates": [
                    18.45699600622747,
                    50.011195923832645
                ]
            }
        },
        {
            "type": "Feature",
            "properties": {
                "ref:csioz": 1071107,
                "name": "Brak Nazwy",
                "addr:street": "Targowa",
                "addr:housenumber": "12",
                "addr:city": "Wodzisław Śląski",
                "addr:postcode": "44-300",
                "amenity": "pharmacy"
            },
            "geometry": {
                "type": "Point",
                "coordinates": [
                    18.46327299999985,
                    50.00119800001251
                ]
            }
        },
        {
            "type": "Feature",
            "properties": {
                "ref:csioz": 1071110,
                "name": "\"Apteka Cef@Rm 36,6\"",
                "addr:street": "Wincentego Witosa",
                "addr:housenumber": "28",
                "addr:city": "Wodzisław Śląski",
                "addr:postcode": "44-300",
                "amenity": "pharmacy"
            },
            "geometry": {
                "type": "Point",
                "coordinates": [
                    18.4741183359707,
                    50.00485105668657
                ]
            }
        },
        {
            "type": "Feature",
            "properties": {
                "ref:csioz": 1072625,
                "name": "Brak",
                "addr:street": "DWORCOWA",
                "addr:housenumber": "12",
                "addr:city": "CZYŻOWICE",
                "addr:postcode": "42-352",
                "amenity": "pharmacy"
            },
            "geometry": {
                "type": "Point",
                "coordinates": [
                    18.408775976379083,
                    49.982539402357
                ]
            }
        },
        {
            "type": "Feature",
            "properties": {
                "ref:csioz": 1072674,
                "name": "Brak",
                "addr:street": "1- MAJA",
                "addr:housenumber": "60 A",
                "addr:city": "GODÓW",
                "addr:postcode": "44-340",
                "amenity": "pharmacy"
            },
            "geometry": {
                "type": "Point",
                "coordinates": [
                    18.485320999999868,
                    49.91738700001239
                ]
            }
        },
        {
            "type": "Feature",
            "properties": {
                "ref:csioz": 1072682,
                "name": "Św. Damiana",
                "addr:street": "1 Maja",
                "addr:housenumber": "18",
                "addr:city": "Godów",
                "addr:postcode": "44-340",
                "amenity": "pharmacy"
            },
            "geometry": {
                "type": "Point",
                "coordinates": [
                    18.490854024464873,
                    49.91478971975669
                ]
            }
        },
        {
            "type": "Feature",
            "properties": {
                "ref:csioz": 1072711,
                "name": "U Tomka",
                "addr:street": "STRAŻACKA",
                "addr:housenumber": "1",
                "addr:city": "GOŁKOWICE",
                "addr:postcode": "44-341",
                "amenity": "pharmacy"
            },
            "geometry": {
                "type": "Point",
                "coordinates": [
                    18.505682411664274,
                    49.911592203148764
                ]
            }
        },
        {
            "type": "Feature",
            "properties": {
                "ref:csioz": 1073494,
                "name": "Punkt Apteczny W Turzy Śląskiej",
                "addr:street": "BOGUMIŃSKA",
                "addr:housenumber": "42",
                "addr:city": "TURZA ŚLĄSKA",
                "addr:postcode": "44-351",
                "amenity": "pharmacy"
            },
            "geometry": {
                "type": "Point",
                "coordinates": [
                    18.436092971277613,
                    49.97204325724971
                ]
            }
        },
        {
            "type": "Feature",
            "properties": {
                "ref:csioz": 1073876,
                "name": "Wojewódzki Ośrodek Lecznictwa Odwykowego I Zakład Opiekuńczo-Leczniczy W Gorzycach",
                "addr:street": "ZAMKOWA",
                "addr:housenumber": "8",
                "addr:city": "GORZYCE",
                "addr:postcode": "44-350",
                "amenity": "pharmacy"
            },
            "geometry": {
                "type": "Point",
                "coordinates": [
                    18.37923527271147,
                    49.960088024289945
                ]
            }
        },
        {
            "type": "Feature",
            "properties": {
                "ref:csioz": 1115431,
                "name": "Apteka Dr. Optima",
                "addr:street": "Radlińska",
                "addr:housenumber": "61",
                "addr:city": "Wodzisław Śląski",
                "addr:postcode": "44-304",
                "amenity": "pharmacy"
            },
            "geometry": {
                "type": "Point",
                "coordinates": [
                    18.45886626419183,
                    50.0129283670868
                ]
            }
        },
        {
            "type": "Feature",
            "properties": {
                "ref:csioz": 1117388,
                "name": "Śląskie Centrum Medyczne Sp. Z O.O. Stacjonarna Opieka Medyczna",
                "addr:street": "świętego Wawrzyńca",
                "addr:housenumber": "1",
                "addr:city": "Wodzisław Śląski",
                "addr:postcode": "44-304",
                "amenity": "pharmacy"
            },
            "geometry": {
                "type": "Point",
                "coordinates": [
                    18.50184299999987,
                    49.97717800001247
                ]
            }
        },
        {
            "type": "Feature",
            "properties": {
                "ref:csioz": 1121871,
                "name": "Apteka Na Pszowskiej",
                "addr:street": "Pszowska",
                "addr:housenumber": "289",
                "addr:city": "Wodzisław Śląski",
                "addr:postcode": "44-373",
                "amenity": "pharmacy"
            },
            "geometry": {
                "type": "Point",
                "coordinates": [
                    18.412781860982896,
                    50.01514266188802
                ]
            }
        },
        {
            "type": "Feature",
            "properties": {
                "ref:csioz": 1178554,
                "addr:street": "Raciborska",
                "addr:housenumber": "32",
                "addr:city": "Rogów",
                "addr:postcode": "44-362",
                "amenity": "pharmacy"
            },
            "geometry": {
                "type": "Point",
                "coordinates": [
                    18.353503486090975,
                    49.98794571150193
                ]
            }
        },
        {
            "type": "Feature",
            "properties": {
                "ref:csioz": 1202208,
                "name": "Eskulap",
                "addr:street": "Wodzisławska",
                "addr:housenumber": "12a",
                "addr:city": "Czyżowice",
                "addr:postcode": "44-352",
                "amenity": "pharmacy"
            },
            "geometry": {
                "type": "Point",
                "coordinates": [
                    18.4199765912004,
                    49.98642922715177
                ]
            }
        },
        {
            "type": "Feature",
            "properties": {
                "ref:csioz": 1068841,
                "name": "Św.Michała",
                "addr:street": "1 Maja",
                "addr:housenumber": "151",
                "addr:city": "Skrzyszów",
                "addr:postcode": "44-348",
                "amenity": "pharmacy"
            },
            "geometry": {
                "type": "Point",
                "coordinates": [
                    18.491359262588826,
                    49.950331389637846
                ]
            }
        },
        {
            "type": "Feature",
            "properties": {
                "ref:csioz": 1068855,
                "name": "Apteka U Tomka",
                "addr:street": "Dębowa",
                "addr:housenumber": "2A",
                "addr:city": "Skrzyszów",
                "addr:postcode": "44-348",
                "amenity": "pharmacy"
            },
            "geometry": {
                "type": "Point",
                "coordinates": [
                    18.487103999999874,
                    49.94940500001243
                ]
            }
        },
        {
            "type": "Feature",
            "properties": {
                "ref:csioz": 1070959,
                "name": "Eskulap",
                "addr:street": "26 Marca",
                "addr:housenumber": "164",
                "addr:city": "Wodzisław Śląski",
                "addr:postcode": "44-300",
                "amenity": "pharmacy"
            },
            "geometry": {
                "type": "Point",
                "coordinates": [
                    18.461119158013933,
                    50.01023799126378
                ]
            }
        },
        {
            "type": "Feature",
            "properties": {
                "ref:csioz": 1070976,
                "name": "Brak Nazwy",
                "addr:street": "26 Marca",
                "addr:housenumber": "55",
                "addr:city": "Wodzisław Śląski",
                "addr:postcode": "44-300",
                "amenity": "pharmacy"
            },
            "geometry": {
                "type": "Point",
                "coordinates": [
                    18.46212999999985,
                    50.010007000012536
                ]
            }
        },
        {
            "type": "Feature",
            "properties": {
                "ref:csioz": 1070992,
                "name": "Brak Nazwy",
                "addr:street": "świętego Wawrzyńca",
                "addr:housenumber": "1",
                "addr:city": "Wodzisław Śląski",
                "addr:postcode": "44-304",
                "amenity": "pharmacy"
            },
            "geometry": {
                "type": "Point",
                "coordinates": [
                    18.50169499537006,
                    49.977002677546466
                ]
            }
        },
        {
            "type": "Feature",
            "properties": {
                "ref:csioz": 1071005,
                "name": "Doz Apteka Dbam O Zdrowie Pod Jaskółką",
                "addr:street": "Bolesława Chrobrego",
                "addr:housenumber": "119",
                "addr:city": "Wodzisław Śląski",
                "addr:postcode": "44-300",
                "amenity": "pharmacy"
            },
            "geometry": {
                "type": "Point",
                "coordinates": [
                    18.467123236916645,
                    50.02269437635341
                ]
            }
        },
        {
            "type": "Feature",
            "properties": {
                "ref:csioz": 1074435,
                "name": "Zespół Opieki Zdrowotnej W Wodzisławiu Śląskim",
                "addr:street": "26 MARCA",
                "addr:housenumber": "51",
                "addr:city": "WODZISŁAW ŚLĄSKI",
                "addr:postcode": "44-300",
                "amenity": "pharmacy"
            },
            "geometry": {
                "type": "Point",
                "coordinates": [
                    18.463473999999852,
                    50.00978200001252
                ]
            }
        },
        {
            "type": "Feature",
            "properties": {
                "ref:csioz": 1116456,
                "name": "Medhouse",
                "addr:street": "Radlińska",
                "addr:housenumber": "68",
                "addr:city": "Wodzisław Śląski",
                "addr:postcode": "44-300",
                "amenity": "pharmacy"
            },
            "geometry": {
                "type": "Point",
                "coordinates": [
                    18.460044098697576,
                    50.01536624750245
                ]
            }
        },
        {
            "type": "Feature",
            "properties": {
                "ref:csioz": 1166606,
                "name": "Familia",
                "addr:street": "Raciborska",
                "addr:housenumber": "32",
                "addr:city": "Gorzyce",
                "addr:postcode": "44-350",
                "amenity": "pharmacy"
            },
            "geometry": {
                "type": "Point",
                "coordinates": [
                    18.3952060338985,
                    49.959965550261224
                ]
            }
        },
        {
            "type": "Feature",
            "properties": {
                "ref:csioz": 1170957,
                "name": "Szpital W Rydułtowach",
                "addr:street": "Plebiscytowa",
                "addr:housenumber": "47",
                "addr:city": "Rydułtowy",
                "addr:postcode": "44-280",
                "amenity": "pharmacy"
            },
            "geometry": {
                "type": "Point",
                "coordinates": [
                    18.42308266544803,
                    50.05896699972619
                ]
            }
        },
        {
            "type": "Feature",
            "properties": {
                "ref:csioz": 1172277,
                "name": "Pszowskie Centrum Leków - Apteka Melissa",
                "addr:street": "Romualda Traugutta",
                "addr:housenumber": "52",
                "addr:city": "Pszów",
                "addr:postcode": "44-370",
                "amenity": "pharmacy"
            },
            "geometry": {
                "type": "Point",
                "coordinates": [
                    18.40447187846004,
                    50.042043145292894
                ]
            }
        },
        {
            "type": "Feature",
            "properties": {
                "ref:csioz": 1182660,
                "name": "Apteka Pod Lwem",
                "addr:street": "Raciborska",
                "addr:housenumber": "144",
                "addr:city": "Rydułtowy",
                "addr:postcode": "44-280",
                "amenity": "pharmacy"
            },
            "geometry": {
                "type": "Point",
                "coordinates": [
                    18.40949824849435,
                    50.07283366416181
                ]
            }
        },
        {
            "type": "Feature",
            "properties": {
                "ref:csioz": 1185105,
                "name": "Familia",
                "addr:street": "1 Maja",
                "addr:housenumber": "81",
                "addr:city": "Mszana",
                "addr:postcode": "44-325",
                "amenity": "pharmacy"
            },
            "geometry": {
                "type": "Point",
                "coordinates": [
                    18.527926310167558,
                    49.96854625602511
                ]
            }
        },
        {
            "type": "Feature",
            "properties": {
                "ref:csioz": 1189250,
                "name": "Apteka Zdrowit",
                "addr:street": "Targowa",
                "addr:housenumber": "12c",
                "addr:city": "Wodzisław Śląski",
                "addr:postcode": "44-300",
                "amenity": "pharmacy"
            },
            "geometry": {
                "type": "Point",
                "coordinates": [
                    18.463362813796998,
                    50.00063558175338
                ]
            }
        },
        {
            "type": "Feature",
            "properties": {
                "ref:csioz": 1204280,
                "name": "Apteka Pod Lwem",
                "addr:street": "ks. płk. Wilhelma Kubsza",
                "addr:housenumber": "8",
                "addr:city": "Wodzisław Śląski",
                "addr:postcode": "44-300",
                "amenity": "pharmacy"
            },
            "geometry": {
                "type": "Point",
                "coordinates": [
                    18.46742148979302,
                    50.00293158509232
                ]
            }
        },
        {
            "type": "Feature",
            "properties": {
                "ref:csioz": 1219616,
                "name": "Apteka Blisko Ciebie",
                "addr:street": "świętego Wawrzyńca",
                "addr:housenumber": "3a",
                "addr:city": "Wodzisław Śląski",
                "addr:postcode": "44-304",
                "amenity": "pharmacy"
            },
            "geometry": {
                "type": "Point",
                "coordinates": [
                    18.503353517140017,
                    49.978680516187026
                ]
            }
        },
        {
            "type": "Feature",
            "properties": {
                "ref:csioz": 1219627,
                "name": "Apteka Blisko Ciebie",
                "addr:street": "26 Marca",
                "addr:housenumber": "18",
                "addr:city": "Wodzisław Śląski",
                "addr:postcode": "44-300",
                "amenity": "pharmacy"
            },
            "geometry": {
                "type": "Point",
                "coordinates": [
                    18.469657194232433,
                    50.005329333591945
                ]
            }
        },
        {
            "type": "Feature",
            "properties": {
                "ref:csioz": 1220187,
                "name": "Familia",
                "addr:street": "Tysiąclecia",
                "addr:housenumber": "25",
                "addr:city": "Turza Śląska",
                "addr:postcode": "44-351",
                "amenity": "pharmacy"
            },
            "geometry": {
                "type": "Point",
                "coordinates": [
                    18.449168360896138,
                    49.969159524098515
                ]
            }
        },
        {
            "type": "Feature",
            "properties": {
                "ref:csioz": 1221501,
                "name": "Apteka Pod Lwem",
                "addr:street": "26 Marca",
                "addr:housenumber": "94A",
                "addr:city": "Wodzisław Śląski",
                "addr:postcode": "44-300",
                "amenity": "pharmacy"
            },
            "geometry": {
                "type": "Point",
                "coordinates": [
                    18.46647293741843,
                    50.0104706572
                ]
            }
        },
        {
            "type": "Feature",
            "properties": {
                "ref:csioz": 1224337,
                "name": "Familia",
                "addr:street": "Wiejska",
                "addr:housenumber": "32",
                "addr:city": "Olza",
                "addr:postcode": "44-353",
                "amenity": "pharmacy"
            },
            "geometry": {
                "type": "Point",
                "coordinates": [
                    18.344575388762287,
                    49.94886525064095
                ]
            }
        },
        {
            "type": "Feature",
            "properties": {
                "ref:csioz": 1229893,
                "name": "Apteka Pod Lwem",
                "addr:street": "Jastrzębska",
                "addr:housenumber": "76",
                "addr:city": "Wodzisław Śląski",
                "addr:postcode": "44-300",
                "amenity": "pharmacy"
            },
            "geometry": {
                "type": "Point",
                "coordinates": [
                    18.48525722853328,
                    49.99498201284696
                ]
            }
        },
        {
            "type": "Feature",
            "properties": {
                "ref:csioz": 1230838,
                "name": "Apteka Św. Damiana",
                "addr:street": "Maja 1",
                "addr:housenumber": "92",
                "addr:city": "Gołkowice",
                "addr:postcode": "44-341",
                "amenity": "pharmacy"
            },
            "geometry": {
                "type": "Point",
                "coordinates": [
                    18.506864999999873,
                    49.91237800001238
                ]
            }
        },
        {
            "type": "Feature",
            "properties": {
                "ref:csioz": 1065476,
                "name": "Brak Nazwy",
                "addr:street": "KORFANTEGO",
                "addr:housenumber": "34",
                "addr:city": "LUBOMIA",
                "addr:postcode": "44-360",
                "amenity": "pharmacy"
            },
            "geometry": {
                "type": "Point",
                "coordinates": [
                    18.306848796122733,
                    50.039244808946364
                ]
            }
        },
        {
            "type": "Feature",
            "properties": {
                "ref:csioz": 1220140,
                "name": "U Tomka",
                "addr:street": "Centralna",
                "addr:housenumber": "78",
                "addr:city": "Połomia",
                "addr:postcode": "44-323",
                "amenity": "pharmacy"
            },
            "geometry": {
                "type": "Point",
                "coordinates": [
                    18.55503139759173,
                    49.9904455687247
                ]
            }
        },
        {
            "type": "Feature",
            "properties": {
                "ref:csioz": 1215495,
                "name": "Galen",
                "addr:street": "ul. Józefa Hallera",
                "addr:housenumber": "15",
                "addr:city": "Radlin",
                "addr:postcode": "44-310",
                "amenity": "pharmacy"
            },
            "geometry": {
                "type": "Point",
                "coordinates": [
                    18.46976421561689,
                    50.05236913888458
                ]
            }
        },
        {
            "type": "Feature",
            "properties": {
                "ref:csioz": 1065616,
                "name": "Medikor",
                "addr:street": "WYZWOLENIA",
                "addr:housenumber": "154",
                "addr:city": "MARKLOWICE",
                "addr:postcode": "44-321",
                "amenity": "pharmacy"
            },
            "geometry": {
                "type": "Point",
                "coordinates": [
                    18.513818015434516,
                    50.0184320864628
                ]
            }
        },
        {
            "type": "Feature",
            "properties": {
                "ref:csioz": 1067406,
                "name": "Ema",
                "addr:street": "Wojciecha Korfantego",
                "addr:housenumber": "32 D",
                "addr:city": "Radlin",
                "addr:postcode": "44-310",
                "amenity": "pharmacy"
            },
            "geometry": {
                "type": "Point",
                "coordinates": [
                    18.481729593350746,
                    50.047145280624314
                ]
            }
        },
        {
            "type": "Feature",
            "properties": {
                "ref:csioz": 1112748,
                "name": "Niepubliczny Zakład Opieki Zdrowotnej Specjalistyczna Praktyka Chirurgiczna Stacjonarne Całodobowe Leczenie Szpitalne",
                "addr:street": "Kazimierza Przerwy-Tetmajera",
                "addr:housenumber": "150",
                "addr:city": "Rydułtowy",
                "addr:postcode": "44-280",
                "amenity": "pharmacy"
            },
            "geometry": {
                "type": "Point",
                "coordinates": [
                    18.431266999999842,
                    50.06712600001259
                ]
            }
        },
        {
            "type": "Feature",
            "properties": {
                "ref:csioz": 1184202,
                "addr:street": "Plebiscytowa",
                "addr:housenumber": "47",
                "addr:city": "Rydułtowy",
                "addr:postcode": "44-280",
                "amenity": "pharmacy"
            },
            "geometry": {
                "type": "Point",
                "coordinates": [
                    18.42308266544803,
                    50.05896699972619
                ]
            }
        },
        {
            "type": "Feature",
            "properties": {
                "ref:csioz": 1200043,
                "name": "Apteka Pod Lwem",
                "addr:street": "Wojciecha Korfantego",
                "addr:housenumber": "12",
                "addr:city": "Radlin",
                "addr:postcode": "44-310",
                "amenity": "pharmacy"
            },
            "geometry": {
                "type": "Point",
                "coordinates": [
                    18.4761767378096,
                    50.04917018007516
                ]
            }
        },
        {
            "type": "Feature",
            "properties": {
                "ref:csioz": 1213992,
                "name": "Apteka Premium-Lek",
                "addr:street": "ul. Wojciecha Korfantego",
                "addr:housenumber": "3",
                "addr:city": "Radlin",
                "addr:postcode": "44-310",
                "amenity": "pharmacy"
            },
            "geometry": {
                "type": "Point",
                "coordinates": [
                    18.47415951392108,
                    50.05025534149174
                ]
            }
        },
        {
            "type": "Feature",
            "properties": {
                "ref:csioz": 1218300,
                "name": "Apteka Melissa",
                "addr:street": "Kazimierza Przerwy-Tetmajera",
                "addr:housenumber": "150",
                "addr:city": "Rydułtowy",
                "addr:postcode": "44-280",
                "amenity": "pharmacy"
            },
            "geometry": {
                "type": "Point",
                "coordinates": [
                    18.431266999999842,
                    50.06712600001259
                ]
            }
        }
    ]
}