{
    "type": "FeatureCollection",
    "name": "JPT_KOD_JE_2469",
    "features": [
        {
            "type": "Feature",
            "properties": {
                "ref:csioz": 1176712,
                "name": "Pod Kwiatami Vii",
                "addr:street": "Uniczowska",
                "addr:housenumber": "16",
                "addr:city": "Katowice",
                "addr:postcode": "40-748",
                "amenity": "pharmacy",
                "dispensing": "yes"
            },
            "geometry": {
                "type": "Point",
                "coordinates": [
                    18.968531744058012,
                    50.176507579290686
                ]
            }
        },
        {
            "type": "Feature",
            "properties": {
                "ref:csioz": 1064528,
                "name": "Salix",
                "addr:street": "Uniczowska",
                "addr:housenumber": "2",
                "addr:city": "Katowice",
                "addr:postcode": "40-748",
                "amenity": "pharmacy",
                "dispensing": "yes"
            },
            "geometry": {
                "type": "Point",
                "coordinates": [
                    18.97047265829317,
                    50.1759071123312
                ]
            }
        },
        {
            "type": "Feature",
            "properties": {
                "ref:csioz": 1057404,
                "name": "Caritas Archidiecezji Katowickiej Dom Świętego Józefa Nzoz Zakład Opiekuńczo-Leczniczy",
                "addr:street": "Ks. Czempiela",
                "addr:housenumber": "1",
                "addr:city": "Katowice",
                "addr:postcode": "40-044",
                "amenity": "pharmacy",
                "dispensing": "yes"
            },
            "geometry": {
                "type": "Point",
                "coordinates": [
                    19.01860112755213,
                    50.24956012836732
                ]
            }
        },
        {
            "type": "Feature",
            "properties": {
                "ref:csioz": 1056831,
                "name": "Niepubliczny Zakład Opieki Zdrowotnej Szpitala Specjalistycznego Im Prof. E. Michałowskiego",
                "addr:street": "Strzelecka",
                "addr:housenumber": "9",
                "addr:city": "Katowice",
                "addr:postcode": "40-073",
                "amenity": "pharmacy",
                "dispensing": "yes"
            },
            "geometry": {
                "type": "Point",
                "coordinates": [
                    19.006241746661743,
                    50.25361280518896
                ]
            }
        },
        {
            "type": "Feature",
            "properties": {
                "ref:csioz": 1056889,
                "name": "Angelius Szpital Provita",
                "addr:street": "Fabryczna",
                "addr:housenumber": "13d",
                "addr:city": "Katowice",
                "addr:postcode": "40-611",
                "amenity": "pharmacy",
                "dispensing": "yes"
            },
            "geometry": {
                "type": "Point",
                "coordinates": [
                    18.98470375618399,
                    50.21664799899951
                ]
            }
        },
        {
            "type": "Feature",
            "properties": {
                "ref:csioz": 1057001,
                "name": "\"'Łubinowa' - Szpital\"",
                "addr:street": "Łubinowa",
                "addr:housenumber": "3",
                "addr:city": "Katowice",
                "addr:postcode": "40-645",
                "amenity": "pharmacy",
                "dispensing": "yes"
            },
            "geometry": {
                "type": "Point",
                "coordinates": [
                    18.990173216295172,
                    50.20594401102862
                ]
            }
        },
        {
            "type": "Feature",
            "properties": {
                "ref:csioz": 1057219,
                "name": "Zakład Opiekuńczo-Leczniczy Prowadzony Przez Zgromadzenie Sióstr Św. Jadwigi",
                "addr:street": "Gliwicka",
                "addr:housenumber": "78",
                "addr:city": "Katowice",
                "addr:postcode": "40-854",
                "amenity": "pharmacy",
                "dispensing": "yes"
            },
            "geometry": {
                "type": "Point",
                "coordinates": [
                    18.999968058961482,
                    50.26353762925394
                ]
            }
        },
        {
            "type": "Feature",
            "properties": {
                "ref:csioz": 1063546,
                "name": "Brak Nazwy",
                "addr:street": "Stefana Batorego",
                "addr:housenumber": "4",
                "addr:city": "Katowice",
                "addr:postcode": "40-061",
                "amenity": "pharmacy",
                "dispensing": "yes"
            },
            "geometry": {
                "type": "Point",
                "coordinates": [
                    19.01734770689323,
                    50.25536001583354
                ]
            }
        },
        {
            "type": "Feature",
            "properties": {
                "ref:csioz": 1063601,
                "name": "Apteka Larix",
                "addr:street": "Brzozowa",
                "addr:housenumber": "21",
                "addr:city": "Katowice",
                "addr:postcode": "40-170",
                "amenity": "pharmacy",
                "dispensing": "yes"
            },
            "geometry": {
                "type": "Point",
                "coordinates": [
                    19.031805442690683,
                    50.27199333754052
                ]
            }
        },
        {
            "type": "Feature",
            "properties": {
                "ref:csioz": 1063617,
                "name": "Super-Pharm Apteka",
                "addr:street": "Chorzowska",
                "addr:housenumber": "107",
                "addr:city": "Katowice",
                "addr:postcode": "40-141",
                "amenity": "pharmacy",
                "dispensing": "yes"
            },
            "geometry": {
                "type": "Point",
                "coordinates": [
                    19.004422073018176,
                    50.26984094920877
                ]
            }
        },
        {
            "type": "Feature",
            "properties": {
                "ref:csioz": 1063625,
                "name": "Europejska",
                "addr:street": "Chorzowska",
                "addr:housenumber": "107",
                "addr:city": "Katowice",
                "addr:postcode": "40-101",
                "amenity": "pharmacy",
                "dispensing": "yes"
            },
            "geometry": {
                "type": "Point",
                "coordinates": [
                    19.004422073018176,
                    50.26981094920877
                ]
            }
        },
        {
            "type": "Feature",
            "properties": {
                "ref:csioz": 1063649,
                "name": "Brak Nazwy",
                "addr:street": "Chorzowska",
                "addr:housenumber": "7 A",
                "addr:city": "Katowice",
                "addr:postcode": "40-121",
                "amenity": "pharmacy",
                "dispensing": "yes"
            },
            "geometry": {
                "type": "Point",
                "coordinates": [
                    19.02082780561145,
                    50.265510613146155
                ]
            }
        },
        {
            "type": "Feature",
            "properties": {
                "ref:csioz": 1063658,
                "name": "Brak Nazwy",
                "addr:street": "Dębowa",
                "addr:housenumber": "19",
                "addr:city": "Katowice",
                "addr:postcode": "40-104",
                "amenity": "pharmacy",
                "dispensing": "yes"
            },
            "geometry": {
                "type": "Point",
                "coordinates": [
                    18.998615350132315,
                    50.27287106223297
                ]
            }
        },
        {
            "type": "Feature",
            "properties": {
                "ref:csioz": 1063674,
                "name": "Centrum Zdrowia",
                "addr:street": "Franciszkańska",
                "addr:housenumber": "30",
                "addr:city": "Katowice",
                "addr:postcode": "40-728",
                "amenity": "pharmacy",
                "dispensing": "yes"
            },
            "geometry": {
                "type": "Point",
                "coordinates": [
                    18.97041816644935,
                    50.22783959720867
                ]
            }
        },
        {
            "type": "Feature",
            "properties": {
                "ref:csioz": 1063682,
                "name": "Mariańska",
                "addr:street": "Aleksandra Fredry",
                "addr:housenumber": "18",
                "addr:city": "Katowice",
                "addr:postcode": "40-662",
                "amenity": "pharmacy",
                "dispensing": "yes"
            },
            "geometry": {
                "type": "Point",
                "coordinates": [
                    18.978210442520638,
                    50.2100600943062
                ]
            }
        },
        {
            "type": "Feature",
            "properties": {
                "ref:csioz": 1063804,
                "name": "Brak Nazwy",
                "addr:street": "Jagiellońska",
                "addr:housenumber": "38",
                "addr:city": "Katowice",
                "addr:postcode": "40-032",
                "amenity": "pharmacy",
                "dispensing": "yes"
            },
            "geometry": {
                "type": "Point",
                "coordinates": [
                    19.026759003980537,
                    50.25396910078657
                ]
            }
        },
        {
            "type": "Feature",
            "properties": {
                "ref:csioz": 1063812,
                "name": "4 Pory Roku",
                "addr:street": "Jagiellońska",
                "addr:housenumber": "4",
                "addr:city": "Katowice",
                "addr:postcode": "40-035",
                "amenity": "pharmacy",
                "dispensing": "yes"
            },
            "geometry": {
                "type": "Point",
                "coordinates": [
                    19.019728994823424,
                    50.25453240032922
                ]
            }
        },
        {
            "type": "Feature",
            "properties": {
                "ref:csioz": 1063836,
                "name": "Centrum-Centrum Tanich Leków",
                "addr:street": "Józefowska",
                "addr:housenumber": "93",
                "addr:city": "Katowice",
                "addr:postcode": "40-154",
                "amenity": "pharmacy",
                "dispensing": "yes"
            },
            "geometry": {
                "type": "Point",
                "coordinates": [
                    19.01469680343699,
                    50.28316084282029
                ]
            }
        },
        {
            "type": "Feature",
            "properties": {
                "ref:csioz": 1063873,
                "name": "Apteka Prima",
                "addr:street": "Zofii Kossak-Szczuckiej",
                "addr:housenumber": "41",
                "addr:city": "Katowice",
                "addr:postcode": "40-578",
                "amenity": "pharmacy",
                "dispensing": "yes"
            },
            "geometry": {
                "type": "Point",
                "coordinates": [
                    18.986406178808544,
                    50.23311937744723
                ]
            }
        },
        {
            "type": "Feature",
            "properties": {
                "ref:csioz": 1063885,
                "name": "Apteka Prywatna Koral",
                "addr:street": "Stanisława Kossutha",
                "addr:housenumber": "2",
                "addr:city": "Katowice",
                "addr:postcode": "40-844",
                "amenity": "pharmacy",
                "dispensing": "yes"
            },
            "geometry": {
                "type": "Point",
                "coordinates": [
                    18.97433586776776,
                    50.2661563460066
                ]
            }
        },
        {
            "type": "Feature",
            "properties": {
                "ref:csioz": 1063899,
                "name": "Apteka Ligota",
                "addr:street": "Koszalińska",
                "addr:housenumber": "22",
                "addr:city": "Katowice",
                "addr:postcode": "40-717",
                "amenity": "pharmacy",
                "dispensing": "yes"
            },
            "geometry": {
                "type": "Point",
                "coordinates": [
                    18.971999978650015,
                    50.22344098226607
                ]
            }
        },
        {
            "type": "Feature",
            "properties": {
                "ref:csioz": 1063926,
                "name": "Apteka Bracka",
                "addr:street": "Tomasza Kotlarza",
                "addr:housenumber": "6",
                "addr:city": "Katowice",
                "addr:postcode": "40-139",
                "amenity": "pharmacy",
                "dispensing": "yes"
            },
            "geometry": {
                "type": "Point",
                "coordinates": [
                    19.00880901985705,
                    50.27884718276803
                ]
            }
        },
        {
            "type": "Feature",
            "properties": {
                "ref:csioz": 1064000,
                "name": "Apteka Dbam O Zdrowie",
                "addr:street": "Medyków",
                "addr:housenumber": "16",
                "addr:city": "Katowice",
                "addr:postcode": "40-752",
                "amenity": "pharmacy",
                "dispensing": "yes"
            },
            "geometry": {
                "type": "Point",
                "coordinates": [
                    18.951566101144508,
                    50.22376516592747
                ]
            }
        },
        {
            "type": "Feature",
            "properties": {
                "ref:csioz": 1064013,
                "name": "Apteka Blisko Ciebie",
                "addr:street": "Adama Mickiewicza",
                "addr:housenumber": "10",
                "addr:city": "Katowice",
                "addr:postcode": "40-092",
                "amenity": "pharmacy",
                "dispensing": "yes"
            },
            "geometry": {
                "type": "Point",
                "coordinates": [
                    19.019986988346314,
                    50.26034883657863
                ]
            }
        },
        {
            "type": "Feature",
            "properties": {
                "ref:csioz": 1064021,
                "name": "Doz Apteka Dbam O Zdrowie",
                "addr:street": "Adama Mickiewicza",
                "addr:housenumber": "9",
                "addr:city": "Katowice",
                "addr:postcode": "40-092",
                "amenity": "pharmacy",
                "dispensing": "yes"
            },
            "geometry": {
                "type": "Point",
                "coordinates": [
                    19.019631270042154,
                    50.26096188944778
                ]
            }
        },
        {
            "type": "Feature",
            "properties": {
                "ref:csioz": 1064037,
                "name": "Główna",
                "addr:street": "Mikołowska",
                "addr:housenumber": "37",
                "addr:city": "Katowice",
                "addr:postcode": "40-066",
                "amenity": "pharmacy",
                "dispensing": "yes"
            },
            "geometry": {
                "type": "Point",
                "coordinates": [
                    19.00866199324086,
                    50.25284311133949
                ]
            }
        },
        {
            "type": "Feature",
            "properties": {
                "ref:csioz": 1064059,
                "name": "Apteka Premium-Lek",
                "addr:street": "Misjonarzy Oblatów MN",
                "addr:housenumber": "8",
                "addr:city": "Katowice",
                "addr:postcode": "40-129",
                "amenity": "pharmacy",
                "dispensing": "yes"
            },
            "geometry": {
                "type": "Point",
                "coordinates": [
                    19.022695505076165,
                    50.270846908032475
                ]
            }
        },
        {
            "type": "Feature",
            "properties": {
                "ref:csioz": 1064229,
                "name": "Beczała",
                "addr:street": "Plac Jana Kasprowicza",
                "addr:housenumber": "5",
                "addr:city": "Katowice",
                "addr:postcode": "40-749",
                "amenity": "pharmacy",
                "dispensing": "yes"
            },
            "geometry": {
                "type": "Point",
                "coordinates": [
                    19.043496205373565,
                    50.19853658615134
                ]
            }
        },
        {
            "type": "Feature",
            "properties": {
                "ref:csioz": 1064403,
                "name": "Apteka Pharmavit",
                "addr:street": "Stawowa",
                "addr:housenumber": "8",
                "addr:city": "Katowice",
                "addr:postcode": "40-095",
                "amenity": "pharmacy",
                "dispensing": "yes"
            },
            "geometry": {
                "type": "Point",
                "coordinates": [
                    19.01842290676947,
                    50.260057830135764
                ]
            }
        },
        {
            "type": "Feature",
            "properties": {
                "ref:csioz": 1064416,
                "name": "Apteka Na Francuskiej Tanie Leki",
                "addr:street": "ks. Józefa Szafranka",
                "addr:housenumber": "2-4",
                "addr:city": "Katowice",
                "addr:postcode": "40-025",
                "amenity": "pharmacy",
                "dispensing": "yes"
            },
            "geometry": {
                "type": "Point",
                "coordinates": [
                    19.027686244511138,
                    50.255222254305004
                ]
            }
        },
        {
            "type": "Feature",
            "properties": {
                "ref:csioz": 1064427,
                "name": "Słoneczna",
                "addr:street": "ks. Ściegiennego",
                "addr:housenumber": "45",
                "addr:city": "Katowice",
                "addr:postcode": "40-114",
                "amenity": "pharmacy",
                "dispensing": "yes"
            },
            "geometry": {
                "type": "Point",
                "coordinates": [
                    19.00886383569398,
                    50.27635594069296
                ]
            }
        },
        {
            "type": "Feature",
            "properties": {
                "ref:csioz": 1064434,
                "name": "Magiczna",
                "addr:street": "ks. Ściegiennego",
                "addr:housenumber": "94",
                "addr:city": "Katowice",
                "addr:postcode": "40-111",
                "amenity": "pharmacy",
                "dispensing": "yes"
            },
            "geometry": {
                "type": "Point",
                "coordinates": [
                    19.008184198764592,
                    50.27742191079602
                ]
            }
        },
        {
            "type": "Feature",
            "properties": {
                "ref:csioz": 1064442,
                "name": "Św. Jana",
                "addr:street": "św. Jana",
                "addr:housenumber": "10",
                "addr:city": "Katowice",
                "addr:postcode": "40-012",
                "amenity": "pharmacy",
                "dispensing": "yes"
            },
            "geometry": {
                "type": "Point",
                "coordinates": [
                    19.021892513100514,
                    50.25835636047476
                ]
            }
        },
        {
            "type": "Feature",
            "properties": {
                "ref:csioz": 1064469,
                "name": "Apteka Dbam O Zdrowie",
                "addr:street": "Trasa Nikodema i Józefa Renców",
                "addr:housenumber": "30",
                "addr:city": "Katowice",
                "addr:postcode": "40-878",
                "amenity": "pharmacy",
                "dispensing": "yes"
            },
            "geometry": {
                "type": "Point",
                "coordinates": [
                    18.96785857340434,
                    50.27381945310085
                ]
            }
        },
        {
            "type": "Feature",
            "properties": {
                "ref:csioz": 1073712,
                "name": "Szpital Zakonu Bonifratrów Pw. Aniołów Stróżów W Katowicach",
                "addr:street": "MARKIEFKI",
                "addr:housenumber": "87",
                "addr:city": "KATOWICE",
                "addr:postcode": "40-211",
                "amenity": "pharmacy",
                "dispensing": "yes"
            },
            "geometry": {
                "type": "Point",
                "coordinates": [
                    19.039020945338546,
                    50.26868237348418
                ]
            }
        },
        {
            "type": "Feature",
            "properties": {
                "ref:csioz": 1074167,
                "name": "Uniwersyteckie Centrum Kliniczne Im. Prof. K. Gibińskiego Ślaskiego Uniwersytetu Medycznego W Katowicach",
                "addr:street": "Ceglana",
                "addr:housenumber": "35",
                "addr:city": "Katowice",
                "addr:postcode": "40-514",
                "amenity": "pharmacy",
                "dispensing": "yes"
            },
            "geometry": {
                "type": "Point",
                "coordinates": [
                    19.01566122129202,
                    50.24376725780301
                ]
            }
        },
        {
            "type": "Feature",
            "properties": {
                "ref:csioz": 1074172,
                "name": "Samodzielny Publiczny Szpital Kliniczny Nr 7 Im. A. Mieleckiego Śl.U.M W Katowicach",
                "addr:street": "FRANCUSKA",
                "addr:housenumber": "20-24",
                "addr:city": "KATOWICE",
                "addr:postcode": "40-027",
                "amenity": "pharmacy",
                "dispensing": "yes"
            },
            "geometry": {
                "type": "Point",
                "coordinates": [
                    19.027617396856584,
                    50.25457008789369
                ]
            }
        },
        {
            "type": "Feature",
            "properties": {
                "ref:csioz": 1113917,
                "name": "Aloes",
                "addr:street": "Karpacka",
                "addr:housenumber": "14",
                "addr:city": "Katowice",
                "addr:postcode": "40-216",
                "amenity": "pharmacy",
                "dispensing": "yes"
            },
            "geometry": {
                "type": "Point",
                "coordinates": [
                    19.046093247051033,
                    50.26936073565297
                ]
            }
        },
        {
            "type": "Feature",
            "properties": {
                "ref:csioz": 1111183,
                "name": "Apteka Pod Kwiatami V",
                "addr:street": "Bogucicka",
                "addr:housenumber": "18A",
                "addr:city": "Katowice",
                "addr:postcode": "40-226",
                "amenity": "pharmacy",
                "dispensing": "yes"
            },
            "geometry": {
                "type": "Point",
                "coordinates": [
                    19.042831274463634,
                    50.26075814439894
                ]
            }
        },
        {
            "type": "Feature",
            "properties": {
                "ref:csioz": 1111306,
                "name": "Na Dębie",
                "addr:street": "Agnieszki",
                "addr:housenumber": "13",
                "addr:city": "Katowice",
                "addr:postcode": "40-110",
                "amenity": "pharmacy",
                "dispensing": "yes"
            },
            "geometry": {
                "type": "Point",
                "coordinates": [
                    19.005268235872077,
                    50.27911751794239
                ]
            }
        },
        {
            "type": "Feature",
            "properties": {
                "ref:csioz": 1112380,
                "name": "Apteka Główna Centrum Niskich Cen",
                "addr:street": "Plac Szewczyka",
                "addr:housenumber": "5",
                "addr:city": "Katowice",
                "addr:postcode": "40-098",
                "amenity": "pharmacy",
                "dispensing": "yes"
            },
            "geometry": {
                "type": "Point",
                "coordinates": [
                    19.018406468870715,
                    50.25906587995544
                ]
            }
        },
        {
            "type": "Feature",
            "properties": {
                "ref:csioz": 1112395,
                "name": "Apteka Na Dworcu",
                "addr:street": "Plac Szewczyka",
                "addr:housenumber": "1_1.4",
                "addr:city": "Katowice",
                "addr:postcode": "40-098",
                "amenity": "pharmacy",
                "dispensing": "yes"
            },
            "geometry": {
                "type": "Point",
                "coordinates": [
                    19.018395000000005,
                    50.25906200001287
                ]
            }
        },
        {
            "type": "Feature",
            "properties": {
                "ref:csioz": 1112837,
                "name": "Zbigniew Mazan Klinika Chirurgii Mazan",
                "addr:street": "Brzozowa",
                "addr:housenumber": "54",
                "addr:city": "Katowice",
                "addr:postcode": "40-170",
                "amenity": "pharmacy",
                "dispensing": "yes"
            },
            "geometry": {
                "type": "Point",
                "coordinates": [
                    19.031388669083157,
                    50.276005721875265
                ]
            }
        },
        {
            "type": "Feature",
            "properties": {
                "ref:csioz": 1115663,
                "name": "Apteka 4 Pory Roku",
                "addr:street": "1 Maja",
                "addr:housenumber": "22",
                "addr:city": "Katowice",
                "addr:postcode": "40-284",
                "amenity": "pharmacy",
                "dispensing": "yes"
            },
            "geometry": {
                "type": "Point",
                "coordinates": [
                    19.03978010913642,
                    50.25783920776436
                ]
            }
        },
        {
            "type": "Feature",
            "properties": {
                "ref:csioz": 1116167,
                "name": "Apteka Isofarm",
                "addr:street": "Piotrowicka",
                "addr:housenumber": "98",
                "addr:city": "Katowice",
                "addr:postcode": "40-724",
                "amenity": "pharmacy",
                "dispensing": "yes"
            },
            "geometry": {
                "type": "Point",
                "coordinates": [
                    18.973133646105783,
                    50.230865237514
                ]
            }
        },
        {
            "type": "Feature",
            "properties": {
                "ref:csioz": 1117166,
                "name": "Dr.Max",
                "addr:street": "Medyków",
                "addr:housenumber": "14",
                "addr:city": "Katowice",
                "addr:postcode": "40-752",
                "amenity": "pharmacy",
                "dispensing": "yes"
            },
            "geometry": {
                "type": "Point",
                "coordinates": [
                    18.95460995961386,
                    50.22407125144726
                ]
            }
        },
        {
            "type": "Feature",
            "properties": {
                "ref:csioz": 1119286,
                "name": "Super-Pharm Apteka",
                "addr:street": "3 Maja",
                "addr:housenumber": "30",
                "addr:city": "Katowice",
                "addr:postcode": "40-097",
                "amenity": "pharmacy",
                "dispensing": "yes"
            },
            "geometry": {
                "type": "Point",
                "coordinates": [
                    19.01806587380633,
                    50.259420334704174
                ]
            }
        },
        {
            "type": "Feature",
            "properties": {
                "ref:csioz": 1119920,
                "name": "Pharmcentrum",
                "addr:street": "Żelazna",
                "addr:housenumber": "1",
                "addr:city": "Katowice",
                "addr:postcode": "40-851",
                "amenity": "pharmacy",
                "dispensing": "yes"
            },
            "geometry": {
                "type": "Point",
                "coordinates": [
                    19.00839817238177,
                    50.267084404770735
                ]
            }
        },
        {
            "type": "Feature",
            "properties": {
                "ref:csioz": 1170308,
                "name": "Euromedic Szpital",
                "addr:street": "Tadeusza Kościuszki",
                "addr:housenumber": "92B",
                "addr:city": "Katowice",
                "addr:postcode": "40-519",
                "amenity": "pharmacy",
                "dispensing": "yes"
            },
            "geometry": {
                "type": "Point",
                "coordinates": [
                    19.01238884085044,
                    50.24634019766639
                ]
            }
        },
        {
            "type": "Feature",
            "properties": {
                "ref:csioz": 1171567,
                "name": "Apteka Słoneczna",
                "addr:street": "Bolesława Krzywoustego",
                "addr:housenumber": "2",
                "addr:city": "Katowice",
                "addr:postcode": "40-870",
                "amenity": "pharmacy",
                "dispensing": "yes"
            },
            "geometry": {
                "type": "Point",
                "coordinates": [
                    18.983768508269247,
                    50.275256877749044
                ]
            }
        },
        {
            "type": "Feature",
            "properties": {
                "ref:csioz": 1173023,
                "name": "Archidiecezjalny Dom Hospicyjny Bł. Jana Pawła Ii",
                "addr:street": "Ludomira Różyckiego",
                "addr:housenumber": "14d",
                "addr:city": "Katowice",
                "addr:postcode": "40-589",
                "amenity": "pharmacy",
                "dispensing": "yes"
            },
            "geometry": {
                "type": "Point",
                "coordinates": [
                    19.00115929921958,
                    50.23817081194818
                ]
            }
        },
        {
            "type": "Feature",
            "properties": {
                "ref:csioz": 1173583,
                "name": "\"Niepubliczny Zakład Opieki Zdrowotnej \"\"Salus Aegroti\"\" - Szpital\"",
                "addr:street": "Żelazna",
                "addr:housenumber": "1",
                "addr:city": "Katowice",
                "addr:postcode": "40-851",
                "amenity": "pharmacy",
                "dispensing": "yes"
            },
            "geometry": {
                "type": "Point",
                "coordinates": [
                    19.00839817238177,
                    50.26705440477073
                ]
            }
        },
        {
            "type": "Feature",
            "properties": {
                "ref:csioz": 1177271,
                "name": "Apteka Zdrowit",
                "addr:street": "Wincentego Witosa",
                "addr:housenumber": "21",
                "addr:city": "Katowice",
                "addr:postcode": "43-300",
                "amenity": "pharmacy",
                "dispensing": "yes"
            },
            "geometry": {
                "type": "Point",
                "coordinates": [
                    18.970996999328108,
                    50.25968017300576
                ]
            }
        },
        {
            "type": "Feature",
            "properties": {
                "ref:csioz": 1177613,
                "name": "Apteka 4 Pory Roku",
                "addr:street": "gen. Zygmunta Waltera Jankego",
                "addr:housenumber": "15d",
                "addr:city": "Katowice",
                "addr:postcode": "40-615",
                "amenity": "pharmacy",
                "dispensing": "yes"
            },
            "geometry": {
                "type": "Point",
                "coordinates": [
                    18.990799423099734,
                    50.22032886102184
                ]
            }
        },
        {
            "type": "Feature",
            "properties": {
                "ref:csioz": 1185333,
                "name": "Apteka Zdrowit",
                "addr:street": "Marcina Radockiego",
                "addr:housenumber": "284",
                "addr:city": "Katowice",
                "addr:postcode": "40-645",
                "amenity": "pharmacy",
                "dispensing": "yes"
            },
            "geometry": {
                "type": "Point",
                "coordinates": [
                    18.98463805096977,
                    50.20324191835967
                ]
            }
        },
        {
            "type": "Feature",
            "properties": {
                "ref:csioz": 1188497,
                "name": "Apteka Farmaceutów",
                "addr:street": "gen. Zygmunta Waltera Jankego",
                "addr:housenumber": "130",
                "addr:city": "Katowice",
                "addr:postcode": "40-613",
                "amenity": "pharmacy",
                "dispensing": "yes"
            },
            "geometry": {
                "type": "Point",
                "coordinates": [
                    18.980224421632695,
                    50.209419140634836
                ]
            }
        },
        {
            "type": "Feature",
            "properties": {
                "ref:csioz": 1197515,
                "name": "Apteka Melisa Pharm",
                "addr:street": "Przemysłowa",
                "addr:housenumber": "3",
                "addr:city": "Katowice",
                "addr:postcode": "40-020",
                "amenity": "pharmacy",
                "dispensing": "yes"
            },
            "geometry": {
                "type": "Point",
                "coordinates": [
                    19.03251001077934,
                    50.254132025785566
                ]
            }
        },
        {
            "type": "Feature",
            "properties": {
                "ref:csioz": 1205868,
                "name": "Apteka Zdrowit+",
                "addr:street": "ul. Franciszkańska",
                "addr:housenumber": "1",
                "addr:city": "Katowice",
                "addr:postcode": "40-707",
                "amenity": "pharmacy",
                "dispensing": "yes"
            },
            "geometry": {
                "type": "Point",
                "coordinates": [
                    18.977184012491495,
                    50.22616554755111
                ]
            }
        },
        {
            "type": "Feature",
            "properties": {
                "ref:csioz": 1213968,
                "name": "Salix",
                "addr:street": "ul. Szarych Szeregów",
                "addr:housenumber": "36",
                "addr:city": "Katowice",
                "addr:postcode": "40-750",
                "amenity": "pharmacy",
                "dispensing": "yes"
            },
            "geometry": {
                "type": "Point",
                "coordinates": [
                    18.990146239611466,
                    50.193496876300216
                ]
            }
        },
        {
            "type": "Feature",
            "properties": {
                "ref:csioz": 1056976,
                "name": "Prywatny Szpital K2000",
                "addr:street": "Żelazna",
                "addr:housenumber": "1",
                "addr:city": "Katowice",
                "addr:postcode": "40-851",
                "amenity": "pharmacy",
                "dispensing": "yes"
            },
            "geometry": {
                "type": "Point",
                "coordinates": [
                    19.00839817238177,
                    50.26705440477073
                ]
            }
        },
        {
            "type": "Feature",
            "properties": {
                "ref:csioz": 1056945,
                "addr:street": "Aleksandra Fredry",
                "addr:housenumber": "22",
                "addr:city": "Katowice",
                "addr:postcode": "40-662",
                "amenity": "pharmacy",
                "dispensing": "yes"
            },
            "geometry": {
                "type": "Point",
                "coordinates": [
                    18.977393301339507,
                    50.209984721770404
                ]
            }
        },
        {
            "type": "Feature",
            "properties": {
                "ref:csioz": 1057340,
                "name": "\"Niepubliczny Zakład Opieki Zdrowotnej \"\"Szpital Avimed Spółka Z O.O.\"",
                "addr:street": "Gliwicka",
                "addr:housenumber": "159",
                "addr:city": "Katowice",
                "addr:postcode": "40-857",
                "amenity": "pharmacy",
                "dispensing": "yes"
            },
            "geometry": {
                "type": "Point",
                "coordinates": [
                    18.991613693385556,
                    50.26734729930007
                ]
            }
        },
        {
            "type": "Feature",
            "properties": {
                "ref:csioz": 1063551,
                "name": "Vitalis",
                "addr:street": "Bażantów",
                "addr:housenumber": "2",
                "addr:city": "Katowice",
                "addr:postcode": "40-668",
                "amenity": "pharmacy",
                "dispensing": "yes"
            },
            "geometry": {
                "type": "Point",
                "coordinates": [
                    18.978770752624513,
                    50.199652131934236
                ]
            }
        },
        {
            "type": "Feature",
            "properties": {
                "ref:csioz": 1063567,
                "name": "Słowiańska",
                "addr:street": "Feliksa Bocheńskiego",
                "addr:housenumber": "38A",
                "addr:city": "Katowice",
                "addr:postcode": "40-859",
                "amenity": "pharmacy",
                "dispensing": "yes"
            },
            "geometry": {
                "type": "Point",
                "coordinates": [
                    18.99004572815018,
                    50.266564147842324
                ]
            }
        },
        {
            "type": "Feature",
            "properties": {
                "ref:csioz": 1063722,
                "name": "Dr. Max",
                "addr:street": "gen. Kazimierza Pułaskiego",
                "addr:housenumber": "60",
                "addr:city": "Katowice",
                "addr:postcode": "40-029",
                "amenity": "pharmacy",
                "dispensing": "yes"
            },
            "geometry": {
                "type": "Point",
                "coordinates": [
                    19.03944386586077,
                    50.24321585442559
                ]
            }
        },
        {
            "type": "Feature",
            "properties": {
                "ref:csioz": 1063765,
                "name": "Brak Nazwy",
                "addr:street": "Gliwicka",
                "addr:housenumber": "119",
                "addr:city": "Katowice",
                "addr:postcode": "40-855",
                "amenity": "pharmacy",
                "dispensing": "yes"
            },
            "geometry": {
                "type": "Point",
                "coordinates": [
                    18.997629192453015,
                    50.26530036268851
                ]
            }
        },
        {
            "type": "Feature",
            "properties": {
                "ref:csioz": 1063787,
                "name": "Apteka Śląska-Twoja Apteka",
                "addr:street": "Graniczna",
                "addr:housenumber": "45",
                "addr:city": "Katowice",
                "addr:postcode": "40-018",
                "amenity": "pharmacy",
                "dispensing": "yes"
            },
            "geometry": {
                "type": "Point",
                "coordinates": [
                    19.033353060720867,
                    50.25045571009396
                ]
            }
        },
        {
            "type": "Feature",
            "properties": {
                "ref:csioz": 1063952,
                "name": "Dr.Max",
                "addr:street": "Ligocka",
                "addr:housenumber": "3 A",
                "addr:city": "Katowice",
                "addr:postcode": "40-570",
                "amenity": "pharmacy",
                "dispensing": "yes"
            },
            "geometry": {
                "type": "Point",
                "coordinates": [
                    18.99231761615256,
                    50.24229240440085
                ]
            }
        },
        {
            "type": "Feature",
            "properties": {
                "ref:csioz": 1063983,
                "name": "Pod Kwiatami Iii",
                "addr:street": "Leopolda Markiefki",
                "addr:housenumber": "94",
                "addr:city": "Katowice",
                "addr:postcode": "40-211",
                "amenity": "pharmacy",
                "dispensing": "yes"
            },
            "geometry": {
                "type": "Point",
                "coordinates": [
                    19.038272242060778,
                    50.2691162079857
                ]
            }
        },
        {
            "type": "Feature",
            "properties": {
                "ref:csioz": 1064117,
                "name": "Eskulap",
                "addr:street": "Ordona",
                "addr:housenumber": "3",
                "addr:city": "Katowice",
                "addr:postcode": "40-164",
                "amenity": "pharmacy",
                "dispensing": "yes"
            },
            "geometry": {
                "type": "Point",
                "coordinates": [
                    19.02752936843694,
                    50.268982734754246
                ]
            }
        },
        {
            "type": "Feature",
            "properties": {
                "ref:csioz": 1064130,
                "name": "Pod Bazyliką",
                "addr:street": "Panewnicka",
                "addr:housenumber": "27",
                "addr:city": "Katowice",
                "addr:postcode": "40-730",
                "amenity": "pharmacy",
                "dispensing": "yes"
            },
            "geometry": {
                "type": "Point",
                "coordinates": [
                    18.96773550998945,
                    50.22519524770104
                ]
            }
        },
        {
            "type": "Feature",
            "properties": {
                "ref:csioz": 1064158,
                "name": "Centrum Zdrowia",
                "addr:street": "Panewnicka",
                "addr:housenumber": "5",
                "addr:city": "Katowice",
                "addr:postcode": "40-709",
                "amenity": "pharmacy",
                "dispensing": "yes"
            },
            "geometry": {
                "type": "Point",
                "coordinates": [
                    18.97533409560542,
                    50.22589471168253
                ]
            }
        },
        {
            "type": "Feature",
            "properties": {
                "ref:csioz": 1064163,
                "name": "Doz Apteka Dbam O Zdrowie",
                "addr:street": "PCK",
                "addr:housenumber": "1",
                "addr:city": "Katowice",
                "addr:postcode": "40-057",
                "amenity": "pharmacy",
                "dispensing": "yes"
            },
            "geometry": {
                "type": "Point",
                "coordinates": [
                    19.0151524452208,
                    50.25254989465952
                ]
            }
        },
        {
            "type": "Feature",
            "properties": {
                "ref:csioz": 1064174,
                "name": "Vega",
                "addr:street": "Piastów",
                "addr:housenumber": "8",
                "addr:city": "Katowice",
                "addr:postcode": "40-868",
                "amenity": "pharmacy",
                "dispensing": "yes"
            },
            "geometry": {
                "type": "Point",
                "coordinates": [
                    18.983689708152216,
                    50.27461504366745
                ]
            }
        },
        {
            "type": "Feature",
            "properties": {
                "ref:csioz": 1064196,
                "name": "Apteka Książęca",
                "addr:street": "Piotrowicka",
                "addr:housenumber": "79",
                "addr:city": "Katowice",
                "addr:postcode": "40-724",
                "amenity": "pharmacy",
                "dispensing": "yes"
            },
            "geometry": {
                "type": "Point",
                "coordinates": [
                    18.97089298014061,
                    50.229868147420554
                ]
            }
        },
        {
            "type": "Feature",
            "properties": {
                "ref:csioz": 1064232,
                "name": "Ziko Apteka",
                "addr:street": "Plebiscytowa",
                "addr:housenumber": "39",
                "addr:city": "Katowice",
                "addr:postcode": "40-037",
                "amenity": "pharmacy",
                "dispensing": "yes"
            },
            "geometry": {
                "type": "Point",
                "coordinates": [
                    19.020014743718452,
                    50.252517704169925
                ]
            }
        },
        {
            "type": "Feature",
            "properties": {
                "ref:csioz": 1064241,
                "name": "Apteka Ligocka",
                "addr:street": "Poleska",
                "addr:housenumber": "4",
                "addr:city": "Katowice",
                "addr:postcode": "40-733",
                "amenity": "pharmacy",
                "dispensing": "yes"
            },
            "geometry": {
                "type": "Point",
                "coordinates": [
                    18.968992737558686,
                    50.22305749092372
                ]
            }
        },
        {
            "type": "Feature",
            "properties": {
                "ref:csioz": 1064255,
                "name": "Agafarmax",
                "addr:street": "Księcia Józefa Poniatowskiego",
                "addr:housenumber": "14 V",
                "addr:city": "Katowice",
                "addr:postcode": "40-055",
                "amenity": "pharmacy",
                "dispensing": "yes"
            },
            "geometry": {
                "type": "Point",
                "coordinates": [
                    19.008917000000007,
                    50.25186700001287
                ]
            }
        },
        {
            "type": "Feature",
            "properties": {
                "ref:csioz": 1064264,
                "name": "Dr. Max",
                "addr:street": "Powstańców",
                "addr:housenumber": "34",
                "addr:city": "KATOWICE",
                "addr:postcode": "40-038",
                "amenity": "pharmacy",
                "dispensing": "yes"
            },
            "geometry": {
                "type": "Point",
                "coordinates": [
                    19.024664299432903,
                    50.251981621468296
                ]
            }
        },
        {
            "type": "Feature",
            "properties": {
                "ref:csioz": 1064308,
                "name": "Doz Apteka Dbam O Zdrowie",
                "addr:street": "Raciborska",
                "addr:housenumber": "22",
                "addr:city": "Katowice",
                "addr:postcode": "40-074",
                "amenity": "pharmacy",
                "dispensing": "yes"
            },
            "geometry": {
                "type": "Point",
                "coordinates": [
                    19.006476123536622,
                    50.254644201401206
                ]
            }
        },
        {
            "type": "Feature",
            "properties": {
                "ref:csioz": 1064319,
                "name": "Dr.Max",
                "addr:street": "Rolna",
                "addr:housenumber": "30",
                "addr:city": "Katowice",
                "addr:postcode": "40-555",
                "amenity": "pharmacy",
                "dispensing": "yes"
            },
            "geometry": {
                "type": "Point",
                "coordinates": [
                    18.98261456424933,
                    50.231628620666754
                ]
            }
        },
        {
            "type": "Feature",
            "properties": {
                "ref:csioz": 1064335,
                "name": "Apteka W Gwiazdach-Twoja Apteka",
                "addr:street": "ROŹDZIEŃSKIEGO",
                "addr:housenumber": "90/XI",
                "addr:city": "KATOWICE",
                "addr:postcode": "40 203",
                "amenity": "pharmacy",
                "dispensing": "yes"
            },
            "geometry": {
                "type": "Point",
                "coordinates": [
                    19.03861500000001,
                    50.26120800001288
                ]
            }
        },
        {
            "type": "Feature",
            "properties": {
                "ref:csioz": 1064343,
                "name": "Viola",
                "addr:street": "Jana Samsonowicza",
                "addr:housenumber": "17",
                "addr:city": "Katowice",
                "addr:postcode": "40-749",
                "amenity": "pharmacy",
                "dispensing": "yes"
            },
            "geometry": {
                "type": "Point",
                "coordinates": [
                    19.03997914017057,
                    50.19971626680717
                ]
            }
        },
        {
            "type": "Feature",
            "properties": {
                "ref:csioz": 1064356,
                "name": "Brak Nazwy",
                "addr:street": "Sandomierska",
                "addr:housenumber": "10 B",
                "addr:city": "Katowice",
                "addr:postcode": "40-216",
                "amenity": "pharmacy",
                "dispensing": "yes"
            },
            "geometry": {
                "type": "Point",
                "coordinates": [
                    19.044255000000017,
                    50.26878100001289
                ]
            }
        },
        {
            "type": "Feature",
            "properties": {
                "ref:csioz": 1064362,
                "name": "Apteka 49",
                "addr:street": "Słoneczna",
                "addr:housenumber": "4",
                "addr:city": "Katowice",
                "addr:postcode": "40-135",
                "amenity": "pharmacy",
                "dispensing": "yes"
            },
            "geometry": {
                "type": "Point",
                "coordinates": [
                    19.0225463644912,
                    50.27546886641298
                ]
            }
        },
        {
            "type": "Feature",
            "properties": {
                "ref:csioz": 1064381,
                "name": "Aqua Vitae",
                "addr:street": "Sokolska",
                "addr:housenumber": "78",
                "addr:city": "Katowice",
                "addr:postcode": "40-087",
                "amenity": "pharmacy",
                "dispensing": "yes"
            },
            "geometry": {
                "type": "Point",
                "coordinates": [
                    19.020583699411226,
                    50.270189169080595
                ]
            }
        },
        {
            "type": "Feature",
            "properties": {
                "ref:csioz": 1064397,
                "name": "Varia",
                "addr:street": "gen. Józefa Sowińskiego",
                "addr:housenumber": "5A",
                "addr:city": "Katowice",
                "addr:postcode": "40-018",
                "amenity": "pharmacy",
                "dispensing": "yes"
            },
            "geometry": {
                "type": "Point",
                "coordinates": [
                    19.031378228763433,
                    50.2483029286895
                ]
            }
        },
        {
            "type": "Feature",
            "properties": {
                "ref:csioz": 1064475,
                "name": "Akademicka",
                "addr:street": "Tysiąclecia",
                "addr:housenumber": "41",
                "addr:city": "Katowice",
                "addr:postcode": "40-875",
                "amenity": "pharmacy",
                "dispensing": "yes"
            },
            "geometry": {
                "type": "Point",
                "coordinates": [
                    18.97578602061025,
                    50.275874256236754
                ]
            }
        },
        {
            "type": "Feature",
            "properties": {
                "ref:csioz": 1064531,
                "name": "Dr. Max",
                "addr:street": "Warszawska",
                "addr:housenumber": "6",
                "addr:city": "Katowice",
                "addr:postcode": "40-009",
                "amenity": "pharmacy",
                "dispensing": "yes"
            },
            "geometry": {
                "type": "Point",
                "coordinates": [
                    19.02415682280499,
                    50.25925618123345
                ]
            }
        },
        {
            "type": "Feature",
            "properties": {
                "ref:csioz": 1064566,
                "name": "Apteka Dbam O Zdrowie",
                "addr:street": "Wojewódzka",
                "addr:housenumber": "26",
                "addr:city": "Katowice",
                "addr:postcode": "40-026",
                "amenity": "pharmacy",
                "dispensing": "yes"
            },
            "geometry": {
                "type": "Point",
                "coordinates": [
                    19.024474221439515,
                    50.25611955005088
                ]
            }
        },
        {
            "type": "Feature",
            "properties": {
                "ref:csioz": 1064577,
                "name": "Dr. Max",
                "addr:street": "Wojewódzka",
                "addr:housenumber": "7",
                "addr:city": "Katowice",
                "addr:postcode": "40-026",
                "amenity": "pharmacy",
                "dispensing": "yes"
            },
            "geometry": {
                "type": "Point",
                "coordinates": [
                    19.02190184434136,
                    50.256166482646016
                ]
            }
        },
        {
            "type": "Feature",
            "properties": {
                "ref:csioz": 1074218,
                "name": "Samodzielny Publiczny Szpital Kliniczny Nr 6 Śl.U.M. W Katowicach Górnoślaskie Centrum Zdrowia Dziecka Im. Jana Pawła Ii",
                "addr:street": "MEDYKÓW",
                "addr:housenumber": "16",
                "addr:city": "KATOWICE",
                "addr:postcode": "40-752",
                "amenity": "pharmacy",
                "dispensing": "yes"
            },
            "geometry": {
                "type": "Point",
                "coordinates": [
                    18.951566101144508,
                    50.223735165927465
                ]
            }
        },
        {
            "type": "Feature",
            "properties": {
                "ref:csioz": 1074226,
                "name": "Samodzielny Publiczny Zakład Opieki Zdrowotnej Okręgowy Szpital Kolejowy W Katowicach",
                "addr:street": "PANEWNICKA",
                "addr:housenumber": "65",
                "addr:city": "KATOWICE",
                "addr:postcode": "40-760",
                "amenity": "pharmacy",
                "dispensing": "yes"
            },
            "geometry": {
                "type": "Point",
                "coordinates": [
                    18.959491102956406,
                    50.226937201623414
                ]
            }
        },
        {
            "type": "Feature",
            "properties": {
                "ref:csioz": 1074239,
                "name": "Szpital Wielospecjalistyczny",
                "addr:street": "RACIBORSKA",
                "addr:housenumber": "27",
                "addr:city": "KATOWICE",
                "addr:postcode": "40-074",
                "amenity": "pharmacy",
                "dispensing": "yes"
            },
            "geometry": {
                "type": "Point",
                "coordinates": [
                    19.004594163109314,
                    50.25496528013758
                ]
            }
        },
        {
            "type": "Feature",
            "properties": {
                "ref:csioz": 1074247,
                "name": "Apteka Szpitalna",
                "addr:street": "Alfreda Sokołowskiego",
                "addr:housenumber": "2",
                "addr:city": "KATOWICE",
                "addr:postcode": "40-749",
                "amenity": "pharmacy",
                "dispensing": "yes"
            },
            "geometry": {
                "type": "Point",
                "coordinates": [
                    19.041566433572434,
                    50.19746020752425
                ]
            }
        },
        {
            "type": "Feature",
            "properties": {
                "ref:csioz": 1074260,
                "name": "Apteka Szpitalna",
                "addr:street": "ZIOŁOWA",
                "addr:housenumber": "45-47",
                "addr:city": "KATOWICE",
                "addr:postcode": "40-635",
                "amenity": "pharmacy",
                "dispensing": "yes"
            },
            "geometry": {
                "type": "Point",
                "coordinates": [
                    18.99818037467478,
                    50.21137800600891
                ]
            }
        },
        {
            "type": "Feature",
            "properties": {
                "ref:csioz": 1111592,
                "name": "Apteka Angelius",
                "addr:street": "Fabryczna",
                "addr:housenumber": "13d",
                "addr:city": "Katowice",
                "addr:postcode": "40-611",
                "amenity": "pharmacy",
                "dispensing": "yes"
            },
            "geometry": {
                "type": "Point",
                "coordinates": [
                    18.98470375618399,
                    50.21661799899951
                ]
            }
        },
        {
            "type": "Feature",
            "properties": {
                "ref:csioz": 1112704,
                "name": "Niepubliczny Zakład Opieki Zdrowotnej Euroklinika - Szpital",
                "addr:street": "Stolarska",
                "addr:housenumber": "17",
                "addr:city": "Katowice",
                "addr:postcode": "40-767",
                "amenity": "pharmacy",
                "dispensing": "yes"
            },
            "geometry": {
                "type": "Point",
                "coordinates": [
                    18.953750151781282,
                    50.227217002119346
                ]
            }
        },
        {
            "type": "Feature",
            "properties": {
                "ref:csioz": 1112903,
                "name": "Szpital Im. Św. Elżbiety W Katowicach",
                "addr:street": "Warszawska",
                "addr:housenumber": "52",
                "addr:city": "Katowice",
                "addr:postcode": "40-008",
                "amenity": "pharmacy",
                "dispensing": "yes"
            },
            "geometry": {
                "type": "Point",
                "coordinates": [
                    19.03369842126979,
                    50.25754924079378
                ]
            }
        },
        {
            "type": "Feature",
            "properties": {
                "ref:csioz": 1113081,
                "name": "\"Niepubliczny Zakład Pielegnacyjno-Opiekuńczy \"\"Karolinka\"\" Sp. Z O.O.\"",
                "addr:street": "Barlickiego",
                "addr:housenumber": "5",
                "addr:city": "Katowice",
                "addr:postcode": "40-824",
                "amenity": "pharmacy",
                "dispensing": "yes"
            },
            "geometry": {
                "type": "Point",
                "coordinates": [
                    18.96887114756123,
                    50.25885951672733
                ]
            }
        },
        {
            "type": "Feature",
            "properties": {
                "ref:csioz": 1115682,
                "name": "Apteka 4 Pory Roku",
                "addr:street": "Gawronów",
                "addr:housenumber": "22",
                "addr:city": "Katowice",
                "addr:postcode": "40-225",
                "amenity": "pharmacy",
                "dispensing": "yes"
            },
            "geometry": {
                "type": "Point",
                "coordinates": [
                    19.007965049569336,
                    50.236617055503984
                ]
            }
        },
        {
            "type": "Feature",
            "properties": {
                "ref:csioz": 1118802,
                "name": "Słowiańska",
                "addr:street": "Zawiszy Czarnego",
                "addr:housenumber": "7A",
                "addr:city": "Katowice",
                "addr:postcode": "40-871",
                "amenity": "pharmacy",
                "dispensing": "yes"
            },
            "geometry": {
                "type": "Point",
                "coordinates": [
                    18.977946130828716,
                    50.278471726395516
                ]
            }
        },
        {
            "type": "Feature",
            "properties": {
                "ref:csioz": 1122570,
                "name": "Centrum Gamma Knife Exira",
                "addr:street": "Ceglana",
                "addr:housenumber": "35",
                "addr:city": "Katowice",
                "addr:postcode": "40-952",
                "amenity": "pharmacy",
                "dispensing": "yes"
            },
            "geometry": {
                "type": "Point",
                "coordinates": [
                    19.01566122129202,
                    50.243737257803005
                ]
            }
        },
        {
            "type": "Feature",
            "properties": {
                "ref:csioz": 1164258,
                "name": "Apteka Rodzinna",
                "addr:street": "Bolesława Chrobrego",
                "addr:housenumber": "29",
                "addr:city": "Katowice",
                "addr:postcode": "40-881",
                "amenity": "pharmacy",
                "dispensing": "yes"
            },
            "geometry": {
                "type": "Point",
                "coordinates": [
                    18.973242966613416,
                    50.280603582553326
                ]
            }
        },
        {
            "type": "Feature",
            "properties": {
                "ref:csioz": 1165072,
                "name": "Apteka Zdrowit",
                "addr:street": "3 Maja",
                "addr:housenumber": "33",
                "addr:city": "Katowice",
                "addr:postcode": "40-097",
                "amenity": "pharmacy",
                "dispensing": "yes"
            },
            "geometry": {
                "type": "Point",
                "coordinates": [
                    19.01444803618019,
                    50.25986613752604
                ]
            }
        },
        {
            "type": "Feature",
            "properties": {
                "ref:csioz": 1170356,
                "name": "Doz Apteka Dbam O Zdrowie",
                "addr:street": "Bolesława Krzywoustego",
                "addr:housenumber": "4/3",
                "addr:city": "Katowice",
                "addr:postcode": "40-870",
                "amenity": "pharmacy",
                "dispensing": "yes"
            },
            "geometry": {
                "type": "Point",
                "coordinates": [
                    18.982865999999998,
                    50.27519400001289
                ]
            }
        },
        {
            "type": "Feature",
            "properties": {
                "ref:csioz": 1173496,
                "name": "Centrum Zdrowia",
                "addr:street": "Kijowska",
                "addr:housenumber": "71",
                "addr:city": "Katowice",
                "addr:postcode": "40-755",
                "amenity": "pharmacy",
                "dispensing": "yes"
            },
            "geometry": {
                "type": "Point",
                "coordinates": [
                    18.963149119491362,
                    50.23563364516826
                ]
            }
        },
        {
            "type": "Feature",
            "properties": {
                "ref:csioz": 1178178,
                "name": "Apteka Vitalis 2",
                "addr:street": "Panewnicka",
                "addr:housenumber": "141",
                "addr:city": "Katowice",
                "addr:postcode": "40-772",
                "amenity": "pharmacy",
                "dispensing": "yes"
            },
            "geometry": {
                "type": "Point",
                "coordinates": [
                    18.949827492074178,
                    50.23038205006492
                ]
            }
        },
        {
            "type": "Feature",
            "properties": {
                "ref:csioz": 1184215,
                "name": "Apteka Centralna",
                "addr:street": "Tyska",
                "addr:housenumber": "3",
                "addr:city": "Katowice",
                "addr:postcode": "40-655",
                "amenity": "pharmacy",
                "dispensing": "yes"
            },
            "geometry": {
                "type": "Point",
                "coordinates": [
                    18.984785517978313,
                    50.21111471000573
                ]
            }
        },
        {
            "type": "Feature",
            "properties": {
                "ref:csioz": 1186995,
                "name": "Ziko Apteka",
                "addr:street": "3 Maja",
                "addr:housenumber": "7",
                "addr:city": "Katowice",
                "addr:postcode": "40-096",
                "amenity": "pharmacy",
                "dispensing": "yes"
            },
            "geometry": {
                "type": "Point",
                "coordinates": [
                    19.0198323114639,
                    50.259610216954556
                ]
            }
        },
        {
            "type": "Feature",
            "properties": {
                "ref:csioz": 1192579,
                "name": "Dla Zdrowia",
                "addr:street": "Tysiąclecia",
                "addr:housenumber": "82",
                "addr:city": "Katowice",
                "addr:postcode": "40-871",
                "amenity": "pharmacy",
                "dispensing": "yes"
            },
            "geometry": {
                "type": "Point",
                "coordinates": [
                    18.966558697880124,
                    50.28189943634646
                ]
            }
        },
        {
            "type": "Feature",
            "properties": {
                "ref:csioz": 1195621,
                "name": "Apteka Isofarm",
                "addr:street": "Armii Krajowej",
                "addr:housenumber": "65",
                "addr:city": "Katowice",
                "addr:postcode": "40-671",
                "amenity": "pharmacy",
                "dispensing": "yes"
            },
            "geometry": {
                "type": "Point",
                "coordinates": [
                    18.973921974050647,
                    50.210886930717436
                ]
            }
        },
        {
            "type": "Feature",
            "properties": {
                "ref:csioz": 1199612,
                "name": "Maxfarm Apteka",
                "addr:street": "Ceglana",
                "addr:housenumber": "35",
                "addr:city": "Katowice",
                "addr:postcode": "40-514",
                "amenity": "pharmacy",
                "dispensing": "yes"
            },
            "geometry": {
                "type": "Point",
                "coordinates": [
                    18.991605718669067,
                    50.236190143205015
                ]
            }
        },
        {
            "type": "Feature",
            "properties": {
                "ref:csioz": 1201279,
                "name": "Apteka Książęca",
                "addr:street": "Panewnicka",
                "addr:housenumber": "148K",
                "addr:city": "Katowice",
                "addr:postcode": "40-772",
                "amenity": "pharmacy",
                "dispensing": "yes"
            },
            "geometry": {
                "type": "Point",
                "coordinates": [
                    18.9522967801302,
                    50.23112316216326
                ]
            }
        },
        {
            "type": "Feature",
            "properties": {
                "ref:csioz": 1202096,
                "name": "Apteka Książęca",
                "addr:street": "Kijowska",
                "addr:housenumber": "44",
                "addr:city": "Katowice",
                "addr:postcode": "40-754",
                "amenity": "pharmacy",
                "dispensing": "yes"
            },
            "geometry": {
                "type": "Point",
                "coordinates": [
                    18.963335074312337,
                    50.23220785273196
                ]
            }
        },
        {
            "type": "Feature",
            "properties": {
                "ref:csioz": 1203076,
                "name": "Apteka Im. S. F. Składkowskiego",
                "addr:street": "Ziołowa",
                "addr:housenumber": "68",
                "addr:city": "Katowice",
                "addr:postcode": "40-635",
                "amenity": "pharmacy",
                "dispensing": "yes"
            },
            "geometry": {
                "type": "Point",
                "coordinates": [
                    18.997976998165417,
                    50.21188841386062
                ]
            }
        },
        {
            "type": "Feature",
            "properties": {
                "ref:csioz": 1203059,
                "name": "Prima",
                "addr:street": "Ułańska",
                "addr:housenumber": "8",
                "addr:city": "Katowice",
                "addr:postcode": "40-887",
                "amenity": "pharmacy",
                "dispensing": "yes"
            },
            "geometry": {
                "type": "Point",
                "coordinates": [
                    18.970216930376576,
                    50.28487608657519
                ]
            }
        },
        {
            "type": "Feature",
            "properties": {
                "ref:csioz": 1204968,
                "name": "Apteka Bliska",
                "addr:street": "Zawiszy Czarnego",
                "addr:housenumber": "16A",
                "addr:city": "Katowice",
                "addr:postcode": "40-872",
                "amenity": "pharmacy",
                "dispensing": "yes"
            },
            "geometry": {
                "type": "Point",
                "coordinates": [
                    18.976234447805126,
                    50.27764230073045
                ]
            }
        },
        {
            "type": "Feature",
            "properties": {
                "ref:csioz": 1205532,
                "name": "Apteka C-Plus",
                "addr:street": "ul. Stanisława Łętowskiego",
                "addr:housenumber": "16",
                "addr:city": "Katowice",
                "addr:postcode": "40-648",
                "amenity": "pharmacy",
                "dispensing": "yes"
            },
            "geometry": {
                "type": "Point",
                "coordinates": [
                    18.986733587214296,
                    50.205562995033205
                ]
            }
        },
        {
            "type": "Feature",
            "properties": {
                "ref:csioz": 1205876,
                "name": "Apteka Główna",
                "addr:street": "ul. Szewska",
                "addr:housenumber": "11",
                "addr:city": "Katowice",
                "addr:postcode": "40-649",
                "amenity": "pharmacy",
                "dispensing": "yes"
            },
            "geometry": {
                "type": "Point",
                "coordinates": [
                    18.982177927435757,
                    50.207901294060896
                ]
            }
        },
        {
            "type": "Feature",
            "properties": {
                "ref:csioz": 1206313,
                "name": "Dr. Max",
                "addr:street": "3 Maja",
                "addr:housenumber": "11",
                "addr:city": "Katowice",
                "addr:postcode": "40-096",
                "amenity": "pharmacy",
                "dispensing": "yes"
            },
            "geometry": {
                "type": "Point",
                "coordinates": [
                    19.019039159044226,
                    50.259653713786776
                ]
            }
        },
        {
            "type": "Feature",
            "properties": {
                "ref:csioz": 1207540,
                "name": "Apteka Zdrowit+",
                "addr:street": "ul. Ułańska",
                "addr:housenumber": "12",
                "addr:city": "Katowice",
                "addr:postcode": "40-887",
                "amenity": "pharmacy",
                "dispensing": "yes"
            },
            "geometry": {
                "type": "Point",
                "coordinates": [
                    18.96785411831095,
                    50.28585155948871
                ]
            }
        },
        {
            "type": "Feature",
            "properties": {
                "ref:csioz": 1212138,
                "name": "Centrum Estetyki Ciała Chirurgia Krótkoterminowa",
                "addr:street": "Panewnicka",
                "addr:housenumber": "5",
                "addr:city": "Katowice",
                "addr:postcode": "40-709",
                "amenity": "pharmacy",
                "dispensing": "yes"
            },
            "geometry": {
                "type": "Point",
                "coordinates": [
                    18.97533409560542,
                    50.225864711682526
                ]
            }
        },
        {
            "type": "Feature",
            "properties": {
                "ref:csioz": 1213487,
                "name": "Apteka Główna",
                "addr:street": "ul. Zawiszy Czarnego",
                "addr:housenumber": "8",
                "addr:city": "Katowice",
                "addr:postcode": "40-872",
                "amenity": "pharmacy",
                "dispensing": "yes"
            },
            "geometry": {
                "type": "Point",
                "coordinates": [
                    18.977196345000245,
                    50.280017610821304
                ]
            }
        },
        {
            "type": "Feature",
            "properties": {
                "ref:csioz": 1214583,
                "name": "Ziko Apteka",
                "addr:street": "ul. Panewnicka",
                "addr:housenumber": "40",
                "addr:city": "Katowice",
                "addr:postcode": "40-730",
                "amenity": "pharmacy",
                "dispensing": "yes"
            },
            "geometry": {
                "type": "Point",
                "coordinates": [
                    18.967984592965262,
                    50.2255263734225
                ]
            }
        },
        {
            "type": "Feature",
            "properties": {
                "ref:csioz": 1215581,
                "name": "Duo Medica Chirurgia Jednego Dnia",
                "addr:street": "Grabowa",
                "addr:housenumber": "1d",
                "addr:city": "Katowice",
                "addr:postcode": "40-172",
                "amenity": "pharmacy",
                "dispensing": "yes"
            },
            "geometry": {
                "type": "Point",
                "coordinates": [
                    19.026959246443646,
                    50.27566854206841
                ]
            }
        },
        {
            "type": "Feature",
            "properties": {
                "ref:csioz": 1217780,
                "name": "Przedsiębiorstwo Zoz Msw W Katowicach - Stacjonarne I Całodobowe Świadczenia Szpitalne",
                "addr:street": "Jana Kilińskiego",
                "addr:housenumber": "23",
                "addr:city": "Katowice",
                "addr:postcode": "40-061",
                "amenity": "pharmacy",
                "dispensing": "yes"
            },
            "geometry": {
                "type": "Point",
                "coordinates": [
                    19.010778008591338,
                    50.25050077029648
                ]
            }
        },
        {
            "type": "Feature",
            "properties": {
                "ref:csioz": 1219554,
                "name": "Apteka Książęca",
                "addr:street": "Wincentego Pola",
                "addr:housenumber": "14",
                "addr:city": "Katowice",
                "addr:postcode": "40-596",
                "amenity": "pharmacy",
                "dispensing": "yes"
            },
            "geometry": {
                "type": "Point",
                "coordinates": [
                    18.995620746733827,
                    50.2464604631782
                ]
            }
        },
        {
            "type": "Feature",
            "properties": {
                "ref:csioz": 1220761,
                "name": "Apteka Pod Kwiatami Vi",
                "addr:street": "Tadeusza Boya Żeleńskiego",
                "addr:housenumber": "77",
                "addr:city": "Katowice",
                "addr:postcode": "40-750",
                "amenity": "pharmacy",
                "dispensing": "yes"
            },
            "geometry": {
                "type": "Point",
                "coordinates": [
                    18.997878925497094,
                    50.18387550268017
                ]
            }
        },
        {
            "type": "Feature",
            "properties": {
                "ref:csioz": 1221866,
                "name": "Apteka Premium-Lek",
                "addr:street": "Józefowska",
                "addr:housenumber": "100",
                "addr:city": "Katowice",
                "addr:postcode": "40-145",
                "amenity": "pharmacy",
                "dispensing": "yes"
            },
            "geometry": {
                "type": "Point",
                "coordinates": [
                    19.01330333860482,
                    50.283947883870084
                ]
            }
        },
        {
            "type": "Feature",
            "properties": {
                "ref:csioz": 1224546,
                "addr:street": "Wita Stwosza",
                "addr:housenumber": "41",
                "addr:city": "Katowice",
                "addr:postcode": "40-042",
                "amenity": "pharmacy",
                "dispensing": "yes"
            },
            "geometry": {
                "type": "Point",
                "coordinates": [
                    19.014180324038403,
                    50.24461908781248
                ]
            }
        },
        {
            "type": "Feature",
            "properties": {
                "ref:csioz": 1227811,
                "addr:street": "Raciborska",
                "addr:housenumber": "15",
                "addr:city": "Katowice",
                "addr:postcode": "40-074",
                "amenity": "pharmacy",
                "dispensing": "yes"
            },
            "geometry": {
                "type": "Point",
                "coordinates": [
                    19.007200285295774,
                    50.25483252901373
                ]
            }
        },
        {
            "type": "Feature",
            "properties": {
                "ref:csioz": 1228410,
                "name": "Dr. Max",
                "addr:street": "Tadeusza Kościuszki",
                "addr:housenumber": "229",
                "addr:city": "Katowice",
                "addr:postcode": "40-600",
                "amenity": "pharmacy",
                "dispensing": "yes"
            },
            "geometry": {
                "type": "Point",
                "coordinates": [
                    18.988600834946457,
                    50.22381436211164
                ]
            }
        },
        {
            "type": "Feature",
            "properties": {
                "ref:csioz": 1229128,
                "addr:street": "Ligocka",
                "addr:housenumber": "3a",
                "addr:city": "Katowice",
                "addr:postcode": "40-570",
                "amenity": "pharmacy",
                "dispensing": "yes"
            },
            "geometry": {
                "type": "Point",
                "coordinates": [
                    18.99231761615256,
                    50.24226240440085
                ]
            }
        },
        {
            "type": "Feature",
            "properties": {
                "ref:csioz": 1227469,
                "name": "\"Spzla W Katowicach \"\"Moja Przychodnia\"\" Ambulatoryjne Centrum Zabiegowe\"",
                "addr:street": "Adama Mickiewicza",
                "addr:housenumber": "9",
                "addr:city": "Katowice",
                "addr:postcode": "40-092",
                "amenity": "pharmacy",
                "dispensing": "yes"
            },
            "geometry": {
                "type": "Point",
                "coordinates": [
                    19.019631270042154,
                    50.260931889447775
                ]
            }
        },
        {
            "type": "Feature",
            "properties": {
                "ref:csioz": 1119241,
                "name": "\"Zoz \"\"Epione\"\" Centrum Chirurgii Krótkoterminowej Piotrowicka\"",
                "addr:street": "Piotrowicka",
                "addr:housenumber": "68",
                "addr:city": "Katowice",
                "addr:postcode": "40-723",
                "amenity": "pharmacy",
                "dispensing": "yes"
            },
            "geometry": {
                "type": "Point",
                "coordinates": [
                    18.970297750263793,
                    50.227445482821146
                ]
            }
        },
        {
            "type": "Feature",
            "properties": {
                "ref:csioz": 1063706,
                "name": "Brak Nazwy",
                "addr:street": "gen. Józefa Hallera",
                "addr:housenumber": "1",
                "addr:city": "Katowice",
                "addr:postcode": "40-321",
                "amenity": "pharmacy",
                "dispensing": "yes"
            },
            "geometry": {
                "type": "Point",
                "coordinates": [
                    19.08074448421806,
                    50.26870000442925
                ]
            }
        },
        {
            "type": "Feature",
            "properties": {
                "ref:csioz": 1063711,
                "name": "Eskulap",
                "addr:street": "gen. Józefa Hallera",
                "addr:housenumber": "40",
                "addr:city": "Katowice",
                "addr:postcode": "40-321",
                "amenity": "pharmacy",
                "dispensing": "yes"
            },
            "geometry": {
                "type": "Point",
                "coordinates": [
                    19.07530348448008,
                    50.27113991539794
                ]
            }
        },
        {
            "type": "Feature",
            "properties": {
                "ref:csioz": 1063857,
                "name": "Apteka Dbam O Zdrowie",
                "addr:street": "Karliczka",
                "addr:housenumber": "12",
                "addr:city": "Katowice",
                "addr:postcode": "40-488",
                "amenity": "pharmacy",
                "dispensing": "yes"
            },
            "geometry": {
                "type": "Point",
                "coordinates": [
                    19.063258410954184,
                    50.22583514473886
                ]
            }
        },
        {
            "type": "Feature",
            "properties": {
                "ref:csioz": 1063947,
                "name": "Danuta",
                "addr:street": "Leśnego Potoku",
                "addr:housenumber": "66 A",
                "addr:city": "Katowice",
                "addr:postcode": "40-404",
                "amenity": "pharmacy",
                "dispensing": "yes"
            },
            "geometry": {
                "type": "Point",
                "coordinates": [
                    19.092453814045303,
                    50.23760717940815
                ]
            }
        },
        {
            "type": "Feature",
            "properties": {
                "ref:csioz": 1064045,
                "name": "Na Miłej",
                "addr:street": "Miła",
                "addr:housenumber": "23",
                "addr:city": "Katowice",
                "addr:postcode": "40-467",
                "amenity": "pharmacy",
                "dispensing": "yes"
            },
            "geometry": {
                "type": "Point",
                "coordinates": [
                    19.07219785629936,
                    50.22612823902977
                ]
            }
        },
        {
            "type": "Feature",
            "properties": {
                "ref:csioz": 1064207,
                "name": "Pod Kwiatami",
                "addr:street": "Plac Powstańców Śląskich",
                "addr:housenumber": "6",
                "addr:city": "Katowice",
                "addr:postcode": "40-367",
                "amenity": "pharmacy",
                "dispensing": "yes"
            },
            "geometry": {
                "type": "Point",
                "coordinates": [
                    19.09494075849879,
                    50.2629036763649
                ]
            }
        },
        {
            "type": "Feature",
            "properties": {
                "ref:csioz": 1064210,
                "name": "Pod Kwiatami Iv",
                "addr:street": "Plac Wyzwolenia",
                "addr:housenumber": "12",
                "addr:city": "Katowice",
                "addr:postcode": "40-423",
                "amenity": "pharmacy",
                "dispensing": "yes"
            },
            "geometry": {
                "type": "Point",
                "coordinates": [
                    19.081989205284835,
                    50.243381323898724
                ]
            }
        },
        {
            "type": "Feature",
            "properties": {
                "ref:csioz": 1112662,
                "name": "Apteka Vitalis",
                "addr:street": "Wojciecha",
                "addr:housenumber": "57",
                "addr:city": "Katowice",
                "addr:postcode": "40-474",
                "amenity": "pharmacy",
                "dispensing": "yes"
            },
            "geometry": {
                "type": "Point",
                "coordinates": [
                    19.063942468973277,
                    50.22170521392981
                ]
            }
        },
        {
            "type": "Feature",
            "properties": {
                "ref:csioz": 1176720,
                "name": "Ziko Apteka",
                "addr:street": "1 Maja",
                "addr:housenumber": "108A",
                "addr:city": "Katowice",
                "addr:postcode": "40-237",
                "amenity": "pharmacy",
                "dispensing": "yes"
            },
            "geometry": {
                "type": "Point",
                "coordinates": [
                    19.053710286927846,
                    50.25906330132553
                ]
            }
        },
        {
            "type": "Feature",
            "properties": {
                "ref:csioz": 1179104,
                "name": "Centrum Medyczne Mavit Szpitale",
                "addr:street": "Szopienicka",
                "addr:housenumber": "65",
                "addr:city": "Katowice",
                "addr:postcode": "40-431",
                "amenity": "pharmacy",
                "dispensing": "yes"
            },
            "geometry": {
                "type": "Point",
                "coordinates": [
                    19.079857414165108,
                    50.24705767202652
                ]
            }
        },
        {
            "type": "Feature",
            "properties": {
                "ref:csioz": 1200097,
                "name": "Sieciowa Nr 1",
                "addr:street": "Mysłowicka",
                "addr:housenumber": "28",
                "addr:city": "Katowice",
                "addr:postcode": "40-486",
                "amenity": "pharmacy",
                "dispensing": "yes"
            },
            "geometry": {
                "type": "Point",
                "coordinates": [
                    19.062974885062317,
                    50.224535251805804
                ]
            }
        },
        {
            "type": "Feature",
            "properties": {
                "ref:csioz": 1226524,
                "name": "Apteka Isofarm",
                "addr:street": "Grodowa",
                "addr:housenumber": "1",
                "addr:city": "Katowice",
                "addr:postcode": "40-407",
                "amenity": "pharmacy",
                "dispensing": "yes"
            },
            "geometry": {
                "type": "Point",
                "coordinates": [
                    19.090012652143663,
                    50.241708878629076
                ]
            }
        },
        {
            "type": "Feature",
            "properties": {
                "ref:csioz": 1063740,
                "name": "Dr. Max",
                "addr:street": "gen. Henryka le Ronda",
                "addr:housenumber": "6",
                "addr:city": "Katowice",
                "addr:postcode": "40-303",
                "amenity": "pharmacy",
                "dispensing": "yes"
            },
            "geometry": {
                "type": "Point",
                "coordinates": [
                    19.068984748892387,
                    50.27715394552114
                ]
            }
        },
        {
            "type": "Feature",
            "properties": {
                "ref:csioz": 1064101,
                "name": "Apteka Główna",
                "addr:street": "Obrońców Westerplatte",
                "addr:housenumber": "1",
                "addr:city": "Katowice",
                "addr:postcode": "40-336",
                "amenity": "pharmacy",
                "dispensing": "yes"
            },
            "geometry": {
                "type": "Point",
                "coordinates": [
                    19.09444517890473,
                    50.263027358838755
                ]
            }
        },
        {
            "type": "Feature",
            "properties": {
                "ref:csioz": 1064324,
                "name": "Fantazja",
                "addr:street": "ROŹDZIEŃSKIEGO",
                "addr:housenumber": "200",
                "addr:city": "KATOWICE",
                "addr:postcode": "40-315",
                "amenity": "pharmacy",
                "dispensing": "yes"
            },
            "geometry": {
                "type": "Point",
                "coordinates": [
                    19.061724141615393,
                    50.268151934817425
                ]
            }
        },
        {
            "type": "Feature",
            "properties": {
                "ref:csioz": 1064544,
                "name": "Pod Kwiatami Ii",
                "addr:street": "Wiosny Ludów",
                "addr:housenumber": "21",
                "addr:city": "Katowice",
                "addr:postcode": "40-374",
                "amenity": "pharmacy",
                "dispensing": "yes"
            },
            "geometry": {
                "type": "Point",
                "coordinates": [
                    19.09910008400074,
                    50.262407553779894
                ]
            }
        },
        {
            "type": "Feature",
            "properties": {
                "ref:csioz": 1064589,
                "name": "Apteka Grosik-Centrum Tanich Leków",
                "addr:street": "Zamkowa",
                "addr:housenumber": "45",
                "addr:city": "Katowice",
                "addr:postcode": "40-414",
                "amenity": "pharmacy",
                "dispensing": "yes"
            },
            "geometry": {
                "type": "Point",
                "coordinates": [
                    19.090544993465684,
                    50.24146322649445
                ]
            }
        },
        {
            "type": "Feature",
            "properties": {
                "ref:csioz": 1172795,
                "name": "Apteka Agafarmax Na Giszowcu",
                "addr:street": "Wojciecha",
                "addr:housenumber": "1",
                "addr:city": "Katowice",
                "addr:postcode": "40-474",
                "amenity": "pharmacy",
                "dispensing": "yes"
            },
            "geometry": {
                "type": "Point",
                "coordinates": [
                    19.059926518899974,
                    50.22358920857727
                ]
            }
        },
        {
            "type": "Feature",
            "properties": {
                "ref:csioz": 1184455,
                "name": "Centrum Zdrowia",
                "addr:street": "Szopienicka",
                "addr:housenumber": "59",
                "addr:city": "Katowice",
                "addr:postcode": "40-431",
                "amenity": "pharmacy",
                "dispensing": "yes"
            },
            "geometry": {
                "type": "Point",
                "coordinates": [
                    19.07931403025896,
                    50.246036746381094
                ]
            }
        },
        {
            "type": "Feature",
            "properties": {
                "ref:csioz": 1184963,
                "name": "\"Przedsiębiorstwo \"\"Szpital\"\"\"",
                "addr:street": "Janusza Korczaka",
                "addr:housenumber": "27",
                "addr:city": "Katowice",
                "addr:postcode": "40-340",
                "amenity": "pharmacy",
                "dispensing": "yes"
            },
            "geometry": {
                "type": "Point",
                "coordinates": [
                    19.085300517755826,
                    50.27127990661556
                ]
            }
        },
        {
            "type": "Feature",
            "properties": {
                "ref:csioz": 1195408,
                "name": "Sieciowa Nr 8",
                "addr:street": "Przyjazna",
                "addr:housenumber": "8",
                "addr:city": "Katowice",
                "addr:postcode": "40-467",
                "amenity": "pharmacy",
                "dispensing": "yes"
            },
            "geometry": {
                "type": "Point",
                "coordinates": [
                    19.069934564078242,
                    50.223118046923574
                ]
            }
        },
        {
            "type": "Feature",
            "properties": {
                "ref:csioz": 1216566,
                "name": "U Aptekarzy",
                "addr:street": "ul. Mysłowicka",
                "addr:housenumber": "13",
                "addr:city": "Katowice",
                "addr:postcode": "40-486",
                "amenity": "pharmacy",
                "dispensing": "yes"
            },
            "geometry": {
                "type": "Point",
                "coordinates": [
                    19.063166547092393,
                    50.225312174412984
                ]
            }
        },
        {
            "type": "Feature",
            "properties": {
                "ref:csioz": 1218960,
                "name": "Nzoz Szpital Geriatryczny Im. Jana Pawła Ii W Katowicach",
                "addr:street": "Morawa",
                "addr:housenumber": "31",
                "addr:city": "Katowice",
                "addr:postcode": "40-353",
                "amenity": "pharmacy",
                "dispensing": "yes"
            },
            "geometry": {
                "type": "Point",
                "coordinates": [
                    19.092088827506096,
                    50.266087010577756
                ]
            }
        },
        {
            "type": "Feature",
            "properties": {
                "ref:csioz": 1223576,
                "name": "Gościna Serca Św. Teresy Od Dzieciątka Jezus Stacjonarny Zespół Opieki Hospicyjnej Przy Społecznym Towarzystwie Hospicjum Cordis",
                "addr:street": "Teofila Ociepki",
                "addr:housenumber": "2",
                "addr:city": "Katowice",
                "addr:postcode": "40-413",
                "amenity": "pharmacy",
                "dispensing": "yes"
            },
            "geometry": {
                "type": "Point",
                "coordinates": [
                    19.08790296581882,
                    50.247105501646054
                ]
            }
        }
    ]
}