{
    "type": "FeatureCollection",
    "name": "JPT_KOD_JE_1463",
    "features": [
        {
            "type": "Feature",
            "properties": {
                "ref:csioz": 1095179,
                "name": "Apteka Kosmy I Damiana",
                "addr:street": "Gajowa",
                "addr:housenumber": "55",
                "addr:city": "Radom",
                "addr:postcode": "26-600",
                "amenity": "pharmacy",
                "dispensing": "yes"
            },
            "geometry": {
                "type": "Point",
                "coordinates": [
                    21.14853675110595,
                    51.37630153770134
                ]
            }
        },
        {
            "type": "Feature",
            "properties": {
                "ref:csioz": 1095187,
                "addr:street": "Główna",
                "addr:housenumber": "12",
                "addr:city": "Radom",
                "addr:postcode": "26-600",
                "amenity": "pharmacy",
                "dispensing": "yes"
            },
            "geometry": {
                "type": "Point",
                "coordinates": [
                    21.128470996893025,
                    51.40485849765387
                ]
            }
        },
        {
            "type": "Feature",
            "properties": {
                "ref:csioz": 1095198,
                "name": "\"Cef@Rm 36,6\"",
                "addr:street": "Główna",
                "addr:housenumber": "2",
                "addr:city": "Radom",
                "addr:postcode": "26-600",
                "amenity": "pharmacy",
                "dispensing": "yes"
            },
            "geometry": {
                "type": "Point",
                "coordinates": [
                    21.1293765747434,
                    51.40543796911291
                ]
            }
        },
        {
            "type": "Feature",
            "properties": {
                "ref:csioz": 1095201,
                "name": "Dr Zdrowie",
                "addr:street": "Józefa Grzecznarowskiego",
                "addr:housenumber": "28",
                "addr:city": "Radom",
                "addr:postcode": "26-600",
                "amenity": "pharmacy",
                "dispensing": "yes"
            },
            "geometry": {
                "type": "Point",
                "coordinates": [
                    21.17097756040804,
                    51.38142049896145
                ]
            }
        },
        {
            "type": "Feature",
            "properties": {
                "ref:csioz": 1095405,
                "addr:street": "Konstytucji 3 Maja",
                "addr:housenumber": "5",
                "addr:city": "Radom",
                "addr:postcode": "26-600",
                "amenity": "pharmacy",
                "dispensing": "yes"
            },
            "geometry": {
                "type": "Point",
                "coordinates": [
                    21.15246057655303,
                    51.400789426719925
                ]
            }
        },
        {
            "type": "Feature",
            "properties": {
                "ref:csioz": 1095418,
                "name": "Południe Ii",
                "addr:street": "Policka",
                "addr:housenumber": "2",
                "addr:city": "Radom",
                "addr:postcode": "26-612",
                "amenity": "pharmacy",
                "dispensing": "yes"
            },
            "geometry": {
                "type": "Point",
                "coordinates": [
                    21.13194177651018,
                    51.36597148858621
                ]
            }
        },
        {
            "type": "Feature",
            "properties": {
                "ref:csioz": 1095426,
                "name": "Z Alei Grzecznarowskiego Z Galerii Stokrotka",
                "addr:street": "Sandomierska",
                "addr:housenumber": "10",
                "addr:city": "Radom",
                "addr:postcode": "26-600",
                "amenity": "pharmacy",
                "dispensing": "yes"
            },
            "geometry": {
                "type": "Point",
                "coordinates": [
                    21.15795137925918,
                    51.3817135665433
                ]
            }
        },
        {
            "type": "Feature",
            "properties": {
                "ref:csioz": 1095439,
                "name": "Z Alei Grzecznarowskiego Z Galerii Stokrotka",
                "addr:street": "Henryka Sienkiewicza",
                "addr:housenumber": "6",
                "addr:city": "Radom",
                "addr:postcode": "26-600",
                "amenity": "pharmacy",
                "dispensing": "yes"
            },
            "geometry": {
                "type": "Point",
                "coordinates": [
                    21.153651242811247,
                    51.398164663236464
                ]
            }
        },
        {
            "type": "Feature",
            "properties": {
                "ref:csioz": 1095447,
                "addr:street": "Juliusza Słowackiego",
                "addr:housenumber": "107",
                "addr:city": "Radom",
                "addr:postcode": "26-600",
                "amenity": "pharmacy",
                "dispensing": "yes"
            },
            "geometry": {
                "type": "Point",
                "coordinates": [
                    21.173496985891937,
                    51.38865780763529
                ]
            }
        },
        {
            "type": "Feature",
            "properties": {
                "ref:csioz": 1095452,
                "addr:street": "Juliusza Słowackiego",
                "addr:housenumber": "191",
                "addr:city": "Radom",
                "addr:postcode": "26-600",
                "amenity": "pharmacy",
                "dispensing": "yes"
            },
            "geometry": {
                "type": "Point",
                "coordinates": [
                    21.18263707543709,
                    51.380057670954976
                ]
            }
        },
        {
            "type": "Feature",
            "properties": {
                "ref:csioz": 1095619,
                "addr:street": "Stefana Żeromskiego",
                "addr:housenumber": "91",
                "addr:city": "Radom",
                "addr:postcode": "26-600",
                "amenity": "pharmacy",
                "dispensing": "yes"
            },
            "geometry": {
                "type": "Point",
                "coordinates": [
                    21.1660115153404,
                    51.399947878829956
                ]
            }
        },
        {
            "type": "Feature",
            "properties": {
                "ref:csioz": 1095624,
                "name": "Dr. Max",
                "addr:street": "Stanisława Żółkiewskiego",
                "addr:housenumber": "4",
                "addr:city": "Radom",
                "addr:postcode": "26-600",
                "amenity": "pharmacy",
                "dispensing": "yes"
            },
            "geometry": {
                "type": "Point",
                "coordinates": [
                    21.154032673589526,
                    51.42603863477567
                ]
            }
        },
        {
            "type": "Feature",
            "properties": {
                "ref:csioz": 1095635,
                "addr:street": "Andrzeja Struga",
                "addr:housenumber": "57A",
                "addr:city": "Radom",
                "addr:postcode": "26-600",
                "amenity": "pharmacy",
                "dispensing": "yes"
            },
            "geometry": {
                "type": "Point",
                "coordinates": [
                    21.16587700000414,
                    51.407518000014576
                ]
            }
        },
        {
            "type": "Feature",
            "properties": {
                "ref:csioz": 1095662,
                "name": "Apteka Mgr Farm. Alina Zalewska",
                "addr:street": "1905 Roku",
                "addr:housenumber": "2/8",
                "addr:city": "Radom",
                "addr:postcode": "26-610",
                "amenity": "pharmacy",
                "dispensing": "yes"
            },
            "geometry": {
                "type": "Point",
                "coordinates": [
                    21.14717200000399,
                    51.392255000014536
                ]
            }
        },
        {
            "type": "Feature",
            "properties": {
                "ref:csioz": 1095697,
                "addr:street": "1905 Roku",
                "addr:housenumber": "20",
                "addr:city": "Radom",
                "addr:postcode": "26-600",
                "amenity": "pharmacy",
                "dispensing": "yes"
            },
            "geometry": {
                "type": "Point",
                "coordinates": [
                    21.143855754982475,
                    51.39154589327406
                ]
            }
        },
        {
            "type": "Feature",
            "properties": {
                "ref:csioz": 1095988,
                "name": "Super -Pharm",
                "addr:street": "Bolesława Chrobrego",
                "addr:housenumber": "1",
                "addr:city": "Radom",
                "addr:postcode": "26-600",
                "amenity": "pharmacy",
                "dispensing": "yes"
            },
            "geometry": {
                "type": "Point",
                "coordinates": [
                    21.156443345001193,
                    51.4063699864693
                ]
            }
        },
        {
            "type": "Feature",
            "properties": {
                "ref:csioz": 1098221,
                "name": "Apteka Szpitalna",
                "addr:street": "Juliana Aleksandrowicza",
                "addr:housenumber": "5",
                "addr:city": "Radom",
                "addr:postcode": "26-617",
                "amenity": "pharmacy",
                "dispensing": "yes"
            },
            "geometry": {
                "type": "Point",
                "coordinates": [
                    21.158517286876453,
                    51.43822939746556
                ]
            }
        },
        {
            "type": "Feature",
            "properties": {
                "ref:csioz": 1098519,
                "name": "Medicon-Szpital",
                "addr:street": "Gagarina",
                "addr:housenumber": "1",
                "addr:city": "Radom",
                "addr:postcode": "26-600",
                "amenity": "pharmacy",
                "dispensing": "yes"
            },
            "geometry": {
                "type": "Point",
                "coordinates": [
                    21.158364003552116,
                    51.38473483179745
                ]
            }
        },
        {
            "type": "Feature",
            "properties": {
                "ref:csioz": 1111485,
                "name": "Doz Apteka Dbam O Zdrowie",
                "addr:street": "gen. Leopolda Okulickiego",
                "addr:housenumber": "47",
                "addr:city": "Radom",
                "addr:postcode": "26-600",
                "amenity": "pharmacy",
                "dispensing": "yes"
            },
            "geometry": {
                "type": "Point",
                "coordinates": [
                    21.131569000003854,
                    51.40518300001455
                ]
            }
        },
        {
            "type": "Feature",
            "properties": {
                "ref:csioz": 1117240,
                "name": "Rodzinna",
                "addr:street": "Stefana Żeromskiego",
                "addr:housenumber": "92",
                "addr:city": "Radom",
                "addr:postcode": "26-600",
                "amenity": "pharmacy",
                "dispensing": "yes"
            },
            "geometry": {
                "type": "Point",
                "coordinates": [
                    21.166661775818316,
                    51.39962093097454
                ]
            }
        },
        {
            "type": "Feature",
            "properties": {
                "ref:csioz": 1174716,
                "name": "Superapteka",
                "addr:street": "Jana Kilińskiego",
                "addr:housenumber": "6",
                "addr:city": "Radom",
                "addr:postcode": "26-600",
                "amenity": "pharmacy",
                "dispensing": "yes"
            },
            "geometry": {
                "type": "Point",
                "coordinates": [
                    21.15258097704845,
                    51.402454016974914
                ]
            }
        },
        {
            "type": "Feature",
            "properties": {
                "ref:csioz": 1182525,
                "name": "Mgr Farm. Alina Zalewska",
                "addr:street": "25 Czerwca",
                "addr:housenumber": "46",
                "addr:city": "Radom",
                "addr:postcode": "26-610",
                "amenity": "pharmacy",
                "dispensing": "yes"
            },
            "geometry": {
                "type": "Point",
                "coordinates": [
                    21.142831000831407,
                    51.3710572894758
                ]
            }
        },
        {
            "type": "Feature",
            "properties": {
                "ref:csioz": 1186938,
                "name": "Codzienna",
                "addr:street": "Staroopatowska",
                "addr:housenumber": "22A",
                "addr:city": "Radom",
                "addr:postcode": "26-611",
                "amenity": "pharmacy",
                "dispensing": "yes"
            },
            "geometry": {
                "type": "Point",
                "coordinates": [
                    21.159102299742468,
                    51.38687620095955
                ]
            }
        },
        {
            "type": "Feature",
            "properties": {
                "ref:csioz": 1214375,
                "name": "Radomskie Centrum Onkologii Szpital Specjalistyczny W Radomiu",
                "addr:street": "Uniwersytecka",
                "addr:housenumber": "6",
                "addr:city": "Radom",
                "addr:postcode": "26-600",
                "amenity": "pharmacy",
                "dispensing": "yes"
            },
            "geometry": {
                "type": "Point",
                "coordinates": [
                    21.111235053930177,
                    51.411598360267845
                ]
            }
        },
        {
            "type": "Feature",
            "properties": {
                "ref:csioz": 1225302,
                "name": "Oddział Ginekologii Gin-Med",
                "addr:street": "Stefana Żeromskiego",
                "addr:housenumber": "64",
                "addr:city": "Radom",
                "addr:postcode": "26-600",
                "amenity": "pharmacy",
                "dispensing": "yes"
            },
            "geometry": {
                "type": "Point",
                "coordinates": [
                    21.1610642893891,
                    51.40020184849817
                ]
            }
        },
        {
            "type": "Feature",
            "properties": {
                "ref:csioz": 1229369,
                "name": "Regionalne Centrum Krwiodawstwa I Krwiolecznictwa W Radomiu",
                "addr:street": "Bolesława Limanowskiego",
                "addr:housenumber": "42",
                "addr:city": "Radom",
                "addr:postcode": "26-600",
                "amenity": "pharmacy",
                "dispensing": "yes"
            },
            "geometry": {
                "type": "Point",
                "coordinates": [
                    21.137709943370254,
                    51.39781401737299
                ]
            }
        },
        {
            "type": "Feature",
            "properties": {
                "ref:csioz": 1095165,
                "name": "Apteka Gemini",
                "addr:street": "Jurija Gagarina",
                "addr:housenumber": "1",
                "addr:city": "Radom",
                "addr:postcode": "26-600",
                "amenity": "pharmacy",
                "dispensing": "yes"
            },
            "geometry": {
                "type": "Point",
                "coordinates": [
                    21.158364003552116,
                    51.38470483179745
                ]
            }
        },
        {
            "type": "Feature",
            "properties": {
                "ref:csioz": 1095555,
                "addr:street": "Warszawska",
                "addr:housenumber": "4",
                "addr:city": "Radom",
                "addr:postcode": "26-600",
                "amenity": "pharmacy",
                "dispensing": "yes"
            },
            "geometry": {
                "type": "Point",
                "coordinates": [
                    21.15412100000404,
                    51.409785000014566
                ]
            }
        },
        {
            "type": "Feature",
            "properties": {
                "ref:csioz": 1095380,
                "addr:street": "Ignacego Paderewskiego",
                "addr:housenumber": "3B",
                "addr:city": "Radom",
                "addr:postcode": "26-600",
                "amenity": "pharmacy",
                "dispensing": "yes"
            },
            "geometry": {
                "type": "Point",
                "coordinates": [
                    21.174877253778718,
                    51.41583740103329
                ]
            }
        },
        {
            "type": "Feature",
            "properties": {
                "ref:csioz": 1095089,
                "name": "Astra",
                "addr:street": "25 Czerwca",
                "addr:housenumber": "5/9",
                "addr:city": "Radom",
                "addr:postcode": "26-600",
                "amenity": "pharmacy",
                "dispensing": "yes"
            },
            "geometry": {
                "type": "Point",
                "coordinates": [
                    21.15945500000409,
                    51.39400900001455
                ]
            }
        },
        {
            "type": "Feature",
            "properties": {
                "ref:csioz": 1095122,
                "addr:street": "Bolesława Chrobrego",
                "addr:housenumber": "9",
                "addr:city": "Radom",
                "addr:postcode": "26-600",
                "amenity": "pharmacy",
                "dispensing": "yes"
            },
            "geometry": {
                "type": "Point",
                "coordinates": [
                    21.158563000004072,
                    51.41008700001456
                ]
            }
        },
        {
            "type": "Feature",
            "properties": {
                "ref:csioz": 1095133,
                "name": "Dbam O Zdrowie",
                "addr:street": "Cisowa",
                "addr:housenumber": "7",
                "addr:city": "Radom",
                "addr:postcode": "26-600",
                "amenity": "pharmacy",
                "dispensing": "yes"
            },
            "geometry": {
                "type": "Point",
                "coordinates": [
                    21.157442365736284,
                    51.37865811993557
                ]
            }
        },
        {
            "type": "Feature",
            "properties": {
                "ref:csioz": 1095140,
                "name": "Południe",
                "addr:street": "Czarnoleska",
                "addr:housenumber": "21",
                "addr:city": "Radom",
                "addr:postcode": "26-600",
                "amenity": "pharmacy",
                "dispensing": "yes"
            },
            "geometry": {
                "type": "Point",
                "coordinates": [
                    21.131653345436497,
                    51.37201431280107
                ]
            }
        },
        {
            "type": "Feature",
            "properties": {
                "ref:csioz": 1095154,
                "addr:street": "Tadeusza Mazowieckiego",
                "addr:housenumber": "7J",
                "addr:city": "Radom",
                "addr:postcode": "26-600",
                "amenity": "pharmacy",
                "dispensing": "yes"
            },
            "geometry": {
                "type": "Point",
                "coordinates": [
                    21.162492000004107,
                    51.39130700001455
                ]
            }
        },
        {
            "type": "Feature",
            "properties": {
                "ref:csioz": 1095217,
                "addr:street": "Grzybowska",
                "addr:housenumber": "8",
                "addr:city": "Radom",
                "addr:postcode": "26-600",
                "amenity": "pharmacy",
                "dispensing": "yes"
            },
            "geometry": {
                "type": "Point",
                "coordinates": [
                    21.174578000004214,
                    51.40709100001456
                ]
            }
        },
        {
            "type": "Feature",
            "properties": {
                "ref:csioz": 1095225,
                "addr:street": "Kolejowa",
                "addr:housenumber": "15",
                "addr:city": "Radom",
                "addr:postcode": "26-600",
                "amenity": "pharmacy",
                "dispensing": "yes"
            },
            "geometry": {
                "type": "Point",
                "coordinates": [
                    21.157294110553003,
                    51.38936609243805
                ]
            }
        },
        {
            "type": "Feature",
            "properties": {
                "ref:csioz": 1095230,
                "name": "Komandosów",
                "addr:street": "Jurija Gagarina",
                "addr:housenumber": "6A",
                "addr:city": "Radom",
                "addr:postcode": "26-611",
                "amenity": "pharmacy",
                "dispensing": "yes"
            },
            "geometry": {
                "type": "Point",
                "coordinates": [
                    21.154574000004054,
                    51.38514300001453
                ]
            }
        },
        {
            "type": "Feature",
            "properties": {
                "ref:csioz": 1095249,
                "name": "\"Cef@Rm 36,6\"",
                "addr:street": "hm kpt Eugeniusza Stasieckiego",
                "addr:housenumber": "1",
                "addr:city": "Radom",
                "addr:postcode": "26-600",
                "amenity": "pharmacy",
                "dispensing": "yes"
            },
            "geometry": {
                "type": "Point",
                "coordinates": [
                    21.125436264949897,
                    51.388016892421035
                ]
            }
        },
        {
            "type": "Feature",
            "properties": {
                "ref:csioz": 1095258,
                "name": "Dbam O Zdrowie",
                "addr:street": "Królowej Jadwigi",
                "addr:housenumber": "9",
                "addr:city": "Radom",
                "addr:postcode": "26-600",
                "amenity": "pharmacy",
                "dispensing": "yes"
            },
            "geometry": {
                "type": "Point",
                "coordinates": [
                    21.15981502480324,
                    51.42942535761612
                ]
            }
        },
        {
            "type": "Feature",
            "properties": {
                "ref:csioz": 1095263,
                "name": "Doz Apteka Dbam O Zdrowie",
                "addr:street": "Janusza Kusocińskiego",
                "addr:housenumber": "19",
                "addr:city": "Radom",
                "addr:postcode": "26-600",
                "amenity": "pharmacy",
                "dispensing": "yes"
            },
            "geometry": {
                "type": "Point",
                "coordinates": [
                    21.16277434792585,
                    51.40978207455317
                ]
            }
        },
        {
            "type": "Feature",
            "properties": {
                "ref:csioz": 1095274,
                "addr:street": "Bolesława Limanowskiego",
                "addr:housenumber": "73/75",
                "addr:city": "Radom",
                "addr:postcode": "26-600",
                "amenity": "pharmacy",
                "dispensing": "yes"
            },
            "geometry": {
                "type": "Point",
                "coordinates": [
                    21.126366266624593,
                    51.38733767454646
                ]
            }
        },
        {
            "type": "Feature",
            "properties": {
                "ref:csioz": 1095282,
                "addr:street": "Konstantego Lubońskiego",
                "addr:housenumber": "9",
                "addr:city": "Radom",
                "addr:postcode": "26-600",
                "amenity": "pharmacy",
                "dispensing": "yes"
            },
            "geometry": {
                "type": "Point",
                "coordinates": [
                    21.169837707075438,
                    51.389824244647684
                ]
            }
        },
        {
            "type": "Feature",
            "properties": {
                "ref:csioz": 1095309,
                "addr:street": "Mieszka I",
                "addr:housenumber": "3C",
                "addr:city": "Radom",
                "addr:postcode": "26-600",
                "amenity": "pharmacy",
                "dispensing": "yes"
            },
            "geometry": {
                "type": "Point",
                "coordinates": [
                    21.163531916729035,
                    51.42777199868103
                ]
            }
        },
        {
            "type": "Feature",
            "properties": {
                "ref:csioz": 1095314,
                "name": "Apteka Codzienna",
                "addr:street": "Józefa Mireckiego",
                "addr:housenumber": "14",
                "addr:city": "Radom",
                "addr:postcode": "26-600",
                "amenity": "pharmacy",
                "dispensing": "yes"
            },
            "geometry": {
                "type": "Point",
                "coordinates": [
                    21.142289081197305,
                    51.407332276331054
                ]
            }
        },
        {
            "type": "Feature",
            "properties": {
                "ref:csioz": 1095346,
                "addr:street": "Olsztyńska",
                "addr:housenumber": "39",
                "addr:city": "Radom",
                "addr:postcode": "26-600",
                "amenity": "pharmacy",
                "dispensing": "yes"
            },
            "geometry": {
                "type": "Point",
                "coordinates": [
                    21.181955138918067,
                    51.40980317095066
                ]
            }
        },
        {
            "type": "Feature",
            "properties": {
                "ref:csioz": 1095351,
                "name": "Od Serca",
                "addr:street": "Orląt Lwowskich",
                "addr:housenumber": "7",
                "addr:city": "Radom",
                "addr:postcode": "26-600",
                "amenity": "pharmacy",
                "dispensing": "yes"
            },
            "geometry": {
                "type": "Point",
                "coordinates": [
                    21.179366151714394,
                    51.41442301566276
                ]
            }
        },
        {
            "type": "Feature",
            "properties": {
                "ref:csioz": 1095367,
                "addr:street": "Osiedlowa",
                "addr:housenumber": "20",
                "addr:city": "Radom",
                "addr:postcode": "26-600",
                "amenity": "pharmacy",
                "dispensing": "yes"
            },
            "geometry": {
                "type": "Point",
                "coordinates": [
                    21.144309289333187,
                    51.37457577705499
                ]
            }
        },
        {
            "type": "Feature",
            "properties": {
                "ref:csioz": 1095460,
                "name": "Nasza",
                "addr:street": "Juliusza Słowackiego",
                "addr:housenumber": "78",
                "addr:city": "Radom",
                "addr:postcode": "26-600",
                "amenity": "pharmacy",
                "dispensing": "yes"
            },
            "geometry": {
                "type": "Point",
                "coordinates": [
                    21.171052808687463,
                    51.39005197071154
                ]
            }
        },
        {
            "type": "Feature",
            "properties": {
                "ref:csioz": 1095471,
                "addr:street": "Struga",
                "addr:housenumber": "52",
                "addr:city": "Radom",
                "addr:postcode": "26-600",
                "amenity": "pharmacy",
                "dispensing": "yes"
            },
            "geometry": {
                "type": "Point",
                "coordinates": [
                    21.17137531851025,
                    51.4444995908325
                ]
            }
        },
        {
            "type": "Feature",
            "properties": {
                "ref:csioz": 1095483,
                "name": "Dbam O Zdrowie",
                "addr:street": "Andrzeja Struga",
                "addr:housenumber": "52A",
                "addr:city": "Radom",
                "addr:postcode": "26-600",
                "amenity": "pharmacy",
                "dispensing": "yes"
            },
            "geometry": {
                "type": "Point",
                "coordinates": [
                    21.16440298423496,
                    51.40676971985155
                ]
            }
        },
        {
            "type": "Feature",
            "properties": {
                "ref:csioz": 1095494,
                "addr:street": "Adolfa Tochtermana",
                "addr:housenumber": "1",
                "addr:city": "Radom",
                "addr:postcode": "26-600",
                "amenity": "pharmacy",
                "dispensing": "yes"
            },
            "geometry": {
                "type": "Point",
                "coordinates": [
                    21.145897081801124,
                    51.39991638501892
                ]
            }
        },
        {
            "type": "Feature",
            "properties": {
                "ref:csioz": 1095507,
                "addr:street": "Toruńska",
                "addr:housenumber": "1/3",
                "addr:city": "Radom",
                "addr:postcode": "26-600",
                "amenity": "pharmacy",
                "dispensing": "yes"
            },
            "geometry": {
                "type": "Point",
                "coordinates": [
                    21.126323000003815,
                    51.378478000014525
                ]
            }
        },
        {
            "type": "Feature",
            "properties": {
                "ref:csioz": 1095529,
                "addr:street": "Romualda Traugutta",
                "addr:housenumber": "1A",
                "addr:city": "Radom",
                "addr:postcode": "26-600",
                "amenity": "pharmacy",
                "dispensing": "yes"
            },
            "geometry": {
                "type": "Point",
                "coordinates": [
                    21.153905908677398,
                    51.39208365620678
                ]
            }
        },
        {
            "type": "Feature",
            "properties": {
                "ref:csioz": 1095532,
                "addr:street": "Romualda Traugutta",
                "addr:housenumber": "30",
                "addr:city": "Radom",
                "addr:postcode": "26-600",
                "amenity": "pharmacy",
                "dispensing": "yes"
            },
            "geometry": {
                "type": "Point",
                "coordinates": [
                    21.15406916485679,
                    51.39597199735807
                ]
            }
        },
        {
            "type": "Feature",
            "properties": {
                "ref:csioz": 1095541,
                "addr:street": "Trojańska",
                "addr:housenumber": "12",
                "addr:city": "Radom",
                "addr:postcode": "26-600",
                "amenity": "pharmacy",
                "dispensing": "yes"
            },
            "geometry": {
                "type": "Point",
                "coordinates": [
                    21.12855323210083,
                    51.36380194354998
                ]
            }
        },
        {
            "type": "Feature",
            "properties": {
                "ref:csioz": 1095704,
                "name": "Apteka Rodzinna",
                "addr:street": "Dionizego Czachowskiego",
                "addr:housenumber": "15A",
                "addr:city": "Radom",
                "addr:postcode": "26-600",
                "amenity": "pharmacy",
                "dispensing": "yes"
            },
            "geometry": {
                "type": "Point",
                "coordinates": [
                    21.16564325060069,
                    51.39699230344652
                ]
            }
        },
        {
            "type": "Feature",
            "properties": {
                "ref:csioz": 1095712,
                "addr:street": "Ignacego Paderewskiego",
                "addr:housenumber": "8",
                "addr:city": "Radom",
                "addr:postcode": "26-600",
                "amenity": "pharmacy",
                "dispensing": "yes"
            },
            "geometry": {
                "type": "Point",
                "coordinates": [
                    21.175467484338174,
                    51.41659176825183
                ]
            }
        },
        {
            "type": "Feature",
            "properties": {
                "ref:csioz": 1095720,
                "addr:street": "Mieczysława Niedziałkowskiego",
                "addr:housenumber": "19/21",
                "addr:city": "Radom",
                "addr:postcode": "26-600",
                "amenity": "pharmacy",
                "dispensing": "yes"
            },
            "geometry": {
                "type": "Point",
                "coordinates": [
                    21.160025120132058,
                    51.404229896993776
                ]
            }
        },
        {
            "type": "Feature",
            "properties": {
                "ref:csioz": 1095748,
                "name": "Fit",
                "addr:street": "Królowej Jadwigi",
                "addr:housenumber": "13",
                "addr:city": "Radom",
                "addr:postcode": "26-600",
                "amenity": "pharmacy",
                "dispensing": "yes"
            },
            "geometry": {
                "type": "Point",
                "coordinates": [
                    21.15858149747614,
                    51.4296346025709
                ]
            }
        },
        {
            "type": "Feature",
            "properties": {
                "ref:csioz": 1095757,
                "name": "Apteka Mgr Farm. Alina Zalewska",
                "addr:street": "Mikołaja Reja",
                "addr:housenumber": "28",
                "addr:city": "Radom",
                "addr:postcode": "26-610",
                "amenity": "pharmacy",
                "dispensing": "yes"
            },
            "geometry": {
                "type": "Point",
                "coordinates": [
                    21.14168417564052,
                    51.404761692778315
                ]
            }
        },
        {
            "type": "Feature",
            "properties": {
                "ref:csioz": 1095761,
                "name": "Plus",
                "addr:street": "Stefana Żeromskiego",
                "addr:housenumber": "47",
                "addr:city": "Radom",
                "addr:postcode": "26-600",
                "amenity": "pharmacy",
                "dispensing": "yes"
            },
            "geometry": {
                "type": "Point",
                "coordinates": [
                    21.156053037278582,
                    51.40096784916555
                ]
            }
        },
        {
            "type": "Feature",
            "properties": {
                "ref:csioz": 1095773,
                "addr:street": "Pośrednia",
                "addr:housenumber": "29",
                "addr:city": "Radom",
                "addr:postcode": "26-600",
                "amenity": "pharmacy",
                "dispensing": "yes"
            },
            "geometry": {
                "type": "Point",
                "coordinates": [
                    21.106797416450252,
                    51.384671693950246
                ]
            }
        },
        {
            "type": "Feature",
            "properties": {
                "ref:csioz": 1095975,
                "name": "Rodzinna",
                "addr:street": "Władysława Beliny-Prażmowskiego",
                "addr:housenumber": "15",
                "addr:city": "Radom",
                "addr:postcode": "26-600",
                "amenity": "pharmacy",
                "dispensing": "yes"
            },
            "geometry": {
                "type": "Point",
                "coordinates": [
                    21.156788414389897,
                    51.392897464966026
                ]
            }
        },
        {
            "type": "Feature",
            "properties": {
                "ref:csioz": 1118984,
                "name": "Apteki Medyczne",
                "addr:street": "Mieczysława Niedziałkowskiego",
                "addr:housenumber": "40",
                "addr:city": "Radom",
                "addr:postcode": "26-600",
                "amenity": "pharmacy",
                "dispensing": "yes"
            },
            "geometry": {
                "type": "Point",
                "coordinates": [
                    21.161677266101265,
                    51.406571953667324
                ]
            }
        },
        {
            "type": "Feature",
            "properties": {
                "ref:csioz": 1119013,
                "name": "Polskich Farmaceutów",
                "addr:street": "Józefa Grzecznarowskiego",
                "addr:housenumber": "17",
                "addr:city": "Radom",
                "addr:postcode": "26-600",
                "amenity": "pharmacy",
                "dispensing": "yes"
            },
            "geometry": {
                "type": "Point",
                "coordinates": [
                    21.157638651692213,
                    51.387736912200666
                ]
            }
        },
        {
            "type": "Feature",
            "properties": {
                "ref:csioz": 1152979,
                "name": "Apteka Szpitalna",
                "addr:street": "Krychnowicka",
                "addr:housenumber": "1",
                "addr:city": "Radom",
                "addr:postcode": "26-607",
                "amenity": "pharmacy",
                "dispensing": "yes"
            },
            "geometry": {
                "type": "Point",
                "coordinates": [
                    21.084340853505857,
                    51.357686429523184
                ]
            }
        },
        {
            "type": "Feature",
            "properties": {
                "ref:csioz": 1153272,
                "name": "Radomski Szpital Specjalistyczny Im. Dr Tytusa Chałubińskiego",
                "addr:street": "Tochtermana",
                "addr:housenumber": "1",
                "addr:city": "Radom",
                "addr:postcode": "26-610",
                "amenity": "pharmacy",
                "dispensing": "yes"
            },
            "geometry": {
                "type": "Point",
                "coordinates": [
                    21.145897081801124,
                    51.39988638501892
                ]
            }
        },
        {
            "type": "Feature",
            "properties": {
                "ref:csioz": 1169406,
                "name": "Doz Apteka Dbam O Zdrowie",
                "addr:street": "Bolesława Chrobrego",
                "addr:housenumber": "2",
                "addr:city": "Radom",
                "addr:postcode": "26-600",
                "amenity": "pharmacy",
                "dispensing": "yes"
            },
            "geometry": {
                "type": "Point",
                "coordinates": [
                    21.157362068367515,
                    51.40690941060538
                ]
            }
        },
        {
            "type": "Feature",
            "properties": {
                "ref:csioz": 1169411,
                "name": "Doz Apteka Dbam O Zdrowie",
                "addr:street": "Gajowa",
                "addr:housenumber": "25/27",
                "addr:city": "Radom",
                "addr:postcode": "26-600",
                "amenity": "pharmacy",
                "dispensing": "yes"
            },
            "geometry": {
                "type": "Point",
                "coordinates": [
                    21.14290700000395,
                    51.377366000014526
                ]
            }
        },
        {
            "type": "Feature",
            "properties": {
                "ref:csioz": 1173636,
                "name": "Hebeapteka",
                "addr:street": "Czarnoleska",
                "addr:housenumber": "9",
                "addr:city": "Radom",
                "addr:postcode": "26-616",
                "amenity": "pharmacy",
                "dispensing": "yes"
            },
            "geometry": {
                "type": "Point",
                "coordinates": [
                    21.12813222215736,
                    51.37302205947308
                ]
            }
        },
        {
            "type": "Feature",
            "properties": {
                "ref:csioz": 1173648,
                "name": "Z Grzecznarowskiego Z Galerii Stokrotka",
                "addr:street": "Bolesława Chrobrego",
                "addr:housenumber": "46A",
                "addr:city": "Radom",
                "addr:postcode": "26-600",
                "amenity": "pharmacy",
                "dispensing": "yes"
            },
            "geometry": {
                "type": "Point",
                "coordinates": [
                    21.16368611706975,
                    51.42070102057716
                ]
            }
        },
        {
            "type": "Feature",
            "properties": {
                "ref:csioz": 1173829,
                "name": "Ivamed",
                "addr:street": "Główna",
                "addr:housenumber": "11",
                "addr:city": "Radom",
                "addr:postcode": "26-600",
                "amenity": "pharmacy",
                "dispensing": "yes"
            },
            "geometry": {
                "type": "Point",
                "coordinates": [
                    21.129338000003848,
                    51.40454900001456
                ]
            }
        },
        {
            "type": "Feature",
            "properties": {
                "ref:csioz": 1174568,
                "name": "Barwy Zdrowia",
                "addr:street": "Stefanii Sempołowskiej",
                "addr:housenumber": "5",
                "addr:city": "Radom",
                "addr:postcode": "26-605",
                "amenity": "pharmacy",
                "dispensing": "yes"
            },
            "geometry": {
                "type": "Point",
                "coordinates": [
                    21.16872260614524,
                    51.4183612498478
                ]
            }
        },
        {
            "type": "Feature",
            "properties": {
                "ref:csioz": 1182984,
                "name": "Centrum Zdrowia",
                "addr:street": "Lekarska",
                "addr:housenumber": "2A",
                "addr:city": "Radom",
                "addr:postcode": "26-610",
                "amenity": "pharmacy",
                "dispensing": "yes"
            },
            "geometry": {
                "type": "Point",
                "coordinates": [
                    21.1455999122791,
                    51.400863541972754
                ]
            }
        },
        {
            "type": "Feature",
            "properties": {
                "ref:csioz": 1186236,
                "name": "Cosmedica Extra!",
                "addr:street": "Juliana Aleksandrowicza",
                "addr:housenumber": "5E",
                "addr:city": "Radom",
                "addr:postcode": "26-617",
                "amenity": "pharmacy",
                "dispensing": "yes"
            },
            "geometry": {
                "type": "Point",
                "coordinates": [
                    21.158241000004065,
                    51.43732800001461
                ]
            }
        },
        {
            "type": "Feature",
            "properties": {
                "ref:csioz": 1191889,
                "name": "Codzienna",
                "addr:street": "Ignacego Paderewskiego",
                "addr:housenumber": "17",
                "addr:city": "Radom",
                "addr:postcode": "26-605",
                "amenity": "pharmacy",
                "dispensing": "yes"
            },
            "geometry": {
                "type": "Point",
                "coordinates": [
                    21.165707560471084,
                    51.41838555127864
                ]
            }
        },
        {
            "type": "Feature",
            "properties": {
                "ref:csioz": 1197566,
                "name": "Osiedlowa",
                "addr:street": "Osiedlowa",
                "addr:housenumber": "9",
                "addr:city": "Radom",
                "addr:postcode": "26-611",
                "amenity": "pharmacy",
                "dispensing": "yes"
            },
            "geometry": {
                "type": "Point",
                "coordinates": [
                    21.16296036124214,
                    51.38083933024687
                ]
            }
        },
        {
            "type": "Feature",
            "properties": {
                "ref:csioz": 1200894,
                "name": "Nova",
                "addr:street": "Bolesława Limanowskiego",
                "addr:housenumber": "98",
                "addr:city": "Radom",
                "addr:postcode": "26-612",
                "amenity": "pharmacy",
                "dispensing": "yes"
            },
            "geometry": {
                "type": "Point",
                "coordinates": [
                    21.126942509763932,
                    51.388560625539796
                ]
            }
        },
        {
            "type": "Feature",
            "properties": {
                "ref:csioz": 1228925,
                "name": "Zespół Lecznictwa Szpitalnego Polmedic",
                "addr:street": "Osiedlowa",
                "addr:housenumber": "9",
                "addr:city": "Radom",
                "addr:postcode": "26-600",
                "amenity": "pharmacy",
                "dispensing": "yes"
            },
            "geometry": {
                "type": "Point",
                "coordinates": [
                    21.16296036124214,
                    51.38080933024687
                ]
            }
        }
    ]
}