{
    "type": "FeatureCollection",
    "name": "JPT_KOD_JE_2008",
    "features": [
        {
            "type": "Feature",
            "properties": {
                "ref:csioz": 1025345,
                "addr:street": "Wojska Polskiego",
                "addr:housenumber": "11",
                "addr:city": "Trzcianne",
                "addr:postcode": "19-104",
                "amenity": "pharmacy"
            },
            "geometry": {
                "type": "Point",
                "coordinates": [
                    22.679429890899247,
                    53.34265244596888
                ]
            }
        },
        {
            "type": "Feature",
            "properties": {
                "ref:csioz": 1111194,
                "addr:street": "Grodzieńska",
                "addr:housenumber": "96",
                "addr:city": "Knyszyn",
                "addr:postcode": "19-120",
                "amenity": "pharmacy"
            },
            "geometry": {
                "type": "Point",
                "coordinates": [
                    22.921776066356223,
                    53.31960677528818
                ]
            }
        },
        {
            "type": "Feature",
            "properties": {
                "ref:csioz": 1020006,
                "addr:housenumber": "4",
                "addr:postcode": "19-111",
                "amenity": "pharmacy",
                "addr:place": "Krypno Wielkie"
            },
            "geometry": {
                "type": "Point",
                "coordinates": [
                    22.86997371820634,
                    53.27637992548416
                ]
            }
        },
        {
            "type": "Feature",
            "properties": {
                "ref:csioz": 1021584,
                "name": "Apteka Sokrates",
                "addr:street": "Grodzieńska",
                "addr:housenumber": "59A",
                "addr:city": "Knyszyn",
                "addr:postcode": "19-120",
                "amenity": "pharmacy"
            },
            "geometry": {
                "type": "Point",
                "coordinates": [
                    22.92148615776113,
                    53.31817528388023
                ]
            }
        },
        {
            "type": "Feature",
            "properties": {
                "ref:csioz": 1021907,
                "name": "Calami",
                "addr:street": "Goniądzka",
                "addr:housenumber": "4A",
                "addr:city": "Knyszyn",
                "addr:postcode": "19-120",
                "amenity": "pharmacy"
            },
            "geometry": {
                "type": "Point",
                "coordinates": [
                    22.918194485375643,
                    53.31356519561328
                ]
            }
        },
        {
            "type": "Feature",
            "properties": {
                "ref:csioz": 1014521,
                "addr:housenumber": "142A",
                "addr:postcode": "19-124",
                "amenity": "pharmacy",
                "addr:place": "Dolistowo Stare"
            },
            "geometry": {
                "type": "Point",
                "coordinates": [
                    22.935360000051766,
                    53.561199000019236
                ]
            }
        },
        {
            "type": "Feature",
            "properties": {
                "ref:csioz": 1015175,
                "name": "Aspirynka",
                "addr:housenumber": "12",
                "addr:postcode": "19-124",
                "amenity": "pharmacy",
                "addr:place": "Jaświły"
            },
            "geometry": {
                "type": "Point",
                "coordinates": [
                    22.954912857300123,
                    53.47488482929639
                ]
            }
        },
        {
            "type": "Feature",
            "properties": {
                "ref:csioz": 1017481,
                "name": "Apteka Dla Każdego",
                "addr:street": "11 Listopada",
                "addr:housenumber": "14",
                "addr:city": "Goniądz",
                "addr:postcode": "19-110",
                "amenity": "pharmacy"
            },
            "geometry": {
                "type": "Point",
                "coordinates": [
                    22.73526176610372,
                    53.488736509107355
                ]
            }
        },
        {
            "type": "Feature",
            "properties": {
                "ref:csioz": 1022800,
                "name": "\"Apteka Cef@Rm 36,6\"",
                "addr:street": "Niepodległości",
                "addr:housenumber": "6",
                "addr:city": "Mońki",
                "addr:postcode": "19-100",
                "amenity": "pharmacy"
            },
            "geometry": {
                "type": "Point",
                "coordinates": [
                    22.802268484524976,
                    53.404680908975166
                ]
            }
        },
        {
            "type": "Feature",
            "properties": {
                "ref:csioz": 1023184,
                "name": "\"Apteka J.P.G. Zawiślak Spółka Jawna\"\"\"",
                "addr:street": "Niepodległości",
                "addr:housenumber": "2A",
                "addr:flats": "9",
                "addr:city": "Mońki",
                "addr:postcode": "19-100",
                "amenity": "pharmacy"
            },
            "geometry": {
                "type": "Point",
                "coordinates": [
                    22.800229000045118,
                    53.40357200001868
                ]
            }
        },
        {
            "type": "Feature",
            "properties": {
                "ref:csioz": 1138757,
                "addr:street": "Niepodległości",
                "addr:housenumber": "9",
                "addr:city": "Mońki",
                "addr:postcode": "19-100",
                "amenity": "pharmacy"
            },
            "geometry": {
                "type": "Point",
                "coordinates": [
                    22.8031060327709,
                    53.40553108084078
                ]
            }
        },
        {
            "type": "Feature",
            "properties": {
                "ref:csioz": 1209684,
                "name": "Apteka Na Malinach",
                "addr:street": "Tysiąclecia",
                "addr:housenumber": "21",
                "addr:flats": "4",
                "addr:city": "Mońki",
                "addr:postcode": "19-100",
                "amenity": "pharmacy"
            },
            "geometry": {
                "type": "Point",
                "coordinates": [
                    22.8071374591791,
                    53.40366104965615
                ]
            }
        },
        {
            "type": "Feature",
            "properties": {
                "ref:csioz": 1221937,
                "name": "Główna Apteka",
                "addr:street": "Wyzwolenia",
                "addr:housenumber": "9",
                "addr:city": "Mońki",
                "addr:postcode": "19-100",
                "amenity": "pharmacy"
            },
            "geometry": {
                "type": "Point",
                "coordinates": [
                    22.800932517224883,
                    53.40353449919155
                ]
            }
        },
        {
            "type": "Feature",
            "properties": {
                "ref:csioz": 1230504,
                "addr:street": "Rynek",
                "addr:housenumber": "19",
                "addr:city": "Jasionówka",
                "addr:postcode": "19-122",
                "amenity": "pharmacy"
            },
            "geometry": {
                "type": "Point",
                "coordinates": [
                    23.036063486175895,
                    53.39589100712909
                ]
            }
        }
    ]
}