{
    "type": "FeatureCollection",
    "name": "JPT_KOD_JE_0220",
    "features": [
        {
            "type": "Feature",
            "properties": {
                "ref:csioz": 1127280,
                "name": "Medicamentum",
                "addr:street": "Dworcowa",
                "addr:housenumber": "62",
                "addr:city": "Oborniki Śląskie",
                "addr:postcode": "55-035",
                "amenity": "pharmacy"
            },
            "geometry": {
                "type": "Point",
                "coordinates": [
                    16.914710826672774,
                    51.301564935431315
                ]
            }
        },
        {
            "type": "Feature",
            "properties": {
                "ref:csioz": 1127844,
                "name": "Żmigrodzka",
                "addr:street": "Lipowa",
                "addr:housenumber": "1a",
                "addr:city": "Żmigród",
                "addr:postcode": "55-140",
                "amenity": "pharmacy"
            },
            "geometry": {
                "type": "Point",
                "coordinates": [
                    16.907823045725753,
                    51.47252038009042
                ]
            }
        },
        {
            "type": "Feature",
            "properties": {
                "ref:csioz": 1128080,
                "name": "Doz Apteka. Dbam O Zdrowie. Św. Jadwigi",
                "addr:street": "Św. Jadwigi",
                "addr:housenumber": "13A",
                "addr:city": "Trzebnica",
                "addr:postcode": "55-100",
                "amenity": "pharmacy"
            },
            "geometry": {
                "type": "Point",
                "coordinates": [
                    17.063566999997413,
                    51.30782900001442
                ]
            }
        },
        {
            "type": "Feature",
            "properties": {
                "ref:csioz": 1128072,
                "name": "Apteka Przy Ratuszu",
                "addr:street": "Obornicka",
                "addr:housenumber": "1",
                "addr:city": "Trzebnica",
                "addr:postcode": "55-100",
                "amenity": "pharmacy"
            },
            "geometry": {
                "type": "Point",
                "coordinates": [
                    17.05685020624695,
                    51.30636726703188
                ]
            }
        },
        {
            "type": "Feature",
            "properties": {
                "ref:csioz": 1128496,
                "name": "Zamkowa",
                "addr:street": "Zamkowa",
                "addr:housenumber": "24",
                "addr:city": "Żmigród",
                "addr:postcode": "55-140",
                "amenity": "pharmacy"
            },
            "geometry": {
                "type": "Point",
                "coordinates": [
                    16.90927277688709,
                    51.47315900813089
                ]
            }
        },
        {
            "type": "Feature",
            "properties": {
                "ref:csioz": 1128908,
                "name": "Pod Lwem",
                "addr:street": "Żmigrodzka",
                "addr:housenumber": "17",
                "addr:city": "Prusice",
                "addr:postcode": "55-110",
                "amenity": "pharmacy"
            },
            "geometry": {
                "type": "Point",
                "coordinates": [
                    16.958474581641397,
                    51.371843128370855
                ]
            }
        },
        {
            "type": "Feature",
            "properties": {
                "ref:csioz": 1129892,
                "name": "Lege Artis",
                "addr:street": "Ks. W. Bochenka",
                "addr:housenumber": "49",
                "addr:city": "Trzebnica",
                "addr:postcode": "55-100",
                "amenity": "pharmacy"
            },
            "geometry": {
                "type": "Point",
                "coordinates": [
                    17.064809987304255,
                    51.308837733071385
                ]
            }
        },
        {
            "type": "Feature",
            "properties": {
                "ref:csioz": 1130601,
                "name": "W Rynku",
                "addr:street": "Rynek",
                "addr:housenumber": "10",
                "addr:city": "Prusice",
                "addr:postcode": "55-110",
                "amenity": "pharmacy"
            },
            "geometry": {
                "type": "Point",
                "coordinates": [
                    16.960389425981976,
                    51.371253022745066
                ]
            }
        },
        {
            "type": "Feature",
            "properties": {
                "ref:csioz": 1126872,
                "name": "-",
                "addr:street": "Kościelna",
                "addr:housenumber": "6",
                "addr:city": "Trzebnica",
                "addr:postcode": "55-100",
                "amenity": "pharmacy"
            },
            "geometry": {
                "type": "Point",
                "coordinates": [
                    17.061756864296864,
                    51.30855673309177
                ]
            }
        },
        {
            "type": "Feature",
            "properties": {
                "ref:csioz": 1128369,
                "name": "Materia Medica",
                "addr:street": "Podzamcze",
                "addr:housenumber": "2A",
                "addr:city": "Oborniki Śląskie",
                "addr:postcode": "55-120",
                "amenity": "pharmacy"
            },
            "geometry": {
                "type": "Point",
                "coordinates": [
                    16.923497165855522,
                    51.29883289836823
                ]
            }
        },
        {
            "type": "Feature",
            "properties": {
                "ref:csioz": 1128449,
                "name": "Sanus",
                "addr:street": "Dworcowa",
                "addr:housenumber": "36",
                "addr:city": "Oborniki Śląskie",
                "addr:postcode": "55-120",
                "amenity": "pharmacy"
            },
            "geometry": {
                "type": "Point",
                "coordinates": [
                    16.912254927145458,
                    51.300790351066425
                ]
            }
        },
        {
            "type": "Feature",
            "properties": {
                "ref:csioz": 1130007,
                "name": "Apteka Wratislavia Iv",
                "addr:street": "Marii Skłodowskiej Curie",
                "addr:housenumber": "1",
                "addr:city": "Oborniki Śląskie",
                "addr:postcode": "55-120",
                "amenity": "pharmacy"
            },
            "geometry": {
                "type": "Point",
                "coordinates": [
                    16.915135999996473,
                    51.3006410000144
                ]
            }
        },
        {
            "type": "Feature",
            "properties": {
                "ref:csioz": 1130740,
                "name": "Wratislavia V",
                "addr:street": "Trzebnicka",
                "addr:housenumber": "36",
                "addr:city": "Oborniki Śląskie",
                "addr:postcode": "55-120",
                "amenity": "pharmacy"
            },
            "geometry": {
                "type": "Point",
                "coordinates": [
                    16.92225381275303,
                    51.298606304794916
                ]
            }
        },
        {
            "type": "Feature",
            "properties": {
                "ref:csioz": 1170771,
                "name": "Szpitalny Oddział Rehabilitacyjny I Zakład Pielęgnacyjno-Opiekuńczy",
                "addr:street": "Willowa",
                "addr:housenumber": "4",
                "addr:city": "Żmigród",
                "addr:postcode": "55-140",
                "amenity": "pharmacy"
            },
            "geometry": {
                "type": "Point",
                "coordinates": [
                    16.903155407940435,
                    51.46432674395927
                ]
            }
        },
        {
            "type": "Feature",
            "properties": {
                "ref:csioz": 1198575,
                "name": "Apteka Mediqa",
                "addr:street": "Sportowa",
                "addr:housenumber": "24",
                "addr:flats": "lokal 06",
                "addr:city": "Żmigród",
                "addr:postcode": "55-140",
                "amenity": "pharmacy"
            },
            "geometry": {
                "type": "Point",
                "coordinates": [
                    16.91432381248577,
                    51.470214465514246
                ]
            }
        },
        {
            "type": "Feature",
            "properties": {
                "ref:csioz": 1199482,
                "name": "Lege Artis",
                "addr:street": "Kolejowa",
                "addr:housenumber": "9",
                "addr:flats": "lokal 3",
                "addr:city": "Żmigród",
                "addr:postcode": "55-140",
                "amenity": "pharmacy"
            },
            "geometry": {
                "type": "Point",
                "coordinates": [
                    16.906050581099237,
                    51.474149206005684
                ]
            }
        },
        {
            "type": "Feature",
            "properties": {
                "ref:csioz": 1128721,
                "name": "Pod Opatrznością",
                "addr:street": "Kościelna",
                "addr:housenumber": "7",
                "addr:city": "Żmigród",
                "addr:postcode": "55-055",
                "amenity": "pharmacy"
            },
            "geometry": {
                "type": "Point",
                "coordinates": [
                    16.908380081679855,
                    51.47071046493921
                ]
            }
        },
        {
            "type": "Feature",
            "properties": {
                "ref:csioz": 1127341,
                "name": "Malwa",
                "addr:street": "Spacerowa",
                "addr:housenumber": "4",
                "addr:city": "Zawonia",
                "addr:postcode": "55-106",
                "amenity": "pharmacy"
            },
            "geometry": {
                "type": "Point",
                "coordinates": [
                    17.195278740127762,
                    51.31530837369238
                ]
            }
        },
        {
            "type": "Feature",
            "properties": {
                "ref:csioz": 1160980,
                "name": "Szpital Powiatowy",
                "addr:street": "Prusicka",
                "addr:housenumber": "53/55",
                "addr:city": "Trzebnica",
                "addr:postcode": "55-100",
                "amenity": "pharmacy"
            },
            "geometry": {
                "type": "Point",
                "coordinates": [
                    17.059162999997383,
                    51.31968300001442
                ]
            }
        },
        {
            "type": "Feature",
            "properties": {
                "ref:csioz": 1183966,
                "name": "Dział Farmacji Szpitalnej W Ośrodku Medycyny Paliatywnej I Hospicyjnej",
                "addr:housenumber": "1",
                "addr:city": "Będkowo",
                "addr:postcode": "55-100",
                "amenity": "pharmacy"
            },
            "geometry": {
                "type": "Point",
                "coordinates": [
                    17.04045414415506,
                    51.28907871990769
                ]
            }
        },
        {
            "type": "Feature",
            "properties": {
                "ref:csioz": 1126791,
                "name": "Herbena",
                "addr:street": "Prusicka",
                "addr:housenumber": "1",
                "addr:city": "Trzebnica",
                "addr:postcode": "55-100",
                "amenity": "pharmacy"
            },
            "geometry": {
                "type": "Point",
                "coordinates": [
                    17.06264429403424,
                    51.31072261606722
                ]
            }
        },
        {
            "type": "Feature",
            "properties": {
                "ref:csioz": 1130711,
                "name": "Apteka Panaceum",
                "addr:street": "Daszyńskiego",
                "addr:housenumber": "65",
                "addr:city": "Trzebnica",
                "addr:postcode": "55-100",
                "amenity": "pharmacy"
            },
            "geometry": {
                "type": "Point",
                "coordinates": [
                    17.05900446415719,
                    51.30775470525646
                ]
            }
        },
        {
            "type": "Feature",
            "properties": {
                "ref:csioz": 1135623,
                "name": "Farmax",
                "addr:housenumber": "26A",
                "addr:city": "Ujeździec Wielki",
                "addr:postcode": "55-100",
                "amenity": "pharmacy"
            },
            "geometry": {
                "type": "Point",
                "coordinates": [
                    17.094950790134153,
                    51.41615894227334
                ]
            }
        },
        {
            "type": "Feature",
            "properties": {
                "ref:csioz": 1136209,
                "name": "Pod Złotą Wagą",
                "addr:street": "Milicka",
                "addr:housenumber": "1",
                "addr:city": "Zawonia",
                "addr:postcode": "55-106",
                "amenity": "pharmacy"
            },
            "geometry": {
                "type": "Point",
                "coordinates": [
                    17.19733196713806,
                    51.31630651763078
                ]
            }
        },
        {
            "type": "Feature",
            "properties": {
                "ref:csioz": 1171630,
                "name": "Panaceum",
                "addr:street": "Marii Konopnickiej",
                "addr:housenumber": "6",
                "addr:city": "Czeszów",
                "addr:postcode": "55-106",
                "amenity": "pharmacy"
            },
            "geometry": {
                "type": "Point",
                "coordinates": [
                    17.24603292715741,
                    51.38157928102835
                ]
            }
        },
        {
            "type": "Feature",
            "properties": {
                "ref:csioz": 1181544,
                "name": "Centrum Pod Wezwaniem Świętej Jadwigi Ślaskiej W Trzebnicy Prowadzące Zakład Opiekuńczo-Leczniczy Dla Dorosłych",
                "addr:street": "ks. Dziekana Wawrzyńca Bochenka",
                "addr:housenumber": "30",
                "addr:city": "Trzebnica",
                "addr:postcode": "55-100",
                "amenity": "pharmacy"
            },
            "geometry": {
                "type": "Point",
                "coordinates": [
                    17.066481295876528,
                    51.30875071949457
                ]
            }
        },
        {
            "type": "Feature",
            "properties": {
                "ref:csioz": 1209801,
                "name": "\"Apteka \"\"Lege Artis\"\"\"",
                "addr:street": "Tadeusza  Kościuszki",
                "addr:housenumber": "10",
                "addr:city": "Trzebnica",
                "addr:postcode": "55-100",
                "amenity": "pharmacy"
            },
            "geometry": {
                "type": "Point",
                "coordinates": [
                    17.060278519707985,
                    51.310759966808
                ]
            }
        },
        {
            "type": "Feature",
            "properties": {
                "ref:csioz": 1221332,
                "name": "Apteka Leśna",
                "addr:street": "Wrocławska",
                "addr:housenumber": "2",
                "addr:city": "Wisznia Mała",
                "addr:postcode": "55-114",
                "amenity": "pharmacy"
            },
            "geometry": {
                "type": "Point",
                "coordinates": [
                    17.04450084711644,
                    51.24438012353878
                ]
            }
        },
        {
            "type": "Feature",
            "properties": {
                "ref:csioz": 1126941,
                "name": "Viola",
                "addr:street": "Główna",
                "addr:housenumber": "81",
                "addr:city": "Pęgów",
                "addr:postcode": "55-120",
                "amenity": "pharmacy"
            },
            "geometry": {
                "type": "Point",
                "coordinates": [
                    16.932281163898434,
                    51.24591757096767
                ]
            }
        },
        {
            "type": "Feature",
            "properties": {
                "ref:csioz": 1135229,
                "name": "\"Punkt Apteczny \"\"Magnolia\"\"\"",
                "addr:street": "Główna",
                "addr:housenumber": "20",
                "addr:city": "Psary",
                "addr:postcode": "51-180",
                "amenity": "pharmacy"
            },
            "geometry": {
                "type": "Point",
                "coordinates": [
                    17.029181320703696,
                    51.18476669031898
                ]
            }
        }
    ]
}