{
    "type": "FeatureCollection",
    "name": "JPT_KOD_JE_1462",
    "features": [
        {
            "type": "Feature",
            "properties": {
                "ref:csioz": 1093068,
                "addr:street": "Harcerska",
                "addr:housenumber": "89",
                "addr:city": "Płock",
                "addr:postcode": "09-408",
                "amenity": "pharmacy"
            },
            "geometry": {
                "type": "Point",
                "coordinates": [
                    19.765795523096546,
                    52.51656236303634
                ]
            }
        },
        {
            "type": "Feature",
            "properties": {
                "ref:csioz": 1093076,
                "addr:street": "Hubalczyków",
                "addr:housenumber": "11",
                "addr:city": "Płock",
                "addr:postcode": "09-410",
                "amenity": "pharmacy"
            },
            "geometry": {
                "type": "Point",
                "coordinates": [
                    19.754060277667712,
                    52.542694531916396
                ]
            }
        },
        {
            "type": "Feature",
            "properties": {
                "ref:csioz": 1093101,
                "name": "Dbam O Zdrowie",
                "addr:street": "Floriana Kobylińskiego",
                "addr:housenumber": "6",
                "addr:city": "Płock",
                "addr:postcode": "09-400",
                "amenity": "pharmacy"
            },
            "geometry": {
                "type": "Point",
                "coordinates": [
                    19.689259775280387,
                    52.55025755125859
                ]
            }
        },
        {
            "type": "Feature",
            "properties": {
                "ref:csioz": 1093117,
                "name": "Medicor Mgr Farm Anna Jankowska",
                "addr:street": "Kolegialna",
                "addr:housenumber": "30",
                "addr:city": "Płock",
                "addr:postcode": "09-402",
                "amenity": "pharmacy"
            },
            "geometry": {
                "type": "Point",
                "coordinates": [
                    19.70119186236329,
                    52.54033429517773
                ]
            }
        },
        {
            "type": "Feature",
            "properties": {
                "ref:csioz": 1093125,
                "name": "Apteka Prywatna Avena",
                "addr:street": "Królewiecka",
                "addr:housenumber": "12C",
                "addr:city": "Płock",
                "addr:postcode": "09-400",
                "amenity": "pharmacy"
            },
            "geometry": {
                "type": "Point",
                "coordinates": [
                    19.690834043065006,
                    52.54631851186719
                ]
            }
        },
        {
            "type": "Feature",
            "properties": {
                "ref:csioz": 1093149,
                "name": "Apteka Starówka",
                "addr:street": "Gabriela Narutowicza",
                "addr:housenumber": "5",
                "addr:city": "Płock",
                "addr:postcode": "09-400",
                "amenity": "pharmacy"
            },
            "geometry": {
                "type": "Point",
                "coordinates": [
                    19.68923731367532,
                    52.54297321692772
                ]
            }
        },
        {
            "type": "Feature",
            "properties": {
                "ref:csioz": 1093822,
                "name": "Avena 3",
                "addr:street": "Miodowa",
                "addr:housenumber": "4",
                "addr:city": "Płock",
                "addr:postcode": "09-400",
                "amenity": "pharmacy"
            },
            "geometry": {
                "type": "Point",
                "coordinates": [
                    19.680856378487135,
                    52.55471743009283
                ]
            }
        },
        {
            "type": "Feature",
            "properties": {
                "ref:csioz": 1094004,
                "name": "Dr. Max",
                "addr:street": "Kolejowa",
                "addr:housenumber": "41",
                "addr:city": "Płock",
                "addr:postcode": "09-402",
                "amenity": "pharmacy"
            },
            "geometry": {
                "type": "Point",
                "coordinates": [
                    19.67596816098698,
                    52.524872408137625
                ]
            }
        },
        {
            "type": "Feature",
            "properties": {
                "ref:csioz": 1094061,
                "name": "Spokojna",
                "addr:street": "Rajmunda Rembielińskiego",
                "addr:housenumber": "6",
                "addr:city": "Płock",
                "addr:postcode": "09-400",
                "amenity": "pharmacy"
            },
            "geometry": {
                "type": "Point",
                "coordinates": [
                    19.691075627856403,
                    52.553956435557936
                ]
            }
        },
        {
            "type": "Feature",
            "properties": {
                "ref:csioz": 1098467,
                "name": "Apteka Szpitalna",
                "addr:street": "Tadeusza Kościuszki",
                "addr:housenumber": "28",
                "addr:city": "Płock",
                "addr:postcode": "09-402",
                "amenity": "pharmacy"
            },
            "geometry": {
                "type": "Point",
                "coordinates": [
                    19.69599045144304,
                    52.54016935685901
                ]
            }
        },
        {
            "type": "Feature",
            "properties": {
                "ref:csioz": 1098495,
                "name": "Apteka Szpitalna",
                "addr:street": "Medyczna",
                "addr:housenumber": "19",
                "addr:city": "Płock",
                "addr:postcode": "09-400",
                "amenity": "pharmacy"
            },
            "geometry": {
                "type": "Point",
                "coordinates": [
                    19.652482816642628,
                    52.55713108603659
                ]
            }
        },
        {
            "type": "Feature",
            "properties": {
                "ref:csioz": 1116764,
                "name": "Apteka Na Rogatkach",
                "addr:street": "Kolegialna",
                "addr:housenumber": "38",
                "addr:city": "Płock",
                "addr:postcode": "09-402",
                "amenity": "pharmacy"
            },
            "geometry": {
                "type": "Point",
                "coordinates": [
                    19.702614244166433,
                    52.539755453013726
                ]
            }
        },
        {
            "type": "Feature",
            "properties": {
                "ref:csioz": 1117051,
                "name": "Prywatna Avena 5",
                "addr:street": "Henryka Sienkiewicza",
                "addr:housenumber": "67",
                "addr:flats": "7 i 8",
                "addr:city": "Płock",
                "addr:postcode": "09-400",
                "amenity": "pharmacy"
            },
            "geometry": {
                "type": "Point",
                "coordinates": [
                    19.68733026259545,
                    52.54659937004859
                ]
            }
        },
        {
            "type": "Feature",
            "properties": {
                "ref:csioz": 1179292,
                "name": "\"Prywatna \"\"Avena 7\"\"\"",
                "addr:street": "Mała",
                "addr:housenumber": "18",
                "addr:city": "Płock",
                "addr:postcode": "09-400",
                "amenity": "pharmacy"
            },
            "geometry": {
                "type": "Point",
                "coordinates": [
                    19.670801966773915,
                    52.55387112912324
                ]
            }
        },
        {
            "type": "Feature",
            "properties": {
                "ref:csioz": 1187106,
                "name": "Super",
                "addr:street": "Floriana Kobylińskiego",
                "addr:housenumber": "6",
                "addr:flats": "4",
                "addr:city": "Płock",
                "addr:postcode": "09-400",
                "amenity": "pharmacy"
            },
            "geometry": {
                "type": "Point",
                "coordinates": [
                    19.689259775280387,
                    52.55025755125859
                ]
            }
        },
        {
            "type": "Feature",
            "properties": {
                "ref:csioz": 1194754,
                "name": "Farmin 3",
                "addr:street": "Dworcowa",
                "addr:housenumber": "2",
                "addr:city": "Płock",
                "addr:postcode": "09-402",
                "amenity": "pharmacy"
            },
            "geometry": {
                "type": "Point",
                "coordinates": [
                    19.709424131519597,
                    52.54645014848555
                ]
            }
        },
        {
            "type": "Feature",
            "properties": {
                "ref:csioz": 1210105,
                "name": "Gemini",
                "addr:street": "Henryka  Sienkiewicza",
                "addr:housenumber": "32",
                "addr:city": "Płock",
                "addr:postcode": "09-402",
                "amenity": "pharmacy"
            },
            "geometry": {
                "type": "Point",
                "coordinates": [
                    19.69211869538122,
                    52.545377634685366
                ]
            }
        },
        {
            "type": "Feature",
            "properties": {
                "ref:csioz": 1093045,
                "name": "Apteka Diabetyka Piotr Błaszkiewicz",
                "addr:street": "Bielska",
                "addr:housenumber": "32",
                "addr:city": "Płock",
                "addr:postcode": "09-400",
                "amenity": "pharmacy"
            },
            "geometry": {
                "type": "Point",
                "coordinates": [
                    19.69767347778509,
                    52.553972263707216
                ]
            }
        },
        {
            "type": "Feature",
            "properties": {
                "ref:csioz": 1093718,
                "name": "Prima",
                "addr:street": "Chemików",
                "addr:housenumber": "7",
                "addr:city": "Płock",
                "addr:postcode": "09-411",
                "amenity": "pharmacy"
            },
            "geometry": {
                "type": "Point",
                "coordinates": [
                    19.651813587794386,
                    52.58520659426598
                ]
            }
        },
        {
            "type": "Feature",
            "properties": {
                "ref:csioz": 1093752,
                "name": "Avena 2",
                "addr:street": "Czwartaków",
                "addr:housenumber": "16D",
                "addr:flats": "2",
                "addr:city": "Płock",
                "addr:postcode": "09-410",
                "amenity": "pharmacy"
            },
            "geometry": {
                "type": "Point",
                "coordinates": [
                    19.754389000000295,
                    52.53349100001632
                ]
            }
        },
        {
            "type": "Feature",
            "properties": {
                "ref:csioz": 1093021,
                "name": "Farmika S. C",
                "addr:street": "Stanisława Jachowicza",
                "addr:housenumber": "17",
                "addr:city": "Płock",
                "addr:postcode": "09-402",
                "amenity": "pharmacy"
            },
            "geometry": {
                "type": "Point",
                "coordinates": [
                    19.701416978114793,
                    52.54761004248223
                ]
            }
        },
        {
            "type": "Feature",
            "properties": {
                "ref:csioz": 1093037,
                "name": "Apteka Gemini",
                "addr:street": "Armii Krajowej",
                "addr:housenumber": "2",
                "addr:flats": "1",
                "addr:city": "Płock",
                "addr:postcode": "09-410",
                "amenity": "pharmacy"
            },
            "geometry": {
                "type": "Point",
                "coordinates": [
                    19.761140194540854,
                    52.53629843834273
                ]
            }
        },
        {
            "type": "Feature",
            "properties": {
                "ref:csioz": 1093158,
                "addr:street": "Nowy Rynek",
                "addr:housenumber": "2",
                "addr:city": "Płock",
                "addr:postcode": "09-400",
                "amenity": "pharmacy"
            },
            "geometry": {
                "type": "Point",
                "coordinates": [
                    19.693381108503683,
                    52.546963211992114
                ]
            }
        },
        {
            "type": "Feature",
            "properties": {
                "ref:csioz": 1093163,
                "name": "Apteka Eskulap",
                "addr:street": "Przemysłowa",
                "addr:housenumber": "1",
                "addr:city": "Płock",
                "addr:postcode": "09-400",
                "amenity": "pharmacy"
            },
            "geometry": {
                "type": "Point",
                "coordinates": [
                    19.69190084161899,
                    52.553365138629836
                ]
            }
        },
        {
            "type": "Feature",
            "properties": {
                "ref:csioz": 1093196,
                "name": "Doz Apteka Dbam O Zdrowie",
                "addr:street": "Stanisława Zgliczyńskiego",
                "addr:housenumber": "6/1",
                "addr:city": "Płock",
                "addr:postcode": "09-400",
                "amenity": "pharmacy"
            },
            "geometry": {
                "type": "Point",
                "coordinates": [
                    19.686325316544348,
                    52.55564511568776
                ]
            }
        },
        {
            "type": "Feature",
            "properties": {
                "ref:csioz": 1093207,
                "name": "Doz Apteka Dbam O Zdrowie",
                "addr:street": "Wyszogrodzka",
                "addr:housenumber": "163",
                "addr:city": "Płock",
                "addr:postcode": "09-409",
                "amenity": "pharmacy"
            },
            "geometry": {
                "type": "Point",
                "coordinates": [
                    19.76122673249502,
                    52.53529794546941
                ]
            }
        },
        {
            "type": "Feature",
            "properties": {
                "ref:csioz": 1093210,
                "name": "Apteka Elixir",
                "addr:street": "Wyszogrodzka",
                "addr:housenumber": "140",
                "addr:flats": "21B",
                "addr:city": "Płock",
                "addr:postcode": "09-400",
                "amenity": "pharmacy"
            },
            "geometry": {
                "type": "Point",
                "coordinates": [
                    19.749998510989503,
                    52.53671577849127
                ]
            }
        },
        {
            "type": "Feature",
            "properties": {
                "ref:csioz": 1093806,
                "name": "Apteka Z Uśmiechem",
                "addr:street": "Konstantego Ildefonsa Gałczyńskiego",
                "addr:housenumber": "11",
                "addr:city": "Płock",
                "addr:postcode": "09-400",
                "amenity": "pharmacy"
            },
            "geometry": {
                "type": "Point",
                "coordinates": [
                    19.679692178953506,
                    52.55903617560776
                ]
            }
        },
        {
            "type": "Feature",
            "properties": {
                "ref:csioz": 1093936,
                "name": "Vita",
                "addr:street": "Otolińska",
                "addr:housenumber": "8",
                "addr:city": "Płock",
                "addr:postcode": "09-407",
                "amenity": "pharmacy"
            },
            "geometry": {
                "type": "Point",
                "coordinates": [
                    19.717159708543612,
                    52.547658450488804
                ]
            }
        },
        {
            "type": "Feature",
            "properties": {
                "ref:csioz": 1093985,
                "name": "Lawenda",
                "addr:street": "Tysiąclecia",
                "addr:housenumber": "2A",
                "addr:city": "Płock",
                "addr:postcode": "09-400",
                "amenity": "pharmacy"
            },
            "geometry": {
                "type": "Point",
                "coordinates": [
                    19.6942546380803,
                    52.55266729019243
                ]
            }
        },
        {
            "type": "Feature",
            "properties": {
                "ref:csioz": 1114669,
                "name": "Prywatna Avena 6",
                "addr:street": "Patriotów",
                "addr:housenumber": "4",
                "addr:city": "Płock",
                "addr:postcode": "09-409",
                "amenity": "pharmacy"
            },
            "geometry": {
                "type": "Point",
                "coordinates": [
                    19.762220264488167,
                    52.54268394619483
                ]
            }
        },
        {
            "type": "Feature",
            "properties": {
                "ref:csioz": 1124638,
                "name": "Miejskie Hospicjum Płockiego Stowarzyszenia Hospicyjno-Paliatywnego Hospicjum Płockie Pod Wezw. Św. Urszuli Ledóchowskiej",
                "addr:street": "Marszałka Józefa Piłsudskiego",
                "addr:housenumber": "37",
                "addr:city": "Płock",
                "addr:postcode": "09-407",
                "amenity": "pharmacy"
            },
            "geometry": {
                "type": "Point",
                "coordinates": [
                    19.73114500000029,
                    52.540172000016334
                ]
            }
        },
        {
            "type": "Feature",
            "properties": {
                "ref:csioz": 1176529,
                "name": "Hebeapteka",
                "addr:street": "Tysiąclecia",
                "addr:housenumber": "11",
                "addr:city": "Płock",
                "addr:postcode": "09-400",
                "amenity": "pharmacy"
            },
            "geometry": {
                "type": "Point",
                "coordinates": [
                    19.686399212910256,
                    52.55330072228424
                ]
            }
        },
        {
            "type": "Feature",
            "properties": {
                "ref:csioz": 1179725,
                "name": "Doz Apteka Dbam O Zdrowie",
                "addr:street": "Jasna",
                "addr:housenumber": "13",
                "addr:city": "Płock",
                "addr:postcode": "09-400",
                "amenity": "pharmacy"
            },
            "geometry": {
                "type": "Point",
                "coordinates": [
                    19.667457348539745,
                    52.55521166540089
                ]
            }
        },
        {
            "type": "Feature",
            "properties": {
                "ref:csioz": 1190426,
                "name": "Lawenda",
                "addr:street": "Tadeusza Gierzyńskiego",
                "addr:housenumber": "17",
                "addr:city": "Płock",
                "addr:postcode": "09-402",
                "amenity": "pharmacy"
            },
            "geometry": {
                "type": "Point",
                "coordinates": [
                    19.719407999994047,
                    52.54367075520246
                ]
            }
        },
        {
            "type": "Feature",
            "properties": {
                "ref:csioz": 1191085,
                "name": "Dr Zdrowie",
                "addr:street": "Wyszogrodzka",
                "addr:housenumber": "127",
                "addr:flats": "M-A-R-020",
                "addr:city": "Płock",
                "addr:postcode": "09-410",
                "amenity": "pharmacy"
            },
            "geometry": {
                "type": "Point",
                "coordinates": [
                    19.751244876983023,
                    52.53726220577646
                ]
            }
        },
        {
            "type": "Feature",
            "properties": {
                "ref:csioz": 1191877,
                "name": "Zdrowoteka",
                "addr:street": "8 Pułku Artylerii Lekkiej",
                "addr:housenumber": "2",
                "addr:city": "Płock",
                "addr:postcode": "09-402",
                "amenity": "pharmacy"
            },
            "geometry": {
                "type": "Point",
                "coordinates": [
                    19.707705000000274,
                    52.54065200001633
                ]
            }
        },
        {
            "type": "Feature",
            "properties": {
                "ref:csioz": 1212536,
                "name": "Avena 8",
                "addr:street": "Fryderyka Chopina",
                "addr:housenumber": "56",
                "addr:city": "Płock",
                "addr:postcode": "09-402",
                "amenity": "pharmacy"
            },
            "geometry": {
                "type": "Point",
                "coordinates": [
                    19.710362860646985,
                    52.55179149395208
                ]
            }
        },
        {
            "type": "Feature",
            "properties": {
                "ref:csioz": 1222437,
                "name": "Lawenda",
                "addr:street": "Wyszogrodzka",
                "addr:housenumber": "144",
                "addr:flats": "0.125",
                "addr:city": "Płock",
                "addr:postcode": "09-410",
                "amenity": "pharmacy"
            },
            "geometry": {
                "type": "Point",
                "coordinates": [
                    19.757466866159298,
                    52.53514757271147
                ]
            }
        },
        {
            "type": "Feature",
            "properties": {
                "ref:csioz": 1222967,
                "name": "Gemini",
                "addr:street": "Stanisława Jachowicza",
                "addr:housenumber": "44",
                "addr:flats": "3",
                "addr:city": "Płock",
                "addr:postcode": "09-400",
                "amenity": "pharmacy"
            },
            "geometry": {
                "type": "Point",
                "coordinates": [
                    19.692079858969233,
                    52.54977889570142
                ]
            }
        },
        {
            "type": "Feature",
            "properties": {
                "ref:csioz": 1225419,
                "name": "Hospicjum Caritas Diecezji Płockiej W Płocku",
                "addr:street": "Henryka Sienkiewicza",
                "addr:housenumber": "54",
                "addr:city": "Płock",
                "addr:postcode": "09-400",
                "amenity": "pharmacy"
            },
            "geometry": {
                "type": "Point",
                "coordinates": [
                    19.68699055572115,
                    52.546907724170794
                ]
            }
        },
        {
            "type": "Feature",
            "properties": {
                "ref:csioz": 1229620,
                "name": "Apteka Wspólna",
                "addr:street": "Medyczna",
                "addr:housenumber": "19",
                "addr:city": "Płock",
                "addr:postcode": "09-400",
                "amenity": "pharmacy"
            },
            "geometry": {
                "type": "Point",
                "coordinates": [
                    19.652482816642628,
                    52.55713108603659
                ]
            }
        },
        {
            "type": "Feature",
            "properties": {
                "ref:csioz": 1229784,
                "name": "Apteka Lawenda",
                "addr:street": "Górna",
                "addr:housenumber": "32",
                "addr:city": "Płock",
                "addr:postcode": "09-402",
                "amenity": "pharmacy"
            },
            "geometry": {
                "type": "Point",
                "coordinates": [
                    19.72482269177448,
                    52.535018391091285
                ]
            }
        }
    ]
}