{
    "type": "FeatureCollection",
    "name": "JPT_KOD_JE_1013",
    "features": [
        {
            "type": "Feature",
            "properties": {
                "ref:csioz": 1011428,
                "addr:housenumber": "53",
                "addr:postcode": "96-206",
                "amenity": "pharmacy",
                "addr:place": "Kaleń",
                "dispensing": "yes"
            },
            "geometry": {
                "type": "Point",
                "coordinates": [
                    20.320954163716436,
                    51.79357677277568
                ]
            }
        },
        {
            "type": "Feature",
            "properties": {
                "ref:csioz": 1011431,
                "name": "Verbena",
                "addr:street": "Krakowska",
                "addr:housenumber": "9",
                "addr:city": "Rawa Mazowiecka",
                "addr:postcode": "96-200",
                "amenity": "pharmacy",
                "dispensing": "yes"
            },
            "geometry": {
                "type": "Point",
                "coordinates": [
                    20.255077441338646,
                    51.764059978832975
                ]
            }
        },
        {
            "type": "Feature",
            "properties": {
                "ref:csioz": 1011658,
                "name": "Doz Apteka. Dbam O Zdrowie. Panaceum",
                "addr:street": "Kazimierza Wielkiego",
                "addr:housenumber": "3BC",
                "addr:city": "Rawa Mazowiecka",
                "addr:postcode": "96-200",
                "amenity": "pharmacy",
                "dispensing": "yes"
            },
            "geometry": {
                "type": "Point",
                "coordinates": [
                    20.26094100000065,
                    51.77090500001512
                ]
            }
        },
        {
            "type": "Feature",
            "properties": {
                "ref:csioz": 1018967,
                "name": "Nad Rawką",
                "addr:street": "Juliusza Słowackiego",
                "addr:housenumber": "68",
                "addr:city": "Rawa Mazowiecka",
                "addr:postcode": "96-200",
                "amenity": "pharmacy",
                "dispensing": "yes"
            },
            "geometry": {
                "type": "Point",
                "coordinates": [
                    20.242374000000623,
                    51.75910000001508
                ]
            }
        },
        {
            "type": "Feature",
            "properties": {
                "ref:csioz": 1013425,
                "name": "Eskulap",
                "addr:street": "Konstytucji 3 Maja",
                "addr:housenumber": "18",
                "addr:city": "Rawa Mazowiecka",
                "addr:postcode": "96-200",
                "amenity": "pharmacy",
                "dispensing": "yes"
            },
            "geometry": {
                "type": "Point",
                "coordinates": [
                    20.25276707081901,
                    51.76346243366075
                ]
            }
        },
        {
            "type": "Feature",
            "properties": {
                "ref:csioz": 1019104,
                "name": "Beata",
                "addr:housenumber": "3",
                "addr:postcode": "96-230",
                "amenity": "pharmacy",
                "addr:place": "Dańków",
                "dispensing": "yes"
            },
            "geometry": {
                "type": "Point",
                "coordinates": [
                    20.51784498538706,
                    51.83296881299219
                ]
            }
        },
        {
            "type": "Feature",
            "properties": {
                "ref:csioz": 1020276,
                "name": "Pod Jarzębiną",
                "addr:housenumber": "86",
                "addr:postcode": "96-232",
                "amenity": "pharmacy",
                "addr:place": "Regnów",
                "dispensing": "yes"
            },
            "geometry": {
                "type": "Point",
                "coordinates": [
                    20.383807207568967,
                    51.7527243721362
                ]
            }
        },
        {
            "type": "Feature",
            "properties": {
                "ref:csioz": 1021270,
                "name": "Malva",
                "addr:street": "Jana Pawła II",
                "addr:housenumber": "17",
                "addr:city": "Biała Rawska",
                "addr:postcode": "96-230",
                "amenity": "pharmacy",
                "dispensing": "yes"
            },
            "geometry": {
                "type": "Point",
                "coordinates": [
                    20.471884530071243,
                    51.80660782928445
                ]
            }
        },
        {
            "type": "Feature",
            "properties": {
                "ref:csioz": 1121407,
                "name": "Farmacja I Uroda",
                "addr:street": "Wolności",
                "addr:housenumber": "11",
                "addr:city": "Biała Rawska",
                "addr:postcode": "96-230",
                "amenity": "pharmacy",
                "dispensing": "yes"
            },
            "geometry": {
                "type": "Point",
                "coordinates": [
                    20.472287338938962,
                    51.80723503706452
                ]
            }
        },
        {
            "type": "Feature",
            "properties": {
                "ref:csioz": 1182582,
                "name": "Apteka Arka",
                "addr:street": "Polna",
                "addr:housenumber": "2B",
                "addr:city": "Rawa Mazowiecka",
                "addr:postcode": "96-200",
                "amenity": "pharmacy",
                "dispensing": "yes"
            },
            "geometry": {
                "type": "Point",
                "coordinates": [
                    20.252619852804166,
                    51.76239984805196
                ]
            }
        },
        {
            "type": "Feature",
            "properties": {
                "ref:csioz": 1013430,
                "addr:street": "Mickiewicza",
                "addr:housenumber": "32B",
                "addr:city": "Biała Rawska",
                "addr:postcode": "96-230",
                "amenity": "pharmacy",
                "dispensing": "yes"
            },
            "geometry": {
                "type": "Point",
                "coordinates": [
                    20.48113616376063,
                    51.81144337149189
                ]
            }
        },
        {
            "type": "Feature",
            "properties": {
                "ref:csioz": 1113894,
                "name": "Apteka Tanich Leków Olmed",
                "addr:street": "Kościuszki",
                "addr:housenumber": "1",
                "addr:city": "Rawa Mazowiecka",
                "addr:postcode": "96-200",
                "amenity": "pharmacy",
                "dispensing": "yes"
            },
            "geometry": {
                "type": "Point",
                "coordinates": [
                    20.250852623719176,
                    51.76379524125558
                ]
            }
        },
        {
            "type": "Feature",
            "properties": {
                "ref:csioz": 1164460,
                "name": "Apteka Św. Stanisława Rawa Mazowiecka - Centrum",
                "addr:street": "Aleja Konstytucji 3 Maja",
                "addr:housenumber": "2",
                "addr:city": "Rawa Mazowiecka",
                "addr:postcode": "96-200",
                "amenity": "pharmacy",
                "dispensing": "yes"
            },
            "geometry": {
                "type": "Point",
                "coordinates": [
                    20.25681606546223,
                    51.763852210204206
                ]
            }
        },
        {
            "type": "Feature",
            "properties": {
                "ref:csioz": 1193235,
                "name": "Szpital Św. Ducha W Rawie Mazowieckiej",
                "addr:street": "Warszawska",
                "addr:housenumber": "14",
                "addr:city": "Rawa Mazowiecka",
                "addr:postcode": "96-200",
                "amenity": "pharmacy",
                "dispensing": "yes"
            },
            "geometry": {
                "type": "Point",
                "coordinates": [
                    20.25902787216836,
                    51.76648507561099
                ]
            }
        },
        {
            "type": "Feature",
            "properties": {
                "ref:csioz": 1204188,
                "name": "Apteka Z Uśmiechem",
                "addr:street": "Jana Pawła II",
                "addr:housenumber": "55",
                "addr:city": "Biała Rawska",
                "addr:postcode": "96-230",
                "amenity": "pharmacy",
                "dispensing": "yes"
            },
            "geometry": {
                "type": "Point",
                "coordinates": [
                    20.46838640025698,
                    51.80521645593727
                ]
            }
        }
    ]
}