{
    "type": "FeatureCollection",
    "name": "JPT_KOD_JE_1412",
    "features": [
        {
            "type": "Feature",
            "properties": {
                "ref:csioz": 1097299,
                "addr:street": "Wojska Polskiego",
                "addr:housenumber": "22",
                "addr:city": "Kałuszyn",
                "addr:postcode": "05-310",
                "amenity": "pharmacy"
            },
            "geometry": {
                "type": "Point",
                "coordinates": [
                    21.811525828371312,
                    52.20587948732081
                ]
            }
        },
        {
            "type": "Feature",
            "properties": {
                "ref:csioz": 1097301,
                "name": "Bliska Medi-Farm",
                "addr:street": "Pocztowa",
                "addr:housenumber": "2",
                "addr:city": "Kałuszyn",
                "addr:postcode": "05-310",
                "amenity": "pharmacy"
            },
            "geometry": {
                "type": "Point",
                "coordinates": [
                    21.81456925387872,
                    52.208537495918215
                ]
            }
        },
        {
            "type": "Feature",
            "properties": {
                "ref:csioz": 1097533,
                "name": "Witaminka",
                "addr:street": "Armii Krajowej",
                "addr:housenumber": "8",
                "addr:flats": "3",
                "addr:city": "Mrozy",
                "addr:postcode": "05-320",
                "amenity": "pharmacy"
            },
            "geometry": {
                "type": "Point",
                "coordinates": [
                    21.804452000012585,
                    52.16707000001583
                ]
            }
        },
        {
            "type": "Feature",
            "properties": {
                "ref:csioz": 1114715,
                "name": "Apteka Specjalistyczna Centrum",
                "addr:street": "Świętego Ducha",
                "addr:housenumber": "29A",
                "addr:city": "Latowicz",
                "addr:postcode": "05-334",
                "amenity": "pharmacy"
            },
            "geometry": {
                "type": "Point",
                "coordinates": [
                    21.805146427105992,
                    52.025544258407905
                ]
            }
        },
        {
            "type": "Feature",
            "properties": {
                "ref:csioz": 1119356,
                "name": "Na Warszawskiej",
                "addr:street": "Warszawska",
                "addr:housenumber": "50",
                "addr:flats": "U3U4",
                "addr:city": "Kałuszyn",
                "addr:postcode": "05-310",
                "amenity": "pharmacy"
            },
            "geometry": {
                "type": "Point",
                "coordinates": [
                    21.806454285277542,
                    52.206158156518875
                ]
            }
        },
        {
            "type": "Feature",
            "properties": {
                "ref:csioz": 1097374,
                "name": "Doz Apteka Dbam O Zdrowie",
                "addr:street": "Konstytucji 3 Maja",
                "addr:housenumber": "7",
                "addr:city": "Mińsk Mazowiecki",
                "addr:postcode": "05-300",
                "amenity": "pharmacy"
            },
            "geometry": {
                "type": "Point",
                "coordinates": [
                    21.56111217959494,
                    52.180704808930976
                ]
            }
        },
        {
            "type": "Feature",
            "properties": {
                "ref:csioz": 1097396,
                "name": "Dbam O Zdrowie",
                "addr:street": "Tadeusza Kościuszki",
                "addr:housenumber": "2",
                "addr:city": "Mińsk Mazowiecki",
                "addr:postcode": "05-300",
                "amenity": "pharmacy"
            },
            "geometry": {
                "type": "Point",
                "coordinates": [
                    21.558378451457234,
                    52.18189857057521
                ]
            }
        },
        {
            "type": "Feature",
            "properties": {
                "ref:csioz": 1097413,
                "name": "Apteka Specjalistyczna Centrum",
                "addr:street": "Józefa Piłsudskiego",
                "addr:housenumber": "32",
                "addr:city": "Mińsk Mazowiecki",
                "addr:postcode": "05-300",
                "amenity": "pharmacy"
            },
            "geometry": {
                "type": "Point",
                "coordinates": [
                    21.56208959351396,
                    52.177806955993525
                ]
            }
        },
        {
            "type": "Feature",
            "properties": {
                "ref:csioz": 1097468,
                "name": "Doz Apteka. Dbam O Zdrowie Zdrojowa",
                "addr:street": "Widok",
                "addr:housenumber": "2/4",
                "addr:city": "Mińsk Mazowiecki",
                "addr:postcode": "05-300",
                "amenity": "pharmacy"
            },
            "geometry": {
                "type": "Point",
                "coordinates": [
                    21.549638064877783,
                    52.17385058753124
                ]
            }
        },
        {
            "type": "Feature",
            "properties": {
                "ref:csioz": 1097476,
                "name": "Dbam O Zdrowie",
                "addr:street": "Warszawska",
                "addr:housenumber": "180",
                "addr:city": "Mińsk Mazowiecki",
                "addr:postcode": "05-300",
                "amenity": "pharmacy"
            },
            "geometry": {
                "type": "Point",
                "coordinates": [
                    21.572486111065867,
                    52.17894275792322
                ]
            }
        },
        {
            "type": "Feature",
            "properties": {
                "ref:csioz": 1097492,
                "name": "Cosmedica",
                "addr:street": "Dąbrówki",
                "addr:housenumber": "30",
                "addr:city": "Mińsk Mazowiecki",
                "addr:postcode": "05-300",
                "amenity": "pharmacy"
            },
            "geometry": {
                "type": "Point",
                "coordinates": [
                    21.580337679911327,
                    52.17554634100443
                ]
            }
        },
        {
            "type": "Feature",
            "properties": {
                "ref:csioz": 1097506,
                "name": "Farmacja Choma",
                "addr:street": "1 PLM Warszawa",
                "addr:housenumber": "5/4",
                "addr:city": "Mińsk Mazowiecki",
                "addr:postcode": "05-300",
                "amenity": "pharmacy"
            },
            "geometry": {
                "type": "Point",
                "coordinates": [
                    21.57814400000849,
                    52.17445000001578
                ]
            }
        },
        {
            "type": "Feature",
            "properties": {
                "ref:csioz": 1097511,
                "name": "Ziko",
                "addr:street": "Konstytucji 3 Maja",
                "addr:housenumber": "7",
                "addr:flats": "A/01",
                "addr:city": "Mińsk Mazowiecki",
                "addr:postcode": "05-300",
                "amenity": "pharmacy"
            },
            "geometry": {
                "type": "Point",
                "coordinates": [
                    21.56111217959494,
                    52.180704808930976
                ]
            }
        },
        {
            "type": "Feature",
            "properties": {
                "ref:csioz": 1097522,
                "name": "Inter Apteka",
                "addr:street": "Warszawska",
                "addr:housenumber": "61",
                "addr:city": "Stojadła",
                "addr:postcode": "05-300",
                "amenity": "pharmacy"
            },
            "geometry": {
                "type": "Point",
                "coordinates": [
                    21.53065277118663,
                    52.189314051197265
                ]
            }
        },
        {
            "type": "Feature",
            "properties": {
                "ref:csioz": 1097995,
                "addr:street": "Rynek",
                "addr:housenumber": "22",
                "addr:city": "Stanisławów",
                "addr:postcode": "05-304",
                "amenity": "pharmacy"
            },
            "geometry": {
                "type": "Point",
                "coordinates": [
                    21.548084118511674,
                    52.290318833151005
                ]
            }
        },
        {
            "type": "Feature",
            "properties": {
                "ref:csioz": 1117547,
                "name": "Farm E. S",
                "addr:street": "Mińska",
                "addr:housenumber": "27",
                "addr:city": "Siennica",
                "addr:postcode": "05-332",
                "amenity": "pharmacy"
            },
            "geometry": {
                "type": "Point",
                "coordinates": [
                    21.617503341412444,
                    52.09359630556472
                ]
            }
        },
        {
            "type": "Feature",
            "properties": {
                "ref:csioz": 1192445,
                "name": "Maj-Med",
                "addr:street": "Rynek",
                "addr:housenumber": "26C",
                "addr:city": "Dobre",
                "addr:postcode": "05-307",
                "amenity": "pharmacy"
            },
            "geometry": {
                "type": "Point",
                "coordinates": [
                    21.67974614890521,
                    52.32063572017973
                ]
            }
        },
        {
            "type": "Feature",
            "properties": {
                "ref:csioz": 1097212,
                "addr:street": "Anny Jagiellonki",
                "addr:housenumber": "18",
                "addr:city": "Cegłów",
                "addr:postcode": "05-319",
                "amenity": "pharmacy"
            },
            "geometry": {
                "type": "Point",
                "coordinates": [
                    21.736869778201623,
                    52.146609176204464
                ]
            }
        },
        {
            "type": "Feature",
            "properties": {
                "ref:csioz": 1097220,
                "name": "Doz Apteka. Dbam O Zdrowie. Maria Wilkos",
                "addr:street": "Warszawska",
                "addr:housenumber": "49",
                "addr:city": "Dębe Wielkie",
                "addr:postcode": "05-311",
                "amenity": "pharmacy"
            },
            "geometry": {
                "type": "Point",
                "coordinates": [
                    21.442927664201026,
                    52.19907175976356
                ]
            }
        },
        {
            "type": "Feature",
            "properties": {
                "ref:csioz": 1097236,
                "name": "Apteka Pod Dębem",
                "addr:street": "Szkolna",
                "addr:housenumber": "40",
                "addr:city": "Dębe Wielkie",
                "addr:postcode": "05-311",
                "amenity": "pharmacy"
            },
            "geometry": {
                "type": "Point",
                "coordinates": [
                    21.444764243085043,
                    52.19866717777749
                ]
            }
        },
        {
            "type": "Feature",
            "properties": {
                "ref:csioz": 1097248,
                "addr:street": "Jana Kilińskiego",
                "addr:housenumber": "1",
                "addr:city": "Dobre",
                "addr:postcode": "05-307",
                "amenity": "pharmacy"
            },
            "geometry": {
                "type": "Point",
                "coordinates": [
                    21.679089263954094,
                    52.32022554976891
                ]
            }
        },
        {
            "type": "Feature",
            "properties": {
                "ref:csioz": 1097285,
                "addr:street": "Mińska",
                "addr:housenumber": "13",
                "addr:city": "Jakubów",
                "addr:postcode": "05-306",
                "amenity": "pharmacy"
            },
            "geometry": {
                "type": "Point",
                "coordinates": [
                    21.68117818588447,
                    52.219450492381455
                ]
            }
        },
        {
            "type": "Feature",
            "properties": {
                "ref:csioz": 1097325,
                "name": "Doz Apteka Dbam O Zdrowie Herba",
                "addr:street": "11 Listopada",
                "addr:housenumber": "5",
                "addr:city": "Mińsk Mazowiecki",
                "addr:postcode": "05-300",
                "amenity": "pharmacy"
            },
            "geometry": {
                "type": "Point",
                "coordinates": [
                    21.55914382417381,
                    52.18403814190121
                ]
            }
        },
        {
            "type": "Feature",
            "properties": {
                "ref:csioz": 1097330,
                "name": "Złota",
                "addr:street": "Cicha",
                "addr:housenumber": "12",
                "addr:flats": "55",
                "addr:city": "Mińsk Mazowiecki",
                "addr:postcode": "05-300",
                "amenity": "pharmacy"
            },
            "geometry": {
                "type": "Point",
                "coordinates": [
                    21.577420441305392,
                    52.17472141844106
                ]
            }
        },
        {
            "type": "Feature",
            "properties": {
                "ref:csioz": 1097540,
                "addr:street": "Szkolna",
                "addr:housenumber": "6A",
                "addr:city": "Stanisławów",
                "addr:postcode": "05-304",
                "amenity": "pharmacy"
            },
            "geometry": {
                "type": "Point",
                "coordinates": [
                    21.545116002258688,
                    52.29199678242006
                ]
            }
        },
        {
            "type": "Feature",
            "properties": {
                "ref:csioz": 1125047,
                "name": "Oddział Stacjonarny",
                "addr:housenumber": "5A",
                "addr:city": "Drożdżówka",
                "addr:postcode": "05-332",
                "amenity": "pharmacy"
            },
            "geometry": {
                "type": "Point",
                "coordinates": [
                    21.675488281986787,
                    52.05699713000538
                ]
            }
        },
        {
            "type": "Feature",
            "properties": {
                "ref:csioz": 1175976,
                "name": "Ziko",
                "addr:street": "Zygmunta Kazikowskiego",
                "addr:housenumber": "5",
                "addr:flats": "6",
                "addr:city": "Mińsk Mazowiecki",
                "addr:postcode": "05-300",
                "amenity": "pharmacy"
            },
            "geometry": {
                "type": "Point",
                "coordinates": [
                    21.557950674492318,
                    52.177455232045226
                ]
            }
        },
        {
            "type": "Feature",
            "properties": {
                "ref:csioz": 1177863,
                "name": "Ziko",
                "addr:street": "Plac Stary Rynek",
                "addr:housenumber": "1",
                "addr:city": "Mińsk Mazowiecki",
                "addr:postcode": "05-302",
                "amenity": "pharmacy"
            },
            "geometry": {
                "type": "Point",
                "coordinates": [
                    21.57183423941031,
                    52.17879284612434
                ]
            }
        },
        {
            "type": "Feature",
            "properties": {
                "ref:csioz": 1202420,
                "name": "Słoneczna",
                "addr:street": "Tadeusza Kościuszki",
                "addr:housenumber": "14",
                "addr:flats": "U-2",
                "addr:city": "Mińsk Mazowiecki",
                "addr:postcode": "05-300",
                "amenity": "pharmacy"
            },
            "geometry": {
                "type": "Point",
                "coordinates": [
                    21.557126195706616,
                    52.17971368275111
                ]
            }
        },
        {
            "type": "Feature",
            "properties": {
                "ref:csioz": 1206384,
                "name": "Apteka Specjalistyczna Centrum",
                "addr:street": "Dąbrówki",
                "addr:housenumber": "52",
                "addr:city": "Mińsk Mazowiecki",
                "addr:postcode": "05-300",
                "amenity": "pharmacy"
            },
            "geometry": {
                "type": "Point",
                "coordinates": [
                    21.58657556884997,
                    52.17270412965411
                ]
            }
        },
        {
            "type": "Feature",
            "properties": {
                "ref:csioz": 1207856,
                "name": "Ziko",
                "addr:street": "Mikołaja Kopernika",
                "addr:housenumber": "5",
                "addr:city": "Mińsk Mazowiecki",
                "addr:postcode": "05-300",
                "amenity": "pharmacy"
            },
            "geometry": {
                "type": "Point",
                "coordinates": [
                    21.554885445924597,
                    52.18180336648066
                ]
            }
        },
        {
            "type": "Feature",
            "properties": {
                "ref:csioz": 1215446,
                "name": "Ziko",
                "addr:street": "Konstantego Rudzkiego",
                "addr:housenumber": "9",
                "addr:city": "Mińsk Mazowiecki",
                "addr:postcode": "05-300",
                "amenity": "pharmacy"
            },
            "geometry": {
                "type": "Point",
                "coordinates": [
                    21.562913816310363,
                    52.17358025378427
                ]
            }
        },
        {
            "type": "Feature",
            "properties": {
                "ref:csioz": 1217253,
                "addr:street": "Nowowiejska",
                "addr:housenumber": "28",
                "addr:city": "Wielgolas",
                "addr:postcode": "05-334",
                "amenity": "pharmacy"
            },
            "geometry": {
                "type": "Point",
                "coordinates": [
                    21.72747792345215,
                    52.038098125081206
                ]
            }
        },
        {
            "type": "Feature",
            "properties": {
                "ref:csioz": 1227343,
                "name": "Apteka Szpitalna",
                "addr:street": "Szpitalna",
                "addr:housenumber": "37",
                "addr:city": "Mińsk Mazowiecki",
                "addr:postcode": "05-300",
                "amenity": "pharmacy"
            },
            "geometry": {
                "type": "Point",
                "coordinates": [
                    21.577862797609047,
                    52.173863927913466
                ]
            }
        },
        {
            "type": "Feature",
            "properties": {
                "ref:csioz": 1230091,
                "addr:street": "Boczna",
                "addr:housenumber": "4",
                "addr:city": "Pustelnik",
                "addr:postcode": "05-304",
                "amenity": "pharmacy"
            },
            "geometry": {
                "type": "Point",
                "coordinates": [
                    21.461018702794767,
                    52.2712770728016
                ]
            }
        },
        {
            "type": "Feature",
            "properties": {
                "ref:csioz": 1216957,
                "name": "Doz Apteka. Dbam O Zdrowie",
                "addr:street": "Idzikowskiego",
                "addr:housenumber": "7B",
                "addr:city": "Sulejówek",
                "addr:postcode": "05-070",
                "amenity": "pharmacy"
            },
            "geometry": {
                "type": "Point",
                "coordinates": [
                    21.264733391011355,
                    52.243851641594055
                ]
            }
        },
        {
            "type": "Feature",
            "properties": {
                "ref:csioz": 1120328,
                "name": "Doz Apteka. Dbam O Zdrowie",
                "addr:street": "3 Maja",
                "addr:housenumber": "3",
                "addr:city": "Sulejówek",
                "addr:postcode": "05-070",
                "amenity": "pharmacy"
            },
            "geometry": {
                "type": "Point",
                "coordinates": [
                    21.294670791888056,
                    52.243160561131845
                ]
            }
        },
        {
            "type": "Feature",
            "properties": {
                "ref:csioz": 1097257,
                "addr:street": "Jana Pawła II",
                "addr:housenumber": "24",
                "addr:city": "Halinów",
                "addr:postcode": "05-074",
                "amenity": "pharmacy"
            },
            "geometry": {
                "type": "Point",
                "coordinates": [
                    21.352862129425844,
                    52.22553779690525
                ]
            }
        },
        {
            "type": "Feature",
            "properties": {
                "ref:csioz": 1097554,
                "name": "Doz Apteka. Dbam O Zdrowie",
                "addr:street": "11 Listopada",
                "addr:housenumber": "87",
                "addr:city": "Sulejówek",
                "addr:postcode": "05-071",
                "amenity": "pharmacy"
            },
            "geometry": {
                "type": "Point",
                "coordinates": [
                    21.27675416595394,
                    52.24621480328951
                ]
            }
        },
        {
            "type": "Feature",
            "properties": {
                "ref:csioz": 1097565,
                "name": "Dbam O Zdrowie",
                "addr:street": "Bema",
                "addr:housenumber": "2N",
                "addr:city": "Sulejówek",
                "addr:postcode": "05-071",
                "amenity": "pharmacy"
            },
            "geometry": {
                "type": "Point",
                "coordinates": [
                    21.299964056452197,
                    52.24156475886227
                ]
            }
        },
        {
            "type": "Feature",
            "properties": {
                "ref:csioz": 1097579,
                "addr:street": "Łukasińskiego",
                "addr:housenumber": "14",
                "addr:city": "Sulejówek",
                "addr:postcode": "05-071",
                "amenity": "pharmacy"
            },
            "geometry": {
                "type": "Point",
                "coordinates": [
                    21.302050000005085,
                    52.25208400001589
                ]
            }
        },
        {
            "type": "Feature",
            "properties": {
                "ref:csioz": 1097587,
                "name": "W Miłosnej",
                "addr:street": "Orzeszkowej",
                "addr:housenumber": "2",
                "addr:city": "Sulejówek",
                "addr:postcode": "05-071",
                "amenity": "pharmacy"
            },
            "geometry": {
                "type": "Point",
                "coordinates": [
                    21.299837477024376,
                    52.245079909078726
                ]
            }
        },
        {
            "type": "Feature",
            "properties": {
                "ref:csioz": 1097598,
                "name": "Piastowska",
                "addr:street": "Piastowska",
                "addr:housenumber": "2",
                "addr:city": "Sulejówek",
                "addr:postcode": "05-071",
                "amenity": "pharmacy"
            },
            "geometry": {
                "type": "Point",
                "coordinates": [
                    21.278376305396957,
                    52.247859756484
                ]
            }
        },
        {
            "type": "Feature",
            "properties": {
                "ref:csioz": 1097603,
                "name": "Apteka Od Serca",
                "addr:street": "Bema",
                "addr:housenumber": "2H",
                "addr:city": "Sulejówek",
                "addr:postcode": "05-071",
                "amenity": "pharmacy"
            },
            "geometry": {
                "type": "Point",
                "coordinates": [
                    21.29858308087938,
                    52.241434077540355
                ]
            }
        },
        {
            "type": "Feature",
            "properties": {
                "ref:csioz": 1190439,
                "addr:street": "Stanisławowska",
                "addr:housenumber": "28",
                "addr:city": "Okuniew",
                "addr:postcode": "05-079",
                "amenity": "pharmacy"
            },
            "geometry": {
                "type": "Point",
                "coordinates": [
                    21.30958503008974,
                    52.27349331480449
                ]
            }
        },
        {
            "type": "Feature",
            "properties": {
                "ref:csioz": 1209979,
                "name": "Amica",
                "addr:street": "Dworcowa",
                "addr:housenumber": "50",
                "addr:city": "Sulejówek",
                "addr:postcode": "05-070",
                "amenity": "pharmacy"
            },
            "geometry": {
                "type": "Point",
                "coordinates": [
                    21.27537423616513,
                    52.248006582620114
                ]
            }
        },
        {
            "type": "Feature",
            "properties": {
                "ref:csioz": 1230050,
                "name": "Top",
                "addr:street": "Bema",
                "addr:housenumber": "15",
                "addr:city": "Halinów",
                "addr:postcode": "05-074",
                "amenity": "pharmacy"
            },
            "geometry": {
                "type": "Point",
                "coordinates": [
                    21.34959950754624,
                    52.223904362670915
                ]
            }
        },
        {
            "type": "Feature",
            "properties": {
                "ref:csioz": 1097273,
                "name": "\"Doz Apteka. Dbam O Zdrowie \"\"Remedium\"\"\"",
                "addr:street": "Szkolna",
                "addr:housenumber": "18",
                "addr:city": "Halinów",
                "addr:postcode": "05-074",
                "amenity": "pharmacy"
            },
            "geometry": {
                "type": "Point",
                "coordinates": [
                    21.359852359241025,
                    52.22361340117673
                ]
            }
        }
    ]
}