{
    "type": "FeatureCollection",
    "name": "JPT_KOD_JE_1010",
    "features": [
        {
            "type": "Feature",
            "properties": {
                "ref:csioz": 1018579,
                "name": "Apteka Ogólnodostępna S.C. Katarzyna Łaska Cezary Łaski",
                "addr:housenumber": "55A",
                "addr:postcode": "97-306",
                "amenity": "pharmacy",
                "addr:place": "Grabica",
                "dispensing": "yes"
            },
            "geometry": {
                "type": "Point",
                "coordinates": [
                    19.52846600000018,
                    51.48096000001468
                ]
            }
        },
        {
            "type": "Feature",
            "properties": {
                "ref:csioz": 1022439,
                "name": "\"Apteka \"\"Pod Kasztanami\"\" S.C. Małgorzata Sicińska, Zbigniew Siciński\"",
                "addr:street": "Piotrkowska",
                "addr:housenumber": "15A",
                "addr:city": "Moszczenica",
                "addr:postcode": "97-310",
                "amenity": "pharmacy",
                "dispensing": "yes"
            },
            "geometry": {
                "type": "Point",
                "coordinates": [
                    19.70990478698551,
                    51.497895711856096
                ]
            }
        },
        {
            "type": "Feature",
            "properties": {
                "ref:csioz": 1022757,
                "addr:street": "Piotrkowska",
                "addr:housenumber": "60",
                "addr:city": "Wola Moszczenicka",
                "addr:postcode": "97-310",
                "amenity": "pharmacy",
                "dispensing": "yes"
            },
            "geometry": {
                "type": "Point",
                "coordinates": [
                    19.71079046425126,
                    51.49627909727574
                ]
            }
        },
        {
            "type": "Feature",
            "properties": {
                "ref:csioz": 1024374,
                "name": "Apteka Ogólnodostępna S.C.",
                "addr:street": "Trybunalska",
                "addr:housenumber": "6",
                "addr:city": "Gomulin",
                "addr:postcode": "97-371",
                "amenity": "pharmacy",
                "dispensing": "yes"
            },
            "geometry": {
                "type": "Point",
                "coordinates": [
                    19.562800338811932,
                    51.415970413650854
                ]
            }
        },
        {
            "type": "Feature",
            "properties": {
                "ref:csioz": 1215607,
                "name": "Przyjazna",
                "addr:street": "Proszeńska",
                "addr:housenumber": "2A",
                "addr:city": "Wola Moszczenicka",
                "addr:postcode": "97-310",
                "amenity": "pharmacy",
                "dispensing": "yes"
            },
            "geometry": {
                "type": "Point",
                "coordinates": [
                    19.710858830063945,
                    51.496749440776824
                ]
            }
        },
        {
            "type": "Feature",
            "properties": {
                "ref:csioz": 1010609,
                "name": "Apteka Dbam O Zdrowie",
                "addr:street": "Konecka",
                "addr:housenumber": "3",
                "addr:city": "Sulejów",
                "addr:postcode": "97-330",
                "amenity": "pharmacy",
                "dispensing": "yes"
            },
            "geometry": {
                "type": "Point",
                "coordinates": [
                    19.886522700960175,
                    51.353591923941075
                ]
            }
        },
        {
            "type": "Feature",
            "properties": {
                "ref:csioz": 1012081,
                "name": "Na Targu",
                "addr:street": "Targowa",
                "addr:housenumber": "6",
                "addr:city": "Sulejów",
                "addr:postcode": "97-330",
                "amenity": "pharmacy",
                "dispensing": "yes"
            },
            "geometry": {
                "type": "Point",
                "coordinates": [
                    19.887056173497612,
                    51.3549290128126
                ]
            }
        },
        {
            "type": "Feature",
            "properties": {
                "ref:csioz": 1025960,
                "name": "Punkt Apteczny Arnika",
                "addr:housenumber": "40D",
                "addr:postcode": "26-337",
                "amenity": "pharmacy",
                "addr:place": "Aleksandrów",
                "dispensing": "yes"
            },
            "geometry": {
                "type": "Point",
                "coordinates": [
                    19.977690455397013,
                    51.265996465449746
                ]
            }
        },
        {
            "type": "Feature",
            "properties": {
                "ref:csioz": 1012622,
                "name": "Apteka Dbam O Zdrowie",
                "addr:street": "Modrzewskiego",
                "addr:housenumber": "5",
                "addr:city": "Wolbórz",
                "addr:postcode": "97-320",
                "amenity": "pharmacy",
                "dispensing": "yes"
            },
            "geometry": {
                "type": "Point",
                "coordinates": [
                    19.830193827871057,
                    51.504470471130574
                ]
            }
        },
        {
            "type": "Feature",
            "properties": {
                "ref:csioz": 1017979,
                "name": "Arnika",
                "addr:street": "Piotrkowska",
                "addr:housenumber": "26/30",
                "addr:city": "Sulejów",
                "addr:postcode": "97-330",
                "amenity": "pharmacy",
                "dispensing": "yes"
            },
            "geometry": {
                "type": "Point",
                "coordinates": [
                    19.877572799435118,
                    51.35658247005165
                ]
            }
        },
        {
            "type": "Feature",
            "properties": {
                "ref:csioz": 1020339,
                "name": "Doz Apteka Dbam O Zdrowie",
                "addr:street": "Mokra",
                "addr:housenumber": "2",
                "addr:city": "Ręczno",
                "addr:postcode": "97-510",
                "amenity": "pharmacy",
                "dispensing": "yes"
            },
            "geometry": {
                "type": "Point",
                "coordinates": [
                    19.85163776924918,
                    51.19058522424419
                ]
            }
        },
        {
            "type": "Feature",
            "properties": {
                "ref:csioz": 1025572,
                "name": "Apteka Przyjazna",
                "addr:street": "Konecka",
                "addr:housenumber": "21",
                "addr:city": "Sulejów",
                "addr:postcode": "97-330",
                "amenity": "pharmacy",
                "dispensing": "yes"
            },
            "geometry": {
                "type": "Point",
                "coordinates": [
                    19.88807300947024,
                    51.35320376832743
                ]
            }
        },
        {
            "type": "Feature",
            "properties": {
                "ref:csioz": 1026645,
                "name": "Punkt Apteczny Arnika",
                "addr:housenumber": "76",
                "addr:postcode": "26-337",
                "amenity": "pharmacy",
                "addr:place": "Dąbrowa nad Czarną",
                "dispensing": "yes"
            },
            "geometry": {
                "type": "Point",
                "coordinates": [
                    19.97240261560136,
                    51.317318044530424
                ]
            }
        },
        {
            "type": "Feature",
            "properties": {
                "ref:csioz": 1189444,
                "name": "Apteka Bliska Zdrowiu",
                "addr:street": "Plac Jagiełły",
                "addr:housenumber": "17",
                "addr:city": "Wolbórz",
                "addr:postcode": "97-320",
                "amenity": "pharmacy",
                "dispensing": "yes"
            },
            "geometry": {
                "type": "Point",
                "coordinates": [
                    19.83217864019099,
                    51.50604114163231
                ]
            }
        },
        {
            "type": "Feature",
            "properties": {
                "ref:csioz": 1200709,
                "name": "Apteka Malwa",
                "addr:street": "Modrzewskiego",
                "addr:housenumber": "67",
                "addr:city": "Wolbórz",
                "addr:postcode": "97-310",
                "amenity": "pharmacy",
                "dispensing": "yes"
            },
            "geometry": {
                "type": "Point",
                "coordinates": [
                    19.83148707374735,
                    51.499809431446764
                ]
            }
        },
        {
            "type": "Feature",
            "properties": {
                "ref:csioz": 1209858,
                "name": "Doz Punkt Apteczany Dbam O Zdrowie",
                "addr:street": "Łęczyńska",
                "addr:housenumber": "4",
                "addr:city": "Włodzimierzów",
                "addr:postcode": "97-330",
                "amenity": "pharmacy",
                "dispensing": "yes"
            },
            "geometry": {
                "type": "Point",
                "coordinates": [
                    19.820784732618048,
                    51.37461506922379
                ]
            }
        },
        {
            "type": "Feature",
            "properties": {
                "ref:csioz": 1214935,
                "addr:street": "Główna",
                "addr:housenumber": "58",
                "addr:city": "Ręczno",
                "addr:postcode": "97-510",
                "amenity": "pharmacy",
                "dispensing": "yes"
            },
            "geometry": {
                "type": "Point",
                "coordinates": [
                    19.853060555311664,
                    51.190518999663865
                ]
            }
        },
        {
            "type": "Feature",
            "properties": {
                "ref:csioz": 1010335,
                "addr:street": "Tadeusza Kościuszki",
                "addr:housenumber": "19",
                "addr:city": "Wola Krzysztoporska",
                "addr:postcode": "97-371",
                "amenity": "pharmacy",
                "dispensing": "yes"
            },
            "geometry": {
                "type": "Point",
                "coordinates": [
                    19.584717647919636,
                    51.340259577735196
                ]
            }
        },
        {
            "type": "Feature",
            "properties": {
                "ref:csioz": 1024492,
                "name": "\"Apteka \"\"Kalina\"\"\"",
                "addr:street": "Rynek Piastowski",
                "addr:housenumber": "15",
                "addr:city": "Rozprza",
                "addr:postcode": "97-340",
                "amenity": "pharmacy",
                "dispensing": "yes"
            },
            "geometry": {
                "type": "Point",
                "coordinates": [
                    19.643751386956712,
                    51.30125078842017
                ]
            }
        },
        {
            "type": "Feature",
            "properties": {
                "ref:csioz": 1118479,
                "name": "Na Szóstkę",
                "addr:housenumber": "50",
                "addr:postcode": "97-371",
                "amenity": "pharmacy",
                "addr:place": "Parzniewice Duże",
                "dispensing": "yes"
            },
            "geometry": {
                "type": "Point",
                "coordinates": [
                    19.51550077610694,
                    51.29785536370262
                ]
            }
        },
        {
            "type": "Feature",
            "properties": {
                "ref:csioz": 1121455,
                "name": "Punkt Apteczny Efarm",
                "addr:street": "Piotrkowska",
                "addr:housenumber": "3",
                "addr:city": "Niechcice",
                "addr:postcode": "97-340",
                "amenity": "pharmacy",
                "dispensing": "yes"
            },
            "geometry": {
                "type": "Point",
                "coordinates": [
                    19.58907337706349,
                    51.27122697705276
                ]
            }
        },
        {
            "type": "Feature",
            "properties": {
                "ref:csioz": 1019678,
                "name": "Doz Apteka Dbam O Zdrowie",
                "addr:street": "Kościelna",
                "addr:housenumber": "8",
                "addr:city": "Gorzkowice",
                "addr:postcode": "97-350",
                "amenity": "pharmacy",
                "dispensing": "yes"
            },
            "geometry": {
                "type": "Point",
                "coordinates": [
                    19.596758934434494,
                    51.21675757896571
                ]
            }
        },
        {
            "type": "Feature",
            "properties": {
                "ref:csioz": 1025804,
                "name": "Apteka Efarm",
                "addr:street": "Rynek Piastowski",
                "addr:housenumber": "13A",
                "addr:city": "Rozprza",
                "addr:postcode": "97-340",
                "amenity": "pharmacy",
                "dispensing": "yes"
            },
            "geometry": {
                "type": "Point",
                "coordinates": [
                    19.64419800000021,
                    51.301036000014406
                ]
            }
        },
        {
            "type": "Feature",
            "properties": {
                "ref:csioz": 1189431,
                "name": "Apteka Aloes",
                "addr:street": "Kwiatowa",
                "addr:housenumber": "4",
                "addr:city": "Gorzkowice",
                "addr:postcode": "97-350",
                "amenity": "pharmacy",
                "dispensing": "yes"
            },
            "geometry": {
                "type": "Point",
                "coordinates": [
                    19.599520191008022,
                    51.217108868854616
                ]
            }
        },
        {
            "type": "Feature",
            "properties": {
                "ref:csioz": 1193152,
                "name": "\"Punkt Apteczny 'Arnika\"",
                "addr:housenumber": "10",
                "addr:postcode": "97-352",
                "amenity": "pharmacy",
                "addr:place": "Trzepnica-Kolonia",
                "dispensing": "yes"
            },
            "geometry": {
                "type": "Point",
                "coordinates": [
                    19.724067827359676,
                    51.208600745829685
                ]
            }
        },
        {
            "type": "Feature",
            "properties": {
                "ref:csioz": 1202814,
                "name": "Apteka Słoneczna",
                "addr:street": "Wesoła",
                "addr:housenumber": "4",
                "addr:city": "Wola Krzysztoporska",
                "addr:postcode": "97-371",
                "amenity": "pharmacy",
                "dispensing": "yes"
            },
            "geometry": {
                "type": "Point",
                "coordinates": [
                    19.58285373509722,
                    51.34421984817795
                ]
            }
        },
        {
            "type": "Feature",
            "properties": {
                "ref:csioz": 1111867,
                "name": "Pod Opatrznością",
                "addr:housenumber": "128",
                "addr:postcode": "28-506",
                "amenity": "pharmacy",
                "addr:place": "Czarnocin",
                "dispensing": "yes"
            },
            "geometry": {
                "type": "Point",
                "coordinates": [
                    19.68198436888862,
                    51.58951022103375
                ]
            }
        },
        {
            "type": "Feature",
            "properties": {
                "ref:csioz": 1026050,
                "name": "Apteka Malwa",
                "addr:street": "Juliusza Poniatowskiego",
                "addr:housenumber": "3",
                "addr:city": "Czarnocin",
                "addr:postcode": "97-318",
                "amenity": "pharmacy",
                "dispensing": "yes"
            },
            "geometry": {
                "type": "Point",
                "coordinates": [
                    19.684453321626403,
                    51.59142375770347
                ]
            }
        },
        {
            "type": "Feature",
            "properties": {
                "ref:csioz": 1224444,
                "name": "Apteka Nowomiejska Białoszewska I Wspólnicy Spółka Jawna",
                "addr:street": "Piotrkowska",
                "addr:housenumber": "1",
                "addr:city": "Srock",
                "addr:postcode": "97-310",
                "amenity": "pharmacy",
                "dispensing": "yes"
            },
            "geometry": {
                "type": "Point",
                "coordinates": [
                    19.630074117984314,
                    51.53105966055095
                ]
            }
        }
    ]
}