{
    "type": "FeatureCollection",
    "name": "JPT_KOD_JE_0807",
    "features": [
        {
            "type": "Feature",
            "properties": {
                "ref:csioz": 1148966,
                "name": "Apteka Przyjazna",
                "addr:street": "Wojska Polskiego",
                "addr:housenumber": "52",
                "addr:city": "Torzym",
                "addr:postcode": "66-235",
                "amenity": "pharmacy"
            },
            "geometry": {
                "type": "Point",
                "coordinates": [
                    15.060912643274364,
                    52.3151595829353
                ]
            }
        },
        {
            "type": "Feature",
            "properties": {
                "ref:csioz": 1150734,
                "name": "Vital",
                "addr:housenumber": "12",
                "addr:postcode": "69-211",
                "amenity": "pharmacy",
                "addr:place": "Wędrzyn"
            },
            "geometry": {
                "type": "Point",
                "coordinates": [
                    15.184530391203587,
                    52.44732780320892
                ]
            }
        },
        {
            "type": "Feature",
            "properties": {
                "ref:csioz": 1165699,
                "name": "\"Apteka \"\"Feniks\"\"\"",
                "addr:street": "3 Lutego",
                "addr:housenumber": "60",
                "addr:city": "Słońsk",
                "addr:postcode": "66-436",
                "amenity": "pharmacy"
            },
            "geometry": {
                "type": "Point",
                "coordinates": [
                    14.81315299991756,
                    52.564226000018316
                ]
            }
        },
        {
            "type": "Feature",
            "properties": {
                "ref:csioz": 1139008,
                "name": "Panaceum",
                "addr:street": "Gorzowska",
                "addr:housenumber": "7",
                "addr:city": "Krzeszyce",
                "addr:postcode": "66-435",
                "amenity": "pharmacy"
            },
            "geometry": {
                "type": "Point",
                "coordinates": [
                    15.006473605031344,
                    52.58472590299741
                ]
            }
        },
        {
            "type": "Feature",
            "properties": {
                "ref:csioz": 1139019,
                "name": "Na Podzamczu",
                "addr:street": "Jana Pawła II",
                "addr:housenumber": "37",
                "addr:city": "Lubniewice",
                "addr:postcode": "69-210",
                "amenity": "pharmacy"
            },
            "geometry": {
                "type": "Point",
                "coordinates": [
                    15.24660496804878,
                    52.51361918748994
                ]
            }
        },
        {
            "type": "Feature",
            "properties": {
                "ref:csioz": 1139277,
                "name": "Iris",
                "addr:street": "Sikorskiego",
                "addr:housenumber": "30",
                "addr:city": "Słońsk",
                "addr:postcode": "69-436",
                "amenity": "pharmacy"
            },
            "geometry": {
                "type": "Point",
                "coordinates": [
                    14.805120151946584,
                    52.56603047275818
                ]
            }
        },
        {
            "type": "Feature",
            "properties": {
                "ref:csioz": 1139407,
                "name": "Piokar",
                "addr:street": "Mirosława Dudka",
                "addr:housenumber": "8",
                "addr:city": "Sulęcin",
                "addr:postcode": "69-200",
                "amenity": "pharmacy"
            },
            "geometry": {
                "type": "Point",
                "coordinates": [
                    15.120148034490589,
                    52.437616818340125
                ]
            }
        },
        {
            "type": "Feature",
            "properties": {
                "ref:csioz": 1139410,
                "name": "Lub-Farm",
                "addr:street": "Tadeusza Kościuszki",
                "addr:housenumber": "3a",
                "addr:city": "Sulęcin",
                "addr:postcode": "69-200",
                "amenity": "pharmacy"
            },
            "geometry": {
                "type": "Point",
                "coordinates": [
                    15.114268134165947,
                    52.438772560793986
                ]
            }
        },
        {
            "type": "Feature",
            "properties": {
                "ref:csioz": 1139429,
                "name": "Konwalia",
                "addr:street": "Tadeusza Kościuszki",
                "addr:housenumber": "16",
                "addr:city": "Sulęcin",
                "addr:postcode": "69-200",
                "amenity": "pharmacy"
            },
            "geometry": {
                "type": "Point",
                "coordinates": [
                    15.11306946883246,
                    52.439598290410736
                ]
            }
        },
        {
            "type": "Feature",
            "properties": {
                "ref:csioz": 1139441,
                "name": "Apteka Pod Platanem",
                "addr:street": "Wiejska",
                "addr:housenumber": "4",
                "addr:city": "Sulęcin",
                "addr:postcode": "69-200",
                "amenity": "pharmacy"
            },
            "geometry": {
                "type": "Point",
                "coordinates": [
                    15.110855858360074,
                    52.4450060053698
                ]
            }
        },
        {
            "type": "Feature",
            "properties": {
                "ref:csioz": 1150955,
                "addr:street": "Wincentego Witosa",
                "addr:housenumber": "4",
                "addr:city": "Sulęcin",
                "addr:postcode": "69-200",
                "amenity": "pharmacy"
            },
            "geometry": {
                "type": "Point",
                "coordinates": [
                    15.117261178686046,
                    52.43719067518168
                ]
            }
        },
        {
            "type": "Feature",
            "properties": {
                "ref:csioz": 1166100,
                "name": "Euro Apteka",
                "addr:street": "Poznańska",
                "addr:housenumber": "4",
                "addr:city": "Sulęcin",
                "addr:postcode": "69-200",
                "amenity": "pharmacy"
            },
            "geometry": {
                "type": "Point",
                "coordinates": [
                    15.120513717745942,
                    52.43999138765665
                ]
            }
        },
        {
            "type": "Feature",
            "properties": {
                "ref:csioz": 1202499,
                "name": "Dr Max",
                "addr:street": "Wojska Polskiego",
                "addr:housenumber": "57",
                "addr:city": "Torzym",
                "addr:postcode": "66-235",
                "amenity": "pharmacy"
            },
            "geometry": {
                "type": "Point",
                "coordinates": [
                    15.062097320134626,
                    52.314004799162014
                ]
            }
        },
        {
            "type": "Feature",
            "properties": {
                "ref:csioz": 1204073,
                "name": "Dobre Zdrowie",
                "addr:street": "Wincentego Witosa",
                "addr:housenumber": "1",
                "addr:city": "Sulęcin",
                "addr:postcode": "69-200",
                "amenity": "pharmacy"
            },
            "geometry": {
                "type": "Point",
                "coordinates": [
                    15.116236607540745,
                    52.43895129095159
                ]
            }
        },
        {
            "type": "Feature",
            "properties": {
                "ref:csioz": 1218926,
                "name": "Apteka Centrum Zdrowia",
                "addr:street": "Pineckiego",
                "addr:housenumber": "1",
                "addr:city": "Sulęcin",
                "addr:postcode": "69-200",
                "amenity": "pharmacy"
            },
            "geometry": {
                "type": "Point",
                "coordinates": [
                    15.111620766794504,
                    52.44112346026595
                ]
            }
        },
        {
            "type": "Feature",
            "properties": {
                "ref:csioz": 1223354,
                "addr:street": "Wojska Polskiego",
                "addr:housenumber": "52",
                "addr:city": "Torzym",
                "addr:postcode": "66-235",
                "amenity": "pharmacy"
            },
            "geometry": {
                "type": "Point",
                "coordinates": [
                    15.060912643274364,
                    52.3151595829353
                ]
            }
        }
    ]
}