{
    "type": "FeatureCollection",
    "name": "JPT_KOD_JE_1805",
    "features": [
        {
            "type": "Feature",
            "properties": {
                "ref:csioz": 1230195,
                "addr:housenumber": "1106A",
                "addr:postcode": "33-241",
                "amenity": "pharmacy",
                "addr:place": "Osobnica"
            },
            "geometry": {
                "type": "Point",
                "coordinates": [
                    21.40452326231268,
                    49.699918852714625
                ]
            }
        },
        {
            "type": "Feature",
            "properties": {
                "ref:csioz": 1140818,
                "addr:street": "Krzysztofa Kamila Baczyńskiego",
                "addr:housenumber": "20",
                "addr:city": "Jasło",
                "addr:postcode": "38-200",
                "amenity": "pharmacy"
            },
            "geometry": {
                "type": "Point",
                "coordinates": [
                    21.461843836700982,
                    49.73832017932544
                ]
            }
        },
        {
            "type": "Feature",
            "properties": {
                "ref:csioz": 1140826,
                "addr:street": "Fryderyka Chopina",
                "addr:housenumber": "36",
                "addr:city": "Jasło",
                "addr:postcode": "38-200",
                "amenity": "pharmacy"
            },
            "geometry": {
                "type": "Point",
                "coordinates": [
                    21.463699879826343,
                    49.74320124812239
                ]
            }
        },
        {
            "type": "Feature",
            "properties": {
                "ref:csioz": 1140839,
                "name": "Apteka Arnika",
                "addr:street": "gen. Grota-Roweckiego",
                "addr:housenumber": "66",
                "addr:city": "Jasło",
                "addr:postcode": "38-200",
                "amenity": "pharmacy"
            },
            "geometry": {
                "type": "Point",
                "coordinates": [
                    21.46244310446424,
                    49.73834831307546
                ]
            }
        },
        {
            "type": "Feature",
            "properties": {
                "ref:csioz": 1140852,
                "name": "Farm-Lider",
                "addr:street": "Jana Pawła II",
                "addr:housenumber": "35",
                "addr:city": "Jasło",
                "addr:postcode": "38-200",
                "amenity": "pharmacy"
            },
            "geometry": {
                "type": "Point",
                "coordinates": [
                    21.481148103644106,
                    49.745784192116815
                ]
            }
        },
        {
            "type": "Feature",
            "properties": {
                "ref:csioz": 1141878,
                "name": "Apteka Pod Gwiazdą",
                "addr:street": "Stanisława Staszica",
                "addr:housenumber": "17",
                "addr:city": "Jasło",
                "addr:postcode": "38-200",
                "amenity": "pharmacy"
            },
            "geometry": {
                "type": "Point",
                "coordinates": [
                    21.47140066195498,
                    49.739656554374534
                ]
            }
        },
        {
            "type": "Feature",
            "properties": {
                "ref:csioz": 1141886,
                "name": "Doz Apteka. Dbam O Zdrowie. Elixir",
                "addr:street": "Stanisława Staszica",
                "addr:housenumber": "22",
                "addr:city": "Jasło",
                "addr:postcode": "38-200",
                "amenity": "pharmacy"
            },
            "geometry": {
                "type": "Point",
                "coordinates": [
                    21.47088398202225,
                    49.74107964384085
                ]
            }
        },
        {
            "type": "Feature",
            "properties": {
                "ref:csioz": 1141893,
                "name": "Alba",
                "addr:street": "Szkolna",
                "addr:housenumber": "2a",
                "addr:city": "Jasło",
                "addr:postcode": "38-200",
                "amenity": "pharmacy"
            },
            "geometry": {
                "type": "Point",
                "coordinates": [
                    21.462453000008512,
                    49.74276500001217
                ]
            }
        },
        {
            "type": "Feature",
            "properties": {
                "ref:csioz": 1141908,
                "name": "Apteka Rodzinna",
                "addr:street": "3 Maja",
                "addr:housenumber": "13",
                "addr:city": "Jasło",
                "addr:postcode": "38-200",
                "amenity": "pharmacy"
            },
            "geometry": {
                "type": "Point",
                "coordinates": [
                    21.469089671694576,
                    49.74273206417605
                ]
            }
        },
        {
            "type": "Feature",
            "properties": {
                "ref:csioz": 1141919,
                "name": "Salus",
                "addr:street": "3 Maja",
                "addr:housenumber": "101",
                "addr:city": "Jasło",
                "addr:postcode": "38-200",
                "amenity": "pharmacy"
            },
            "geometry": {
                "type": "Point",
                "coordinates": [
                    21.452652970149963,
                    49.726309338878764
                ]
            }
        },
        {
            "type": "Feature",
            "properties": {
                "ref:csioz": 1141924,
                "addr:housenumber": "397",
                "addr:postcode": "38-212",
                "amenity": "pharmacy",
                "addr:place": "Brzyska"
            },
            "geometry": {
                "type": "Point",
                "coordinates": [
                    21.387460000007284,
                    49.819029000012264
                ]
            }
        },
        {
            "type": "Feature",
            "properties": {
                "ref:csioz": 1184917,
                "name": "Farm-Lider",
                "addr:street": "Burmistrza Wiejowskiego",
                "addr:housenumber": "18",
                "addr:city": "Kołaczyce",
                "addr:postcode": "38-213",
                "amenity": "pharmacy"
            },
            "geometry": {
                "type": "Point",
                "coordinates": [
                    21.432147636212044,
                    49.80353360510271
                ]
            }
        },
        {
            "type": "Feature",
            "properties": {
                "ref:csioz": 1201518,
                "name": "Salus",
                "addr:housenumber": "360",
                "addr:postcode": "38-243",
                "amenity": "pharmacy",
                "addr:place": "Harklowa"
            },
            "geometry": {
                "type": "Point",
                "coordinates": [
                    21.34419670373076,
                    49.7151849600403
                ]
            }
        },
        {
            "type": "Feature",
            "properties": {
                "ref:csioz": 1136605,
                "name": "Zakład Pielęgnacyjno-Opiekuńczy Caritas Diecezji Rzeszowskiej Okręg Jasło",
                "addr:street": "Za Bursą",
                "addr:housenumber": "1A",
                "addr:city": "Jasło",
                "addr:postcode": "38-200",
                "amenity": "pharmacy"
            },
            "geometry": {
                "type": "Point",
                "coordinates": [
                    21.464253992213756,
                    49.741736116702896
                ]
            }
        },
        {
            "type": "Feature",
            "properties": {
                "ref:csioz": 1138405,
                "name": "Apteka Szpitalna",
                "addr:street": "Lwowska",
                "addr:housenumber": "22",
                "addr:city": "Jasło",
                "addr:postcode": "38-200",
                "amenity": "pharmacy"
            },
            "geometry": {
                "type": "Point",
                "coordinates": [
                    21.4804989436617,
                    49.75212763014015
                ]
            }
        },
        {
            "type": "Feature",
            "properties": {
                "ref:csioz": 1140805,
                "name": "\"'Dr.Max'\"",
                "addr:street": "Krzysztofa Kamila Baczyńskiego",
                "addr:housenumber": "15",
                "addr:city": "Jasło",
                "addr:postcode": "38-200",
                "amenity": "pharmacy"
            },
            "geometry": {
                "type": "Point",
                "coordinates": [
                    21.46600755398982,
                    49.737805459916224
                ]
            }
        },
        {
            "type": "Feature",
            "properties": {
                "ref:csioz": 1140860,
                "name": "Apteka Pod Gwiazdą",
                "addr:street": "Kazimierza Wielkiego",
                "addr:housenumber": "14",
                "addr:city": "Jasło",
                "addr:postcode": "38-200",
                "amenity": "pharmacy"
            },
            "geometry": {
                "type": "Point",
                "coordinates": [
                    21.473416799789618,
                    49.74959693338125
                ]
            }
        },
        {
            "type": "Feature",
            "properties": {
                "ref:csioz": 1140871,
                "addr:street": "Hugona Kołłątaja",
                "addr:housenumber": "18",
                "addr:city": "Jasło",
                "addr:postcode": "38-200",
                "amenity": "pharmacy"
            },
            "geometry": {
                "type": "Point",
                "coordinates": [
                    21.47106122502804,
                    49.74410497400483
                ]
            }
        },
        {
            "type": "Feature",
            "properties": {
                "ref:csioz": 1140883,
                "name": "Centrum",
                "addr:street": "Tadeusza Kościuszki",
                "addr:housenumber": "37A",
                "addr:city": "Jasło",
                "addr:postcode": "38-200",
                "amenity": "pharmacy"
            },
            "geometry": {
                "type": "Point",
                "coordinates": [
                    21.473571859529596,
                    49.74380612014928
                ]
            }
        },
        {
            "type": "Feature",
            "properties": {
                "ref:csioz": 1140894,
                "name": "Lubelska 1",
                "addr:street": "Lwowska",
                "addr:housenumber": "9",
                "addr:city": "Jasło",
                "addr:postcode": "38-200",
                "amenity": "pharmacy"
            },
            "geometry": {
                "type": "Point",
                "coordinates": [
                    21.475345951058152,
                    49.75251297052043
                ]
            }
        },
        {
            "type": "Feature",
            "properties": {
                "ref:csioz": 1140901,
                "name": "Apteka Rodzinna Ii",
                "addr:street": "Adama Mickiewicza",
                "addr:housenumber": "3",
                "addr:city": "Jasło",
                "addr:postcode": "38-200",
                "amenity": "pharmacy"
            },
            "geometry": {
                "type": "Point",
                "coordinates": [
                    21.469816932829158,
                    49.74537132778127
                ]
            }
        },
        {
            "type": "Feature",
            "properties": {
                "ref:csioz": 1140917,
                "addr:street": "Adama Mickiewicza",
                "addr:housenumber": "5",
                "addr:city": "Jasło",
                "addr:postcode": "38-200",
                "amenity": "pharmacy"
            },
            "geometry": {
                "type": "Point",
                "coordinates": [
                    21.46921386402468,
                    49.74550866157445
                ]
            }
        },
        {
            "type": "Feature",
            "properties": {
                "ref:csioz": 1140963,
                "name": "\"'Dr.Max'\"",
                "addr:street": "Rynek",
                "addr:housenumber": "23",
                "addr:city": "Jasło",
                "addr:postcode": "38-200",
                "amenity": "pharmacy"
            },
            "geometry": {
                "type": "Point",
                "coordinates": [
                    21.473400840838583,
                    49.74711733946424
                ]
            }
        },
        {
            "type": "Feature",
            "properties": {
                "ref:csioz": 1141935,
                "addr:housenumber": "82",
                "addr:postcode": "38-220",
                "amenity": "pharmacy",
                "addr:place": "Dębowiec"
            },
            "geometry": {
                "type": "Point",
                "coordinates": [
                    21.463727137283897,
                    49.68283914251051
                ]
            }
        },
        {
            "type": "Feature",
            "properties": {
                "ref:csioz": 1140949,
                "name": "Apteka Gemini",
                "addr:street": "Żwirki i Wigury",
                "addr:housenumber": "10",
                "addr:city": "Jasło",
                "addr:postcode": "38-200",
                "amenity": "pharmacy"
            },
            "geometry": {
                "type": "Point",
                "coordinates": [
                    21.473022804190826,
                    49.74632562800297
                ]
            }
        },
        {
            "type": "Feature",
            "properties": {
                "ref:csioz": 1141943,
                "name": "Apteka Pod Gwiazdą",
                "addr:housenumber": "645",
                "addr:postcode": "38-220",
                "amenity": "pharmacy",
                "addr:place": "Dębowiec"
            },
            "geometry": {
                "type": "Point",
                "coordinates": [
                    21.461484226540815,
                    49.686484435298524
                ]
            }
        },
        {
            "type": "Feature",
            "properties": {
                "ref:csioz": 1141962,
                "name": "Św. Anny",
                "addr:street": "Adama Mickiewicza",
                "addr:housenumber": "11",
                "addr:city": "Kołaczyce",
                "addr:postcode": "38-213",
                "amenity": "pharmacy"
            },
            "geometry": {
                "type": "Point",
                "coordinates": [
                    21.433034157134838,
                    49.8078857990634
                ]
            }
        },
        {
            "type": "Feature",
            "properties": {
                "ref:csioz": 1141970,
                "name": "Vita",
                "addr:street": "Rynek",
                "addr:housenumber": "14",
                "addr:city": "Kołaczyce",
                "addr:postcode": "38-213",
                "amenity": "pharmacy"
            },
            "geometry": {
                "type": "Point",
                "coordinates": [
                    21.434139634163195,
                    49.806878484798276
                ]
            }
        },
        {
            "type": "Feature",
            "properties": {
                "ref:csioz": 1142017,
                "name": "Remedium",
                "addr:housenumber": "15",
                "addr:postcode": "38-242",
                "amenity": "pharmacy",
                "addr:place": "Skołyszyn"
            },
            "geometry": {
                "type": "Point",
                "coordinates": [
                    21.336116470053426,
                    49.74962232667753
                ]
            }
        },
        {
            "type": "Feature",
            "properties": {
                "ref:csioz": 1171983,
                "name": "Alba Iii",
                "addr:street": "Szkolna",
                "addr:housenumber": "36a",
                "addr:city": "Jasło",
                "addr:postcode": "38-200",
                "amenity": "pharmacy"
            },
            "geometry": {
                "type": "Point",
                "coordinates": [
                    21.46101700000848,
                    49.74552100001217
                ]
            }
        },
        {
            "type": "Feature",
            "properties": {
                "ref:csioz": 1190249,
                "name": "Niezapominajka Dla Całej Rodziny",
                "addr:street": "Rynek",
                "addr:housenumber": "20",
                "addr:city": "Jasło",
                "addr:postcode": "38-200",
                "amenity": "pharmacy"
            },
            "geometry": {
                "type": "Point",
                "coordinates": [
                    21.4735551812975,
                    49.74743719906747
                ]
            }
        },
        {
            "type": "Feature",
            "properties": {
                "ref:csioz": 1196686,
                "name": "Alba Bis",
                "addr:street": "Adama Mickiewicza",
                "addr:housenumber": "108",
                "addr:city": "Jasło",
                "addr:postcode": "38-200",
                "amenity": "pharmacy"
            },
            "geometry": {
                "type": "Point",
                "coordinates": [
                    21.422059000007835,
                    49.76636300001219
                ]
            }
        },
        {
            "type": "Feature",
            "properties": {
                "ref:csioz": 1204134,
                "name": "Apteka Słoneczna",
                "addr:street": "Tadeusza Kościuszki",
                "addr:housenumber": "21",
                "addr:city": "Jasło",
                "addr:postcode": "38-200",
                "amenity": "pharmacy"
            },
            "geometry": {
                "type": "Point",
                "coordinates": [
                    21.473672139776838,
                    49.745454751737725
                ]
            }
        },
        {
            "type": "Feature",
            "properties": {
                "ref:csioz": 1213683,
                "name": "Apteka Remedium",
                "addr:street": "Rafineryjna",
                "addr:housenumber": "1A",
                "addr:city": "Jasło",
                "addr:postcode": "38-200",
                "amenity": "pharmacy"
            },
            "geometry": {
                "type": "Point",
                "coordinates": [
                    21.45103696517119,
                    49.727378618926224
                ]
            }
        },
        {
            "type": "Feature",
            "properties": {
                "ref:csioz": 1195676,
                "name": "\"Apteka \"\"Rynek\"\"\"",
                "addr:street": "Rynek",
                "addr:housenumber": "8",
                "addr:city": "Kołaczyce",
                "addr:postcode": "38-213",
                "amenity": "pharmacy"
            },
            "geometry": {
                "type": "Point",
                "coordinates": [
                    21.43375364382373,
                    49.80746657083013
                ]
            }
        },
        {
            "type": "Feature",
            "properties": {
                "ref:csioz": 1230768,
                "name": "Antidotum",
                "addr:housenumber": "152",
                "addr:postcode": "38-213",
                "amenity": "pharmacy",
                "addr:place": "Sieklówka"
            },
            "geometry": {
                "type": "Point",
                "coordinates": [
                    21.54331442848352,
                    49.80487216978497
                ]
            }
        },
        {
            "type": "Feature",
            "properties": {
                "ref:csioz": 1142025,
                "addr:housenumber": "256",
                "addr:postcode": "38-204",
                "amenity": "pharmacy",
                "addr:place": "Tarnowiec"
            },
            "geometry": {
                "type": "Point",
                "coordinates": [
                    21.575470600052654,
                    49.73151580838197
                ]
            }
        },
        {
            "type": "Feature",
            "properties": {
                "ref:csioz": 1142096,
                "addr:housenumber": "1",
                "addr:postcode": "38-242",
                "amenity": "pharmacy",
                "addr:place": "Święcany"
            },
            "geometry": {
                "type": "Point",
                "coordinates": [
                    21.273563945911317,
                    49.77002699735515
                ]
            }
        },
        {
            "type": "Feature",
            "properties": {
                "ref:csioz": 1213558,
                "name": "Apteka Żmigrodzka",
                "addr:street": "Basztowa",
                "addr:housenumber": "24",
                "addr:city": "Nowy Żmigród",
                "addr:postcode": "38-230",
                "amenity": "pharmacy"
            },
            "geometry": {
                "type": "Point",
                "coordinates": [
                    21.52548347987542,
                    49.606897249076574
                ]
            }
        },
        {
            "type": "Feature",
            "properties": {
                "ref:csioz": 1141981,
                "addr:street": "Basztowa",
                "addr:housenumber": "4",
                "addr:city": "Nowy Żmigród",
                "addr:postcode": "38-230",
                "amenity": "pharmacy"
            },
            "geometry": {
                "type": "Point",
                "coordinates": [
                    21.52468197815826,
                    49.6055702025268
                ]
            }
        },
        {
            "type": "Feature",
            "properties": {
                "ref:csioz": 1141997,
                "addr:housenumber": "103",
                "addr:postcode": "38-223",
                "amenity": "pharmacy",
                "addr:place": "Osiek Jasielski"
            },
            "geometry": {
                "type": "Point",
                "coordinates": [
                    21.490592307236042,
                    49.634391664887865
                ]
            }
        },
        {
            "type": "Feature",
            "properties": {
                "ref:csioz": 1142049,
                "name": "Fragaria",
                "addr:housenumber": "32",
                "addr:postcode": "38-232",
                "amenity": "pharmacy",
                "addr:place": "Krempna"
            },
            "geometry": {
                "type": "Point",
                "coordinates": [
                    21.49993687380621,
                    49.51088068072157
                ]
            }
        },
        {
            "type": "Feature",
            "properties": {
                "ref:csioz": 1142063,
                "name": "Arnika",
                "addr:street": "Rynek",
                "addr:housenumber": "2",
                "addr:city": "Nowy Żmigród",
                "addr:postcode": "38-230",
                "amenity": "pharmacy"
            },
            "geometry": {
                "type": "Point",
                "coordinates": [
                    21.523597480731365,
                    49.60493736950127
                ]
            }
        },
        {
            "type": "Feature",
            "properties": {
                "ref:csioz": 1165067,
                "name": "W Nienaszowie",
                "addr:housenumber": "45",
                "addr:postcode": "38-230",
                "amenity": "pharmacy",
                "addr:place": "Nienaszów"
            },
            "geometry": {
                "type": "Point",
                "coordinates": [
                    21.58713088379622,
                    49.62236879495968
                ]
            }
        }
    ]
}