{
    "type": "FeatureCollection",
    "name": "JPT_KOD_JE_3213",
    "features": [
        {
            "type": "Feature",
            "properties": {
                "ref:csioz": 1125972,
                "name": "Pod Mnichem",
                "addr:street": "Armii Krajowej",
                "addr:housenumber": "3",
                "addr:city": "Sławno",
                "addr:postcode": "76-100",
                "amenity": "pharmacy",
                "dispensing": "yes"
            },
            "geometry": {
                "type": "Point",
                "coordinates": [
                    16.673666991840584,
                    54.35790203391851
                ]
            }
        },
        {
            "type": "Feature",
            "properties": {
                "ref:csioz": 1126049,
                "addr:street": "Wiejska",
                "addr:housenumber": "9",
                "addr:city": "Darłowo",
                "addr:postcode": "76-150",
                "amenity": "pharmacy",
                "dispensing": "yes"
            },
            "geometry": {
                "type": "Point",
                "coordinates": [
                    16.426144118206977,
                    54.43449579830717
                ]
            }
        },
        {
            "type": "Feature",
            "properties": {
                "ref:csioz": 1126404,
                "name": "Rodzinna",
                "addr:street": "Wieniawskiego",
                "addr:housenumber": "16",
                "addr:city": "Darłowo",
                "addr:postcode": "78-150",
                "amenity": "pharmacy",
                "dispensing": "yes"
            },
            "geometry": {
                "type": "Point",
                "coordinates": [
                    16.41861185051803,
                    54.42246470363844
                ]
            }
        },
        {
            "type": "Feature",
            "properties": {
                "ref:csioz": 1138510,
                "name": "Apteka Dla Ciebie",
                "addr:street": "Witosa",
                "addr:housenumber": "13d",
                "addr:city": "Sławno",
                "addr:postcode": "76-100",
                "amenity": "pharmacy",
                "dispensing": "yes"
            },
            "geometry": {
                "type": "Point",
                "coordinates": [
                    16.683189565008835,
                    54.36918784858166
                ]
            }
        },
        {
            "type": "Feature",
            "properties": {
                "ref:csioz": 1138541,
                "name": "Apteka Hipokrates",
                "addr:street": "Mielczarskiego",
                "addr:housenumber": "2",
                "addr:city": "Sławno",
                "addr:postcode": "76-100",
                "amenity": "pharmacy",
                "dispensing": "yes"
            },
            "geometry": {
                "type": "Point",
                "coordinates": [
                    16.681344702791993,
                    54.36352321893745
                ]
            }
        },
        {
            "type": "Feature",
            "properties": {
                "ref:csioz": 1138555,
                "name": "Apteka Niebieska",
                "addr:street": "Jedności Narodowej",
                "addr:housenumber": "13",
                "addr:city": "Sławno",
                "addr:postcode": "76-100",
                "amenity": "pharmacy",
                "dispensing": "yes"
            },
            "geometry": {
                "type": "Point",
                "coordinates": [
                    16.678558224193868,
                    54.36004618807092
                ]
            }
        },
        {
            "type": "Feature",
            "properties": {
                "ref:csioz": 1152778,
                "name": "Miętowa",
                "addr:street": "Powstańców Warszawskich",
                "addr:housenumber": "18",
                "addr:city": "Darłowo",
                "addr:postcode": "76-150",
                "amenity": "pharmacy",
                "dispensing": "yes"
            },
            "geometry": {
                "type": "Point",
                "coordinates": [
                    16.410129110952926,
                    54.42068534316091
                ]
            }
        },
        {
            "type": "Feature",
            "properties": {
                "ref:csioz": 1165759,
                "name": "Apteka Przy Przychodni",
                "addr:street": "Jana Matejki",
                "addr:housenumber": "4",
                "addr:city": "Sławno",
                "addr:postcode": "76-100",
                "amenity": "pharmacy",
                "dispensing": "yes"
            },
            "geometry": {
                "type": "Point",
                "coordinates": [
                    16.676227999497964,
                    54.362395538862906
                ]
            }
        },
        {
            "type": "Feature",
            "properties": {
                "ref:csioz": 1125301,
                "name": "Arnika",
                "addr:street": "Morska",
                "addr:housenumber": "10",
                "addr:city": "Darłowo",
                "addr:postcode": "76-150",
                "amenity": "pharmacy",
                "dispensing": "yes"
            },
            "geometry": {
                "type": "Point",
                "coordinates": [
                    16.409215826496112,
                    54.42142875989383
                ]
            }
        },
        {
            "type": "Feature",
            "properties": {
                "ref:csioz": 1139871,
                "name": "Centrum",
                "addr:street": "Powstańców Warszawskich",
                "addr:housenumber": "58",
                "addr:city": "Darłowo",
                "addr:postcode": "76-150",
                "amenity": "pharmacy",
                "dispensing": "yes"
            },
            "geometry": {
                "type": "Point",
                "coordinates": [
                    16.411805194350155,
                    54.42221513568386
                ]
            }
        },
        {
            "type": "Feature",
            "properties": {
                "ref:csioz": 1139883,
                "addr:street": "Darłowska",
                "addr:housenumber": "47c",
                "addr:city": "Dąbki",
                "addr:postcode": "76-156",
                "amenity": "pharmacy",
                "dispensing": "yes"
            },
            "geometry": {
                "type": "Point",
                "coordinates": [
                    16.318410177381416,
                    54.3784661940523
                ]
            }
        },
        {
            "type": "Feature",
            "properties": {
                "ref:csioz": 1147476,
                "name": "Stokrotka",
                "addr:street": "Wydmowa",
                "addr:housenumber": "1",
                "addr:city": "Dąbki",
                "addr:postcode": "76-156",
                "amenity": "pharmacy",
                "dispensing": "yes"
            },
            "geometry": {
                "type": "Point",
                "coordinates": [
                    16.318644977088837,
                    54.381144534318025
                ]
            }
        },
        {
            "type": "Feature",
            "properties": {
                "ref:csioz": 1147790,
                "name": "Agawa",
                "addr:housenumber": "6a",
                "addr:postcode": "76-113",
                "amenity": "pharmacy",
                "addr:place": "Postomino",
                "dispensing": "yes"
            },
            "geometry": {
                "type": "Point",
                "coordinates": [
                    16.714494292537108,
                    54.48843394015342
                ]
            }
        },
        {
            "type": "Feature",
            "properties": {
                "ref:csioz": 1151351,
                "addr:street": "Pułku Ułanów",
                "addr:housenumber": "9",
                "addr:city": "Sławno",
                "addr:postcode": "76-100",
                "amenity": "pharmacy",
                "dispensing": "yes"
            },
            "geometry": {
                "type": "Point",
                "coordinates": [
                    16.679030887313257,
                    54.36920279143862
                ]
            }
        },
        {
            "type": "Feature",
            "properties": {
                "ref:csioz": 1184192,
                "name": "Apteka Słoneczna",
                "addr:street": "Powstańców Warszawskich",
                "addr:housenumber": "27A",
                "addr:city": "Darłowo",
                "addr:postcode": "76-150",
                "amenity": "pharmacy",
                "dispensing": "yes"
            },
            "geometry": {
                "type": "Point",
                "coordinates": [
                    16.409667686902694,
                    54.419883290208
                ]
            }
        },
        {
            "type": "Feature",
            "properties": {
                "ref:csioz": 1186914,
                "name": "Przy Przychodni",
                "addr:street": "M. Curie-Skłodowskiej",
                "addr:housenumber": "32A",
                "addr:city": "Darłowo",
                "addr:postcode": "76-150",
                "amenity": "pharmacy",
                "dispensing": "yes"
            },
            "geometry": {
                "type": "Point",
                "coordinates": [
                    16.412502955762903,
                    54.41856553505841
                ]
            }
        },
        {
            "type": "Feature",
            "properties": {
                "ref:csioz": 1196664,
                "name": "\"Apteka \"\"Pod Lwem\"\"\"",
                "addr:street": "Jedności Narodowej",
                "addr:housenumber": "26/89",
                "addr:city": "Sławno",
                "addr:postcode": "76-100",
                "amenity": "pharmacy",
                "dispensing": "yes"
            },
            "geometry": {
                "type": "Point",
                "coordinates": [
                    16.67812599999552,
                    54.35995300001938
                ]
            }
        },
        {
            "type": "Feature",
            "properties": {
                "ref:csioz": 1139917,
                "name": "Panaceum",
                "addr:housenumber": "20",
                "addr:postcode": "76-142",
                "amenity": "pharmacy",
                "addr:place": "Malechowo",
                "dispensing": "yes"
            },
            "geometry": {
                "type": "Point",
                "coordinates": [
                    16.515114381066212,
                    54.306220240288525
                ]
            }
        }
    ]
}