{
    "type": "FeatureCollection",
    "name": "JPT_KOD_JE_1464",
    "features": [
        {
            "type": "Feature",
            "properties": {
                "ref:csioz": 1096952,
                "name": "Leko",
                "addr:street": "Mazurska",
                "addr:housenumber": "2",
                "addr:city": "Siedlce",
                "addr:postcode": "08-110",
                "amenity": "pharmacy",
                "dispensing": "yes"
            },
            "geometry": {
                "type": "Point",
                "coordinates": [
                    22.25100424930984,
                    52.16213533562371
                ]
            }
        },
        {
            "type": "Feature",
            "properties": {
                "ref:csioz": 1096960,
                "name": "W Pawilonie",
                "addr:street": "Młynarska",
                "addr:housenumber": "15",
                "addr:city": "Siedlce",
                "addr:postcode": "08-110",
                "amenity": "pharmacy",
                "dispensing": "yes"
            },
            "geometry": {
                "type": "Point",
                "coordinates": [
                    22.28565915171173,
                    52.166491580514986
                ]
            }
        },
        {
            "type": "Feature",
            "properties": {
                "ref:csioz": 1096971,
                "addr:street": "gen. Orlicz-Dreszera",
                "addr:housenumber": "5",
                "addr:city": "Siedlce",
                "addr:postcode": "08-110",
                "amenity": "pharmacy",
                "dispensing": "yes"
            },
            "geometry": {
                "type": "Point",
                "coordinates": [
                    22.26694300002613,
                    52.16116400001603
                ]
            }
        },
        {
            "type": "Feature",
            "properties": {
                "ref:csioz": 1096983,
                "name": "Apteka Gemini",
                "addr:street": "Józefa Piłsudskiego",
                "addr:housenumber": "44",
                "addr:city": "Siedlce",
                "addr:postcode": "08-110",
                "amenity": "pharmacy",
                "dispensing": "yes"
            },
            "geometry": {
                "type": "Point",
                "coordinates": [
                    22.275707585272098,
                    52.16819760534546
                ]
            }
        },
        {
            "type": "Feature",
            "properties": {
                "ref:csioz": 1096994,
                "addr:street": "Księcia Józefa Poniatowskiego",
                "addr:housenumber": "21",
                "addr:city": "Siedlce",
                "addr:postcode": "08-110",
                "amenity": "pharmacy",
                "dispensing": "yes"
            },
            "geometry": {
                "type": "Point",
                "coordinates": [
                    22.287511611556834,
                    52.175158421516166
                ]
            }
        },
        {
            "type": "Feature",
            "properties": {
                "ref:csioz": 1097039,
                "name": "Zdrowie",
                "addr:street": "Świętojańska",
                "addr:housenumber": "4",
                "addr:city": "Siedlce",
                "addr:postcode": "08-110",
                "amenity": "pharmacy",
                "dispensing": "yes"
            },
            "geometry": {
                "type": "Point",
                "coordinates": [
                    22.270826404255416,
                    52.16612451746912
                ]
            }
        },
        {
            "type": "Feature",
            "properties": {
                "ref:csioz": 1097155,
                "name": "Apteka Specjalistyczna Centrum",
                "addr:street": "ks. Jana Niedziałka",
                "addr:housenumber": "14",
                "addr:city": "Siedlce",
                "addr:postcode": "08-110",
                "amenity": "pharmacy",
                "dispensing": "yes"
            },
            "geometry": {
                "type": "Point",
                "coordinates": [
                    22.27338117145444,
                    52.17092793566004
                ]
            }
        },
        {
            "type": "Feature",
            "properties": {
                "ref:csioz": 1097164,
                "name": "Dr. Optima",
                "addr:street": "Kaszubska",
                "addr:housenumber": "2",
                "addr:city": "Siedlce",
                "addr:postcode": "08-110",
                "amenity": "pharmacy",
                "dispensing": "yes"
            },
            "geometry": {
                "type": "Point",
                "coordinates": [
                    22.247886198121204,
                    52.16113545570918
                ]
            }
        },
        {
            "type": "Feature",
            "properties": {
                "ref:csioz": 1111727,
                "name": "Farmacja Choma Ceny Hurtowe",
                "addr:street": "Jana Kilińskiego",
                "addr:housenumber": "23",
                "addr:city": "Siedlce",
                "addr:postcode": "08-110",
                "amenity": "pharmacy",
                "dispensing": "yes"
            },
            "geometry": {
                "type": "Point",
                "coordinates": [
                    22.27573235488262,
                    52.16339386683271
                ]
            }
        },
        {
            "type": "Feature",
            "properties": {
                "ref:csioz": 1153386,
                "name": "Apteka Szpitalna",
                "addr:street": "Księcia Józefa Poniatowskiego",
                "addr:housenumber": "26",
                "addr:city": "Siedlce",
                "addr:postcode": "08-110",
                "amenity": "pharmacy",
                "dispensing": "yes"
            },
            "geometry": {
                "type": "Point",
                "coordinates": [
                    22.291317213539536,
                    52.177536061375235
                ]
            }
        },
        {
            "type": "Feature",
            "properties": {
                "ref:csioz": 1176916,
                "name": "Społeczna Na Piłsudskiego Grupa Nowa Farmacja",
                "addr:street": "Józefa Piłsudskiego",
                "addr:housenumber": "6",
                "addr:city": "Siedlce",
                "addr:postcode": "08-110",
                "amenity": "pharmacy",
                "dispensing": "yes"
            },
            "geometry": {
                "type": "Point",
                "coordinates": [
                    22.281803868706717,
                    52.16851738304352
                ]
            }
        },
        {
            "type": "Feature",
            "properties": {
                "ref:csioz": 1178071,
                "addr:street": "Wojskowa",
                "addr:housenumber": "3",
                "addr:city": "Siedlce",
                "addr:postcode": "08-110",
                "amenity": "pharmacy",
                "dispensing": "yes"
            },
            "geometry": {
                "type": "Point",
                "coordinates": [
                    22.27129129690936,
                    52.16879894879842
                ]
            }
        },
        {
            "type": "Feature",
            "properties": {
                "ref:csioz": 1200441,
                "name": "Słoneczna",
                "addr:street": "Kazimierza Pułaskiego",
                "addr:housenumber": "14",
                "addr:city": "Siedlce",
                "addr:postcode": "08-110",
                "amenity": "pharmacy",
                "dispensing": "yes"
            },
            "geometry": {
                "type": "Point",
                "coordinates": [
                    22.27816047568859,
                    52.167438910263805
                ]
            }
        },
        {
            "type": "Feature",
            "properties": {
                "ref:csioz": 1230762,
                "name": "Davita Clinic - Leczenie Szpitalne Siedlce",
                "addr:street": "Poniatowskiego Księcia Józefa",
                "addr:housenumber": "26",
                "addr:city": "Siedlce",
                "addr:postcode": "08-110",
                "amenity": "pharmacy",
                "dispensing": "yes"
            },
            "geometry": {
                "type": "Point",
                "coordinates": [
                    22.291317213539536,
                    52.17750606137523
                ]
            }
        },
        {
            "type": "Feature",
            "properties": {
                "ref:csioz": 1097129,
                "name": "Alfa",
                "addr:street": "Sokołowska",
                "addr:housenumber": "47",
                "addr:city": "Siedlce",
                "addr:postcode": "08-110",
                "amenity": "pharmacy",
                "dispensing": "yes"
            },
            "geometry": {
                "type": "Point",
                "coordinates": [
                    22.271516168185926,
                    52.17513395786097
                ]
            }
        },
        {
            "type": "Feature",
            "properties": {
                "ref:csioz": 1096885,
                "name": "Farmacja Choma",
                "addr:street": "3 Maja",
                "addr:housenumber": "1/3",
                "addr:city": "Siedlce",
                "addr:postcode": "08-110",
                "amenity": "pharmacy",
                "dispensing": "yes"
            },
            "geometry": {
                "type": "Point",
                "coordinates": [
                    22.28458100002681,
                    52.163317000016036
                ]
            }
        },
        {
            "type": "Feature",
            "properties": {
                "ref:csioz": 1096899,
                "addr:street": "Biskupa Ignacego Świrskiego",
                "addr:housenumber": "50",
                "addr:city": "Siedlce",
                "addr:postcode": "08-110",
                "amenity": "pharmacy",
                "dispensing": "yes"
            },
            "geometry": {
                "type": "Point",
                "coordinates": [
                    22.275791000026445,
                    52.169755000016046
                ]
            }
        },
        {
            "type": "Feature",
            "properties": {
                "ref:csioz": 1096918,
                "name": "Apteka Rodzinna",
                "addr:street": "Bolesława Chrobrego",
                "addr:housenumber": "17",
                "addr:city": "Siedlce",
                "addr:postcode": "08-110",
                "amenity": "pharmacy",
                "dispensing": "yes"
            },
            "geometry": {
                "type": "Point",
                "coordinates": [
                    22.27352719365672,
                    52.18247075302781
                ]
            }
        },
        {
            "type": "Feature",
            "properties": {
                "ref:csioz": 1096926,
                "name": "Doz Apteka. Dbam O Zdrowie. Floriańska",
                "addr:street": "Floriańska",
                "addr:housenumber": "20",
                "addr:city": "Siedlce",
                "addr:postcode": "08-110",
                "amenity": "pharmacy",
                "dispensing": "yes"
            },
            "geometry": {
                "type": "Point",
                "coordinates": [
                    22.282925689959033,
                    52.164677746784555
                ]
            }
        },
        {
            "type": "Feature",
            "properties": {
                "ref:csioz": 1096947,
                "name": "Forte",
                "addr:street": "Jana Kilińskiego",
                "addr:housenumber": "9",
                "addr:city": "Siedlce",
                "addr:postcode": "08-110",
                "amenity": "pharmacy",
                "dispensing": "yes"
            },
            "geometry": {
                "type": "Point",
                "coordinates": [
                    22.276787766466587,
                    52.1664870609313
                ]
            }
        },
        {
            "type": "Feature",
            "properties": {
                "ref:csioz": 1097005,
                "name": "Dbam O Zdrowie",
                "addr:street": "Księcia Józefa Poniatowskiego",
                "addr:housenumber": "26",
                "addr:city": "Siedlce",
                "addr:postcode": "08-110",
                "amenity": "pharmacy",
                "dispensing": "yes"
            },
            "geometry": {
                "type": "Point",
                "coordinates": [
                    22.291317213539536,
                    52.17747606137523
                ]
            }
        },
        {
            "type": "Feature",
            "properties": {
                "ref:csioz": 1097052,
                "name": "Doz Apteka. Dbam O Zdrowie. Unitów",
                "addr:street": "Unitów Podlaskich",
                "addr:housenumber": "11",
                "addr:city": "Siedlce",
                "addr:postcode": "08-110",
                "amenity": "pharmacy",
                "dispensing": "yes"
            },
            "geometry": {
                "type": "Point",
                "coordinates": [
                    22.245269317154666,
                    52.15604700997006
                ]
            }
        },
        {
            "type": "Feature",
            "properties": {
                "ref:csioz": 1097060,
                "name": "Nad Zalewem",
                "addr:street": "Warszawska",
                "addr:housenumber": "123",
                "addr:city": "Siedlce",
                "addr:postcode": "08-110",
                "amenity": "pharmacy",
                "dispensing": "yes"
            },
            "geometry": {
                "type": "Point",
                "coordinates": [
                    22.239329150158056,
                    52.16875700351875
                ]
            }
        },
        {
            "type": "Feature",
            "properties": {
                "ref:csioz": 1097071,
                "name": "Apteka Słoneczna",
                "addr:street": "Wojskowa",
                "addr:housenumber": "2",
                "addr:city": "Siedlce",
                "addr:postcode": "08-110",
                "amenity": "pharmacy",
                "dispensing": "yes"
            },
            "geometry": {
                "type": "Point",
                "coordinates": [
                    22.27164158133558,
                    52.16816343915476
                ]
            }
        },
        {
            "type": "Feature",
            "properties": {
                "ref:csioz": 1097110,
                "name": "Dr. Optima",
                "addr:street": "Starowiejska",
                "addr:housenumber": "14",
                "addr:city": "Siedlce",
                "addr:postcode": "08-110",
                "amenity": "pharmacy",
                "dispensing": "yes"
            },
            "geometry": {
                "type": "Point",
                "coordinates": [
                    22.285182469823646,
                    52.16812075579304
                ]
            }
        },
        {
            "type": "Feature",
            "properties": {
                "ref:csioz": 1097132,
                "name": "Dbam O Zdrowie",
                "addr:street": "3 Maja",
                "addr:housenumber": "35",
                "addr:city": "Siedlce",
                "addr:postcode": "08-110",
                "amenity": "pharmacy",
                "dispensing": "yes"
            },
            "geometry": {
                "type": "Point",
                "coordinates": [
                    22.277182670902526,
                    52.163593475616956
                ]
            }
        },
        {
            "type": "Feature",
            "properties": {
                "ref:csioz": 1097178,
                "name": "Cosmedica",
                "addr:street": "Młynarska",
                "addr:housenumber": "26A",
                "addr:city": "Siedlce",
                "addr:postcode": "08-110",
                "amenity": "pharmacy",
                "dispensing": "yes"
            },
            "geometry": {
                "type": "Point",
                "coordinates": [
                    22.286400448237217,
                    52.166992493019954
                ]
            }
        },
        {
            "type": "Feature",
            "properties": {
                "ref:csioz": 1097186,
                "name": "Nasze Apteki",
                "addr:street": "Kazimierza Pułaskiego",
                "addr:housenumber": "13",
                "addr:city": "Siedlce",
                "addr:postcode": "08-110",
                "amenity": "pharmacy",
                "dispensing": "yes"
            },
            "geometry": {
                "type": "Point",
                "coordinates": [
                    22.280427732030276,
                    52.167298501294944
                ]
            }
        },
        {
            "type": "Feature",
            "properties": {
                "ref:csioz": 1097193,
                "name": "Apteka Specjalistyczna Centrum",
                "addr:street": "gen. Franciszka Kleeberga",
                "addr:housenumber": "2",
                "addr:city": "Siedlce",
                "addr:postcode": "08-110",
                "amenity": "pharmacy",
                "dispensing": "yes"
            },
            "geometry": {
                "type": "Point",
                "coordinates": [
                    22.29269700002715,
                    52.160621000016036
                ]
            }
        },
        {
            "type": "Feature",
            "properties": {
                "ref:csioz": 1097204,
                "name": "Nasze Apteki",
                "addr:street": "Armii Krajowej",
                "addr:housenumber": "3A",
                "addr:city": "Siedlce",
                "addr:postcode": "08-110",
                "amenity": "pharmacy",
                "dispensing": "yes"
            },
            "geometry": {
                "type": "Point",
                "coordinates": [
                    22.27168817171024,
                    52.16725980741652
                ]
            }
        },
        {
            "type": "Feature",
            "properties": {
                "ref:csioz": 1117657,
                "name": "Apteka Specjalistyczna Centrum",
                "addr:street": "Romanówka",
                "addr:housenumber": "19",
                "addr:city": "Siedlce",
                "addr:postcode": "08-110",
                "amenity": "pharmacy",
                "dispensing": "yes"
            },
            "geometry": {
                "type": "Point",
                "coordinates": [
                    22.241845415988983,
                    52.157410778850675
                ]
            }
        },
        {
            "type": "Feature",
            "properties": {
                "ref:csioz": 1124806,
                "name": "Zespół Chirurgii Jednego Dnia Medica",
                "addr:street": "Brzeska",
                "addr:housenumber": "131",
                "addr:city": "Siedlce",
                "addr:postcode": "08-110",
                "amenity": "pharmacy",
                "dispensing": "yes"
            },
            "geometry": {
                "type": "Point",
                "coordinates": [
                    22.298856000027417,
                    52.154261000016035
                ]
            }
        },
        {
            "type": "Feature",
            "properties": {
                "ref:csioz": 1153329,
                "name": "Apteka Szpitalna",
                "addr:street": "Starowiejska",
                "addr:housenumber": "15",
                "addr:city": "Siedlce",
                "addr:postcode": "08-110",
                "amenity": "pharmacy",
                "dispensing": "yes"
            },
            "geometry": {
                "type": "Point",
                "coordinates": [
                    22.285560916975466,
                    52.168524913970444
                ]
            }
        },
        {
            "type": "Feature",
            "properties": {
                "ref:csioz": 1179869,
                "name": "Ziko",
                "addr:street": "Józefa Piłsudskiego",
                "addr:housenumber": "54",
                "addr:city": "Siedlce",
                "addr:postcode": "08-110",
                "amenity": "pharmacy",
                "dispensing": "yes"
            },
            "geometry": {
                "type": "Point",
                "coordinates": [
                    22.274582484384933,
                    52.16814389392751
                ]
            }
        },
        {
            "type": "Feature",
            "properties": {
                "ref:csioz": 1182150,
                "name": "Hebeapteka",
                "addr:street": "Rynkowa",
                "addr:housenumber": "20",
                "addr:city": "Siedlce",
                "addr:postcode": "08-110",
                "amenity": "pharmacy",
                "dispensing": "yes"
            },
            "geometry": {
                "type": "Point",
                "coordinates": [
                    22.273959085949016,
                    52.175295192968434
                ]
            }
        },
        {
            "type": "Feature",
            "properties": {
                "ref:csioz": 1212069,
                "name": "Rynkowa",
                "addr:street": "Rynkowa",
                "addr:housenumber": "4",
                "addr:city": "Siedlce",
                "addr:postcode": "08-110",
                "amenity": "pharmacy",
                "dispensing": "yes"
            },
            "geometry": {
                "type": "Point",
                "coordinates": [
                    22.277878061188606,
                    52.17442625571193
                ]
            }
        },
        {
            "type": "Feature",
            "properties": {
                "ref:csioz": 1217081,
                "name": "Słoneczna",
                "addr:street": "Rynkowa",
                "addr:housenumber": "17",
                "addr:city": "Siedlce",
                "addr:postcode": "08-110",
                "amenity": "pharmacy",
                "dispensing": "yes"
            },
            "geometry": {
                "type": "Point",
                "coordinates": [
                    22.272824711020526,
                    52.174824342146465
                ]
            }
        },
        {
            "type": "Feature",
            "properties": {
                "ref:csioz": 1097047,
                "name": "\"Lek M. Choma Ceny Hurtowe\"\"\"",
                "addr:street": "Świętojańska",
                "addr:housenumber": "7",
                "addr:city": "Siedlce",
                "addr:postcode": "08-110",
                "amenity": "pharmacy",
                "dispensing": "yes"
            },
            "geometry": {
                "type": "Point",
                "coordinates": [
                    22.270224514091545,
                    52.164824456810855
                ]
            }
        }
    ]
}