{
    "type": "FeatureCollection",
    "name": "JPT_KOD_JE_2471",
    "features": [
        {
            "type": "Feature",
            "properties": {
                "ref:csioz": 1066576,
                "name": "Apteka Zdrowit",
                "addr:street": "Diamentowa",
                "addr:housenumber": "3",
                "addr:city": "Piekary Śląskie",
                "addr:postcode": "41-943",
                "amenity": "pharmacy",
                "dispensing": "yes"
            },
            "geometry": {
                "type": "Point",
                "coordinates": [
                    18.961643222085513,
                    50.3914883444691
                ]
            }
        },
        {
            "type": "Feature",
            "properties": {
                "ref:csioz": 1066666,
                "name": "Gallena",
                "addr:street": "Papieża Jana Pawła II",
                "addr:housenumber": "49",
                "addr:city": "Piekary Śląskie",
                "addr:postcode": "41-943",
                "amenity": "pharmacy",
                "dispensing": "yes"
            },
            "geometry": {
                "type": "Point",
                "coordinates": [
                    18.952044510578848,
                    50.39053300042163
                ]
            }
        },
        {
            "type": "Feature",
            "properties": {
                "ref:csioz": 1066677,
                "name": "Apteka Zdrowit",
                "addr:street": "Piotra Skargi",
                "addr:housenumber": "13",
                "addr:city": "Piekary Śląskie",
                "addr:postcode": "41-940",
                "amenity": "pharmacy",
                "dispensing": "yes"
            },
            "geometry": {
                "type": "Point",
                "coordinates": [
                    18.950681484894996,
                    50.386441431606414
                ]
            }
        },
        {
            "type": "Feature",
            "properties": {
                "ref:csioz": 1073927,
                "name": "Szpital Miejski W Piekarach Śląskich Pod Wezwaniem Św. Łukasza",
                "addr:street": "Szpitalna",
                "addr:housenumber": "11",
                "addr:city": "Piekary Śląskie",
                "addr:postcode": "41-940",
                "amenity": "pharmacy",
                "dispensing": "yes"
            },
            "geometry": {
                "type": "Point",
                "coordinates": [
                    18.952728895966544,
                    50.37472410632943
                ]
            }
        },
        {
            "type": "Feature",
            "properties": {
                "ref:csioz": 1112799,
                "name": "Zakład Opiekuńczo-Leczniczy Prowadzony Przez Zgromadzenie Sióstr Miłosierdzia Św. Karola Boromeusza",
                "addr:street": "ks. Jana Ficka",
                "addr:housenumber": "1",
                "addr:city": "Piekary Śląskie",
                "addr:postcode": "41-940",
                "amenity": "pharmacy",
                "dispensing": "yes"
            },
            "geometry": {
                "type": "Point",
                "coordinates": [
                    18.944782401191965,
                    50.383396506305516
                ]
            }
        },
        {
            "type": "Feature",
            "properties": {
                "ref:csioz": 1066513,
                "name": "Brak",
                "addr:street": "BEDNORZA",
                "addr:housenumber": "9",
                "addr:city": "PIEKARY ŚLĄSKIE",
                "addr:postcode": "41-946",
                "amenity": "pharmacy",
                "dispensing": "yes"
            },
            "geometry": {
                "type": "Point",
                "coordinates": [
                    18.980902090519326,
                    50.346403745939206
                ]
            }
        },
        {
            "type": "Feature",
            "properties": {
                "ref:csioz": 1066690,
                "name": "Apteka Zdrowit",
                "addr:street": "SKŁODOWSKIEJ-CURIE",
                "addr:housenumber": "65A",
                "addr:city": "PIEKARY ŚLĄSKIE",
                "addr:postcode": "41-949",
                "amenity": "pharmacy",
                "dispensing": "yes"
            },
            "geometry": {
                "type": "Point",
                "coordinates": [
                    18.989973999999993,
                    50.36336500001301
                ]
            }
        },
        {
            "type": "Feature",
            "properties": {
                "ref:csioz": 1066703,
                "name": "Melisa",
                "addr:street": "Śląska",
                "addr:housenumber": "3",
                "addr:city": "Piekary Śląskie",
                "addr:postcode": "41-943",
                "amenity": "pharmacy",
                "dispensing": "yes"
            },
            "geometry": {
                "type": "Point",
                "coordinates": [
                    18.960500627400805,
                    50.389594138449105
                ]
            }
        },
        {
            "type": "Feature",
            "properties": {
                "ref:csioz": 1122519,
                "name": "Apteka Słoneczna",
                "addr:street": "Prymasa Stefana Wyszyńskiego",
                "addr:housenumber": "9",
                "addr:city": "Piekary Śląskie",
                "addr:postcode": "41-940",
                "amenity": "pharmacy",
                "dispensing": "yes"
            },
            "geometry": {
                "type": "Point",
                "coordinates": [
                    18.946292999999987,
                    50.373663000013025
                ]
            }
        },
        {
            "type": "Feature",
            "properties": {
                "ref:csioz": 1176656,
                "name": "Ziko Apteka",
                "addr:street": "Andaluzja",
                "addr:housenumber": "9",
                "addr:city": "Piekary Śląskie",
                "addr:postcode": "41-940",
                "amenity": "pharmacy",
                "dispensing": "yes"
            },
            "geometry": {
                "type": "Point",
                "coordinates": [
                    18.980699731113305,
                    50.367376701949645
                ]
            }
        },
        {
            "type": "Feature",
            "properties": {
                "ref:csioz": 1178824,
                "name": "Apteka Zdrowit",
                "addr:street": "Bytomska",
                "addr:housenumber": "77",
                "addr:city": "Piekary Śląskie",
                "addr:postcode": "41-940",
                "amenity": "pharmacy",
                "dispensing": "yes"
            },
            "geometry": {
                "type": "Point",
                "coordinates": [
                    18.943630524738683,
                    50.37507114656142
                ]
            }
        },
        {
            "type": "Feature",
            "properties": {
                "ref:csioz": 1229342,
                "name": "Apteka Przy Bazylice",
                "addr:street": "Bytomska",
                "addr:housenumber": "191",
                "addr:city": "Piekary Śląskie",
                "addr:postcode": "41-940",
                "amenity": "pharmacy",
                "dispensing": "yes"
            },
            "geometry": {
                "type": "Point",
                "coordinates": [
                    18.944172007861404,
                    50.38508891372082
                ]
            }
        },
        {
            "type": "Feature",
            "properties": {
                "ref:csioz": 1066584,
                "name": "Flos",
                "addr:street": "Gen. Stefana Roweckiego",
                "addr:housenumber": "2",
                "addr:city": "Piekary Śląskie",
                "addr:postcode": "41-943",
                "amenity": "pharmacy",
                "dispensing": "yes"
            },
            "geometry": {
                "type": "Point",
                "coordinates": [
                    18.95737412007975,
                    50.39516609159617
                ]
            }
        },
        {
            "type": "Feature",
            "properties": {
                "ref:csioz": 1066592,
                "name": "Centrum - Centrum Tanich Leków",
                "addr:street": "gen. Jerzego Ziętka",
                "addr:housenumber": "30",
                "addr:city": "Piekary Śląskie",
                "addr:postcode": "41-940",
                "amenity": "pharmacy",
                "dispensing": "yes"
            },
            "geometry": {
                "type": "Point",
                "coordinates": [
                    18.94805605683727,
                    50.378496122881536
                ]
            }
        },
        {
            "type": "Feature",
            "properties": {
                "ref:csioz": 1066615,
                "name": "Centrum - Centrum Tanich Leków",
                "addr:street": "Prymasa Stefana Wyszyńskiego",
                "addr:housenumber": "17",
                "addr:city": "Piekary Śląskie",
                "addr:postcode": "41-940",
                "amenity": "pharmacy",
                "dispensing": "yes"
            },
            "geometry": {
                "type": "Point",
                "coordinates": [
                    18.94753799999999,
                    50.37355000001304
                ]
            }
        },
        {
            "type": "Feature",
            "properties": {
                "ref:csioz": 1066631,
                "name": "Flos Ii",
                "addr:street": "księdza Gerarda Waculika",
                "addr:housenumber": "2",
                "addr:city": "Piekary Śląskie",
                "addr:postcode": "41-943",
                "amenity": "pharmacy",
                "dispensing": "yes"
            },
            "geometry": {
                "type": "Point",
                "coordinates": [
                    18.96173134258015,
                    50.394250090238025
                ]
            }
        },
        {
            "type": "Feature",
            "properties": {
                "ref:csioz": 1066545,
                "name": "Dr.Max",
                "addr:street": "Bytomska",
                "addr:housenumber": "41",
                "addr:city": "Piekary Śląskie",
                "addr:postcode": "41-940",
                "amenity": "pharmacy",
                "dispensing": "yes"
            },
            "geometry": {
                "type": "Point",
                "coordinates": [
                    18.943249182927687,
                    50.36982710897545
                ]
            }
        },
        {
            "type": "Feature",
            "properties": {
                "ref:csioz": 1066716,
                "name": "Brak Nazwy",
                "addr:street": "Tarnogórska",
                "addr:housenumber": "38",
                "addr:city": "Piekary Śląskie",
                "addr:postcode": "41-945",
                "amenity": "pharmacy",
                "dispensing": "yes"
            },
            "geometry": {
                "type": "Point",
                "coordinates": [
                    18.94776938309032,
                    50.40998282830543
                ]
            }
        },
        {
            "type": "Feature",
            "properties": {
                "ref:csioz": 1073859,
                "name": "Samodzielny Publiczny Wojewódzki Szpital Chirurgii Urazowej Im. Dr J. Daaba W Piekarach Śląskich",
                "addr:street": "BYTOMSKA",
                "addr:housenumber": "62",
                "addr:city": "PIEKARY ŚLĄSKIE",
                "addr:postcode": "41-940",
                "amenity": "pharmacy",
                "dispensing": "yes"
            },
            "geometry": {
                "type": "Point",
                "coordinates": [
                    18.944392059989468,
                    50.372231349436994
                ]
            }
        },
        {
            "type": "Feature",
            "properties": {
                "ref:csioz": 1190662,
                "name": "Ziko Apteka",
                "addr:street": "Bytomska",
                "addr:housenumber": "71",
                "addr:city": "Piekary Śląskie",
                "addr:postcode": "41-940",
                "amenity": "pharmacy",
                "dispensing": "yes"
            },
            "geometry": {
                "type": "Point",
                "coordinates": [
                    18.943597678890757,
                    50.37445299473695
                ]
            }
        },
        {
            "type": "Feature",
            "properties": {
                "ref:csioz": 1230613,
                "name": "Dział Farmacji Szpitalnej",
                "addr:street": "Inwalidów Wojennych",
                "addr:housenumber": "79",
                "addr:city": "Piekary Śląskie",
                "addr:postcode": "41-945",
                "amenity": "pharmacy",
                "dispensing": "yes"
            },
            "geometry": {
                "type": "Point",
                "coordinates": [
                    18.94297553849744,
                    50.39084584984709
                ]
            }
        }
    ]
}