{
    "type": "FeatureCollection",
    "name": "JPT_KOD_JE_1606",
    "features": [
        {
            "type": "Feature",
            "properties": {
                "ref:csioz": 1162370,
                "addr:housenumber": "62A",
                "addr:postcode": "24-313",
                "amenity": "pharmacy",
                "addr:place": "Wilków"
            },
            "geometry": {
                "type": "Point",
                "coordinates": [
                    17.65456883327245,
                    51.09005393083908
                ]
            }
        },
        {
            "type": "Feature",
            "properties": {
                "ref:csioz": 1106935,
                "name": "Amicus",
                "addr:street": "Strzelecka",
                "addr:housenumber": "3",
                "addr:city": "Domaszowice",
                "addr:postcode": "46-146",
                "amenity": "pharmacy"
            },
            "geometry": {
                "type": "Point",
                "coordinates": [
                    17.88774007843657,
                    51.04336348322222
                ]
            }
        },
        {
            "type": "Feature",
            "properties": {
                "ref:csioz": 1108059,
                "name": "Na Dobre I Na Złe",
                "addr:street": "Krakowska",
                "addr:housenumber": "5",
                "addr:city": "Namysłów",
                "addr:postcode": "46-100",
                "amenity": "pharmacy"
            },
            "geometry": {
                "type": "Point",
                "coordinates": [
                    17.718671519386856,
                    51.07686447705149
                ]
            }
        },
        {
            "type": "Feature",
            "properties": {
                "ref:csioz": 1108068,
                "name": "Apteka Rodzinna",
                "addr:street": "Adama Mickiewicza",
                "addr:housenumber": "8A",
                "addr:city": "Namysłów",
                "addr:postcode": "46-100",
                "amenity": "pharmacy"
            },
            "geometry": {
                "type": "Point",
                "coordinates": [
                    17.72560734797273,
                    51.07263335851366
                ]
            }
        },
        {
            "type": "Feature",
            "properties": {
                "ref:csioz": 1108076,
                "name": "Siloe",
                "addr:street": "Obrońców Pokoju",
                "addr:housenumber": "10",
                "addr:city": "Namysłów",
                "addr:postcode": "46-100",
                "amenity": "pharmacy"
            },
            "geometry": {
                "type": "Point",
                "coordinates": [
                    17.71884209996442,
                    51.07612813288117
                ]
            }
        },
        {
            "type": "Feature",
            "properties": {
                "ref:csioz": 1109139,
                "name": "\"Apteka \"\"Pod Lipami\"\"\"",
                "addr:street": "1 Maja",
                "addr:housenumber": "30A",
                "addr:city": "Pokój",
                "addr:postcode": "46-034",
                "amenity": "pharmacy"
            },
            "geometry": {
                "type": "Point",
                "coordinates": [
                    17.842175999999498,
                    50.90680000001382
                ]
            }
        },
        {
            "type": "Feature",
            "properties": {
                "ref:csioz": 1110120,
                "addr:street": "Długa",
                "addr:housenumber": "4",
                "addr:city": "Wilków",
                "addr:postcode": "46-113",
                "amenity": "pharmacy"
            },
            "geometry": {
                "type": "Point",
                "coordinates": [
                    17.66443487112027,
                    51.102502735151894
                ]
            }
        },
        {
            "type": "Feature",
            "properties": {
                "ref:csioz": 1110157,
                "name": "Apteka Szpitalna Namysłowskiego Centrum Zdrowia Spółka Akcyjna",
                "addr:street": "Oleśnicka",
                "addr:housenumber": "4",
                "addr:city": "Namysłów",
                "addr:postcode": "46-100",
                "amenity": "pharmacy"
            },
            "geometry": {
                "type": "Point",
                "coordinates": [
                    17.708708520419414,
                    51.083163377703514
                ]
            }
        },
        {
            "type": "Feature",
            "properties": {
                "ref:csioz": 1177042,
                "name": "Na Reymonta",
                "addr:street": "Władysława Stanisława Reymonta",
                "addr:housenumber": "1",
                "addr:city": "Namysłów",
                "addr:postcode": "46-100",
                "amenity": "pharmacy"
            },
            "geometry": {
                "type": "Point",
                "coordinates": [
                    17.70732145806047,
                    51.074754150091955
                ]
            }
        },
        {
            "type": "Feature",
            "properties": {
                "ref:csioz": 1215161,
                "name": "Przy Szpitalu",
                "addr:street": "ul. Oleśnicka",
                "addr:housenumber": "4",
                "addr:city": "Namysłów",
                "addr:postcode": "46-100",
                "amenity": "pharmacy"
            },
            "geometry": {
                "type": "Point",
                "coordinates": [
                    17.708708520419414,
                    51.083163377703514
                ]
            }
        },
        {
            "type": "Feature",
            "properties": {
                "ref:csioz": 1108101,
                "name": "Pod Białym Orłem",
                "addr:street": "Rynek",
                "addr:housenumber": "2",
                "addr:city": "Namysłów",
                "addr:postcode": "46-100",
                "amenity": "pharmacy"
            },
            "geometry": {
                "type": "Point",
                "coordinates": [
                    17.717869863649653,
                    51.07696645840656
                ]
            }
        },
        {
            "type": "Feature",
            "properties": {
                "ref:csioz": 1108117,
                "name": "Dr.Max",
                "addr:street": "Sikorskiego",
                "addr:housenumber": "12",
                "addr:city": "Namysłów",
                "addr:postcode": "46-100",
                "amenity": "pharmacy"
            },
            "geometry": {
                "type": "Point",
                "coordinates": [
                    17.722930472049608,
                    51.07769676297381
                ]
            }
        },
        {
            "type": "Feature",
            "properties": {
                "ref:csioz": 1122352,
                "name": "Ośrodek Leczenia Odwykowego W Woskowicach Małych",
                "addr:street": "Pałacowa",
                "addr:housenumber": "15",
                "addr:city": "Woskowice Małe",
                "addr:postcode": "46-100",
                "amenity": "pharmacy"
            },
            "geometry": {
                "type": "Point",
                "coordinates": [
                    17.864707867801776,
                    51.10408199215097
                ]
            }
        },
        {
            "type": "Feature",
            "properties": {
                "ref:csioz": 1220942,
                "name": "Apteka Społeczna Na Bohaterów Warszawy Grupa Nowa Farmacja",
                "addr:street": "Bohaterów Warszawy",
                "addr:housenumber": "17",
                "addr:flats": "B",
                "addr:city": "Namysłów",
                "addr:postcode": "46-100",
                "amenity": "pharmacy"
            },
            "geometry": {
                "type": "Point",
                "coordinates": [
                    17.7254161512492,
                    51.07575787090975
                ]
            }
        },
        {
            "type": "Feature",
            "properties": {
                "ref:csioz": 1228679,
                "name": "Dział Farmacji Szpitalnej W Szpitalu Rehabilitacyjnym W Pokoju",
                "addr:street": "Namysłowska",
                "addr:housenumber": "22",
                "addr:city": "Pokój",
                "addr:postcode": "46-034",
                "amenity": "pharmacy"
            },
            "geometry": {
                "type": "Point",
                "coordinates": [
                    17.836296457526302,
                    50.90674304015718
                ]
            }
        }
    ]
}