{
    "type": "FeatureCollection",
    "name": "JPT_KOD_JE_0805",
    "features": [
        {
            "type": "Feature",
            "properties": {
                "ref:csioz": 1139137,
                "name": "Avena",
                "addr:street": "Kopernika",
                "addr:housenumber": "22b",
                "addr:city": "Ośno Lubuskie",
                "addr:postcode": "69-220",
                "amenity": "pharmacy"
            },
            "geometry": {
                "type": "Point",
                "coordinates": [
                    14.870456691722872,
                    52.45487326968937
                ]
            }
        },
        {
            "type": "Feature",
            "properties": {
                "ref:csioz": 1139289,
                "name": "Aptela Laboratorium Pharmacos Im.J.H.Kowalczewskiego",
                "addr:street": "Jedności Robotniczej",
                "addr:housenumber": "2",
                "addr:city": "Słubice",
                "addr:postcode": "69-100",
                "amenity": "pharmacy"
            },
            "geometry": {
                "type": "Point",
                "coordinates": [
                    14.557851608707763,
                    52.34930152581056
                ]
            }
        },
        {
            "type": "Feature",
            "properties": {
                "ref:csioz": 1139290,
                "addr:street": "Kopernika",
                "addr:housenumber": "23",
                "addr:city": "Słubice",
                "addr:postcode": "69-100",
                "amenity": "pharmacy"
            },
            "geometry": {
                "type": "Point",
                "coordinates": [
                    14.558291556570138,
                    52.35406638909504
                ]
            }
        },
        {
            "type": "Feature",
            "properties": {
                "ref:csioz": 1139304,
                "name": "Millenium",
                "addr:street": "Mickiewicza",
                "addr:housenumber": "5",
                "addr:city": "Słubice",
                "addr:postcode": "69-100",
                "amenity": "pharmacy"
            },
            "geometry": {
                "type": "Point",
                "coordinates": [
                    14.55725499988575,
                    52.34997600001909
                ]
            }
        },
        {
            "type": "Feature",
            "properties": {
                "ref:csioz": 1139312,
                "name": "Nowa",
                "addr:street": "Mickiewicza",
                "addr:housenumber": "21",
                "addr:city": "Słubice",
                "addr:postcode": "69-100",
                "amenity": "pharmacy"
            },
            "geometry": {
                "type": "Point",
                "coordinates": [
                    14.55949615482686,
                    52.35028710929256
                ]
            }
        },
        {
            "type": "Feature",
            "properties": {
                "ref:csioz": 1139320,
                "name": "Apteka Kosmy I Damiana",
                "addr:street": "Przyjaźni",
                "addr:housenumber": "6",
                "addr:city": "Słubice",
                "addr:postcode": "69-100",
                "amenity": "pharmacy"
            },
            "geometry": {
                "type": "Point",
                "coordinates": [
                    14.561813190719178,
                    52.351594864805904
                ]
            }
        },
        {
            "type": "Feature",
            "properties": {
                "ref:csioz": 1139336,
                "name": "Vita",
                "addr:street": "Wrocławska",
                "addr:housenumber": "5j",
                "addr:city": "Słubice",
                "addr:postcode": "69-100",
                "amenity": "pharmacy"
            },
            "geometry": {
                "type": "Point",
                "coordinates": [
                    14.569109064158424,
                    52.34916375417256
                ]
            }
        },
        {
            "type": "Feature",
            "properties": {
                "ref:csioz": 1150666,
                "addr:street": "Kostrzyńska",
                "addr:housenumber": "1",
                "addr:city": "Górzyca",
                "addr:postcode": "69-113",
                "amenity": "pharmacy"
            },
            "geometry": {
                "type": "Point",
                "coordinates": [
                    14.654066829709908,
                    52.494595641149495
                ]
            }
        },
        {
            "type": "Feature",
            "properties": {
                "ref:csioz": 1138845,
                "name": "Tilia",
                "addr:street": "Krośnieńska",
                "addr:housenumber": "26",
                "addr:city": "Cybinka",
                "addr:postcode": "69-220",
                "amenity": "pharmacy"
            },
            "geometry": {
                "type": "Point",
                "coordinates": [
                    14.804385880272985,
                    52.192074965707576
                ]
            }
        },
        {
            "type": "Feature",
            "properties": {
                "ref:csioz": 1138859,
                "addr:street": "Słubicka",
                "addr:housenumber": "5A",
                "addr:city": "Cybinka",
                "addr:postcode": "69-220",
                "amenity": "pharmacy"
            },
            "geometry": {
                "type": "Point",
                "coordinates": [
                    14.797465873946802,
                    52.19433461127234
                ]
            }
        },
        {
            "type": "Feature",
            "properties": {
                "ref:csioz": 1139145,
                "name": "Przy Ratuszu",
                "addr:street": "Rynek",
                "addr:housenumber": "5",
                "addr:city": "Ośno Lubuskie",
                "addr:postcode": "69-220",
                "amenity": "pharmacy"
            },
            "geometry": {
                "type": "Point",
                "coordinates": [
                    14.870562231222491,
                    52.4539628859722
                ]
            }
        },
        {
            "type": "Feature",
            "properties": {
                "ref:csioz": 1139176,
                "name": "Panaceum",
                "addr:street": "Bolesława Chrobrego",
                "addr:housenumber": "29",
                "addr:city": "Rzepin",
                "addr:postcode": "69-110",
                "amenity": "pharmacy"
            },
            "geometry": {
                "type": "Point",
                "coordinates": [
                    14.826690147974636,
                    52.35001369065095
                ]
            }
        },
        {
            "type": "Feature",
            "properties": {
                "ref:csioz": 1139184,
                "name": "Galenika",
                "addr:street": "Słubicka",
                "addr:housenumber": "1A",
                "addr:city": "Rzepin",
                "addr:postcode": "69-110",
                "amenity": "pharmacy"
            },
            "geometry": {
                "type": "Point",
                "coordinates": [
                    14.83322157251282,
                    52.34716329459993
                ]
            }
        },
        {
            "type": "Feature",
            "properties": {
                "ref:csioz": 1139348,
                "name": "\"Apteka 'Dbam O Zdrowie'\"",
                "addr:street": "Adama Asnyka",
                "addr:housenumber": "15A",
                "addr:city": "Słubice",
                "addr:postcode": "69-100",
                "amenity": "pharmacy"
            },
            "geometry": {
                "type": "Point",
                "coordinates": [
                    14.565950615215517,
                    52.349273440010755
                ]
            }
        },
        {
            "type": "Feature",
            "properties": {
                "ref:csioz": 1150941,
                "addr:street": "Nadodrzańska",
                "addr:housenumber": "6",
                "addr:city": "Słubice",
                "addr:postcode": "69-100",
                "amenity": "pharmacy"
            },
            "geometry": {
                "type": "Point",
                "coordinates": [
                    14.556484060759425,
                    52.35150809437054
                ]
            }
        },
        {
            "type": "Feature",
            "properties": {
                "ref:csioz": 1166121,
                "name": "Nowa",
                "addr:street": "Chopina",
                "addr:housenumber": "7",
                "addr:city": "Słubice",
                "addr:postcode": "69-100",
                "amenity": "pharmacy"
            },
            "geometry": {
                "type": "Point",
                "coordinates": [
                    14.559853023500656,
                    52.354923377451016
                ]
            }
        },
        {
            "type": "Feature",
            "properties": {
                "ref:csioz": 1173233,
                "name": "Witaminka",
                "addr:street": "Radowska",
                "addr:housenumber": "24",
                "addr:city": "Kowalów",
                "addr:postcode": "69-110",
                "amenity": "pharmacy"
            },
            "geometry": {
                "type": "Point",
                "coordinates": [
                    14.760998214798306,
                    52.405369984128356
                ]
            }
        },
        {
            "type": "Feature",
            "properties": {
                "ref:csioz": 1176274,
                "name": "Centrum Zdrowia",
                "addr:street": "Przyjaźni",
                "addr:housenumber": "28",
                "addr:city": "Słubice",
                "addr:postcode": "69-100",
                "amenity": "pharmacy"
            },
            "geometry": {
                "type": "Point",
                "coordinates": [
                    14.560266095946359,
                    52.351514600687345
                ]
            }
        },
        {
            "type": "Feature",
            "properties": {
                "ref:csioz": 1185521,
                "name": "Apteka Corax",
                "addr:street": "Kopernika",
                "addr:housenumber": "5",
                "addr:city": "Słubice",
                "addr:postcode": "69-100",
                "amenity": "pharmacy"
            },
            "geometry": {
                "type": "Point",
                "coordinates": [
                    14.55817359948547,
                    52.35080270562283
                ]
            }
        },
        {
            "type": "Feature",
            "properties": {
                "ref:csioz": 1210063,
                "name": "Apteka Jedynka",
                "addr:street": "Przyjaźni",
                "addr:housenumber": "18",
                "addr:city": "Słubice",
                "addr:postcode": "69-100",
                "amenity": "pharmacy"
            },
            "geometry": {
                "type": "Point",
                "coordinates": [
                    14.561250370803814,
                    52.35264764512233
                ]
            }
        },
        {
            "type": "Feature",
            "properties": {
                "ref:csioz": 1215173,
                "name": "Prima",
                "addr:street": "Kościuszki",
                "addr:housenumber": "3a",
                "addr:city": "Słubice",
                "addr:postcode": "69-100",
                "amenity": "pharmacy"
            },
            "geometry": {
                "type": "Point",
                "coordinates": [
                    14.562104221298805,
                    52.348501507871376
                ]
            }
        }
    ]
}