{
    "type": "FeatureCollection",
    "name": "JPT_KOD_JE_0405",
    "features": [
        {
            "type": "Feature",
            "properties": {
                "ref:csioz": 1102836,
                "name": "Mieszczańska",
                "addr:street": "700-lecia",
                "addr:housenumber": "18",
                "addr:flats": "19",
                "addr:city": "Kowalewo Pomorskie",
                "addr:postcode": "87-410",
                "amenity": "pharmacy"
            },
            "geometry": {
                "type": "Point",
                "coordinates": [
                    18.89882388561198,
                    53.15470757402213
                ]
            }
        },
        {
            "type": "Feature",
            "properties": {
                "ref:csioz": 1102848,
                "name": "Kowalewska",
                "addr:street": "Chopina",
                "addr:housenumber": "3",
                "addr:city": "Kowalewo Pomorskie",
                "addr:postcode": "87-410",
                "amenity": "pharmacy"
            },
            "geometry": {
                "type": "Point",
                "coordinates": [
                    18.899360937999223,
                    53.15405106204888
                ]
            }
        },
        {
            "type": "Feature",
            "properties": {
                "ref:csioz": 1103510,
                "name": "Pan Tadeusz",
                "addr:street": "Szosa Rypińska",
                "addr:housenumber": "30A",
                "addr:city": "Golub-Dobrzyń",
                "addr:postcode": "87-400",
                "amenity": "pharmacy"
            },
            "geometry": {
                "type": "Point",
                "coordinates": [
                    19.069368000000022,
                    53.10822200001724
                ]
            }
        },
        {
            "type": "Feature",
            "properties": {
                "ref:csioz": 1105121,
                "addr:housenumber": "86",
                "addr:postcode": "87-423",
                "amenity": "pharmacy",
                "addr:place": "Wrocki"
            },
            "geometry": {
                "type": "Point",
                "coordinates": [
                    19.171888749960328,
                    53.210071041219415
                ]
            }
        },
        {
            "type": "Feature",
            "properties": {
                "ref:csioz": 1102402,
                "addr:street": "Kilińskiego",
                "addr:housenumber": "4",
                "addr:city": "Golub-Dobrzyń",
                "addr:postcode": "87-400",
                "amenity": "pharmacy"
            },
            "geometry": {
                "type": "Point",
                "coordinates": [
                    19.05255098217291,
                    53.110370331336526
                ]
            }
        },
        {
            "type": "Feature",
            "properties": {
                "ref:csioz": 1103704,
                "name": "Apteka Osiedlowa",
                "addr:street": "Marii Konopnickiej",
                "addr:housenumber": "12",
                "addr:city": "Golub-Dobrzyń",
                "addr:postcode": "87-400",
                "amenity": "pharmacy"
            },
            "geometry": {
                "type": "Point",
                "coordinates": [
                    19.054967103838155,
                    53.10399566207453
                ]
            }
        },
        {
            "type": "Feature",
            "properties": {
                "ref:csioz": 1103761,
                "name": "Dobra",
                "addr:street": "Pod Arkadami",
                "addr:housenumber": "4",
                "addr:flats": "6",
                "addr:city": "Golub-Dobrzyń",
                "addr:postcode": "87-400",
                "amenity": "pharmacy"
            },
            "geometry": {
                "type": "Point",
                "coordinates": [
                    19.055958368584676,
                    53.10472514061776
                ]
            }
        },
        {
            "type": "Feature",
            "properties": {
                "ref:csioz": 1153454,
                "name": "Apteka Szpitalna Szpitala Powiatowego Sp. Z O.O. W Golubiu Dobrzyniu",
                "addr:street": "dr. Jerzego Gerarda Koppa",
                "addr:housenumber": "1E",
                "addr:city": "Golub-Dobrzyń",
                "addr:postcode": "87-400",
                "amenity": "pharmacy"
            },
            "geometry": {
                "type": "Point",
                "coordinates": [
                    19.070908699993133,
                    53.10926160539176
                ]
            }
        },
        {
            "type": "Feature",
            "properties": {
                "ref:csioz": 1173673,
                "name": "\"'Punkt Apteczny Ciechocin' \"",
                "addr:housenumber": "176",
                "addr:postcode": "87-408",
                "amenity": "pharmacy",
                "addr:place": "Ciechocin"
            },
            "geometry": {
                "type": "Point",
                "coordinates": [
                    18.92536088385262,
                    53.05672158435875
                ]
            }
        },
        {
            "type": "Feature",
            "properties": {
                "ref:csioz": 1183730,
                "name": "\"'Dobra'\"",
                "addr:street": "Chopina",
                "addr:housenumber": "16",
                "addr:city": "Kowalewo Pomorskie",
                "addr:postcode": "87-410",
                "amenity": "pharmacy"
            },
            "geometry": {
                "type": "Point",
                "coordinates": [
                    18.899994770304655,
                    53.15345606244335
                ]
            }
        },
        {
            "type": "Feature",
            "properties": {
                "ref:csioz": 1206119,
                "name": "Apteka Puls",
                "addr:street": "Marii Konopnickiej",
                "addr:housenumber": "7A",
                "addr:city": "Golub-Dobrzyń",
                "addr:postcode": "87-400",
                "amenity": "pharmacy"
            },
            "geometry": {
                "type": "Point",
                "coordinates": [
                    19.054978207703687,
                    53.105681475212435
                ]
            }
        },
        {
            "type": "Feature",
            "properties": {
                "ref:csioz": 1210788,
                "name": "Przy Medyku",
                "addr:street": "Szosa Rypińska",
                "addr:housenumber": "4",
                "addr:city": "Golub-Dobrzyń",
                "addr:postcode": "87-400",
                "amenity": "pharmacy"
            },
            "geometry": {
                "type": "Point",
                "coordinates": [
                    19.05965379730355,
                    53.10727491726037
                ]
            }
        },
        {
            "type": "Feature",
            "properties": {
                "ref:csioz": 1226120,
                "name": "Avena W Radominie",
                "addr:housenumber": "10",
                "addr:postcode": "87-404",
                "amenity": "pharmacy",
                "addr:place": "Radomin"
            },
            "geometry": {
                "type": "Point",
                "coordinates": [
                    19.195925030314577,
                    53.086637839512285
                ]
            }
        },
        {
            "type": "Feature",
            "properties": {
                "ref:csioz": 1119335,
                "name": "\"Apteka \"\"Mandragora\"\"\"",
                "addr:housenumber": "149",
                "addr:postcode": "87-645",
                "amenity": "pharmacy",
                "addr:place": "Zbójno"
            },
            "geometry": {
                "type": "Point",
                "coordinates": [
                    19.14665114632556,
                    53.00308517664617
                ]
            }
        },
        {
            "type": "Feature",
            "properties": {
                "ref:csioz": 1105373,
                "addr:housenumber": "3",
                "addr:postcode": "87-410",
                "amenity": "pharmacy",
                "addr:place": "Wielkie Rychnowo"
            },
            "geometry": {
                "type": "Point",
                "coordinates": [
                    18.813135548737616,
                    53.14262257570188
                ]
            }
        }
    ]
}