{
    "type": "FeatureCollection",
    "name": "JPT_KOD_JE_1426",
    "features": [
        {
            "type": "Feature",
            "properties": {
                "ref:csioz": 1097691,
                "name": "Forte",
                "addr:street": "Garwolińska",
                "addr:housenumber": "2",
                "addr:city": "Dąbrówka-Ług",
                "addr:postcode": "08-114",
                "amenity": "pharmacy"
            },
            "geometry": {
                "type": "Point",
                "coordinates": [
                    22.14032741676024,
                    52.10942489692546
                ]
            }
        },
        {
            "type": "Feature",
            "properties": {
                "ref:csioz": 1097946,
                "name": "Mgr Farm. Ewa Krasnodębska",
                "addr:housenumber": "18C",
                "addr:postcode": "08-113",
                "amenity": "pharmacy",
                "addr:place": "Domanice-Kolonia"
            },
            "geometry": {
                "type": "Point",
                "coordinates": [
                    22.18433400002343,
                    52.04337100001578
                ]
            }
        },
        {
            "type": "Feature",
            "properties": {
                "ref:csioz": 1098185,
                "name": "Punkt Apteczny Centrum",
                "addr:housenumber": "65",
                "addr:postcode": "08-117",
                "amenity": "pharmacy",
                "addr:place": "Oleśnica"
            },
            "geometry": {
                "type": "Point",
                "coordinates": [
                    21.994827862636228,
                    52.04989550890542
                ]
            }
        },
        {
            "type": "Feature",
            "properties": {
                "ref:csioz": 1117552,
                "name": "\"Apteka I. Karczmarz-Chomka, M. Chomka S. C\"",
                "addr:street": "Dębowa",
                "addr:housenumber": "2",
                "addr:city": "Zbuczyn",
                "addr:postcode": "08-106",
                "amenity": "pharmacy"
            },
            "geometry": {
                "type": "Point",
                "coordinates": [
                    22.441514756512095,
                    52.08868340254629
                ]
            }
        },
        {
            "type": "Feature",
            "properties": {
                "ref:csioz": 1049765,
                "name": "Melisana",
                "addr:housenumber": "1",
                "addr:postcode": "62-652",
                "amenity": "pharmacy",
                "addr:place": "CHODÓW"
            },
            "geometry": {
                "type": "Point",
                "coordinates": [
                    22.234939107089275,
                    52.212000344877005
                ]
            }
        },
        {
            "type": "Feature",
            "properties": {
                "ref:csioz": 1097702,
                "name": "Centrum Zdrowia",
                "addr:street": "Siedlecka",
                "addr:housenumber": "61",
                "addr:city": "Kotuń",
                "addr:postcode": "08-130",
                "amenity": "pharmacy"
            },
            "geometry": {
                "type": "Point",
                "coordinates": [
                    22.06984613180629,
                    52.17783451400214
                ]
            }
        },
        {
            "type": "Feature",
            "properties": {
                "ref:csioz": 1097688,
                "name": "Rafał Serementa",
                "addr:housenumber": "33",
                "addr:postcode": "08-111",
                "amenity": "pharmacy",
                "addr:place": "Krzesk-Królowa Niwa"
            },
            "geometry": {
                "type": "Point",
                "coordinates": [
                    22.615771255578668,
                    52.058046103799384
                ]
            }
        },
        {
            "type": "Feature",
            "properties": {
                "ref:csioz": 1097627,
                "addr:street": "11 Listopada",
                "addr:housenumber": "13",
                "addr:city": "Przesmyki",
                "addr:postcode": "08-109",
                "amenity": "pharmacy"
            },
            "geometry": {
                "type": "Point",
                "coordinates": [
                    22.583157425829064,
                    52.27186045265418
                ]
            }
        },
        {
            "type": "Feature",
            "properties": {
                "ref:csioz": 1097634,
                "name": "Apteka Klimapt",
                "addr:street": "Aleksandry Ogińskiej",
                "addr:housenumber": "15",
                "addr:city": "Suchożebry",
                "addr:postcode": "08-125",
                "amenity": "pharmacy"
            },
            "geometry": {
                "type": "Point",
                "coordinates": [
                    22.253082105792014,
                    52.25988060071797
                ]
            }
        },
        {
            "type": "Feature",
            "properties": {
                "ref:csioz": 1097642,
                "addr:street": "Sanitariuszek",
                "addr:housenumber": "1",
                "addr:city": "Wiśniew",
                "addr:postcode": "08-112",
                "amenity": "pharmacy"
            },
            "geometry": {
                "type": "Point",
                "coordinates": [
                    22.292384507492844,
                    52.07527643773885
                ]
            }
        },
        {
            "type": "Feature",
            "properties": {
                "ref:csioz": 1097675,
                "name": "Passiflora",
                "addr:street": "Cmentarna",
                "addr:housenumber": "4",
                "addr:city": "Mokobody",
                "addr:postcode": "08-124",
                "amenity": "pharmacy"
            },
            "geometry": {
                "type": "Point",
                "coordinates": [
                    22.107472873800884,
                    52.26680426517311
                ]
            }
        },
        {
            "type": "Feature",
            "properties": {
                "ref:csioz": 1170324,
                "addr:housenumber": "19A",
                "addr:postcode": "08-130",
                "amenity": "pharmacy",
                "addr:place": "Żeliszew Podkościelny"
            },
            "geometry": {
                "type": "Point",
                "coordinates": [
                    22.00784649167633,
                    52.138210941553915
                ]
            }
        },
        {
            "type": "Feature",
            "properties": {
                "ref:csioz": 1228024,
                "name": "Punkt Apteczny Bliska",
                "addr:street": "Siedlecka",
                "addr:housenumber": "9",
                "addr:city": "Korczew",
                "addr:postcode": "08-108",
                "amenity": "pharmacy"
            },
            "geometry": {
                "type": "Point",
                "coordinates": [
                    22.611215809793535,
                    52.353182717859646
                ]
            }
        },
        {
            "type": "Feature",
            "properties": {
                "ref:csioz": 1216760,
                "name": "Punkt Apteczny Centrum",
                "addr:street": "Dwernickiego",
                "addr:housenumber": "4",
                "addr:city": "Seroczyn",
                "addr:postcode": "08-116",
                "amenity": "pharmacy"
            },
            "geometry": {
                "type": "Point",
                "coordinates": [
                    21.921571951313723,
                    52.01098590463027
                ]
            }
        },
        {
            "type": "Feature",
            "properties": {
                "ref:csioz": 1226796,
                "name": "Punkt Apteczny Centrum",
                "addr:street": "Siedlecka",
                "addr:housenumber": "70A",
                "addr:city": "Hołubla",
                "addr:postcode": "08-107",
                "amenity": "pharmacy"
            },
            "geometry": {
                "type": "Point",
                "coordinates": [
                    22.426030814302255,
                    52.274248274212795
                ]
            }
        },
        {
            "type": "Feature",
            "properties": {
                "ref:csioz": 1225138,
                "name": "\"Zakład Opiekuńczo-Leczniczy \"\"Centrum\"\"\"",
                "addr:housenumber": "132",
                "addr:postcode": "08-117",
                "amenity": "pharmacy",
                "addr:place": "Oleśnica"
            },
            "geometry": {
                "type": "Point",
                "coordinates": [
                    21.999187701616858,
                    52.05263655516542
                ]
            }
        },
        {
            "type": "Feature",
            "properties": {
                "ref:csioz": 1206711,
                "name": "\"Punkt Apteczny \"\"Przyjazny\"\" Jolanta Kluczek\"",
                "addr:street": "Siedlecka",
                "addr:housenumber": "28",
                "addr:city": "Skórzec",
                "addr:postcode": "08-114",
                "amenity": "pharmacy"
            },
            "geometry": {
                "type": "Point",
                "coordinates": [
                    22.135054830005185,
                    52.108459775211635
                ]
            }
        },
        {
            "type": "Feature",
            "properties": {
                "ref:csioz": 1226360,
                "name": "Słoneczna Agnieszka Staręga-Kozdęba",
                "addr:street": "11 Listopada",
                "addr:housenumber": "28/30",
                "addr:city": "Mordy",
                "addr:postcode": "08-140",
                "amenity": "pharmacy"
            },
            "geometry": {
                "type": "Point",
                "coordinates": [
                    22.521877940582364,
                    52.21083659462742
                ]
            }
        }
    ]
}