{
    "type": "FeatureCollection",
    "name": "JPT_KOD_JE_2407",
    "features": [
        {
            "type": "Feature",
            "properties": {
                "ref:csioz": 1063402,
                "name": "Kalma",
                "addr:street": "Częstochowska",
                "addr:housenumber": "31",
                "addr:city": "Kamienica",
                "addr:postcode": "42-287",
                "amenity": "pharmacy"
            },
            "geometry": {
                "type": "Point",
                "coordinates": [
                    18.993061620479374,
                    50.63460918826462
                ]
            }
        },
        {
            "type": "Feature",
            "properties": {
                "ref:csioz": 1071186,
                "name": "Brak Nazwy",
                "addr:street": "Dworcowa",
                "addr:housenumber": "21",
                "addr:city": "Woźniki",
                "addr:postcode": "42-289",
                "amenity": "pharmacy"
            },
            "geometry": {
                "type": "Point",
                "coordinates": [
                    19.053385530694836,
                    50.58680821521196
                ]
            }
        },
        {
            "type": "Feature",
            "properties": {
                "ref:csioz": 1071193,
                "name": "Brak Nazwy",
                "addr:street": "Tarnogórska",
                "addr:housenumber": "6",
                "addr:city": "Woźniki",
                "addr:postcode": "42-289",
                "amenity": "pharmacy"
            },
            "geometry": {
                "type": "Point",
                "coordinates": [
                    19.058110341925644,
                    50.587194304535494
                ]
            }
        },
        {
            "type": "Feature",
            "properties": {
                "ref:csioz": 1073323,
                "name": "Na Górce",
                "addr:street": "POWSTAŃCÓW ŚLĄSKICH",
                "addr:housenumber": "45A",
                "addr:city": "SADÓW",
                "addr:postcode": "42-700",
                "amenity": "pharmacy"
            },
            "geometry": {
                "type": "Point",
                "coordinates": [
                    18.753446271557706,
                    50.67061899542038
                ]
            }
        },
        {
            "type": "Feature",
            "properties": {
                "ref:csioz": 1074283,
                "name": "Apteka Szpitalna",
                "addr:street": "Grunwaldzka",
                "addr:housenumber": "48",
                "addr:city": "Lubliniec",
                "addr:postcode": "42-700",
                "amenity": "pharmacy"
            },
            "geometry": {
                "type": "Point",
                "coordinates": [
                    18.67964645722637,
                    50.66393928674041
                ]
            }
        },
        {
            "type": "Feature",
            "properties": {
                "ref:csioz": 1074294,
                "name": "Samodzielny Publiczny Zespół Opieki Zdrowotnej W Lublińcu",
                "addr:street": "Grunwaldzka",
                "addr:housenumber": "9",
                "addr:city": "LUBLINIEC",
                "addr:postcode": "42-700",
                "amenity": "pharmacy"
            },
            "geometry": {
                "type": "Point",
                "coordinates": [
                    18.680331577204104,
                    50.665577657042846
                ]
            }
        },
        {
            "type": "Feature",
            "properties": {
                "ref:csioz": 1164140,
                "name": "Na Dworcu",
                "addr:street": "Dworcowa",
                "addr:housenumber": "5",
                "addr:city": "Strzebiń",
                "addr:postcode": "42-288",
                "amenity": "pharmacy"
            },
            "geometry": {
                "type": "Point",
                "coordinates": [
                    18.900642820920122,
                    50.617359454228776
                ]
            }
        },
        {
            "type": "Feature",
            "properties": {
                "ref:csioz": 1185457,
                "name": "Apteka Artfarm",
                "addr:street": "Oleska",
                "addr:housenumber": "20 E",
                "addr:city": "Lubliniec",
                "addr:postcode": "42-700",
                "amenity": "pharmacy"
            },
            "geometry": {
                "type": "Point",
                "coordinates": [
                    18.678176546021415,
                    50.679237287754475
                ]
            }
        },
        {
            "type": "Feature",
            "properties": {
                "ref:csioz": 1211426,
                "name": "Apteka Dla Wszystkich",
                "addr:street": "ul. Lubliniecka",
                "addr:housenumber": "2 D",
                "addr:city": "Kochanowice",
                "addr:postcode": "42-713",
                "amenity": "pharmacy"
            },
            "geometry": {
                "type": "Point",
                "coordinates": [
                    18.75125926779425,
                    50.70760384302196
                ]
            }
        },
        {
            "type": "Feature",
            "properties": {
                "ref:csioz": 1066964,
                "name": "Libra",
                "addr:street": "Główna",
                "addr:housenumber": "44",
                "addr:city": "Psary",
                "addr:postcode": "42-287",
                "amenity": "pharmacy"
            },
            "geometry": {
                "type": "Point",
                "coordinates": [
                    18.96630697642688,
                    50.61227644809625
                ]
            }
        },
        {
            "type": "Feature",
            "properties": {
                "ref:csioz": 1016757,
                "name": "Samodzielny Publiczny Wojewódzki Szpital Chirurgii Uraozwej Im. Dr Janusza Daaba W Piekarach Śląskich",
                "addr:street": "Zamkowa",
                "addr:housenumber": "3",
                "addr:city": "Kochcice",
                "addr:postcode": "42-713",
                "amenity": "pharmacy"
            },
            "geometry": {
                "type": "Point",
                "coordinates": [
                    18.678817084662672,
                    50.71184230793072
                ]
            }
        },
        {
            "type": "Feature",
            "properties": {
                "ref:csioz": 1065005,
                "name": "Brak Nazwy",
                "addr:street": "Ligonia",
                "addr:housenumber": "11D",
                "addr:city": "Koszęcin",
                "addr:postcode": "42-286",
                "amenity": "pharmacy"
            },
            "geometry": {
                "type": "Point",
                "coordinates": [
                    18.84495073702841,
                    50.634308785455694
                ]
            }
        },
        {
            "type": "Feature",
            "properties": {
                "ref:csioz": 1065018,
                "name": "Brak Nazwy",
                "addr:street": "Powstańców Śląskich",
                "addr:housenumber": "14",
                "addr:city": "Koszęcin",
                "addr:postcode": "42-286",
                "amenity": "pharmacy"
            },
            "geometry": {
                "type": "Point",
                "coordinates": [
                    18.841229988551813,
                    50.636623245109405
                ]
            }
        },
        {
            "type": "Feature",
            "properties": {
                "ref:csioz": 1065026,
                "name": "Brak Nazwy",
                "addr:street": "Sobieskiego",
                "addr:housenumber": "8A",
                "addr:city": "Koszęcin",
                "addr:postcode": "42-286",
                "amenity": "pharmacy"
            },
            "geometry": {
                "type": "Point",
                "coordinates": [
                    18.84140799999995,
                    50.6317580000134
                ]
            }
        },
        {
            "type": "Feature",
            "properties": {
                "ref:csioz": 1065363,
                "name": "Apteka Dbam O Zdrowie",
                "addr:street": "CZĘSTOCHOWSKA",
                "addr:housenumber": "17",
                "addr:city": "LUBLINIEC",
                "addr:postcode": "42-700",
                "amenity": "pharmacy"
            },
            "geometry": {
                "type": "Point",
                "coordinates": [
                    18.68417691850509,
                    50.67456063058369
                ]
            }
        },
        {
            "type": "Feature",
            "properties": {
                "ref:csioz": 1065396,
                "name": "Centrum",
                "addr:street": "Miarki",
                "addr:housenumber": "15H",
                "addr:city": "LUBLINIEC",
                "addr:postcode": "42-700",
                "amenity": "pharmacy"
            },
            "geometry": {
                "type": "Point",
                "coordinates": [
                    18.685102879871817,
                    50.669750253138396
                ]
            }
        },
        {
            "type": "Feature",
            "properties": {
                "ref:csioz": 1065400,
                "name": "Brak Nazwy",
                "addr:street": "Lompy",
                "addr:housenumber": "8",
                "addr:city": "Lubliniec",
                "addr:postcode": "42-700",
                "amenity": "pharmacy"
            },
            "geometry": {
                "type": "Point",
                "coordinates": [
                    18.68364649205622,
                    50.66883276053457
                ]
            }
        },
        {
            "type": "Feature",
            "properties": {
                "ref:csioz": 1065413,
                "name": "Brak Nazwy",
                "addr:street": "MICKIEWICZA",
                "addr:housenumber": "17",
                "addr:city": "LUBLINIEC",
                "addr:postcode": "42-700",
                "amenity": "pharmacy"
            },
            "geometry": {
                "type": "Point",
                "coordinates": [
                    18.683072399881986,
                    50.67033773083395
                ]
            }
        },
        {
            "type": "Feature",
            "properties": {
                "ref:csioz": 1065437,
                "name": "Nowa",
                "addr:street": "Plac Konrada Mańki",
                "addr:housenumber": "6",
                "addr:city": "Lubliniec",
                "addr:postcode": "42-700",
                "amenity": "pharmacy"
            },
            "geometry": {
                "type": "Point",
                "coordinates": [
                    18.682093322789992,
                    50.66903079481576
                ]
            }
        },
        {
            "type": "Feature",
            "properties": {
                "ref:csioz": 1065459,
                "name": "Eliksir",
                "addr:street": "Stalmacha",
                "addr:housenumber": "16",
                "addr:city": "Lubliniec",
                "addr:postcode": "42-700",
                "amenity": "pharmacy"
            },
            "geometry": {
                "type": "Point",
                "coordinates": [
                    18.686598336127343,
                    50.66594776291883
                ]
            }
        },
        {
            "type": "Feature",
            "properties": {
                "ref:csioz": 1065468,
                "name": "Apteka Arnika",
                "addr:street": "TARGOWA",
                "addr:housenumber": "4",
                "addr:city": "LUBLINIEC",
                "addr:postcode": "42-700",
                "amenity": "pharmacy"
            },
            "geometry": {
                "type": "Point",
                "coordinates": [
                    18.678461331978877,
                    50.6710483329975
                ]
            }
        },
        {
            "type": "Feature",
            "properties": {
                "ref:csioz": 1118660,
                "name": "Apteka Zdrowit",
                "addr:street": "Karola Miarki",
                "addr:housenumber": "15",
                "addr:flats": "3",
                "addr:city": "Lubliniec",
                "addr:postcode": "42700",
                "amenity": "pharmacy"
            },
            "geometry": {
                "type": "Point",
                "coordinates": [
                    18.685119999999916,
                    50.66971500001346
                ]
            }
        },
        {
            "type": "Feature",
            "properties": {
                "ref:csioz": 1118976,
                "name": "Pod Złotą Wagą",
                "addr:street": "Stalmacha",
                "addr:housenumber": "2",
                "addr:city": "Lubliniec",
                "addr:postcode": "42-700",
                "amenity": "pharmacy"
            },
            "geometry": {
                "type": "Point",
                "coordinates": [
                    18.685463999999907,
                    50.668288000013455
                ]
            }
        },
        {
            "type": "Feature",
            "properties": {
                "ref:csioz": 1186299,
                "name": "Apteka Wdz",
                "addr:street": "Majdanek",
                "addr:housenumber": "5",
                "addr:city": "Lubliniec",
                "addr:postcode": "42-700",
                "amenity": "pharmacy"
            },
            "geometry": {
                "type": "Point",
                "coordinates": [
                    18.68319665302574,
                    50.66441258748618
                ]
            }
        },
        {
            "type": "Feature",
            "properties": {
                "ref:csioz": 1204465,
                "name": "Rodzinny Punkt Apteczny",
                "addr:street": "Powstańców Śląskich",
                "addr:housenumber": "42a",
                "addr:city": "Sadów",
                "addr:postcode": "42-700",
                "amenity": "pharmacy"
            },
            "geometry": {
                "type": "Point",
                "coordinates": [
                    18.755618532161513,
                    50.67100894706661
                ]
            }
        },
        {
            "type": "Feature",
            "properties": {
                "ref:csioz": 1215347,
                "name": "Lekosfera Dga25",
                "addr:street": "ul. Skłodowskiej",
                "addr:housenumber": "3",
                "addr:city": "Lubliniec",
                "addr:postcode": "42-700",
                "amenity": "pharmacy"
            },
            "geometry": {
                "type": "Point",
                "coordinates": [
                    18.673133539450085,
                    50.666712198720916
                ]
            }
        },
        {
            "type": "Feature",
            "properties": {
                "ref:csioz": 1225536,
                "name": "Doz Apteka. Dbam O Zdrowie. Veris Boronów",
                "addr:street": "Wolności",
                "addr:housenumber": "5",
                "addr:city": "Boronów",
                "addr:postcode": "42-283",
                "amenity": "pharmacy"
            },
            "geometry": {
                "type": "Point",
                "coordinates": [
                    18.90956135618468,
                    50.672095528346524
                ]
            }
        },
        {
            "type": "Feature",
            "properties": {
                "ref:csioz": 1227957,
                "addr:street": "Zielona",
                "addr:housenumber": "23",
                "addr:city": "Rusinowice",
                "addr:postcode": "42-700",
                "amenity": "pharmacy"
            },
            "geometry": {
                "type": "Point",
                "coordinates": [
                    18.769953636813117,
                    50.64070643967863
                ]
            }
        },
        {
            "type": "Feature",
            "properties": {
                "ref:csioz": 1059751,
                "name": "Eskulap",
                "addr:street": "Zjednoczenia",
                "addr:housenumber": "9A",
                "addr:city": "Ciasna",
                "addr:postcode": "42-793",
                "amenity": "pharmacy"
            },
            "geometry": {
                "type": "Point",
                "coordinates": [
                    18.61174275803287,
                    50.75463781819172
                ]
            }
        },
        {
            "type": "Feature",
            "properties": {
                "ref:csioz": 1062570,
                "name": "Brak Nazwy",
                "addr:street": "Lubliniecka",
                "addr:housenumber": "43",
                "addr:city": "Herby",
                "addr:postcode": "42-284",
                "amenity": "pharmacy"
            },
            "geometry": {
                "type": "Point",
                "coordinates": [
                    18.880627779192558,
                    50.748094229462986
                ]
            }
        },
        {
            "type": "Feature",
            "properties": {
                "ref:csioz": 1062581,
                "name": "Brak Nazwy",
                "addr:street": "Mickiewicza",
                "addr:housenumber": "21",
                "addr:city": "Herby",
                "addr:postcode": "42-284",
                "amenity": "pharmacy"
            },
            "geometry": {
                "type": "Point",
                "coordinates": [
                    18.88216362414032,
                    50.7521142559146
                ]
            }
        },
        {
            "type": "Feature",
            "properties": {
                "ref:csioz": 1065358,
                "name": "Brak Nazwy",
                "addr:street": "STAWOWA",
                "addr:housenumber": "64",
                "addr:city": "LISÓW",
                "addr:postcode": "42-714",
                "amenity": "pharmacy"
            },
            "geometry": {
                "type": "Point",
                "coordinates": [
                    18.793857340105863,
                    50.72845918035779
                ]
            }
        },
        {
            "type": "Feature",
            "properties": {
                "ref:csioz": 1119752,
                "addr:street": "Oleska",
                "addr:housenumber": "24",
                "addr:city": "Sieraków Śląski",
                "addr:postcode": "42-793",
                "amenity": "pharmacy"
            },
            "geometry": {
                "type": "Point",
                "coordinates": [
                    18.572532808717146,
                    50.80087213908052
                ]
            }
        },
        {
            "type": "Feature",
            "properties": {
                "ref:csioz": 1066473,
                "name": "Vita",
                "addr:street": "Skrzydłowicka",
                "addr:housenumber": "11",
                "addr:city": "Pawonków",
                "addr:postcode": "42-772",
                "amenity": "pharmacy"
            },
            "geometry": {
                "type": "Point",
                "coordinates": [
                    18.576945425979055,
                    50.694449447754636
                ]
            }
        }
    ]
}