{
    "type": "FeatureCollection",
    "name": "JPT_KOD_JE_0611",
    "features": [
        {
            "type": "Feature",
            "properties": {
                "ref:csioz": 1155803,
                "addr:street": "Sienkiewicza",
                "addr:housenumber": "36",
                "addr:city": "Huta Dąbrowa",
                "addr:postcode": "21-470",
                "amenity": "pharmacy"
            },
            "geometry": {
                "type": "Point",
                "coordinates": [
                    22.05008000001955,
                    51.80845200001536
                ]
            }
        },
        {
            "type": "Feature",
            "properties": {
                "ref:csioz": 1106080,
                "name": "Apteka Słoneczna",
                "addr:street": "Szkolna",
                "addr:housenumber": "6A",
                "addr:city": "Stoczek Łukowski",
                "addr:postcode": "21-450",
                "amenity": "pharmacy"
            },
            "geometry": {
                "type": "Point",
                "coordinates": [
                    21.967450372903198,
                    51.96113686333122
                ]
            }
        },
        {
            "type": "Feature",
            "properties": {
                "ref:csioz": 1106612,
                "addr:street": "Kościuszki",
                "addr:housenumber": "3b/1",
                "addr:city": "Okrzeja",
                "addr:postcode": "21-480",
                "amenity": "pharmacy"
            },
            "geometry": {
                "type": "Point",
                "coordinates": [
                    22.085710000020843,
                    51.74150100001525
                ]
            }
        },
        {
            "type": "Feature",
            "properties": {
                "ref:csioz": 1106636,
                "addr:street": "Nadstawna",
                "addr:housenumber": "22",
                "addr:city": "Serokomla",
                "addr:postcode": "21-413",
                "amenity": "pharmacy"
            },
            "geometry": {
                "type": "Point",
                "coordinates": [
                    22.3310444562099,
                    51.7014203613473
                ]
            }
        },
        {
            "type": "Feature",
            "properties": {
                "ref:csioz": 1106699,
                "name": "Pod Klasztorem",
                "addr:housenumber": "48B",
                "addr:city": "Wola Gułowska",
                "addr:postcode": "21-481",
                "amenity": "pharmacy"
            },
            "geometry": {
                "type": "Point",
                "coordinates": [
                    22.21188371686875,
                    51.70053652709594
                ]
            }
        },
        {
            "type": "Feature",
            "properties": {
                "ref:csioz": 1106721,
                "addr:housenumber": "7A",
                "addr:city": "Zembry",
                "addr:postcode": "21-405",
                "amenity": "pharmacy"
            },
            "geometry": {
                "type": "Point",
                "coordinates": [
                    22.51926600003814,
                    52.04251100001607
                ]
            }
        },
        {
            "type": "Feature",
            "properties": {
                "ref:csioz": 1156343,
                "name": "Dbam O Zdrowie",
                "addr:street": "Przemysłowa",
                "addr:housenumber": "22",
                "addr:city": "Łuków",
                "addr:postcode": "21-400",
                "amenity": "pharmacy"
            },
            "geometry": {
                "type": "Point",
                "coordinates": [
                    22.386831000032053,
                    51.93633900001576
                ]
            }
        },
        {
            "type": "Feature",
            "properties": {
                "ref:csioz": 1155610,
                "addr:street": "ks. Stanisława Brzóski",
                "addr:housenumber": "2",
                "addr:city": "Łuków",
                "addr:postcode": "21-400",
                "amenity": "pharmacy"
            },
            "geometry": {
                "type": "Point",
                "coordinates": [
                    22.382660000031876,
                    51.93523700001576
                ]
            }
        },
        {
            "type": "Feature",
            "properties": {
                "ref:csioz": 1155763,
                "addr:street": "Staropijarska",
                "addr:housenumber": "24",
                "addr:city": "Łuków",
                "addr:postcode": "21-400",
                "amenity": "pharmacy"
            },
            "geometry": {
                "type": "Point",
                "coordinates": [
                    22.380011441711165,
                    51.92986990835701
                ]
            }
        },
        {
            "type": "Feature",
            "properties": {
                "ref:csioz": 1155774,
                "name": "Panaceum",
                "addr:street": "11-Listopada",
                "addr:housenumber": "21",
                "addr:city": "Łuków",
                "addr:postcode": "21-400",
                "amenity": "pharmacy"
            },
            "geometry": {
                "type": "Point",
                "coordinates": [
                    22.386585000032056,
                    51.93232000001575
                ]
            }
        },
        {
            "type": "Feature",
            "properties": {
                "ref:csioz": 1155782,
                "name": "Apteka Słoneczna",
                "addr:street": "Dmocha",
                "addr:housenumber": "2",
                "addr:city": "Łuków",
                "addr:postcode": "21-400",
                "amenity": "pharmacy"
            },
            "geometry": {
                "type": "Point",
                "coordinates": [
                    22.382411000031873,
                    51.93154900001576
                ]
            }
        },
        {
            "type": "Feature",
            "properties": {
                "ref:csioz": 1156037,
                "addr:street": "Nowowiejskiego",
                "addr:housenumber": "2",
                "addr:city": "Łuków",
                "addr:postcode": "21-400",
                "amenity": "pharmacy"
            },
            "geometry": {
                "type": "Point",
                "coordinates": [
                    22.376003303575246,
                    51.91715787491963
                ]
            }
        },
        {
            "type": "Feature",
            "properties": {
                "ref:csioz": 1156293,
                "name": "Apteka Specjalistyczna Centrum",
                "addr:street": "Międzyrzecka",
                "addr:housenumber": "66",
                "addr:city": "Łuków",
                "addr:postcode": "21-400",
                "amenity": "pharmacy"
            },
            "geometry": {
                "type": "Point",
                "coordinates": [
                    22.38593827672558,
                    51.93213007372232
                ]
            }
        },
        {
            "type": "Feature",
            "properties": {
                "ref:csioz": 1156491,
                "addr:street": "Piłsudskiego",
                "addr:housenumber": "32",
                "addr:city": "Stoczek Łukowski",
                "addr:postcode": "21-450",
                "amenity": "pharmacy"
            },
            "geometry": {
                "type": "Point",
                "coordinates": [
                    21.973164732219075,
                    51.959220582152454
                ]
            }
        },
        {
            "type": "Feature",
            "properties": {
                "ref:csioz": 1188419,
                "name": "-",
                "addr:street": "Nadstawna",
                "addr:housenumber": "15 A",
                "addr:city": "Serokomla",
                "addr:postcode": "21-413",
                "amenity": "pharmacy"
            },
            "geometry": {
                "type": "Point",
                "coordinates": [
                    22.331415421152965,
                    51.70116555402332
                ]
            }
        },
        {
            "type": "Feature",
            "properties": {
                "ref:csioz": 1189947,
                "name": "Apteka Szpitalna",
                "addr:street": "Doktora Andrzeja Rogalińskiego",
                "addr:housenumber": "3",
                "addr:city": "Łuków",
                "amenity": "pharmacy"
            },
            "geometry": {
                "type": "Point",
                "coordinates": [
                    22.37849093144048,
                    51.924819578112924
                ]
            }
        },
        {
            "type": "Feature",
            "properties": {
                "ref:csioz": 1206820,
                "name": "Centrum",
                "addr:street": "Doktora Andrzeja Rogalińskiego",
                "addr:housenumber": "10",
                "addr:city": "Łuków",
                "addr:postcode": "21-400",
                "amenity": "pharmacy"
            },
            "geometry": {
                "type": "Point",
                "coordinates": [
                    22.378220944507763,
                    51.92471020014517
                ]
            }
        },
        {
            "type": "Feature",
            "properties": {
                "ref:csioz": 1219459,
                "addr:housenumber": "57",
                "addr:city": "Wola Mysłowska",
                "addr:postcode": "21-426",
                "amenity": "pharmacy"
            },
            "geometry": {
                "type": "Point",
                "coordinates": [
                    21.936709420105576,
                    51.84309695138282
                ]
            }
        },
        {
            "type": "Feature",
            "properties": {
                "ref:csioz": 1219468,
                "name": "-",
                "addr:housenumber": "40 A",
                "addr:city": "Wandów",
                "addr:postcode": "21-426",
                "amenity": "pharmacy"
            },
            "geometry": {
                "type": "Point",
                "coordinates": [
                    22.062634000019827,
                    51.857143000015434
                ]
            }
        },
        {
            "type": "Feature",
            "properties": {
                "ref:csioz": 1116239,
                "name": "Tania Apteka",
                "addr:street": "Partyzantów",
                "addr:housenumber": "17",
                "addr:city": "Łuków",
                "addr:postcode": "21-400",
                "amenity": "pharmacy"
            },
            "geometry": {
                "type": "Point",
                "coordinates": [
                    22.380019099005942,
                    51.9228249443919
                ]
            }
        },
        {
            "type": "Feature",
            "properties": {
                "ref:csioz": 1122888,
                "addr:street": "T. Kościuszki",
                "addr:housenumber": "14",
                "addr:city": "Stoczek Łukowski",
                "addr:postcode": "21-450",
                "amenity": "pharmacy"
            },
            "geometry": {
                "type": "Point",
                "coordinates": [
                    21.967661468520788,
                    51.9633258658386
                ]
            }
        },
        {
            "type": "Feature",
            "properties": {
                "ref:csioz": 1155524,
                "name": "Nova",
                "addr:street": "Żelechowska",
                "addr:housenumber": "25A",
                "addr:city": "Krzywda",
                "addr:postcode": "21-470",
                "amenity": "pharmacy"
            },
            "geometry": {
                "type": "Point",
                "coordinates": [
                    22.170517000023608,
                    51.804552000015406
                ]
            }
        },
        {
            "type": "Feature",
            "properties": {
                "ref:csioz": 1155842,
                "name": "Apteka Społeczna",
                "addr:street": "Kościuszki",
                "addr:housenumber": "2A",
                "addr:city": "Łuków",
                "addr:postcode": "21-400",
                "amenity": "pharmacy"
            },
            "geometry": {
                "type": "Point",
                "coordinates": [
                    22.379082000031712,
                    51.93414000001576
                ]
            }
        },
        {
            "type": "Feature",
            "properties": {
                "ref:csioz": 1156174,
                "addr:street": "Kleeberga",
                "addr:housenumber": "38",
                "addr:city": "Adamów",
                "addr:postcode": "21-412",
                "amenity": "pharmacy"
            },
            "geometry": {
                "type": "Point",
                "coordinates": [
                    22.25992608607401,
                    51.7445819027229
                ]
            }
        },
        {
            "type": "Feature",
            "properties": {
                "ref:csioz": 1156324,
                "name": "Centrum",
                "addr:street": "Staropijarska",
                "addr:housenumber": "8B",
                "addr:city": "Łuków",
                "addr:postcode": "21-400",
                "amenity": "pharmacy"
            },
            "geometry": {
                "type": "Point",
                "coordinates": [
                    22.382035000031866,
                    51.92941000001575
                ]
            }
        },
        {
            "type": "Feature",
            "properties": {
                "ref:csioz": 1156397,
                "addr:street": "Wyzwolenia",
                "addr:housenumber": "4",
                "addr:city": "Stoczek Łukowski",
                "addr:postcode": "21-450",
                "amenity": "pharmacy"
            },
            "geometry": {
                "type": "Point",
                "coordinates": [
                    21.97067906954777,
                    51.96160917340947
                ]
            }
        },
        {
            "type": "Feature",
            "properties": {
                "ref:csioz": 1165095,
                "name": "Lukrecja",
                "addr:housenumber": "54 A",
                "addr:city": "Stanin",
                "addr:postcode": "21-422",
                "amenity": "pharmacy"
            },
            "geometry": {
                "type": "Point",
                "coordinates": [
                    22.20315679237301,
                    51.869865136297015
                ]
            }
        },
        {
            "type": "Feature",
            "properties": {
                "ref:csioz": 1170397,
                "name": "Rodzinna",
                "addr:street": "Przemysłowa",
                "addr:housenumber": "22A",
                "addr:flats": "\"5, 6\"",
                "addr:city": "Łuków",
                "addr:postcode": "21-400",
                "amenity": "pharmacy"
            },
            "geometry": {
                "type": "Point",
                "coordinates": [
                    22.386819000032048,
                    51.936358000015765
                ]
            }
        },
        {
            "type": "Feature",
            "properties": {
                "ref:csioz": 1188294,
                "name": "Gemini",
                "addr:street": "Nowopijarska",
                "addr:housenumber": "2",
                "addr:city": "Łuków",
                "addr:postcode": "21-400",
                "amenity": "pharmacy"
            },
            "geometry": {
                "type": "Point",
                "coordinates": [
                    22.383412392995634,
                    51.93037632274424
                ]
            }
        },
        {
            "type": "Feature",
            "properties": {
                "ref:csioz": 1197898,
                "name": "Pogodna",
                "addr:street": "gen. Franciszka Kleeberga",
                "addr:housenumber": "32",
                "addr:city": "Adamów",
                "addr:postcode": "21-412",
                "amenity": "pharmacy"
            },
            "geometry": {
                "type": "Point",
                "coordinates": [
                    22.26091300002728,
                    51.74437700001537
                ]
            }
        },
        {
            "type": "Feature",
            "properties": {
                "ref:csioz": 1207285,
                "name": "Apteka Dyżurna Ifarm",
                "addr:street": "Doktora Andrzeja Rogalińskiego",
                "addr:housenumber": "14",
                "addr:city": "Łuków",
                "addr:postcode": "21-400",
                "amenity": "pharmacy"
            },
            "geometry": {
                "type": "Point",
                "coordinates": [
                    22.37834108904491,
                    51.924394095397645
                ]
            }
        },
        {
            "type": "Feature",
            "properties": {
                "ref:csioz": 1208990,
                "addr:street": "Kolonia Rowiny",
                "addr:housenumber": "5A",
                "addr:city": "Okrzeja",
                "addr:postcode": "21-480",
                "amenity": "pharmacy"
            },
            "geometry": {
                "type": "Point",
                "coordinates": [
                    22.07867397827691,
                    51.74466152824431
                ]
            }
        },
        {
            "type": "Feature",
            "properties": {
                "ref:csioz": 1211748,
                "name": "-",
                "addr:housenumber": "35 A",
                "addr:city": "Gręzówka",
                "addr:postcode": "21-400",
                "amenity": "pharmacy"
            },
            "geometry": {
                "type": "Point",
                "coordinates": [
                    22.29727453039225,
                    51.992444726646866
                ]
            }
        },
        {
            "type": "Feature",
            "properties": {
                "ref:csioz": 1217542,
                "name": "\"'Apteka Doz Dbam O Zdrowie'\"",
                "addr:street": "Tadeusza Kościuszki",
                "addr:housenumber": "46",
                "addr:flats": "1",
                "addr:city": "Łuków",
                "addr:postcode": "21-400",
                "amenity": "pharmacy"
            },
            "geometry": {
                "type": "Point",
                "coordinates": [
                    22.385895727550928,
                    51.93957970676005
                ]
            }
        },
        {
            "type": "Feature",
            "properties": {
                "ref:csioz": 1227092,
                "addr:street": "Łukowska",
                "addr:housenumber": "41",
                "addr:city": "Krzywda",
                "addr:postcode": "21-470",
                "amenity": "pharmacy"
            },
            "geometry": {
                "type": "Point",
                "coordinates": [
                    22.198648586813654,
                    51.79650285641038
                ]
            }
        },
        {
            "type": "Feature",
            "properties": {
                "ref:csioz": 1228709,
                "addr:street": "ks. Wacława Leszkiewicza",
                "addr:housenumber": "2",
                "addr:city": "Jedlanka",
                "addr:postcode": "21-450",
                "amenity": "pharmacy"
            },
            "geometry": {
                "type": "Point",
                "coordinates": [
                    22.111825000021206,
                    51.940846000015576
                ]
            }
        },
        {
            "type": "Feature",
            "properties": {
                "ref:csioz": 1155519,
                "name": "\"Doz Apteka Dbam O Zdrowie \"\"Krystyna\"\"\"",
                "addr:street": "Kościelna",
                "addr:housenumber": "34",
                "addr:city": "Wojcieszków",
                "addr:postcode": "21-411",
                "amenity": "pharmacy"
            },
            "geometry": {
                "type": "Point",
                "coordinates": [
                    22.31407900002943,
                    51.770867000015464
                ]
            }
        },
        {
            "type": "Feature",
            "properties": {
                "ref:csioz": 1155850,
                "name": "\"Apteka \"\"Lek\"\" Mgr Farm. Maria Rycak, Stefan Rycak\"",
                "addr:street": "Wilczyńskiego Franciszka",
                "addr:housenumber": "10 B",
                "addr:city": "Łuków",
                "addr:postcode": "21-400",
                "amenity": "pharmacy"
            },
            "geometry": {
                "type": "Point",
                "coordinates": [
                    22.377701108440462,
                    51.920808510394224
                ]
            }
        }
    ]
}