{
    "type": "FeatureCollection",
    "name": "JPT_KOD_JE_2203",
    "features": [
        {
            "type": "Feature",
            "properties": {
                "ref:csioz": 1028605,
                "name": "Nowa S.C.",
                "addr:street": "Kościuszki",
                "addr:housenumber": "3",
                "addr:flats": "5",
                "addr:city": "Debrzno",
                "addr:postcode": "77-310",
                "amenity": "pharmacy"
            },
            "geometry": {
                "type": "Point",
                "coordinates": [
                    17.23600199999829,
                    53.53733500001796
                ]
            }
        },
        {
            "type": "Feature",
            "properties": {
                "ref:csioz": 1031803,
                "name": "Centrum Zdrowia",
                "addr:street": "Strzelecka",
                "addr:housenumber": "2",
                "addr:city": "Debrzno",
                "addr:postcode": "77-310",
                "amenity": "pharmacy"
            },
            "geometry": {
                "type": "Point",
                "coordinates": [
                    17.238594769214373,
                    53.538232776433865
                ]
            }
        },
        {
            "type": "Feature",
            "properties": {
                "ref:csioz": 1028487,
                "name": "Apteka Maria Maciejewska",
                "addr:street": "Człuchowska",
                "addr:housenumber": "12 A",
                "addr:flats": "11",
                "addr:city": "Przechlewo",
                "addr:postcode": "77-320",
                "amenity": "pharmacy"
            },
            "geometry": {
                "type": "Point",
                "coordinates": [
                    17.252246865046008,
                    53.7995974641569
                ]
            }
        },
        {
            "type": "Feature",
            "properties": {
                "ref:csioz": 1028517,
                "addr:street": "Jana Długosza",
                "addr:housenumber": "29",
                "addr:city": "Człuchów",
                "addr:postcode": "77-300",
                "amenity": "pharmacy"
            },
            "geometry": {
                "type": "Point",
                "coordinates": [
                    17.35730349835951,
                    53.66635080568425
                ]
            }
        },
        {
            "type": "Feature",
            "properties": {
                "ref:csioz": 1029174,
                "name": "Aspirinka",
                "addr:street": "Sobieskiego",
                "addr:housenumber": "5",
                "addr:city": "Człuchów",
                "addr:postcode": "77-300",
                "amenity": "pharmacy"
            },
            "geometry": {
                "type": "Point",
                "coordinates": [
                    17.352422932673402,
                    53.661908457690316
                ]
            }
        },
        {
            "type": "Feature",
            "properties": {
                "ref:csioz": 1118582,
                "name": "Rodzinna",
                "addr:street": "Jana Długosza",
                "addr:housenumber": "5",
                "addr:city": "Człuchów",
                "addr:postcode": "77-300",
                "amenity": "pharmacy"
            },
            "geometry": {
                "type": "Point",
                "coordinates": [
                    17.356920302939653,
                    53.66549781955085
                ]
            }
        },
        {
            "type": "Feature",
            "properties": {
                "ref:csioz": 1139698,
                "name": "Apteka Szpitalna W Samodzielnym Publicznym Zakładzie Opieki Zdrowotnej",
                "addr:street": "Szczecińska",
                "addr:housenumber": "31",
                "addr:city": "Człuchów",
                "addr:postcode": "77-300",
                "amenity": "pharmacy"
            },
            "geometry": {
                "type": "Point",
                "coordinates": [
                    17.354020832753775,
                    53.659400493083965
                ]
            }
        },
        {
            "type": "Feature",
            "properties": {
                "ref:csioz": 1205670,
                "name": "Prima",
                "addr:street": "Jana Długosza",
                "addr:housenumber": "11",
                "addr:city": "Człuchów",
                "addr:postcode": "77-300",
                "amenity": "pharmacy"
            },
            "geometry": {
                "type": "Point",
                "coordinates": [
                    17.357018578196417,
                    53.665708167165384
                ]
            }
        },
        {
            "type": "Feature",
            "properties": {
                "ref:csioz": 1031006,
                "name": "Centrum Zdrowia",
                "addr:street": "Szczecińska",
                "addr:housenumber": "13",
                "addr:city": "Człuchów",
                "addr:postcode": "77-300",
                "amenity": "pharmacy"
            },
            "geometry": {
                "type": "Point",
                "coordinates": [
                    17.3556042377824,
                    53.66171159115194
                ]
            }
        },
        {
            "type": "Feature",
            "properties": {
                "ref:csioz": 1031104,
                "name": "Apteka Dbam O Zdrowie",
                "addr:street": "Sobieskiego",
                "addr:housenumber": "1",
                "addr:city": "Człuchów",
                "addr:postcode": "77-300",
                "amenity": "pharmacy"
            },
            "geometry": {
                "type": "Point",
                "coordinates": [
                    17.354353739133217,
                    53.66145554535739
                ]
            }
        },
        {
            "type": "Feature",
            "properties": {
                "ref:csioz": 1174063,
                "name": "Dr. Max",
                "addr:street": "Królewska",
                "addr:housenumber": "2",
                "addr:city": "Człuchów",
                "addr:postcode": "77-300",
                "amenity": "pharmacy"
            },
            "geometry": {
                "type": "Point",
                "coordinates": [
                    17.358516788953853,
                    53.66648815070458
                ]
            }
        },
        {
            "type": "Feature",
            "properties": {
                "ref:csioz": 1201997,
                "name": "Wracam Do Zdrowia",
                "addr:street": "Wolności",
                "addr:housenumber": "1",
                "addr:city": "Człuchów",
                "addr:postcode": "77-300",
                "amenity": "pharmacy"
            },
            "geometry": {
                "type": "Point",
                "coordinates": [
                    17.357620761442305,
                    53.66729196375167
                ]
            }
        },
        {
            "type": "Feature",
            "properties": {
                "ref:csioz": 1034282,
                "name": "\"Dział Farmacji Szpitalnej W Ośrodku Readaptacji Stowarzyszenia Solidarni \"\"Plus\"\" Eko \"\"Szkoła Życia\"\" Nzoz\"",
                "addr:housenumber": "1",
                "addr:postcode": "77-323",
                "amenity": "pharmacy",
                "addr:place": "Wandzin"
            },
            "geometry": {
                "type": "Point",
                "coordinates": [
                    17.32975355580915,
                    53.74778701672814
                ]
            }
        },
        {
            "type": "Feature",
            "properties": {
                "ref:csioz": 1033123,
                "addr:street": "Zielona",
                "addr:housenumber": "2",
                "addr:city": "Koczała",
                "addr:postcode": "77-220",
                "amenity": "pharmacy"
            },
            "geometry": {
                "type": "Point",
                "coordinates": [
                    17.060963977300123,
                    53.90787630646544
                ]
            }
        },
        {
            "type": "Feature",
            "properties": {
                "ref:csioz": 1217687,
                "name": "Apteka Zakładowa W Zakładzie Leczniczym: Szpital Zakładu Karnego W Czarnem",
                "addr:street": "Pomorska",
                "addr:housenumber": "1",
                "addr:city": "Czarne",
                "addr:postcode": "77-330",
                "amenity": "pharmacy"
            },
            "geometry": {
                "type": "Point",
                "coordinates": [
                    16.91955098136183,
                    53.682185564889174
                ]
            }
        },
        {
            "type": "Feature",
            "properties": {
                "ref:csioz": 1032125,
                "name": "Wracam Do Zdrowia",
                "addr:street": "Wolności",
                "addr:housenumber": "7",
                "addr:city": "Czarne",
                "addr:postcode": "77-330",
                "amenity": "pharmacy"
            },
            "geometry": {
                "type": "Point",
                "coordinates": [
                    16.940260968295714,
                    53.68435551122447
                ]
            }
        },
        {
            "type": "Feature",
            "properties": {
                "ref:csioz": 1033668,
                "name": "Pomorski",
                "addr:street": "Przechlewska",
                "addr:housenumber": "19",
                "addr:city": "Rzeczenica",
                "addr:postcode": "77-304",
                "amenity": "pharmacy"
            },
            "geometry": {
                "type": "Point",
                "coordinates": [
                    17.11266212226952,
                    53.7578275013123
                ]
            }
        },
        {
            "type": "Feature",
            "properties": {
                "ref:csioz": 1211821,
                "name": "Centrum Zdrowia",
                "addr:street": "Wolności",
                "addr:housenumber": "10",
                "addr:city": "Czarne",
                "addr:postcode": "77-330",
                "amenity": "pharmacy"
            },
            "geometry": {
                "type": "Point",
                "coordinates": [
                    16.940822104045154,
                    53.683881079492274
                ]
            }
        }
    ]
}