{
    "type": "FeatureCollection",
    "name": "JPT_KOD_JE_2001",
    "features": [
        {
            "type": "Feature",
            "properties": {
                "ref:csioz": 1015756,
                "addr:housenumber": "54",
                "addr:city": "Nowinka",
                "addr:postcode": "16-304",
                "amenity": "pharmacy"
            },
            "geometry": {
                "type": "Point",
                "coordinates": [
                    22.97932941781636,
                    53.93961091406438
                ]
            }
        },
        {
            "type": "Feature",
            "properties": {
                "ref:csioz": 1016927,
                "name": "Apteki Centrum",
                "addr:street": "Kościelna",
                "addr:housenumber": "2",
                "addr:city": "Lipsk",
                "addr:postcode": "16-315",
                "amenity": "pharmacy"
            },
            "geometry": {
                "type": "Point",
                "coordinates": [
                    23.40328653522434,
                    53.73394141244026
                ]
            }
        },
        {
            "type": "Feature",
            "properties": {
                "ref:csioz": 1017786,
                "name": "\"Apteka Nowa Farmacja \"\"Arkadia\"\"\"",
                "addr:street": "Wierzbna",
                "addr:housenumber": "9",
                "addr:flats": "2",
                "addr:city": "Augustów",
                "addr:postcode": "16-300",
                "amenity": "pharmacy"
            },
            "geometry": {
                "type": "Point",
                "coordinates": [
                    22.978910498339754,
                    53.846054515481626
                ]
            }
        },
        {
            "type": "Feature",
            "properties": {
                "ref:csioz": 1019237,
                "addr:street": "Marii Konopnickiej",
                "addr:housenumber": "12",
                "addr:city": "Augustów",
                "addr:postcode": "16-300",
                "amenity": "pharmacy"
            },
            "geometry": {
                "type": "Point",
                "coordinates": [
                    22.99524808793634,
                    53.849048262972474
                ]
            }
        },
        {
            "type": "Feature",
            "properties": {
                "ref:csioz": 1020641,
                "name": "Apteka W Płaskiej Jolanta Krutul",
                "addr:housenumber": "53D",
                "addr:city": "Płaska",
                "addr:postcode": "16-326",
                "amenity": "pharmacy"
            },
            "geometry": {
                "type": "Point",
                "coordinates": [
                    23.26793161650379,
                    53.90516578578926
                ]
            }
        },
        {
            "type": "Feature",
            "properties": {
                "ref:csioz": 1021703,
                "name": "\"Cef@Rm 36,6\"",
                "addr:street": "Zygmunta Augusta",
                "addr:housenumber": "28",
                "addr:city": "Augustów",
                "addr:postcode": "16-300",
                "amenity": "pharmacy"
            },
            "geometry": {
                "type": "Point",
                "coordinates": [
                    22.977568884478767,
                    53.84498381611645
                ]
            }
        },
        {
            "type": "Feature",
            "properties": {
                "ref:csioz": 1022089,
                "addr:street": "Mostowa",
                "addr:housenumber": "1",
                "addr:city": "Augustów",
                "addr:postcode": "16-300",
                "amenity": "pharmacy"
            },
            "geometry": {
                "type": "Point",
                "coordinates": [
                    22.9804465776611,
                    53.84422924681331
                ]
            }
        },
        {
            "type": "Feature",
            "properties": {
                "ref:csioz": 1023486,
                "name": "Maciej Otto Apteka",
                "addr:street": "Wojska Polskiego",
                "addr:housenumber": "51",
                "addr:city": "Augustów",
                "addr:postcode": "16-300",
                "amenity": "pharmacy"
            },
            "geometry": {
                "type": "Point",
                "coordinates": [
                    22.974255686912965,
                    53.83880991021011
                ]
            }
        },
        {
            "type": "Feature",
            "properties": {
                "ref:csioz": 1024018,
                "addr:street": "Waryńskiego",
                "addr:housenumber": "55",
                "addr:city": "Augustów",
                "addr:postcode": "16-300",
                "amenity": "pharmacy"
            },
            "geometry": {
                "type": "Point",
                "coordinates": [
                    23.001363638537878,
                    53.838512162539494
                ]
            }
        },
        {
            "type": "Feature",
            "properties": {
                "ref:csioz": 1024862,
                "addr:street": "Kopernika",
                "addr:housenumber": "5",
                "addr:city": "Augustów",
                "addr:postcode": "16-300",
                "amenity": "pharmacy"
            },
            "geometry": {
                "type": "Point",
                "coordinates": [
                    22.9701055861042,
                    53.833662058066814
                ]
            }
        },
        {
            "type": "Feature",
            "properties": {
                "ref:csioz": 1024909,
                "addr:street": "Mostowa",
                "addr:housenumber": "12C",
                "addr:city": "Augustów",
                "addr:postcode": "16-300",
                "amenity": "pharmacy"
            },
            "geometry": {
                "type": "Point",
                "coordinates": [
                    22.982447346365237,
                    53.845424006297286
                ]
            }
        },
        {
            "type": "Feature",
            "properties": {
                "ref:csioz": 1024946,
                "name": "Apteka Chaber",
                "addr:street": "Rynek",
                "addr:housenumber": "7A",
                "addr:city": "Lipsk",
                "addr:postcode": "16-315",
                "amenity": "pharmacy"
            },
            "geometry": {
                "type": "Point",
                "coordinates": [
                    23.40634488505336,
                    53.7319690431452
                ]
            }
        },
        {
            "type": "Feature",
            "properties": {
                "ref:csioz": 1118626,
                "addr:street": "I Pułku Ułanów Krechowieckich",
                "addr:housenumber": "17",
                "addr:city": "Augustów",
                "addr:postcode": "16-300",
                "amenity": "pharmacy"
            },
            "geometry": {
                "type": "Point",
                "coordinates": [
                    23.010439024074092,
                    53.857210113180486
                ]
            }
        },
        {
            "type": "Feature",
            "properties": {
                "ref:csioz": 1020966,
                "name": "\"Apteka \"\"Remedium\"\" Spółka Z O. O.\"",
                "addr:street": "Hoża",
                "addr:housenumber": "19",
                "addr:city": "Augustów",
                "addr:postcode": "16-300",
                "amenity": "pharmacy"
            },
            "geometry": {
                "type": "Point",
                "coordinates": [
                    22.985540401405594,
                    53.842444671129385
                ]
            }
        },
        {
            "type": "Feature",
            "properties": {
                "ref:csioz": 1021941,
                "name": "Apteka Św. Brunona",
                "addr:street": "ks. Skorupki",
                "addr:housenumber": "8",
                "addr:city": "Augustów",
                "addr:postcode": "16-300",
                "amenity": "pharmacy"
            },
            "geometry": {
                "type": "Point",
                "coordinates": [
                    22.9807343605251,
                    53.84211026048046
                ]
            }
        },
        {
            "type": "Feature",
            "properties": {
                "ref:csioz": 1022282,
                "name": "Arnica",
                "addr:street": "Hoża",
                "addr:housenumber": "2B",
                "addr:city": "Augustów",
                "addr:postcode": "16-300",
                "amenity": "pharmacy"
            },
            "geometry": {
                "type": "Point",
                "coordinates": [
                    22.982541939083514,
                    53.83930037861385
                ]
            }
        },
        {
            "type": "Feature",
            "properties": {
                "ref:csioz": 1138773,
                "addr:street": "Szpitalna",
                "addr:housenumber": "12",
                "addr:city": "Augustów",
                "addr:postcode": "16-300",
                "amenity": "pharmacy"
            },
            "geometry": {
                "type": "Point",
                "coordinates": [
                    22.993584481830013,
                    53.851296682056024
                ]
            }
        },
        {
            "type": "Feature",
            "properties": {
                "ref:csioz": 1175085,
                "name": "Apteka Nad Jeziorami",
                "addr:street": "3 Maja",
                "addr:housenumber": "17",
                "addr:flats": "1",
                "addr:city": "Augustów",
                "addr:postcode": "16-300",
                "amenity": "pharmacy"
            },
            "geometry": {
                "type": "Point",
                "coordinates": [
                    22.982380808143105,
                    53.843381199161
                ]
            }
        },
        {
            "type": "Feature",
            "properties": {
                "ref:csioz": 1184780,
                "addr:street": "Augustowska",
                "addr:housenumber": "43",
                "addr:city": "Sztabin",
                "addr:postcode": "16-310",
                "amenity": "pharmacy"
            },
            "geometry": {
                "type": "Point",
                "coordinates": [
                    23.096717541942827,
                    53.683411593466715
                ]
            }
        },
        {
            "type": "Feature",
            "properties": {
                "ref:csioz": 1184996,
                "name": "Gemini",
                "addr:street": "Wojska Polskiego",
                "addr:housenumber": "53",
                "addr:city": "Augustów",
                "addr:postcode": "16-300",
                "amenity": "pharmacy"
            },
            "geometry": {
                "type": "Point",
                "coordinates": [
                    22.97330028653794,
                    53.83788386700771
                ]
            }
        },
        {
            "type": "Feature",
            "properties": {
                "ref:csioz": 1190800,
                "name": "Brak Nazwy",
                "addr:street": "Marii Konopnickiej",
                "addr:housenumber": "11",
                "addr:city": "Augustów",
                "addr:postcode": "16-300",
                "amenity": "pharmacy"
            },
            "geometry": {
                "type": "Point",
                "coordinates": [
                    22.995522109506705,
                    53.85087728668711
                ]
            }
        },
        {
            "type": "Feature",
            "properties": {
                "ref:csioz": 1207506,
                "name": "Apteka Chaber",
                "addr:street": "Augustowska",
                "addr:housenumber": "18",
                "addr:city": "Bargłów Kościelny",
                "addr:postcode": "16-320",
                "amenity": "pharmacy"
            },
            "geometry": {
                "type": "Point",
                "coordinates": [
                    22.822836886250897,
                    53.77346078552464
                ]
            }
        },
        {
            "type": "Feature",
            "properties": {
                "ref:csioz": 1214014,
                "name": "Apteka Przy Basenie",
                "addr:street": "mjr. Henryka Sucharskiego",
                "addr:housenumber": "8c",
                "addr:city": "Augustów",
                "addr:postcode": "16-300",
                "amenity": "pharmacy"
            },
            "geometry": {
                "type": "Point",
                "coordinates": [
                    22.99027838074561,
                    53.83699390829888
                ]
            }
        },
        {
            "type": "Feature",
            "properties": {
                "ref:csioz": 1217266,
                "name": "Apteka Dyżurna",
                "addr:street": "Mostowa",
                "addr:housenumber": "2",
                "addr:city": "Augustów",
                "addr:postcode": "16-300",
                "amenity": "pharmacy"
            },
            "geometry": {
                "type": "Point",
                "coordinates": [
                    22.98082176203767,
                    53.84417234589157
                ]
            }
        },
        {
            "type": "Feature",
            "properties": {
                "ref:csioz": 1193082,
                "name": "Melissa",
                "addr:street": "Szpitalna",
                "addr:housenumber": "12",
                "addr:city": "Augustów",
                "addr:postcode": "16-300",
                "amenity": "pharmacy"
            },
            "geometry": {
                "type": "Point",
                "coordinates": [
                    22.993584481830013,
                    53.851296682056024
                ]
            }
        },
        {
            "type": "Feature",
            "properties": {
                "ref:csioz": 1230777,
                "name": "Twoja Apteka Urszula Pieńkosz",
                "addr:street": "Pusta",
                "addr:housenumber": "7",
                "addr:city": "Lipsk",
                "addr:postcode": "16-315",
                "amenity": "pharmacy"
            },
            "geometry": {
                "type": "Point",
                "coordinates": [
                    23.40337681644027,
                    53.73568178602286
                ]
            }
        }
    ]
}