{
    "type": "FeatureCollection",
    "name": "JPT_KOD_JE_2804",
    "features": [
        {
            "type": "Feature",
            "properties": {
                "ref:csioz": 1040417,
                "name": "Verbena",
                "addr:street": "Elbląska",
                "addr:housenumber": "11",
                "addr:city": "GRONOWO ELBLĄSKIE",
                "addr:postcode": "82-335",
                "amenity": "pharmacy"
            },
            "geometry": {
                "type": "Point",
                "coordinates": [
                    19.30903529570103,
                    54.08961429442034
                ]
            }
        },
        {
            "type": "Feature",
            "properties": {
                "ref:csioz": 1014420,
                "name": "Verbena",
                "addr:housenumber": "70",
                "addr:flats": "1",
                "addr:postcode": "82-325",
                "amenity": "pharmacy",
                "addr:place": "MARKUSY"
            },
            "geometry": {
                "type": "Point",
                "coordinates": [
                    19.38467884309375,
                    54.04802773933682
                ]
            }
        },
        {
            "type": "Feature",
            "properties": {
                "ref:csioz": 1014354,
                "addr:housenumber": "62",
                "addr:postcode": "14-407",
                "amenity": "pharmacy",
                "addr:place": "Godkowo"
            },
            "geometry": {
                "type": "Point",
                "coordinates": [
                    19.906300160832117,
                    54.07803056290708
                ]
            }
        },
        {
            "type": "Feature",
            "properties": {
                "ref:csioz": 1014846,
                "addr:street": "Kopernika",
                "addr:housenumber": "24A",
                "addr:city": "PASŁĘK",
                "addr:postcode": "14-400",
                "amenity": "pharmacy"
            },
            "geometry": {
                "type": "Point",
                "coordinates": [
                    19.66484546255603,
                    54.06233368106253
                ]
            }
        },
        {
            "type": "Feature",
            "properties": {
                "ref:csioz": 1016230,
                "addr:street": "Lipowa",
                "addr:housenumber": "4",
                "addr:city": "MILEJEWO",
                "addr:postcode": "82-316",
                "amenity": "pharmacy"
            },
            "geometry": {
                "type": "Point",
                "coordinates": [
                    19.5476531577096,
                    54.21782090831664
                ]
            }
        },
        {
            "type": "Feature",
            "properties": {
                "ref:csioz": 1040737,
                "name": "Azalia",
                "addr:street": "Dworcowa",
                "addr:housenumber": "32B",
                "addr:city": "Młynary",
                "addr:postcode": "14-420",
                "amenity": "pharmacy"
            },
            "geometry": {
                "type": "Point",
                "coordinates": [
                    19.73393945215875,
                    54.186701506656284
                ]
            }
        },
        {
            "type": "Feature",
            "properties": {
                "ref:csioz": 1041021,
                "addr:street": "Ogrodowa",
                "addr:housenumber": "15A",
                "addr:city": "PASŁĘK",
                "addr:postcode": "14-400",
                "amenity": "pharmacy"
            },
            "geometry": {
                "type": "Point",
                "coordinates": [
                    19.6678992268774,
                    54.056813120037575
                ]
            }
        },
        {
            "type": "Feature",
            "properties": {
                "ref:csioz": 1041037,
                "name": "Doz Apteka. Dbam O Zdrowie. Pasłęcka.",
                "addr:street": "Grunwaldzki",
                "addr:housenumber": "6",
                "addr:city": "PASŁĘK",
                "addr:postcode": "14-400",
                "amenity": "pharmacy"
            },
            "geometry": {
                "type": "Point",
                "coordinates": [
                    19.66601144060639,
                    54.058558941750235
                ]
            }
        },
        {
            "type": "Feature",
            "properties": {
                "ref:csioz": 1041059,
                "name": "Verbena",
                "addr:street": "Jagiełły",
                "addr:housenumber": "24",
                "addr:city": "PASŁĘK",
                "addr:postcode": "14-400",
                "amenity": "pharmacy"
            },
            "geometry": {
                "type": "Point",
                "coordinates": [
                    19.659042437601094,
                    54.06324439677073
                ]
            }
        },
        {
            "type": "Feature",
            "properties": {
                "ref:csioz": 1204411,
                "name": "Apteka Przy Szpitalu Anahit",
                "addr:street": "Kopernika",
                "addr:housenumber": "24A",
                "addr:city": "Pasłęk",
                "addr:postcode": "14-400",
                "amenity": "pharmacy"
            },
            "geometry": {
                "type": "Point",
                "coordinates": [
                    19.66484546255603,
                    54.06233368106253
                ]
            }
        },
        {
            "type": "Feature",
            "properties": {
                "ref:csioz": 1041045,
                "name": "Wracam Do Zdrowia",
                "addr:street": "3 Maja",
                "addr:housenumber": "60",
                "addr:city": "Pasłęk",
                "addr:postcode": "14-400",
                "amenity": "pharmacy"
            },
            "geometry": {
                "type": "Point",
                "coordinates": [
                    19.670085199790176,
                    54.05984993754953
                ]
            }
        },
        {
            "type": "Feature",
            "properties": {
                "ref:csioz": 1041068,
                "name": "Doz Apteka. Dbam O Zdrowie. Zamkowa.",
                "addr:street": "Jagiełły",
                "addr:housenumber": "27",
                "addr:city": "PASŁĘK",
                "addr:postcode": "14-400",
                "amenity": "pharmacy"
            },
            "geometry": {
                "type": "Point",
                "coordinates": [
                    19.658018748222815,
                    54.063257025378064
                ]
            }
        },
        {
            "type": "Feature",
            "properties": {
                "ref:csioz": 1041117,
                "name": "Nowa",
                "addr:street": "Świętojańska",
                "addr:housenumber": "21",
                "addr:city": "TOLKMICKO",
                "addr:postcode": "82-340",
                "amenity": "pharmacy"
            },
            "geometry": {
                "type": "Point",
                "coordinates": [
                    19.525922880721534,
                    54.320734192245915
                ]
            }
        },
        {
            "type": "Feature",
            "properties": {
                "ref:csioz": 1205950,
                "addr:housenumber": "119B",
                "addr:postcode": "14-411",
                "amenity": "pharmacy",
                "addr:place": "Rychliki"
            },
            "geometry": {
                "type": "Point",
                "coordinates": [
                    19.52868097618542,
                    53.98447142847669
                ]
            }
        }
    ]
}