{
    "type": "FeatureCollection",
    "name": "JPT_KOD_JE_2261",
    "features": [
        {
            "type": "Feature",
            "properties": {
                "name": "Samodzielny Publiczny Zakład Opieki Zdrowotnej Mswia",
                "website": "http://www.zozmswia.gda.pl",
                "phone": "58 309-82-22",
                "amenity": "hospital",
                "emergency": "yes",
                "healthcare": "hospital"
            },
            "geometry": {
                "type": "Point",
                "coordinates": [
                    18.63611694381426,
                    54.35189764163431
                ]
            }
        },
        {
            "type": "Feature",
            "properties": {
                "name": "Pomorskie Centrum Toksykologii",
                "website": "http://www.pctox.pl",
                "phone": "58 682-04-04",
                "amenity": "hospital",
                "emergency": "yes",
                "healthcare": "hospital"
            },
            "geometry": {
                "type": "Point",
                "coordinates": [
                    18.636444989794047,
                    54.351522842083526
                ]
            }
        },
        {
            "type": "Feature",
            "properties": {
                "name": "Uniwersyteckie Centrum Kliniczne",
                "website": "http://www.uck.gda.pl",
                "phone": "58 727-05-05",
                "amenity": "hospital",
                "emergency": "yes",
                "healthcare": "hospital"
            },
            "geometry": {
                "type": "Point",
                "coordinates": [
                    18.62651972967555,
                    54.36612578631636
                ]
            }
        },
        {
            "type": "Feature",
            "properties": {
                "name": "Szpital Dziecięcy Polanki Sp. Z O.O.",
                "website": "http://www.szpitalpolanki.pl",
                "phone": "58 520-93-03",
                "amenity": "hospital",
                "emergency": "yes",
                "healthcare": "hospital"
            },
            "geometry": {
                "type": "Point",
                "coordinates": [
                    18.565216628402148,
                    54.39544774047625
                ]
            }
        },
        {
            "type": "Feature",
            "properties": {
                "name": "Copernicus Podmiot Leczniczy Sp. Z O.O.",
                "website": "http://www.copernicus.gda.pl",
                "phone": "58 764-01-00",
                "amenity": "hospital",
                "emergency": "yes",
                "healthcare": "hospital"
            },
            "geometry": {
                "type": "Point",
                "coordinates": [
                    18.638681805780347,
                    54.35127783458996
                ]
            }
        },
        {
            "type": "Feature",
            "properties": {
                "name": "7 Szpital Marynarki Wojennej Z Przychodnią Spzoz",
                "website": "http://www.7szmw.pl",
                "phone": "58 552-63-26",
                "amenity": "hospital",
                "emergency": "yes",
                "healthcare": "hospital"
            },
            "geometry": {
                "type": "Point",
                "coordinates": [
                    18.566667711564925,
                    54.393422990118744
                ]
            }
        }
    ]
}